{
"type": "FeatureCollection",
"name": "USGS_02419625_UM_12km",
"crs": { "type": "name", "properties": { "name": "urn:ogc:def:crs:OGC:1.3:CRS84" } },
"features": [
{ "type": "Feature", "properties": { "site_no": "02419625", "nhdplus_comid": "21715374", "navigation_mode": "UM", "requested_distance_km": 12.0, "start_source": "nwissite", "start_id": "USGS-02419625", "geometry_length_km": 0.034446756916817686 }, "geometry": { "type": "LineString", "coordinates": [ [ -85.827222906, 32.3791795 ], [ -85.827411704, 32.379431695 ], [ -85.827421606, 32.379439049 ] ] } },
{ "type": "Feature", "properties": { "site_no": "02419625", "nhdplus_comid": "21715396", "navigation_mode": "UM", "requested_distance_km": 12.0, "start_source": "nwissite", "start_id": "USGS-02419625", "geometry_length_km": 0.68136481256501735 }, "geometry": { "type": "LineString", "coordinates": [ [ -85.821986303, 32.377390295 ], [ -85.822120801, 32.378054693 ], [ -85.822336607, 32.378375597 ], [ -85.823011406, 32.378696695 ], [ -85.823416106, 32.379086293 ], [ -85.824064001, 32.379246995 ], [ -85.824225903, 32.3794991 ], [ -85.824468702, 32.379590794 ], [ -85.824792802, 32.3795681 ], [ -85.825198106, 32.378903799 ], [ -85.825603105, 32.378903896 ], [ -85.826008007, 32.379087396 ], [ -85.826872006, 32.378996097 ], [ -85.827222906, 32.3791795 ] ] } },
{ "type": "Feature", "properties": { "site_no": "02419625", "nhdplus_comid": "21715412", "navigation_mode": "UM", "requested_distance_km": 12.0, "start_source": "nwissite", "start_id": "USGS-02419625", "geometry_length_km": 1.8797649976932802 }, "geometry": { "type": "LineString", "coordinates": [ [ -85.810838006, 32.374704294 ], [ -85.811351106, 32.374589995 ], [ -85.8128094, 32.373903498 ], [ -85.813646607, 32.373537295 ], [ -85.813835606, 32.373560399 ], [ -85.8141324, 32.373743795 ], [ -85.814131901, 32.374385297 ], [ -85.813699506, 32.375118196 ], [ -85.813725904, 32.375988796 ], [ -85.8142386, 32.376263998 ], [ -85.814616606, 32.376195498 ], [ -85.814913705, 32.3760124 ], [ -85.815211304, 32.375141896 ], [ -85.8155085, 32.374867097 ], [ -85.815724507, 32.374775596 ], [ -85.8161024, 32.374798596 ], [ -85.816534303, 32.375005096 ], [ -85.816966206, 32.374959499 ], [ -85.8175603, 32.374845199 ], [ -85.817803204, 32.374868296 ], [ -85.818127103, 32.375120394 ], [ -85.818396606, 32.375739098 ], [ -85.818018407, 32.376128495 ], [ -85.817991301, 32.376311697 ], [ -85.818099201, 32.376449198 ], [ -85.819368102, 32.376380995 ], [ -85.819611005, 32.376541398 ], [ -85.819691807, 32.376701899 ], [ -85.820663907, 32.376564898 ], [ -85.820879802, 32.376656599 ], [ -85.821122602, 32.376977496 ], [ -85.821311705, 32.376908898 ], [ -85.821473807, 32.376519494 ], [ -85.821663007, 32.376336195 ], [ -85.821851902, 32.3762905 ], [ -85.821986906, 32.376405098 ], [ -85.822013803, 32.376588494 ], [ -85.822094701, 32.3766343 ], [ -85.821986303, 32.377390295 ] ] } },
{ "type": "Feature", "properties": { "site_no": "02419625", "nhdplus_comid": "21715422", "navigation_mode": "UM", "requested_distance_km": 12.0, "start_source": "nwissite", "start_id": "USGS-02419625", "geometry_length_km": 0.24301922601891457 }, "geometry": { "type": "LineString", "coordinates": [ [ -85.811190501, 32.3727571 ], [ -85.811271302, 32.372848794 ], [ -85.811271101, 32.373284094 ], [ -85.810784504, 32.374016896 ], [ -85.810676105, 32.374658398 ], [ -85.810838006, 32.374704294 ] ] } },
{ "type": "Feature", "properties": { "site_no": "02419625", "nhdplus_comid": "21715454", "navigation_mode": "UM", "requested_distance_km": 12.0, "start_source": "nwissite", "start_id": "USGS-02419625", "geometry_length_km": 0.75093636582169154 }, "geometry": { "type": "LineString", "coordinates": [ [ -85.808143601, 32.367737994 ], [ -85.808359705, 32.367600694 ], [ -85.808629602, 32.367600799 ], [ -85.808818303, 32.367944598 ], [ -85.808710001, 32.368517198 ], [ -85.8086017, 32.368746296 ], [ -85.808601506, 32.369021297 ], [ -85.808709502, 32.369089998 ], [ -85.809303306, 32.369136199 ], [ -85.809654102, 32.369342595 ], [ -85.809762001, 32.369548798 ], [ -85.809761301, 32.370419398 ], [ -85.810624503, 32.371359296 ], [ -85.810705304, 32.371611297 ], [ -85.810732007, 32.372046597 ], [ -85.8108669, 32.372229896 ], [ -85.811217606, 32.372596696 ], [ -85.811190501, 32.3727571 ] ] } },
{ "type": "Feature", "properties": { "site_no": "02419625", "nhdplus_comid": "21715458", "navigation_mode": "UM", "requested_distance_km": 12.0, "start_source": "nwissite", "start_id": "USGS-02419625", "geometry_length_km": 0.75890858946814266 }, "geometry": { "type": "LineString", "coordinates": [ [ -85.802906901, 32.367322594 ], [ -85.802933805, 32.367460199 ], [ -85.804256506, 32.367552593 ], [ -85.805201404, 32.367438599 ], [ -85.805633001, 32.367759593 ], [ -85.805659607, 32.368309394 ], [ -85.805821404, 32.368584499 ], [ -85.806307301, 32.368607596 ], [ -85.807063207, 32.368562296 ], [ -85.807010002, 32.367439598 ], [ -85.8071182, 32.367279299 ], [ -85.8073612, 32.367210694 ], [ -85.808143601, 32.367737994 ] ] } },
{ "type": "Feature", "properties": { "site_no": "02419625", "nhdplus_comid": "21715476", "navigation_mode": "UM", "requested_distance_km": 12.0, "start_source": "nwissite", "start_id": "USGS-02419625", "geometry_length_km": 1.5387508562230141 }, "geometry": { "type": "LineString", "coordinates": [ [ -85.790625006, 32.366512895 ], [ -85.7908407, 32.366719194 ], [ -85.791812405, 32.366811499 ], [ -85.792271003, 32.367132597 ], [ -85.792324401, 32.367796995 ], [ -85.792729303, 32.3677973 ], [ -85.793242507, 32.367499895 ], [ -85.793593407, 32.367477193 ], [ -85.793998405, 32.367591999 ], [ -85.794349201, 32.367592297 ], [ -85.794538304, 32.3675007 ], [ -85.794700906, 32.366859399 ], [ -85.795079, 32.366630495 ], [ -85.795700006, 32.3665163 ], [ -85.798804201, 32.366724394 ], [ -85.8001002, 32.366473295 ], [ -85.800991006, 32.3665426 ], [ -85.801612005, 32.366267994 ], [ -85.801908903, 32.366336897 ], [ -85.802584, 32.366108194 ], [ -85.803177804, 32.366200194 ], [ -85.803555503, 32.366406597 ], [ -85.803474307, 32.366773196 ], [ -85.802961104, 32.367116496 ], [ -85.802906901, 32.367322594 ] ] } }
]
}
