{
"type": "FeatureCollection",
"name": "USGS_02363000_DM_12km",
"crs": { "type": "name", "properties": { "name": "urn:ogc:def:crs:OGC:1.3:CRS84" } },
"features": [
{ "type": "Feature", "properties": { "site_no": "02363000", "nhdplus_comid": "2210130", "navigation_mode": "DM", "requested_distance_km": 12.0, "start_source": "nwissite", "start_id": "USGS-02363000", "geometry_length_km": 0.62602962486950053 }, "geometry": { "type": "LineString", "coordinates": [ [ -85.783271313, 31.595059716 ], [ -85.783499807, 31.594761997 ], [ -85.785295404, 31.592838496 ], [ -85.786259606, 31.592266396 ], [ -85.786688305, 31.591831297 ], [ -85.787144102, 31.591144197 ], [ -85.7871712, 31.590685993 ] ] } },
{ "type": "Feature", "properties": { "site_no": "02363000", "nhdplus_comid": "2210148", "navigation_mode": "DM", "requested_distance_km": 12.0, "start_source": "nwissite", "start_id": "USGS-02363000", "geometry_length_km": 0.21188283774173519 }, "geometry": { "type": "LineString", "coordinates": [ [ -85.7871712, 31.590685993 ], [ -85.787091404, 31.590135999 ], [ -85.786530301, 31.589127399 ], [ -85.786477007, 31.588898294 ] ] } },
{ "type": "Feature", "properties": { "site_no": "02363000", "nhdplus_comid": "2210158", "navigation_mode": "DM", "requested_distance_km": 12.0, "start_source": "nwissite", "start_id": "USGS-02363000", "geometry_length_km": 0.63780568425449935 }, "geometry": { "type": "LineString", "coordinates": [ [ -85.786477007, 31.588898294 ], [ -85.786745206, 31.588302694 ], [ -85.787146904, 31.588027999 ], [ -85.787602104, 31.587936699 ], [ -85.7881907, 31.588257797 ], [ -85.7886189, 31.588303998 ], [ -85.788806401, 31.588235393 ], [ -85.789985403, 31.586929999 ], [ -85.790146701, 31.586173996 ], [ -85.790468104, 31.585922197 ], [ -85.790655702, 31.585624494 ] ] } },
{ "type": "Feature", "properties": { "site_no": "02363000", "nhdplus_comid": "2210168", "navigation_mode": "DM", "requested_distance_km": 12.0, "start_source": "nwissite", "start_id": "USGS-02363000", "geometry_length_km": 0.76415307962420476 }, "geometry": { "type": "LineString", "coordinates": [ [ -85.790655702, 31.585624494 ], [ -85.791324906, 31.585533299 ], [ -85.791780002, 31.585579395 ], [ -85.792315401, 31.585579798 ], [ -85.792904407, 31.5854197 ], [ -85.793198906, 31.585259594 ], [ -85.793306202, 31.585053399 ], [ -85.793333307, 31.584640995 ], [ -85.792851903, 31.584182397 ], [ -85.792878807, 31.584022097 ], [ -85.7930663, 31.583861798 ], [ -85.793869704, 31.583449796 ], [ -85.793816701, 31.5828311 ], [ -85.793576002, 31.582578897 ], [ -85.7923989, 31.581844993 ] ] } },
{ "type": "Feature", "properties": { "site_no": "02363000", "nhdplus_comid": "2210182", "navigation_mode": "DM", "requested_distance_km": 12.0, "start_source": "nwissite", "start_id": "USGS-02363000", "geometry_length_km": 0.57982553590469688 }, "geometry": { "type": "LineString", "coordinates": [ [ -85.7923989, 31.581844993 ], [ -85.792506501, 31.581340894 ], [ -85.7938722, 31.580562696 ], [ -85.794327602, 31.580127597 ], [ -85.794863403, 31.579509296 ], [ -85.795319207, 31.578593098 ], [ -85.795828201, 31.578020595 ], [ -85.796096005, 31.577951998 ] ] } },
{ "type": "Feature", "properties": { "site_no": "02363000", "nhdplus_comid": "2210198", "navigation_mode": "DM", "requested_distance_km": 12.0, "start_source": "nwissite", "start_id": "USGS-02363000", "geometry_length_km": 0.86446101997601021 }, "geometry": { "type": "LineString", "coordinates": [ [ -85.796096005, 31.577951998 ], [ -85.796203107, 31.577883296 ], [ -85.797300905, 31.577448599 ], [ -85.798372105, 31.576578595 ], [ -85.798988007, 31.576212294 ], [ -85.799818002, 31.575891994 ], [ -85.800701305, 31.575846694 ], [ -85.801236302, 31.576098993 ], [ -85.802547701, 31.5761685 ], [ -85.803189702, 31.576695897 ], [ -85.803537503, 31.576764897 ], [ -85.804126404, 31.576719396 ] ] } },
{ "type": "Feature", "properties": { "site_no": "02363000", "nhdplus_comid": "2210200", "navigation_mode": "DM", "requested_distance_km": 12.0, "start_source": "nwissite", "start_id": "USGS-02363000", "geometry_length_km": 0.15326398066802221 }, "geometry": { "type": "LineString", "coordinates": [ [ -85.804126404, 31.576719396 ], [ -85.804153301, 31.576559 ], [ -85.804181106, 31.5753446 ] ] } },
{ "type": "Feature", "properties": { "site_no": "02363000", "nhdplus_comid": "2210242", "navigation_mode": "DM", "requested_distance_km": 12.0, "start_source": "nwissite", "start_id": "USGS-02363000", "geometry_length_km": 3.2129058958661156 }, "geometry": { "type": "LineString", "coordinates": [ [ -85.804181106, 31.5753446 ], [ -85.804288201, 31.575184196 ], [ -85.804877102, 31.575001299 ], [ -85.805091403, 31.574818097 ], [ -85.805279307, 31.573924594 ], [ -85.805707701, 31.573695697 ], [ -85.806136303, 31.573306397 ], [ -85.807422504, 31.571244895 ], [ -85.807958007, 31.570878498 ], [ -85.808332704, 31.570832893 ], [ -85.808867507, 31.571451895 ], [ -85.809108302, 31.571543597 ], [ -85.809536502, 31.571543895 ], [ -85.810393102, 31.571315095 ], [ -85.8115981, 31.570330493 ], [ -85.811946101, 31.570239 ], [ -85.812106602, 31.570353597 ], [ -85.812267005, 31.570628598 ], [ -85.8123734, 31.571407795 ], [ -85.812614202, 31.5716829 ], [ -85.8129353, 31.571637198 ], [ -85.813551307, 31.570972994 ], [ -85.813792504, 31.570583597 ], [ -85.813766107, 31.570125297 ], [ -85.812829502, 31.569849893 ], [ -85.812802903, 31.569529094 ], [ -85.813686602, 31.568750396 ], [ -85.813767307, 31.568338096 ], [ -85.813901201, 31.568154797 ], [ -85.8146239, 31.567742698 ], [ -85.814731106, 31.567444794 ], [ -85.814972103, 31.567284495 ], [ -85.816229902, 31.567285195 ], [ -85.816524506, 31.567010298 ], [ -85.816899501, 31.5663919 ], [ -85.817488506, 31.566048399 ], [ -85.817729406, 31.5660256 ], [ -85.818291306, 31.5662551 ], [ -85.818719506, 31.5662781 ], [ -85.818906903, 31.566140793 ], [ -85.818960704, 31.565728299 ], [ -85.818773404, 31.565567799 ], [ -85.818773605, 31.565269895 ], [ -85.819550104, 31.564674497 ], [ -85.819577307, 31.563872494 ], [ -85.819738105, 31.563505895 ], [ -85.820915602, 31.563529395 ], [ -85.8211831, 31.5634837 ], [ -85.821370602, 31.563346297 ], [ -85.8215582, 31.562979698 ], [ -85.821853004, 31.562292494 ], [ -85.822174303, 31.561994694 ], [ -85.822843306, 31.561949193 ], [ -85.8232712, 31.562270194 ] ] } },
{ "type": "Feature", "properties": { "site_no": "02363000", "nhdplus_comid": "2210250", "navigation_mode": "DM", "requested_distance_km": 12.0, "start_source": "nwissite", "start_id": "USGS-02363000", "geometry_length_km": 0.49095448856813262 }, "geometry": { "type": "LineString", "coordinates": [ [ -85.8232712, 31.562270194 ], [ -85.823726207, 31.562361993 ], [ -85.823886804, 31.562293194 ], [ -85.823833607, 31.561376698 ], [ -85.825412907, 31.560598195 ], [ -85.825546704, 31.560460895 ], [ -85.825547002, 31.560094297 ], [ -85.825092301, 31.559704497 ], [ -85.825092502, 31.559406593 ] ] } },
{ "type": "Feature", "properties": { "site_no": "02363000", "nhdplus_comid": "2210260", "navigation_mode": "DM", "requested_distance_km": 12.0, "start_source": "nwissite", "start_id": "USGS-02363000", "geometry_length_km": 0.095988674498045198 }, "geometry": { "type": "LineString", "coordinates": [ [ -85.825092502, 31.559406593 ], [ -85.825333506, 31.559040099 ], [ -85.825761802, 31.5587883 ] ] } },
{ "type": "Feature", "properties": { "site_no": "02363000", "nhdplus_comid": "2210262", "navigation_mode": "DM", "requested_distance_km": 12.0, "start_source": "nwissite", "start_id": "USGS-02363000", "geometry_length_km": 0.2099426885212175 }, "geometry": { "type": "LineString", "coordinates": [ [ -85.825761802, 31.5587883 ], [ -85.826163106, 31.5589488 ], [ -85.826484002, 31.559361398 ], [ -85.826831803, 31.559521899 ], [ -85.8276079, 31.559361793 ] ] } },
{ "type": "Feature", "properties": { "site_no": "02363000", "nhdplus_comid": "2210278", "navigation_mode": "DM", "requested_distance_km": 12.0, "start_source": "nwissite", "start_id": "USGS-02363000", "geometry_length_km": 0.48086696382124011 }, "geometry": { "type": "LineString", "coordinates": [ [ -85.8276079, 31.559361793 ], [ -85.828063101, 31.558720395 ], [ -85.828090206, 31.558193296 ], [ -85.827823207, 31.556910098 ], [ -85.827930406, 31.556681 ], [ -85.828224905, 31.556451894 ], [ -85.8288939, 31.556177199 ], [ -85.829135001, 31.5556961 ] ] } },
{ "type": "Feature", "properties": { "site_no": "02363000", "nhdplus_comid": "2210320", "navigation_mode": "DM", "requested_distance_km": 12.0, "start_source": "nwissite", "start_id": "USGS-02363000", "geometry_length_km": 2.0845839256785288 }, "geometry": { "type": "LineString", "coordinates": [ [ -85.829135001, 31.5556961 ], [ -85.828118205, 31.555581197 ], [ -85.828064702, 31.5554666 ], [ -85.828198604, 31.555145897 ], [ -85.828680702, 31.554481499 ], [ -85.830795705, 31.552122094 ], [ -85.830822602, 31.551824294 ], [ -85.830608703, 31.551640898 ], [ -85.829806, 31.551525995 ], [ -85.829565205, 31.551388495 ], [ -85.829538502, 31.5511363 ], [ -85.830127701, 31.550036795 ], [ -85.830984406, 31.549051799 ], [ -85.832162507, 31.547241993 ], [ -85.832697906, 31.546715096 ], [ -85.833608203, 31.545294799 ], [ -85.833555102, 31.544355199 ], [ -85.833154105, 31.543690696 ], [ -85.833100803, 31.543094799 ], [ -85.833261602, 31.542728297 ], [ -85.833448902, 31.542499296 ], [ -85.834680103, 31.541422695 ], [ -85.834921107, 31.541147798 ], [ -85.835001402, 31.540872894 ] ] } },
{ "type": "Feature", "properties": { "site_no": "02363000", "nhdplus_comid": "2210326", "navigation_mode": "DM", "requested_distance_km": 12.0, "start_source": "nwissite", "start_id": "USGS-02363000", "geometry_length_km": 0.19413079085198853 }, "geometry": { "type": "LineString", "coordinates": [ [ -85.835001402, 31.540872894 ], [ -85.835108601, 31.540574893 ], [ -85.835536905, 31.539864793 ], [ -85.836259305, 31.539704598 ] ] } },
{ "type": "Feature", "properties": { "site_no": "02363000", "nhdplus_comid": "2210328", "navigation_mode": "DM", "requested_distance_km": 12.0, "start_source": "nwissite", "start_id": "USGS-02363000", "geometry_length_km": 0.93409500019107194 }, "geometry": { "type": "LineString", "coordinates": [ [ -85.836259305, 31.539704598 ], [ -85.837516703, 31.539911196 ], [ -85.8391219, 31.540347099 ], [ -85.839496404, 31.5406221 ], [ -85.839415707, 31.541515693 ], [ -85.839602903, 31.541744895 ], [ -85.839816906, 31.541813694 ], [ -85.840245105, 31.541768 ], [ -85.840807103, 31.541332796 ], [ -85.841235101, 31.541378699 ], [ -85.842278302, 31.541974798 ], [ -85.843696207, 31.542273 ], [ -85.844151102, 31.542204395 ] ] } },
{ "type": "Feature", "properties": { "site_no": "02363000", "nhdplus_comid": "2210324", "navigation_mode": "DM", "requested_distance_km": 12.0, "start_source": "nwissite", "start_id": "USGS-02363000", "geometry_length_km": 0.33546155894832697 }, "geometry": { "type": "LineString", "coordinates": [ [ -85.844151102, 31.542204395 ], [ -85.844284907, 31.542158596 ], [ -85.844873801, 31.541402593 ], [ -85.844954103, 31.540967196 ], [ -85.844767004, 31.540829599 ], [ -85.844392307, 31.540737897 ], [ -85.844231904, 31.540600397 ], [ -85.8440983, 31.540279597 ], [ -85.8444997, 31.539958894 ] ] } }
]
}
