{
"type": "FeatureCollection",
"name": "USGS_02479431_DM_12km",
"crs": { "type": "name", "properties": { "name": "urn:ogc:def:crs:OGC:1.3:CRS84" } },
"features": [
{ "type": "Feature", "properties": { "site_no": "02479431", "nhdplus_comid": "18092699", "navigation_mode": "DM", "requested_distance_km": 12.0, "start_source": "nwissite", "start_id": "USGS-02479431", "geometry_length_km": 0.60550359947389354 }, "geometry": { "type": "LineString", "coordinates": [ [ -88.361756703, 31.160739301 ], [ -88.361505203, 31.160665296 ], [ -88.360572606, 31.160619393 ], [ -88.359453402, 31.160367198 ], [ -88.358973905, 31.160321295 ], [ -88.357774705, 31.160687797 ], [ -88.3571086, 31.160596199 ], [ -88.356709003, 31.160412796 ], [ -88.356096007, 31.160229295 ], [ -88.355616406, 31.160206296 ] ] } },
{ "type": "Feature", "properties": { "site_no": "02479431", "nhdplus_comid": "18092169", "navigation_mode": "DM", "requested_distance_km": 12.0, "start_source": "nwissite", "start_id": "USGS-02479431", "geometry_length_km": 1.6586186120726001 }, "geometry": { "type": "LineString", "coordinates": [ [ -88.355616406, 31.160206296 ], [ -88.355270006, 31.160183497 ], [ -88.354390703, 31.159954198 ], [ -88.353804603, 31.159633294 ], [ -88.353431702, 31.159174994 ], [ -88.3533784, 31.158991694 ], [ -88.352925502, 31.1584647 ], [ -88.352312706, 31.158143796 ], [ -88.352152906, 31.157914497 ], [ -88.352152906, 31.157593697 ], [ -88.352099605, 31.157410398 ], [ -88.351886503, 31.157158293 ], [ -88.351300307, 31.156837396 ], [ -88.350847505, 31.156493597 ], [ -88.350687705, 31.155874997 ], [ -88.3504747, 31.155439593 ], [ -88.349648803, 31.154660396 ], [ -88.3491427, 31.154431194 ], [ -88.348556504, 31.154339395 ], [ -88.348290004, 31.154247798 ], [ -88.347997002, 31.153812297 ], [ -88.347810604, 31.153193496 ], [ -88.347650804, 31.152895696 ], [ -88.346958205, 31.152345598 ], [ -88.346931607, 31.151956096 ], [ -88.346851707, 31.151795596 ], [ -88.346638702, 31.151589297 ], [ -88.3465055, 31.151383094 ], [ -88.346372306, 31.1508561 ], [ -88.346159406, 31.150328994 ], [ -88.345946305, 31.149962395 ], [ -88.345280401, 31.149458095 ] ] } },
{ "type": "Feature", "properties": { "site_no": "02479431", "nhdplus_comid": "18092181", "navigation_mode": "DM", "requested_distance_km": 12.0, "start_source": "nwissite", "start_id": "USGS-02479431", "geometry_length_km": 2.2401110957969395 }, "geometry": { "type": "LineString", "coordinates": [ [ -88.345280401, 31.149458095 ], [ -88.345200606, 31.148770697 ], [ -88.344987705, 31.148174897 ], [ -88.345121004, 31.147624999 ], [ -88.345334202, 31.147281297 ], [ -88.345787205, 31.147052296 ], [ -88.3463201, 31.146914795 ], [ -88.346852906, 31.1467316 ], [ -88.347412504, 31.146181896 ], [ -88.348052204, 31.145402893 ], [ -88.348265305, 31.145196795 ], [ -88.348771602, 31.144807294 ], [ -88.3489848, 31.144417897 ], [ -88.349064805, 31.143730499 ], [ -88.3491714, 31.143547095 ], [ -88.3491982, 31.143111795 ], [ -88.348985203, 31.142584696 ], [ -88.349038504, 31.142286897 ], [ -88.349385001, 31.1414162 ], [ -88.349358603, 31.140476696 ], [ -88.349625103, 31.139858097 ], [ -88.3496252, 31.1394227 ], [ -88.349492207, 31.138437398 ], [ -88.349359006, 31.137887396 ], [ -88.349279203, 31.137452096 ], [ -88.349439107, 31.137131296 ], [ -88.349439204, 31.136627093 ], [ -88.349385902, 31.136604197 ], [ -88.349386103, 31.136054397 ], [ -88.349546, 31.135550298 ], [ -88.349519506, 31.135229498 ], [ -88.3492532, 31.134771094 ], [ -88.349279903, 31.1343816 ], [ -88.349386401, 31.134198293 ], [ -88.350105703, 31.133969299 ], [ -88.350292206, 31.133808896 ], [ -88.351091504, 31.133006997 ], [ -88.351624303, 31.132846698 ], [ -88.351917401, 31.132594697 ], [ -88.351997301, 31.132434294 ] ] } },
{ "type": "Feature", "properties": { "site_no": "02479431", "nhdplus_comid": "18092197", "navigation_mode": "DM", "requested_distance_km": 12.0, "start_source": "nwissite", "start_id": "USGS-02479431", "geometry_length_km": 1.7020270359287966 }, "geometry": { "type": "LineString", "coordinates": [ [ -88.351997301, 31.132434294 ], [ -88.352476902, 31.132319793 ], [ -88.353196107, 31.1322513 ], [ -88.353755504, 31.132182598 ], [ -88.355780005, 31.1323203 ], [ -88.356818803, 31.132503696 ], [ -88.357271701, 31.132412195 ], [ -88.358044401, 31.1320685 ], [ -88.358337402, 31.131839499 ], [ -88.358470604, 31.131541595 ], [ -88.358364105, 31.130968697 ], [ -88.358257502, 31.130762495 ], [ -88.358204305, 31.130029298 ], [ -88.358257607, 31.129708394 ], [ -88.359509706, 31.127875395 ], [ -88.3598295, 31.127279796 ], [ -88.360015906, 31.126867294 ], [ -88.360069305, 31.126546495 ], [ -88.360096, 31.125927798 ], [ -88.359989405, 31.125882 ], [ -88.359989502, 31.125790395 ], [ -88.3597764, 31.125469498 ], [ -88.359749801, 31.125171699 ], [ -88.359803006, 31.124873698 ], [ -88.361241601, 31.123498999 ], [ -88.3615347, 31.123338699 ] ] } },
{ "type": "Feature", "properties": { "site_no": "02479431", "nhdplus_comid": "18092201", "navigation_mode": "DM", "requested_distance_km": 12.0, "start_source": "nwissite", "start_id": "USGS-02479431", "geometry_length_km": 0.48771072334290111 }, "geometry": { "type": "LineString", "coordinates": [ [ -88.3615347, 31.123338699 ], [ -88.361667804, 31.122834593 ], [ -88.3618543, 31.122330494 ], [ -88.361934304, 31.1222618 ], [ -88.362147406, 31.121757597 ], [ -88.362493701, 31.121116199 ], [ -88.3625203, 31.1206121 ], [ -88.362653501, 31.120199598 ], [ -88.362946607, 31.119993396 ], [ -88.363372706, 31.119947597 ], [ -88.363798805, 31.120039299 ] ] } },
{ "type": "Feature", "properties": { "site_no": "02479431", "nhdplus_comid": "18092249", "navigation_mode": "DM", "requested_distance_km": 12.0, "start_source": "nwissite", "start_id": "USGS-02479431", "geometry_length_km": 3.5501802665966617 }, "geometry": { "type": "LineString", "coordinates": [ [ -88.363798805, 31.120039299 ], [ -88.3641451, 31.120016396 ], [ -88.3644647, 31.119833097 ], [ -88.364757702, 31.119466498 ], [ -88.365024105, 31.118893698 ], [ -88.365024105, 31.117770895 ], [ -88.364944302, 31.117495894 ], [ -88.364624701, 31.116785496 ], [ -88.364092, 31.116327293 ], [ -88.363879003, 31.116029397 ], [ -88.363879003, 31.115708597 ], [ -88.364038803, 31.115479395 ], [ -88.3642518, 31.115227394 ], [ -88.3644116, 31.115021199 ], [ -88.364784501, 31.114012994 ], [ -88.364864603, 31.1133027 ], [ -88.364758, 31.113050595 ], [ -88.363559604, 31.112019494 ], [ -88.36332, 31.111629896 ], [ -88.3631602, 31.111056998 ], [ -88.3630803, 31.110988297 ], [ -88.3630803, 31.110919498 ], [ -88.362894006, 31.110575698 ], [ -88.3628674, 31.109888293 ], [ -88.363053806, 31.109590493 ], [ -88.363639802, 31.108834393 ], [ -88.363932803, 31.108284496 ], [ -88.364199102, 31.107642993 ], [ -88.364332207, 31.107184693 ], [ -88.364438705, 31.107138798 ], [ -88.364731804, 31.106130697 ], [ -88.364811704, 31.105832696 ], [ -88.364918306, 31.104549594 ], [ -88.364838406, 31.1041601 ], [ -88.3647319, 31.104068294 ], [ -88.364652105, 31.103564195 ], [ -88.364439003, 31.103220597 ], [ -88.364305906, 31.102991395 ], [ -88.364252605, 31.102510199 ], [ -88.364385806, 31.102212295 ], [ -88.365344502, 31.101318799 ], [ -88.365717404, 31.100677095 ], [ -88.365983702, 31.100425094 ], [ -88.368114002, 31.099875294 ], [ -88.368513502, 31.0996003 ], [ -88.368726507, 31.099210799 ], [ -88.368779801, 31.099027596 ], [ -88.368886203, 31.098912999 ], [ -88.368886307, 31.098019294 ], [ -88.368700005, 31.097446397 ], [ -88.368620105, 31.096736096 ], [ -88.368753202, 31.096415296 ], [ -88.368913002, 31.096232094 ], [ -88.371096402, 31.096209094 ], [ -88.371362701, 31.0961634 ], [ -88.371842101, 31.095911294 ], [ -88.372214906, 31.094811395 ], [ -88.3722682, 31.094742693 ] ] } }
]
}
