{
"type": "FeatureCollection",
"name": "USGS_02418500_UM_12km",
"crs": { "type": "name", "properties": { "name": "urn:ogc:def:crs:OGC:1.3:CRS84" } },
"features": [
{ "type": "Feature", "properties": { "site_no": "02418500", "nhdplus_comid": "21713328", "navigation_mode": "UM", "requested_distance_km": 12.0, "start_source": "nwissite", "start_id": "USGS-02418500", "geometry_length_km": 0.70253672738705952 }, "geometry": { "type": "LineString", "coordinates": [ [ -85.891205102, 32.518748395 ], [ -85.890954904, 32.518347293 ], [ -85.890895501, 32.516448095 ], [ -85.8895908, 32.513679996 ], [ -85.889713918, 32.512714202 ] ] } },
{ "type": "Feature", "properties": { "site_no": "02418500", "nhdplus_comid": "21713322", "navigation_mode": "UM", "requested_distance_km": 12.0, "start_source": "nwissite", "start_id": "USGS-02418500", "geometry_length_km": 1.0440781819589355 }, "geometry": { "type": "LineString", "coordinates": [ [ -85.889133707, 32.527905896 ], [ -85.889654502, 32.526184998 ], [ -85.889893204, 32.524312496 ], [ -85.890270703, 32.523714997 ], [ -85.891205102, 32.518748395 ] ] } },
{ "type": "Feature", "properties": { "site_no": "02418500", "nhdplus_comid": "21713318", "navigation_mode": "UM", "requested_distance_km": 12.0, "start_source": "nwissite", "start_id": "USGS-02418500", "geometry_length_km": 0.77448240824664938 }, "geometry": { "type": "LineString", "coordinates": [ [ -85.887619004, 32.5344477 ], [ -85.887668706, 32.534280196 ], [ -85.888204902, 32.534009196 ], [ -85.888401605, 32.533648096 ], [ -85.888640404, 32.531775594 ], [ -85.889049806, 32.5309285 ], [ -85.889336206, 32.528681599 ], [ -85.889133707, 32.527905896 ] ] } },
{ "type": "Feature", "properties": { "site_no": "02418500", "nhdplus_comid": "21712852", "navigation_mode": "UM", "requested_distance_km": 12.0, "start_source": "nwissite", "start_id": "USGS-02418500", "geometry_length_km": 0.092342685145496192 }, "geometry": { "type": "LineString", "coordinates": [ [ -85.887159407, 32.5351808 ], [ -85.887619004, 32.5344477 ] ] } },
{ "type": "Feature", "properties": { "site_no": "02418500", "nhdplus_comid": "21713314", "navigation_mode": "UM", "requested_distance_km": 12.0, "start_source": "nwissite", "start_id": "USGS-02418500", "geometry_length_km": 0.52627565224266948 }, "geometry": { "type": "LineString", "coordinates": [ [ -85.8876376, 32.539639793 ], [ -85.887530603, 32.538115196 ], [ -85.8867478, 32.537161395 ], [ -85.887032107, 32.535308793 ], [ -85.887159407, 32.5351808 ] ] } },
{ "type": "Feature", "properties": { "site_no": "02418500", "nhdplus_comid": "21713310", "navigation_mode": "UM", "requested_distance_km": 12.0, "start_source": "nwissite", "start_id": "USGS-02418500", "geometry_length_km": 2.8238455393944641 }, "geometry": { "type": "LineString", "coordinates": [ [ -85.890096202, 32.564099394 ], [ -85.889696702, 32.563684896 ], [ -85.889339201, 32.561759293 ], [ -85.888753101, 32.5604444 ], [ -85.888731405, 32.559432499 ], [ -85.888043903, 32.557729796 ], [ -85.8877661, 32.555179998 ], [ -85.886897907, 32.553713597 ], [ -85.8870195, 32.551578194 ], [ -85.886103503, 32.550486296 ], [ -85.886028305, 32.548712097 ], [ -85.886681102, 32.543594196 ], [ -85.8876376, 32.539639793 ] ] } },
{ "type": "Feature", "properties": { "site_no": "02418500", "nhdplus_comid": "21713304", "navigation_mode": "UM", "requested_distance_km": 12.0, "start_source": "nwissite", "start_id": "USGS-02418500", "geometry_length_km": 0.57055616358024752 }, "geometry": { "type": "LineString", "coordinates": [ [ -85.890518904, 32.569060698 ], [ -85.890310407, 32.567148395 ], [ -85.889974602, 32.566234693 ], [ -85.890165702, 32.564736798 ], [ -85.889915302, 32.564335696 ], [ -85.890096202, 32.564099394 ] ] } },
{ "type": "Feature", "properties": { "site_no": "02418500", "nhdplus_comid": "21713302", "navigation_mode": "UM", "requested_distance_km": 12.0, "start_source": "nwissite", "start_id": "USGS-02418500", "geometry_length_km": 0.61010945102136571 }, "geometry": { "type": "LineString", "coordinates": [ [ -85.8898376, 32.574402198 ], [ -85.890009403, 32.573054999 ], [ -85.890355401, 32.572707199 ], [ -85.890641905, 32.570460394 ], [ -85.890518904, 32.569060698 ] ] } },
{ "type": "Feature", "properties": { "site_no": "02418500", "nhdplus_comid": "21713298", "navigation_mode": "UM", "requested_distance_km": 12.0, "start_source": "nwissite", "start_id": "USGS-02418500", "geometry_length_km": 2.293289408785534 }, "geometry": { "type": "LineString", "coordinates": [ [ -85.892718703, 32.5943795 ], [ -85.892744705, 32.5929932 ], [ -85.892142303, 32.591803193 ], [ -85.892237805, 32.591054298 ], [ -85.891731001, 32.589115396 ], [ -85.891932204, 32.586356096 ], [ -85.891755506, 32.584194198 ], [ -85.891387805, 32.583530098 ], [ -85.891397901, 32.582268596 ], [ -85.890475705, 32.580040097 ], [ -85.890634902, 32.578791894 ], [ -85.889531806, 32.576799594 ], [ -85.8898376, 32.574402198 ] ] } },
{ "type": "Feature", "properties": { "site_no": "02418500", "nhdplus_comid": "21713278", "navigation_mode": "UM", "requested_distance_km": 12.0, "start_source": "nwissite", "start_id": "USGS-02418500", "geometry_length_km": 1.1676374005618777 }, "geometry": { "type": "LineString", "coordinates": [ [ -85.894624807, 32.604270093 ], [ -85.894927301, 32.601898596 ], [ -85.894591302, 32.600984998 ], [ -85.894877806, 32.598738298 ], [ -85.8945259, 32.597949393 ], [ -85.894386806, 32.596674599 ], [ -85.892921403, 32.595155098 ], [ -85.892718703, 32.5943795 ] ] } }
]
}
