{
"type": "FeatureCollection",
"name": "USGS_0357479650_DM_12km",
"crs": { "type": "name", "properties": { "name": "urn:ogc:def:crs:OGC:1.3:CRS84" } },
"features": [
{ "type": "Feature", "properties": { "site_no": "0357479650", "nhdplus_comid": "19618594", "navigation_mode": "DM", "requested_distance_km": 12.0, "start_source": "nwissite", "start_id": "USGS-0357479650", "geometry_length_km": 0.15292653053709643 }, "geometry": { "type": "LineString", "coordinates": [ [ -86.461623001, 34.960530502 ], [ -86.461648904, 34.960512199 ], [ -86.462176301, 34.959412396 ], [ -86.462371007, 34.959389396 ] ] } },
{ "type": "Feature", "properties": { "site_no": "0357479650", "nhdplus_comid": "19618634", "navigation_mode": "DM", "requested_distance_km": 12.0, "start_source": "nwissite", "start_id": "USGS-0357479650", "geometry_length_km": 1.0603190472521631 }, "geometry": { "type": "LineString", "coordinates": [ [ -86.462371007, 34.959389396 ], [ -86.462731503, 34.958289698 ], [ -86.462563805, 34.957488194 ], [ -86.462785803, 34.956892595 ], [ -86.463008106, 34.956709199 ], [ -86.463731207, 34.956456698 ], [ -86.463898003, 34.956296198 ], [ -86.463925101, 34.9556778 ], [ -86.463506706, 34.954624496 ], [ -86.462977305, 34.953846097 ], [ -86.462726206, 34.953136198 ], [ -86.462140702, 34.951876998 ], [ -86.462751701, 34.950891599 ] ] } },
{ "type": "Feature", "properties": { "site_no": "0357479650", "nhdplus_comid": "19618676", "navigation_mode": "DM", "requested_distance_km": 12.0, "start_source": "nwissite", "start_id": "USGS-0357479650", "geometry_length_km": 1.712212040840644 }, "geometry": { "type": "LineString", "coordinates": [ [ -86.462751701, 34.950891599 ], [ -86.462722801, 34.949906796 ], [ -86.462639302, 34.949861094 ], [ -86.462499805, 34.949334398 ], [ -86.462277003, 34.9491283 ], [ -86.461720407, 34.948853798 ], [ -86.461191401, 34.948464796 ], [ -86.460745804, 34.947869696 ], [ -86.460745603, 34.9477093 ], [ -86.460662104, 34.947663493 ], [ -86.460689701, 34.9474345 ], [ -86.461468302, 34.947205 ], [ -86.461635001, 34.946998693 ], [ -86.461690001, 34.9464489 ], [ -86.4612431, 34.9445941 ], [ -86.458876804, 34.942602895 ], [ -86.457902305, 34.941618696 ], [ -86.455926105, 34.940154098 ], [ -86.455369607, 34.939833798 ], [ -86.454089902, 34.939697199 ] ] } },
{ "type": "Feature", "properties": { "site_no": "0357479650", "nhdplus_comid": "19618714", "navigation_mode": "DM", "requested_distance_km": 12.0, "start_source": "nwissite", "start_id": "USGS-0357479650", "geometry_length_km": 1.0070210400802613 }, "geometry": { "type": "LineString", "coordinates": [ [ -86.454089902, 34.939697199 ], [ -86.453254901, 34.938987598 ], [ -86.452364601, 34.938736297 ], [ -86.450917505, 34.937843896 ], [ -86.450305104, 34.937340394 ], [ -86.450138003, 34.936996795 ], [ -86.450081401, 34.936035 ], [ -86.449970007, 34.935782999 ], [ -86.449413307, 34.935256496 ], [ -86.447938204, 34.934157997 ], [ -86.446658507, 34.933631897 ] ] } },
{ "type": "Feature", "properties": { "site_no": "0357479650", "nhdplus_comid": "19618842", "navigation_mode": "DM", "requested_distance_km": 12.0, "start_source": "nwissite", "start_id": "USGS-0357479650", "geometry_length_km": 3.1152590895969428 }, "geometry": { "type": "LineString", "coordinates": [ [ -86.446658507, 34.933631897 ], [ -86.446546905, 34.933311395 ], [ -86.446185105, 34.932967998 ], [ -86.445684202, 34.932693399 ], [ -86.444822103, 34.932579398 ], [ -86.444237702, 34.932236098 ], [ -86.4429304, 34.932076395 ], [ -86.442401901, 34.931916393 ], [ -86.442095801, 34.931618795 ], [ -86.441372402, 34.9312298 ], [ -86.441038303, 34.930840597 ], [ -86.440843306, 34.930405498 ], [ -86.440731704, 34.929970495 ], [ -86.440592505, 34.929764293 ], [ -86.440480903, 34.929237694 ], [ -86.440480307, 34.928458899 ], [ -86.440702103, 34.927588396 ], [ -86.440952003, 34.927130096 ], [ -86.441090502, 34.926534593 ], [ -86.441062205, 34.925755799 ], [ -86.440588601, 34.924702495 ], [ -86.4405884, 34.9244048 ], [ -86.440810502, 34.923992395 ], [ -86.440837801, 34.923305295 ], [ -86.441059902, 34.922869995 ], [ -86.441726804, 34.922273993 ], [ -86.441948906, 34.9217242 ], [ -86.441976301, 34.921243198 ], [ -86.441808902, 34.920533299 ], [ -86.441614002, 34.920189798 ], [ -86.441141002, 34.9197549 ], [ -86.440945804, 34.919159494 ], [ -86.441140004, 34.918632597 ], [ -86.441056207, 34.918151699 ], [ -86.440527104, 34.9170525 ], [ -86.440580502, 34.914212294 ], [ -86.440413401, 34.913914695 ], [ -86.4381596, 34.911854394 ], [ -86.437964804, 34.911556698 ], [ -86.437380202, 34.910595097 ], [ -86.437185504, 34.910434797 ] ] } },
{ "type": "Feature", "properties": { "site_no": "0357479650", "nhdplus_comid": "19618910", "navigation_mode": "DM", "requested_distance_km": 12.0, "start_source": "nwissite", "start_id": "USGS-0357479650", "geometry_length_km": 1.8084515444217062 }, "geometry": { "type": "LineString", "coordinates": [ [ -86.437185504, 34.910434797 ], [ -86.437296502, 34.910159998 ], [ -86.438157402, 34.908785298 ], [ -86.439212807, 34.907410495 ], [ -86.439796403, 34.907020696 ], [ -86.440380104, 34.906860195 ], [ -86.441102706, 34.906424597 ], [ -86.442269705, 34.905530699 ], [ -86.442491807, 34.905232795 ], [ -86.443603106, 34.904247299 ], [ -86.444603406, 34.903582595 ], [ -86.445242703, 34.903330296 ], [ -86.4462713, 34.903283894 ], [ -86.447189003, 34.903581195 ], [ -86.447550505, 34.903626695 ], [ -86.448828906, 34.903076299 ], [ -86.450106807, 34.9020219 ], [ -86.451079406, 34.901517496 ], [ -86.4519132, 34.901196294 ] ] } },
{ "type": "Feature", "properties": { "site_no": "0357479650", "nhdplus_comid": "19618916", "navigation_mode": "DM", "requested_distance_km": 12.0, "start_source": "nwissite", "start_id": "USGS-0357479650", "geometry_length_km": 0.7115439939608742 }, "geometry": { "type": "LineString", "coordinates": [ [ -86.4519132, 34.901196294 ], [ -86.453970306, 34.901149198 ], [ -86.455721304, 34.900667198 ], [ -86.4568884, 34.900070898 ], [ -86.457610503, 34.899428993 ], [ -86.4579437, 34.898993596 ], [ -86.458082005, 34.898306496 ] ] } },
{ "type": "Feature", "properties": { "site_no": "0357479650", "nhdplus_comid": "19618924", "navigation_mode": "DM", "requested_distance_km": 12.0, "start_source": "nwissite", "start_id": "USGS-0357479650", "geometry_length_km": 0.13893429961025344 }, "geometry": { "type": "LineString", "coordinates": [ [ -86.458082005, 34.898306496 ], [ -86.457581006, 34.897665493 ], [ -86.4576362, 34.897184394 ] ] } },
{ "type": "Feature", "properties": { "site_no": "0357479650", "nhdplus_comid": "19619006", "navigation_mode": "DM", "requested_distance_km": 12.0, "start_source": "nwissite", "start_id": "USGS-0357479650", "geometry_length_km": 2.7141703018588572 }, "geometry": { "type": "LineString", "coordinates": [ [ -86.4576362, 34.897184394 ], [ -86.457858406, 34.897092596 ], [ -86.460554205, 34.896312095 ], [ -86.463778704, 34.896034993 ], [ -86.4643066, 34.895805597 ], [ -86.464612007, 34.895461798 ], [ -86.464611307, 34.894774698 ], [ -86.464499906, 34.894591495 ], [ -86.4637191, 34.892370395 ], [ -86.462939307, 34.890973799 ], [ -86.462966703, 34.890538499 ], [ -86.463493705, 34.889530398 ], [ -86.463659704, 34.888682798 ], [ -86.464131303, 34.887926593 ], [ -86.465186901, 34.887147099 ], [ -86.466380805, 34.885932393 ], [ -86.467824802, 34.884740293 ], [ -86.469546907, 34.883731194 ], [ -86.470852904, 34.883432396 ], [ -86.471630804, 34.883088298 ], [ -86.472075105, 34.882744394 ], [ -86.472297207, 34.882446393 ], [ -86.472491205, 34.882033996 ], [ -86.472406805, 34.881163694 ], [ -86.472323306, 34.881026395 ] ] } }
]
}
