{
"type": "FeatureCollection",
"name": "USGS_02416000_UM_12km",
"crs": { "type": "name", "properties": { "name": "urn:ogc:def:crs:OGC:1.3:CRS84" } },
"features": [
{ "type": "Feature", "properties": { "site_no": "02416000", "nhdplus_comid": "22038691", "navigation_mode": "UM", "requested_distance_km": 12.0, "start_source": "nwissite", "start_id": "USGS-02416000", "geometry_length_km": 0.57835622588207192 }, "geometry": { "type": "LineString", "coordinates": [ [ -85.865493804, 32.916242294 ], [ -85.867731601, 32.914738394 ], [ -85.869325005, 32.914123394 ], [ -85.870870404, 32.913882695 ], [ -85.870887928, 32.913884257 ] ] } },
{ "type": "Feature", "properties": { "site_no": "02416000", "nhdplus_comid": "22038689", "navigation_mode": "UM", "requested_distance_km": 12.0, "start_source": "nwissite", "start_id": "USGS-02416000", "geometry_length_km": 1.0904766609402681 }, "geometry": { "type": "LineString", "coordinates": [ [ -85.871150203, 32.923497096 ], [ -85.871064603, 32.922984794 ], [ -85.869593605, 32.921465695 ], [ -85.867096007, 32.9208645 ], [ -85.865491502, 32.919207297 ], [ -85.865256101, 32.918681599 ], [ -85.865493804, 32.916242294 ] ] } },
{ "type": "Feature", "properties": { "site_no": "02416000", "nhdplus_comid": "22038681", "navigation_mode": "UM", "requested_distance_km": 12.0, "start_source": "nwissite", "start_id": "USGS-02416000", "geometry_length_km": 0.32446989036793544 }, "geometry": { "type": "LineString", "coordinates": [ [ -85.870482102, 32.926340997 ], [ -85.870658502, 32.924967393 ], [ -85.871150203, 32.923497096 ] ] } },
{ "type": "Feature", "properties": { "site_no": "02416000", "nhdplus_comid": "22038679", "navigation_mode": "UM", "requested_distance_km": 12.0, "start_source": "nwissite", "start_id": "USGS-02416000", "geometry_length_km": 3.8445311283201633 }, "geometry": { "type": "LineString", "coordinates": [ [ -85.865570106, 32.952776797 ], [ -85.865602203, 32.9525273 ], [ -85.862793207, 32.949627295 ], [ -85.858973302, 32.947520196 ], [ -85.8576359, 32.946139097 ], [ -85.857384406, 32.9457381 ], [ -85.857593, 32.944116496 ], [ -85.859433204, 32.942766599 ], [ -85.8615622, 32.942704096 ], [ -85.862990506, 32.942200594 ], [ -85.8646648, 32.940961994 ], [ -85.865204804, 32.939117499 ], [ -85.865948305, 32.938048296 ], [ -85.866343603, 32.933793597 ], [ -85.866889, 32.933085099 ], [ -85.867049307, 32.931837693 ], [ -85.867776603, 32.930893093 ], [ -85.867824703, 32.930518895 ], [ -85.870338, 32.927462295 ], [ -85.870482102, 32.926340997 ] ] } },
{ "type": "Feature", "properties": { "site_no": "02416000", "nhdplus_comid": "22038675", "navigation_mode": "UM", "requested_distance_km": 12.0, "start_source": "nwissite", "start_id": "USGS-02416000", "geometry_length_km": 1.4670032101573072 }, "geometry": { "type": "LineString", "coordinates": [ [ -85.858401306, 32.963745296 ], [ -85.860707402, 32.962310798 ], [ -85.8610873, 32.961713798 ], [ -85.862280406, 32.960684597 ], [ -85.862526506, 32.959949493 ], [ -85.864345402, 32.9575883 ], [ -85.865217306, 32.955521099 ], [ -85.865763001, 32.954812698 ], [ -85.865570106, 32.952776797 ] ] } },
{ "type": "Feature", "properties": { "site_no": "02416000", "nhdplus_comid": "22038655", "navigation_mode": "UM", "requested_distance_km": 12.0, "start_source": "nwissite", "start_id": "USGS-02416000", "geometry_length_km": 0.81201018351385856 }, "geometry": { "type": "LineString", "coordinates": [ [ -85.850445107, 32.961150698 ], [ -85.8511189, 32.961455293 ], [ -85.852520801, 32.962337494 ], [ -85.855201505, 32.9627029 ], [ -85.856619403, 32.9634602 ], [ -85.858401306, 32.963745296 ] ] } },
{ "type": "Feature", "properties": { "site_no": "02416000", "nhdplus_comid": "22038665", "navigation_mode": "UM", "requested_distance_km": 12.0, "start_source": "nwissite", "start_id": "USGS-02416000", "geometry_length_km": 0.57120997022777198 }, "geometry": { "type": "LineString", "coordinates": [ [ -85.844572604, 32.959924594 ], [ -85.848684505, 32.960354798 ], [ -85.850445107, 32.961150698 ] ] } },
{ "type": "Feature", "properties": { "site_no": "02416000", "nhdplus_comid": "22038663", "navigation_mode": "UM", "requested_distance_km": 12.0, "start_source": "nwissite", "start_id": "USGS-02416000", "geometry_length_km": 0.69425180063649905 }, "geometry": { "type": "LineString", "coordinates": [ [ -85.8373731, 32.961110793 ], [ -85.838887401, 32.961119995 ], [ -85.840883203, 32.960919797 ], [ -85.842295803, 32.960541293 ], [ -85.842895105, 32.960594796 ], [ -85.844572604, 32.959924594 ] ] } },
{ "type": "Feature", "properties": { "site_no": "02416000", "nhdplus_comid": "22038671", "navigation_mode": "UM", "requested_distance_km": 12.0, "start_source": "nwissite", "start_id": "USGS-02416000", "geometry_length_km": 1.933172067334197 }, "geometry": { "type": "LineString", "coordinates": [ [ -85.820795506, 32.9521835 ], [ -85.823176101, 32.952522799 ], [ -85.823577203, 32.952937193 ], [ -85.825792007, 32.953387797 ], [ -85.827343203, 32.954283595 ], [ -85.828509405, 32.954640299 ], [ -85.829846501, 32.956021696 ], [ -85.830819607, 32.9578752 ], [ -85.8320392, 32.958993696 ], [ -85.834307507, 32.960205898 ], [ -85.836040907, 32.960865594 ], [ -85.8373731, 32.961110793 ] ] } }
]
}
