{
"type": "FeatureCollection",
"name": "USGS_02374000_UM_12km",
"crs": { "type": "name", "properties": { "name": "urn:ogc:def:crs:OGC:1.3:CRS84" } },
"features": [
{ "type": "Feature", "properties": { "site_no": "02374000", "nhdplus_comid": "2411086", "navigation_mode": "UM", "requested_distance_km": 12.0, "start_source": "nwissite", "start_id": "USGS-02374000", "geometry_length_km": 0.7079283538795611 }, "geometry": { "type": "LineString", "coordinates": [ [ -86.794764102, 31.167714894 ], [ -86.796098202, 31.167699195 ], [ -86.7967133, 31.1674973 ], [ -86.798308, 31.166491695 ], [ -86.7984505, 31.165239096 ], [ -86.799390979, 31.163729882 ] ] } },
{ "type": "Feature", "properties": { "site_no": "02374000", "nhdplus_comid": "2411076", "navigation_mode": "UM", "requested_distance_km": 12.0, "start_source": "nwissite", "start_id": "USGS-02374000", "geometry_length_km": 4.2754341458837049 }, "geometry": { "type": "LineString", "coordinates": [ [ -86.763526, 31.179405995 ], [ -86.766745202, 31.177145198 ], [ -86.768050902, 31.177380294 ], [ -86.771399401, 31.179176196 ], [ -86.771971807, 31.179350294 ], [ -86.772719406, 31.179285996 ], [ -86.773216605, 31.178821594 ], [ -86.7733308, 31.177819595 ], [ -86.773137502, 31.176918395 ], [ -86.773215607, 31.173637398 ], [ -86.7735155, 31.171007097 ], [ -86.774159305, 31.170554794 ], [ -86.775772505, 31.170688994 ], [ -86.777911305, 31.170108199 ], [ -86.781773403, 31.167394593 ], [ -86.785407104, 31.166685 ], [ -86.787910305, 31.165502094 ], [ -86.789594702, 31.165009797 ], [ -86.790900305, 31.165244594 ], [ -86.792664006, 31.166655496 ], [ -86.794764102, 31.167714894 ] ] } },
{ "type": "Feature", "properties": { "site_no": "02374000", "nhdplus_comid": "2411066", "navigation_mode": "UM", "requested_distance_km": 12.0, "start_source": "nwissite", "start_id": "USGS-02374000", "geometry_length_km": 0.14127989510776312 }, "geometry": { "type": "LineString", "coordinates": [ [ -86.763245903, 31.180559494 ], [ -86.763163805, 31.180386193 ], [ -86.763169006, 31.180260397 ], [ -86.763174206, 31.180134699 ], [ -86.763179407, 31.180008896 ], [ -86.763184607, 31.1798831 ], [ -86.763189703, 31.179757394 ], [ -86.763246201, 31.1796984 ], [ -86.763339505, 31.179600894 ], [ -86.763432704, 31.179503493 ], [ -86.763526, 31.179405995 ] ] } },
{ "type": "Feature", "properties": { "site_no": "02374000", "nhdplus_comid": "2410334", "navigation_mode": "UM", "requested_distance_km": 12.0, "start_source": "nwissite", "start_id": "USGS-02374000", "geometry_length_km": 0.068581982296992597 }, "geometry": { "type": "LineString", "coordinates": [ [ -86.763511904, 31.1811326 ], [ -86.763245903, 31.180559494 ] ] } },
{ "type": "Feature", "properties": { "site_no": "02374000", "nhdplus_comid": "2378761", "navigation_mode": "UM", "requested_distance_km": 12.0, "start_source": "nwissite", "start_id": "USGS-02374000", "geometry_length_km": 3.0824528348954261 }, "geometry": { "type": "LineString", "coordinates": [ [ -86.741544701, 31.195613697 ], [ -86.741997905, 31.195590399 ], [ -86.743277207, 31.195222594 ], [ -86.743969902, 31.194832399 ], [ -86.745168202, 31.193754099 ], [ -86.746340305, 31.1929738 ], [ -86.747272804, 31.192560397 ], [ -86.748179004, 31.192399099 ], [ -86.748765707, 31.192536093 ], [ -86.749966204, 31.193107896 ], [ -86.7510207, 31.193336293 ], [ -86.753100105, 31.193429999 ], [ -86.755446203, 31.193432197 ], [ -86.756619602, 31.193181396 ], [ -86.757526904, 31.192517594 ], [ -86.758114606, 31.191441 ], [ -86.758648604, 31.190822594 ], [ -86.7592097, 31.189746 ], [ -86.760277703, 31.188417599 ], [ -86.760946006, 31.186951496 ], [ -86.762095802, 31.183881596 ], [ -86.762683302, 31.1830571 ], [ -86.763244502, 31.1818887 ], [ -86.763511904, 31.1811326 ] ] } },
{ "type": "Feature", "properties": { "site_no": "02374000", "nhdplus_comid": "2378485", "navigation_mode": "UM", "requested_distance_km": 12.0, "start_source": "nwissite", "start_id": "USGS-02374000", "geometry_length_km": 3.458987420742841 }, "geometry": { "type": "LineString", "coordinates": [ [ -86.725775704, 31.183915794 ], [ -86.725989304, 31.184167698 ], [ -86.726497501, 31.185840398 ], [ -86.726791203, 31.186275594 ], [ -86.727138005, 31.186527394 ], [ -86.727324702, 31.1865272 ], [ -86.727564402, 31.186389595 ], [ -86.727564007, 31.185999997 ], [ -86.727457106, 31.185793795 ], [ -86.727323301, 31.185266696 ], [ -86.727349803, 31.185083397 ], [ -86.7275628, 31.184876993 ], [ -86.728015907, 31.184784897 ], [ -86.728495903, 31.184990898 ], [ -86.729056202, 31.185448796 ], [ -86.729509607, 31.1856317 ], [ -86.729856201, 31.185677297 ], [ -86.731642202, 31.185607098 ], [ -86.732655004, 31.185422897 ], [ -86.734307803, 31.185421497 ], [ -86.7351344, 31.185604095 ], [ -86.736014605, 31.185992993 ], [ -86.736548305, 31.1864051 ], [ -86.736868702, 31.186840296 ], [ -86.736975804, 31.187138095 ], [ -86.736976303, 31.187688097 ], [ -86.736391105, 31.188719898 ], [ -86.735379003, 31.189614698 ], [ -86.7348461, 31.1897984 ], [ -86.734152906, 31.189798996 ], [ -86.733593002, 31.189707793 ], [ -86.733139701, 31.189730994 ], [ -86.732686706, 31.189891897 ], [ -86.732687205, 31.190304399 ], [ -86.733061805, 31.191381194 ], [ -86.733488806, 31.191839196 ], [ -86.733888902, 31.191999294 ], [ -86.735115007, 31.191814996 ], [ -86.736394301, 31.191470094 ], [ -86.7369541, 31.191469699 ], [ -86.737354204, 31.191606797 ], [ -86.737701006, 31.191835694 ], [ -86.738021605, 31.192339696 ], [ -86.738023303, 31.193852298 ], [ -86.738397501, 31.194608197 ], [ -86.739598006, 31.195225894 ], [ -86.740798101, 31.195522696 ], [ -86.741544701, 31.195613697 ] ] } }
]
}
