{
"type": "FeatureCollection",
"name": "USGS_02444500_UM_12km",
"crs": { "type": "name", "properties": { "name": "urn:ogc:def:crs:OGC:1.3:CRS84" } },
"features": [
{ "type": "Feature", "properties": { "site_no": "02444500", "nhdplus_comid": "18631086", "navigation_mode": "UM", "requested_distance_km": 12.0, "start_source": "nwissite", "start_id": "USGS-02444500", "geometry_length_km": 2.5414125503190053 }, "geometry": { "type": "LineString", "coordinates": [ [ -88.260717206, 33.078058995 ], [ -88.258670002, 33.075780593 ], [ -88.256662704, 33.074637599 ], [ -88.255183406, 33.0742855 ], [ -88.252326004, 33.074091397 ], [ -88.249382503, 33.074772395 ], [ -88.247955203, 33.075430498 ], [ -88.242098205, 33.079562999 ], [ -88.239881806, 33.080544896 ], [ -88.239255607, 33.080753997 ], [ -88.237685017, 33.080647098 ] ] } },
{ "type": "Feature", "properties": { "site_no": "02444500", "nhdplus_comid": "18631080", "navigation_mode": "UM", "requested_distance_km": 12.0, "start_source": "nwissite", "start_id": "USGS-02444500", "geometry_length_km": 0.22057868628971403 }, "geometry": { "type": "LineString", "coordinates": [ [ -88.261992604, 33.079718597 ], [ -88.261107102, 33.078714699 ], [ -88.260717206, 33.078058995 ] ] } },
{ "type": "Feature", "properties": { "site_no": "02444500", "nhdplus_comid": "18631076", "navigation_mode": "UM", "requested_distance_km": 12.0, "start_source": "nwissite", "start_id": "USGS-02444500", "geometry_length_km": 0.5116394135619251 }, "geometry": { "type": "LineString", "coordinates": [ [ -88.264238104, 33.083835095 ], [ -88.264262706, 33.083584994 ], [ -88.262150705, 33.0804215 ], [ -88.261992604, 33.079718597 ] ] } },
{ "type": "Feature", "properties": { "site_no": "02444500", "nhdplus_comid": "18631070", "navigation_mode": "UM", "requested_distance_km": 12.0, "start_source": "nwissite", "start_id": "USGS-02444500", "geometry_length_km": 2.2770340623667749 }, "geometry": { "type": "LineString", "coordinates": [ [ -88.256011002, 33.099762693 ], [ -88.2550532, 33.097180799 ], [ -88.255299002, 33.0946806 ], [ -88.2556981, 33.093700893 ], [ -88.257187106, 33.092417695 ], [ -88.261884004, 33.090848595 ], [ -88.264299907, 33.089376494 ], [ -88.264662102, 33.088771798 ], [ -88.264858402, 33.0867716 ], [ -88.264704801, 33.085250996 ], [ -88.264238104, 33.083835095 ] ] } },
{ "type": "Feature", "properties": { "site_no": "02444500", "nhdplus_comid": "18631068", "navigation_mode": "UM", "requested_distance_km": 12.0, "start_source": "nwissite", "start_id": "USGS-02444500", "geometry_length_km": 2.9839287405458825 }, "geometry": { "type": "LineString", "coordinates": [ [ -88.2618962, 33.125077397 ], [ -88.261915803, 33.124450698 ], [ -88.261513501, 33.123919994 ], [ -88.261894204, 33.120044798 ], [ -88.261666901, 33.1192744 ], [ -88.261276804, 33.118618697 ], [ -88.257972606, 33.115248598 ], [ -88.2573677, 33.113697499 ], [ -88.257506005, 33.1076665 ], [ -88.256710805, 33.1049698 ], [ -88.256443806, 33.103063993 ], [ -88.256489903, 33.1010537 ], [ -88.256011002, 33.099762693 ] ] } }
]
}
