{
"type": "FeatureCollection",
"name": "USGS_02469550_DM_12km",
"crs": { "type": "name", "properties": { "name": "urn:ogc:def:crs:OGC:1.3:CRS84" } },
"features": [
{ "type": "Feature", "properties": { "site_no": "02469550", "nhdplus_comid": "18543568", "navigation_mode": "DM", "requested_distance_km": 12.0, "start_source": "nwissite", "start_id": "USGS-02469550", "geometry_length_km": 0.61040827243733764 }, "geometry": { "type": "LineString", "coordinates": [ [ -87.875289448, 32.047976145 ], [ -87.875975907, 32.047786497 ], [ -87.876890607, 32.047900997 ], [ -87.877778403, 32.048290595 ], [ -87.878047504, 32.048588395 ], [ -87.878020607, 32.0490008 ], [ -87.8778053, 32.049504898 ], [ -87.877886102, 32.049802899 ], [ -87.878235802, 32.050261095 ], [ -87.879096806, 32.050879695 ], [ -87.879123703, 32.050994299 ] ] } },
{ "type": "Feature", "properties": { "site_no": "02469550", "nhdplus_comid": "18543548", "navigation_mode": "DM", "requested_distance_km": 12.0, "start_source": "nwissite", "start_id": "USGS-02469550", "geometry_length_km": 5.3672045480231274 }, "geometry": { "type": "LineString", "coordinates": [ [ -87.879123703, 32.050994299 ], [ -87.879688606, 32.050971299 ], [ -87.879661702, 32.050558895 ], [ -87.879365802, 32.050192297 ], [ -87.879365705, 32.049779899 ], [ -87.879903801, 32.049413197 ], [ -87.880307302, 32.049619496 ], [ -87.880495802, 32.049963094 ], [ -87.880926207, 32.050444297 ], [ -87.881464303, 32.050810896 ], [ -87.881948605, 32.050971195 ], [ -87.884638906, 32.0505815 ], [ -87.885123201, 32.050627194 ], [ -87.8853653, 32.050741799 ], [ -87.885311507, 32.050856397 ], [ -87.884558201, 32.051200196 ], [ -87.884558305, 32.051406398 ], [ -87.884746604, 32.051520899 ], [ -87.885177001, 32.051497996 ], [ -87.886038005, 32.051291697 ], [ -87.886925802, 32.0512916 ], [ -87.887571506, 32.051108196 ], [ -87.888082601, 32.051199794 ], [ -87.888351701, 32.051383093 ], [ -87.8885132, 32.051635094 ], [ -87.888755403, 32.0522995 ], [ -87.888970703, 32.052391194 ], [ -87.889481805, 32.0522995 ], [ -87.890208207, 32.051863998 ], [ -87.890504003, 32.0514744 ], [ -87.890907504, 32.051222399 ], [ -87.892548606, 32.051153295 ], [ -87.892602406, 32.051038794 ], [ -87.892441005, 32.050786793 ], [ -87.892575406, 32.050626397 ], [ -87.893059805, 32.050832599 ], [ -87.893328905, 32.051428199 ], [ -87.894189902, 32.051473893 ], [ -87.894701101, 32.051702999 ], [ -87.894754902, 32.051977895 ], [ -87.894701205, 32.052161299 ], [ -87.894109301, 32.052459195 ], [ -87.894136302, 32.052665398 ], [ -87.894459203, 32.052756995 ], [ -87.894808903, 32.052642398 ], [ -87.895239301, 32.052298695 ], [ -87.895481504, 32.052275695 ], [ -87.896423303, 32.052985795 ], [ -87.896369405, 32.053146198 ], [ -87.894943707, 32.053513095 ], [ -87.894459501, 32.053810999 ], [ -87.894486502, 32.053948499 ], [ -87.894836202, 32.054085895 ], [ -87.896262206, 32.053833596 ], [ -87.8967195, 32.053902298 ], [ -87.896692604, 32.054245993 ], [ -87.896504402, 32.054475099 ], [ -87.896531403, 32.054772995 ], [ -87.896908201, 32.055208296 ], [ -87.896773703, 32.0555062 ], [ -87.896316402, 32.055643797 ], [ -87.8962088, 32.055781193 ], [ -87.896451004, 32.056033298 ], [ -87.896720104, 32.056170695 ], [ -87.897446506, 32.056055993 ], [ -87.899517901, 32.055161893 ], [ -87.899786904, 32.055138998 ], [ -87.8999753, 32.055230595 ], [ -87.900083005, 32.055551395 ], [ -87.901132606, 32.056582198 ], [ -87.901428603, 32.056719698 ], [ -87.901751503, 32.056650899 ], [ -87.901778303, 32.056352995 ], [ -87.901589803, 32.055871896 ], [ -87.901643604, 32.055780195 ], [ -87.9019126, 32.055711396 ], [ -87.903177105, 32.055665299 ], [ -87.904387802, 32.0552755 ], [ -87.904387705, 32.055160895 ], [ -87.904172406, 32.055000499 ], [ -87.902988501, 32.054680094 ], [ -87.902988404, 32.054496698 ], [ -87.903849103, 32.0537633 ], [ -87.9045486, 32.053785995 ], [ -87.904979102, 32.053694293 ], [ -87.905221105, 32.053350493 ], [ -87.905651607, 32.053350493 ], [ -87.905974604, 32.053785697 ], [ -87.9062436, 32.053900197 ], [ -87.906781703, 32.053693794 ], [ -87.907131307, 32.0534188 ], [ -87.907346606, 32.053441599 ], [ -87.9074542, 32.0535561 ], [ -87.907319903, 32.053991593 ], [ -87.906755105, 32.054495797 ], [ -87.906782106, 32.054770797 ], [ -87.907185704, 32.055045597 ], [ -87.907912306, 32.055251695 ], [ -87.908504203, 32.055228598 ] ] } },
{ "type": "Feature", "properties": { "site_no": "02469550", "nhdplus_comid": "18543534", "navigation_mode": "DM", "requested_distance_km": 12.0, "start_source": "nwissite", "start_id": "USGS-02469550", "geometry_length_km": 2.9099802974706237 }, "geometry": { "type": "LineString", "coordinates": [ [ -87.908504203, 32.055228598 ], [ -87.908611804, 32.055136897 ], [ -87.908611506, 32.054563999 ], [ -87.908692203, 32.0543807 ], [ -87.908934206, 32.054197297 ], [ -87.909203306, 32.054197297 ], [ -87.909795307, 32.054494999 ], [ -87.910198905, 32.054563597 ], [ -87.9110329, 32.054494694 ], [ -87.9119744, 32.054219395 ], [ -87.912781402, 32.053737894 ], [ -87.913023502, 32.053760797 ], [ -87.9136694, 32.0540585 ], [ -87.914422907, 32.054676794 ], [ -87.9148807, 32.055318296 ], [ -87.915392004, 32.055638894 ], [ -87.916118406, 32.055524096 ], [ -87.916279905, 32.055867799 ], [ -87.916495204, 32.056050994 ], [ -87.916952707, 32.056211196 ], [ -87.9173024, 32.056073599 ], [ -87.917517401, 32.055546597 ], [ -87.917867102, 32.055294298 ], [ -87.917839907, 32.054996498 ], [ -87.9175978, 32.054813296 ], [ -87.917167202, 32.054607198 ], [ -87.917220801, 32.054286398 ], [ -87.9181353, 32.053598799 ], [ -87.918108203, 32.053346694 ], [ -87.917865902, 32.053071797 ], [ -87.9174086, 32.052911498 ], [ -87.917300902, 32.052796997 ], [ -87.917327702, 32.052659497 ], [ -87.917569704, 32.052430399 ], [ -87.919022001, 32.051581994 ], [ -87.919398606, 32.051444396 ], [ -87.920528606, 32.051627293 ], [ -87.920932107, 32.051535495 ], [ -87.921335503, 32.0512833 ], [ -87.922411703, 32.051351599 ], [ -87.922842301, 32.051649399 ], [ -87.922923602, 32.052290894 ], [ -87.923111901, 32.052405395 ], [ -87.923865303, 32.052542597 ], [ -87.9240271, 32.053206995 ], [ -87.924269304, 32.053367294 ], [ -87.924888104, 32.053298295 ], [ -87.925210901, 32.053366899 ], [ -87.925318606, 32.0534814 ], [ -87.925211504, 32.054329298 ], [ -87.926422402, 32.054786995 ], [ -87.927337706, 32.055703193 ] ] } },
{ "type": "Feature", "properties": { "site_no": "02469550", "nhdplus_comid": "18543526", "navigation_mode": "DM", "requested_distance_km": 12.0, "start_source": "nwissite", "start_id": "USGS-02469550", "geometry_length_km": 0.69564854857183955 }, "geometry": { "type": "LineString", "coordinates": [ [ -87.927337706, 32.055703193 ], [ -87.928494707, 32.055885993 ], [ -87.929275006, 32.055931598 ], [ -87.929839902, 32.055793799 ], [ -87.930189505, 32.055610396 ], [ -87.930081502, 32.054831296 ], [ -87.930189006, 32.054670796 ], [ -87.930377401, 32.054670699 ], [ -87.931130901, 32.054991297 ], [ -87.931480601, 32.055014096 ], [ -87.9316689, 32.054876499 ], [ -87.931830004, 32.0543494 ], [ -87.932233304, 32.053959697 ], [ -87.932636902, 32.053959496 ] ] } },
{ "type": "Feature", "properties": { "site_no": "02469550", "nhdplus_comid": "18543536", "navigation_mode": "DM", "requested_distance_km": 12.0, "start_source": "nwissite", "start_id": "USGS-02469550", "geometry_length_km": 0.91663495502780168 }, "geometry": { "type": "LineString", "coordinates": [ [ -87.932636902, 32.053959496 ], [ -87.933255702, 32.0540509 ], [ -87.933605202, 32.053683996 ], [ -87.933981806, 32.053431794 ], [ -87.934600502, 32.053431593 ], [ -87.935219504, 32.053752095 ], [ -87.935569204, 32.053751893 ], [ -87.936026506, 32.053453796 ], [ -87.9363757, 32.052834995 ], [ -87.936913602, 32.0524223 ], [ -87.937908903, 32.0521468 ], [ -87.939630501, 32.052008495 ], [ -87.939818904, 32.051916696 ], [ -87.939926304, 32.051756196 ], [ -87.939871803, 32.050862595 ] ] } },
{ "type": "Feature", "properties": { "site_no": "02469550", "nhdplus_comid": "18543538", "navigation_mode": "DM", "requested_distance_km": 12.0, "start_source": "nwissite", "start_id": "USGS-02469550", "geometry_length_km": 0.59831149220514135 }, "geometry": { "type": "LineString", "coordinates": [ [ -87.939871803, 32.050862595 ], [ -87.940705605, 32.050701797 ], [ -87.941593505, 32.050770096 ], [ -87.943396606, 32.051341996 ], [ -87.944069207, 32.051456198 ], [ -87.944445901, 32.051364295 ], [ -87.944902703, 32.050974496 ], [ -87.945279405, 32.050974295 ], [ -87.945844606, 32.051111497 ] ] } },
{ "type": "Feature", "properties": { "site_no": "02469550", "nhdplus_comid": "18543550", "navigation_mode": "DM", "requested_distance_km": 12.0, "start_source": "nwissite", "start_id": "USGS-02469550", "geometry_length_km": 0.54030696786692345 }, "geometry": { "type": "LineString", "coordinates": [ [ -87.945844606, 32.051111497 ], [ -87.946248204, 32.0510884 ], [ -87.947942406, 32.050422795 ], [ -87.948399507, 32.050055899 ], [ -87.948587604, 32.049803793 ], [ -87.948587306, 32.049460098 ], [ -87.947645605, 32.049277395 ], [ -87.947591603, 32.049116999 ], [ -87.947752804, 32.0489107 ], [ -87.948317602, 32.048681296 ] ] } }
]
}
