{
"type": "FeatureCollection",
"name": "USGS_02374745_DM_12km",
"crs": { "type": "name", "properties": { "name": "urn:ogc:def:crs:OGC:1.3:CRS84" } },
"features": [
{ "type": "Feature", "properties": { "site_no": "02374745", "nhdplus_comid": "2413254", "navigation_mode": "DM", "requested_distance_km": 12.0, "start_source": "nwissite", "start_id": "USGS-02374745", "geometry_length_km": 0.12329445392644044 }, "geometry": { "type": "LineString", "coordinates": [ [ -87.086659937, 31.129968281 ], [ -87.0877252, 31.129335999 ] ] } },
{ "type": "Feature", "properties": { "site_no": "02374745", "nhdplus_comid": "2413260", "navigation_mode": "DM", "requested_distance_km": 12.0, "start_source": "nwissite", "start_id": "USGS-02374745", "geometry_length_km": 0.97745930896616873 }, "geometry": { "type": "LineString", "coordinates": [ [ -87.0877252, 31.129335999 ], [ -87.087725505, 31.128808796 ], [ -87.087139502, 31.128327295 ], [ -87.0870331, 31.128075197 ], [ -87.087006606, 31.127685599 ], [ -87.086607002, 31.127410598 ], [ -87.086447306, 31.127204195 ], [ -87.086447403, 31.126952097 ], [ -87.086660706, 31.126539595 ], [ -87.086714104, 31.126172997 ], [ -87.086607501, 31.125966698 ], [ -87.086367801, 31.125829093 ], [ -87.086021401, 31.126058094 ], [ -87.085808106, 31.126493499 ], [ -87.085275203, 31.126562096 ], [ -87.0850356, 31.126332894 ], [ -87.085115805, 31.125576593 ], [ -87.084961705, 31.125118196 ], [ -87.084823102, 31.124705598 ], [ -87.085302904, 31.124109894 ], [ -87.085995704, 31.123789199 ] ] } },
{ "type": "Feature", "properties": { "site_no": "02374745", "nhdplus_comid": "2413352", "navigation_mode": "DM", "requested_distance_km": 12.0, "start_source": "nwissite", "start_id": "USGS-02374745", "geometry_length_km": 3.943781168899974 }, "geometry": { "type": "LineString", "coordinates": [ [ -87.085995704, 31.123789199 ], [ -87.085995801, 31.123628795 ], [ -87.086129002, 31.123445399 ], [ -87.086129107, 31.123101696 ], [ -87.085996002, 31.122941196 ], [ -87.0854633, 31.122803494 ], [ -87.085063905, 31.122345097 ], [ -87.085064001, 31.121955395 ], [ -87.085410804, 31.120557494 ], [ -87.0857573, 31.120099194 ], [ -87.085837401, 31.119732596 ], [ -87.085651003, 31.1195262 ], [ -87.085251406, 31.119296998 ], [ -87.085065104, 31.1190219 ], [ -87.084852405, 31.117852993 ], [ -87.084346704, 31.117188096 ], [ -87.084053703, 31.1170047 ], [ -87.082961507, 31.1167522 ], [ -87.082322404, 31.116316594 ], [ -87.082242504, 31.116110295 ], [ -87.081763104, 31.115949795 ], [ -87.081257202, 31.115422398 ], [ -87.0812575, 31.114941098 ], [ -87.081470907, 31.114184894 ], [ -87.081257902, 31.113978498 ], [ -87.080778301, 31.113909595 ], [ -87.080458805, 31.113748997 ], [ -87.080352403, 31.113565698 ], [ -87.080325805, 31.113267794 ], [ -87.080912106, 31.112465799 ], [ -87.081684902, 31.111916095 ], [ -87.081978105, 31.111366093 ], [ -87.0818718, 31.110999398 ], [ -87.081658706, 31.110815898 ], [ -87.081206001, 31.110655293 ], [ -87.080913104, 31.110425994 ], [ -87.080806702, 31.109898895 ], [ -87.081126906, 31.109005198 ], [ -87.081154101, 31.107515499 ], [ -87.081021003, 31.107240394 ], [ -87.080834605, 31.107079893 ], [ -87.080488406, 31.106988095 ], [ -87.0791566, 31.107079394 ], [ -87.078544006, 31.106964596 ], [ -87.078011401, 31.106528893 ], [ -87.077159606, 31.105313994 ], [ -87.076547302, 31.104901195 ], [ -87.076307803, 31.104442693 ], [ -87.076281302, 31.103938498 ], [ -87.076840803, 31.103572093 ], [ -87.077054106, 31.103090793 ], [ -87.076974504, 31.102563694 ], [ -87.076522, 31.101990499 ], [ -87.076629102, 31.100936294 ], [ -87.076469406, 31.100638196 ], [ -87.075777307, 31.100087993 ], [ -87.075537704, 31.099766999 ], [ -87.075271502, 31.099056497 ], [ -87.075271904, 31.0984606 ], [ -87.075458504, 31.0981398 ], [ -87.075485304, 31.097681396 ], [ -87.075352304, 31.097452097 ], [ -87.074766405, 31.097314395 ], [ -87.0745802, 31.097108096 ], [ -87.074553803, 31.096512198 ] ] } },
{ "type": "Feature", "properties": { "site_no": "02374745", "nhdplus_comid": "2413396", "navigation_mode": "DM", "requested_distance_km": 12.0, "start_source": "nwissite", "start_id": "USGS-02374745", "geometry_length_km": 2.4389075292708866 }, "geometry": { "type": "LineString", "coordinates": [ [ -87.074553803, 31.096512198 ], [ -87.075752601, 31.096054293 ], [ -87.076365307, 31.095733598 ], [ -87.076631807, 31.095321193 ], [ -87.076738603, 31.094862893 ], [ -87.076738901, 31.094175294 ], [ -87.076899007, 31.093739897 ], [ -87.077458501, 31.093235895 ], [ -87.079109803, 31.092801094 ], [ -87.080281906, 31.092343099 ], [ -87.080654904, 31.0920453 ], [ -87.081347607, 31.091220498 ], [ -87.082120202, 31.090601899 ], [ -87.082440004, 31.0900978 ], [ -87.082626604, 31.089524895 ], [ -87.082627207, 31.088355996 ], [ -87.082361102, 31.087759994 ], [ -87.081722401, 31.086820096 ], [ -87.081642807, 31.086361796 ], [ -87.081723005, 31.085261695 ], [ -87.082122907, 31.084230497 ], [ -87.083162107, 31.082764 ], [ -87.083775103, 31.081709899 ], [ -87.083828703, 31.080747396 ], [ -87.083589107, 31.080426395 ], [ -87.083536103, 31.079945199 ], [ -87.0834563, 31.079830498 ], [ -87.083429702, 31.079463899 ], [ -87.0833233, 31.079372093 ], [ -87.083350107, 31.078959599 ] ] } },
{ "type": "Feature", "properties": { "site_no": "02374745", "nhdplus_comid": "2413408", "navigation_mode": "DM", "requested_distance_km": 12.0, "start_source": "nwissite", "start_id": "USGS-02374745", "geometry_length_km": 0.46271143306791307 }, "geometry": { "type": "LineString", "coordinates": [ [ -87.083350107, 31.078959599 ], [ -87.083350405, 31.078042895 ], [ -87.083004504, 31.077515699 ], [ -87.083058104, 31.076805294 ], [ -87.083404407, 31.0763698 ], [ -87.083803803, 31.076347098 ], [ -87.084416203, 31.076645195 ], [ -87.084948704, 31.076645397 ] ] } },
{ "type": "Feature", "properties": { "site_no": "02374745", "nhdplus_comid": "2413424", "navigation_mode": "DM", "requested_distance_km": 12.0, "start_source": "nwissite", "start_id": "USGS-02374745", "geometry_length_km": 0.72862701097746296 }, "geometry": { "type": "LineString", "coordinates": [ [ -87.084948704, 31.076645397 ], [ -87.084948801, 31.076461993 ], [ -87.085588105, 31.075889297 ], [ -87.086626701, 31.075385399 ], [ -87.088357702, 31.074950397 ], [ -87.088703901, 31.074675493 ], [ -87.089156806, 31.074033894 ], [ -87.089875802, 31.074034095 ], [ -87.090621203, 31.074492693 ], [ -87.091153704, 31.074538596 ] ] } },
{ "type": "Feature", "properties": { "site_no": "02374745", "nhdplus_comid": "2413432", "navigation_mode": "DM", "requested_distance_km": 12.0, "start_source": "nwissite", "start_id": "USGS-02374745", "geometry_length_km": 1.0800227445717365 }, "geometry": { "type": "LineString", "coordinates": [ [ -87.091153704, 31.074538596 ], [ -87.091526501, 31.074286595 ], [ -87.091659807, 31.074011594 ], [ -87.0917399, 31.073507495 ], [ -87.091979504, 31.073301196 ], [ -87.092512205, 31.073209696 ], [ -87.0934439, 31.073576599 ], [ -87.094189502, 31.073599599 ], [ -87.094642103, 31.073462196 ], [ -87.094988406, 31.073141493 ], [ -87.095228203, 31.072751999 ], [ -87.095281601, 31.072201997 ], [ -87.095148601, 31.0717206 ], [ -87.095388405, 31.071331099 ], [ -87.095814601, 31.070964396 ], [ -87.097518705, 31.0704147 ], [ -87.097838402, 31.070162699 ], [ -87.098184705, 31.069337696 ], [ -87.098291203, 31.069246098 ] ] } },
{ "type": "Feature", "properties": { "site_no": "02374745", "nhdplus_comid": "2413442", "navigation_mode": "DM", "requested_distance_km": 12.0, "start_source": "nwissite", "start_id": "USGS-02374745", "geometry_length_km": 0.16188737514458118 }, "geometry": { "type": "LineString", "coordinates": [ [ -87.098291203, 31.069246098 ], [ -87.098025203, 31.068260498 ], [ -87.097732507, 31.067893796 ] ] } },
{ "type": "Feature", "properties": { "site_no": "02374745", "nhdplus_comid": "2413988", "navigation_mode": "DM", "requested_distance_km": 12.0, "start_source": "nwissite", "start_id": "USGS-02374745", "geometry_length_km": 0.058106185667478528 }, "geometry": { "type": "LineString", "coordinates": [ [ -87.097732507, 31.067893796 ], [ -87.097658403, 31.067743793 ], [ -87.097626805, 31.067658097 ], [ -87.097595103, 31.067572296 ], [ -87.097563401, 31.067486599 ], [ -87.097531803, 31.067400895 ] ] } },
{ "type": "Feature", "properties": { "site_no": "02374745", "nhdplus_comid": "2413990", "navigation_mode": "DM", "requested_distance_km": 12.0, "start_source": "nwissite", "start_id": "USGS-02374745", "geometry_length_km": 0.10662701824678314 }, "geometry": { "type": "LineString", "coordinates": [ [ -87.097531803, 31.067400895 ], [ -87.098067701, 31.066558897 ] ] } },
{ "type": "Feature", "properties": { "site_no": "02374745", "nhdplus_comid": "2414008", "navigation_mode": "DM", "requested_distance_km": 12.0, "start_source": "nwissite", "start_id": "USGS-02374745", "geometry_length_km": 0.91746807235810912 }, "geometry": { "type": "LineString", "coordinates": [ [ -87.098067701, 31.066558897 ], [ -87.098127604, 31.064667299 ], [ -87.097875901, 31.064267799 ], [ -87.097839504, 31.0632535 ], [ -87.0979634, 31.062125593 ], [ -87.099369407, 31.060089193 ], [ -87.099667206, 31.058722496 ] ] } }
]
}
