{
"type": "FeatureCollection",
"name": "USGS_02419625_DM_12km",
"crs": { "type": "name", "properties": { "name": "urn:ogc:def:crs:OGC:1.3:CRS84" } },
"features": [
{ "type": "Feature", "properties": { "site_no": "02419625", "nhdplus_comid": "21715374", "navigation_mode": "DM", "requested_distance_km": 12.0, "start_source": "nwissite", "start_id": "USGS-02419625", "geometry_length_km": 6.9301978645064208 }, "geometry": { "type": "LineString", "coordinates": [ [ -85.827421606, 32.379439049 ], [ -85.827627704, 32.379592098 ], [ -85.828734502, 32.379936196 ], [ -85.828869402, 32.380073793 ], [ -85.828895904, 32.381013095 ], [ -85.828085601, 32.381493896 ], [ -85.828085601, 32.3816543 ], [ -85.828247502, 32.3817918 ], [ -85.828598507, 32.381746098 ], [ -85.828760602, 32.381585799 ], [ -85.829165503, 32.381677598 ], [ -85.829084106, 32.382456496 ], [ -85.829488903, 32.382662795 ], [ -85.830866002, 32.382617496 ], [ -85.831136003, 32.382732093 ], [ -85.831189707, 32.383236296 ], [ -85.831405506, 32.383511193 ], [ -85.831837602, 32.383419797 ], [ -85.832269803, 32.3830304 ], [ -85.833430804, 32.383030899 ], [ -85.833673902, 32.382755995 ], [ -85.833701104, 32.382503994 ], [ -85.833998106, 32.382343695 ], [ -85.834483907, 32.382802099 ], [ -85.835158907, 32.382779494 ], [ -85.835266903, 32.382848196 ], [ -85.835266605, 32.383352295 ], [ -85.835050501, 32.383604199 ], [ -85.8350503, 32.384062499 ], [ -85.835455, 32.384429194 ], [ -85.836481102, 32.384521097 ], [ -85.836642906, 32.384727396 ], [ -85.836696804, 32.385071099 ], [ -85.837371603, 32.385575294 ], [ -85.837263502, 32.385850199 ], [ -85.836642101, 32.386514395 ], [ -85.836696006, 32.386812299 ], [ -85.836965904, 32.387133099 ], [ -85.837506004, 32.386904195 ], [ -85.837749101, 32.386675194 ], [ -85.838046104, 32.386698194 ], [ -85.837992005, 32.386950195 ], [ -85.837505803, 32.387637295 ], [ -85.837478705, 32.387797698 ], [ -85.837721705, 32.387797795 ], [ -85.8388559, 32.387294099 ], [ -85.839342207, 32.386561096 ], [ -85.839558206, 32.386698693 ], [ -85.839531004, 32.387088098 ], [ -85.839179605, 32.388187699 ], [ -85.839422502, 32.3884627 ], [ -85.839962505, 32.388348393 ], [ -85.840313807, 32.387981795 ], [ -85.841528602, 32.388463296 ], [ -85.841744505, 32.388806999 ], [ -85.842311502, 32.389059193 ], [ -85.842311002, 32.390067197 ], [ -85.842905, 32.390227899 ], [ -85.842850901, 32.390502796 ], [ -85.8426347, 32.3907547 ], [ -85.842607707, 32.390983693 ], [ -85.843255602, 32.391213 ], [ -85.843390606, 32.391350597 ], [ -85.843309402, 32.391854599 ], [ -85.843525305, 32.392037898 ], [ -85.8442275, 32.391900696 ], [ -85.844794601, 32.391579993 ], [ -85.8449836, 32.391580097 ], [ -85.845577605, 32.391786493 ], [ -85.8458746, 32.3919928 ], [ -85.846603706, 32.391947098 ], [ -85.846711606, 32.392061695 ], [ -85.846792504, 32.392382495 ], [ -85.847575702, 32.392130695 ], [ -85.847818702, 32.392268196 ], [ -85.847575404, 32.3928409 ], [ -85.8476834, 32.392955497 ], [ -85.848250404, 32.392932698 ], [ -85.848547503, 32.392795295 ], [ -85.848655701, 32.392634995 ], [ -85.8487368, 32.3922913 ], [ -85.848871805, 32.392108098 ], [ -85.849195905, 32.392130993 ], [ -85.849546701, 32.392726794 ], [ -85.849816702, 32.392635293 ], [ -85.850005902, 32.392199993 ], [ -85.850437902, 32.392474994 ], [ -85.850680605, 32.393505998 ], [ -85.8514366, 32.393964395 ], [ -85.852138601, 32.394124895 ], [ -85.852813706, 32.394056298 ], [ -85.853083804, 32.393918894 ], [ -85.853623904, 32.393460795 ], [ -85.854353003, 32.393552594 ], [ -85.854973905, 32.394171298 ], [ -85.855162807, 32.394537896 ], [ -85.855486907, 32.394789994 ], [ -85.855567805, 32.395087793 ], [ -85.855378702, 32.3955689 ], [ -85.855486602, 32.395683497 ], [ -85.855918705, 32.395660698 ], [ -85.856107801, 32.395477399 ], [ -85.8561619, 32.395156696 ], [ -85.856486, 32.394790098 ], [ -85.856783003, 32.394996397 ], [ -85.856944904, 32.395431794 ], [ -85.857160904, 32.395592093 ], [ -85.857701004, 32.395500593 ], [ -85.857836105, 32.395294495 ], [ -85.857755207, 32.395019494 ], [ -85.857566103, 32.394859098 ], [ -85.857620202, 32.394561298 ], [ -85.857755207, 32.394332096 ], [ -85.8581063, 32.394332297 ], [ -85.858889304, 32.394676 ], [ -85.8597534, 32.394538693 ], [ -85.859834403, 32.394653194 ], [ -85.859753504, 32.394836493 ], [ -85.859348305, 32.395157196 ], [ -85.8593482, 32.395340495 ], [ -85.859591305, 32.395432197 ], [ -85.860374503, 32.395363599 ], [ -85.860671505, 32.395248994 ], [ -85.860914603, 32.395271994 ], [ -85.860779405, 32.395707294 ], [ -85.860806301, 32.395982295 ], [ -85.861508504, 32.395890698 ], [ -85.861346401, 32.396463394 ], [ -85.861508407, 32.3963947 ], [ -85.8620755, 32.3960054 ], [ -85.862291604, 32.396028295 ], [ -85.862372503, 32.3961199 ], [ -85.862183407, 32.396601096 ], [ -85.862075306, 32.396944694 ], [ -85.862399504, 32.396921799 ], [ -85.862885602, 32.396761499 ], [ -85.863128506, 32.396990597 ], [ -85.863209404, 32.397448897 ], [ -85.863614507, 32.397586294 ], [ -85.8638575, 32.397792496 ], [ -85.8637494, 32.398273595 ], [ -85.863830402, 32.398479797 ], [ -85.864235401, 32.398731895 ] ] } },
{ "type": "Feature", "properties": { "site_no": "02419625", "nhdplus_comid": "21717296", "navigation_mode": "DM", "requested_distance_km": 12.0, "start_source": "nwissite", "start_id": "USGS-02419625", "geometry_length_km": 0.61705302631702819 }, "geometry": { "type": "LineString", "coordinates": [ [ -85.864235401, 32.398731895 ], [ -85.864640601, 32.398319498 ], [ -85.864991605, 32.398227997 ], [ -85.865315706, 32.398365498 ], [ -85.865666702, 32.398640394 ], [ -85.865990706, 32.3985717 ], [ -85.866152801, 32.398388393 ], [ -85.866962902, 32.398755096 ], [ -85.867313907, 32.399304993 ], [ -85.867826901, 32.399396695 ], [ -85.867961906, 32.399602897 ], [ -85.868205003, 32.399740398 ], [ -85.868718006, 32.399625897 ], [ -85.869231202, 32.399488494 ], [ -85.869474202, 32.399328098 ] ] } },
{ "type": "Feature", "properties": { "site_no": "02419625", "nhdplus_comid": "21717294", "navigation_mode": "DM", "requested_distance_km": 12.0, "start_source": "nwissite", "start_id": "USGS-02419625", "geometry_length_km": 0.9751510218065671 }, "geometry": { "type": "LineString", "coordinates": [ [ -85.869474202, 32.399328098 ], [ -85.870041303, 32.399877995 ], [ -85.870473504, 32.399832293 ], [ -85.8711216, 32.3995803 ], [ -85.871499605, 32.399809398 ], [ -85.871607602, 32.400130197 ], [ -85.872039706, 32.400496796 ], [ -85.872255601, 32.400863297 ], [ -85.8722286, 32.4015278 ], [ -85.872417606, 32.401665196 ], [ -85.873227805, 32.401756898 ], [ -85.873443902, 32.4019861 ], [ -85.873254903, 32.402375497 ], [ -85.873389803, 32.402925298 ], [ -85.873849005, 32.403085798 ], [ -85.874092005, 32.403291993 ], [ -85.874605104, 32.403269097 ], [ -85.874956205, 32.403521098 ], [ -85.875280306, 32.403635599 ], [ -85.876171403, 32.403658599 ] ] } },
{ "type": "Feature", "properties": { "site_no": "02419625", "nhdplus_comid": "21715156", "navigation_mode": "DM", "requested_distance_km": 12.0, "start_source": "nwissite", "start_id": "USGS-02419625", "geometry_length_km": 1.2978931455043734 }, "geometry": { "type": "LineString", "coordinates": [ [ -85.876171403, 32.403658599 ], [ -85.876306504, 32.404437497 ], [ -85.876576506, 32.404529095 ], [ -85.877116606, 32.404368795 ], [ -85.877602801, 32.404391699 ], [ -85.877926901, 32.404185496 ], [ -85.878791101, 32.404277198 ], [ -85.879034206, 32.404414594 ], [ -85.879115105, 32.404574998 ], [ -85.879115105, 32.404987395 ], [ -85.879385203, 32.405445598 ], [ -85.879385203, 32.405697696 ], [ -85.879682302, 32.405766398 ], [ -85.880357504, 32.405697696 ], [ -85.880681604, 32.405903898 ], [ -85.880735502, 32.406476595 ], [ -85.881788805, 32.406316295 ], [ -85.8818698, 32.406362094 ], [ -85.881815806, 32.407049298 ], [ -85.882059, 32.407141 ], [ -85.8832203, 32.406911895 ], [ -85.883544303, 32.407118097 ], [ -85.883652404, 32.407370098 ], [ -85.883868404, 32.407507494 ], [ -85.884651706, 32.4075763 ], [ -85.885083802, 32.407851197 ], [ -85.885326907, 32.408263594 ] ] } },
{ "type": "Feature", "properties": { "site_no": "02419625", "nhdplus_comid": "21715126", "navigation_mode": "DM", "requested_distance_km": 12.0, "start_source": "nwissite", "start_id": "USGS-02419625", "geometry_length_km": 0.31221422238390523 }, "geometry": { "type": "LineString", "coordinates": [ [ -85.885326907, 32.408263594 ], [ -85.885624006, 32.408423893 ], [ -85.885678001, 32.408561394 ], [ -85.885516003, 32.408790499 ], [ -85.885516107, 32.409111299 ], [ -85.886002302, 32.4093633 ], [ -85.886542402, 32.409340195 ], [ -85.886812501, 32.409088194 ], [ -85.887244605, 32.4094318 ] ] } },
{ "type": "Feature", "properties": { "site_no": "02419625", "nhdplus_comid": "21715120", "navigation_mode": "DM", "requested_distance_km": 12.0, "start_source": "nwissite", "start_id": "USGS-02419625", "geometry_length_km": 0.1676759729318783 }, "geometry": { "type": "LineString", "coordinates": [ [ -85.887244605, 32.4094318 ], [ -85.887298703, 32.409637995 ], [ -85.887649804, 32.409889996 ], [ -85.888000906, 32.4100274 ], [ -85.888109103, 32.410600193 ] ] } },
{ "type": "Feature", "properties": { "site_no": "02419625", "nhdplus_comid": "21715118", "navigation_mode": "DM", "requested_distance_km": 12.0, "start_source": "nwissite", "start_id": "USGS-02419625", "geometry_length_km": 2.3195079938264529 }, "geometry": { "type": "LineString", "coordinates": [ [ -85.888109103, 32.410600193 ], [ -85.889162406, 32.4107605 ], [ -85.889783502, 32.410966694 ], [ -85.890080802, 32.411356196 ], [ -85.889837705, 32.411951795 ], [ -85.8899187, 32.412043497 ], [ -85.890242904, 32.411951795 ], [ -85.890729003, 32.4116311 ], [ -85.891647302, 32.411424696 ], [ -85.891836204, 32.411172695 ], [ -85.891782306, 32.411012299 ], [ -85.8915122, 32.410760298 ], [ -85.891133904, 32.410645798 ], [ -85.891269006, 32.410462499 ], [ -85.892619401, 32.410416596 ], [ -85.892727502, 32.410508193 ], [ -85.8926735, 32.410806 ], [ -85.892538503, 32.410989396 ], [ -85.892565504, 32.411241397 ], [ -85.892862603, 32.411218397 ], [ -85.893132605, 32.410943493 ], [ -85.893483803, 32.411149599 ], [ -85.893645905, 32.411676496 ], [ -85.894105203, 32.411951497 ], [ -85.893835105, 32.412386797 ], [ -85.893781103, 32.412661694 ], [ -85.894348301, 32.412776195 ], [ -85.894564405, 32.413119897 ], [ -85.895077601, 32.413119793 ], [ -85.895320803, 32.413257197 ], [ -85.895536803, 32.413188495 ], [ -85.895806804, 32.412798896 ], [ -85.895996004, 32.412844695 ], [ -85.896293104, 32.413142495 ], [ -85.896563202, 32.413073793 ], [ -85.896698102, 32.412661396 ], [ -85.896914206, 32.412752897 ], [ -85.897103302, 32.413119599 ], [ -85.897211403, 32.4132341 ], [ -85.898021601, 32.412958995 ], [ -85.898264706, 32.412615299 ], [ -85.898750804, 32.412729695 ], [ -85.898777902, 32.412890099 ], [ -85.899480306, 32.413577296 ], [ -85.899480306, 32.4138522 ], [ -85.900236607, 32.414195798 ], [ -85.900425807, 32.414516494 ], [ -85.900803901, 32.414470598 ], [ -85.900938906, 32.414310195 ], [ -85.901128002, 32.414310195 ], [ -85.901884407, 32.414974399 ], [ -85.902613707, 32.4152034 ] ] } }
]
}
