{
"type": "FeatureCollection",
"name": "USGS_02405000_UM_12km",
"crs": { "type": "name", "properties": { "name": "urn:ogc:def:crs:OGC:1.3:CRS84" } },
"features": [
{ "type": "Feature", "properties": { "site_no": "02405000", "nhdplus_comid": "26132779", "navigation_mode": "UM", "requested_distance_km": 12.0, "start_source": "nwissite", "start_id": "USGS-02405000", "geometry_length_km": 1.6441161640431547 }, "geometry": { "type": "LineString", "coordinates": [ [ -86.211500905, 33.531066895 ], [ -86.216233805, 33.527255699 ], [ -86.223364003, 33.523939297 ], [ -86.225507134, 33.522170954 ] ] } },
{ "type": "Feature", "properties": { "site_no": "02405000", "nhdplus_comid": "26132765", "navigation_mode": "UM", "requested_distance_km": 12.0, "start_source": "nwissite", "start_id": "USGS-02405000", "geometry_length_km": 1.3494814307229552 }, "geometry": { "type": "LineString", "coordinates": [ [ -86.199444607, 33.537764296 ], [ -86.202262506, 33.535828397 ], [ -86.2097027, 33.532514796 ], [ -86.211500905, 33.531066895 ] ] } },
{ "type": "Feature", "properties": { "site_no": "02405000", "nhdplus_comid": "26132759", "navigation_mode": "UM", "requested_distance_km": 12.0, "start_source": "nwissite", "start_id": "USGS-02405000", "geometry_length_km": 1.1273549006648562 }, "geometry": { "type": "LineString", "coordinates": [ [ -86.191891305, 33.545460299 ], [ -86.193244301, 33.542751193 ], [ -86.1966694, 33.539670698 ], [ -86.199444607, 33.537764296 ] ] } },
{ "type": "Feature", "properties": { "site_no": "02405000", "nhdplus_comid": "26132747", "navigation_mode": "UM", "requested_distance_km": 12.0, "start_source": "nwissite", "start_id": "USGS-02405000", "geometry_length_km": 0.50771593852461883 }, "geometry": { "type": "LineString", "coordinates": [ [ -86.192850806, 33.549914196 ], [ -86.191828504, 33.545586094 ], [ -86.191891305, 33.545460299 ] ] } },
{ "type": "Feature", "properties": { "site_no": "02405000", "nhdplus_comid": "26132745", "navigation_mode": "UM", "requested_distance_km": 12.0, "start_source": "nwissite", "start_id": "USGS-02405000", "geometry_length_km": 2.2139750813427663 }, "geometry": { "type": "LineString", "coordinates": [ [ -86.211243607, 33.562169194 ], [ -86.211226702, 33.5621133 ], [ -86.2096854, 33.560474798 ], [ -86.204066806, 33.557995893 ], [ -86.196232602, 33.553500898 ], [ -86.1928683, 33.549988493 ], [ -86.192850806, 33.549914196 ] ] } },
{ "type": "Feature", "properties": { "site_no": "02405000", "nhdplus_comid": "26132737", "navigation_mode": "UM", "requested_distance_km": 12.0, "start_source": "nwissite", "start_id": "USGS-02405000", "geometry_length_km": 1.2831006790858446 }, "geometry": { "type": "LineString", "coordinates": [ [ -86.2117237, 33.573373497 ], [ -86.211708203, 33.573353797 ], [ -86.211348705, 33.570094198 ], [ -86.212548502, 33.566518895 ], [ -86.211243607, 33.562169194 ] ] } },
{ "type": "Feature", "properties": { "site_no": "02405000", "nhdplus_comid": "26132735", "navigation_mode": "UM", "requested_distance_km": 12.0, "start_source": "nwissite", "start_id": "USGS-02405000", "geometry_length_km": 1.8150346548853491 }, "geometry": { "type": "LineString", "coordinates": [ [ -86.221480906, 33.587196499 ], [ -86.219032004, 33.581054598 ], [ -86.213631503, 33.575808898 ], [ -86.2117237, 33.573373497 ] ] } },
{ "type": "Feature", "properties": { "site_no": "02405000", "nhdplus_comid": "26132733", "navigation_mode": "UM", "requested_distance_km": 12.0, "start_source": "nwissite", "start_id": "USGS-02405000", "geometry_length_km": 4.3381315929404121 }, "geometry": { "type": "LineString", "coordinates": [ [ -86.184056506, 33.596609496 ], [ -86.184073202, 33.594834998 ], [ -86.1852623, 33.592562795 ], [ -86.186633505, 33.591594696 ], [ -86.1891708, 33.590797 ], [ -86.194222502, 33.591644399 ], [ -86.199464306, 33.592981197 ], [ -86.212097906, 33.594690897 ], [ -86.215412006, 33.5940606 ], [ -86.217761807, 33.592446797 ], [ -86.219723806, 33.590667799 ], [ -86.221505903, 33.587258898 ], [ -86.221480906, 33.587196499 ] ] } }
]
}
