{
"type": "FeatureCollection",
"name": "USGS_02464146_DM_12km",
"crs": { "type": "name", "properties": { "name": "urn:ogc:def:crs:OGC:1.3:CRS84" } },
"features": [
{ "type": "Feature", "properties": { "site_no": "02464146", "nhdplus_comid": "18227533", "navigation_mode": "DM", "requested_distance_km": 12.0, "start_source": "nwissite", "start_id": "USGS-02464146", "geometry_length_km": 0.086408570382139172 }, "geometry": { "type": "LineString", "coordinates": [ [ -87.510490979, 33.41352236 ], [ -87.510574505, 33.413686395 ], [ -87.511065707, 33.414122097 ] ] } },
{ "type": "Feature", "properties": { "site_no": "02464146", "nhdplus_comid": "18227503", "navigation_mode": "DM", "requested_distance_km": 12.0, "start_source": "nwissite", "start_id": "USGS-02464146", "geometry_length_km": 1.7394270628173092 }, "geometry": { "type": "LineString", "coordinates": [ [ -87.511065707, 33.414122097 ], [ -87.511311606, 33.414145194 ], [ -87.511475302, 33.414282799 ], [ -87.511884905, 33.414397694 ], [ -87.513715006, 33.414582595 ], [ -87.515163101, 33.4144006 ], [ -87.5155458, 33.4141718 ], [ -87.515792206, 33.413736798 ], [ -87.516202502, 33.413255997 ], [ -87.516776606, 33.412958696 ], [ -87.5170779, 33.412386097 ], [ -87.517296806, 33.412134297 ], [ -87.517761305, 33.411974296 ], [ -87.518553704, 33.4118146 ], [ -87.519400306, 33.412021495 ], [ -87.520437501, 33.412732594 ], [ -87.521311402, 33.412962496 ], [ -87.521912403, 33.4129171 ], [ -87.5221586, 33.4126653 ], [ -87.522377707, 33.412184395 ], [ -87.523033902, 33.411634997 ], [ -87.523553006, 33.4115896 ], [ -87.526146904, 33.412622698 ], [ -87.526255704, 33.413126796 ] ] } },
{ "type": "Feature", "properties": { "site_no": "02464146", "nhdplus_comid": "18227587", "navigation_mode": "DM", "requested_distance_km": 12.0, "start_source": "nwissite", "start_id": "USGS-02464146", "geometry_length_km": 2.7945758731466981 }, "geometry": { "type": "LineString", "coordinates": [ [ -87.526255704, 33.413126796 ], [ -87.526884004, 33.413150199 ], [ -87.527458206, 33.412783995 ], [ -87.527813703, 33.412371993 ], [ -87.528442107, 33.412211999 ], [ -87.530191906, 33.410838693 ], [ -87.531011805, 33.410472795 ], [ -87.532350704, 33.4101988 ], [ -87.533907406, 33.410451896 ], [ -87.534809105, 33.410269298 ], [ -87.535383105, 33.409880199 ], [ -87.535574704, 33.409651197 ], [ -87.536724001, 33.407498598 ], [ -87.537161507, 33.407109395 ], [ -87.538172305, 33.406926796 ], [ -87.538609505, 33.406789698 ], [ -87.539757401, 33.406126097 ], [ -87.539921403, 33.405942895 ], [ -87.539922006, 33.405324295 ], [ -87.540386803, 33.404843494 ], [ -87.540469103, 33.404522695 ], [ -87.540305704, 33.403972797 ], [ -87.540032804, 33.403697699 ], [ -87.540005803, 33.403422795 ], [ -87.540907905, 33.402598597 ], [ -87.541645803, 33.402140893 ], [ -87.542000905, 33.402118199 ], [ -87.543202706, 33.402302295 ], [ -87.544486403, 33.402325995 ], [ -87.544950902, 33.4022118 ], [ -87.545114905, 33.402074397 ], [ -87.545197204, 33.401639193 ], [ -87.545115605, 33.401341297 ], [ -87.544679202, 33.400584996 ], [ -87.5445427, 33.400470294 ], [ -87.544652402, 33.400058098 ], [ -87.545062102, 33.399966598 ], [ -87.545444407, 33.400104396 ] ] } },
{ "type": "Feature", "properties": { "site_no": "02464146", "nhdplus_comid": "18229483", "navigation_mode": "DM", "requested_distance_km": 12.0, "start_source": "nwissite", "start_id": "USGS-02464146", "geometry_length_km": 1.3766649113180369 }, "geometry": { "type": "LineString", "coordinates": [ [ -87.545444407, 33.400104396 ], [ -87.545682006, 33.400069296 ], [ -87.546749406, 33.400284 ], [ -87.547765404, 33.4007366 ], [ -87.548892006, 33.401574895 ], [ -87.549797602, 33.401641697 ], [ -87.5514144, 33.400753997 ], [ -87.551522002, 33.399754994 ], [ -87.551287405, 33.399108395 ], [ -87.5515863, 33.3977459 ], [ -87.552901201, 33.396835893 ], [ -87.554561302, 33.396958299 ], [ -87.555439904, 33.3972748 ] ] } },
{ "type": "Feature", "properties": { "site_no": "02464146", "nhdplus_comid": "18229481", "navigation_mode": "DM", "requested_distance_km": 12.0, "start_source": "nwissite", "start_id": "USGS-02464146", "geometry_length_km": 0.45472707412753688 }, "geometry": { "type": "LineString", "coordinates": [ [ -87.555439904, 33.3972748 ], [ -87.556127205, 33.397954799 ], [ -87.557294205, 33.398418397 ], [ -87.558132507, 33.399109595 ], [ -87.559477307, 33.399334498 ] ] } },
{ "type": "Feature", "properties": { "site_no": "02464146", "nhdplus_comid": "18229491", "navigation_mode": "DM", "requested_distance_km": 12.0, "start_source": "nwissite", "start_id": "USGS-02464146", "geometry_length_km": 1.6614787425786162 }, "geometry": { "type": "LineString", "coordinates": [ [ -87.559477307, 33.399334498 ], [ -87.562901802, 33.397195294 ], [ -87.563049607, 33.395821698 ], [ -87.562402502, 33.394767098 ], [ -87.562523402, 33.393643096 ], [ -87.563838102, 33.392733 ], [ -87.569408305, 33.393268995 ], [ -87.570189603, 33.393074796 ], [ -87.571148805, 33.392641895 ] ] } },
{ "type": "Feature", "properties": { "site_no": "02464146", "nhdplus_comid": "18229509", "navigation_mode": "DM", "requested_distance_km": 12.0, "start_source": "nwissite", "start_id": "USGS-02464146", "geometry_length_km": 2.6310650587218061 }, "geometry": { "type": "LineString", "coordinates": [ [ -87.571148805, 33.392641895 ], [ -87.572463401, 33.391731694 ], [ -87.572859101, 33.390879795 ], [ -87.573680706, 33.390310898 ], [ -87.574227303, 33.389469996 ], [ -87.577895805, 33.386467293 ], [ -87.579019107, 33.385920495 ], [ -87.582157604, 33.385018393 ], [ -87.585051402, 33.3849793 ], [ -87.589356802, 33.384540394 ], [ -87.5926423, 33.382264294 ], [ -87.592980601, 33.380526997 ] ] } },
{ "type": "Feature", "properties": { "site_no": "02464146", "nhdplus_comid": "18229529", "navigation_mode": "DM", "requested_distance_km": 12.0, "start_source": "nwissite", "start_id": "USGS-02464146", "geometry_length_km": 0.68774416306892594 }, "geometry": { "type": "LineString", "coordinates": [ [ -87.592980601, 33.380526997 ], [ -87.592018105, 33.379575297 ], [ -87.591397502, 33.378270999 ], [ -87.590435006, 33.377319299 ], [ -87.589254804, 33.376980796 ], [ -87.588292301, 33.376029097 ] ] } }
]
}
