{
"type": "FeatureCollection",
"name": "USGS_02428300_UM_12km",
"crs": { "type": "name", "properties": { "name": "urn:ogc:def:crs:OGC:1.3:CRS84" } },
"features": [
{ "type": "Feature", "properties": { "site_no": "02428300", "nhdplus_comid": "18237875", "navigation_mode": "UM", "requested_distance_km": 12.0, "start_source": "nwissite", "start_id": "USGS-02428300", "geometry_length_km": 0.2437009245665373 }, "geometry": { "type": "LineString", "coordinates": [ [ -87.302755401, 31.800854594 ], [ -87.302969903, 31.801152594 ], [ -87.303264901, 31.801221497 ], [ -87.304070406, 31.800626099 ], [ -87.304782518, 31.800322584 ] ] } },
{ "type": "Feature", "properties": { "site_no": "02428300", "nhdplus_comid": "18237847", "navigation_mode": "UM", "requested_distance_km": 12.0, "start_source": "nwissite", "start_id": "USGS-02428300", "geometry_length_km": 2.277649263696615 }, "geometry": { "type": "LineString", "coordinates": [ [ -87.291345701, 31.807195395 ], [ -87.291480005, 31.807103798 ], [ -87.291560702, 31.806851797 ], [ -87.2914536, 31.806599699 ], [ -87.291347302, 31.805407993 ], [ -87.291294105, 31.804926693 ], [ -87.291804001, 31.804812498 ], [ -87.292448007, 31.804927498 ], [ -87.293360405, 31.804813497 ], [ -87.293441005, 31.804744698 ], [ -87.293468401, 31.804080196 ], [ -87.293790802, 31.803668 ], [ -87.294273801, 31.803645395 ], [ -87.294461407, 31.803874597 ], [ -87.294380404, 31.804424495 ], [ -87.294621706, 31.804653898 ], [ -87.295077801, 31.804699995 ], [ -87.295158505, 31.804562494 ], [ -87.295400105, 31.804470994 ], [ -87.295721807, 31.8047233 ], [ -87.296419404, 31.804884098 ], [ -87.296607204, 31.804998897 ], [ -87.296660304, 31.805709198 ], [ -87.297062702, 31.805778198 ], [ -87.297519304, 31.805228494 ], [ -87.2979756, 31.805091299 ], [ -87.298217304, 31.804839395 ], [ -87.2985937, 31.804083399 ], [ -87.2988353, 31.8039231 ], [ -87.299559802, 31.803854793 ], [ -87.299720906, 31.803786099 ], [ -87.300016604, 31.803144693 ], [ -87.3003387, 31.8029157 ], [ -87.300500005, 31.802663796 ], [ -87.300420001, 31.801953293 ], [ -87.3002325, 31.801563494 ], [ -87.299696207, 31.801081896 ], [ -87.299696505, 31.800783999 ], [ -87.300206803, 31.800073996 ], [ -87.300528802, 31.799982496 ], [ -87.300662801, 31.800188795 ], [ -87.300689206, 31.800876297 ], [ -87.3011721, 31.8009912 ], [ -87.301923506, 31.800991595 ], [ -87.302755401, 31.800854594 ] ] } },
{ "type": "Feature", "properties": { "site_no": "02428300", "nhdplus_comid": "18237817", "navigation_mode": "UM", "requested_distance_km": 12.0, "start_source": "nwissite", "start_id": "USGS-02428300", "geometry_length_km": 1.2618842212010375 }, "geometry": { "type": "LineString", "coordinates": [ [ -87.2837767, 31.808794498 ], [ -87.283884101, 31.8087717 ], [ -87.284448303, 31.808153294 ], [ -87.284475401, 31.807763696 ], [ -87.284663402, 31.807580493 ], [ -87.285093002, 31.807443298 ], [ -87.285227001, 31.807558 ], [ -87.285253607, 31.807764195 ], [ -87.285146102, 31.808016196 ], [ -87.285118803, 31.808428794 ], [ -87.286165006, 31.808818996 ], [ -87.286379904, 31.808704495 ], [ -87.286675707, 31.8079485 ], [ -87.286998101, 31.807513297 ], [ -87.287293404, 31.807421893 ], [ -87.2875074, 31.808132395 ], [ -87.287829503, 31.808178395 ], [ -87.288528204, 31.807078995 ], [ -87.288769603, 31.807056196 ], [ -87.288957201, 31.807468794 ], [ -87.289171502, 31.807766899 ], [ -87.2899765, 31.807859093 ], [ -87.290245101, 31.807675898 ], [ -87.290272303, 31.807194695 ], [ -87.291345701, 31.807195395 ] ] } },
{ "type": "Feature", "properties": { "site_no": "02428300", "nhdplus_comid": "18237807", "navigation_mode": "UM", "requested_distance_km": 12.0, "start_source": "nwissite", "start_id": "USGS-02428300", "geometry_length_km": 0.57942151842591194 }, "geometry": { "type": "LineString", "coordinates": [ [ -87.280153506, 31.809273094 ], [ -87.280153804, 31.808952197 ], [ -87.280583307, 31.808860898 ], [ -87.280985601, 31.809090294 ], [ -87.281522304, 31.809021994 ], [ -87.281710602, 31.808563799 ], [ -87.282086402, 31.808472395 ], [ -87.282274105, 31.80861 ], [ -87.282274, 31.808724597 ], [ -87.282112807, 31.808907896 ], [ -87.282085702, 31.809136994 ], [ -87.282219805, 31.809274599 ], [ -87.283078305, 31.809481494 ], [ -87.283534504, 31.809481695 ], [ -87.2837767, 31.808794498 ] ] } },
{ "type": "Feature", "properties": { "site_no": "02428300", "nhdplus_comid": "18237799", "navigation_mode": "UM", "requested_distance_km": 12.0, "start_source": "nwissite", "start_id": "USGS-02428300", "geometry_length_km": 0.071790913665909381 }, "geometry": { "type": "LineString", "coordinates": [ [ -87.280636005, 31.809731796 ], [ -87.280582502, 31.809548393 ], [ -87.280153506, 31.809273094 ] ] } },
{ "type": "Feature", "properties": { "site_no": "02428300", "nhdplus_comid": "18237791", "navigation_mode": "UM", "requested_distance_km": 12.0, "start_source": "nwissite", "start_id": "USGS-02428300", "geometry_length_km": 1.2034396490151538 }, "geometry": { "type": "LineString", "coordinates": [ [ -87.2742704, 31.8149288 ], [ -87.274297401, 31.814837195 ], [ -87.274565905, 31.814699896 ], [ -87.275183104, 31.814700395 ], [ -87.275317505, 31.814539999 ], [ -87.2753179, 31.814081699 ], [ -87.275210902, 31.813829593 ], [ -87.274648003, 31.813210495 ], [ -87.274648204, 31.8129813 ], [ -87.274782702, 31.812729299 ], [ -87.275185302, 31.812683798 ], [ -87.275641404, 31.812775798 ], [ -87.276419804, 31.812570095 ], [ -87.276500806, 31.812157698 ], [ -87.276608303, 31.812020399 ], [ -87.276823007, 31.811974697 ], [ -87.2774131, 31.8122501 ], [ -87.278272003, 31.812181994 ], [ -87.278540105, 31.812388495 ], [ -87.2787816, 31.812388599 ], [ -87.278942905, 31.812113799 ], [ -87.278514102, 31.811586395 ], [ -87.278487705, 31.811242595 ], [ -87.278595105, 31.811105199 ], [ -87.279373802, 31.810647495 ], [ -87.279776506, 31.810533196 ], [ -87.280636005, 31.809731796 ] ] } },
{ "type": "Feature", "properties": { "site_no": "02428300", "nhdplus_comid": "18237769", "navigation_mode": "UM", "requested_distance_km": 12.0, "start_source": "nwissite", "start_id": "USGS-02428300", "geometry_length_km": 1.8621018425868772 }, "geometry": { "type": "LineString", "coordinates": [ [ -87.273854204, 31.827601098 ], [ -87.273854405, 31.827417798 ], [ -87.273988806, 31.827257499 ], [ -87.274043605, 31.8261576 ], [ -87.273829207, 31.825928196 ], [ -87.273185305, 31.825675599 ], [ -87.272783205, 31.825194098 ], [ -87.272488907, 31.824322999 ], [ -87.271925904, 31.8237039 ], [ -87.271899305, 31.823405899 ], [ -87.2720071, 31.823085196 ], [ -87.272866607, 31.822467193 ], [ -87.273350507, 31.821802899 ], [ -87.273780003, 31.821688697 ], [ -87.2739949, 31.821528494 ], [ -87.273995206, 31.821253493 ], [ -87.273861103, 31.821138799 ], [ -87.273861401, 31.820863798 ], [ -87.274398305, 31.820795499 ], [ -87.274961501, 31.821162596 ], [ -87.275176205, 31.821162798 ], [ -87.275337301, 31.821025394 ], [ -87.275337704, 31.820727497 ], [ -87.275123201, 31.820498198 ], [ -87.275177203, 31.820200294 ], [ -87.275392205, 31.819971293 ], [ -87.275392503, 31.8196733 ], [ -87.274936803, 31.819237493 ], [ -87.274910204, 31.818847895 ], [ -87.2753409, 31.817679599 ], [ -87.275341302, 31.817404598 ], [ -87.2748316, 31.817106299 ], [ -87.274832107, 31.816647999 ], [ -87.2750744, 31.815960698 ], [ -87.274457701, 31.815455996 ], [ -87.2742704, 31.8149288 ] ] } },
{ "type": "Feature", "properties": { "site_no": "02428300", "nhdplus_comid": "18237681", "navigation_mode": "UM", "requested_distance_km": 12.0, "start_source": "nwissite", "start_id": "USGS-02428300", "geometry_length_km": 1.0556239280196593 }, "geometry": { "type": "LineString", "coordinates": [ [ -87.274652705, 31.833903596 ], [ -87.274787106, 31.833651595 ], [ -87.2748143, 31.8333079 ], [ -87.274492703, 31.832917996 ], [ -87.273768201, 31.832665496 ], [ -87.273580506, 31.832481995 ], [ -87.273742005, 31.832115397 ], [ -87.273769103, 31.831817597 ], [ -87.273233101, 31.831060894 ], [ -87.273529001, 31.830579899 ], [ -87.2749523, 31.8298935 ], [ -87.275221102, 31.829504199 ], [ -87.2753288, 31.829183497 ], [ -87.2758663, 31.828542195 ], [ -87.275866605, 31.828290097 ], [ -87.275625005, 31.828266993 ], [ -87.275463901, 31.828404397 ], [ -87.274980702, 31.828403994 ], [ -87.274739601, 31.827922694 ], [ -87.274337202, 31.827830598 ], [ -87.273854204, 31.827601098 ] ] } }
]
}
