{
"type": "FeatureCollection",
"name": "USGS_02414765_UM_12km",
"crs": { "type": "name", "properties": { "name": "urn:ogc:def:crs:OGC:1.3:CRS84" } },
"features": [
{ "type": "Feature", "properties": { "site_no": "02414765", "nhdplus_comid": "22034585", "navigation_mode": "UM", "requested_distance_km": 12.0, "start_source": "nwissite", "start_id": "USGS-02414765", "geometry_length_km": 5.0722189320715945 }, "geometry": { "type": "LineString", "coordinates": [ [ -85.8672693, 33.244532697 ], [ -85.867242001, 33.244349398 ], [ -85.867078505, 33.244257793 ], [ -85.866669603, 33.244211994 ], [ -85.866042502, 33.244326398 ], [ -85.865497306, 33.2443721 ], [ -85.864461504, 33.243753493 ], [ -85.861435905, 33.241714194 ], [ -85.860018604, 33.240728997 ], [ -85.858328804, 33.238575295 ], [ -85.857429706, 33.237292297 ], [ -85.857321203, 33.234978594 ], [ -85.857103206, 33.234749496 ], [ -85.857130602, 33.234474495 ], [ -85.8570216, 33.234268397 ], [ -85.856994502, 33.233787298 ], [ -85.857158102, 33.2335812 ], [ -85.8570766, 33.232550293 ], [ -85.856913202, 33.232229494 ], [ -85.856695101, 33.232183695 ], [ -85.856422506, 33.232366897 ], [ -85.855904303, 33.233099796 ], [ -85.855549902, 33.233305998 ], [ -85.855032004, 33.233305797 ], [ -85.853587702, 33.232366294 ], [ -85.852960803, 33.231862195 ], [ -85.852742903, 33.231449798 ], [ -85.852715805, 33.231106095 ], [ -85.853152007, 33.230900094 ], [ -85.854923904, 33.230350696 ], [ -85.856259704, 33.229732499 ], [ -85.857350007, 33.229549497 ], [ -85.857704505, 33.229274593 ], [ -85.857759006, 33.229068495 ], [ -85.857650101, 33.228862293 ], [ -85.8570778, 33.228381194 ], [ -85.856260203, 33.227922797 ], [ -85.853943706, 33.227097593 ], [ -85.853235006, 33.2267996 ], [ -85.852662705, 33.226387195 ], [ -85.852581106, 33.226020597 ], [ -85.852499805, 33.224508695 ], [ -85.852990903, 33.223157197 ], [ -85.853072703, 33.222813599 ], [ -85.8526095, 33.222424194 ], [ -85.852309801, 33.222401194 ], [ -85.851955406, 33.222538494 ], [ -85.851900801, 33.222767599 ], [ -85.851818502, 33.224508494 ], [ -85.851736605, 33.224577196 ], [ -85.851791106, 33.224829294 ], [ -85.851245902, 33.224920698 ], [ -85.849910602, 33.224347696 ], [ -85.8489566, 33.224439099 ], [ -85.848384306, 33.224415995 ], [ -85.847593904, 33.224072196 ], [ -85.847348705, 33.223820098 ], [ -85.847321607, 33.223430693 ], [ -85.847676307, 33.222720698 ], [ -85.847739177, 33.221409736 ] ] } },
{ "type": "Feature", "properties": { "site_no": "02414765", "nhdplus_comid": "22034491", "navigation_mode": "UM", "requested_distance_km": 12.0, "start_source": "nwissite", "start_id": "USGS-02414765", "geometry_length_km": 0.47692576782126617 }, "geometry": { "type": "LineString", "coordinates": [ [ -85.865632802, 33.248403899 ], [ -85.865742005, 33.247899994 ], [ -85.865769506, 33.246410996 ], [ -85.865960501, 33.245975696 ], [ -85.8671057, 33.244761795 ], [ -85.8672693, 33.244532697 ] ] } },
{ "type": "Feature", "properties": { "site_no": "02414765", "nhdplus_comid": "22035503", "navigation_mode": "UM", "requested_distance_km": 12.0, "start_source": "nwissite", "start_id": "USGS-02414765", "geometry_length_km": 0.85569861062397168 }, "geometry": { "type": "LineString", "coordinates": [ [ -85.860299103, 33.251977496 ], [ -85.859781206, 33.251427799 ], [ -85.859835804, 33.250969596 ], [ -85.861035503, 33.250969693 ], [ -85.861853406, 33.250740699 ], [ -85.862480506, 33.250672095 ], [ -85.863761902, 33.250947095 ], [ -85.864443503, 33.250695199 ], [ -85.864743501, 33.250466198 ], [ -85.864978202, 33.250121899 ], [ -85.864950903, 33.249915697 ], [ -85.865632802, 33.248403899 ] ] } },
{ "type": "Feature", "properties": { "site_no": "02414765", "nhdplus_comid": "22034485", "navigation_mode": "UM", "requested_distance_km": 12.0, "start_source": "nwissite", "start_id": "USGS-02414765", "geometry_length_km": 1.7685237320645373 }, "geometry": { "type": "LineString", "coordinates": [ [ -85.870032206, 33.260843694 ], [ -85.867959902, 33.258896396 ], [ -85.867169306, 33.257888399 ], [ -85.865806304, 33.255666293 ], [ -85.865560904, 33.255505897 ], [ -85.865179203, 33.255597495 ], [ -85.864224702, 33.256994799 ], [ -85.863870203, 33.257086396 ], [ -85.863624901, 33.257246695 ], [ -85.863025002, 33.257361196 ], [ -85.863025002, 33.257086299 ], [ -85.863297805, 33.256307498 ], [ -85.863325104, 33.255826399 ], [ -85.863216102, 33.255414099 ], [ -85.862507202, 33.254039496 ], [ -85.862207502, 33.253489695 ], [ -85.860299103, 33.251977496 ] ] } },
{ "type": "Feature", "properties": { "site_no": "02414765", "nhdplus_comid": "22034465", "navigation_mode": "UM", "requested_distance_km": 12.0, "start_source": "nwissite", "start_id": "USGS-02414765", "geometry_length_km": 0.4972551922209954 }, "geometry": { "type": "LineString", "coordinates": [ [ -85.867795907, 33.264714994 ], [ -85.867877804, 33.263386294 ], [ -85.868750505, 33.262080595 ], [ -85.870032206, 33.260843694 ] ] } },
{ "type": "Feature", "properties": { "site_no": "02414765", "nhdplus_comid": "22034449", "navigation_mode": "UM", "requested_distance_km": 12.0, "start_source": "nwissite", "start_id": "USGS-02414765", "geometry_length_km": 1.0475129104610204 }, "geometry": { "type": "LineString", "coordinates": [ [ -85.877121903, 33.269067593 ], [ -85.876958206, 33.269044593 ], [ -85.876031101, 33.2684948 ], [ -85.874994807, 33.267738894 ], [ -85.873304106, 33.266456097 ], [ -85.872731403, 33.265700199 ], [ -85.872267902, 33.2652191 ], [ -85.871531606, 33.265058793 ], [ -85.867795907, 33.264714994 ] ] } },
{ "type": "Feature", "properties": { "site_no": "02414765", "nhdplus_comid": "22034433", "navigation_mode": "UM", "requested_distance_km": 12.0, "start_source": "nwissite", "start_id": "USGS-02414765", "geometry_length_km": 1.8502208511253027 }, "geometry": { "type": "LineString", "coordinates": [ [ -85.890240602, 33.280864097 ], [ -85.888549507, 33.2793523 ], [ -85.888194807, 33.278802596 ], [ -85.887158304, 33.277794898 ], [ -85.886776507, 33.277611598 ], [ -85.885467306, 33.276603796 ], [ -85.8849217, 33.275298096 ], [ -85.8843216, 33.274198495 ], [ -85.884348802, 33.274061196 ], [ -85.883721501, 33.273213595 ], [ -85.882412404, 33.271862097 ], [ -85.880994305, 33.271449894 ], [ -85.879985303, 33.270991698 ], [ -85.878512606, 33.270121194 ], [ -85.877121903, 33.269067593 ] ] } }
]
}
