{
"type": "FeatureCollection",
"name": "USGS_02372800_DM_12km",
"crs": { "type": "name", "properties": { "name": "urn:ogc:def:crs:OGC:1.3:CRS84" } },
"features": [
{ "type": "Feature", "properties": { "site_no": "02372800", "nhdplus_comid": "2399783", "navigation_mode": "DM", "requested_distance_km": 12.0, "start_source": "nwissite", "start_id": "USGS-02372800", "geometry_length_km": 0.12060007543593132 }, "geometry": { "type": "LineString", "coordinates": [ [ -86.64735194, 31.776719553 ], [ -86.647320606, 31.776650995 ], [ -86.647266604, 31.775642693 ] ] } },
{ "type": "Feature", "properties": { "site_no": "02372800", "nhdplus_comid": "2399835", "navigation_mode": "DM", "requested_distance_km": 12.0, "start_source": "nwissite", "start_id": "USGS-02372800", "geometry_length_km": 1.9532384432577228 }, "geometry": { "type": "LineString", "coordinates": [ [ -86.647266604, 31.775642693 ], [ -86.647159301, 31.775573999 ], [ -86.647132404, 31.775413595 ], [ -86.646729901, 31.774794996 ], [ -86.646273404, 31.772984698 ], [ -86.646192804, 31.772022195 ], [ -86.6460317, 31.771540999 ], [ -86.645521902, 31.770738997 ], [ -86.644126706, 31.769180998 ], [ -86.643026806, 31.768447794 ], [ -86.641926706, 31.767485499 ], [ -86.640773103, 31.766156495 ], [ -86.639995106, 31.765492097 ], [ -86.6395659, 31.765354596 ], [ -86.638949007, 31.765354693 ], [ -86.637929805, 31.764896393 ], [ -86.636374004, 31.764461197 ], [ -86.635193802, 31.7640258 ], [ -86.634925507, 31.763796695 ], [ -86.634871803, 31.763338394 ], [ -86.634952307, 31.7632467 ] ] } },
{ "type": "Feature", "properties": { "site_no": "02372800", "nhdplus_comid": "2399845", "navigation_mode": "DM", "requested_distance_km": 12.0, "start_source": "nwissite", "start_id": "USGS-02372800", "geometry_length_km": 0.16720780019300827 }, "geometry": { "type": "LineString", "coordinates": [ [ -86.634952307, 31.7632467 ], [ -86.634871803, 31.762765497 ], [ -86.6346035, 31.762398899 ], [ -86.634469405, 31.761825994 ] ] } },
{ "type": "Feature", "properties": { "site_no": "02372800", "nhdplus_comid": "2399871", "navigation_mode": "DM", "requested_distance_km": 12.0, "start_source": "nwissite", "start_id": "USGS-02372800", "geometry_length_km": 0.79996005829312677 }, "geometry": { "type": "LineString", "coordinates": [ [ -86.634469405, 31.761825994 ], [ -86.634817906, 31.761367694 ], [ -86.6350324, 31.7609552 ], [ -86.635139801, 31.760748893 ], [ -86.635166503, 31.760175996 ], [ -86.6350324, 31.759786397 ], [ -86.634307906, 31.758296996 ], [ -86.633878805, 31.757792898 ], [ -86.632940002, 31.757426195 ], [ -86.632403605, 31.756990895 ], [ -86.632403605, 31.756738797 ], [ -86.632591307, 31.756532595 ], [ -86.632618107, 31.756257594 ], [ -86.632296205, 31.755890898 ] ] } },
{ "type": "Feature", "properties": { "site_no": "02372800", "nhdplus_comid": "2401149", "navigation_mode": "DM", "requested_distance_km": 12.0, "start_source": "nwissite", "start_id": "USGS-02372800", "geometry_length_km": 2.9341579065336685 }, "geometry": { "type": "LineString", "coordinates": [ [ -86.632296205, 31.755890898 ], [ -86.632296205, 31.755638793 ], [ -86.631813407, 31.754813895 ], [ -86.631357402, 31.754103497 ], [ -86.631142907, 31.753622293 ], [ -86.631035507, 31.753530599 ], [ -86.631008707, 31.7533473 ], [ -86.630525902, 31.752613999 ], [ -86.629694507, 31.751811996 ], [ -86.628943503, 31.751376599 ], [ -86.626338504, 31.750160798 ], [ -86.624970801, 31.749358699 ], [ -86.621913604, 31.747318998 ], [ -86.616577305, 31.743904196 ], [ -86.614646502, 31.742826998 ], [ -86.6137885, 31.742162295 ], [ -86.612126306, 31.740305997 ], [ -86.611107402, 31.739435099 ], [ -86.609900802, 31.7387475 ], [ -86.609632604, 31.738678597 ] ] } },
{ "type": "Feature", "properties": { "site_no": "02372800", "nhdplus_comid": "2399915", "navigation_mode": "DM", "requested_distance_km": 12.0, "start_source": "nwissite", "start_id": "USGS-02372800", "geometry_length_km": 0.3330743201781397 }, "geometry": { "type": "LineString", "coordinates": [ [ -86.609632604, 31.738678597 ], [ -86.609632701, 31.738586999 ], [ -86.608881906, 31.737991095 ], [ -86.607514806, 31.736570098 ], [ -86.607300207, 31.736501299 ] ] } },
{ "type": "Feature", "properties": { "site_no": "02372800", "nhdplus_comid": "2401155", "navigation_mode": "DM", "requested_distance_km": 12.0, "start_source": "nwissite", "start_id": "USGS-02372800", "geometry_length_km": 1.4963383736143756 }, "geometry": { "type": "LineString", "coordinates": [ [ -86.607300207, 31.736501299 ], [ -86.6072734, 31.736295 ], [ -86.606737301, 31.735882394 ], [ -86.606522903, 31.7354699 ], [ -86.606522806, 31.734851196 ], [ -86.606925301, 31.733888797 ], [ -86.606845006, 31.732926294 ], [ -86.606041104, 31.730519995 ], [ -86.605960704, 31.730474196 ], [ -86.605880402, 31.730107397 ], [ -86.604915507, 31.728296995 ], [ -86.6045136, 31.726853199 ], [ -86.60379, 31.725707196 ], [ -86.603521906, 31.725500897 ], [ -86.603146806, 31.724904999 ], [ -86.602959305, 31.724171698 ], [ -86.602852002, 31.724125899 ] ] } },
{ "type": "Feature", "properties": { "site_no": "02372800", "nhdplus_comid": "2400041", "navigation_mode": "DM", "requested_distance_km": 12.0, "start_source": "nwissite", "start_id": "USGS-02372800", "geometry_length_km": 1.7449815003933431 }, "geometry": { "type": "LineString", "coordinates": [ [ -86.602852002, 31.724125899 ], [ -86.602825306, 31.723736294 ], [ -86.602610901, 31.723025896 ], [ -86.602289401, 31.722475797 ], [ -86.602075003, 31.721902795 ], [ -86.601968206, 31.7202987 ], [ -86.602182902, 31.719588399 ], [ -86.602477804, 31.719130099 ], [ -86.603362702, 31.718580194 ], [ -86.604488604, 31.718305498 ], [ -86.604971305, 31.718053393 ], [ -86.605185807, 31.717824295 ], [ -86.605293207, 31.717366099 ], [ -86.6052128, 31.717228599 ], [ -86.605320401, 31.715830699 ], [ -86.605883501, 31.714662097 ], [ -86.608350307, 31.712072894 ], [ -86.609315604, 31.7112481 ] ] } },
{ "type": "Feature", "properties": { "site_no": "02372800", "nhdplus_comid": "2401165", "navigation_mode": "DM", "requested_distance_km": 12.0, "start_source": "nwissite", "start_id": "USGS-02372800", "geometry_length_km": 2.0847502836775029 }, "geometry": { "type": "LineString", "coordinates": [ [ -86.609315604, 31.7112481 ], [ -86.609476507, 31.711041898 ], [ -86.610280901, 31.709116995 ], [ -86.610281006, 31.708452493 ], [ -86.610147007, 31.708406597 ], [ -86.610120207, 31.707787894 ], [ -86.610361606, 31.707260795 ], [ -86.610361703, 31.706298299 ], [ -86.610174105, 31.705908693 ], [ -86.609370105, 31.705175295 ], [ -86.609182507, 31.7048316 ], [ -86.609155804, 31.704143994 ], [ -86.608995102, 31.703937799 ], [ -86.608646803, 31.702677399 ], [ -86.608754203, 31.701669097 ], [ -86.608968601, 31.701371193 ], [ -86.610041104, 31.700431794 ], [ -86.610630803, 31.700065196 ], [ -86.611729704, 31.699767396 ], [ -86.613123603, 31.699630097 ], [ -86.615616307, 31.699951097 ], [ -86.615937904, 31.700019896 ], [ -86.616929702, 31.699974194 ], [ -86.617814206, 31.699928395 ] ] } }
]
}
