{
"type": "FeatureCollection",
"name": "USGS_02375000_DM_12km",
"crs": { "type": "name", "properties": { "name": "urn:ogc:def:crs:OGC:1.3:CRS84" } },
"features": [
{ "type": "Feature", "properties": { "site_no": "02375000", "nhdplus_comid": "446386", "navigation_mode": "DM", "requested_distance_km": 12.0, "start_source": "nwissite", "start_id": "USGS-02375000", "geometry_length_km": 1.911932537251666 }, "geometry": { "type": "LineString", "coordinates": [ [ -87.262847775, 31.010734206 ], [ -87.262552403, 31.010644197 ], [ -87.261834405, 31.0102081 ], [ -87.260558307, 31.009198494 ], [ -87.2597076, 31.0086248 ], [ -87.258538105, 31.007569499 ], [ -87.2579531, 31.007225193 ], [ -87.257314801, 31.006972395 ], [ -87.256969102, 31.006742999 ], [ -87.255639404, 31.006122999 ], [ -87.255374201, 31.005458198 ], [ -87.254550904, 31.004265599 ], [ -87.253620505, 31.003554195 ], [ -87.253274903, 31.003370494 ], [ -87.251811907, 31.002979495 ], [ -87.2515992, 31.002795994 ], [ -87.2514401, 31.002406195 ], [ -87.251015, 31.0019475 ], [ -87.250456601, 31.001649 ], [ -87.249968506, 31.0015551 ], [ -87.248850904, 31.001349896 ], [ -87.248345405, 31.000868998 ], [ -87.248132303, 31.000502594 ], [ -87.248105206, 31.000182897 ] ] } },
{ "type": "Feature", "properties": { "site_no": "02375000", "nhdplus_comid": "448270", "navigation_mode": "DM", "requested_distance_km": 12.0, "start_source": "nwissite", "start_id": "USGS-02375000", "geometry_length_km": 6.020207195060844 }, "geometry": { "type": "LineString", "coordinates": [ [ -87.248105206, 31.000182897 ], [ -87.2480518, 31.000006296 ], [ -87.248317607, 30.999776796 ], [ -87.248449802, 30.999134995 ], [ -87.247916907, 30.998631299 ], [ -87.247118406, 30.998425797 ], [ -87.245894507, 30.998358198 ], [ -87.244031601, 30.997809798 ], [ -87.243126504, 30.997443996 ], [ -87.242008902, 30.997192897 ], [ -87.241556101, 30.996757895 ], [ -87.241449207, 30.996414199 ], [ -87.241129503, 30.996070698 ], [ -87.239798002, 30.9949947 ], [ -87.238386303, 30.993689597 ], [ -87.238119707, 30.993254296 ], [ -87.237906002, 30.9925441 ], [ -87.237879001, 30.992154494 ], [ -87.237505406, 30.991237998 ], [ -87.236946002, 30.990619697 ], [ -87.237051107, 30.989473693 ], [ -87.236997105, 30.988763198 ], [ -87.237103306, 30.988602698 ], [ -87.237449102, 30.988533594 ], [ -87.238300607, 30.988693297 ], [ -87.238513105, 30.988555595 ], [ -87.238565601, 30.987936795 ], [ -87.238485307, 30.987501293 ], [ -87.238298602, 30.987088896 ], [ -87.236780904, 30.985921398 ], [ -87.235823005, 30.985693 ], [ -87.235476807, 30.985486999 ], [ -87.235343702, 30.985303797 ], [ -87.235209607, 30.984432995 ], [ -87.234943204, 30.9841123 ], [ -87.234144904, 30.983883895 ], [ -87.233772203, 30.9835862 ], [ -87.2337716, 30.983127899 ], [ -87.233957104, 30.982508898 ], [ -87.233744003, 30.982256994 ], [ -87.232892707, 30.982166 ], [ -87.2316695, 30.982694097 ], [ -87.231190801, 30.982763298 ], [ -87.229726605, 30.981733195 ], [ -87.229193702, 30.981023096 ], [ -87.228714503, 30.980587997 ], [ -87.227995902, 30.980244793 ], [ -87.227623001, 30.979786694 ], [ -87.227382205, 30.978503495 ], [ -87.226769805, 30.977976799 ], [ -87.225758404, 30.977473393 ], [ -87.225385003, 30.9764653 ], [ -87.225464605, 30.976258896 ], [ -87.226022907, 30.975960493 ], [ -87.2261023, 30.975685395 ], [ -87.225703001, 30.975319095 ], [ -87.225090906, 30.975067399 ], [ -87.224718802, 30.975319795 ], [ -87.224612907, 30.975755297 ], [ -87.224506505, 30.975847095 ], [ -87.224214002, 30.975893199 ], [ -87.224080905, 30.9757329 ], [ -87.224000104, 30.974884897 ], [ -87.223281607, 30.974633396 ], [ -87.223121807, 30.974473 ], [ -87.223174401, 30.973854199 ], [ -87.222695507, 30.973717093 ], [ -87.222084001, 30.973969594 ], [ -87.221791402, 30.974015698 ], [ -87.221631706, 30.973855399 ], [ -87.221604407, 30.973213598 ], [ -87.221045606, 30.972916096 ], [ -87.220487103, 30.973099895 ], [ -87.220300905, 30.973031297 ], [ -87.220167503, 30.972572997 ], [ -87.219981104, 30.972389795 ], [ -87.219262905, 30.972321495 ], [ -87.219023205, 30.972046696 ], [ -87.218916006, 30.9712447 ], [ -87.219420202, 30.970052496 ], [ -87.219898403, 30.9694333 ], [ -87.220430203, 30.969387099 ], [ -87.220855907, 30.969478399 ], [ -87.221228205, 30.969409399 ], [ -87.221998401, 30.968216993 ] ] } },
{ "type": "Feature", "properties": { "site_no": "02375000", "nhdplus_comid": "448438", "navigation_mode": "DM", "requested_distance_km": 12.0, "start_source": "nwissite", "start_id": "USGS-02375000", "geometry_length_km": 0.58290911306320881 }, "geometry": { "type": "LineString", "coordinates": [ [ -87.221998401, 30.968216993 ], [ -87.222077303, 30.968137093 ], [ -87.2221893, 30.968087696 ], [ -87.222301304, 30.968038298 ], [ -87.222413301, 30.967988893 ], [ -87.222525306, 30.967939496 ], [ -87.222637303, 30.967890099 ], [ -87.2227493, 30.967840694 ], [ -87.222861305, 30.967791297 ], [ -87.222873002, 30.967683896 ], [ -87.222884603, 30.967576399 ], [ -87.222896203, 30.967468999 ], [ -87.222907804, 30.967361495 ], [ -87.222919405, 30.967254095 ], [ -87.222931102, 30.967146598 ], [ -87.222942702, 30.967039198 ], [ -87.222954303, 30.966931693 ], [ -87.222965904, 30.966824293 ], [ -87.222977504, 30.966716796 ], [ -87.222989202, 30.966609396 ], [ -87.223000802, 30.966501899 ], [ -87.223012403, 30.966394395 ], [ -87.223024003, 30.966286995 ], [ -87.222999901, 30.966262095 ], [ -87.222919405, 30.966179095 ], [ -87.222838901, 30.966096096 ], [ -87.222758405, 30.966012999 ], [ -87.2227569, 30.965986095 ], [ -87.222750604, 30.965878397 ], [ -87.222744405, 30.965770595 ], [ -87.222738206, 30.9656628 ], [ -87.222731903, 30.965554997 ], [ -87.222725704, 30.965447195 ], [ -87.222719401, 30.965339497 ], [ -87.222713202, 30.965231694 ], [ -87.222707003, 30.965123899 ], [ -87.222652003, 30.9650473 ], [ -87.222586006, 30.9649553 ], [ -87.222520001, 30.964863397 ], [ -87.222454101, 30.964771494 ], [ -87.222388104, 30.964679495 ], [ -87.222322106, 30.964587599 ], [ -87.222320303, 30.964552999 ], [ -87.222314805, 30.964445099 ], [ -87.222309202, 30.964337297 ], [ -87.222303607, 30.964229494 ], [ -87.222298004, 30.964121699 ], [ -87.222292401, 30.964013897 ], [ -87.222286806, 30.963906094 ], [ -87.222281203, 30.963798299 ], [ -87.2222756, 30.963690497 ], [ -87.222339407, 30.963609897 ] ] } },
{ "type": "Feature", "properties": { "site_no": "02375000", "nhdplus_comid": "447654", "navigation_mode": "DM", "requested_distance_km": 12.0, "start_source": "nwissite", "start_id": "USGS-02375000", "geometry_length_km": 0.040777138943280826 }, "geometry": { "type": "LineString", "coordinates": [ [ -87.222339407, 30.963609897 ], [ -87.222339004, 30.963243194 ] ] } },
{ "type": "Feature", "properties": { "site_no": "02375000", "nhdplus_comid": "448684", "navigation_mode": "DM", "requested_distance_km": 12.0, "start_source": "nwissite", "start_id": "USGS-02375000", "geometry_length_km": 0.033119018337191893 }, "geometry": { "type": "LineString", "coordinates": [ [ -87.222339004, 30.963243194 ], [ -87.222488001, 30.962974094 ] ] } },
{ "type": "Feature", "properties": { "site_no": "02375000", "nhdplus_comid": "448448", "navigation_mode": "DM", "requested_distance_km": 12.0, "start_source": "nwissite", "start_id": "USGS-02375000", "geometry_length_km": 1.2000233303395063 }, "geometry": { "type": "LineString", "coordinates": [ [ -87.222488001, 30.962974094 ], [ -87.222571902, 30.962893598 ], [ -87.222655803, 30.962813094 ], [ -87.222739801, 30.962732695 ], [ -87.222823702, 30.962652199 ], [ -87.222907707, 30.962571695 ], [ -87.222991601, 30.962491296 ], [ -87.2230682, 30.962464295 ], [ -87.223184705, 30.962423198 ], [ -87.223301202, 30.962382197 ], [ -87.223417804, 30.9623411 ], [ -87.223534301, 30.962300099 ], [ -87.223650806, 30.962259099 ], [ -87.223767303, 30.962217994 ], [ -87.2238838, 30.962176993 ], [ -87.224000305, 30.962135896 ], [ -87.224116802, 30.962094896 ], [ -87.224233307, 30.962053798 ], [ -87.224349804, 30.962012798 ], [ -87.224466302, 30.9619717 ], [ -87.224582806, 30.9619307 ], [ -87.224699304, 30.961889699 ], [ -87.224815801, 30.961848594 ], [ -87.224932306, 30.961807594 ], [ -87.225048803, 30.961766496 ], [ -87.2251653, 30.961725496 ], [ -87.225281805, 30.961684398 ], [ -87.225398406, 30.961643398 ], [ -87.225514904, 30.961602293 ], [ -87.225631401, 30.9615613 ], [ -87.225747906, 30.961520195 ], [ -87.225864403, 30.961479194 ], [ -87.2259809, 30.961438097 ], [ -87.226097405, 30.961397097 ], [ -87.226213902, 30.961356096 ], [ -87.226276606, 30.961360998 ], [ -87.226402007, 30.961370997 ], [ -87.226527505, 30.961380899 ], [ -87.226652905, 30.961390898 ], [ -87.226778306, 30.961400799 ], [ -87.226903804, 30.961410798 ], [ -87.227029204, 30.9614207 ], [ -87.227154605, 30.961430699 ], [ -87.227280103, 30.961440593 ], [ -87.227405503, 30.961450599 ], [ -87.227531001, 30.961460494 ], [ -87.227656402, 30.9614705 ], [ -87.227781802, 30.961480394 ], [ -87.2279073, 30.9614904 ], [ -87.228032701, 30.961500295 ], [ -87.228158101, 30.961510196 ], [ -87.228283606, 30.961520195 ], [ -87.228409, 30.961530097 ], [ -87.228424601, 30.961542197 ], [ -87.228518002, 30.961614594 ], [ -87.228611305, 30.961687095 ], [ -87.228704706, 30.9617595 ], [ -87.228798106, 30.961831897 ], [ -87.228891507, 30.961904399 ], [ -87.2289849, 30.961976796 ], [ -87.2290783, 30.962049194 ], [ -87.229171604, 30.962121695 ], [ -87.229265004, 30.9621941 ], [ -87.229358405, 30.962266497 ], [ -87.229451805, 30.962338895 ], [ -87.229545206, 30.962411396 ], [ -87.229638606, 30.962483793 ], [ -87.229731902, 30.962556198 ], [ -87.229825303, 30.9626287 ], [ -87.229918703, 30.962701097 ], [ -87.230012104, 30.962773494 ], [ -87.230105504, 30.962845899 ], [ -87.230198905, 30.962918393 ], [ -87.230292305, 30.962990798 ], [ -87.230385602, 30.963063195 ], [ -87.230479002, 30.963135697 ], [ -87.230572402, 30.963208094 ], [ -87.230665803, 30.963280499 ], [ -87.230759203, 30.963352896 ], [ -87.230852604, 30.963425398 ], [ -87.230946004, 30.963497795 ], [ -87.231039405, 30.9635702 ], [ -87.231132701, 30.963642694 ], [ -87.231152602, 30.963686399 ], [ -87.231198303, 30.9637869 ], [ -87.231244102, 30.963887498 ], [ -87.231289804, 30.963988096 ], [ -87.231335506, 30.964088596 ], [ -87.2313812, 30.964189194 ], [ -87.231426902, 30.964289695 ], [ -87.231472604, 30.9643903 ], [ -87.231518403, 30.964490794 ], [ -87.231564105, 30.964591399 ], [ -87.231609806, 30.964691997 ], [ -87.231588304, 30.9647507 ], [ -87.231550701, 30.9648536 ], [ -87.231513001, 30.964956596 ], [ -87.231475301, 30.965059593 ], [ -87.231437705, 30.965162598 ], [ -87.231400006, 30.965265498 ], [ -87.231362402, 30.965368494 ], [ -87.231324703, 30.965471499 ], [ -87.231287003, 30.965574495 ], [ -87.2312617, 30.965643793 ] ] } },
{ "type": "Feature", "properties": { "site_no": "02375000", "nhdplus_comid": "448436", "navigation_mode": "DM", "requested_distance_km": 12.0, "start_source": "nwissite", "start_id": "USGS-02375000", "geometry_length_km": 0.038884445800004393 }, "geometry": { "type": "LineString", "coordinates": [ [ -87.2312617, 30.965643793 ], [ -87.231249407, 30.9656775 ], [ -87.231211707, 30.9657804 ], [ -87.2312252, 30.965986595 ] ] } },
{ "type": "Feature", "properties": { "site_no": "02375000", "nhdplus_comid": "448274", "navigation_mode": "DM", "requested_distance_km": 12.0, "start_source": "nwissite", "start_id": "USGS-02375000", "geometry_length_km": 0.3226265324818835 }, "geometry": { "type": "LineString", "coordinates": [ [ -87.2312252, 30.965986595 ], [ -87.230454706, 30.966651797 ], [ -87.230242305, 30.966995798 ], [ -87.230322503, 30.967385396 ], [ -87.230589002, 30.967866495 ], [ -87.231148101, 30.968301497 ] ] } },
{ "type": "Feature", "properties": { "site_no": "02375000", "nhdplus_comid": "448658", "navigation_mode": "DM", "requested_distance_km": 12.0, "start_source": "nwissite", "start_id": "USGS-02375000", "geometry_length_km": 0.16047580236153763 }, "geometry": { "type": "LineString", "coordinates": [ [ -87.231148101, 30.968301497 ], [ -87.231946006, 30.968300797 ], [ -87.2326902, 30.967887595 ] ] } },
{ "type": "Feature", "properties": { "site_no": "02375000", "nhdplus_comid": "448434", "navigation_mode": "DM", "requested_distance_km": 12.0, "start_source": "nwissite", "start_id": "USGS-02375000", "geometry_length_km": 0.016835573876500209 }, "geometry": { "type": "LineString", "coordinates": [ [ -87.2326902, 30.967887595 ], [ -87.232694402, 30.967752494 ], [ -87.232705303, 30.967739195 ] ] } },
{ "type": "Feature", "properties": { "site_no": "02375000", "nhdplus_comid": "448444", "navigation_mode": "DM", "requested_distance_km": 12.0, "start_source": "nwissite", "start_id": "USGS-02375000", "geometry_length_km": 0.7576675747769438 }, "geometry": { "type": "LineString", "coordinates": [ [ -87.232705303, 30.967739195 ], [ -87.232766606, 30.9676641 ], [ -87.232838906, 30.967575595 ], [ -87.232911102, 30.967487194 ], [ -87.232983306, 30.9673988 ], [ -87.233055606, 30.967310399 ], [ -87.233127803, 30.967221998 ], [ -87.233200103, 30.967133597 ], [ -87.233272307, 30.967045195 ], [ -87.233344503, 30.966956794 ], [ -87.233416803, 30.966868296 ], [ -87.233489007, 30.966779895 ], [ -87.233561203, 30.966691494 ], [ -87.233633503, 30.966603093 ], [ -87.233705707, 30.966514699 ], [ -87.233777903, 30.966426298 ], [ -87.233850203, 30.966337897 ], [ -87.233922407, 30.966249496 ], [ -87.233994603, 30.966160998 ], [ -87.234066904, 30.966072597 ], [ -87.234139107, 30.965984195 ], [ -87.234211303, 30.965895794 ], [ -87.234283604, 30.965807393 ], [ -87.2343558, 30.965719 ], [ -87.234428003, 30.965630598 ], [ -87.234500304, 30.965542197 ], [ -87.2345725, 30.965453699 ], [ -87.234644704, 30.965365298 ], [ -87.234717004, 30.965276897 ], [ -87.2347892, 30.965188496 ], [ -87.234861404, 30.965100095 ], [ -87.234933704, 30.965011694 ], [ -87.2350059, 30.9649233 ], [ -87.235078104, 30.964834794 ], [ -87.235150404, 30.964746393 ], [ -87.2352226, 30.964658 ], [ -87.235294804, 30.964569598 ], [ -87.235367104, 30.964481197 ], [ -87.235439301, 30.964392796 ], [ -87.235511504, 30.964304395 ], [ -87.2355837, 30.964215994 ], [ -87.235656001, 30.964127496 ], [ -87.235684805, 30.964108497 ], [ -87.235784702, 30.964042693 ], [ -87.235884503, 30.963976793 ], [ -87.235984303, 30.963910997 ], [ -87.236084104, 30.963845193 ], [ -87.236183904, 30.963779293 ], [ -87.236283705, 30.963713497 ], [ -87.236383505, 30.963647693 ], [ -87.236483403, 30.963581793 ], [ -87.236583203, 30.963515997 ], [ -87.236683004, 30.963450097 ], [ -87.236782804, 30.963384293 ], [ -87.236882605, 30.963318497 ], [ -87.236982405, 30.963252597 ], [ -87.237082303, 30.963186793 ], [ -87.237182103, 30.963120997 ], [ -87.237281904, 30.963055097 ], [ -87.237381704, 30.962989293 ], [ -87.237481505, 30.9629234 ], [ -87.237581305, 30.962857597 ], [ -87.237681106, 30.962791793 ], [ -87.237781003, 30.9627259 ], [ -87.237880804, 30.962660097 ] ] } },
{ "type": "Feature", "properties": { "site_no": "02375000", "nhdplus_comid": "450546", "navigation_mode": "DM", "requested_distance_km": 12.0, "start_source": "nwissite", "start_id": "USGS-02375000", "geometry_length_km": 0.14566129207836545 }, "geometry": { "type": "LineString", "coordinates": [ [ -87.237880804, 30.962660097 ], [ -87.239265501, 30.962137595 ], [ -87.239281505, 30.962136596 ] ] } },
{ "type": "Feature", "properties": { "site_no": "02375000", "nhdplus_comid": "448450", "navigation_mode": "DM", "requested_distance_km": 12.0, "start_source": "nwissite", "start_id": "USGS-02375000", "geometry_length_km": 0.55965305072763316 }, "geometry": { "type": "LineString", "coordinates": [ [ -87.239281505, 30.962136596 ], [ -87.241048701, 30.962025896 ], [ -87.241688207, 30.961570799 ], [ -87.241650105, 30.960556298 ], [ -87.241118707, 30.960008495 ], [ -87.239988804, 30.959539697 ] ] } }
]
}
