{
"type": "FeatureCollection",
"name": "USGS_03576148_UM_12km",
"crs": { "type": "name", "properties": { "name": "urn:ogc:def:crs:OGC:1.3:CRS84" } },
"features": [
{ "type": "Feature", "properties": { "site_no": "03576148", "nhdplus_comid": "19625212", "navigation_mode": "UM", "requested_distance_km": 12.0, "start_source": "nwissite", "start_id": "USGS-03576148", "geometry_length_km": 0.0 }, "geometry": { "type": "Point", "coordinates": [ -86.687375404, 34.413123295 ] } },
{ "type": "Feature", "properties": { "site_no": "03576148", "nhdplus_comid": "19625254", "navigation_mode": "UM", "requested_distance_km": 12.0, "start_source": "nwissite", "start_id": "USGS-03576148", "geometry_length_km": 0.37903917297342288 }, "geometry": { "type": "LineString", "coordinates": [ [ -86.688451201, 34.409961596 ], [ -86.688340805, 34.410190895 ], [ -86.687816001, 34.410763696 ], [ -86.687678002, 34.411107399 ], [ -86.687623404, 34.411954999 ], [ -86.6872923, 34.412779793 ], [ -86.687375404, 34.413123295 ] ] } },
{ "type": "Feature", "properties": { "site_no": "03576148", "nhdplus_comid": "19625284", "navigation_mode": "UM", "requested_distance_km": 12.0, "start_source": "nwissite", "start_id": "USGS-03576148", "geometry_length_km": 0.94577137652663013 }, "geometry": { "type": "LineString", "coordinates": [ [ -86.683112703, 34.403550297 ], [ -86.684080303, 34.404099599 ], [ -86.685711205, 34.404579997 ], [ -86.686070606, 34.404831797 ], [ -86.686181307, 34.405106597 ], [ -86.686209805, 34.406412296 ], [ -86.686874107, 34.407694593 ], [ -86.687206507, 34.408748195 ], [ -86.687566005, 34.409183294 ], [ -86.688229702, 34.4095724 ], [ -86.688451201, 34.409961596 ] ] } },
{ "type": "Feature", "properties": { "site_no": "03576148", "nhdplus_comid": "19625290", "navigation_mode": "UM", "requested_distance_km": 12.0, "start_source": "nwissite", "start_id": "USGS-03576148", "geometry_length_km": 0.44181767517933357 }, "geometry": { "type": "LineString", "coordinates": [ [ -86.678911, 34.402246498 ], [ -86.679380804, 34.402246296 ], [ -86.679657303, 34.402406596 ], [ -86.680182703, 34.402933195 ], [ -86.681067102, 34.403024398 ], [ -86.681592606, 34.403505199 ], [ -86.683112703, 34.403550297 ] ] } },
{ "type": "Feature", "properties": { "site_no": "03576148", "nhdplus_comid": "19625296", "navigation_mode": "UM", "requested_distance_km": 12.0, "start_source": "nwissite", "start_id": "USGS-03576148", "geometry_length_km": 1.1302299909991647 }, "geometry": { "type": "LineString", "coordinates": [ [ -86.6680222, 34.401723795 ], [ -86.668160401, 34.401792496 ], [ -86.6690173, 34.401837997 ], [ -86.669570304, 34.402318798 ], [ -86.669929706, 34.402753897 ], [ -86.670095503, 34.402753897 ], [ -86.670758605, 34.402455799 ], [ -86.671228401, 34.402478494 ], [ -86.671670705, 34.402776197 ], [ -86.671919607, 34.403073899 ], [ -86.672168404, 34.403188296 ], [ -86.672472402, 34.403188199 ], [ -86.672886804, 34.403050594 ], [ -86.673549905, 34.402615197 ], [ -86.673936702, 34.402500495 ], [ -86.674240805, 34.402523197 ], [ -86.6747659, 34.402729295 ], [ -86.676009707, 34.4029807 ], [ -86.6768388, 34.402819999 ], [ -86.678911, 34.402246498 ] ] } },
{ "type": "Feature", "properties": { "site_no": "03576148", "nhdplus_comid": "19625294", "navigation_mode": "UM", "requested_distance_km": 12.0, "start_source": "nwissite", "start_id": "USGS-03576148", "geometry_length_km": 2.3008189583913943 }, "geometry": { "type": "LineString", "coordinates": [ [ -86.653461203, 34.410959095 ], [ -86.653847702, 34.409538798 ], [ -86.654096305, 34.409080699 ], [ -86.654538304, 34.408691093 ], [ -86.654538304, 34.408416294 ], [ -86.654123604, 34.408049896 ], [ -86.653626107, 34.407889597 ], [ -86.653515503, 34.407729298 ], [ -86.653570704, 34.407568999 ], [ -86.654150903, 34.407248095 ], [ -86.654731102, 34.406400494 ], [ -86.655090205, 34.406194299 ], [ -86.655394301, 34.406217098 ], [ -86.655753605, 34.4065606 ], [ -86.656168304, 34.406560495 ], [ -86.657107703, 34.405621096 ], [ -86.657301106, 34.405529395 ], [ -86.657632701, 34.405506395 ], [ -86.657853901, 34.405849993 ], [ -86.658158004, 34.4060103 ], [ -86.658379003, 34.405826896 ], [ -86.658848301, 34.404681496 ], [ -86.659428604, 34.404223196 ], [ -86.661003605, 34.403650098 ], [ -86.661639005, 34.403214693 ], [ -86.662164107, 34.403122894 ], [ -86.662938103, 34.403534994 ], [ -86.663186803, 34.403420493 ], [ -86.663462907, 34.402916394 ], [ -86.663822204, 34.402870499 ], [ -86.664402902, 34.403603293 ], [ -86.664623901, 34.403603196 ], [ -86.665038303, 34.403167896 ], [ -86.665729001, 34.402709499 ], [ -86.665784106, 34.402365893 ], [ -86.666889504, 34.4023197 ], [ -86.667386703, 34.401838496 ], [ -86.667939402, 34.401792593 ], [ -86.6680222, 34.401723795 ] ] } },
{ "type": "Feature", "properties": { "site_no": "03576148", "nhdplus_comid": "19625252", "navigation_mode": "UM", "requested_distance_km": 12.0, "start_source": "nwissite", "start_id": "USGS-03576148", "geometry_length_km": 1.0325209689180328 }, "geometry": { "type": "LineString", "coordinates": [ [ -86.644865803, 34.411831096 ], [ -86.6448934, 34.411464594 ], [ -86.644699901, 34.411143996 ], [ -86.644810304, 34.410937794 ], [ -86.645141907, 34.4106858 ], [ -86.645584106, 34.4106628 ], [ -86.645971105, 34.410983399 ], [ -86.646109402, 34.411281198 ], [ -86.646413505, 34.411441498 ], [ -86.646634601, 34.411464393 ], [ -86.646938607, 34.411349796 ], [ -86.647684604, 34.410593696 ], [ -86.6481544, 34.410341695 ], [ -86.648873001, 34.410295799 ], [ -86.651001304, 34.410432793 ], [ -86.652410805, 34.410295099 ], [ -86.652742505, 34.410501197 ], [ -86.653018907, 34.410821699 ], [ -86.653461203, 34.410959095 ] ] } },
{ "type": "Feature", "properties": { "site_no": "03576148", "nhdplus_comid": "19625232", "navigation_mode": "UM", "requested_distance_km": 12.0, "start_source": "nwissite", "start_id": "USGS-03576148", "geometry_length_km": 0.075983398634049737 }, "geometry": { "type": "LineString", "coordinates": [ [ -86.644147307, 34.411922894 ], [ -86.644561805, 34.412037395 ], [ -86.644865803, 34.411831096 ] ] } },
{ "type": "Feature", "properties": { "site_no": "03576148", "nhdplus_comid": "19625300", "navigation_mode": "UM", "requested_distance_km": 12.0, "start_source": "nwissite", "start_id": "USGS-03576148", "geometry_length_km": 3.3283856750251428 }, "geometry": { "type": "LineString", "coordinates": [ [ -86.624744907, 34.402394898 ], [ -86.624993704, 34.402303293 ], [ -86.625435807, 34.400745593 ], [ -86.625629202, 34.400653996 ], [ -86.625878006, 34.400814399 ], [ -86.626126707, 34.401134998 ], [ -86.6266241, 34.401409894 ], [ -86.627287306, 34.401249595 ], [ -86.627646603, 34.401295394 ], [ -86.628530905, 34.401982598 ], [ -86.6294429, 34.402371898 ], [ -86.630382605, 34.402623899 ], [ -86.631211706, 34.403494395 ], [ -86.632262103, 34.405670397 ], [ -86.632455505, 34.405945294 ], [ -86.632510804, 34.406243093 ], [ -86.632593706, 34.406288899 ], [ -86.632593706, 34.407227993 ], [ -86.632179201, 34.407296799 ], [ -86.632013403, 34.407686196 ], [ -86.632096402, 34.407915294 ], [ -86.632483304, 34.408304699 ], [ -86.633588903, 34.408900097 ], [ -86.635219507, 34.409174994 ], [ -86.636325002, 34.409106195 ], [ -86.6372924, 34.408854097 ], [ -86.6375411, 34.408670895 ], [ -86.637568705, 34.408304393 ], [ -86.637347601, 34.407823294 ], [ -86.637347504, 34.407365099 ], [ -86.637485601, 34.407158896 ], [ -86.637706801, 34.407067299 ], [ -86.638287105, 34.407067299 ], [ -86.638563402, 34.406769596 ], [ -86.638618603, 34.406105198 ], [ -86.639088407, 34.405807294 ], [ -86.6395858, 34.405830197 ], [ -86.6406084, 34.406059295 ], [ -86.642266802, 34.406883694 ], [ -86.643206604, 34.407685295 ], [ -86.643649101, 34.408647299 ], [ -86.643842705, 34.4095864 ], [ -86.643925704, 34.409677997 ], [ -86.643981107, 34.410342194 ], [ -86.643898301, 34.410754599 ], [ -86.644009002, 34.411579296 ], [ -86.644147307, 34.411922894 ] ] } },
{ "type": "Feature", "properties": { "site_no": "03576148", "nhdplus_comid": "19625288", "navigation_mode": "UM", "requested_distance_km": 12.0, "start_source": "nwissite", "start_id": "USGS-03576148", "geometry_length_km": 1.9494298128772913 }, "geometry": { "type": "LineString", "coordinates": [ [ -86.6184984, 34.410480596 ], [ -86.618691906, 34.410526499 ], [ -86.619161703, 34.410915896 ], [ -86.619852602, 34.411167897 ], [ -86.6205988, 34.410984695 ], [ -86.620737106, 34.410801396 ], [ -86.620598905, 34.410434894 ], [ -86.620709501, 34.409908094 ], [ -86.621649206, 34.4096561 ], [ -86.622119106, 34.409472995 ], [ -86.622423202, 34.408762798 ], [ -86.622727104, 34.408533797 ], [ -86.623445705, 34.408487998 ], [ -86.623473406, 34.408052795 ], [ -86.623583905, 34.407869495 ], [ -86.623832606, 34.407846697 ], [ -86.624136701, 34.408190198 ], [ -86.624136806, 34.408671193 ], [ -86.623915605, 34.409083597 ], [ -86.623943202, 34.409427196 ], [ -86.624993503, 34.409610398 ], [ -86.625297502, 34.409495898 ], [ -86.625325106, 34.409220994 ], [ -86.624993503, 34.407571696 ], [ -86.624883004, 34.407251097 ], [ -86.624883004, 34.406586796 ], [ -86.624993503, 34.406334698 ], [ -86.625269905, 34.4055788 ], [ -86.625380501, 34.405074894 ], [ -86.624993503, 34.404548094 ], [ -86.624164507, 34.403517298 ], [ -86.624136902, 34.402875893 ], [ -86.624247506, 34.402692594 ], [ -86.624717206, 34.402486496 ], [ -86.624744907, 34.402394898 ] ] } }
]
}
