{
"type": "FeatureCollection",
"name": "USGS_02405500_UM_12km",
"crs": { "type": "name", "properties": { "name": "urn:ogc:def:crs:OGC:1.3:CRS84" } },
"features": [
{ "type": "Feature", "properties": { "site_no": "02405500", "nhdplus_comid": "22206103", "navigation_mode": "UM", "requested_distance_km": 12.0, "start_source": "nwissite", "start_id": "USGS-02405500", "geometry_length_km": 0.81286461472790417 }, "geometry": { "type": "LineString", "coordinates": [ [ -86.393424101, 33.448596999 ], [ -86.393478706, 33.448253296 ], [ -86.3933421, 33.448070094 ], [ -86.392576806, 33.447841093 ], [ -86.3923309, 33.447703697 ], [ -86.392303504, 33.447222598 ], [ -86.392166801, 33.447039299 ], [ -86.391538203, 33.446672797 ], [ -86.390609004, 33.446581297 ], [ -86.389789201, 33.446970798 ], [ -86.389406502, 33.447039597 ], [ -86.388996705, 33.446879193 ], [ -86.388641305, 33.446856394 ], [ -86.387712404, 33.447658293 ], [ -86.3872751, 33.447704099 ], [ -86.386779065, 33.447540602 ] ] } },
{ "type": "Feature", "properties": { "site_no": "02405500", "nhdplus_comid": "22206097", "navigation_mode": "UM", "requested_distance_km": 12.0, "start_source": "nwissite", "start_id": "USGS-02405500", "geometry_length_km": 0.6809009633962122 }, "geometry": { "type": "LineString", "coordinates": [ [ -86.396813601, 33.4519642 ], [ -86.396430805, 33.450887494 ], [ -86.395966001, 33.450131498 ], [ -86.395446606, 33.449627593 ], [ -86.395173401, 33.449467294 ], [ -86.394080207, 33.449284099 ], [ -86.392877802, 33.449559197 ], [ -86.392741002, 33.449444696 ], [ -86.392741106, 33.449192695 ], [ -86.393424101, 33.448596999 ] ] } },
{ "type": "Feature", "properties": { "site_no": "02405500", "nhdplus_comid": "22206069", "navigation_mode": "UM", "requested_distance_km": 12.0, "start_source": "nwissite", "start_id": "USGS-02405500", "geometry_length_km": 0.88020023032933825 }, "geometry": { "type": "LineString", "coordinates": [ [ -86.399603106, 33.459248796 ], [ -86.3985641, 33.457897298 ], [ -86.397443101, 33.456248 ], [ -86.397388406, 33.456041798 ], [ -86.397142403, 33.455721095 ], [ -86.396704704, 33.454048999 ], [ -86.396813601, 33.4519642 ] ] } },
{ "type": "Feature", "properties": { "site_no": "02405500", "nhdplus_comid": "22206041", "navigation_mode": "UM", "requested_distance_km": 12.0, "start_source": "nwissite", "start_id": "USGS-02405500", "geometry_length_km": 0.37553742700587617 }, "geometry": { "type": "LineString", "coordinates": [ [ -86.398455806, 33.462227196 ], [ -86.398483105, 33.461952299 ], [ -86.399166301, 33.461425297 ], [ -86.399685405, 33.460600398 ], [ -86.3998219, 33.459936097 ], [ -86.399603106, 33.459248796 ] ] } },
{ "type": "Feature", "properties": { "site_no": "02405500", "nhdplus_comid": "22206021", "navigation_mode": "UM", "requested_distance_km": 12.0, "start_source": "nwissite", "start_id": "USGS-02405500", "geometry_length_km": 1.2788257827159373 }, "geometry": { "type": "LineString", "coordinates": [ [ -86.391979307, 33.471185595 ], [ -86.392198101, 33.471070893 ], [ -86.393127203, 33.469948299 ], [ -86.393783204, 33.4693297 ], [ -86.3953958, 33.468321495 ], [ -86.395805702, 33.467794493 ], [ -86.395805307, 33.465709798 ], [ -86.395969003, 33.464907899 ], [ -86.396378905, 33.464060195 ], [ -86.396870807, 33.463762298 ], [ -86.397800207, 33.463601798 ], [ -86.398210101, 33.463441394 ], [ -86.398346804, 33.463166498 ], [ -86.398346506, 33.462295897 ], [ -86.398455806, 33.462227196 ] ] } },
{ "type": "Feature", "properties": { "site_no": "02405500", "nhdplus_comid": "22205995", "navigation_mode": "UM", "requested_distance_km": 12.0, "start_source": "nwissite", "start_id": "USGS-02405500", "geometry_length_km": 0.45986370084083289 }, "geometry": { "type": "LineString", "coordinates": [ [ -86.391214706, 33.475080095 ], [ -86.390913904, 33.474324197 ], [ -86.390913703, 33.473453596 ], [ -86.391050205, 33.472995497 ], [ -86.391460106, 33.4721478 ], [ -86.391897403, 33.471529193 ], [ -86.391979307, 33.471185595 ] ] } },
{ "type": "Feature", "properties": { "site_no": "02405500", "nhdplus_comid": "22205981", "navigation_mode": "UM", "requested_distance_km": 12.0, "start_source": "nwissite", "start_id": "USGS-02405500", "geometry_length_km": 0.72374499025418815 }, "geometry": { "type": "LineString", "coordinates": [ [ -86.397639506, 33.478721894 ], [ -86.397502802, 33.478538595 ], [ -86.3953977, 33.4775768 ], [ -86.392116904, 33.475790299 ], [ -86.391214706, 33.475080095 ] ] } },
{ "type": "Feature", "properties": { "site_no": "02405500", "nhdplus_comid": "22205991", "navigation_mode": "UM", "requested_distance_km": 12.0, "start_source": "nwissite", "start_id": "USGS-02405500", "geometry_length_km": 7.7866348842975492 }, "geometry": { "type": "LineString", "coordinates": [ [ -86.432963401, 33.483934596 ], [ -86.427250601, 33.485907197 ], [ -86.425391801, 33.486411899 ], [ -86.423505306, 33.486572899 ], [ -86.422739804, 33.486687794 ], [ -86.422193207, 33.486894198 ], [ -86.421509802, 33.487352595 ], [ -86.4210454, 33.488085896 ], [ -86.420936301, 33.488521196 ], [ -86.419843905, 33.491018593 ], [ -86.419215806, 33.492668293 ], [ -86.419024505, 33.492943197 ], [ -86.418970004, 33.493241094 ], [ -86.418888003, 33.493286997 ], [ -86.418232501, 33.494936593 ], [ -86.417877406, 33.495555297 ], [ -86.417276002, 33.4960595 ], [ -86.416565105, 33.49622 ], [ -86.415990904, 33.496220194 ], [ -86.415553302, 33.495922498 ], [ -86.4150334, 33.494823098 ], [ -86.4149509, 33.4940212 ], [ -86.415770806, 33.492967196 ], [ -86.415989205, 33.492073596 ], [ -86.416098103, 33.490951099 ], [ -86.4157691, 33.489187196 ], [ -86.415768802, 33.488431193 ], [ -86.415878005, 33.488156199 ], [ -86.417517401, 33.485818997 ], [ -86.418063603, 33.484306797 ], [ -86.4181723, 33.483000897 ], [ -86.418472804, 33.482405297 ], [ -86.419292405, 33.481144994 ], [ -86.422133707, 33.477386996 ], [ -86.422953106, 33.4758517 ], [ -86.422925502, 33.475278996 ], [ -86.422624402, 33.474797994 ], [ -86.421503, 33.473629996 ], [ -86.420327403, 33.473240994 ], [ -86.418495804, 33.473127097 ], [ -86.417785101, 33.473287597 ], [ -86.417402506, 33.473562598 ], [ -86.417129301, 33.473906398 ], [ -86.416610606, 33.475395694 ], [ -86.416310102, 33.475922696 ], [ -86.415517703, 33.476885095 ], [ -86.4150258, 33.477274694 ], [ -86.414369807, 33.477458097 ], [ -86.413467601, 33.477458395 ], [ -86.411663204, 33.4769549 ], [ -86.411225803, 33.476932094 ], [ -86.410788506, 33.477023795 ], [ -86.409066506, 33.477711596 ], [ -86.406660907, 33.478376396 ], [ -86.405977502, 33.478651494 ], [ -86.4054856, 33.4790411 ], [ -86.404802501, 33.480255395 ], [ -86.404583901, 33.480370097 ], [ -86.404037103, 33.480484694 ], [ -86.402478807, 33.480232999 ], [ -86.401467204, 33.480210297 ], [ -86.397885606, 33.478767693 ], [ -86.397639506, 33.478721894 ] ] } }
]
}
