{
"type": "FeatureCollection",
"name": "USGS_02462951_DM_12km",
"crs": { "type": "name", "properties": { "name": "urn:ogc:def:crs:OGC:1.3:CRS84" } },
"features": [
{ "type": "Feature", "properties": { "site_no": "02462951", "nhdplus_comid": "18232675", "navigation_mode": "DM", "requested_distance_km": 12.0, "start_source": "nwissite", "start_id": "USGS-02462951", "geometry_length_km": 0.0098653109750610514 }, "geometry": { "type": "LineString", "coordinates": [ [ -87.449231578, 33.254018996 ], [ -87.449338004, 33.254014395 ] ] } },
{ "type": "Feature", "properties": { "site_no": "02462951", "nhdplus_comid": "18229845", "navigation_mode": "DM", "requested_distance_km": 12.0, "start_source": "nwissite", "start_id": "USGS-02462951", "geometry_length_km": 0.11651131096937044 }, "geometry": { "type": "LineString", "coordinates": [ [ -87.449338004, 33.254014395 ], [ -87.449972101, 33.253987096 ], [ -87.450561106, 33.254157096 ] ] } },
{ "type": "Feature", "properties": { "site_no": "02462951", "nhdplus_comid": "18229849", "navigation_mode": "DM", "requested_distance_km": 12.0, "start_source": "nwissite", "start_id": "USGS-02462951", "geometry_length_km": 1.0110408641102133 }, "geometry": { "type": "LineString", "coordinates": [ [ -87.450561106, 33.254157096 ], [ -87.451847605, 33.253497794 ], [ -87.455872402, 33.252791494 ], [ -87.461157806, 33.253060594 ] ] } },
{ "type": "Feature", "properties": { "site_no": "02462951", "nhdplus_comid": "18229857", "navigation_mode": "DM", "requested_distance_km": 12.0, "start_source": "nwissite", "start_id": "USGS-02462951", "geometry_length_km": 1.7636529855458918 }, "geometry": { "type": "LineString", "coordinates": [ [ -87.461157806, 33.253060594 ], [ -87.468538404, 33.253611699 ], [ -87.476861902, 33.252469994 ], [ -87.479503803, 33.251911499 ], [ -87.479942106, 33.252070099 ] ] } },
{ "type": "Feature", "properties": { "site_no": "02462951", "nhdplus_comid": "18229873", "navigation_mode": "DM", "requested_distance_km": 12.0, "start_source": "nwissite", "start_id": "USGS-02462951", "geometry_length_km": 2.3452325842545938 }, "geometry": { "type": "LineString", "coordinates": [ [ -87.479942106, 33.252070099 ], [ -87.480270505, 33.2518427 ], [ -87.485965401, 33.251133896 ], [ -87.489688605, 33.250403993 ], [ -87.492822707, 33.249504194 ], [ -87.497638606, 33.247092597 ], [ -87.499540605, 33.246352799 ], [ -87.502823003, 33.2440788 ] ] } },
{ "type": "Feature", "properties": { "site_no": "02462951", "nhdplus_comid": "18229879", "navigation_mode": "DM", "requested_distance_km": 12.0, "start_source": "nwissite", "start_id": "USGS-02462951", "geometry_length_km": 1.4156250081319421 }, "geometry": { "type": "LineString", "coordinates": [ [ -87.502823003, 33.2440788 ], [ -87.507251807, 33.239623696 ], [ -87.511965506, 33.233930498 ] ] } },
{ "type": "Feature", "properties": { "site_no": "02462951", "nhdplus_comid": "166759229", "navigation_mode": "DM", "requested_distance_km": 12.0, "start_source": "nwissite", "start_id": "USGS-02462951", "geometry_length_km": 0.64111626875524508 }, "geometry": { "type": "LineString", "coordinates": [ [ -87.511965506, 33.233930498 ], [ -87.515820101, 33.230565496 ], [ -87.516809203, 33.2298311 ] ] } },
{ "type": "Feature", "properties": { "site_no": "02462951", "nhdplus_comid": "166759228", "navigation_mode": "DM", "requested_distance_km": 12.0, "start_source": "nwissite", "start_id": "USGS-02462951", "geometry_length_km": 0.71254390272260304 }, "geometry": { "type": "LineString", "coordinates": [ [ -87.516809203, 33.2298311 ], [ -87.522231907, 33.226005293 ], [ -87.522779204, 33.225856997 ] ] } },
{ "type": "Feature", "properties": { "site_no": "02462951", "nhdplus_comid": "18229891", "navigation_mode": "DM", "requested_distance_km": 12.0, "start_source": "nwissite", "start_id": "USGS-02462951", "geometry_length_km": 0.31175484996496838 }, "geometry": { "type": "LineString", "coordinates": [ [ -87.522779204, 33.225856997 ], [ -87.524009503, 33.225003995 ], [ -87.525596105, 33.2243663 ] ] } },
{ "type": "Feature", "properties": { "site_no": "02462951", "nhdplus_comid": "18229897", "navigation_mode": "DM", "requested_distance_km": 12.0, "start_source": "nwissite", "start_id": "USGS-02462951", "geometry_length_km": 2.16626832992011 }, "geometry": { "type": "LineString", "coordinates": [ [ -87.525596105, 33.2243663 ], [ -87.527798407, 33.223648295 ], [ -87.5319582, 33.223075293 ], [ -87.533628002, 33.223073095 ], [ -87.535736002, 33.223229297 ], [ -87.537666701, 33.223624095 ], [ -87.5417457, 33.223800197 ], [ -87.545617707, 33.223079599 ], [ -87.5483118, 33.222019896 ] ] } },
{ "type": "Feature", "properties": { "site_no": "02462951", "nhdplus_comid": "18229901", "navigation_mode": "DM", "requested_distance_km": 12.0, "start_source": "nwissite", "start_id": "USGS-02462951", "geometry_length_km": 0.19106210177609398 }, "geometry": { "type": "LineString", "coordinates": [ [ -87.5483118, 33.222019896 ], [ -87.548613004, 33.222042099 ], [ -87.549597003, 33.221359499 ], [ -87.550062105, 33.221267998 ] ] } },
{ "type": "Feature", "properties": { "site_no": "02462951", "nhdplus_comid": "18229905", "navigation_mode": "DM", "requested_distance_km": 12.0, "start_source": "nwissite", "start_id": "USGS-02462951", "geometry_length_km": 1.4630133284052027 }, "geometry": { "type": "LineString", "coordinates": [ [ -87.550062105, 33.221267998 ], [ -87.552906707, 33.220219299 ], [ -87.554753803, 33.219978198 ], [ -87.555081807, 33.219750598 ], [ -87.558187202, 33.219098799 ], [ -87.559144206, 33.218665898 ], [ -87.564929806, 33.217078798 ] ] } }
]
}
