{
"type": "FeatureCollection",
"name": "USGS_02446000_DM_12km",
"crs": { "type": "name", "properties": { "name": "urn:ogc:def:crs:OGC:1.3:CRS84" } },
"features": [
{ "type": "Feature", "properties": { "site_no": "02446000", "nhdplus_comid": "18615770", "navigation_mode": "DM", "requested_distance_km": 12.0, "start_source": "nwissite", "start_id": "USGS-02446000", "geometry_length_km": 1.7626612662533407 }, "geometry": { "type": "LineString", "coordinates": [ [ -87.764855447, 33.448207065 ], [ -87.764561504, 33.448098995 ], [ -87.764015801, 33.447479993 ], [ -87.764016204, 33.447113395 ], [ -87.764180601, 33.446769997 ], [ -87.765165403, 33.445946097 ], [ -87.766560607, 33.444641493 ], [ -87.767463706, 33.443565495 ], [ -87.767956004, 33.443199396 ], [ -87.768420607, 33.443062298 ], [ -87.769021705, 33.443314798 ], [ -87.769404307, 33.443246298 ], [ -87.769650504, 33.442971699 ], [ -87.769705601, 33.442673899 ], [ -87.770061307, 33.442215994 ], [ -87.770362005, 33.442124598 ], [ -87.770525604, 33.4423538 ], [ -87.770826101, 33.442514397 ], [ -87.7711813, 33.442537598 ], [ -87.771837302, 33.442354895 ], [ -87.772001505, 33.442102998 ], [ -87.772002101, 33.441690698 ], [ -87.771783903, 33.441323899 ], [ -87.771757007, 33.440911599 ], [ -87.772003502, 33.440430596 ], [ -87.772960402, 33.439950295 ], [ -87.773397602, 33.439881995 ], [ -87.773534201, 33.4399966 ], [ -87.773615405, 33.440683998 ], [ -87.773806505, 33.440844499 ], [ -87.774188906, 33.440936394 ], [ -87.774598807, 33.440867998 ] ] } },
{ "type": "Feature", "properties": { "site_no": "02446000", "nhdplus_comid": "18615790", "navigation_mode": "DM", "requested_distance_km": 12.0, "start_source": "nwissite", "start_id": "USGS-02446000", "geometry_length_km": 1.9984148780178979 }, "geometry": { "type": "LineString", "coordinates": [ [ -87.774598807, 33.440867998 ], [ -87.7746263, 33.440707698 ], [ -87.774954602, 33.440455899 ], [ -87.775419801, 33.439814895 ], [ -87.775502004, 33.439585797 ], [ -87.775503106, 33.4386236 ], [ -87.775339901, 33.437913194 ], [ -87.775203504, 33.437661096 ], [ -87.774603002, 33.437110893 ], [ -87.7746033, 33.436813094 ], [ -87.774931304, 33.436744593 ], [ -87.775122702, 33.436584294 ], [ -87.775150307, 33.436332397 ], [ -87.775013901, 33.436171897 ], [ -87.774385601, 33.436033994 ], [ -87.773730107, 33.435758598 ], [ -87.773075104, 33.435162395 ], [ -87.772829607, 33.434703998 ], [ -87.772584505, 33.434108295 ], [ -87.772394702, 33.432687595 ], [ -87.772231303, 33.432183594 ], [ -87.771931507, 33.431610495 ], [ -87.772041202, 33.431244098 ], [ -87.772752106, 33.430763699 ], [ -87.7728891, 33.430374198 ], [ -87.772616506, 33.429847099 ], [ -87.772371307, 33.429251298 ], [ -87.771989502, 33.428655393 ], [ -87.771989703, 33.428380497 ], [ -87.771907903, 33.428288795 ], [ -87.771908402, 33.427807696 ], [ -87.772673406, 33.4278083 ], [ -87.772891805, 33.427991696 ], [ -87.7731646, 33.428404294 ], [ -87.773492306, 33.428473294 ], [ -87.773601703, 33.428427599 ], [ -87.773575202, 33.427694395 ] ] } },
{ "type": "Feature", "properties": { "site_no": "02446000", "nhdplus_comid": "18615820", "navigation_mode": "DM", "requested_distance_km": 12.0, "start_source": "nwissite", "start_id": "USGS-02446000", "geometry_length_km": 1.7523427188917002 }, "geometry": { "type": "LineString", "coordinates": [ [ -87.773575202, 33.427694395 ], [ -87.773575701, 33.427236296 ], [ -87.773276307, 33.4261823 ], [ -87.773276702, 33.425815694 ], [ -87.773440801, 33.425724298 ], [ -87.774150804, 33.425953895 ], [ -87.774642602, 33.425931297 ], [ -87.774888702, 33.425725296 ], [ -87.774943806, 33.425404698 ], [ -87.773825102, 33.424120799 ], [ -87.773852803, 33.423754297 ], [ -87.774071604, 33.423502393 ], [ -87.775246404, 33.423480496 ], [ -87.775465205, 33.423297398 ], [ -87.775465503, 33.423022494 ], [ -87.7753563, 33.422953598 ], [ -87.774920605, 33.421624593 ], [ -87.775167704, 33.420456395 ], [ -87.775961004, 33.419563599 ], [ -87.776125401, 33.4191055 ], [ -87.776181102, 33.418212198 ], [ -87.776072003, 33.417914294 ], [ -87.775771901, 33.417616196 ], [ -87.775389604, 33.417386897 ], [ -87.774925806, 33.416859597 ], [ -87.774871901, 33.416195095 ], [ -87.774981603, 33.415897295 ], [ -87.775200404, 33.415622599 ] ] } },
{ "type": "Feature", "properties": { "site_no": "02446000", "nhdplus_comid": "18615838", "navigation_mode": "DM", "requested_distance_km": 12.0, "start_source": "nwissite", "start_id": "USGS-02446000", "geometry_length_km": 2.0998446619163347 }, "geometry": { "type": "LineString", "coordinates": [ [ -87.775200404, 33.415622599 ], [ -87.775227904, 33.4154623 ], [ -87.775692701, 33.415073194 ], [ -87.776020601, 33.414981797 ], [ -87.776621401, 33.415165499 ], [ -87.776703507, 33.415073998 ], [ -87.776732005, 33.413905598 ], [ -87.776623502, 33.413264096 ], [ -87.776297003, 33.412072599 ], [ -87.776024304, 33.411568396 ], [ -87.776079305, 33.411201894 ], [ -87.776762605, 33.410904594 ], [ -87.776899405, 33.410629794 ], [ -87.777418807, 33.410378195 ], [ -87.777528502, 33.409851395 ], [ -87.778102301, 33.409760199 ], [ -87.778130703, 33.4087293 ], [ -87.777857907, 33.408431299 ], [ -87.7778036, 33.408041798 ], [ -87.778132007, 33.407560997 ], [ -87.7781597, 33.407194294 ], [ -87.777941503, 33.406919293 ], [ -87.777832605, 33.406529799 ], [ -87.7780516, 33.406140499 ], [ -87.778543405, 33.405980393 ], [ -87.778844103, 33.4057974 ], [ -87.778844506, 33.405362196 ], [ -87.778489605, 33.405155696 ], [ -87.777642801, 33.405292496 ], [ -87.7773697, 33.405200697 ], [ -87.777178705, 33.405017197 ], [ -87.777069807, 33.404673599 ], [ -87.777179405, 33.404284194 ], [ -87.778465502, 33.402200393 ], [ -87.778493203, 33.401765198 ], [ -87.778248005, 33.4011923 ] ] } },
{ "type": "Feature", "properties": { "site_no": "02446000", "nhdplus_comid": "18615878", "navigation_mode": "DM", "requested_distance_km": 12.0, "start_source": "nwissite", "start_id": "USGS-02446000", "geometry_length_km": 1.6355906323635414 }, "geometry": { "type": "LineString", "coordinates": [ [ -87.778248005, 33.4011923 ], [ -87.777866006, 33.400733799 ], [ -87.777183905, 33.4001147 ], [ -87.777184203, 33.399793893 ], [ -87.777539603, 33.399542198 ], [ -87.7775672, 33.399244398 ], [ -87.777458102, 33.399038196 ], [ -87.777157903, 33.398854695 ], [ -87.7759564, 33.398670495 ], [ -87.7757653, 33.398578696 ], [ -87.775765605, 33.398372494 ], [ -87.7760664, 33.397983298 ], [ -87.776094005, 33.397685498 ], [ -87.7759303, 33.397524998 ], [ -87.775520802, 33.397455893 ], [ -87.774974301, 33.397684693 ], [ -87.774509802, 33.397753 ], [ -87.774209507, 33.397661097 ], [ -87.773800306, 33.397317097 ], [ -87.773037605, 33.395483799 ], [ -87.772328503, 33.3946127 ], [ -87.772328801, 33.394360699 ], [ -87.772438303, 33.394177496 ], [ -87.772438504, 33.393971294 ], [ -87.771291703, 33.393649697 ], [ -87.770827703, 33.393420197 ], [ -87.769709006, 33.392502896 ], [ -87.768644303, 33.392158397 ] ] } },
{ "type": "Feature", "properties": { "site_no": "02446000", "nhdplus_comid": "18615880", "navigation_mode": "DM", "requested_distance_km": 12.0, "start_source": "nwissite", "start_id": "USGS-02446000", "geometry_length_km": 0.22777397486418555 }, "geometry": { "type": "LineString", "coordinates": [ [ -87.768644303, 33.392158397 ], [ -87.768399306, 33.391539499 ], [ -87.768372506, 33.391104296 ], [ -87.768782601, 33.390715197 ], [ -87.769192606, 33.390440695 ] ] } },
{ "type": "Feature", "properties": { "site_no": "02446000", "nhdplus_comid": "18617302", "navigation_mode": "DM", "requested_distance_km": 12.0, "start_source": "nwissite", "start_id": "USGS-02446000", "geometry_length_km": 0.018695015846381922 }, "geometry": { "type": "LineString", "coordinates": [ [ -87.769192606, 33.390440695 ], [ -87.769213304, 33.390424393 ], [ -87.769245602, 33.390376799 ], [ -87.769138001, 33.390371799 ] ] } },
{ "type": "Feature", "properties": { "site_no": "02446000", "nhdplus_comid": "18615898", "navigation_mode": "DM", "requested_distance_km": 12.0, "start_source": "nwissite", "start_id": "USGS-02446000", "geometry_length_km": 0.43030078917187731 }, "geometry": { "type": "LineString", "coordinates": [ [ -87.769138001, 33.390371799 ], [ -87.769111201, 33.389936499 ], [ -87.769002303, 33.389661595 ], [ -87.768647701, 33.389271796 ], [ -87.767528802, 33.388583593 ], [ -87.766928606, 33.388101995 ], [ -87.766738504, 33.387322895 ] ] } },
{ "type": "Feature", "properties": { "site_no": "02446000", "nhdplus_comid": "25366072", "navigation_mode": "DM", "requested_distance_km": 12.0, "start_source": "nwissite", "start_id": "USGS-02446000", "geometry_length_km": 0.037661123785605884 }, "geometry": { "type": "LineString", "coordinates": [ [ -87.766738504, 33.387322895 ], [ -87.766624905, 33.386998996 ] ] } },
{ "type": "Feature", "properties": { "site_no": "02446000", "nhdplus_comid": "25366070", "navigation_mode": "DM", "requested_distance_km": 12.0, "start_source": "nwissite", "start_id": "USGS-02446000", "geometry_length_km": 0.023252722413680846 }, "geometry": { "type": "LineString", "coordinates": [ [ -87.766624905, 33.386998996 ], [ -87.766875401, 33.386979394 ] ] } },
{ "type": "Feature", "properties": { "site_no": "02446000", "nhdplus_comid": "18615904", "navigation_mode": "DM", "requested_distance_km": 12.0, "start_source": "nwissite", "start_id": "USGS-02446000", "geometry_length_km": 0.92349843463392212 }, "geometry": { "type": "LineString", "coordinates": [ [ -87.766875401, 33.386979394 ], [ -87.767066501, 33.386956699 ], [ -87.767749906, 33.386407398 ], [ -87.768132307, 33.3863848 ], [ -87.769414701, 33.387325197 ], [ -87.769851305, 33.387554698 ], [ -87.770097107, 33.387577794 ], [ -87.770534307, 33.387326099 ], [ -87.770535007, 33.3867305 ], [ -87.770398706, 33.386501297 ], [ -87.769989505, 33.386157297 ], [ -87.769252405, 33.385950498 ], [ -87.7690887, 33.385835893 ], [ -87.769089103, 33.385537997 ], [ -87.769280501, 33.3853091 ], [ -87.769526303, 33.385217696 ], [ -87.770291001, 33.385195397 ], [ -87.771164604, 33.385425195 ], [ -87.771219507, 33.385264896 ] ] } }
]
}
