{
"type": "FeatureCollection",
"name": "USGS_02450250_UM_12km",
"crs": { "type": "name", "properties": { "name": "urn:ogc:def:crs:OGC:1.3:CRS84" } },
"features": [
{ "type": "Feature", "properties": { "site_no": "02450250", "nhdplus_comid": "18578829", "navigation_mode": "UM", "requested_distance_km": 12.0, "start_source": "nwissite", "start_id": "USGS-02450250", "geometry_length_km": 0.035333456762776536 }, "geometry": { "type": "LineString", "coordinates": [ [ -87.399579205, 34.285320297 ], [ -87.399330705, 34.285091199 ], [ -87.399325578, 34.285082221 ] ] } },
{ "type": "Feature", "properties": { "site_no": "02450250", "nhdplus_comid": "18578755", "navigation_mode": "UM", "requested_distance_km": 12.0, "start_source": "nwissite", "start_id": "USGS-02450250", "geometry_length_km": 0.80718841355151927 }, "geometry": { "type": "LineString", "coordinates": [ [ -87.400685303, 34.292421095 ], [ -87.400823101, 34.291985795 ], [ -87.400822707, 34.290886298 ], [ -87.400574103, 34.289947197 ], [ -87.400491007, 34.289214194 ], [ -87.399938501, 34.287335999 ], [ -87.399883203, 34.286763296 ], [ -87.399689801, 34.286144793 ], [ -87.399579205, 34.285320297 ] ] } },
{ "type": "Feature", "properties": { "site_no": "02450250", "nhdplus_comid": "18578705", "navigation_mode": "UM", "requested_distance_km": 12.0, "start_source": "nwissite", "start_id": "USGS-02450250", "geometry_length_km": 0.7728468237973829 }, "geometry": { "type": "LineString", "coordinates": [ [ -87.407090105, 34.2968404 ], [ -87.405654401, 34.295878693 ], [ -87.404439904, 34.295375198 ], [ -87.402148604, 34.293886796 ], [ -87.400685303, 34.292421095 ] ] } },
{ "type": "Feature", "properties": { "site_no": "02450250", "nhdplus_comid": "18578689", "navigation_mode": "UM", "requested_distance_km": 12.0, "start_source": "nwissite", "start_id": "USGS-02450250", "geometry_length_km": 2.3815719974046177 }, "geometry": { "type": "LineString", "coordinates": [ [ -87.4287569, 34.297451094 ], [ -87.428232707, 34.297726095 ], [ -87.427956901, 34.2980242 ], [ -87.427516103, 34.299215496 ], [ -87.427240305, 34.299604997 ], [ -87.426992305, 34.300246499 ], [ -87.426385701, 34.301185898 ], [ -87.426082104, 34.3013006 ], [ -87.425557606, 34.301209196 ], [ -87.424729303, 34.300865896 ], [ -87.423238806, 34.300660394 ], [ -87.419070303, 34.299837299 ], [ -87.416254707, 34.299105398 ], [ -87.415040106, 34.2989913 ], [ -87.414708905, 34.298762396 ], [ -87.4144326, 34.298441693 ], [ -87.414156303, 34.297892094 ], [ -87.4136042, 34.297640197 ], [ -87.413107306, 34.297594599 ], [ -87.412693404, 34.2977321 ], [ -87.411920607, 34.2978011 ], [ -87.410098903, 34.2976413 ], [ -87.408194304, 34.297298297 ], [ -87.407090105, 34.2968404 ] ] } },
{ "type": "Feature", "properties": { "site_no": "02450250", "nhdplus_comid": "18578681", "navigation_mode": "UM", "requested_distance_km": 12.0, "start_source": "nwissite", "start_id": "USGS-02450250", "geometry_length_km": 0.32346835411968344 }, "geometry": { "type": "LineString", "coordinates": [ [ -87.431407906, 34.299305297 ], [ -87.429502301, 34.2977027 ], [ -87.4287569, 34.297451094 ] ] } },
{ "type": "Feature", "properties": { "site_no": "02450250", "nhdplus_comid": "18578675", "navigation_mode": "UM", "requested_distance_km": 12.0, "start_source": "nwissite", "start_id": "USGS-02450250", "geometry_length_km": 1.4441815601212482 }, "geometry": { "type": "LineString", "coordinates": [ [ -87.438286401, 34.306654893 ], [ -87.4382862, 34.306471594 ], [ -87.4394719, 34.304867499 ], [ -87.439802602, 34.304294698 ], [ -87.439857602, 34.304042697 ], [ -87.439664006, 34.303492993 ], [ -87.439387701, 34.303057998 ], [ -87.439083807, 34.3027604 ], [ -87.438062303, 34.302554697 ], [ -87.436627001, 34.302555397 ], [ -87.435274906, 34.303014196 ], [ -87.434640005, 34.303129099 ], [ -87.4342812, 34.303037696 ], [ -87.434005007, 34.302877396 ], [ -87.432706602, 34.301411994 ], [ -87.431490906, 34.299602993 ], [ -87.431407906, 34.299305297 ] ] } },
{ "type": "Feature", "properties": { "site_no": "02450250", "nhdplus_comid": "18578635", "navigation_mode": "UM", "requested_distance_km": 12.0, "start_source": "nwissite", "start_id": "USGS-02450250", "geometry_length_km": 1.4875788648730932 }, "geometry": { "type": "LineString", "coordinates": [ [ -87.441606104, 34.3156095 ], [ -87.4394252, 34.315656498 ], [ -87.437685907, 34.315497197 ], [ -87.437271602, 34.315382898 ], [ -87.436802, 34.314970799 ], [ -87.436221704, 34.314238094 ], [ -87.436221406, 34.313642494 ], [ -87.437407807, 34.313023396 ], [ -87.437518001, 34.312794194 ], [ -87.437517405, 34.311923794 ], [ -87.437903106, 34.310892798 ], [ -87.4379576, 34.309930697 ], [ -87.437763803, 34.309129 ], [ -87.437845401, 34.307594299 ], [ -87.4380932, 34.306769498 ], [ -87.438286401, 34.306654893 ] ] } },
{ "type": "Feature", "properties": { "site_no": "02450250", "nhdplus_comid": "18578617", "navigation_mode": "UM", "requested_distance_km": 12.0, "start_source": "nwissite", "start_id": "USGS-02450250", "geometry_length_km": 1.1070869912576231 }, "geometry": { "type": "LineString", "coordinates": [ [ -87.451077603, 34.318215296 ], [ -87.450856701, 34.318146698 ], [ -87.450552702, 34.3178491 ], [ -87.450358905, 34.317368194 ], [ -87.449337006, 34.316727497 ], [ -87.448977806, 34.316384099 ], [ -87.4486183, 34.315674193 ], [ -87.448424801, 34.315513998 ], [ -87.447375402, 34.315056495 ], [ -87.446629502, 34.314484194 ], [ -87.446049601, 34.3142327 ], [ -87.445635505, 34.314209998 ], [ -87.445387103, 34.314278796 ], [ -87.443952203, 34.315104298 ], [ -87.442710206, 34.3154485 ], [ -87.441606104, 34.3156095 ] ] } }
]
}
