{
"type": "FeatureCollection",
"name": "USGS_02456000_DM_12km",
"crs": { "type": "name", "properties": { "name": "urn:ogc:def:crs:OGC:1.3:CRS84" } },
"features": [
{ "type": "Feature", "properties": { "site_no": "02456000", "nhdplus_comid": "18566313", "navigation_mode": "DM", "requested_distance_km": 12.0, "start_source": "nwissite", "start_id": "USGS-02456000", "geometry_length_km": 2.3972367925261793 }, "geometry": { "type": "LineString", "coordinates": [ [ -86.811845498, 33.740568938 ], [ -86.811979301, 33.740822099 ], [ -86.812554605, 33.741692998 ], [ -86.813157506, 33.742265999 ], [ -86.813541204, 33.742472395 ], [ -86.815049402, 33.7424732 ], [ -86.8158447, 33.742313199 ], [ -86.816475704, 33.7420386 ], [ -86.817929804, 33.740870893 ], [ -86.819465801, 33.740275994 ], [ -86.819986805, 33.740299195 ], [ -86.820343107, 33.740505598 ], [ -86.820288204, 33.740734696 ], [ -86.818861507, 33.741787799 ], [ -86.818805903, 33.743001997 ], [ -86.818558805, 33.74346 ], [ -86.818065003, 33.744055398 ], [ -86.816501006, 33.745291799 ], [ -86.815403305, 33.746459596 ], [ -86.8154025, 33.747421794 ], [ -86.815621302, 33.748246595 ], [ -86.816169105, 33.749323599 ], [ -86.816196404, 33.749552697 ], [ -86.816497602, 33.750102796 ], [ -86.816964507, 33.751075499 ], [ -86.817046605, 33.751396194 ] ] } },
{ "type": "Feature", "properties": { "site_no": "02456000", "nhdplus_comid": "18565595", "navigation_mode": "DM", "requested_distance_km": 12.0, "start_source": "nwissite", "start_id": "USGS-02456000", "geometry_length_km": 0.32928670033956403 }, "geometry": { "type": "LineString", "coordinates": [ [ -86.817046605, 33.751396194 ], [ -86.817731507, 33.752427399 ], [ -86.8181701, 33.752771199 ], [ -86.818389505, 33.752817295 ], [ -86.819651201, 33.752497099 ] ] } },
{ "type": "Feature", "properties": { "site_no": "02456000", "nhdplus_comid": "18565587", "navigation_mode": "DM", "requested_distance_km": 12.0, "start_source": "nwissite", "start_id": "USGS-02456000", "geometry_length_km": 1.2099286943113412 }, "geometry": { "type": "LineString", "coordinates": [ [ -86.819651201, 33.752497099 ], [ -86.819980301, 33.752588898 ], [ -86.820062101, 33.7534137 ], [ -86.819842301, 33.753963299 ], [ -86.819265902, 33.754673295 ], [ -86.818936303, 33.755314596 ], [ -86.818936005, 33.755864397 ], [ -86.819456704, 33.756758198 ], [ -86.819813006, 33.757124893 ], [ -86.8201693, 33.7573312 ], [ -86.821074404, 33.757308699 ], [ -86.824996807, 33.756760597 ], [ -86.8264504, 33.756738298 ] ] } },
{ "type": "Feature", "properties": { "site_no": "02456000", "nhdplus_comid": "18565565", "navigation_mode": "DM", "requested_distance_km": 12.0, "start_source": "nwissite", "start_id": "USGS-02456000", "geometry_length_km": 3.3564364514989906 }, "geometry": { "type": "LineString", "coordinates": [ [ -86.8264504, 33.756738298 ], [ -86.827218302, 33.756990597 ], [ -86.8275472, 33.757380195 ], [ -86.827546902, 33.757861294 ], [ -86.826503806, 33.759441599 ], [ -86.826558404, 33.759830996 ], [ -86.826750204, 33.760197699 ], [ -86.827271201, 33.760495797 ], [ -86.828916505, 33.761137895 ], [ -86.829272904, 33.761412896 ], [ -86.829355001, 33.7617108 ], [ -86.829080604, 33.762191698 ], [ -86.828724004, 33.762283199 ], [ -86.828038305, 33.762260094 ], [ -86.827133201, 33.762122296 ], [ -86.825871401, 33.762282096 ], [ -86.825075805, 33.762579598 ], [ -86.824472204, 33.763014697 ], [ -86.822523504, 33.7650069 ], [ -86.822084606, 33.764983796 ], [ -86.820357107, 33.764272898 ], [ -86.819177806, 33.763974495 ], [ -86.818464607, 33.763951197 ], [ -86.817175202, 33.7642942 ], [ -86.816736102, 33.764752194 ], [ -86.816653602, 33.765004195 ], [ -86.816707902, 33.765874796 ], [ -86.817090906, 33.767547294 ], [ -86.817721002, 33.768693097 ], [ -86.817995101, 33.768990993 ], [ -86.818570904, 33.7692433 ], [ -86.8216708, 33.7690157 ], [ -86.822822802, 33.7692682 ], [ -86.824303702, 33.769749798 ], [ -86.825098902, 33.770254299 ] ] } },
{ "type": "Feature", "properties": { "site_no": "02456000", "nhdplus_comid": "18565501", "navigation_mode": "DM", "requested_distance_km": 12.0, "start_source": "nwissite", "start_id": "USGS-02456000", "geometry_length_km": 0.67791121738925608 }, "geometry": { "type": "LineString", "coordinates": [ [ -86.825098902, 33.770254299 ], [ -86.826909602, 33.769819699 ], [ -86.827760004, 33.769728497 ], [ -86.828582905, 33.769751593 ], [ -86.829872005, 33.770049997 ], [ -86.830420606, 33.7702334 ], [ -86.831572205, 33.771127395 ], [ -86.831654407, 33.771356493 ] ] } },
{ "type": "Feature", "properties": { "site_no": "02456000", "nhdplus_comid": "18565485", "navigation_mode": "DM", "requested_distance_km": 12.0, "start_source": "nwissite", "start_id": "USGS-02456000", "geometry_length_km": 3.4405788524631307 }, "geometry": { "type": "LineString", "coordinates": [ [ -86.831654407, 33.771356493 ], [ -86.8319012, 33.771471098 ], [ -86.832257606, 33.771906495 ], [ -86.833381601, 33.7737168 ], [ -86.834423304, 33.7749542 ], [ -86.835246004, 33.775756299 ], [ -86.836507402, 33.776718996 ], [ -86.838345006, 33.777887896 ], [ -86.838975802, 33.778369196 ], [ -86.839195207, 33.778689995 ], [ -86.839222305, 33.779423095 ], [ -86.838947505, 33.780453898 ], [ -86.837766901, 33.782675795 ], [ -86.834747903, 33.785469696 ], [ -86.834226303, 33.786133893 ], [ -86.833649404, 33.787393793 ], [ -86.833594404, 33.7878519 ], [ -86.833704002, 33.788218498 ], [ -86.834252506, 33.788745597 ], [ -86.835267402, 33.789433293 ], [ -86.836529203, 33.790097997 ], [ -86.837516807, 33.790418997 ], [ -86.839519605, 33.790717497 ], [ -86.840809204, 33.790649094 ], [ -86.845034406, 33.791016795 ] ] } }
]
}
