{
"type": "FeatureCollection",
"name": "USGS_02443230_UM_12km",
"crs": { "type": "name", "properties": { "name": "urn:ogc:def:crs:OGC:1.3:CRS84" } },
"features": [
{ "type": "Feature", "properties": { "site_no": "02443230", "nhdplus_comid": "18647888", "navigation_mode": "UM", "requested_distance_km": 12.0, "start_source": "nwissite", "start_id": "USGS-02443230", "geometry_length_km": 1.0115752917056053 }, "geometry": { "type": "LineString", "coordinates": [ [ -88.156923704, 33.614223495 ], [ -88.156923704, 33.614108995 ], [ -88.157334201, 33.613696493 ], [ -88.157607801, 33.613238297 ], [ -88.158018202, 33.612848796 ], [ -88.1585657, 33.612734094 ], [ -88.159742504, 33.611588396 ], [ -88.1605637, 33.611244597 ], [ -88.160892107, 33.610900894 ], [ -88.160892107, 33.610786296 ], [ -88.160344407, 33.610603295 ], [ -88.160070501, 33.610374294 ], [ -88.1600703, 33.610145196 ], [ -88.1602071, 33.609984897 ], [ -88.160426103, 33.609755695 ], [ -88.160891503, 33.609641097 ], [ -88.161439002, 33.609411798 ], [ -88.161575504, 33.608953595 ], [ -88.161794506, 33.608770296 ], [ -88.162615605, 33.608540997 ], [ -88.162835886, 33.608410806 ] ] } },
{ "type": "Feature", "properties": { "site_no": "02443230", "nhdplus_comid": "18647856", "navigation_mode": "UM", "requested_distance_km": 12.0, "start_source": "nwissite", "start_id": "USGS-02443230", "geometry_length_km": 0.91384306489217215 }, "geometry": { "type": "LineString", "coordinates": [ [ -88.149258606, 33.616790794 ], [ -88.149806201, 33.616676196 ], [ -88.150572903, 33.617202796 ], [ -88.151038401, 33.617248595 ], [ -88.151312202, 33.617248498 ], [ -88.151722901, 33.617202595 ], [ -88.152407102, 33.616400696 ], [ -88.152763002, 33.616331898 ], [ -88.153310604, 33.616514996 ], [ -88.153776102, 33.616514899 ], [ -88.154049806, 33.616446197 ], [ -88.154734202, 33.616102397 ], [ -88.155090004, 33.615941897 ], [ -88.155829206, 33.615872994 ], [ -88.155966006, 33.615712598 ], [ -88.156239606, 33.615025394 ], [ -88.156649902, 33.6143381 ], [ -88.156923704, 33.614223495 ] ] } },
{ "type": "Feature", "properties": { "site_no": "02443230", "nhdplus_comid": "18647844", "navigation_mode": "UM", "requested_distance_km": 12.0, "start_source": "nwissite", "start_id": "USGS-02443230", "geometry_length_km": 0.82602207001418282 }, "geometry": { "type": "LineString", "coordinates": [ [ -88.140771002, 33.616402999 ], [ -88.141181804, 33.616448693 ], [ -88.141729407, 33.616631798 ], [ -88.142276905, 33.616517194 ], [ -88.142632902, 33.616563 ], [ -88.143645905, 33.616562799 ], [ -88.144467302, 33.616745993 ], [ -88.1450148, 33.616677195 ], [ -88.145836003, 33.616218895 ], [ -88.146465801, 33.616218798 ], [ -88.147013307, 33.616401896 ], [ -88.148163401, 33.616401598 ], [ -88.148574106, 33.616630599 ], [ -88.148793206, 33.616790898 ], [ -88.149258606, 33.616790794 ] ] } },
{ "type": "Feature", "properties": { "site_no": "02443230", "nhdplus_comid": "18647842", "navigation_mode": "UM", "requested_distance_km": 12.0, "start_source": "nwissite", "start_id": "USGS-02443230", "geometry_length_km": 0.088057913624130027 }, "geometry": { "type": "LineString", "coordinates": [ [ -88.139949702, 33.616746694 ], [ -88.140223503, 33.616677895 ], [ -88.140771002, 33.616448797 ], [ -88.140771002, 33.616402999 ] ] } },
{ "type": "Feature", "properties": { "site_no": "02443230", "nhdplus_comid": "18647840", "navigation_mode": "UM", "requested_distance_km": 12.0, "start_source": "nwissite", "start_id": "USGS-02443230", "geometry_length_km": 0.64146798619009837 }, "geometry": { "type": "LineString", "coordinates": [ [ -88.133515604, 33.616747297 ], [ -88.133789301, 33.616564095 ], [ -88.134419203, 33.616907597 ], [ -88.1348847, 33.616861798 ], [ -88.135158405, 33.616564095 ], [ -88.135295302, 33.616518199 ], [ -88.135569103, 33.616518199 ], [ -88.136116602, 33.616678499 ], [ -88.136746407, 33.616678394 ], [ -88.137978405, 33.6164492 ], [ -88.138936602, 33.616746798 ], [ -88.139949702, 33.616746694 ] ] } },
{ "type": "Feature", "properties": { "site_no": "02443230", "nhdplus_comid": "18647838", "navigation_mode": "UM", "requested_distance_km": 12.0, "start_source": "nwissite", "start_id": "USGS-02443230", "geometry_length_km": 1.1196880746550584 }, "geometry": { "type": "LineString", "coordinates": [ [ -88.124206901, 33.621443696 ], [ -88.124699801, 33.621443696 ], [ -88.125028305, 33.621374995 ], [ -88.127218701, 33.620573193 ], [ -88.1282591, 33.620298296 ], [ -88.128532901, 33.6200004 ], [ -88.129135303, 33.6194278 ], [ -88.129682802, 33.619198598 ], [ -88.130997106, 33.619152799 ], [ -88.131544605, 33.618855 ], [ -88.131955206, 33.618396699 ], [ -88.132831305, 33.618282199 ], [ -88.133242004, 33.618053094 ], [ -88.133597806, 33.617778197 ], [ -88.133652605, 33.617594898 ], [ -88.133652501, 33.617136799 ], [ -88.133515604, 33.617022194 ], [ -88.133515604, 33.616747297 ] ] } },
{ "type": "Feature", "properties": { "site_no": "02443230", "nhdplus_comid": "18647828", "navigation_mode": "UM", "requested_distance_km": 12.0, "start_source": "nwissite", "start_id": "USGS-02443230", "geometry_length_km": 2.0998930924444208 }, "geometry": { "type": "LineString", "coordinates": [ [ -88.103617102, 33.618739299 ], [ -88.103753902, 33.618693493 ], [ -88.105862305, 33.618579194 ], [ -88.106765807, 33.6183962 ], [ -88.107642002, 33.6180069 ], [ -88.107861102, 33.618052699 ], [ -88.108408704, 33.618235998 ], [ -88.109558605, 33.617938399 ], [ -88.1101062, 33.618007094 ], [ -88.110736005, 33.618121698 ], [ -88.111338407, 33.617938496 ], [ -88.111831203, 33.617938496 ], [ -88.113337003, 33.618007399 ], [ -88.113884605, 33.618167795 ], [ -88.114486903, 33.618580095 ], [ -88.115171306, 33.618740499 ], [ -88.115855806, 33.619198695 ], [ -88.116759501, 33.619381994 ], [ -88.117498703, 33.619656898 ], [ -88.118183203, 33.620115094 ], [ -88.119278304, 33.620412797 ], [ -88.119689107, 33.620641999 ], [ -88.120236605, 33.621031299 ], [ -88.1203188, 33.621603996 ], [ -88.120729402, 33.621787295 ], [ -88.121468902, 33.621603996 ], [ -88.122427203, 33.621260494 ], [ -88.1231938, 33.621260494 ], [ -88.124152102, 33.621443793 ], [ -88.124206901, 33.621443696 ] ] } },
{ "type": "Feature", "properties": { "site_no": "02443230", "nhdplus_comid": "18647848", "navigation_mode": "UM", "requested_distance_km": 12.0, "start_source": "nwissite", "start_id": "USGS-02443230", "geometry_length_km": 1.1298527129154898 }, "geometry": { "type": "LineString", "coordinates": [ [ -88.094226606, 33.616057299 ], [ -88.094363406, 33.616057396 ], [ -88.095047906, 33.616286598 ], [ -88.095595405, 33.616676196 ], [ -88.096005902, 33.617088594 ], [ -88.096635506, 33.617363594 ], [ -88.096827105, 33.617546894 ], [ -88.096964002, 33.617775999 ], [ -88.097046003, 33.618165396 ], [ -88.097100504, 33.619035996 ], [ -88.097100504, 33.619196199 ], [ -88.097374201, 33.619425394 ], [ -88.098004006, 33.619608797 ], [ -88.100742005, 33.619654998 ], [ -88.101207405, 33.619540595 ], [ -88.1019741, 33.619197093 ], [ -88.102713503, 33.6188078 ], [ -88.102987304, 33.618693396 ], [ -88.103617102, 33.618739299 ] ] } },
{ "type": "Feature", "properties": { "site_no": "02443230", "nhdplus_comid": "18647854", "navigation_mode": "UM", "requested_distance_km": 12.0, "start_source": "nwissite", "start_id": "USGS-02443230", "geometry_length_km": 1.0528288990977763 }, "geometry": { "type": "LineString", "coordinates": [ [ -88.083904907, 33.615367398 ], [ -88.084315605, 33.615413293 ], [ -88.084917806, 33.615711294 ], [ -88.085328303, 33.616054997 ], [ -88.086012602, 33.616284199 ], [ -88.0864233, 33.616398998 ], [ -88.086916305, 33.616284497 ], [ -88.088011704, 33.615368597 ], [ -88.088477306, 33.615185499 ], [ -88.088970102, 33.615254298 ], [ -88.090119906, 33.615483798 ], [ -88.090886503, 33.615369394 ], [ -88.091488801, 33.615415297 ], [ -88.092310101, 33.615713395 ], [ -88.092994705, 33.615828097 ], [ -88.093898103, 33.615874 ], [ -88.094226606, 33.616057299 ] ] } },
{ "type": "Feature", "properties": { "site_no": "02443230", "nhdplus_comid": "18647852", "navigation_mode": "UM", "requested_distance_km": 12.0, "start_source": "nwissite", "start_id": "USGS-02443230", "geometry_length_km": 0.10033035259421287 }, "geometry": { "type": "LineString", "coordinates": [ [ -88.083138101, 33.615985595 ], [ -88.083274901, 33.615939796 ], [ -88.083822705, 33.615481898 ], [ -88.083904907, 33.615367398 ] ] } },
{ "type": "Feature", "properties": { "site_no": "02443230", "nhdplus_comid": "18647850", "navigation_mode": "UM", "requested_distance_km": 12.0, "start_source": "nwissite", "start_id": "USGS-02443230", "geometry_length_km": 0.80320340337720153 }, "geometry": { "type": "LineString", "coordinates": [ [ -88.077330902, 33.621137597 ], [ -88.078015804, 33.620565295 ], [ -88.078481503, 33.620107293 ], [ -88.078837506, 33.619947098 ], [ -88.079111502, 33.619603597 ], [ -88.079714105, 33.619191393 ], [ -88.080672905, 33.618115097 ], [ -88.081166007, 33.6176572 ], [ -88.082590006, 33.616901696 ], [ -88.082590103, 33.616787195 ], [ -88.082809202, 33.616626896 ], [ -88.083138101, 33.615985595 ] ] } },
{ "type": "Feature", "properties": { "site_no": "02443230", "nhdplus_comid": "18647814", "navigation_mode": "UM", "requested_distance_km": 12.0, "start_source": "nwissite", "start_id": "USGS-02443230", "geometry_length_km": 1.4948686854025608 }, "geometry": { "type": "LineString", "coordinates": [ [ -88.069521204, 33.631831996 ], [ -88.069932006, 33.631603099 ], [ -88.071219705, 33.630618699 ], [ -88.071713001, 33.629885897 ], [ -88.071987003, 33.629542395 ], [ -88.072671905, 33.628969997 ], [ -88.073822305, 33.628512293 ], [ -88.0742331, 33.6282833 ], [ -88.074863307, 33.627642199 ], [ -88.074891001, 33.627000794 ], [ -88.0749458, 33.6267718 ], [ -88.075219803, 33.626496993 ], [ -88.075165302, 33.626153395 ], [ -88.075028405, 33.626015894 ], [ -88.074946307, 33.625855498 ], [ -88.075165801, 33.625122599 ], [ -88.075330205, 33.624893494 ], [ -88.075549401, 33.624664493 ], [ -88.075604506, 33.623908594 ], [ -88.075741507, 33.623748399 ], [ -88.075878605, 33.6234506 ], [ -88.076098002, 33.622740597 ], [ -88.076098107, 33.622626096 ], [ -88.0768378, 33.621824697 ], [ -88.077056907, 33.621664397 ], [ -88.077194005, 33.621435396 ], [ -88.077330902, 33.621137597 ] ] } }
]
}
