{
"type": "FeatureCollection",
"name": "USGS_02465292_UM_12km",
"crs": { "type": "name", "properties": { "name": "urn:ogc:def:crs:OGC:1.3:CRS84" } },
"features": [
{ "type": "Feature", "properties": { "site_no": "02465292", "nhdplus_comid": "18206880", "navigation_mode": "UM", "requested_distance_km": 12.0, "start_source": "nwissite", "start_id": "USGS-02465292", "geometry_length_km": 2.7043433234085836 }, "geometry": { "type": "LineString", "coordinates": [ [ -87.540302202, 33.183052197 ], [ -87.540492907, 33.183029398 ], [ -87.545482002, 33.179389797 ], [ -87.546299703, 33.179023795 ], [ -87.546599604, 33.178703196 ], [ -87.546764001, 33.177695297 ], [ -87.547063902, 33.177397594 ], [ -87.547282301, 33.1770311 ], [ -87.547473602, 33.176298097 ], [ -87.547609903, 33.176160797 ], [ -87.551806301, 33.175086394 ], [ -87.553413704, 33.174881093 ], [ -87.553768203, 33.174766697 ], [ -87.554749407, 33.1741945 ], [ -87.555811904, 33.173965998 ], [ -87.556275204, 33.173943296 ], [ -87.556928806, 33.174103998 ], [ -87.557664506, 33.174012795 ], [ -87.559245102, 33.173349097 ], [ -87.559953503, 33.173257895 ], [ -87.561015606, 33.173785396 ], [ -87.561696507, 33.173945993 ], [ -87.5630311, 33.174496599 ], [ -87.5636575, 33.174817696 ], [ -87.564028841, 33.174899328 ] ] } },
{ "type": "Feature", "properties": { "site_no": "02465292", "nhdplus_comid": "18205166", "navigation_mode": "UM", "requested_distance_km": 12.0, "start_source": "nwissite", "start_id": "USGS-02465292", "geometry_length_km": 0.45252424153907056 }, "geometry": { "type": "LineString", "coordinates": [ [ -87.537438206, 33.186326496 ], [ -87.538365401, 33.185456499 ], [ -87.540302202, 33.183052197 ] ] } },
{ "type": "Feature", "properties": { "site_no": "02465292", "nhdplus_comid": "18205162", "navigation_mode": "UM", "requested_distance_km": 12.0, "start_source": "nwissite", "start_id": "USGS-02465292", "geometry_length_km": 3.2030589440260777 }, "geometry": { "type": "LineString", "coordinates": [ [ -87.507213905, 33.192006998 ], [ -87.507814005, 33.191503599 ], [ -87.508168407, 33.191320494 ], [ -87.512148105, 33.190201499 ], [ -87.513538502, 33.189607099 ], [ -87.516345106, 33.189632393 ], [ -87.5169992, 33.189426795 ], [ -87.518961206, 33.189313799 ], [ -87.519397303, 33.189176694 ], [ -87.519615501, 33.189016595 ], [ -87.5197521, 33.1886959 ], [ -87.519807301, 33.188123196 ], [ -87.520079903, 33.1880088 ], [ -87.520543203, 33.187986299 ], [ -87.520788804, 33.187619999 ], [ -87.5214158, 33.187276796 ], [ -87.522289202, 33.185994498 ], [ -87.523189202, 33.1852163 ], [ -87.525724001, 33.184530899 ], [ -87.527795203, 33.184051394 ], [ -87.530247405, 33.183984496 ], [ -87.533297703, 33.185315594 ], [ -87.534005903, 33.185499296 ], [ -87.535340905, 33.185568996 ], [ -87.5361581, 33.185867399 ], [ -87.536893301, 33.186234497 ], [ -87.537438206, 33.186326496 ] ] } },
{ "type": "Feature", "properties": { "site_no": "02465292", "nhdplus_comid": "18205150", "navigation_mode": "UM", "requested_distance_km": 12.0, "start_source": "nwissite", "start_id": "USGS-02465292", "geometry_length_km": 0.56588549479532646 }, "geometry": { "type": "LineString", "coordinates": [ [ -87.503177501, 33.194615096 ], [ -87.504022107, 33.194707394 ], [ -87.505684502, 33.194640294 ], [ -87.506284706, 33.194045193 ], [ -87.506721601, 33.193358295 ], [ -87.506804101, 33.192762695 ], [ -87.507213905, 33.192006998 ] ] } },
{ "type": "Feature", "properties": { "site_no": "02465292", "nhdplus_comid": "18206544", "navigation_mode": "UM", "requested_distance_km": 12.0, "start_source": "nwissite", "start_id": "USGS-02465292", "geometry_length_km": 0.11693437664545114 }, "geometry": { "type": "LineString", "coordinates": [ [ -87.502080701, 33.195003897 ], [ -87.502831101, 33.194849595 ], [ -87.503014401, 33.194626398 ], [ -87.503177501, 33.194615096 ] ] } },
{ "type": "Feature", "properties": { "site_no": "02465292", "nhdplus_comid": "18206542", "navigation_mode": "UM", "requested_distance_km": 12.0, "start_source": "nwissite", "start_id": "USGS-02465292", "geometry_length_km": 0.0084268491078537608 }, "geometry": { "type": "LineString", "coordinates": [ [ -87.5020869, 33.195072196 ], [ -87.5020715, 33.195005797 ], [ -87.502080701, 33.195003897 ] ] } },
{ "type": "Feature", "properties": { "site_no": "02465292", "nhdplus_comid": "18206386", "navigation_mode": "UM", "requested_distance_km": 12.0, "start_source": "nwissite", "start_id": "USGS-02465292", "geometry_length_km": 1.8854162995618002 }, "geometry": { "type": "LineString", "coordinates": [ [ -87.483946607, 33.194005296 ], [ -87.484955803, 33.194760494 ], [ -87.486564003, 33.195194297 ], [ -87.487027802, 33.195606299 ], [ -87.487246402, 33.196087196 ], [ -87.488010302, 33.196727894 ], [ -87.488991506, 33.196910396 ], [ -87.489918001, 33.196863599 ], [ -87.491089404, 33.196495898 ], [ -87.491661705, 33.196564093 ], [ -87.492533401, 33.1964029 ], [ -87.493159905, 33.196173199 ], [ -87.493541405, 33.196218699 ], [ -87.494713806, 33.196606994 ], [ -87.495258905, 33.196698099 ], [ -87.496103503, 33.196605697 ], [ -87.497302704, 33.196741998 ], [ -87.498556003, 33.196557395 ], [ -87.499563307, 33.195869096 ], [ -87.499999002, 33.195708394 ], [ -87.500342406, 33.195528798 ], [ -87.501977704, 33.195163697 ], [ -87.5020869, 33.195072196 ] ] } }
]
}
