{
"type": "FeatureCollection",
"name": "USGS_02374950_DM_12km",
"crs": { "type": "name", "properties": { "name": "urn:ogc:def:crs:OGC:1.3:CRS84" } },
"features": [
{ "type": "Feature", "properties": { "site_no": "02374950", "nhdplus_comid": "445834", "navigation_mode": "DM", "requested_distance_km": 12.0, "start_source": "nwissite", "start_id": "USGS-02374950", "geometry_length_km": 0.16281342539334825 }, "geometry": { "type": "LineString", "coordinates": [ [ -87.370611983, 31.129660334 ], [ -87.370503806, 31.129455596 ], [ -87.369571306, 31.128813796 ], [ -87.369438201, 31.1286304 ] ] } },
{ "type": "Feature", "properties": { "site_no": "02374950", "nhdplus_comid": "445868", "navigation_mode": "DM", "requested_distance_km": 12.0, "start_source": "nwissite", "start_id": "USGS-02374950", "geometry_length_km": 2.5724882474383581 }, "geometry": { "type": "LineString", "coordinates": [ [ -87.369438201, 31.1286304 ], [ -87.3686122, 31.128607497 ], [ -87.368106, 31.128905497 ], [ -87.367573105, 31.128928296 ], [ -87.366720706, 31.1278053 ], [ -87.366507605, 31.127713598 ], [ -87.366001405, 31.127713598 ], [ -87.365575105, 31.127850994 ], [ -87.365228802, 31.127850994 ], [ -87.365042202, 31.127507195 ], [ -87.364589401, 31.126980096 ], [ -87.363443807, 31.127025895 ], [ -87.362537906, 31.126956999 ], [ -87.362191603, 31.126796596 ], [ -87.361419201, 31.126223594 ], [ -87.361046202, 31.125833899 ], [ -87.361099504, 31.125192195 ], [ -87.361499205, 31.124550499 ], [ -87.361925803, 31.122717097 ], [ -87.362032302, 31.121594094 ], [ -87.361819305, 31.120906495 ], [ -87.361846201, 31.119050197 ], [ -87.362405904, 31.116368793 ], [ -87.362912104, 31.115681194 ], [ -87.363498203, 31.115062498 ], [ -87.363631301, 31.114718795 ], [ -87.363631405, 31.114329197 ], [ -87.363365106, 31.113435395 ], [ -87.362725906, 31.1127249 ], [ -87.362672605, 31.112289496 ] ] } },
{ "type": "Feature", "properties": { "site_no": "02374950", "nhdplus_comid": "445870", "navigation_mode": "DM", "requested_distance_km": 12.0, "start_source": "nwissite", "start_id": "USGS-02374950", "geometry_length_km": 0.1538799463252182 }, "geometry": { "type": "LineString", "coordinates": [ [ -87.362672605, 31.112289496 ], [ -87.362992302, 31.111945696 ], [ -87.364031203, 31.111624897 ] ] } },
{ "type": "Feature", "properties": { "site_no": "02374950", "nhdplus_comid": "445912", "navigation_mode": "DM", "requested_distance_km": 12.0, "start_source": "nwissite", "start_id": "USGS-02374950", "geometry_length_km": 2.0959954096657847 }, "geometry": { "type": "LineString", "coordinates": [ [ -87.364031203, 31.111624897 ], [ -87.364057906, 31.111510299 ], [ -87.364617303, 31.111097798 ], [ -87.364777103, 31.110753998 ], [ -87.364697404, 31.109699793 ], [ -87.364351101, 31.108828895 ], [ -87.364324406, 31.108301796 ], [ -87.364431001, 31.107728794 ], [ -87.364218004, 31.107293293 ], [ -87.363845102, 31.106880799 ], [ -87.363791905, 31.106514096 ], [ -87.363206007, 31.105620198 ], [ -87.363046207, 31.105161898 ], [ -87.362167403, 31.104222193 ], [ -87.3622474, 31.102594897 ], [ -87.362087704, 31.1021595 ], [ -87.361954503, 31.102022 ], [ -87.361421801, 31.101815693 ], [ -87.361128904, 31.101609297 ], [ -87.360676207, 31.100944698 ], [ -87.360623002, 31.100761294 ], [ -87.361075707, 31.100532196 ], [ -87.361182407, 31.100280195 ], [ -87.361155801, 31.099088393 ], [ -87.361395605, 31.098354995 ], [ -87.361369006, 31.0980113 ], [ -87.3607831, 31.097484097 ], [ -87.360836506, 31.096819498 ], [ -87.360117406, 31.096223496 ], [ -87.360037707, 31.095283896 ], [ -87.359904602, 31.094985895 ] ] } },
{ "type": "Feature", "properties": { "site_no": "02374950", "nhdplus_comid": "445914", "navigation_mode": "DM", "requested_distance_km": 12.0, "start_source": "nwissite", "start_id": "USGS-02374950", "geometry_length_km": 0.19974107997750012 }, "geometry": { "type": "LineString", "coordinates": [ [ -87.359904602, 31.094985895 ], [ -87.3598781, 31.094389997 ], [ -87.360437401, 31.093289994 ] ] } },
{ "type": "Feature", "properties": { "site_no": "02374950", "nhdplus_comid": "445928", "navigation_mode": "DM", "requested_distance_km": 12.0, "start_source": "nwissite", "start_id": "USGS-02374950", "geometry_length_km": 1.4219365002991355 }, "geometry": { "type": "LineString", "coordinates": [ [ -87.360437401, 31.093289994 ], [ -87.360437401, 31.092946194 ], [ -87.360171206, 31.0923732 ], [ -87.359878302, 31.092121094 ], [ -87.359265804, 31.092006497 ], [ -87.358546905, 31.091456294 ], [ -87.358120807, 31.090906195 ], [ -87.357322, 31.090241499 ], [ -87.357029006, 31.090126894 ], [ -87.356656201, 31.089691393 ], [ -87.356310107, 31.089095399 ], [ -87.356363401, 31.088728793 ], [ -87.356709704, 31.088430896 ], [ -87.357269004, 31.088316396 ], [ -87.357615106, 31.088476799 ], [ -87.357934706, 31.088774793 ], [ -87.358254202, 31.088820599 ], [ -87.358493805, 31.088728994 ], [ -87.358627006, 31.088568598 ], [ -87.358920105, 31.087743595 ], [ -87.358574003, 31.087399796 ], [ -87.358014807, 31.087239295 ], [ -87.356630005, 31.087514095 ], [ -87.356443502, 31.0872849 ], [ -87.3560443, 31.086368099 ] ] } },
{ "type": "Feature", "properties": { "site_no": "02374950", "nhdplus_comid": "445962", "navigation_mode": "DM", "requested_distance_km": 12.0, "start_source": "nwissite", "start_id": "USGS-02374950", "geometry_length_km": 1.6889230852622235 }, "geometry": { "type": "LineString", "coordinates": [ [ -87.3560443, 31.086368099 ], [ -87.355139002, 31.085863695 ], [ -87.354766101, 31.085817799 ], [ -87.354366705, 31.085565798 ], [ -87.353780903, 31.084878199 ], [ -87.353062101, 31.084213495 ], [ -87.352742605, 31.084052898 ], [ -87.351677604, 31.083090194 ], [ -87.351624504, 31.082837999 ], [ -87.351917505, 31.082081795 ], [ -87.351837702, 31.081439994 ], [ -87.349920802, 31.079743795 ], [ -87.349361904, 31.078643598 ], [ -87.348643206, 31.077795498 ], [ -87.3477915, 31.076282598 ], [ -87.347711705, 31.075938895 ], [ -87.347445503, 31.075594999 ], [ -87.347285904, 31.0750679 ], [ -87.346939906, 31.074586496 ], [ -87.346939906, 31.074448995 ], [ -87.346806802, 31.074403197 ] ] } },
{ "type": "Feature", "properties": { "site_no": "02374950", "nhdplus_comid": "445966", "navigation_mode": "DM", "requested_distance_km": 12.0, "start_source": "nwissite", "start_id": "USGS-02374950", "geometry_length_km": 0.9335739537296347 }, "geometry": { "type": "LineString", "coordinates": [ [ -87.346806802, 31.074403197 ], [ -87.346700504, 31.073852994 ], [ -87.345449403, 31.072019294 ], [ -87.345050305, 31.070964999 ], [ -87.343692705, 31.070391797 ], [ -87.342441306, 31.070231095 ], [ -87.341802306, 31.070001699 ], [ -87.341403, 31.069657795 ], [ -87.341403104, 31.069543198 ], [ -87.341323204, 31.069520399 ], [ -87.340977401, 31.068603493 ] ] } },
{ "type": "Feature", "properties": { "site_no": "02374950", "nhdplus_comid": "445974", "navigation_mode": "DM", "requested_distance_km": 12.0, "start_source": "nwissite", "start_id": "USGS-02374950", "geometry_length_km": 0.60555757021948409 }, "geometry": { "type": "LineString", "coordinates": [ [ -87.340977401, 31.068603493 ], [ -87.340844505, 31.0678242 ], [ -87.340206005, 31.0664948 ], [ -87.339860007, 31.066196799 ], [ -87.339540504, 31.066104993 ], [ -87.339327507, 31.065852895 ], [ -87.339701004, 31.063675694 ] ] } },
{ "type": "Feature", "properties": { "site_no": "02374950", "nhdplus_comid": "446442", "navigation_mode": "DM", "requested_distance_km": 12.0, "start_source": "nwissite", "start_id": "USGS-02374950", "geometry_length_km": 0.023074460362937893 }, "geometry": { "type": "LineString", "coordinates": [ [ -87.339701004, 31.063675694 ], [ -87.339727804, 31.063469499 ] ] } },
{ "type": "Feature", "properties": { "site_no": "02374950", "nhdplus_comid": "446444", "navigation_mode": "DM", "requested_distance_km": 12.0, "start_source": "nwissite", "start_id": "USGS-02374950", "geometry_length_km": 0.023507563024943615 }, "geometry": { "type": "LineString", "coordinates": [ [ -87.339727804, 31.063469499 ], [ -87.339781001, 31.063263096 ] ] } },
{ "type": "Feature", "properties": { "site_no": "02374950", "nhdplus_comid": "445988", "navigation_mode": "DM", "requested_distance_km": 12.0, "start_source": "nwissite", "start_id": "USGS-02374950", "geometry_length_km": 0.60882419919849651 }, "geometry": { "type": "LineString", "coordinates": [ [ -87.339781001, 31.063263096 ], [ -87.339807801, 31.063033998 ], [ -87.339621603, 31.062529698 ], [ -87.338370606, 31.061704293 ], [ -87.338104501, 31.061383396 ], [ -87.336587302, 31.060214095 ], [ -87.336348005, 31.059618197 ], [ -87.336108401, 31.059365995 ], [ -87.336002007, 31.059113897 ] ] } }
]
}
