{
"type": "FeatureCollection",
"name": "USGS_02402500_UM_12km",
"crs": { "type": "name", "properties": { "name": "urn:ogc:def:crs:OGC:1.3:CRS84" } },
"features": [
{ "type": "Feature", "properties": { "site_no": "02402500", "nhdplus_comid": "26132727", "navigation_mode": "UM", "requested_distance_km": 12.0, "start_source": "nwissite", "start_id": "USGS-02402500", "geometry_length_km": 3.5952881027845662 }, "geometry": { "type": "LineString", "coordinates": [ [ -86.170988105, 33.617593899 ], [ -86.171011806, 33.617548496 ], [ -86.173562504, 33.615448393 ], [ -86.182912901, 33.614696197 ], [ -86.187386505, 33.615051396 ], [ -86.195374303, 33.614289299 ], [ -86.199481301, 33.6121988 ], [ -86.200667202, 33.610252097 ], [ -86.200885907, 33.607647799 ], [ -86.199243492, 33.605785686 ] ] } },
{ "type": "Feature", "properties": { "site_no": "02402500", "nhdplus_comid": "26132725", "navigation_mode": "UM", "requested_distance_km": 12.0, "start_source": "nwissite", "start_id": "USGS-02402500", "geometry_length_km": 0.91579385846203354 }, "geometry": { "type": "LineString", "coordinates": [ [ -86.167362601, 33.625212595 ], [ -86.168037407, 33.623228595 ], [ -86.170988105, 33.617593899 ] ] } },
{ "type": "Feature", "properties": { "site_no": "02402500", "nhdplus_comid": "26132723", "navigation_mode": "UM", "requested_distance_km": 12.0, "start_source": "nwissite", "start_id": "USGS-02402500", "geometry_length_km": 3.8376386754903264 }, "geometry": { "type": "LineString", "coordinates": [ [ -86.174808204, 33.657791495 ], [ -86.172226302, 33.653385498 ], [ -86.1682107, 33.645704195 ], [ -86.166503906, 33.640969798 ], [ -86.164831802, 33.6326527 ], [ -86.167362601, 33.625212595 ] ] } },
{ "type": "Feature", "properties": { "site_no": "02402500", "nhdplus_comid": "26132715", "navigation_mode": "UM", "requested_distance_km": 12.0, "start_source": "nwissite", "start_id": "USGS-02402500", "geometry_length_km": 7.622432213134843 }, "geometry": { "type": "LineString", "coordinates": [ [ -86.179853901, 33.698207393 ], [ -86.1798824, 33.698222294 ], [ -86.185523205, 33.699236795 ], [ -86.194113903, 33.697338894 ], [ -86.201549001, 33.693967097 ], [ -86.204901405, 33.689591594 ], [ -86.205715105, 33.685851097 ], [ -86.204964302, 33.682751998 ], [ -86.2038076, 33.681441598 ], [ -86.203597404, 33.680782996 ], [ -86.202766307, 33.678177796 ], [ -86.197345607, 33.674559899 ], [ -86.189976305, 33.671091795 ], [ -86.183184206, 33.6684414 ], [ -86.1789257, 33.665644497 ], [ -86.177783601, 33.662868299 ], [ -86.174808204, 33.657791495 ] ] } }
]
}
