{
"type": "FeatureCollection",
"name": "USGS_02423000_UM_12km",
"crs": { "type": "name", "properties": { "name": "urn:ogc:def:crs:OGC:1.3:CRS84" } },
"features": [
{ "type": "Feature", "properties": { "site_no": "02423000", "nhdplus_comid": "21688826", "navigation_mode": "UM", "requested_distance_km": 12.0, "start_source": "nwissite", "start_id": "USGS-02423000", "geometry_length_km": 1.4938130372936149 }, "geometry": { "type": "LineString", "coordinates": [ [ -87.006320804, 32.398731798 ], [ -87.007101402, 32.399803095 ], [ -87.0093932, 32.402129799 ], [ -87.0126855, 32.404914498 ], [ -87.0136858, 32.405372493 ], [ -87.016516, 32.405597694 ], [ -87.018696426, 32.405271481 ] ] } },
{ "type": "Feature", "properties": { "site_no": "02423000", "nhdplus_comid": "21688834", "navigation_mode": "UM", "requested_distance_km": 12.0, "start_source": "nwissite", "start_id": "USGS-02423000", "geometry_length_km": 1.2835509071147364 }, "geometry": { "type": "LineString", "coordinates": [ [ -86.999988906, 32.388678595 ], [ -87.002779402, 32.391512394 ], [ -87.004042402, 32.393631198 ], [ -87.004468501, 32.395178698 ], [ -87.006320804, 32.398731798 ] ] } },
{ "type": "Feature", "properties": { "site_no": "02423000", "nhdplus_comid": "21687358", "navigation_mode": "UM", "requested_distance_km": 12.0, "start_source": "nwissite", "start_id": "USGS-02423000", "geometry_length_km": 0.5615929063342362 }, "geometry": { "type": "LineString", "coordinates": [ [ -86.995672002, 32.385269597 ], [ -86.996750101, 32.386364698 ], [ -86.997884907, 32.386959799 ], [ -86.998963103, 32.388054796 ], [ -86.999814205, 32.3885011 ], [ -86.999988906, 32.388678595 ] ] } },
{ "type": "Feature", "properties": { "site_no": "02423000", "nhdplus_comid": "21687384", "navigation_mode": "UM", "requested_distance_km": 12.0, "start_source": "nwissite", "start_id": "USGS-02423000", "geometry_length_km": 1.3469623959363435 }, "geometry": { "type": "LineString", "coordinates": [ [ -86.984821804, 32.377592094 ], [ -86.985389002, 32.3778897 ], [ -86.987551704, 32.378693096 ], [ -86.989523105, 32.379859596 ], [ -86.991303101, 32.381389193 ], [ -86.992707305, 32.382258095 ], [ -86.995672002, 32.385269597 ] ] } },
{ "type": "Feature", "properties": { "site_no": "02423000", "nhdplus_comid": "21687412", "navigation_mode": "UM", "requested_distance_km": 12.0, "start_source": "nwissite", "start_id": "USGS-02423000", "geometry_length_km": 1.2239798916351456 }, "geometry": { "type": "LineString", "coordinates": [ [ -86.972406507, 32.374455296 ], [ -86.973108403, 32.374889895 ], [ -86.9777738, 32.376145899 ], [ -86.980290905, 32.3764733 ], [ -86.981737405, 32.376967296 ], [ -86.983077504, 32.377074294 ], [ -86.984821804, 32.377592094 ] ] } },
{ "type": "Feature", "properties": { "site_no": "02423000", "nhdplus_comid": "21687430", "navigation_mode": "UM", "requested_distance_km": 12.0, "start_source": "nwissite", "start_id": "USGS-02423000", "geometry_length_km": 2.6260693944589888 }, "geometry": { "type": "LineString", "coordinates": [ [ -86.947998106, 32.365814395 ], [ -86.949961103, 32.368368596 ], [ -86.951577, 32.370011896 ], [ -86.954249404, 32.371613793 ], [ -86.9571703, 32.372352399 ], [ -86.963005304, 32.372567594 ], [ -86.9684432, 32.373633593 ], [ -86.971796803, 32.3745327 ], [ -86.972406507, 32.374455296 ] ] } },
{ "type": "Feature", "properties": { "site_no": "02423000", "nhdplus_comid": "21687434", "navigation_mode": "UM", "requested_distance_km": 12.0, "start_source": "nwissite", "start_id": "USGS-02423000", "geometry_length_km": 0.38657287031484411 }, "geometry": { "type": "LineString", "coordinates": [ [ -86.945929207, 32.362873197 ], [ -86.948026605, 32.365564398 ], [ -86.947998106, 32.365814395 ] ] } },
{ "type": "Feature", "properties": { "site_no": "02423000", "nhdplus_comid": "21687446", "navigation_mode": "UM", "requested_distance_km": 12.0, "start_source": "nwissite", "start_id": "USGS-02423000", "geometry_length_km": 0.21778789097697679 }, "geometry": { "type": "LineString", "coordinates": [ [ -86.944448106, 32.361366794 ], [ -86.945929207, 32.362873197 ] ] } },
{ "type": "Feature", "properties": { "site_no": "02423000", "nhdplus_comid": "21687460", "navigation_mode": "UM", "requested_distance_km": 12.0, "start_source": "nwissite", "start_id": "USGS-02423000", "geometry_length_km": 4.7671273475240268 }, "geometry": { "type": "LineString", "coordinates": [ [ -86.898592204, 32.365624599 ], [ -86.9050816, 32.362741694 ], [ -86.917710304, 32.358712994 ], [ -86.923234001, 32.356382199 ], [ -86.923992604, 32.356317095 ], [ -86.924630702, 32.35599 ], [ -86.9304296, 32.3551948 ], [ -86.933569707, 32.355321094 ], [ -86.9367733, 32.356209196 ], [ -86.939069502, 32.357150495 ], [ -86.942577504, 32.359324396 ], [ -86.944448106, 32.361366794 ] ] } }
]
}
