{
"type": "FeatureCollection",
"name": "USGS_02342933_DM_12km",
"crs": { "type": "name", "properties": { "name": "urn:ogc:def:crs:OGC:1.3:CRS84" } },
"features": [
{ "type": "Feature", "properties": { "site_no": "02342933", "nhdplus_comid": "3437900", "navigation_mode": "DM", "requested_distance_km": 12.0, "start_source": "nwissite", "start_id": "USGS-02342933", "geometry_length_km": 0.76973807226467694 }, "geometry": { "type": "LineString", "coordinates": [ [ -85.295739469, 32.018635499 ], [ -85.295246802, 32.018574499 ], [ -85.294709206, 32.018390894 ], [ -85.294333205, 32.018047094 ], [ -85.294199407, 32.017290995 ], [ -85.294011407, 32.017084695 ], [ -85.2935545, 32.016901195 ], [ -85.292774707, 32.016900696 ], [ -85.291026406, 32.017586797 ], [ -85.290596306, 32.017517798 ], [ -85.290381305, 32.017334394 ], [ -85.2899516, 32.016646899 ], [ -85.289952002, 32.016257398 ] ] } },
{ "type": "Feature", "properties": { "site_no": "02342933", "nhdplus_comid": "3437916", "navigation_mode": "DM", "requested_distance_km": 12.0, "start_source": "nwissite", "start_id": "USGS-02342933", "geometry_length_km": 0.32543940620602957 }, "geometry": { "type": "LineString", "coordinates": [ [ -85.289952002, 32.016257398 ], [ -85.289415106, 32.015432395 ], [ -85.288824007, 32.014973797 ], [ -85.288071401, 32.014652595 ], [ -85.287372403, 32.014674999 ] ] } },
{ "type": "Feature", "properties": { "site_no": "02342933", "nhdplus_comid": "3437914", "navigation_mode": "DM", "requested_distance_km": 12.0, "start_source": "nwissite", "start_id": "USGS-02342933", "geometry_length_km": 1.0514898138701156 }, "geometry": { "type": "LineString", "coordinates": [ [ -85.287372403, 32.014674999 ], [ -85.286162004, 32.015178099 ], [ -85.284628004, 32.016688995 ], [ -85.283953801, 32.018635698 ], [ -85.283630803, 32.019001894 ], [ -85.2833618, 32.019093394 ], [ -85.281722106, 32.018634096 ], [ -85.281345606, 32.018656597 ], [ -85.280915402, 32.018793799 ], [ -85.280538402, 32.0192746 ], [ -85.280107401, 32.020030193 ] ] } },
{ "type": "Feature", "properties": { "site_no": "02342933", "nhdplus_comid": "3437852", "navigation_mode": "DM", "requested_distance_km": 12.0, "start_source": "nwissite", "start_id": "USGS-02342933", "geometry_length_km": 0.55608933287566942 }, "geometry": { "type": "LineString", "coordinates": [ [ -85.280107401, 32.020030193 ], [ -85.279462002, 32.020029694 ], [ -85.278548107, 32.019868694 ], [ -85.277821906, 32.020005696 ], [ -85.277633503, 32.020142898 ], [ -85.277283207, 32.020852797 ], [ -85.277014203, 32.021058798 ], [ -85.276449606, 32.020989597 ], [ -85.275992706, 32.020760097 ], [ -85.2754554, 32.020370297 ], [ -85.275375001, 32.020164095 ] ] } },
{ "type": "Feature", "properties": { "site_no": "02342933", "nhdplus_comid": "3437856", "navigation_mode": "DM", "requested_distance_km": 12.0, "start_source": "nwissite", "start_id": "USGS-02342933", "geometry_length_km": 1.7758571288019631 }, "geometry": { "type": "LineString", "coordinates": [ [ -85.275375001, 32.020164095 ], [ -85.274622604, 32.019728199 ], [ -85.273574203, 32.019406699 ], [ -85.272014603, 32.01952 ], [ -85.270373903, 32.020045497 ], [ -85.269567303, 32.020021893 ], [ -85.268384606, 32.019631393 ], [ -85.2679279, 32.019195899 ], [ -85.267524906, 32.019012198 ], [ -85.2666912, 32.019080393 ], [ -85.266395405, 32.0191717 ], [ -85.266072206, 32.019583799 ], [ -85.266097404, 32.021095596 ], [ -85.265855007, 32.0214848 ], [ -85.265236102, 32.0218051 ], [ -85.264456205, 32.021895997 ], [ -85.264079906, 32.021872796 ], [ -85.263757303, 32.021712095 ], [ -85.263247006, 32.021161899 ], [ -85.262387104, 32.020771697 ], [ -85.261231206, 32.020518698 ], [ -85.260236502, 32.020426095 ] ] } },
{ "type": "Feature", "properties": { "site_no": "02342933", "nhdplus_comid": "3437838", "navigation_mode": "DM", "requested_distance_km": 12.0, "start_source": "nwissite", "start_id": "USGS-02342933", "geometry_length_km": 0.089785195612116911 }, "geometry": { "type": "LineString", "coordinates": [ [ -85.260236502, 32.020426095 ], [ -85.259348802, 32.020723194 ] ] } },
{ "type": "Feature", "properties": { "site_no": "02342933", "nhdplus_comid": "3437832", "navigation_mode": "DM", "requested_distance_km": 12.0, "start_source": "nwissite", "start_id": "USGS-02342933", "geometry_length_km": 0.17686452330529617 }, "geometry": { "type": "LineString", "coordinates": [ [ -85.259348802, 32.020723194 ], [ -85.259160303, 32.020951994 ], [ -85.257922903, 32.021386094 ], [ -85.257761404, 32.021500498 ] ] } },
{ "type": "Feature", "properties": { "site_no": "02342933", "nhdplus_comid": "3438386", "navigation_mode": "DM", "requested_distance_km": 12.0, "start_source": "nwissite", "start_id": "USGS-02342933", "geometry_length_km": 2.2193754608017531 }, "geometry": { "type": "LineString", "coordinates": [ [ -85.257761404, 32.021500498 ], [ -85.257492505, 32.0215232 ], [ -85.257061802, 32.021912195 ], [ -85.256819606, 32.022003599 ], [ -85.256281801, 32.022048898 ], [ -85.255314603, 32.021429494 ], [ -85.253702, 32.020923994 ], [ -85.253299102, 32.020602994 ], [ -85.252950206, 32.020213194 ], [ -85.252574004, 32.019960895 ], [ -85.252305105, 32.019960597 ], [ -85.252062902, 32.020166494 ], [ -85.251659401, 32.0202806 ], [ -85.251283005, 32.020280294 ], [ -85.249935806, 32.019191399 ], [ -85.249155603, 32.018802695 ], [ -85.248725504, 32.018848993 ], [ -85.248564303, 32.018963695 ], [ -85.2483766, 32.019353293 ], [ -85.248217903, 32.021323495 ], [ -85.247815207, 32.021713294 ], [ -85.245852701, 32.022081695 ], [ -85.2452076, 32.022242695 ], [ -85.244052306, 32.022976793 ], [ -85.243004203, 32.023390099 ], [ -85.241874903, 32.023414098 ], [ -85.240825906, 32.023185894 ], [ -85.240180701, 32.023278095 ], [ -85.239508905, 32.023645297 ], [ -85.239589706, 32.023713894 ] ] } },
{ "type": "Feature", "properties": { "site_no": "02342933", "nhdplus_comid": "3437792", "navigation_mode": "DM", "requested_distance_km": 12.0, "start_source": "nwissite", "start_id": "USGS-02342933", "geometry_length_km": 0.28687429359169653 }, "geometry": { "type": "LineString", "coordinates": [ [ -85.239589706, 32.023713894 ], [ -85.238702901, 32.024126895 ], [ -85.237869702, 32.024471298 ], [ -85.236767501, 32.024586797 ] ] } },
{ "type": "Feature", "properties": { "site_no": "02342933", "nhdplus_comid": "3437810", "navigation_mode": "DM", "requested_distance_km": 12.0, "start_source": "nwissite", "start_id": "USGS-02342933", "geometry_length_km": 0.49177474199305726 }, "geometry": { "type": "LineString", "coordinates": [ [ -85.236767501, 32.024586797 ], [ -85.235906601, 32.024220996 ], [ -85.234804206, 32.024336495 ], [ -85.23432, 32.024130695 ], [ -85.233754903, 32.023764797 ], [ -85.233431801, 32.023398496 ], [ -85.233377501, 32.022986099 ], [ -85.233591802, 32.022275798 ] ] } },
{ "type": "Feature", "properties": { "site_no": "02342933", "nhdplus_comid": "3437870", "navigation_mode": "DM", "requested_distance_km": 12.0, "start_source": "nwissite", "start_id": "USGS-02342933", "geometry_length_km": 2.2027216016055591 }, "geometry": { "type": "LineString", "coordinates": [ [ -85.233591802, 32.022275798 ], [ -85.232972905, 32.0218869 ], [ -85.232058503, 32.021818995 ], [ -85.231117107, 32.021476194 ], [ -85.230391204, 32.021476798 ], [ -85.229235306, 32.021798395 ], [ -85.227031104, 32.0224187 ], [ -85.225284204, 32.023130193 ], [ -85.2249346, 32.023130499 ], [ -85.2245849, 32.022970393 ], [ -85.224396303, 32.022604093 ], [ -85.224260904, 32.021687798 ], [ -85.224395007, 32.021344095 ], [ -85.2242864, 32.020404994 ], [ -85.224124506, 32.019901097 ], [ -85.223936103, 32.019695096 ], [ -85.223720804, 32.019534998 ], [ -85.2233712, 32.0194894 ], [ -85.222806804, 32.019718893 ], [ -85.222027704, 32.020360895 ], [ -85.221705303, 32.020521499 ], [ -85.221248202, 32.020476095 ], [ -85.220871307, 32.020270199 ], [ -85.220574804, 32.019468598 ], [ -85.220090203, 32.018850498 ], [ -85.219713502, 32.018552996 ], [ -85.219390906, 32.018598996 ], [ -85.218477003, 32.018943295 ], [ -85.218046807, 32.018897794 ], [ -85.2177779, 32.018829294 ], [ -85.2174545, 32.018119395 ], [ -85.2169163, 32.017684594 ] ] } },
{ "type": "Feature", "properties": { "site_no": "02342933", "nhdplus_comid": "3437884", "navigation_mode": "DM", "requested_distance_km": 12.0, "start_source": "nwissite", "start_id": "USGS-02342933", "geometry_length_km": 0.18517209700399936 }, "geometry": { "type": "LineString", "coordinates": [ [ -85.2169163, 32.017684594 ], [ -85.2169431, 32.017524093 ], [ -85.216108605, 32.016539797 ], [ -85.216000803, 32.016264893 ] ] } },
{ "type": "Feature", "properties": { "site_no": "02342933", "nhdplus_comid": "3437910", "navigation_mode": "DM", "requested_distance_km": 12.0, "start_source": "nwissite", "start_id": "USGS-02342933", "geometry_length_km": 1.2743985399373232 }, "geometry": { "type": "LineString", "coordinates": [ [ -85.216000803, 32.016264893 ], [ -85.215516701, 32.016081996 ], [ -85.215113305, 32.016036399 ], [ -85.213850304, 32.0166329 ], [ -85.212586604, 32.016702496 ], [ -85.211161301, 32.016428597 ], [ -85.210220307, 32.016337596 ], [ -85.209225602, 32.016521499 ], [ -85.208526403, 32.016476199 ], [ -85.208096102, 32.016178697 ], [ -85.207799904, 32.0156978 ], [ -85.207557201, 32.014987797 ], [ -85.207395703, 32.014804699 ], [ -85.2068578, 32.0145301 ], [ -85.205029801, 32.014760397 ], [ -85.204196006, 32.014371499 ] ] } },
{ "type": "Feature", "properties": { "site_no": "02342933", "nhdplus_comid": "3438880", "navigation_mode": "DM", "requested_distance_km": 12.0, "start_source": "nwissite", "start_id": "USGS-02342933", "geometry_length_km": 0.036303389756524224 }, "geometry": { "type": "LineString", "coordinates": [ [ -85.204196006, 32.014371499 ], [ -85.203810401, 32.014387995 ] ] } },
{ "type": "Feature", "properties": { "site_no": "02342933", "nhdplus_comid": "3438752", "navigation_mode": "DM", "requested_distance_km": 12.0, "start_source": "nwissite", "start_id": "USGS-02342933", "geometry_length_km": 0.22736530176017833 }, "geometry": { "type": "LineString", "coordinates": [ [ -85.203810401, 32.014387995 ], [ -85.203810006, 32.014386497 ], [ -85.203777105, 32.014263898 ], [ -85.203758806, 32.014239796 ], [ -85.203678101, 32.014134198 ], [ -85.203597605, 32.014028594 ], [ -85.203516901, 32.0139229 ], [ -85.2034363, 32.013817295 ], [ -85.2033557, 32.013711594 ], [ -85.203275107, 32.013605997 ], [ -85.203194506, 32.0135004 ], [ -85.203113802, 32.013394699 ], [ -85.203033201, 32.013289094 ], [ -85.202952601, 32.0131834 ], [ -85.202872001, 32.013077796 ], [ -85.2027914, 32.012972198 ], [ -85.2027108, 32.012866497 ], [ -85.202630207, 32.0127609 ], [ -85.202549607, 32.012655199 ] ] } },
{ "type": "Feature", "properties": { "site_no": "02342933", "nhdplus_comid": "3438758", "navigation_mode": "DM", "requested_distance_km": 12.0, "start_source": "nwissite", "start_id": "USGS-02342933", "geometry_length_km": 0.80528079495499871 }, "geometry": { "type": "LineString", "coordinates": [ [ -85.202549607, 32.012655199 ], [ -85.200878404, 32.011952296 ], [ -85.198976502, 32.011769094 ], [ -85.197654203, 32.0120482 ], [ -85.196771204, 32.012640595 ], [ -85.195820302, 32.012548998 ], [ -85.195399106, 32.012101896 ], [ -85.195313007, 32.011551596 ] ] } }
]
}
