{
"type": "FeatureCollection",
"name": "USGS_02343300_UM_12km",
"crs": { "type": "name", "properties": { "name": "urn:ogc:def:crs:OGC:1.3:CRS84" } },
"features": [
{ "type": "Feature", "properties": { "site_no": "02343300", "nhdplus_comid": "2310159", "navigation_mode": "UM", "requested_distance_km": 12.0, "start_source": "nwissite", "start_id": "USGS-02343300", "geometry_length_km": 0.11973582661107054 }, "geometry": { "type": "LineString", "coordinates": [ [ -85.163892701, 31.473351598 ], [ -85.163759105, 31.473305799 ], [ -85.1633581, 31.473466195 ], [ -85.162903801, 31.4735808 ], [ -85.162760196, 31.473457759 ] ] } },
{ "type": "Feature", "properties": { "site_no": "02343300", "nhdplus_comid": "2308837", "navigation_mode": "UM", "requested_distance_km": 12.0, "start_source": "nwissite", "start_id": "USGS-02343300", "geometry_length_km": 0.90169116671329996 }, "geometry": { "type": "LineString", "coordinates": [ [ -85.170120902, 31.473853998 ], [ -85.169693105, 31.473624997 ], [ -85.169478901, 31.472754493 ], [ -85.169318505, 31.472662896 ], [ -85.1690512, 31.472640097 ], [ -85.168703802, 31.472823396 ], [ -85.168570206, 31.473098293 ], [ -85.168276407, 31.473304696 ], [ -85.167848706, 31.473350696 ], [ -85.167741701, 31.473258995 ], [ -85.167768307, 31.472938195 ], [ -85.168062203, 31.472525798 ], [ -85.167875104, 31.4723197 ], [ -85.1669394, 31.471976198 ], [ -85.166431502, 31.472022198 ], [ -85.165416002, 31.472366199 ], [ -85.164507307, 31.472916096 ], [ -85.163892701, 31.473351598 ] ] } },
{ "type": "Feature", "properties": { "site_no": "02343300", "nhdplus_comid": "2308847", "navigation_mode": "UM", "requested_distance_km": 12.0, "start_source": "nwissite", "start_id": "USGS-02343300", "geometry_length_km": 0.65616136508149292 }, "geometry": { "type": "LineString", "coordinates": [ [ -85.174877904, 31.471790895 ], [ -85.174102701, 31.471699499 ], [ -85.173621401, 31.471287198 ], [ -85.173354104, 31.471172698 ], [ -85.172739305, 31.471218795 ], [ -85.1722048, 31.471447997 ], [ -85.172098003, 31.471677095 ], [ -85.171964802, 31.472662196 ], [ -85.171751104, 31.4730746 ], [ -85.171270102, 31.4735329 ], [ -85.170655504, 31.473830894 ], [ -85.170120902, 31.473853998 ] ] } },
{ "type": "Feature", "properties": { "site_no": "02343300", "nhdplus_comid": "2308841", "navigation_mode": "UM", "requested_distance_km": 12.0, "start_source": "nwissite", "start_id": "USGS-02343300", "geometry_length_km": 0.28353432488571756 }, "geometry": { "type": "LineString", "coordinates": [ [ -85.177791603, 31.472339794 ], [ -85.176000603, 31.472111195 ], [ -85.174877904, 31.471790895 ] ] } },
{ "type": "Feature", "properties": { "site_no": "02343300", "nhdplus_comid": "2308835", "navigation_mode": "UM", "requested_distance_km": 12.0, "start_source": "nwissite", "start_id": "USGS-02343300", "geometry_length_km": 0.8528155029939346 }, "geometry": { "type": "LineString", "coordinates": [ [ -85.185142502, 31.473024294 ], [ -85.185142502, 31.473207593 ], [ -85.184741706, 31.473528497 ], [ -85.184207201, 31.473597497 ], [ -85.184153602, 31.473276794 ], [ -85.184313901, 31.473093398 ], [ -85.184313707, 31.472795695 ], [ -85.183939502, 31.472658299 ], [ -85.181694202, 31.472773597 ], [ -85.180170603, 31.472636797 ], [ -85.179368801, 31.472751699 ], [ -85.179048002, 31.472545594 ], [ -85.178192504, 31.472316697 ], [ -85.177791603, 31.472339794 ] ] } },
{ "type": "Feature", "properties": { "site_no": "02343300", "nhdplus_comid": "2308839", "navigation_mode": "UM", "requested_distance_km": 12.0, "start_source": "nwissite", "start_id": "USGS-02343300", "geometry_length_km": 0.60982951361831461 }, "geometry": { "type": "LineString", "coordinates": [ [ -85.1897671, 31.473938897 ], [ -85.189259201, 31.473732896 ], [ -85.189045303, 31.473595597 ], [ -85.188804403, 31.473114595 ], [ -85.188376501, 31.472610697 ], [ -85.187601201, 31.472336195 ], [ -85.186157905, 31.472359695 ], [ -85.185810201, 31.472038999 ], [ -85.185355902, 31.4722225 ], [ -85.185142502, 31.473024294 ] ] } },
{ "type": "Feature", "properties": { "site_no": "02343300", "nhdplus_comid": "2308829", "navigation_mode": "UM", "requested_distance_km": 12.0, "start_source": "nwissite", "start_id": "USGS-02343300", "geometry_length_km": 1.0205983105537815 }, "geometry": { "type": "LineString", "coordinates": [ [ -85.198854603, 31.472743496 ], [ -85.197731905, 31.472743995 ], [ -85.197117306, 31.472950496 ], [ -85.195621103, 31.474234194 ], [ -85.1953272, 31.474348895 ], [ -85.194979705, 31.474303193 ], [ -85.195032805, 31.473776199 ], [ -85.194979303, 31.473707594 ], [ -85.193910003, 31.473547697 ], [ -85.192627005, 31.473502398 ], [ -85.190836005, 31.473365694 ], [ -85.190515302, 31.473411694 ], [ -85.190087907, 31.4738013 ], [ -85.1897671, 31.473938897 ] ] } },
{ "type": "Feature", "properties": { "site_no": "02343300", "nhdplus_comid": "2308867", "navigation_mode": "UM", "requested_distance_km": 12.0, "start_source": "nwissite", "start_id": "USGS-02343300", "geometry_length_km": 0.99782989631956331 }, "geometry": { "type": "LineString", "coordinates": [ [ -85.202619903, 31.467701495 ], [ -85.202647001, 31.468297198 ], [ -85.202513702, 31.468824193 ], [ -85.202113301, 31.469580397 ], [ -85.201632403, 31.469809696 ], [ -85.2006969, 31.469878897 ], [ -85.2001893, 31.4702916 ], [ -85.200350106, 31.470841296 ], [ -85.200670905, 31.471001498 ], [ -85.201419502, 31.4711615 ], [ -85.201633506, 31.471436299 ], [ -85.2017674, 31.471917294 ], [ -85.201687306, 31.472054794 ], [ -85.201206401, 31.472352795 ], [ -85.200484701, 31.4722616 ], [ -85.199869901, 31.472307697 ], [ -85.198854603, 31.472743496 ] ] } },
{ "type": "Feature", "properties": { "site_no": "02343300", "nhdplus_comid": "2310165", "navigation_mode": "UM", "requested_distance_km": 12.0, "start_source": "nwissite", "start_id": "USGS-02343300", "geometry_length_km": 1.2073303129649351 }, "geometry": { "type": "LineString", "coordinates": [ [ -85.204218507, 31.4606217 ], [ -85.203710906, 31.460851096 ], [ -85.203363605, 31.461126193 ], [ -85.203176804, 31.4616303 ], [ -85.203231104, 31.462729894 ], [ -85.203498602, 31.4630505 ], [ -85.204461105, 31.463576898 ], [ -85.204995602, 31.463507898 ], [ -85.205289803, 31.463713899 ], [ -85.205209702, 31.463965997 ], [ -85.204434901, 31.464309998 ], [ -85.204408705, 31.464951396 ], [ -85.2042218, 31.465134799 ], [ -85.203794301, 31.465387098 ], [ -85.203527004, 31.465410098 ], [ -85.202644907, 31.465204395 ], [ -85.202217303, 31.465364896 ], [ -85.202083804, 31.465548396 ], [ -85.202057503, 31.4660981 ], [ -85.202619903, 31.467701495 ] ] } },
{ "type": "Feature", "properties": { "site_no": "02343300", "nhdplus_comid": "2308901", "navigation_mode": "UM", "requested_distance_km": 12.0, "start_source": "nwissite", "start_id": "USGS-02343300", "geometry_length_km": 0.21143772222775914 }, "geometry": { "type": "LineString", "coordinates": [ [ -85.206036605, 31.461605899 ], [ -85.2056356, 31.4614916 ], [ -85.205368303, 31.461377196 ], [ -85.204833306, 31.460804693 ], [ -85.204218507, 31.4606217 ] ] } },
{ "type": "Feature", "properties": { "site_no": "02343300", "nhdplus_comid": "2310167", "navigation_mode": "UM", "requested_distance_km": 12.0, "start_source": "nwissite", "start_id": "USGS-02343300", "geometry_length_km": 0.40009387766968268 }, "geometry": { "type": "LineString", "coordinates": [ [ -85.206194602, 31.458467193 ], [ -85.206248701, 31.459383495 ], [ -85.2066506, 31.460620299 ], [ -85.206757903, 31.461261898 ], [ -85.206597507, 31.461261995 ], [ -85.206383906, 31.461491197 ], [ -85.206036605, 31.461605899 ] ] } },
{ "type": "Feature", "properties": { "site_no": "02343300", "nhdplus_comid": "2308913", "navigation_mode": "UM", "requested_distance_km": 12.0, "start_source": "nwissite", "start_id": "USGS-02343300", "geometry_length_km": 0.54748651939775095 }, "geometry": { "type": "LineString", "coordinates": [ [ -85.208010003, 31.455946095 ], [ -85.206647001, 31.455992699 ], [ -85.2060057, 31.4561534 ], [ -85.205337904, 31.456474498 ], [ -85.205097504, 31.4567037 ], [ -85.205097802, 31.457047395 ], [ -85.205258302, 31.4572993 ], [ -85.206247702, 31.458008893 ], [ -85.206328101, 31.4582837 ], [ -85.206194602, 31.458467193 ] ] } },
{ "type": "Feature", "properties": { "site_no": "02343300", "nhdplus_comid": "2308919", "navigation_mode": "UM", "requested_distance_km": 12.0, "start_source": "nwissite", "start_id": "USGS-02343300", "geometry_length_km": 0.89012826607014572 }, "geometry": { "type": "LineString", "coordinates": [ [ -85.2143692, 31.454384394 ], [ -85.214263201, 31.4555071 ], [ -85.214129806, 31.455690399 ], [ -85.213462003, 31.456103295 ], [ -85.213034406, 31.456057698 ], [ -85.212606601, 31.455874696 ], [ -85.2122325, 31.455897793 ], [ -85.211484604, 31.456402294 ], [ -85.210682705, 31.456242397 ], [ -85.210014701, 31.456380196 ], [ -85.209667407, 31.456540793 ], [ -85.209320307, 31.456999198 ], [ -85.2088928, 31.457068093 ], [ -85.208598703, 31.456862099 ], [ -85.208491206, 31.456129096 ], [ -85.208010003, 31.455946095 ] ] } },
{ "type": "Feature", "properties": { "site_no": "02343300", "nhdplus_comid": "2308921", "navigation_mode": "UM", "requested_distance_km": 12.0, "start_source": "nwissite", "start_id": "USGS-02343300", "geometry_length_km": 4.0068312657008649 }, "geometry": { "type": "LineString", "coordinates": [ [ -85.2392928, 31.469120398 ], [ -85.239024401, 31.4681127 ], [ -85.238783605, 31.467906699 ], [ -85.238302402, 31.467815399 ], [ -85.237767503, 31.467540994 ], [ -85.237553, 31.467014194 ], [ -85.237231903, 31.466624893 ], [ -85.237151302, 31.466304295 ], [ -85.236857004, 31.465983793 ], [ -85.236482807, 31.4659383 ], [ -85.236189, 31.466144696 ], [ -85.2362165, 31.4668549 ], [ -85.235895805, 31.466878094 ], [ -85.235440701, 31.466168195 ], [ -85.235066004, 31.465801895 ], [ -85.234611705, 31.465825096 ], [ -85.234157503, 31.466008797 ], [ -85.233275503, 31.465963699 ], [ -85.231456704, 31.464796595 ], [ -85.231296107, 31.464475997 ], [ -85.2311351, 31.463857599 ], [ -85.231214501, 31.4630557 ], [ -85.230572701, 31.462689698 ], [ -85.230225503, 31.462964796 ], [ -85.229904801, 31.4630109 ], [ -85.229477003, 31.462827899 ], [ -85.2292362, 31.462598898 ], [ -85.229262806, 31.462415598 ], [ -85.229636803, 31.462232098 ], [ -85.229796901, 31.462025799 ], [ -85.229850106, 31.461796597 ], [ -85.229662903, 31.461682297 ], [ -85.229342304, 31.461682595 ], [ -85.228594303, 31.462049596 ], [ -85.228487305, 31.462003894 ], [ -85.228513904, 31.461820595 ], [ -85.228727303, 31.461522594 ], [ -85.228753701, 31.461247593 ], [ -85.2286468, 31.461133197 ], [ -85.228352703, 31.461133398 ], [ -85.228085905, 31.461500198 ], [ -85.227738701, 31.461798199 ], [ -85.227337904, 31.461867198 ], [ -85.226000905, 31.461180799 ], [ -85.225919306, 31.459668897 ], [ -85.225785404, 31.459462896 ], [ -85.225437805, 31.459188096 ], [ -85.224314906, 31.458799496 ], [ -85.223887302, 31.458822697 ], [ -85.2231929, 31.459372997 ], [ -85.222792104, 31.4593504 ], [ -85.222016603, 31.458915599 ], [ -85.221588604, 31.458526395 ], [ -85.221241005, 31.458251797 ], [ -85.219930902, 31.457748599 ], [ -85.219503, 31.457473896 ], [ -85.219476104, 31.457244895 ], [ -85.219823301, 31.456969693 ], [ -85.219849803, 31.456694894 ], [ -85.219448507, 31.4561911 ], [ -85.219154403, 31.456076793 ], [ -85.2185397, 31.4560313 ], [ -85.218031704, 31.455871299 ], [ -85.217470005, 31.455207296 ], [ -85.217309207, 31.454680398 ], [ -85.217041805, 31.454474397 ], [ -85.2165609, 31.454703793 ], [ -85.216026701, 31.455047794 ], [ -85.215305306, 31.4552086 ], [ -85.215011105, 31.454979695 ], [ -85.214984104, 31.454567395 ], [ -85.214716606, 31.454315498 ], [ -85.2143692, 31.454384394 ] ] } }
]
}
