{
"type": "FeatureCollection",
"name": "USGS_02419976_UM_12km",
"crs": { "type": "name", "properties": { "name": "urn:ogc:def:crs:OGC:1.3:CRS84" } },
"features": [
{ "type": "Feature", "properties": { "site_no": "02419976", "nhdplus_comid": "21681504", "navigation_mode": "UM", "requested_distance_km": 12.0, "start_source": "nwissite", "start_id": "USGS-02419976", "geometry_length_km": 3.0549511250391639 }, "geometry": { "type": "LineString", "coordinates": [ [ -86.2573459, 32.384378299 ], [ -86.257318504, 32.384699196 ], [ -86.256669402, 32.385454699 ], [ -86.256425805, 32.385866895 ], [ -86.256290205, 32.386302195 ], [ -86.256289303, 32.386989497 ], [ -86.256370105, 32.387195796 ], [ -86.256421, 32.389532998 ], [ -86.256904103, 32.391801797 ], [ -86.257549703, 32.393704094 ], [ -86.2581155, 32.394781597 ], [ -86.258115306, 32.394987799 ], [ -86.258627303, 32.395813197 ], [ -86.259057902, 32.396936297 ], [ -86.259191804, 32.397806995 ], [ -86.259083107, 32.398310997 ], [ -86.254828401, 32.409213394 ], [ -86.254665703, 32.409717396 ], [ -86.254713566, 32.41054981 ] ] } },
{ "type": "Feature", "properties": { "site_no": "02419976", "nhdplus_comid": "21681574", "navigation_mode": "UM", "requested_distance_km": 12.0, "start_source": "nwissite", "start_id": "USGS-02419976", "geometry_length_km": 1.3494513742261052 }, "geometry": { "type": "LineString", "coordinates": [ [ -86.264809601, 32.375518098 ], [ -86.264620401, 32.375701196 ], [ -86.264619507, 32.376457296 ], [ -86.264401406, 32.378129795 ], [ -86.264183402, 32.379756294 ], [ -86.263966605, 32.380306095 ], [ -86.263425805, 32.380969994 ], [ -86.262858205, 32.381358996 ], [ -86.260832705, 32.381746694 ], [ -86.260373302, 32.381952494 ], [ -86.259805202, 32.382730998 ], [ -86.259156704, 32.383142799 ], [ -86.257859804, 32.383783095 ], [ -86.257562406, 32.384011999 ], [ -86.2573459, 32.384378299 ] ] } },
{ "type": "Feature", "properties": { "site_no": "02419976", "nhdplus_comid": "21681730", "navigation_mode": "UM", "requested_distance_km": 12.0, "start_source": "nwissite", "start_id": "USGS-02419976", "geometry_length_km": 2.6189142721411538 }, "geometry": { "type": "LineString", "coordinates": [ [ -86.264026605, 32.3535439 ], [ -86.264835604, 32.354254894 ], [ -86.265590407, 32.355057493 ], [ -86.265859403, 32.355836794 ], [ -86.265989907, 32.359617494 ], [ -86.266473204, 32.3617488 ], [ -86.266581006, 32.361817695 ], [ -86.266876705, 32.362940699 ], [ -86.267199807, 32.363582499 ], [ -86.267307401, 32.363926299 ], [ -86.267657802, 32.364407696 ], [ -86.268223405, 32.365645498 ], [ -86.268275104, 32.367547393 ], [ -86.268084101, 32.369196899 ], [ -86.267623201, 32.370823398 ], [ -86.267135605, 32.372106098 ], [ -86.266675703, 32.372907594 ], [ -86.265026003, 32.375128694 ], [ -86.264809601, 32.375518098 ] ] } }
]
}
