{
"type": "FeatureCollection",
"name": "USGS_0357587728_UM_12km",
"crs": { "type": "name", "properties": { "name": "urn:ogc:def:crs:OGC:1.3:CRS84" } },
"features": [
{ "type": "Feature", "properties": { "site_no": "0357587728", "nhdplus_comid": "19621334", "navigation_mode": "UM", "requested_distance_km": 12.0, "start_source": "nwissite", "start_id": "USGS-0357587728", "geometry_length_km": 3.9211480194181867 }, "geometry": { "type": "LineString", "coordinates": [ [ -86.552134104, 34.767387494 ], [ -86.553078607, 34.766494796 ], [ -86.553107105, 34.765670195 ], [ -86.553551801, 34.7647314 ], [ -86.553468905, 34.764387794 ], [ -86.553330205, 34.764227293 ], [ -86.553302705, 34.763998196 ], [ -86.553413905, 34.763769194 ], [ -86.553470001, 34.763150796 ], [ -86.553747706, 34.762876093 ], [ -86.553886801, 34.762601294 ], [ -86.553887203, 34.762028694 ], [ -86.553527206, 34.761112295 ], [ -86.553472504, 34.760127395 ], [ -86.554000802, 34.759028293 ], [ -86.554834105, 34.758318596 ], [ -86.554862306, 34.757768996 ], [ -86.555084705, 34.757196493 ], [ -86.555337407, 34.753806695 ], [ -86.555448502, 34.753554799 ], [ -86.556781203, 34.752914093 ], [ -86.557254702, 34.750623897 ], [ -86.557615705, 34.750395097 ], [ -86.558334, 34.750087894 ], [ -86.559583105, 34.749561697 ], [ -86.560637705, 34.749539293 ], [ -86.560915403, 34.749287494 ], [ -86.5610824, 34.748714998 ], [ -86.561304703, 34.748325698 ], [ -86.562276803, 34.7472497 ], [ -86.562887602, 34.746837795 ], [ -86.5635259, 34.746746495 ], [ -86.563942306, 34.7464948 ], [ -86.5643031, 34.746472098 ], [ -86.56594, 34.746907994 ], [ -86.567188703, 34.746931598 ], [ -86.567632802, 34.746794395 ], [ -86.569325805, 34.746634796 ], [ -86.5701029, 34.746314496 ], [ -86.570908107, 34.745742299 ], [ -86.571463101, 34.745605096 ], [ -86.573877305, 34.7455374 ], [ -86.574709706, 34.745698094 ], [ -86.574904922, 34.745797079 ] ] } }
]
}
