{
"type": "FeatureCollection",
"name": "USGS_02343300_DM_12km",
"crs": { "type": "name", "properties": { "name": "urn:ogc:def:crs:OGC:1.3:CRS84" } },
"features": [
{ "type": "Feature", "properties": { "site_no": "02343300", "nhdplus_comid": "2310159", "navigation_mode": "DM", "requested_distance_km": 12.0, "start_source": "nwissite", "start_id": "USGS-02343300", "geometry_length_km": 0.30165970221499461 }, "geometry": { "type": "LineString", "coordinates": [ [ -85.162760196, 31.473457759 ], [ -85.162716702, 31.473420493 ], [ -85.162609503, 31.472710393 ], [ -85.161566906, 31.471839994 ], [ -85.161085702, 31.4714965 ], [ -85.160978705, 31.471359 ] ] } },
{ "type": "Feature", "properties": { "site_no": "02343300", "nhdplus_comid": "2308871", "navigation_mode": "DM", "requested_distance_km": 12.0, "start_source": "nwissite", "start_id": "USGS-02343300", "geometry_length_km": 3.0743395373493563 }, "geometry": { "type": "LineString", "coordinates": [ [ -85.160978705, 31.471359 ], [ -85.160764903, 31.471267499 ], [ -85.160417303, 31.471038394 ], [ -85.159562007, 31.470923997 ], [ -85.159000702, 31.470992893 ], [ -85.158359304, 31.4713137 ], [ -85.158118807, 31.4716345 ], [ -85.157958604, 31.472573794 ], [ -85.157771602, 31.472963199 ], [ -85.157504305, 31.473100699 ], [ -85.156622306, 31.473169595 ], [ -85.155793704, 31.473055199 ], [ -85.155553006, 31.472940594 ], [ -85.155205503, 31.472619995 ], [ -85.155125201, 31.472367994 ], [ -85.154777706, 31.471978597 ], [ -85.154243, 31.471589297 ], [ -85.152933203, 31.471199997 ], [ -85.1528797, 31.471039593 ], [ -85.152959906, 31.470856294 ], [ -85.153253905, 31.470604293 ], [ -85.154029004, 31.470237598 ], [ -85.1540021, 31.469985694 ], [ -85.153922006, 31.469871096 ], [ -85.153494306, 31.4697337 ], [ -85.152184501, 31.469413199 ], [ -85.151917301, 31.469207093 ], [ -85.151837006, 31.468909197 ], [ -85.151596405, 31.468725994 ], [ -85.151302405, 31.468680196 ], [ -85.150928304, 31.468886495 ], [ -85.150848106, 31.469184197 ], [ -85.150687702, 31.469367594 ], [ -85.150180005, 31.469550796 ], [ -85.149832405, 31.469275996 ], [ -85.149859101, 31.468886495 ], [ -85.1504471, 31.468107596 ], [ -85.150446907, 31.4676494 ], [ -85.1502866, 31.467374593 ], [ -85.1496718, 31.467030898 ], [ -85.148923405, 31.466870598 ], [ -85.148576006, 31.467008099 ], [ -85.148362204, 31.4672601 ], [ -85.148335502, 31.467466295 ], [ -85.149003707, 31.467786998 ], [ -85.149030402, 31.468084797 ], [ -85.148790002, 31.468382694 ], [ -85.148522705, 31.468565896 ], [ -85.148068301, 31.468520299 ], [ -85.147881202, 31.468382798 ], [ -85.147747502, 31.467924595 ], [ -85.147453502, 31.467603795 ], [ -85.146945603, 31.467237398 ], [ -85.1461972, 31.4670543 ], [ -85.145368703, 31.467443794 ], [ -85.144673802, 31.467443794 ], [ -85.144112602, 31.467191793 ], [ -85.143631406, 31.467191897 ], [ -85.142990001, 31.467375197 ], [ -85.142428704, 31.467375197 ], [ -85.142134704, 31.467306495 ] ] } },
{ "type": "Feature", "properties": { "site_no": "02343300", "nhdplus_comid": "2308883", "navigation_mode": "DM", "requested_distance_km": 12.0, "start_source": "nwissite", "start_id": "USGS-02343300", "geometry_length_km": 0.81273791947733187 }, "geometry": { "type": "LineString", "coordinates": [ [ -85.142134704, 31.467306495 ], [ -85.142134607, 31.467054494 ], [ -85.142455406, 31.466894098 ], [ -85.143123604, 31.466894098 ], [ -85.143444307, 31.466687895 ], [ -85.143658102, 31.466344297 ], [ -85.143444307, 31.466046497 ], [ -85.1431235, 31.465886094 ], [ -85.142375201, 31.466000699 ], [ -85.141867302, 31.466000699 ], [ -85.141733706, 31.465794496 ], [ -85.141573302, 31.465336397 ], [ -85.141306005, 31.465130195 ], [ -85.140905105, 31.465015694 ], [ -85.140317105, 31.464969896 ], [ -85.1391946, 31.465130299 ], [ -85.138980806, 31.464969896 ], [ -85.138927303, 31.464374296 ] ] } },
{ "type": "Feature", "properties": { "site_no": "02343300", "nhdplus_comid": "2308887", "navigation_mode": "DM", "requested_distance_km": 12.0, "start_source": "nwissite", "start_id": "USGS-02343300", "geometry_length_km": 0.53415335388046337 }, "geometry": { "type": "LineString", "coordinates": [ [ -85.138927303, 31.464374296 ], [ -85.138793707, 31.464259796 ], [ -85.138419606, 31.464374296 ], [ -85.137938507, 31.464763694 ], [ -85.137430601, 31.464809597 ], [ -85.137350507, 31.464763694 ], [ -85.1373237, 31.464442998 ], [ -85.137403905, 31.464099497 ], [ -85.137430601, 31.463595398 ], [ -85.137003005, 31.463228896 ], [ -85.136361502, 31.462976895 ], [ -85.135773703, 31.462633297 ], [ -85.1355865, 31.4623584 ] ] } },
{ "type": "Feature", "properties": { "site_no": "02343300", "nhdplus_comid": "2308905", "navigation_mode": "DM", "requested_distance_km": 12.0, "start_source": "nwissite", "start_id": "USGS-02343300", "geometry_length_km": 1.2879850232200607 }, "geometry": { "type": "LineString", "coordinates": [ [ -85.1355865, 31.4623584 ], [ -85.135666803, 31.461900294 ], [ -85.135773607, 31.461808495 ], [ -85.136842705, 31.461716898 ], [ -85.137003101, 31.461510696 ], [ -85.137029804, 31.4610755 ], [ -85.136762403, 31.460731894 ], [ -85.135720201, 31.4600446 ], [ -85.134945102, 31.459174097 ], [ -85.1347313, 31.459082499 ], [ -85.1344641, 31.459128298 ], [ -85.134330407, 31.459265694 ], [ -85.1341701, 31.459929995 ], [ -85.133983001, 31.460159093 ], [ -85.1333149, 31.460204996 ], [ -85.132967405, 31.459929995 ], [ -85.132887304, 31.4596323 ], [ -85.1330209, 31.4593345 ], [ -85.133127905, 31.458761699 ], [ -85.132994205, 31.458670095 ], [ -85.132379606, 31.458463795 ], [ -85.131952003, 31.458624199 ], [ -85.131497607, 31.458692893 ], [ -85.131230406, 31.4584409 ], [ -85.131230503, 31.458188899 ], [ -85.132165805, 31.4577308 ] ] } },
{ "type": "Feature", "properties": { "site_no": "02343300", "nhdplus_comid": "2308947", "navigation_mode": "DM", "requested_distance_km": 12.0, "start_source": "nwissite", "start_id": "USGS-02343300", "geometry_length_km": 1.9747610044990092 }, "geometry": { "type": "LineString", "coordinates": [ [ -85.132165805, 31.4577308 ], [ -85.132085703, 31.457387194 ], [ -85.131070204, 31.456768595 ], [ -85.1309366, 31.456539497 ], [ -85.1309366, 31.455829397 ], [ -85.131097004, 31.455142096 ], [ -85.131257303, 31.454935893 ], [ -85.131284103, 31.454317294 ], [ -85.131177202, 31.454019494 ], [ -85.129760906, 31.452851094 ], [ -85.129253201, 31.452530295 ], [ -85.128932506, 31.452507496 ], [ -85.1282911, 31.452736497 ], [ -85.127462804, 31.452896893 ], [ -85.127008505, 31.452736497 ], [ -85.126874804, 31.452598996 ], [ -85.126768, 31.452140793 ], [ -85.126340501, 31.451430596 ], [ -85.125432007, 31.450605899 ], [ -85.124951102, 31.450399697 ], [ -85.123134002, 31.449780896 ], [ -85.122786701, 31.449529 ], [ -85.122706607, 31.448910393 ], [ -85.121397302, 31.448154293 ], [ -85.120943204, 31.447489895 ], [ -85.119660705, 31.446550496 ] ] } },
{ "type": "Feature", "properties": { "site_no": "02343300", "nhdplus_comid": "2308953", "navigation_mode": "DM", "requested_distance_km": 12.0, "start_source": "nwissite", "start_id": "USGS-02343300", "geometry_length_km": 0.22802707058712182 }, "geometry": { "type": "LineString", "coordinates": [ [ -85.119660705, 31.446550496 ], [ -85.119393505, 31.446069397 ], [ -85.119366907, 31.445840299 ], [ -85.119580701, 31.44568 ], [ -85.119607404, 31.445473798 ], [ -85.119366907, 31.445267595 ], [ -85.118725702, 31.445290394 ] ] } },
{ "type": "Feature", "properties": { "site_no": "02343300", "nhdplus_comid": "2308967", "navigation_mode": "DM", "requested_distance_km": 12.0, "start_source": "nwissite", "start_id": "USGS-02343300", "geometry_length_km": 1.2391154055244866 }, "geometry": { "type": "LineString", "coordinates": [ [ -85.118725702, 31.445290394 ], [ -85.118618801, 31.445107199 ], [ -85.118271701, 31.444144897 ], [ -85.118111402, 31.443847097 ], [ -85.118058003, 31.443274394 ], [ -85.118164904, 31.443091094 ], [ -85.118859701, 31.442587197 ], [ -85.119100302, 31.442335099 ], [ -85.119046904, 31.442128994 ], [ -85.118699603, 31.441670798 ], [ -85.118191905, 31.441670693 ], [ -85.117737606, 31.442060098 ], [ -85.117497101, 31.4421518 ], [ -85.117042907, 31.442197599 ], [ -85.116829105, 31.442014299 ], [ -85.116775803, 31.441762298 ], [ -85.116882801, 31.441441499 ], [ -85.117230006, 31.441326998 ], [ -85.118138507, 31.441189699 ], [ -85.118138701, 31.440777294 ], [ -85.117871501, 31.4405711 ], [ -85.116402, 31.440318897 ], [ -85.115653902, 31.440089598 ], [ -85.115039401, 31.439562693 ] ] } },
{ "type": "Feature", "properties": { "site_no": "02343300", "nhdplus_comid": "2308977", "navigation_mode": "DM", "requested_distance_km": 12.0, "start_source": "nwissite", "start_id": "USGS-02343300", "geometry_length_km": 0.52124843499376283 }, "geometry": { "type": "LineString", "coordinates": [ [ -85.115039401, 31.439562693 ], [ -85.115039505, 31.439058699 ], [ -85.115173206, 31.438898399 ], [ -85.115654103, 31.438898399 ], [ -85.116268605, 31.439127699 ], [ -85.116562605, 31.439150594 ], [ -85.116749503, 31.4390819 ], [ -85.116990104, 31.438852899 ], [ -85.1170168, 31.4386696 ], [ -85.1166429, 31.438096799 ], [ -85.116616204, 31.437753193 ], [ -85.1167766, 31.437592797 ], [ -85.117177404, 31.437455498 ], [ -85.117765203, 31.4373639 ] ] } },
{ "type": "Feature", "properties": { "site_no": "02343300", "nhdplus_comid": "2309025", "navigation_mode": "DM", "requested_distance_km": 12.0, "start_source": "nwissite", "start_id": "USGS-02343300", "geometry_length_km": 1.5398433610088433 }, "geometry": { "type": "LineString", "coordinates": [ [ -85.117765203, 31.4373639 ], [ -85.117978901, 31.437157795 ], [ -85.117979005, 31.436905697 ], [ -85.117711902, 31.436584994 ], [ -85.116776906, 31.436241195 ], [ -85.116616607, 31.436080799 ], [ -85.116563201, 31.4357602 ], [ -85.117151104, 31.435553998 ], [ -85.117364801, 31.435324997 ], [ -85.117364906, 31.4350501 ], [ -85.117151104, 31.434866793 ], [ -85.114880502, 31.433560699 ], [ -85.1144263, 31.433125399 ], [ -85.114506505, 31.432781696 ], [ -85.114613406, 31.432690099 ], [ -85.115308106, 31.432483993 ], [ -85.115441702, 31.432346597 ], [ -85.115441807, 31.4319572 ], [ -85.114533603, 31.431132399 ], [ -85.114480205, 31.430926196 ], [ -85.114667401, 31.430353396 ], [ -85.114587307, 31.430124395 ], [ -85.114373602, 31.429963894 ], [ -85.113438405, 31.429528594 ], [ -85.112930901, 31.429184899 ], [ -85.112824105, 31.4290016 ], [ -85.112824202, 31.428772397 ], [ -85.112984501, 31.428451799 ], [ -85.113572404, 31.428131193 ], [ -85.113732703, 31.427856296 ] ] } },
{ "type": "Feature", "properties": { "site_no": "02343300", "nhdplus_comid": "2309073", "navigation_mode": "DM", "requested_distance_km": 12.0, "start_source": "nwissite", "start_id": "USGS-02343300", "geometry_length_km": 2.3221976859147464 }, "geometry": { "type": "LineString", "coordinates": [ [ -85.113732703, 31.427856296 ], [ -85.113759503, 31.427650094 ], [ -85.113519102, 31.427260697 ], [ -85.113278806, 31.427054398 ], [ -85.112824701, 31.426916897 ], [ -85.112370506, 31.426893897 ], [ -85.111809306, 31.427306198 ], [ -85.111301705, 31.427649699 ], [ -85.110633805, 31.427672498 ], [ -85.110446706, 31.427603699 ], [ -85.109966002, 31.427191198 ], [ -85.109992802, 31.426755995 ], [ -85.110099703, 31.426526994 ], [ -85.111034803, 31.426000297 ], [ -85.111222006, 31.425633699 ], [ -85.111195303, 31.425335899 ], [ -85.111088507, 31.425060995 ], [ -85.110634506, 31.424740195 ], [ -85.109432407, 31.424487993 ], [ -85.108978204, 31.424258798 ], [ -85.108577706, 31.423869297 ], [ -85.108604506, 31.4234569 ], [ -85.108711407, 31.423136294 ], [ -85.108631305, 31.422975898 ], [ -85.108284101, 31.422861293 ], [ -85.107242204, 31.422952697 ], [ -85.1071086, 31.422815196 ], [ -85.107082203, 31.422059193 ], [ -85.106975503, 31.4214864 ], [ -85.106628306, 31.421028197 ], [ -85.106094204, 31.420386694 ], [ -85.106041104, 31.419676498 ], [ -85.105880804, 31.419264197 ], [ -85.105667405, 31.418485194 ], [ -85.105667606, 31.417683296 ], [ -85.105160303, 31.417247899 ], [ -85.1039849, 31.417270698 ], [ -85.103717804, 31.417247698 ], [ -85.102596104, 31.416560195 ], [ -85.102141805, 31.416766293 ], [ -85.1017946, 31.4167891 ] ] } }
]
}
