{
"type": "FeatureCollection",
"name": "USGS_02450500_DM_12km",
"crs": { "type": "name", "properties": { "name": "urn:ogc:def:crs:OGC:1.3:CRS84" } },
"features": [
{ "type": "Feature", "properties": { "site_no": "02450500", "nhdplus_comid": "18580441", "navigation_mode": "DM", "requested_distance_km": 12.0, "start_source": "nwissite", "start_id": "USGS-02450500", "geometry_length_km": 0.45726264236889214 }, "geometry": { "type": "LineString", "coordinates": [ [ -87.267868598, 34.053230368 ], [ -87.267902903, 34.053177699 ], [ -87.267624602, 34.049152598 ] ] } },
{ "type": "Feature", "properties": { "site_no": "02450500", "nhdplus_comid": "18580409", "navigation_mode": "DM", "requested_distance_km": 12.0, "start_source": "nwissite", "start_id": "USGS-02450500", "geometry_length_km": 3.5750322396342771 }, "geometry": { "type": "LineString", "coordinates": [ [ -87.267624602, 34.049152598 ], [ -87.2667327, 34.047508799 ], [ -87.265632004, 34.046353698 ], [ -87.263352506, 34.0454247 ], [ -87.260676503, 34.045285493 ], [ -87.258887604, 34.045465499 ], [ -87.257050201, 34.045389496 ], [ -87.256129302, 34.044689298 ], [ -87.255183704, 34.042158499 ], [ -87.255379602, 34.041101396 ], [ -87.255549602, 34.0389072 ], [ -87.255588204, 34.036513999 ], [ -87.253922507, 34.0335503 ], [ -87.249450207, 34.030247994 ], [ -87.247782305, 34.028671294 ], [ -87.248037405, 34.026856899 ] ] } },
{ "type": "Feature", "properties": { "site_no": "02450500", "nhdplus_comid": "18580415", "navigation_mode": "DM", "requested_distance_km": 12.0, "start_source": "nwissite", "start_id": "USGS-02450500", "geometry_length_km": 0.25955750734219624 }, "geometry": { "type": "LineString", "coordinates": [ [ -87.248037405, 34.026856899 ], [ -87.246240504, 34.026986495 ], [ -87.245290101, 34.026665494 ] ] } },
{ "type": "Feature", "properties": { "site_no": "02450500", "nhdplus_comid": "18580413", "navigation_mode": "DM", "requested_distance_km": 12.0, "start_source": "nwissite", "start_id": "USGS-02450500", "geometry_length_km": 2.2083942448199396 }, "geometry": { "type": "LineString", "coordinates": [ [ -87.245290101, 34.026665494 ], [ -87.244043604, 34.026244596 ], [ -87.242242903, 34.025100999 ], [ -87.239053704, 34.022269599 ], [ -87.235887006, 34.016130596 ], [ -87.231079206, 34.011261597 ] ] } },
{ "type": "Feature", "properties": { "site_no": "02450500", "nhdplus_comid": "18580405", "navigation_mode": "DM", "requested_distance_km": 12.0, "start_source": "nwissite", "start_id": "USGS-02450500", "geometry_length_km": 1.465710709426896 }, "geometry": { "type": "LineString", "coordinates": [ [ -87.231079206, 34.011261597 ], [ -87.229590602, 34.009753898 ], [ -87.222695805, 34.000116594 ] ] } },
{ "type": "Feature", "properties": { "site_no": "02450500", "nhdplus_comid": "18584037", "navigation_mode": "DM", "requested_distance_km": 12.0, "start_source": "nwissite", "start_id": "USGS-02450500", "geometry_length_km": 0.97098128386573779 }, "geometry": { "type": "LineString", "coordinates": [ [ -87.222695805, 34.000116594 ], [ -87.220944501, 33.997519799 ], [ -87.218564801, 33.994464494 ], [ -87.216977201, 33.993012995 ], [ -87.216839604, 33.992923394 ] ] } },
{ "type": "Feature", "properties": { "site_no": "02450500", "nhdplus_comid": "18584039", "navigation_mode": "DM", "requested_distance_km": 12.0, "start_source": "nwissite", "start_id": "USGS-02450500", "geometry_length_km": 1.6663455778922485 }, "geometry": { "type": "LineString", "coordinates": [ [ -87.216839604, 33.992923394 ], [ -87.215587303, 33.9921088 ], [ -87.211159207, 33.989962094 ], [ -87.208424807, 33.988902196 ], [ -87.207317501, 33.987220995 ], [ -87.205876805, 33.985620797 ], [ -87.203856006, 33.984561995 ], [ -87.202628806, 33.984349996 ] ] } },
{ "type": "Feature", "properties": { "site_no": "02450500", "nhdplus_comid": "18584041", "navigation_mode": "DM", "requested_distance_km": 12.0, "start_source": "nwissite", "start_id": "USGS-02450500", "geometry_length_km": 2.2565838693062661 }, "geometry": { "type": "LineString", "coordinates": [ [ -87.202628806, 33.984349996 ], [ -87.202201806, 33.984276198 ], [ -87.199633904, 33.984612897 ], [ -87.1982342, 33.985517599 ], [ -87.197497301, 33.988016598 ], [ -87.196684003, 33.990616098 ], [ -87.195256002, 33.9934882 ], [ -87.193530202, 33.9961247 ], [ -87.191330105, 33.998937793 ], [ -87.190119207, 34.000121593 ] ] } }
]
}
