{
"type": "FeatureCollection",
"name": "USGS_02428400_DM_12km",
"crs": { "type": "name", "properties": { "name": "urn:ogc:def:crs:OGC:1.3:CRS84" } },
"features": [
{ "type": "Feature", "properties": { "site_no": "02428400", "nhdplus_comid": "18239647", "navigation_mode": "DM", "requested_distance_km": 12.0, "start_source": "nwissite", "start_id": "USGS-02428400", "geometry_length_km": 0.02957287683018495 }, "geometry": { "type": "LineString", "coordinates": [ [ -87.552083516, 31.615361359 ], [ -87.552111305, 31.6150968 ] ] } },
{ "type": "Feature", "properties": { "site_no": "02428400", "nhdplus_comid": "18239649", "navigation_mode": "DM", "requested_distance_km": 12.0, "start_source": "nwissite", "start_id": "USGS-02428400", "geometry_length_km": 0.45341975387869909 }, "geometry": { "type": "LineString", "coordinates": [ [ -87.552111305, 31.6150968 ], [ -87.552213602, 31.6141221 ], [ -87.5515415, 31.61344 ], [ -87.5512961, 31.611527897 ], [ -87.551470004, 31.611288495 ] ] } },
{ "type": "Feature", "properties": { "site_no": "02428400", "nhdplus_comid": "18239653", "navigation_mode": "DM", "requested_distance_km": 12.0, "start_source": "nwissite", "start_id": "USGS-02428400", "geometry_length_km": 4.3863828113531023 }, "geometry": { "type": "LineString", "coordinates": [ [ -87.551470004, 31.611288495 ], [ -87.551201202, 31.6110157 ], [ -87.550858006, 31.6072025 ], [ -87.549587205, 31.602309197 ], [ -87.546680503, 31.597418196 ], [ -87.544743806, 31.594620399 ], [ -87.541613802, 31.591858394 ], [ -87.5385262, 31.590109497 ], [ -87.536458202, 31.588563994 ], [ -87.531800903, 31.586190797 ], [ -87.528619006, 31.583929397 ], [ -87.525194906, 31.581144497 ] ] } },
{ "type": "Feature", "properties": { "site_no": "02428400", "nhdplus_comid": "18239665", "navigation_mode": "DM", "requested_distance_km": 12.0, "start_source": "nwissite", "start_id": "USGS-02428400", "geometry_length_km": 0.69747087791557705 }, "geometry": { "type": "LineString", "coordinates": [ [ -87.525194906, 31.581144497 ], [ -87.519851305, 31.576824896 ] ] } },
{ "type": "Feature", "properties": { "site_no": "02428400", "nhdplus_comid": "18239669", "navigation_mode": "DM", "requested_distance_km": 12.0, "start_source": "nwissite", "start_id": "USGS-02428400", "geometry_length_km": 2.3845422881086473 }, "geometry": { "type": "LineString", "coordinates": [ [ -87.519851305, 31.576824896 ], [ -87.519556306, 31.5768025 ], [ -87.518079005, 31.575301498 ], [ -87.516146101, 31.573891997 ], [ -87.513728902, 31.571435697 ], [ -87.513231404, 31.570514098 ], [ -87.512987107, 31.568601698 ], [ -87.513612203, 31.565492898 ], [ -87.514100701, 31.560858496 ], [ -87.514017001, 31.558832094 ], [ -87.513680302, 31.557796396 ] ] } },
{ "type": "Feature", "properties": { "site_no": "02428400", "nhdplus_comid": "18239673", "navigation_mode": "DM", "requested_distance_km": 12.0, "start_source": "nwissite", "start_id": "USGS-02428400", "geometry_length_km": 0.85189044324686736 }, "geometry": { "type": "LineString", "coordinates": [ [ -87.513680302, 31.557796396 ], [ -87.514063105, 31.554164097 ], [ -87.514743105, 31.551943094 ], [ -87.515504502, 31.550359696 ] ] } },
{ "type": "Feature", "properties": { "site_no": "02428400", "nhdplus_comid": "18239683", "navigation_mode": "DM", "requested_distance_km": 12.0, "start_source": "nwissite", "start_id": "USGS-02428400", "geometry_length_km": 2.9314696366372286 }, "geometry": { "type": "LineString", "coordinates": [ [ -87.515504502, 31.550359696 ], [ -87.517669804, 31.546736494 ], [ -87.519997902, 31.544388294 ], [ -87.522702202, 31.542699896 ], [ -87.525019206, 31.5418659 ], [ -87.526841104, 31.541499294 ], [ -87.527591504, 31.541429996 ], [ -87.531116806, 31.541823894 ], [ -87.533544205, 31.542765699 ], [ -87.536874704, 31.546427295 ], [ -87.5386599, 31.547825299 ] ] } }
]
}
