{
"type": "FeatureCollection",
"name": "USGS_03575830_UM_12km",
"crs": { "type": "name", "properties": { "name": "urn:ogc:def:crs:OGC:1.3:CRS84" } },
"features": [
{ "type": "Feature", "properties": { "site_no": "03575830", "nhdplus_comid": "19621386", "navigation_mode": "UM", "requested_distance_km": 12.0, "start_source": "nwissite", "start_id": "USGS-03575830", "geometry_length_km": 0.2627768332725009 }, "geometry": { "type": "LineString", "coordinates": [ [ -86.702564605, 34.698683694 ], [ -86.701870807, 34.698157296 ], [ -86.700594902, 34.697974794 ], [ -86.700197721, 34.697559967 ] ] } },
{ "type": "Feature", "properties": { "site_no": "03575830", "nhdplus_comid": "19620052", "navigation_mode": "UM", "requested_distance_km": 12.0, "start_source": "nwissite", "start_id": "USGS-03575830", "geometry_length_km": 0.4505184257655705 }, "geometry": { "type": "LineString", "coordinates": [ [ -86.703621805, 34.702347897 ], [ -86.703704804, 34.702095993 ], [ -86.703621104, 34.701592095 ], [ -86.703287907, 34.701065496 ], [ -86.702816106, 34.700676396 ], [ -86.702427104, 34.699966595 ], [ -86.702315502, 34.699279398 ], [ -86.702537201, 34.699004397 ], [ -86.702564605, 34.698683694 ] ] } },
{ "type": "Feature", "properties": { "site_no": "03575830", "nhdplus_comid": "19620034", "navigation_mode": "UM", "requested_distance_km": 12.0, "start_source": "nwissite", "start_id": "USGS-03575830", "geometry_length_km": 1.4090252083254169 }, "geometry": { "type": "LineString", "coordinates": [ [ -86.700024605, 34.711810194 ], [ -86.699719302, 34.711558498 ], [ -86.699497104, 34.711214997 ], [ -86.699135706, 34.710321896 ], [ -86.699079804, 34.709863797 ], [ -86.698580101, 34.709245697 ], [ -86.698191002, 34.708421394 ], [ -86.698190302, 34.7076196 ], [ -86.698356301, 34.707023896 ], [ -86.6986055, 34.706588596 ], [ -86.699298404, 34.705969699 ], [ -86.699714303, 34.705786295 ], [ -86.700435303, 34.705694199 ], [ -86.700934701, 34.705922894 ], [ -86.7012676, 34.705922693 ], [ -86.7022653, 34.705028795 ], [ -86.702708006, 34.703883298 ], [ -86.702734806, 34.702829495 ], [ -86.703039505, 34.702462897 ], [ -86.703621805, 34.702347897 ] ] } },
{ "type": "Feature", "properties": { "site_no": "03575830", "nhdplus_comid": "19619976", "navigation_mode": "UM", "requested_distance_km": 12.0, "start_source": "nwissite", "start_id": "USGS-03575830", "geometry_length_km": 1.8323025857053017 }, "geometry": { "type": "LineString", "coordinates": [ [ -86.703809306, 34.725139 ], [ -86.703836307, 34.724291496 ], [ -86.703974701, 34.723947793 ], [ -86.704529107, 34.723466493 ], [ -86.704556502, 34.723054193 ], [ -86.704167902, 34.722848199 ], [ -86.703918204, 34.722825497 ], [ -86.703086101, 34.722963497 ], [ -86.702780701, 34.722757496 ], [ -86.702336207, 34.722070694 ], [ -86.702280402, 34.721704096 ], [ -86.701836005, 34.7212006 ], [ -86.701114401, 34.720811494 ], [ -86.701003306, 34.720605396 ], [ -86.700975202, 34.720147394 ], [ -86.701279804, 34.719482899 ], [ -86.701306902, 34.718887396 ], [ -86.700945102, 34.717467494 ], [ -86.700861804, 34.717421696 ], [ -86.700861305, 34.716940694 ], [ -86.701055102, 34.7165282 ], [ -86.701443404, 34.716390498 ], [ -86.701720603, 34.716184199 ], [ -86.701747805, 34.715565793 ], [ -86.701664306, 34.715336695 ], [ -86.7013034, 34.714970499 ], [ -86.700720802, 34.714833394 ], [ -86.7003875, 34.714375496 ], [ -86.700081505, 34.713321999 ], [ -86.700024605, 34.711810194 ] ] } },
{ "type": "Feature", "properties": { "site_no": "03575830", "nhdplus_comid": "19619896", "navigation_mode": "UM", "requested_distance_km": 12.0, "start_source": "nwissite", "start_id": "USGS-03575830", "geometry_length_km": 2.9243547881923546 }, "geometry": { "type": "LineString", "coordinates": [ [ -86.704551704, 34.747677796 ], [ -86.704939701, 34.7471736 ], [ -86.705715202, 34.745615393 ], [ -86.705880702, 34.744561695 ], [ -86.705768101, 34.742866799 ], [ -86.705600604, 34.741904795 ], [ -86.704988904, 34.740462199 ], [ -86.704627603, 34.739958495 ], [ -86.704183303, 34.739569299 ], [ -86.7034062, 34.739294998 ], [ -86.7030451, 34.738882899 ], [ -86.701712206, 34.737761296 ], [ -86.701073803, 34.737440996 ], [ -86.700740606, 34.737143397 ], [ -86.700628802, 34.736227296 ], [ -86.7004067, 34.736021399 ], [ -86.699657306, 34.7358156 ], [ -86.699629501, 34.735701099 ], [ -86.700350605, 34.735425897 ], [ -86.700572401, 34.735219494 ], [ -86.700627305, 34.734623998 ], [ -86.7008489, 34.734188698 ], [ -86.700876206, 34.733615898 ], [ -86.700764902, 34.733226597 ], [ -86.701069303, 34.732424699 ], [ -86.701122105, 34.729378298 ], [ -86.7015654, 34.728759594 ], [ -86.701898105, 34.7284844 ], [ -86.702008806, 34.728232399 ], [ -86.702478804, 34.726353899 ], [ -86.7028668, 34.725895494 ], [ -86.703559905, 34.725459896 ], [ -86.703809306, 34.725139 ] ] } },
{ "type": "Feature", "properties": { "site_no": "03575830", "nhdplus_comid": "19619818", "navigation_mode": "UM", "requested_distance_km": 12.0, "start_source": "nwissite", "start_id": "USGS-03575830", "geometry_length_km": 0.5653864325953335 }, "geometry": { "type": "LineString", "coordinates": [ [ -86.698863804, 34.748780698 ], [ -86.699280001, 34.748620093 ], [ -86.699807204, 34.748596899 ], [ -86.700584501, 34.748894095 ], [ -86.701389305, 34.748916596 ], [ -86.702193901, 34.7488245 ], [ -86.704024501, 34.747838393 ], [ -86.704551704, 34.747677796 ] ] } },
{ "type": "Feature", "properties": { "site_no": "03575830", "nhdplus_comid": "19621346", "navigation_mode": "UM", "requested_distance_km": 12.0, "start_source": "nwissite", "start_id": "USGS-03575830", "geometry_length_km": 0.33256746994882591 }, "geometry": { "type": "LineString", "coordinates": [ [ -86.696316004, 34.750850797 ], [ -86.696427107, 34.7508507 ], [ -86.697283201, 34.750087097 ], [ -86.6983371, 34.749353595 ], [ -86.698753007, 34.748986796 ], [ -86.698863804, 34.748780698 ] ] } },
{ "type": "Feature", "properties": { "site_no": "03575830", "nhdplus_comid": "19619796", "navigation_mode": "UM", "requested_distance_km": 12.0, "start_source": "nwissite", "start_id": "USGS-03575830", "geometry_length_km": 0.27692796927936719 }, "geometry": { "type": "LineString", "coordinates": [ [ -86.695096701, 34.752867296 ], [ -86.695068203, 34.751996793 ], [ -86.695289902, 34.751561396 ], [ -86.696233004, 34.751056999 ], [ -86.696316004, 34.750850797 ] ] } }
]
}
