{
"type": "FeatureCollection",
"name": "USGS_02458300_DM_12km",
"crs": { "type": "name", "properties": { "name": "urn:ogc:def:crs:OGC:1.3:CRS84" } },
"features": [
{ "type": "Feature", "properties": { "site_no": "02458300", "nhdplus_comid": "18566197", "navigation_mode": "DM", "requested_distance_km": 12.0, "start_source": "nwissite", "start_id": "USGS-02458300", "geometry_length_km": 6.0905610692389702 }, "geometry": { "type": "LineString", "coordinates": [ [ -86.815969436, 33.543246898 ], [ -86.816553406, 33.542930394 ], [ -86.820057005, 33.540366098 ], [ -86.820495106, 33.539885193 ], [ -86.821836703, 33.537984297 ], [ -86.8225483, 33.537388898 ], [ -86.824518703, 33.536244199 ], [ -86.825613402, 33.535488695 ], [ -86.831660703, 33.532512695 ], [ -86.833521105, 33.532100894 ], [ -86.834670201, 33.531734698 ], [ -86.835655205, 33.5312768 ], [ -86.836394101, 33.530795999 ], [ -86.836968705, 33.530131795 ], [ -86.8375163, 33.529078096 ], [ -86.837926701, 33.528734595 ], [ -86.844465405, 33.525987193 ], [ -86.845176704, 33.525758296 ], [ -86.846188806, 33.525598094 ], [ -86.847337604, 33.525850393 ], [ -86.849580407, 33.526744395 ], [ -86.850783803, 33.526950896 ], [ -86.851741403, 33.526607394 ], [ -86.853109203, 33.525759995 ], [ -86.856118403, 33.524454594 ], [ -86.857158005, 33.5238363 ], [ -86.860249206, 33.521453999 ], [ -86.861151807, 33.521018796 ], [ -86.863011904, 33.520331696 ], [ -86.865419, 33.519392595 ], [ -86.866294205, 33.519278198 ], [ -86.870615803, 33.520813398 ], [ -86.870697804, 33.5209051 ] ] } },
{ "type": "Feature", "properties": { "site_no": "02458300", "nhdplus_comid": "18566201", "navigation_mode": "DM", "requested_distance_km": 12.0, "start_source": "nwissite", "start_id": "USGS-02458300", "geometry_length_km": 4.7542872821305968 }, "geometry": { "type": "LineString", "coordinates": [ [ -86.870697804, 33.5209051 ], [ -86.872311503, 33.521317497 ], [ -86.872667104, 33.521317497 ], [ -86.873241507, 33.521157198 ], [ -86.874992102, 33.519988693 ], [ -86.876086101, 33.519141093 ], [ -86.877344303, 33.518293396 ], [ -86.878137507, 33.517880999 ], [ -86.878520407, 33.517766498 ], [ -86.879422903, 33.517766498 ], [ -86.882212803, 33.518087 ], [ -86.884400904, 33.518522196 ], [ -86.885850705, 33.519003294 ], [ -86.886561804, 33.519323997 ], [ -86.888804905, 33.521133594 ], [ -86.889406703, 33.521752097 ], [ -86.8900363, 33.523561999 ], [ -86.891212702, 33.524936393 ], [ -86.891732506, 33.525417395 ], [ -86.894358806, 33.526906297 ], [ -86.895124905, 33.527455993 ], [ -86.897122003, 33.528669998 ], [ -86.897286303, 33.528944895 ], [ -86.897231601, 33.529540598 ], [ -86.896931104, 33.530456997 ], [ -86.8969585, 33.530754797 ], [ -86.897177406, 33.530937999 ], [ -86.898217, 33.5314648 ], [ -86.900351003, 33.532380894 ], [ -86.901719004, 33.532861695 ], [ -86.903579205, 33.532975793 ], [ -86.904509403, 33.533273399 ], [ -86.906698205, 33.534235097 ], [ -86.907710701, 33.534899294 ], [ -86.908394806, 33.535563499 ], [ -86.909051605, 33.535906993 ], [ -86.909735501, 33.536112994 ], [ -86.910446905, 33.536227293 ] ] } }
]
}
