{
"type": "FeatureCollection",
"name": "USGS_02409000_DM_12km",
"crs": { "type": "name", "properties": { "name": "urn:ogc:def:crs:OGC:1.3:CRS84" } },
"features": [
{ "type": "Feature", "properties": { "site_no": "02409000", "nhdplus_comid": "22274074", "navigation_mode": "DM", "requested_distance_km": 12.0, "start_source": "nwissite", "start_id": "USGS-02409000", "geometry_length_km": 0.52742552089651484 }, "geometry": { "type": "LineString", "coordinates": [ [ -86.307205575, 32.983601385 ], [ -86.308181301, 32.984064698 ], [ -86.309240706, 32.985004596 ], [ -86.309485301, 32.985119194 ], [ -86.310028404, 32.985829793 ], [ -86.310680605, 32.986196697 ], [ -86.311523102, 32.986517899 ] ] } },
{ "type": "Feature", "properties": { "site_no": "02409000", "nhdplus_comid": "22274124", "navigation_mode": "DM", "requested_distance_km": 12.0, "start_source": "nwissite", "start_id": "USGS-02409000", "geometry_length_km": 1.6922243746110843 }, "geometry": { "type": "LineString", "coordinates": [ [ -86.311523102, 32.986517899 ], [ -86.3124201, 32.986701697 ], [ -86.312909402, 32.986633196 ], [ -86.313127004, 32.986404195 ], [ -86.313372105, 32.985923193 ], [ -86.313537106, 32.983288497 ], [ -86.313727804, 32.982807599 ], [ -86.314462505, 32.981799893 ], [ -86.315033503, 32.981662698 ], [ -86.3150336, 32.981227398 ], [ -86.314789101, 32.980998196 ], [ -86.314680606, 32.980746098 ], [ -86.314925402, 32.980517097 ], [ -86.315822504, 32.980334297 ], [ -86.316393301, 32.980380394 ], [ -86.316583805, 32.980220094 ], [ -86.316801503, 32.979693197 ], [ -86.317209706, 32.979212396 ], [ -86.317971103, 32.978731595 ], [ -86.318080001, 32.978479594 ], [ -86.318107404, 32.978158899 ], [ -86.317672603, 32.977906696 ], [ -86.317428105, 32.977677397 ], [ -86.317428306, 32.977562897 ], [ -86.318026707, 32.9768987 ], [ -86.319630504, 32.9768079 ] ] } },
{ "type": "Feature", "properties": { "site_no": "02409000", "nhdplus_comid": "22274330", "navigation_mode": "DM", "requested_distance_km": 12.0, "start_source": "nwissite", "start_id": "USGS-02409000", "geometry_length_km": 9.8773155878023751 }, "geometry": { "type": "LineString", "coordinates": [ [ -86.319630504, 32.9768079 ], [ -86.320038304, 32.976830997 ], [ -86.320581704, 32.977083199 ], [ -86.320934802, 32.977381296 ], [ -86.321179107, 32.978045799 ], [ -86.321314901, 32.978229195 ], [ -86.321559101, 32.979031093 ], [ -86.322455704, 32.979672998 ], [ -86.323352605, 32.9799942 ], [ -86.3257448, 32.979857795 ], [ -86.3261251, 32.980041198 ], [ -86.326315306, 32.980270393 ], [ -86.326260507, 32.981072195 ], [ -86.325852506, 32.981392898 ], [ -86.323215604, 32.981620796 ], [ -86.322372504, 32.982170194 ], [ -86.322100304, 32.982857399 ], [ -86.321963407, 32.984277897 ], [ -86.322180502, 32.984873697 ], [ -86.322615005, 32.9856757 ], [ -86.322995104, 32.9864548 ], [ -86.323076203, 32.987188093 ], [ -86.322776802, 32.987737797 ], [ -86.322749503, 32.987921096 ], [ -86.322178304, 32.988470599 ], [ -86.322069004, 32.989226699 ], [ -86.322612405, 32.989822693 ], [ -86.323291801, 32.990097895 ], [ -86.323780902, 32.990647994 ], [ -86.323943503, 32.991266593 ], [ -86.323779605, 32.992893197 ], [ -86.324241303, 32.993580699 ], [ -86.324594505, 32.993878797 ], [ -86.325600304, 32.994199894 ], [ -86.326035202, 32.9941772 ], [ -86.327775605, 32.993650995 ], [ -86.329244107, 32.992895499 ], [ -86.329571106, 32.991520993 ], [ -86.329599105, 32.990100496 ], [ -86.329898305, 32.989550799 ], [ -86.330469407, 32.989276096 ], [ -86.3310403, 32.989459597 ], [ -86.331665404, 32.989872299 ], [ -86.331991404, 32.990238898 ], [ -86.333050907, 32.991682693 ], [ -86.333811805, 32.992278695 ], [ -86.334273905, 32.992301695 ], [ -86.334736206, 32.992027 ], [ -86.334953904, 32.991775095 ], [ -86.335090101, 32.991362698 ], [ -86.335090406, 32.990469195 ], [ -86.334982306, 32.989254899 ], [ -86.335091107, 32.989048697 ], [ -86.335417502, 32.988888495 ], [ -86.337347701, 32.988866195 ], [ -86.338598207, 32.988706298 ], [ -86.339223705, 32.988454394 ], [ -86.340094, 32.987629898 ], [ -86.341127701, 32.986118093 ], [ -86.341345303, 32.985407993 ], [ -86.341263905, 32.985201694 ], [ -86.341264203, 32.984514393 ], [ -86.341726601, 32.983758494 ], [ -86.342080407, 32.9828422 ], [ -86.342216507, 32.982200697 ], [ -86.342217006, 32.981055096 ], [ -86.341755107, 32.980550997 ], [ -86.341157205, 32.980184197 ], [ -86.339554101, 32.978786193 ], [ -86.339282401, 32.978419498 ], [ -86.338440202, 32.977571495 ], [ -86.338059805, 32.977044396 ], [ -86.337652907, 32.975486398 ], [ -86.337218404, 32.9744322 ], [ -86.3369743, 32.973355398 ], [ -86.336865604, 32.973194897 ], [ -86.336865805, 32.9727825 ], [ -86.336730003, 32.972301394 ], [ -86.336567804, 32.970468499 ], [ -86.336459205, 32.970216393 ], [ -86.336188704, 32.967673294 ], [ -86.335375503, 32.962930396 ], [ -86.335321702, 32.962082595 ], [ -86.335213102, 32.9618764 ], [ -86.334915005, 32.959951796 ], [ -86.334752001, 32.959676795 ], [ -86.334589705, 32.958118893 ], [ -86.3340194, 32.957225099 ], [ -86.333884306, 32.9557359 ], [ -86.334482901, 32.954246797 ], [ -86.334809102, 32.953926198 ], [ -86.336413004, 32.952987395 ], [ -86.337065503, 32.952346094 ], [ -86.338452101, 32.950696997 ], [ -86.339675702, 32.948818699 ] ] } }
]
}
