{
"type": "FeatureCollection",
"name": "USGS_02413300_DM_12km",
"crs": { "type": "name", "properties": { "name": "urn:ogc:def:crs:OGC:1.3:CRS84" } },
"features": [
{ "type": "Feature", "properties": { "site_no": "02413300", "nhdplus_comid": "15811667", "navigation_mode": "DM", "requested_distance_km": 12.0, "start_source": "nwissite", "start_id": "USGS-02413300", "geometry_length_km": 1.7169989056983122 }, "geometry": { "type": "LineString", "coordinates": [ [ -85.399094442, 33.43710275 ], [ -85.398823105, 33.436583094 ], [ -85.398358606, 33.4361251 ], [ -85.396856003, 33.435231999 ], [ -85.396091007, 33.435002998 ], [ -85.392512202, 33.433056593 ], [ -85.389999002, 33.431751296 ], [ -85.388168603, 33.430697799 ], [ -85.3860652, 33.429598495 ], [ -85.3843989, 33.428934298 ], [ -85.383907206, 33.428521998 ] ] } },
{ "type": "Feature", "properties": { "site_no": "02413300", "nhdplus_comid": "15811741", "navigation_mode": "DM", "requested_distance_km": 12.0, "start_source": "nwissite", "start_id": "USGS-02413300", "geometry_length_km": 11.614282547496067 }, "geometry": { "type": "LineString", "coordinates": [ [ -85.383907206, 33.428521998 ], [ -85.383934505, 33.428338796 ], [ -85.3834702, 33.427857794 ], [ -85.383497402, 33.427560098 ], [ -85.383852504, 33.427010298 ], [ -85.384726606, 33.426139995 ], [ -85.386857204, 33.425155096 ], [ -85.3881955, 33.424788594 ], [ -85.389506601, 33.424742699 ], [ -85.390052907, 33.424811296 ], [ -85.390735805, 33.425086096 ], [ -85.394642204, 33.427513599 ], [ -85.3957076, 33.428315096 ], [ -85.398220904, 33.429505795 ], [ -85.402619302, 33.432070494 ], [ -85.403111003, 33.432207793 ], [ -85.403766707, 33.432161897 ], [ -85.404094502, 33.432024397 ], [ -85.404504001, 33.431589194 ], [ -85.404476605, 33.431016497 ], [ -85.4042852, 33.430146195 ], [ -85.402399704, 33.427489698 ], [ -85.401061006, 33.426321797 ], [ -85.400104806, 33.425153799 ], [ -85.398602203, 33.423756897 ], [ -85.398055702, 33.422932394 ], [ -85.397946306, 33.422199495 ], [ -85.398274004, 33.421558194 ], [ -85.399065904, 33.421031296 ], [ -85.400404103, 33.420252293 ], [ -85.4011143, 33.420206495 ], [ -85.402206801, 33.420389496 ], [ -85.4070419, 33.422243796 ], [ -85.407888606, 33.422083199 ], [ -85.408107005, 33.421899997 ], [ -85.408380106, 33.421510495 ], [ -85.408434607, 33.421121195 ], [ -85.408134006, 33.420640297 ], [ -85.407478102, 33.419747099 ], [ -85.403735407, 33.416632898 ], [ -85.402588107, 33.415602393 ], [ -85.401112907, 33.413907796 ], [ -85.397507206, 33.410747595 ], [ -85.3955952, 33.409419395 ], [ -85.395267501, 33.409075893 ], [ -85.393437602, 33.407907896 ], [ -85.393164501, 33.407541499 ], [ -85.393055104, 33.406854399 ], [ -85.393191606, 33.406464897 ], [ -85.393437207, 33.404655494 ], [ -85.3936828, 33.403922595 ], [ -85.394037805, 33.403647698 ], [ -85.395102806, 33.403441496 ], [ -85.397069007, 33.403738894 ], [ -85.401165403, 33.404860593 ], [ -85.402094007, 33.405226894 ], [ -85.403459601, 33.406051293 ], [ -85.404142506, 33.406623699 ], [ -85.404688805, 33.407196194 ], [ -85.4049621, 33.408226795 ], [ -85.405290104, 33.408730693 ], [ -85.405290104, 33.408891 ], [ -85.405563504, 33.4095781 ], [ -85.405563504, 33.409761295 ], [ -85.406028107, 33.411020994 ], [ -85.406192005, 33.411204197 ], [ -85.406683803, 33.4120057 ], [ -85.407612704, 33.413081996 ], [ -85.409224406, 33.414020695 ], [ -85.410481006, 33.4150282 ], [ -85.413267307, 33.416470595 ], [ -85.415398307, 33.417935893 ], [ -85.417994, 33.420248397 ], [ -85.420015804, 33.421667896 ], [ -85.420671403, 33.421965495 ], [ -85.421545401, 33.421942197 ], [ -85.421982303, 33.421644397 ], [ -85.422228001, 33.421255 ], [ -85.422418401, 33.419697396 ], [ -85.4221991, 33.417933799 ], [ -85.421488106, 33.41601 ] ] } }
]
}
