{
"type": "FeatureCollection",
"name": "USGS_02343700_UM_12km",
"crs": { "type": "name", "properties": { "name": "urn:ogc:def:crs:OGC:1.3:CRS84" } },
"features": [
{ "type": "Feature", "properties": { "site_no": "02343700", "nhdplus_comid": "2309335", "navigation_mode": "UM", "requested_distance_km": 12.0, "start_source": "nwissite", "start_id": "USGS-02343700", "geometry_length_km": 0.33849807449451325 }, "geometry": { "type": "LineString", "coordinates": [ [ -85.183851503, 31.357836694 ], [ -85.183797702, 31.3571724 ], [ -85.183904201, 31.356759995 ], [ -85.184517607, 31.355774596 ], [ -85.184543599, 31.354936691 ] ] } },
{ "type": "Feature", "properties": { "site_no": "02343700", "nhdplus_comid": "2309277", "navigation_mode": "UM", "requested_distance_km": 12.0, "start_source": "nwissite", "start_id": "USGS-02343700", "geometry_length_km": 1.1252917372390931 }, "geometry": { "type": "LineString", "coordinates": [ [ -85.192905501, 31.363628693 ], [ -85.192557901, 31.362872899 ], [ -85.191997007, 31.3624608 ], [ -85.190314703, 31.362026297 ], [ -85.188364901, 31.360560998 ], [ -85.187830403, 31.359621994 ], [ -85.187483206, 31.359484598 ], [ -85.186468601, 31.359347597 ], [ -85.184679501, 31.358500794 ], [ -85.183851503, 31.357836694 ] ] } },
{ "type": "Feature", "properties": { "site_no": "02343700", "nhdplus_comid": "2309259", "navigation_mode": "UM", "requested_distance_km": 12.0, "start_source": "nwissite", "start_id": "USGS-02343700", "geometry_length_km": 6.7294541644844372 }, "geometry": { "type": "LineString", "coordinates": [ [ -85.218066402, 31.404736996 ], [ -85.219267406, 31.403682299 ], [ -85.219667606, 31.403155096 ], [ -85.220094003, 31.402032197 ], [ -85.220546305, 31.400153399 ], [ -85.220650405, 31.397174999 ], [ -85.220568806, 31.395708896 ], [ -85.220354505, 31.395021699 ], [ -85.220326804, 31.394013695 ], [ -85.220539503, 31.393028393 ], [ -85.220752902, 31.3927304 ], [ -85.221420005, 31.3921801 ], [ -85.221553206, 31.391813494 ], [ -85.221446306, 31.391607396 ], [ -85.2213917, 31.390461899 ], [ -85.221204206, 31.3898893 ], [ -85.220509507, 31.389477395 ], [ -85.219948202, 31.388950899 ], [ -85.219573706, 31.388309695 ], [ -85.2194665, 31.387966096 ], [ -85.219439305, 31.387324698 ], [ -85.219545901, 31.387072593 ], [ -85.219518207, 31.386018798 ], [ -85.219303206, 31.384575598 ], [ -85.219248004, 31.382674098 ], [ -85.219380505, 31.381505594 ], [ -85.219058603, 31.379993796 ], [ -85.218978405, 31.379925095 ], [ -85.218871102, 31.379352398 ], [ -85.218816906, 31.378458999 ], [ -85.218495302, 31.377130494 ], [ -85.218227506, 31.376351699 ], [ -85.217452005, 31.375183798 ], [ -85.216275506, 31.373351894 ], [ -85.2154724, 31.371015593 ], [ -85.215365306, 31.370717898 ], [ -85.214856401, 31.368885398 ], [ -85.214615807, 31.368518896 ], [ -85.213332802, 31.3669848 ], [ -85.213065304, 31.366549693 ], [ -85.211809605, 31.365450896 ], [ -85.209245406, 31.364169493 ], [ -85.208978102, 31.363848895 ], [ -85.208710603, 31.3632534 ], [ -85.208550304, 31.363070294 ], [ -85.207188405, 31.362727493 ], [ -85.205079503, 31.363095298 ], [ -85.202649906, 31.362959199 ], [ -85.202302806, 31.362821899 ], [ -85.201501407, 31.362318397 ], [ -85.201074101, 31.362135395 ], [ -85.200326607, 31.362112895 ], [ -85.1999529, 31.362204693 ], [ -85.198218301, 31.363282293 ], [ -85.197497606, 31.363603495 ], [ -85.196216203, 31.363787495 ], [ -85.195148103, 31.363536 ], [ -85.194480605, 31.363467596 ], [ -85.192905501, 31.363628693 ] ] } },
{ "type": "Feature", "properties": { "site_no": "02343700", "nhdplus_comid": "2309129", "navigation_mode": "UM", "requested_distance_km": 12.0, "start_source": "nwissite", "start_id": "USGS-02343700", "geometry_length_km": 2.3220379743740027 }, "geometry": { "type": "LineString", "coordinates": [ [ -85.212017007, 31.4213733 ], [ -85.2123366, 31.420204699 ], [ -85.212416105, 31.419540294 ], [ -85.211613603, 31.418120295 ], [ -85.211345501, 31.416906297 ], [ -85.211265206, 31.416860595 ], [ -85.211104505, 31.416287899 ], [ -85.210810401, 31.415898599 ], [ -85.210810207, 31.415715396 ], [ -85.210730001, 31.415669598 ], [ -85.210729904, 31.415509298 ], [ -85.209419101, 31.413241893 ], [ -85.2094988, 31.412646197 ], [ -85.209658802, 31.4123483 ], [ -85.2101392, 31.411821097 ], [ -85.210539304, 31.411133595 ], [ -85.210565306, 31.410171397 ], [ -85.211099103, 31.409644194 ], [ -85.212274104, 31.409231097 ], [ -85.212888107, 31.408772498 ], [ -85.213501602, 31.407947294 ], [ -85.214168906, 31.407351196 ], [ -85.214862406, 31.406159498 ], [ -85.215209305, 31.4057469 ], [ -85.215636507, 31.405540399 ], [ -85.217025205, 31.405264594 ], [ -85.218066402, 31.404736996 ] ] } },
{ "type": "Feature", "properties": { "site_no": "02343700", "nhdplus_comid": "2309057", "navigation_mode": "UM", "requested_distance_km": 12.0, "start_source": "nwissite", "start_id": "USGS-02343700", "geometry_length_km": 0.93332975829851561 }, "geometry": { "type": "LineString", "coordinates": [ [ -85.203470007, 31.4236921 ], [ -85.203924201, 31.423829399 ], [ -85.206622504, 31.4237362 ], [ -85.208545603, 31.4233227 ], [ -85.209988005, 31.422909394 ], [ -85.211216703, 31.422679596 ], [ -85.211590603, 31.4224732 ], [ -85.211884201, 31.422198094 ], [ -85.211830206, 31.421625398 ], [ -85.212017007, 31.4213733 ] ] } }
]
}
