{
"type": "FeatureCollection",
"name": "USGS_02419000_UM_12km",
"crs": { "type": "name", "properties": { "name": "urn:ogc:def:crs:OGC:1.3:CRS84" } },
"features": [
{ "type": "Feature", "properties": { "site_no": "02419000", "nhdplus_comid": "21717690", "navigation_mode": "UM", "requested_distance_km": 12.0, "start_source": "nwissite", "start_id": "USGS-02419000", "geometry_length_km": 1.6794849374953902 }, "geometry": { "type": "LineString", "coordinates": [ [ -85.684999205, 32.473840497 ], [ -85.6855947, 32.473894894 ], [ -85.686788507, 32.475140594 ], [ -85.686347701, 32.477373697 ], [ -85.686897404, 32.478939399 ], [ -85.6877096, 32.479644999 ], [ -85.688916907, 32.479628995 ], [ -85.690302603, 32.478239998 ], [ -85.691937305, 32.477252595 ], [ -85.693128407, 32.477361299 ], [ -85.693824202, 32.4778037 ], [ -85.694866307, 32.477898799 ], [ -85.695756776, 32.477298871 ] ] } },
{ "type": "Feature", "properties": { "site_no": "02419000", "nhdplus_comid": "21717704", "navigation_mode": "UM", "requested_distance_km": 12.0, "start_source": "nwissite", "start_id": "USGS-02419000", "geometry_length_km": 0.39022065000788486 }, "geometry": { "type": "LineString", "coordinates": [ [ -85.684064902, 32.470597796 ], [ -85.684430405, 32.471262693 ], [ -85.684252001, 32.472635597 ], [ -85.684468605, 32.473286897 ], [ -85.684999205, 32.473840497 ] ] } },
{ "type": "Feature", "properties": { "site_no": "02419000", "nhdplus_comid": "21717722", "navigation_mode": "UM", "requested_distance_km": 12.0, "start_source": "nwissite", "start_id": "USGS-02419000", "geometry_length_km": 1.0165847204390794 }, "geometry": { "type": "LineString", "coordinates": [ [ -85.674595207, 32.468014494 ], [ -85.674781106, 32.467854694 ], [ -85.676120907, 32.467977196 ], [ -85.677411906, 32.468474194 ], [ -85.6797316, 32.4703281 ], [ -85.680922501, 32.470436998 ], [ -85.682624906, 32.470087394 ], [ -85.683667004, 32.470182598 ], [ -85.684064902, 32.470597796 ] ] } },
{ "type": "Feature", "properties": { "site_no": "02419000", "nhdplus_comid": "21717890", "navigation_mode": "UM", "requested_distance_km": 12.0, "start_source": "nwissite", "start_id": "USGS-02419000", "geometry_length_km": 0.25171697577199065 }, "geometry": { "type": "LineString", "coordinates": [ [ -85.671913706, 32.468209796 ], [ -85.6739121, 32.468087599 ], [ -85.674595207, 32.468014494 ] ] } },
{ "type": "Feature", "properties": { "site_no": "02419000", "nhdplus_comid": "21717248", "navigation_mode": "UM", "requested_distance_km": 12.0, "start_source": "nwissite", "start_id": "USGS-02419000", "geometry_length_km": 1.4842950609366818 }, "geometry": { "type": "LineString", "coordinates": [ [ -85.671179004, 32.456457697 ], [ -85.672314204, 32.457327895 ], [ -85.673774004, 32.458908096 ], [ -85.674422801, 32.459617995 ], [ -85.674478203, 32.462115198 ], [ -85.674154803, 32.464085497 ], [ -85.673858002, 32.465093598 ], [ -85.673480004, 32.465643495 ], [ -85.671994403, 32.467385098 ], [ -85.671913706, 32.468209796 ] ] } },
{ "type": "Feature", "properties": { "site_no": "02419000", "nhdplus_comid": "21714798", "navigation_mode": "UM", "requested_distance_km": 12.0, "start_source": "nwissite", "start_id": "USGS-02419000", "geometry_length_km": 1.1790032590287565 }, "geometry": { "type": "LineString", "coordinates": [ [ -85.661693305, 32.452405199 ], [ -85.661774404, 32.452611394 ], [ -85.661477506, 32.453390397 ], [ -85.661504604, 32.4537341 ], [ -85.661910005, 32.453985997 ], [ -85.663180001, 32.454191796 ], [ -85.663531303, 32.454283394 ], [ -85.664369203, 32.454947598 ], [ -85.665017806, 32.4552681 ], [ -85.665531203, 32.455382496 ], [ -85.667314604, 32.455290399 ], [ -85.667963102, 32.455519296 ], [ -85.668963306, 32.456572793 ], [ -85.669179507, 32.4566186 ], [ -85.670557402, 32.456366196 ], [ -85.671179004, 32.456457697 ] ] } },
{ "type": "Feature", "properties": { "site_no": "02419000", "nhdplus_comid": "21714872", "navigation_mode": "UM", "requested_distance_km": 12.0, "start_source": "nwissite", "start_id": "USGS-02419000", "geometry_length_km": 3.1146229466707549 }, "geometry": { "type": "LineString", "coordinates": [ [ -85.641697802, 32.440885097 ], [ -85.6433459, 32.4420074 ], [ -85.644129403, 32.442213498 ], [ -85.6449669, 32.442167699 ], [ -85.646128602, 32.441869698 ], [ -85.6464798, 32.441892594 ], [ -85.646831006, 32.442052893 ], [ -85.646912105, 32.442236096 ], [ -85.647047304, 32.443037897 ], [ -85.647263505, 32.443518996 ], [ -85.647587806, 32.443885595 ], [ -85.648155302, 32.445305899 ], [ -85.648560703, 32.446084797 ], [ -85.648696102, 32.447092697 ], [ -85.649128504, 32.447619595 ], [ -85.649587803, 32.447940193 ], [ -85.650371403, 32.448215097 ], [ -85.650749907, 32.448970899 ], [ -85.650722906, 32.449360393 ], [ -85.650344804, 32.449956097 ], [ -85.650425903, 32.450643398 ], [ -85.650507003, 32.450895399 ], [ -85.6506963, 32.451055698 ], [ -85.651344702, 32.451147296 ], [ -85.654424906, 32.4513072 ], [ -85.6551814, 32.451398693 ], [ -85.655857004, 32.451696299 ], [ -85.656289406, 32.452085696 ], [ -85.656532705, 32.452589594 ], [ -85.656749107, 32.4537808 ], [ -85.657073505, 32.454353496 ], [ -85.657424904, 32.4544909 ], [ -85.658046201, 32.4543304 ], [ -85.658370405, 32.454169899 ], [ -85.658505403, 32.453803398 ], [ -85.658424206, 32.453093193 ], [ -85.658613302, 32.452795297 ], [ -85.658856407, 32.452543296 ], [ -85.659828901, 32.4520391 ], [ -85.660558507, 32.452084795 ], [ -85.661693305, 32.452405199 ] ] } },
{ "type": "Feature", "properties": { "site_no": "02419000", "nhdplus_comid": "21714932", "navigation_mode": "UM", "requested_distance_km": 12.0, "start_source": "nwissite", "start_id": "USGS-02419000", "geometry_length_km": 1.3542725823128723 }, "geometry": { "type": "LineString", "coordinates": [ [ -85.631161705, 32.434081398 ], [ -85.631377704, 32.434745796 ], [ -85.631620906, 32.435112394 ], [ -85.631999105, 32.435478896 ], [ -85.632512301, 32.435730897 ], [ -85.634349301, 32.436120294 ], [ -85.635294802, 32.437013797 ], [ -85.635646105, 32.437174097 ], [ -85.6361323, 32.437586397 ], [ -85.636726603, 32.4387777 ], [ -85.637348101, 32.439281695 ], [ -85.638239704, 32.439694099 ], [ -85.638726003, 32.439762697 ], [ -85.640238807, 32.439648099 ], [ -85.640752107, 32.439831294 ], [ -85.641238406, 32.440243699 ], [ -85.641697802, 32.440885097 ] ] } },
{ "type": "Feature", "properties": { "site_no": "02419000", "nhdplus_comid": "21715000", "navigation_mode": "UM", "requested_distance_km": 12.0, "start_source": "nwissite", "start_id": "USGS-02419000", "geometry_length_km": 1.4847379426282794 }, "geometry": { "type": "LineString", "coordinates": [ [ -85.622464001, 32.425788097 ], [ -85.622950204, 32.426131696 ], [ -85.623517305, 32.426796094 ], [ -85.623976506, 32.426956497 ], [ -85.624949001, 32.426681697 ], [ -85.625516303, 32.426429696 ], [ -85.626002401, 32.426544197 ], [ -85.626488604, 32.427368999 ], [ -85.6271099, 32.428079195 ], [ -85.628028207, 32.430049397 ], [ -85.628325306, 32.430370197 ], [ -85.628811501, 32.430484697 ], [ -85.630459204, 32.430645198 ], [ -85.630675405, 32.430782594 ], [ -85.630945504, 32.431515597 ], [ -85.631269701, 32.433646195 ], [ -85.631161705, 32.434081398 ] ] } }
]
}
