{
"type": "FeatureCollection",
"name": "USGS_02424500_UM_12km",
"crs": { "type": "name", "properties": { "name": "urn:ogc:def:crs:OGC:1.3:CRS84" } },
"features": [
{ "type": "Feature", "properties": { "site_no": "02424500", "nhdplus_comid": "21662014", "navigation_mode": "UM", "requested_distance_km": 12.0, "start_source": "nwissite", "start_id": "USGS-02424500", "geometry_length_km": 0.39720494034670345 }, "geometry": { "type": "LineString", "coordinates": [ [ -87.2418615, 32.671595193 ], [ -87.241961904, 32.668640897 ], [ -87.241782135, 32.668054378 ] ] } },
{ "type": "Feature", "properties": { "site_no": "02424500", "nhdplus_comid": "21662008", "navigation_mode": "UM", "requested_distance_km": 12.0, "start_source": "nwissite", "start_id": "USGS-02424500", "geometry_length_km": 0.11067285874669051 }, "geometry": { "type": "LineString", "coordinates": [ [ -87.241384201, 32.672503598 ], [ -87.2418615, 32.671595193 ] ] } },
{ "type": "Feature", "properties": { "site_no": "02424500", "nhdplus_comid": "21662006", "navigation_mode": "UM", "requested_distance_km": 12.0, "start_source": "nwissite", "start_id": "USGS-02424500", "geometry_length_km": 1.5077411851898139 }, "geometry": { "type": "LineString", "coordinates": [ [ -87.247999005, 32.683830597 ], [ -87.247795604, 32.682704195 ], [ -87.247443803, 32.681794696 ], [ -87.246208705, 32.680690996 ], [ -87.244049005, 32.679767996 ], [ -87.242963403, 32.678675793 ], [ -87.241894305, 32.676072299 ], [ -87.241841502, 32.675185896 ], [ -87.2415701, 32.6749129 ], [ -87.241666801, 32.674037993 ], [ -87.241409302, 32.673639998 ], [ -87.241384201, 32.672503598 ] ] } },
{ "type": "Feature", "properties": { "site_no": "02424500", "nhdplus_comid": "21662132", "navigation_mode": "UM", "requested_distance_km": 12.0, "start_source": "nwissite", "start_id": "USGS-02424500", "geometry_length_km": 1.5954200329794892 }, "geometry": { "type": "LineString", "coordinates": [ [ -87.241050206, 32.691888496 ], [ -87.241839305, 32.691571295 ], [ -87.242343105, 32.691106096 ], [ -87.242304206, 32.690094694 ], [ -87.239534803, 32.687864095 ], [ -87.239617802, 32.687114298 ], [ -87.240271106, 32.686660595 ], [ -87.241998702, 32.686037794 ], [ -87.243385807, 32.685766794 ], [ -87.244133405, 32.685824499 ], [ -87.245847203, 32.685326695 ], [ -87.247140005, 32.684544198 ], [ -87.247999005, 32.683830597 ] ] } },
{ "type": "Feature", "properties": { "site_no": "02424500", "nhdplus_comid": "21662000", "navigation_mode": "UM", "requested_distance_km": 12.0, "start_source": "nwissite", "start_id": "USGS-02424500", "geometry_length_km": 2.2688997669983446 }, "geometry": { "type": "LineString", "coordinates": [ [ -87.232401207, 32.707353197 ], [ -87.233206905, 32.705524899 ], [ -87.234638505, 32.703492895 ], [ -87.234859802, 32.701493397 ], [ -87.233965203, 32.7000378 ], [ -87.233898707, 32.699276395 ], [ -87.234120004, 32.697276793 ], [ -87.234488204, 32.696675099 ], [ -87.235133104, 32.6935739 ], [ -87.236005202, 32.692506999 ], [ -87.236985303, 32.6918265 ], [ -87.237760603, 32.691634297 ], [ -87.241050206, 32.691888496 ] ] } },
{ "type": "Feature", "properties": { "site_no": "02424500", "nhdplus_comid": "21661988", "navigation_mode": "UM", "requested_distance_km": 12.0, "start_source": "nwissite", "start_id": "USGS-02424500", "geometry_length_km": 0.11098927049978304 }, "geometry": { "type": "LineString", "coordinates": [ [ -87.232753001, 32.708262697 ], [ -87.232481502, 32.707989596 ], [ -87.232401207, 32.707353197 ] ] } },
{ "type": "Feature", "properties": { "site_no": "02424500", "nhdplus_comid": "21661990", "navigation_mode": "UM", "requested_distance_km": 12.0, "start_source": "nwissite", "start_id": "USGS-02424500", "geometry_length_km": 1.597923326822275 }, "geometry": { "type": "LineString", "coordinates": [ [ -87.244954303, 32.713868596 ], [ -87.243120402, 32.712718695 ], [ -87.241627306, 32.711216994 ], [ -87.240773804, 32.709386595 ], [ -87.238588303, 32.707327195 ], [ -87.237405702, 32.707109794 ], [ -87.237092704, 32.707211599 ], [ -87.235267803, 32.708709098 ], [ -87.234805301, 32.708799399 ], [ -87.233160205, 32.7086723 ], [ -87.232753001, 32.708262697 ] ] } },
{ "type": "Feature", "properties": { "site_no": "02424500", "nhdplus_comid": "21661980", "navigation_mode": "UM", "requested_distance_km": 12.0, "start_source": "nwissite", "start_id": "USGS-02424500", "geometry_length_km": 0.95033337073567914 }, "geometry": { "type": "LineString", "coordinates": [ [ -87.254060902, 32.716776796 ], [ -87.252932101, 32.716752797 ], [ -87.250879504, 32.716216296 ], [ -87.247752301, 32.715848997 ], [ -87.245403007, 32.713903196 ], [ -87.244954303, 32.713868596 ] ] } },
{ "type": "Feature", "properties": { "site_no": "02424500", "nhdplus_comid": "21661974", "navigation_mode": "UM", "requested_distance_km": 12.0, "start_source": "nwissite", "start_id": "USGS-02424500", "geometry_length_km": 1.6317303568294215 }, "geometry": { "type": "LineString", "coordinates": [ [ -87.257787004, 32.725382194 ], [ -87.257040203, 32.724631496 ], [ -87.256837606, 32.723733693 ], [ -87.255887106, 32.722778194 ], [ -87.253806703, 32.722491696 ], [ -87.2529919, 32.721672699 ], [ -87.253088705, 32.720797896 ], [ -87.254232407, 32.720003895 ], [ -87.256367907, 32.719790399 ], [ -87.257171102, 32.7193482 ], [ -87.257240102, 32.718723297 ], [ -87.256696902, 32.718177296 ], [ -87.254060902, 32.716776796 ] ] } },
{ "type": "Feature", "properties": { "site_no": "02424500", "nhdplus_comid": "21661968", "navigation_mode": "UM", "requested_distance_km": 12.0, "start_source": "nwissite", "start_id": "USGS-02424500", "geometry_length_km": 0.72511733501975728 }, "geometry": { "type": "LineString", "coordinates": [ [ -87.258894905, 32.721497595 ], [ -87.258091703, 32.721939795 ], [ -87.257995106, 32.722814597 ], [ -87.259937607, 32.724350594 ], [ -87.259868607, 32.724975497 ], [ -87.259051703, 32.725542694 ], [ -87.257787004, 32.725382194 ] ] } },
{ "type": "Feature", "properties": { "site_no": "02424500", "nhdplus_comid": "21661970", "navigation_mode": "UM", "requested_distance_km": 12.0, "start_source": "nwissite", "start_id": "USGS-02424500", "geometry_length_km": 2.621356384751929 }, "geometry": { "type": "LineString", "coordinates": [ [ -87.2644279, 32.741080396 ], [ -87.265081502, 32.740626596 ], [ -87.265219405, 32.739376999 ], [ -87.2647589, 32.738081194 ], [ -87.264107302, 32.737148896 ], [ -87.264217705, 32.736149095 ], [ -87.264885105, 32.735570394 ], [ -87.265089802, 32.735081993 ], [ -87.265296705, 32.733207494 ], [ -87.265271202, 32.732071199 ], [ -87.264999606, 32.731798299 ], [ -87.264730006, 32.730139099 ], [ -87.265074804, 32.727014899 ], [ -87.264655605, 32.725344196 ], [ -87.2639511, 32.723525494 ], [ -87.262742706, 32.722172096 ], [ -87.258894905, 32.721497595 ] ] } }
]
}
