{
"type": "FeatureCollection",
"name": "USGS_02460500_DM_12km",
"crs": { "type": "name", "properties": { "name": "urn:ogc:def:crs:OGC:1.3:CRS84" } },
"features": [
{ "type": "Feature", "properties": { "site_no": "02460500", "nhdplus_comid": "18567389", "navigation_mode": "DM", "requested_distance_km": 12.0, "start_source": "nwissite", "start_id": "USGS-02460500", "geometry_length_km": 0.32397322271491374 }, "geometry": { "type": "LineString", "coordinates": [ [ -87.006997622, 33.605956503 ], [ -87.006009705, 33.6059376 ], [ -87.005845204, 33.606051899 ], [ -87.005571201, 33.606211998 ], [ -87.005214401, 33.606807299 ], [ -87.005103603, 33.607769497 ] ] } }
]
}
