{
"type": "FeatureCollection",
"name": "USGS_02418770_UM_12km",
"crs": { "type": "name", "properties": { "name": "urn:ogc:def:crs:OGC:1.3:CRS84" } },
"features": [
{ "type": "Feature", "properties": { "site_no": "02418770", "nhdplus_comid": "21713168", "navigation_mode": "UM", "requested_distance_km": 12.0, "start_source": "nwissite", "start_id": "USGS-02418770", "geometry_length_km": 0.46292755395266871 }, "geometry": { "type": "LineString", "coordinates": [ [ -85.495964602, 32.596669994 ], [ -85.495909706, 32.596097298 ], [ -85.495692201, 32.595318593 ], [ -85.495610602, 32.594952196 ], [ -85.495826304, 32.594425097 ], [ -85.496013701, 32.592821397 ], [ -85.496082072, 32.592593246 ] ] } },
{ "type": "Feature", "properties": { "site_no": "02418770", "nhdplus_comid": "21712316", "navigation_mode": "UM", "requested_distance_km": 12.0, "start_source": "nwissite", "start_id": "USGS-02418770", "geometry_length_km": 1.1770602815956355 }, "geometry": { "type": "LineString", "coordinates": [ [ -85.495246202, 32.606200196 ], [ -85.495461904, 32.6055815 ], [ -85.496407904, 32.604664199 ], [ -85.497461602, 32.6032888 ], [ -85.497650601, 32.602922194 ], [ -85.497677006, 32.602395199 ], [ -85.497838803, 32.602005698 ], [ -85.497919202, 32.601387098 ], [ -85.497458205, 32.6007002 ], [ -85.497240603, 32.599807099 ], [ -85.496996701, 32.599532396 ], [ -85.496860601, 32.599051498 ], [ -85.496941201, 32.598570399 ], [ -85.495991901, 32.596898898 ], [ -85.495964602, 32.596669994 ] ] } }
]
}
