{
"type": "FeatureCollection",
"name": "USGS_02462500_DM_12km",
"crs": { "type": "name", "properties": { "name": "urn:ogc:def:crs:OGC:1.3:CRS84" } },
"features": [
{ "type": "Feature", "properties": { "site_no": "02462500", "nhdplus_comid": "18232673", "navigation_mode": "DM", "requested_distance_km": 12.0, "start_source": "nwissite", "start_id": "USGS-02462500", "geometry_length_km": 0.020977075026564287 }, "geometry": { "type": "LineString", "coordinates": [ [ -87.356160976, 33.458636661 ], [ -87.356213406, 33.458453894 ] ] } },
{ "type": "Feature", "properties": { "site_no": "02462500", "nhdplus_comid": "18229351", "navigation_mode": "DM", "requested_distance_km": 12.0, "start_source": "nwissite", "start_id": "USGS-02462500", "geometry_length_km": 0.57400400331139978 }, "geometry": { "type": "LineString", "coordinates": [ [ -87.356213406, 33.458453894 ], [ -87.356285706, 33.458201796 ], [ -87.356821306, 33.457486898 ], [ -87.357096307, 33.456374697 ], [ -87.358483203, 33.454842798 ], [ -87.358964004, 33.453934893 ] ] } },
{ "type": "Feature", "properties": { "site_no": "02462500", "nhdplus_comid": "18229361", "navigation_mode": "DM", "requested_distance_km": 12.0, "start_source": "nwissite", "start_id": "USGS-02462500", "geometry_length_km": 0.50645658263192694 }, "geometry": { "type": "LineString", "coordinates": [ [ -87.358964004, 33.453934893 ], [ -87.359705403, 33.453424297 ], [ -87.360076204, 33.452822894 ], [ -87.362218, 33.451347798 ], [ -87.363082901, 33.451098293 ] ] } },
{ "type": "Feature", "properties": { "site_no": "02462500", "nhdplus_comid": "18229365", "navigation_mode": "DM", "requested_distance_km": 12.0, "start_source": "nwissite", "start_id": "USGS-02462500", "geometry_length_km": 0.41152450312342831 }, "geometry": { "type": "LineString", "coordinates": [ [ -87.363082901, 33.451098293 ], [ -87.364318505, 33.450247295 ], [ -87.366995305, 33.449441895 ] ] } },
{ "type": "Feature", "properties": { "site_no": "02462500", "nhdplus_comid": "18229371", "navigation_mode": "DM", "requested_distance_km": 12.0, "start_source": "nwissite", "start_id": "USGS-02462500", "geometry_length_km": 0.25814791079790356 }, "geometry": { "type": "LineString", "coordinates": [ [ -87.366995305, 33.449441895 ], [ -87.369274102, 33.448102899 ] ] } },
{ "type": "Feature", "properties": { "site_no": "02462500", "nhdplus_comid": "18229387", "navigation_mode": "DM", "requested_distance_km": 12.0, "start_source": "nwissite", "start_id": "USGS-02462500", "geometry_length_km": 1.8258043267309498 }, "geometry": { "type": "LineString", "coordinates": [ [ -87.369274102, 33.448102899 ], [ -87.371896103, 33.446412094 ], [ -87.374284707, 33.444074295 ], [ -87.375739805, 33.441917896 ], [ -87.376028307, 33.439296097 ], [ -87.376481302, 33.4379455 ], [ -87.378430404, 33.435448594 ], [ -87.3794185, 33.434767596 ] ] } },
{ "type": "Feature", "properties": { "site_no": "02462500", "nhdplus_comid": "18229391", "navigation_mode": "DM", "requested_distance_km": 12.0, "start_source": "nwissite", "start_id": "USGS-02462500", "geometry_length_km": 0.040817741378464022 }, "geometry": { "type": "LineString", "coordinates": [ [ -87.3794185, 33.434767596 ], [ -87.379816502, 33.434608698 ] ] } },
{ "type": "Feature", "properties": { "site_no": "02462500", "nhdplus_comid": "18229425", "navigation_mode": "DM", "requested_distance_km": 12.0, "start_source": "nwissite", "start_id": "USGS-02462500", "geometry_length_km": 3.092727265350284 }, "geometry": { "type": "LineString", "coordinates": [ [ -87.379816502, 33.434608698 ], [ -87.382602505, 33.4321118 ], [ -87.384908006, 33.429138094 ], [ -87.388667606, 33.422622994 ], [ -87.3896005, 33.419671796 ], [ -87.390286304, 33.416198596 ], [ -87.390684105, 33.415347293 ], [ -87.390848607, 33.413848996 ], [ -87.391671702, 33.411896698 ], [ -87.391808704, 33.410648197 ], [ -87.3923437, 33.409933098 ], [ -87.391904704, 33.409774199 ] ] } },
{ "type": "Feature", "properties": { "site_no": "02462500", "nhdplus_comid": "18229453", "navigation_mode": "DM", "requested_distance_km": 12.0, "start_source": "nwissite", "start_id": "USGS-02462500", "geometry_length_km": 1.590152740996496 }, "geometry": { "type": "LineString", "coordinates": [ [ -87.391904704, 33.409774199 ], [ -87.392233901, 33.409547098 ], [ -87.392426006, 33.409183897 ], [ -87.392755203, 33.4089569 ], [ -87.393619202, 33.406629995 ], [ -87.394949302, 33.401442595 ], [ -87.396361701, 33.398275696 ], [ -87.396443903, 33.397526495 ], [ -87.397102207, 33.39638 ] ] } },
{ "type": "Feature", "properties": { "site_no": "02462500", "nhdplus_comid": "18229461", "navigation_mode": "DM", "requested_distance_km": 12.0, "start_source": "nwissite", "start_id": "USGS-02462500", "geometry_length_km": 0.51027129699624785 }, "geometry": { "type": "LineString", "coordinates": [ [ -87.397102207, 33.39638 ], [ -87.400036804, 33.392509095 ] ] } },
{ "type": "Feature", "properties": { "site_no": "02462500", "nhdplus_comid": "18229485", "navigation_mode": "DM", "requested_distance_km": 12.0, "start_source": "nwissite", "start_id": "USGS-02462500", "geometry_length_km": 1.3498737917420662 }, "geometry": { "type": "LineString", "coordinates": [ [ -87.400036804, 33.392509095 ], [ -87.4017784, 33.390499696 ], [ -87.408538401, 33.384334996 ], [ -87.409415901, 33.383267798 ] ] } },
{ "type": "Feature", "properties": { "site_no": "02462500", "nhdplus_comid": "18229495", "navigation_mode": "DM", "requested_distance_km": 12.0, "start_source": "nwissite", "start_id": "USGS-02462500", "geometry_length_km": 0.4489092510821634 }, "geometry": { "type": "LineString", "coordinates": [ [ -87.409415901, 33.383267798 ], [ -87.411294006, 33.381394498 ], [ -87.412061602, 33.379941396 ] ] } },
{ "type": "Feature", "properties": { "site_no": "02462500", "nhdplus_comid": "18229501", "navigation_mode": "DM", "requested_distance_km": 12.0, "start_source": "nwissite", "start_id": "USGS-02462500", "geometry_length_km": 0.13999524557662998 }, "geometry": { "type": "LineString", "coordinates": [ [ -87.412061602, 33.379941396 ], [ -87.412198305, 33.378692798 ] ] } },
{ "type": "Feature", "properties": { "site_no": "02462500", "nhdplus_comid": "18229515", "navigation_mode": "DM", "requested_distance_km": 12.0, "start_source": "nwissite", "start_id": "USGS-02462500", "geometry_length_km": 1.3758910125464734 }, "geometry": { "type": "LineString", "coordinates": [ [ -87.412198305, 33.378692798 ], [ -87.412636206, 33.376081899 ], [ -87.412347704, 33.374549598 ], [ -87.409081504, 33.366876997 ] ] } }
]
}
