{
"type": "FeatureCollection",
"name": "USGS_02401390_DM_12km",
"crs": { "type": "name", "properties": { "name": "urn:ogc:def:crs:OGC:1.3:CRS84" } },
"features": [
{ "type": "Feature", "properties": { "site_no": "02401390", "nhdplus_comid": "22203349", "navigation_mode": "DM", "requested_distance_km": 12.0, "start_source": "nwissite", "start_id": "USGS-02401390", "geometry_length_km": 0.314716601435021 }, "geometry": { "type": "LineString", "coordinates": [ [ -86.263072888, 33.839900945 ], [ -86.2630601, 33.839969799 ], [ -86.262812607, 33.840267397 ], [ -86.261438407, 33.841388598 ], [ -86.261081003, 33.841800593 ], [ -86.260998406, 33.841983795 ], [ -86.260888606, 33.842006594 ] ] } },
{ "type": "Feature", "properties": { "site_no": "02401390", "nhdplus_comid": "22203343", "navigation_mode": "DM", "requested_distance_km": 12.0, "start_source": "nwissite", "start_id": "USGS-02401390", "geometry_length_km": 1.2962426076081199 }, "geometry": { "type": "LineString", "coordinates": [ [ -86.260888606, 33.842006594 ], [ -86.261327103, 33.842533894 ], [ -86.261875801, 33.842855096 ], [ -86.262122303, 33.843221799 ], [ -86.262148701, 33.8440466 ], [ -86.262009203, 33.845718794 ], [ -86.261650503, 33.847024195 ], [ -86.261402905, 33.847481996 ], [ -86.260962807, 33.848054297 ], [ -86.260412902, 33.848603599 ], [ -86.2594238, 33.849152394 ], [ -86.258325204, 33.849494994 ], [ -86.255551606, 33.849881798 ] ] } },
{ "type": "Feature", "properties": { "site_no": "02401390", "nhdplus_comid": "22204795", "navigation_mode": "DM", "requested_distance_km": 12.0, "start_source": "nwissite", "start_id": "USGS-02401390", "geometry_length_km": 0.066533280906707334 }, "geometry": { "type": "LineString", "coordinates": [ [ -86.255551606, 33.849881798 ], [ -86.255406201, 33.849843197 ], [ -86.255314, 33.849898696 ], [ -86.255221806, 33.849954195 ], [ -86.255129606, 33.850009695 ], [ -86.2550373, 33.850065194 ], [ -86.254945107, 33.850120693 ] ] } },
{ "type": "Feature", "properties": { "site_no": "02401390", "nhdplus_comid": "22204797", "navigation_mode": "DM", "requested_distance_km": 12.0, "start_source": "nwissite", "start_id": "USGS-02401390", "geometry_length_km": 0.10991539059645808 }, "geometry": { "type": "LineString", "coordinates": [ [ -86.254945107, 33.850120693 ], [ -86.254897803, 33.850072794 ], [ -86.254825607, 33.849999897 ], [ -86.2547535, 33.849926993 ], [ -86.254681401, 33.849854097 ], [ -86.254609302, 33.849781193 ], [ -86.254537202, 33.849708296 ], [ -86.254496306, 33.849693097 ], [ -86.254392207, 33.849654198 ], [ -86.254288107, 33.849615395 ], [ -86.254184105, 33.8495766 ], [ -86.254080005, 33.849537693 ], [ -86.254042104, 33.849513695 ] ] } },
{ "type": "Feature", "properties": { "site_no": "02401390", "nhdplus_comid": "22203317", "navigation_mode": "DM", "requested_distance_km": 12.0, "start_source": "nwissite", "start_id": "USGS-02401390", "geometry_length_km": 0.083342899469549883 }, "geometry": { "type": "LineString", "coordinates": [ [ -86.254042104, 33.849513695 ], [ -86.253822707, 33.849307299 ], [ -86.2536861, 33.848849095 ] ] } },
{ "type": "Feature", "properties": { "site_no": "02401390", "nhdplus_comid": "22204631", "navigation_mode": "DM", "requested_distance_km": 12.0, "start_source": "nwissite", "start_id": "USGS-02401390", "geometry_length_km": 5.1175107802130473 }, "geometry": { "type": "LineString", "coordinates": [ [ -86.2536861, 33.848849095 ], [ -86.253521405, 33.848803096 ], [ -86.253411904, 33.848619699 ], [ -86.252973102, 33.848321497 ], [ -86.252012305, 33.848228894 ], [ -86.250803702, 33.848639898 ], [ -86.249975502, 33.848735698 ], [ -86.249261603, 33.848621897 ], [ -86.248794407, 33.848278798 ], [ -86.248711005, 33.847568594 ], [ -86.248353504, 33.847110793 ], [ -86.247501805, 33.846722193 ], [ -86.247364305, 33.846539095 ], [ -86.247364007, 33.846332997 ], [ -86.247775204, 33.845874399 ], [ -86.247747406, 33.845668294 ], [ -86.247445405, 33.845576994 ], [ -86.247033603, 33.845668994 ], [ -86.246348001, 33.846127793 ], [ -86.245937005, 33.846677996 ], [ -86.245581105, 33.847502999 ], [ -86.245472103, 33.848098598 ], [ -86.2448963, 33.848648995 ], [ -86.244320102, 33.848855793 ], [ -86.243304603, 33.849062793 ], [ -86.242838502, 33.849544398 ], [ -86.242510401, 33.850598499 ], [ -86.241606705, 33.852248698 ], [ -86.241250202, 33.852638394 ], [ -86.241113305, 33.852913395 ], [ -86.241141103, 33.8531425 ], [ -86.242405504, 33.854240797 ], [ -86.244467907, 33.856529698 ], [ -86.246503301, 33.859116293 ], [ -86.247877806, 33.860283293 ], [ -86.248592302, 33.860740699 ], [ -86.2488399, 33.861061193 ], [ -86.248867601, 33.861244395 ], [ -86.248950101, 33.861290194 ], [ -86.248923607, 33.862000294 ], [ -86.248786904, 33.862389795 ], [ -86.248347901, 33.8626194 ], [ -86.247826107, 33.862596996 ], [ -86.246672206, 33.862117 ], [ -86.245958, 33.861934498 ], [ -86.245215803, 33.861362495 ], [ -86.244666606, 33.861294299 ], [ -86.2444745, 33.861363195 ], [ -86.244310006, 33.861569494 ], [ -86.2443102, 33.861775696 ], [ -86.244667806, 33.862164795 ], [ -86.244668104, 33.862416796 ], [ -86.244558506, 33.862600096 ], [ -86.242802307, 33.863472298 ], [ -86.241813801, 33.863518998 ], [ -86.240468003, 33.863268293 ], [ -86.240248404, 33.863360099 ], [ -86.240221307, 33.863634996 ], [ -86.241458602, 33.864893898 ], [ -86.241678901, 33.865260094 ], [ -86.241706803, 33.865626596 ], [ -86.241514705, 33.865741298 ], [ -86.241240107, 33.8657187 ], [ -86.240608305, 33.865490198 ], [ -86.239756204, 33.864872493 ], [ -86.239316806, 33.86485 ], [ -86.239262402, 33.865262397 ], [ -86.239895307, 33.8662697 ], [ -86.240005903, 33.866910994 ] ] } },
{ "type": "Feature", "properties": { "site_no": "02401390", "nhdplus_comid": "22203277", "navigation_mode": "DM", "requested_distance_km": 12.0, "start_source": "nwissite", "start_id": "USGS-02401390", "geometry_length_km": 0.59209312704469741 }, "geometry": { "type": "LineString", "coordinates": [ [ -86.240005903, 33.866910994 ], [ -86.2394021, 33.867071897 ], [ -86.238358706, 33.867187396 ], [ -86.2372602, 33.8671197 ], [ -86.236820601, 33.866959698 ], [ -86.236545704, 33.866707996 ], [ -86.236407802, 33.866181195 ], [ -86.234731302, 33.865128994 ] ] } },
{ "type": "Feature", "properties": { "site_no": "02401390", "nhdplus_comid": "22203275", "navigation_mode": "DM", "requested_distance_km": 12.0, "start_source": "nwissite", "start_id": "USGS-02401390", "geometry_length_km": 0.33324950732951891 }, "geometry": { "type": "LineString", "coordinates": [ [ -86.234731302, 33.865128994 ], [ -86.2344293, 33.865152098 ], [ -86.234265104, 33.865587495 ], [ -86.234156206, 33.866343595 ], [ -86.2336623, 33.866664596 ], [ -86.233223006, 33.866642199 ], [ -86.232481301, 33.866459496 ] ] } },
{ "type": "Feature", "properties": { "site_no": "02401390", "nhdplus_comid": "22203271", "navigation_mode": "DM", "requested_distance_km": 12.0, "start_source": "nwissite", "start_id": "USGS-02401390", "geometry_length_km": 1.171485631584507 }, "geometry": { "type": "LineString", "coordinates": [ [ -86.232481301, 33.866459496 ], [ -86.232261702, 33.866551295 ], [ -86.232152104, 33.866734698 ], [ -86.231906302, 33.867834397 ], [ -86.232208803, 33.868200697 ], [ -86.232483804, 33.868543997 ], [ -86.2324844, 33.868956499 ], [ -86.232182205, 33.868910894 ], [ -86.230643302, 33.868018799 ], [ -86.230176501, 33.868019097 ], [ -86.230039403, 33.868179597 ], [ -86.230067804, 33.869004399 ], [ -86.229985602, 33.869141795 ], [ -86.228722706, 33.869394794 ], [ -86.228558101, 33.869555295 ], [ -86.228503503, 33.869853199 ], [ -86.229548506, 33.871089295 ], [ -86.229768805, 33.871524297 ], [ -86.229769304, 33.872005396 ], [ -86.229632303, 33.872280397 ] ] } },
{ "type": "Feature", "properties": { "site_no": "02401390", "nhdplus_comid": "22203265", "navigation_mode": "DM", "requested_distance_km": 12.0, "start_source": "nwissite", "start_id": "USGS-02401390", "geometry_length_km": 0.86056373086511095 }, "geometry": { "type": "LineString", "coordinates": [ [ -86.229632303, 33.872280397 ], [ -86.227929801, 33.872373499 ], [ -86.227682605, 33.872281998 ], [ -86.22738, 33.871938698 ], [ -86.227379806, 33.871732496 ], [ -86.227599204, 33.871503294 ], [ -86.227956004, 33.871319696 ], [ -86.228340104, 33.8709758 ], [ -86.228367306, 33.870723799 ], [ -86.228119902, 33.870540693 ], [ -86.227515601, 33.870380893 ], [ -86.2254287, 33.870542794 ], [ -86.225016601, 33.870382898 ], [ -86.224604204, 33.870016597 ], [ -86.224164106, 33.8694214 ] ] } },
{ "type": "Feature", "properties": { "site_no": "02401390", "nhdplus_comid": "22203269", "navigation_mode": "DM", "requested_distance_km": 12.0, "start_source": "nwissite", "start_id": "USGS-02401390", "geometry_length_km": 5.5199636150098623 }, "geometry": { "type": "LineString", "coordinates": [ [ -86.224164106, 33.8694214 ], [ -86.2236147, 33.869261496 ], [ -86.2230656, 33.869353496 ], [ -86.222407505, 33.870132893 ], [ -86.221995607, 33.870133199 ], [ -86.221775703, 33.870018795 ], [ -86.221555702, 33.869744197 ], [ -86.221170306, 33.868965596 ], [ -86.220291205, 33.868622497 ], [ -86.220126301, 33.868462294 ], [ -86.220125906, 33.868210293 ], [ -86.220345303, 33.867820695 ], [ -86.220344804, 33.867408395 ], [ -86.220179901, 33.867225297 ], [ -86.219630703, 33.867271498 ], [ -86.218807302, 33.867661595 ], [ -86.218587905, 33.867867894 ], [ -86.218423605, 33.868371993 ], [ -86.218259007, 33.868486598 ], [ -86.217627503, 33.8686703 ], [ -86.217627801, 33.868876599 ], [ -86.218562007, 33.869471498 ], [ -86.218864501, 33.869791999 ], [ -86.218837403, 33.870181397 ], [ -86.218371205, 33.8707086 ], [ -86.217712402, 33.870983995 ], [ -86.216971204, 33.871190697 ], [ -86.216092207, 33.871053897 ], [ -86.215323001, 33.870756596 ], [ -86.214856103, 33.870779894 ], [ -86.214664303, 33.871077798 ], [ -86.214666404, 33.873162299 ], [ -86.214474902, 33.873895593 ], [ -86.214145906, 33.874583095 ], [ -86.213707104, 33.875110194 ], [ -86.212499507, 33.875889793 ], [ -86.211538605, 33.876119599 ], [ -86.211072005, 33.876417696 ], [ -86.210798003, 33.877150998 ], [ -86.210496403, 33.877609298 ], [ -86.209865205, 33.878113694 ], [ -86.207531802, 33.879283495 ], [ -86.206927702, 33.879421398 ], [ -86.206488401, 33.879421599 ], [ -86.205993801, 33.879215799 ], [ -86.205636404, 33.878918193 ], [ -86.205498904, 33.878620498 ], [ -86.205524303, 33.876375593 ], [ -86.205056302, 33.875115998 ], [ -86.2048086, 33.874566294 ], [ -86.204341106, 33.873787694 ], [ -86.204120904, 33.873192295 ], [ -86.203791, 33.872848794 ], [ -86.203186706, 33.8726888 ], [ -86.202417806, 33.872689396 ], [ -86.201703802, 33.872827195 ], [ -86.2009627, 33.873102494 ], [ -86.200496003, 33.8733318 ], [ -86.1988772, 33.875096798 ], [ -86.197861806, 33.875990696 ], [ -86.197230503, 33.876403295 ], [ -86.196763903, 33.876861796 ], [ -86.196517102, 33.877251297 ], [ -86.196517803, 33.878190599 ], [ -86.196600303, 33.878236294 ], [ -86.196738005, 33.878740199 ], [ -86.197068207, 33.879473098 ], [ -86.197508201, 33.880251594 ], [ -86.198415302, 33.881236196 ], [ -86.199734502, 33.882334895 ], [ -86.200806201, 33.882929996 ], [ -86.200779103, 33.883388199 ] ] } }
]
}
