{
"type": "FeatureCollection",
"name": "USGS_02461130_DM_12km",
"crs": { "type": "name", "properties": { "name": "urn:ogc:def:crs:OGC:1.3:CRS84" } },
"features": [
{ "type": "Feature", "properties": { "site_no": "02461130", "nhdplus_comid": "18223461", "navigation_mode": "DM", "requested_distance_km": 12.0, "start_source": "nwissite", "start_id": "USGS-02461130", "geometry_length_km": 1.9049045106980049 }, "geometry": { "type": "LineString", "coordinates": [ [ -86.83739453, 33.503535225 ], [ -86.838702001, 33.504083499 ], [ -86.839795604, 33.504633598 ], [ -86.839987002, 33.504702397 ], [ -86.841901504, 33.504427999 ], [ -86.845456704, 33.5037416 ], [ -86.848574504, 33.5028717 ], [ -86.851883605, 33.501841396 ], [ -86.856150001, 33.500444695 ], [ -86.856697001, 33.500114299 ] ] } },
{ "type": "Feature", "properties": { "site_no": "02461130", "nhdplus_comid": "18225339", "navigation_mode": "DM", "requested_distance_km": 12.0, "start_source": "nwissite", "start_id": "USGS-02461130", "geometry_length_km": 4.7081281390193377 }, "geometry": { "type": "LineString", "coordinates": [ [ -86.856697001, 33.500114299 ], [ -86.857079901, 33.499826595 ], [ -86.858064301, 33.499460094 ], [ -86.860197507, 33.498337798 ], [ -86.861947604, 33.497650698 ], [ -86.863533802, 33.496574096 ], [ -86.864053302, 33.496299297 ], [ -86.865994804, 33.4957496 ], [ -86.869057305, 33.4946502 ], [ -86.869686306, 33.494283594 ], [ -86.870479107, 33.4939401 ], [ -86.8722018, 33.492794596 ], [ -86.872748703, 33.491923995 ], [ -86.873295404, 33.4901371 ], [ -86.873623401, 33.488052398 ], [ -86.874060906, 33.487227693 ], [ -86.874498405, 33.486883998 ], [ -86.874990605, 33.486677796 ], [ -86.876166306, 33.4862196 ], [ -86.876986504, 33.485532299 ], [ -86.877587907, 33.484890893 ], [ -86.878298804, 33.483951494 ], [ -86.8791463, 33.482508093 ], [ -86.879693106, 33.481774993 ], [ -86.882016905, 33.479919299 ], [ -86.883137703, 33.478956997 ], [ -86.884695806, 33.477146998 ], [ -86.885242507, 33.476390898 ], [ -86.8874835, 33.472358599 ], [ -86.887729503, 33.471556798 ], [ -86.887920603, 33.469861299 ] ] } },
{ "type": "Feature", "properties": { "site_no": "02461130", "nhdplus_comid": "18225345", "navigation_mode": "DM", "requested_distance_km": 12.0, "start_source": "nwissite", "start_id": "USGS-02461130", "geometry_length_km": 0.27077957278791559 }, "geometry": { "type": "LineString", "coordinates": [ [ -86.887920603, 33.469861299 ], [ -86.888002604, 33.469769798 ], [ -86.888057001, 33.4686701 ], [ -86.888221003, 33.468349293 ], [ -86.888740405, 33.467868194 ], [ -86.888822302, 33.467661999 ] ] } },
{ "type": "Feature", "properties": { "site_no": "02461130", "nhdplus_comid": "18225353", "navigation_mode": "DM", "requested_distance_km": 12.0, "start_source": "nwissite", "start_id": "USGS-02461130", "geometry_length_km": 1.0853101812381254 }, "geometry": { "type": "LineString", "coordinates": [ [ -86.888822302, 33.467661999 ], [ -86.889041007, 33.467593193 ], [ -86.890188903, 33.466539197 ], [ -86.890626207, 33.466378793 ], [ -86.894043103, 33.465897195 ], [ -86.894453101, 33.465736799 ], [ -86.895327605, 33.464843199 ], [ -86.895354606, 33.463812299 ], [ -86.895737104, 33.4631477 ], [ -86.8960924, 33.462918594 ], [ -86.897431701, 33.462506093 ] ] } },
{ "type": "Feature", "properties": { "site_no": "02461130", "nhdplus_comid": "18225367", "navigation_mode": "DM", "requested_distance_km": 12.0, "start_source": "nwissite", "start_id": "USGS-02461130", "geometry_length_km": 2.197414527646647 }, "geometry": { "type": "LineString", "coordinates": [ [ -86.897431701, 33.462506093 ], [ -86.899263106, 33.462505795 ], [ -86.899481706, 33.462436996 ], [ -86.902077906, 33.460672393 ], [ -86.905821405, 33.4577161 ], [ -86.907324404, 33.456753694 ], [ -86.907980204, 33.456501395 ], [ -86.909401402, 33.456294797 ], [ -86.910193905, 33.455951095 ], [ -86.910740301, 33.455492698 ], [ -86.912980303, 33.452719897 ], [ -86.9134994, 33.452421896 ], [ -86.914046004, 33.452352993 ], [ -86.916123606, 33.453039698 ] ] } },
{ "type": "Feature", "properties": { "site_no": "02461130", "nhdplus_comid": "18225373", "navigation_mode": "DM", "requested_distance_km": 12.0, "start_source": "nwissite", "start_id": "USGS-02461130", "geometry_length_km": 1.8411305215184814 }, "geometry": { "type": "LineString", "coordinates": [ [ -86.916123606, 33.453039698 ], [ -86.917380907, 33.453337096 ], [ -86.918993406, 33.453313693 ], [ -86.919785805, 33.4529927 ], [ -86.919977106, 33.4528322 ], [ -86.920195505, 33.452396795 ], [ -86.920740902, 33.4501056 ], [ -86.9210959, 33.449486896 ], [ -86.921860904, 33.449097194 ], [ -86.922707401, 33.447859697 ], [ -86.923499607, 33.447217993 ], [ -86.924155101, 33.446484499 ], [ -86.924209505, 33.446003497 ], [ -86.924017906, 33.445522398 ], [ -86.923635103, 33.444995597 ], [ -86.923033603, 33.444514699 ], [ -86.921639405, 33.443644598 ], [ -86.920955807, 33.443117999 ], [ -86.920655005, 33.4426599 ], [ -86.920709305, 33.442064196 ] ] } }
]
}
