{
"type": "FeatureCollection",
"name": "USGS_02449245_UM_12km",
"crs": { "type": "name", "properties": { "name": "urn:ogc:def:crs:OGC:1.3:CRS84" } },
"features": [
{ "type": "Feature", "properties": { "site_no": "02449245", "nhdplus_comid": "18632060", "navigation_mode": "UM", "requested_distance_km": 12.0, "start_source": "nwissite", "start_id": "USGS-02449245", "geometry_length_km": 0.15874798425542885 }, "geometry": { "type": "LineString", "coordinates": [ [ -87.9811166, 32.832188293 ], [ -87.981143601, 32.832050793 ], [ -87.981550306, 32.831752695 ], [ -87.982228301, 32.831522994 ], [ -87.982446699, 32.831397051 ] ] } },
{ "type": "Feature", "properties": { "site_no": "02449245", "nhdplus_comid": "18632044", "navigation_mode": "UM", "requested_distance_km": 12.0, "start_source": "nwissite", "start_id": "USGS-02449245", "geometry_length_km": 1.9787007680415831 }, "geometry": { "type": "LineString", "coordinates": [ [ -87.975378804, 32.845274799 ], [ -87.975377902, 32.844404295 ], [ -87.975893207, 32.844105996 ], [ -87.9759202, 32.843968496 ], [ -87.975729801, 32.843647897 ], [ -87.975538507, 32.842525497 ], [ -87.9760812, 32.842341699 ], [ -87.976135202, 32.842112593 ], [ -87.975645706, 32.841242395 ], [ -87.975482106, 32.8406699 ], [ -87.975698903, 32.840417594 ], [ -87.976187401, 32.840302594 ], [ -87.976567, 32.840050399 ], [ -87.976566702, 32.839775398 ], [ -87.975697406, 32.839157596 ], [ -87.9756153, 32.8385849 ], [ -87.976076305, 32.838217996 ], [ -87.977541305, 32.837827295 ], [ -87.977758102, 32.837597996 ], [ -87.978571907, 32.837368198 ], [ -87.978516802, 32.836635098 ], [ -87.978869304, 32.836382799 ], [ -87.979113102, 32.836015999 ], [ -87.979764007, 32.835625999 ], [ -87.979709007, 32.835053295 ], [ -87.980007105, 32.834686495 ], [ -87.980224006, 32.834594697 ], [ -87.980983704, 32.834502399 ], [ -87.981037803, 32.8343191 ], [ -87.980738901, 32.833998598 ], [ -87.9807382, 32.833494499 ], [ -87.981280103, 32.832783796 ], [ -87.981279805, 32.832463197 ], [ -87.981144004, 32.832394496 ], [ -87.9811166, 32.832188293 ] ] } },
{ "type": "Feature", "properties": { "site_no": "02449245", "nhdplus_comid": "18632024", "navigation_mode": "UM", "requested_distance_km": 12.0, "start_source": "nwissite", "start_id": "USGS-02449245", "geometry_length_km": 0.3348504651355812 }, "geometry": { "type": "LineString", "coordinates": [ [ -87.972612202, 32.846720397 ], [ -87.972693205, 32.846307896 ], [ -87.973045804, 32.846078597 ], [ -87.973832704, 32.845963396 ], [ -87.974103905, 32.845848598 ], [ -87.974212207, 32.845642298 ], [ -87.974456303, 32.845458798 ], [ -87.975378804, 32.845274799 ] ] } },
{ "type": "Feature", "properties": { "site_no": "02449245", "nhdplus_comid": "18632020", "navigation_mode": "UM", "requested_distance_km": 12.0, "start_source": "nwissite", "start_id": "USGS-02449245", "geometry_length_km": 1.931475428214714 }, "geometry": { "type": "LineString", "coordinates": [ [ -87.958725207, 32.856077895 ], [ -87.959512003, 32.855733797 ], [ -87.959701806, 32.855527498 ], [ -87.959755905, 32.855321296 ], [ -87.959891506, 32.855206698 ], [ -87.959863804, 32.854633793 ], [ -87.959754907, 32.854358897 ], [ -87.959699601, 32.853282295 ], [ -87.959916502, 32.853007197 ], [ -87.960812107, 32.8529149 ], [ -87.961679406, 32.851631299 ], [ -87.961977802, 32.851562396 ], [ -87.962547906, 32.851630695 ], [ -87.962683305, 32.851286896 ], [ -87.963144206, 32.850828394 ], [ -87.964419603, 32.850552693 ], [ -87.964609504, 32.850437999 ], [ -87.964717604, 32.850025497 ], [ -87.964907505, 32.849864997 ], [ -87.965938501, 32.849543497 ], [ -87.966155306, 32.849153899 ], [ -87.966751903, 32.848626494 ], [ -87.967104502, 32.848465793 ], [ -87.967891507, 32.848327696 ], [ -87.968244001, 32.848029695 ], [ -87.968678102, 32.8479148 ], [ -87.969111905, 32.847502097 ], [ -87.969790101, 32.847180799 ], [ -87.970332906, 32.847249098 ], [ -87.970658906, 32.847523794 ], [ -87.971066102, 32.847523496 ], [ -87.971391603, 32.847431496 ], [ -87.9719069, 32.847018793 ], [ -87.972612202, 32.846720397 ] ] } },
{ "type": "Feature", "properties": { "site_no": "02449245", "nhdplus_comid": "18632012", "navigation_mode": "UM", "requested_distance_km": 12.0, "start_source": "nwissite", "start_id": "USGS-02449245", "geometry_length_km": 2.6920179419443575 }, "geometry": { "type": "LineString", "coordinates": [ [ -87.940111101, 32.864818096 ], [ -87.940490901, 32.864428498 ], [ -87.941576406, 32.864038393 ], [ -87.941820502, 32.863625899 ], [ -87.941847205, 32.863236398 ], [ -87.942335501, 32.862686194 ], [ -87.943312302, 32.862158798 ], [ -87.944424406, 32.861104198 ], [ -87.945427604, 32.8595917 ], [ -87.946675606, 32.858949393 ], [ -87.947326705, 32.858444996 ], [ -87.947543606, 32.858055398 ], [ -87.947570205, 32.857482597 ], [ -87.947380103, 32.857322298 ], [ -87.946646906, 32.857047893 ], [ -87.946103804, 32.856612898 ], [ -87.946103401, 32.856269196 ], [ -87.946754307, 32.855558693 ], [ -87.9468356, 32.855375297 ], [ -87.9472697, 32.8551002 ], [ -87.949576706, 32.85503 ], [ -87.949794002, 32.855098598 ], [ -87.950201504, 32.8555336 ], [ -87.951504506, 32.855670296 ], [ -87.951830603, 32.856082499 ], [ -87.952102102, 32.856128097 ], [ -87.953160606, 32.856058694 ], [ -87.953649402, 32.856241696 ], [ -87.954979606, 32.856332399 ], [ -87.955522105, 32.855965599 ], [ -87.955820605, 32.855850793 ], [ -87.956607707, 32.8557816 ], [ -87.956770301, 32.855552293 ], [ -87.957231604, 32.855414599 ], [ -87.957557507, 32.855528899 ], [ -87.957992204, 32.855986699 ], [ -87.958725207, 32.856077895 ] ] } },
{ "type": "Feature", "properties": { "site_no": "02449245", "nhdplus_comid": "18632000", "navigation_mode": "UM", "requested_distance_km": 12.0, "start_source": "nwissite", "start_id": "USGS-02449245", "geometry_length_km": 0.14857008635114835 }, "geometry": { "type": "LineString", "coordinates": [ [ -87.938563801, 32.864818998 ], [ -87.938808106, 32.864795893 ], [ -87.939541206, 32.864955895 ], [ -87.940111101, 32.864818096 ] ] } },
{ "type": "Feature", "properties": { "site_no": "02449245", "nhdplus_comid": "18631998", "navigation_mode": "UM", "requested_distance_km": 12.0, "start_source": "nwissite", "start_id": "USGS-02449245", "geometry_length_km": 0.9243743932974261 }, "geometry": { "type": "LineString", "coordinates": [ [ -87.930938706, 32.869565099 ], [ -87.931209907, 32.868969396 ], [ -87.933977306, 32.866516694 ], [ -87.934384301, 32.866333194 ], [ -87.935144305, 32.866241194 ], [ -87.935985401, 32.865553394 ], [ -87.938563801, 32.864818998 ] ] } },
{ "type": "Feature", "properties": { "site_no": "02449245", "nhdplus_comid": "18631992", "navigation_mode": "UM", "requested_distance_km": 12.0, "start_source": "nwissite", "start_id": "USGS-02449245", "geometry_length_km": 0.55184616493993621 }, "geometry": { "type": "LineString", "coordinates": [ [ -87.930208802, 32.874284998 ], [ -87.930642903, 32.873826593 ], [ -87.930750705, 32.872543596 ], [ -87.931157403, 32.871764399 ], [ -87.931157, 32.871214598 ], [ -87.931075402, 32.870985493 ], [ -87.931102403, 32.870641895 ], [ -87.930993602, 32.870366998 ], [ -87.930938706, 32.869565099 ] ] } },
{ "type": "Feature", "properties": { "site_no": "02449245", "nhdplus_comid": "18631986", "navigation_mode": "UM", "requested_distance_km": 12.0, "start_source": "nwissite", "start_id": "USGS-02449245", "geometry_length_km": 1.8131338130062091 }, "geometry": { "type": "LineString", "coordinates": [ [ -87.926252805, 32.886887297 ], [ -87.927067302, 32.886680797 ], [ -87.9279631, 32.886313893 ], [ -87.928342804, 32.885557599 ], [ -87.928342603, 32.885236897 ], [ -87.927799203, 32.884641498 ], [ -87.927771702, 32.884206198 ], [ -87.928613104, 32.883701794 ], [ -87.928884506, 32.883403793 ], [ -87.928884104, 32.882854 ], [ -87.928775303, 32.8825562 ], [ -87.928774901, 32.881845996 ], [ -87.9286661, 32.881616995 ], [ -87.9279598, 32.881136097 ], [ -87.927389205, 32.880472094 ], [ -87.927226104, 32.880151294 ], [ -87.927198805, 32.879899293 ], [ -87.926954202, 32.879486993 ], [ -87.926872306, 32.878845595 ], [ -87.927115604, 32.877264693 ], [ -87.9273865, 32.876210697 ], [ -87.928282201, 32.875752196 ], [ -87.928526103, 32.875110596 ], [ -87.928634502, 32.874743894 ], [ -87.928905904, 32.874514699 ], [ -87.929448701, 32.874331094 ], [ -87.930208802, 32.874284998 ] ] } }
]
}
