{
"type": "FeatureCollection",
"name": "USGS_02412065_UM_12km",
"crs": { "type": "name", "properties": { "name": "urn:ogc:def:crs:OGC:1.3:CRS84" } },
"features": [
{ "type": "Feature", "properties": { "site_no": "02412065", "nhdplus_comid": "15809777", "navigation_mode": "UM", "requested_distance_km": 12.0, "start_source": "nwissite", "start_id": "USGS-02412065", "geometry_length_km": 0.98033456153293241 }, "geometry": { "type": "LineString", "coordinates": [ [ -85.527699001, 33.657012299 ], [ -85.5311497, 33.657198295 ], [ -85.532245405, 33.657084599 ], [ -85.532820903, 33.656878896 ], [ -85.533341601, 33.656535797 ], [ -85.533588305, 33.656283997 ], [ -85.533588804, 33.6558946 ], [ -85.532412305, 33.654863 ], [ -85.53135665, 33.653266143 ] ] } },
{ "type": "Feature", "properties": { "site_no": "02412065", "nhdplus_comid": "15809757", "navigation_mode": "UM", "requested_distance_km": 12.0, "start_source": "nwissite", "start_id": "USGS-02412065", "geometry_length_km": 4.1399451825612195 }, "geometry": { "type": "LineString", "coordinates": [ [ -85.505608603, 33.667344697 ], [ -85.506349601, 33.666360497 ], [ -85.506788105, 33.666246399 ], [ -85.509746, 33.666432694 ], [ -85.509937905, 33.666364096 ], [ -85.509938501, 33.665928997 ], [ -85.509720303, 33.665241599 ], [ -85.508845307, 33.664210096 ], [ -85.508900806, 33.663706198 ], [ -85.509203002, 33.663019396 ], [ -85.508901902, 33.662904598 ], [ -85.508245602, 33.662170999 ], [ -85.507616207, 33.661758095 ], [ -85.507808305, 33.661529198 ], [ -85.508821905, 33.661369897 ], [ -85.509452507, 33.660981096 ], [ -85.509617105, 33.660706393 ], [ -85.5095907, 33.6600651 ], [ -85.509426706, 33.659835793 ], [ -85.508551002, 33.659216493 ], [ -85.508523807, 33.659010395 ], [ -85.510251105, 33.657821096 ], [ -85.511456907, 33.657226793 ], [ -85.513265006, 33.656930797 ], [ -85.513648301, 33.657114394 ], [ -85.514058203, 33.657824799 ], [ -85.514247701, 33.659519799 ], [ -85.514384404, 33.659680299 ], [ -85.514877304, 33.659749493 ], [ -85.515507601, 33.659521095 ], [ -85.515753902, 33.659681596 ], [ -85.516601704, 33.660621397 ], [ -85.517012604, 33.660575993 ], [ -85.519999504, 33.659479298 ], [ -85.521506503, 33.659068294 ], [ -85.521972403, 33.6588168 ], [ -85.522411302, 33.658267498 ], [ -85.5231243, 33.657603897 ], [ -85.523261704, 33.657237597 ], [ -85.523097701, 33.656916693 ], [ -85.523043506, 33.656527296 ], [ -85.5229614, 33.656458497 ], [ -85.522962004, 33.655954696 ], [ -85.523127303, 33.655175999 ], [ -85.523428805, 33.654992998 ], [ -85.523784801, 33.655039199 ], [ -85.526576601, 33.656530298 ], [ -85.527343206, 33.65676 ], [ -85.527699001, 33.657012299 ] ] } },
{ "type": "Feature", "properties": { "site_no": "02412065", "nhdplus_comid": "15809715", "navigation_mode": "UM", "requested_distance_km": 12.0, "start_source": "nwissite", "start_id": "USGS-02412065", "geometry_length_km": 2.3512272563706413 }, "geometry": { "type": "LineString", "coordinates": [ [ -85.507209301, 33.678202696 ], [ -85.508223101, 33.678066395 ], [ -85.510935605, 33.677931599 ], [ -85.5120041, 33.677795194 ], [ -85.512196004, 33.677680798 ], [ -85.512388304, 33.677383296 ], [ -85.5123339, 33.677062593 ], [ -85.512197003, 33.676924996 ], [ -85.5117862, 33.676855899 ], [ -85.511320107, 33.677198999 ], [ -85.511100903, 33.677221693 ], [ -85.510881804, 33.677084096 ], [ -85.510690704, 33.676579997 ], [ -85.510719106, 33.675892897 ], [ -85.510308906, 33.6754115 ], [ -85.5103091, 33.675274096 ], [ -85.511352405, 33.673534393 ], [ -85.511352904, 33.673259594 ], [ -85.511216201, 33.673007496 ], [ -85.509518601, 33.672387399 ], [ -85.507985204, 33.672019497 ], [ -85.507082306, 33.671193995 ], [ -85.507028103, 33.670804597 ], [ -85.507192805, 33.670598596 ], [ -85.508781806, 33.670439899 ], [ -85.508946404, 33.670256793 ], [ -85.508919306, 33.670027696 ], [ -85.5071683, 33.668491393 ], [ -85.506757505, 33.6684452 ], [ -85.505745001, 33.667757094 ], [ -85.505608603, 33.667344697 ] ] } },
{ "type": "Feature", "properties": { "site_no": "02412065", "nhdplus_comid": "15809683", "navigation_mode": "UM", "requested_distance_km": 12.0, "start_source": "nwissite", "start_id": "USGS-02412065", "geometry_length_km": 2.2643259937373368 }, "geometry": { "type": "LineString", "coordinates": [ [ -85.511517704, 33.692750894 ], [ -85.513709903, 33.692592695 ], [ -85.514478602, 33.691471197 ], [ -85.5145889, 33.691013195 ], [ -85.514206305, 33.690211199 ], [ -85.513905406, 33.689913094 ], [ -85.513850905, 33.689684093 ], [ -85.513058104, 33.688377798 ], [ -85.512949206, 33.687896699 ], [ -85.513224103, 33.687186994 ], [ -85.513088904, 33.685858399 ], [ -85.512186706, 33.6843917 ], [ -85.512242004, 33.684025295 ], [ -85.512543902, 33.683659099 ], [ -85.512489602, 33.683315493 ], [ -85.512243405, 33.683063298 ], [ -85.511914805, 33.682971396 ], [ -85.510872707, 33.6836804 ], [ -85.510516405, 33.683748797 ], [ -85.510134101, 33.682877995 ], [ -85.508629307, 33.681456499 ], [ -85.508411206, 33.6806776 ], [ -85.5081653, 33.680173397 ], [ -85.507508807, 33.6795315 ], [ -85.507399604, 33.679279394 ], [ -85.507400401, 33.678729698 ], [ -85.507209301, 33.678202696 ] ] } },
{ "type": "Feature", "properties": { "site_no": "02412065", "nhdplus_comid": "15809627", "navigation_mode": "UM", "requested_distance_km": 12.0, "start_source": "nwissite", "start_id": "USGS-02412065", "geometry_length_km": 1.7468206450512143 }, "geometry": { "type": "LineString", "coordinates": [ [ -85.501754701, 33.698444195 ], [ -85.501975201, 33.697596997 ], [ -85.502304502, 33.697276697 ], [ -85.502907701, 33.696979597 ], [ -85.503729902, 33.696888797 ], [ -85.505236804, 33.697050698 ], [ -85.505922005, 33.696913995 ], [ -85.507346801, 33.696938299 ], [ -85.507594101, 33.696503393 ], [ -85.507402502, 33.696365796 ], [ -85.507321201, 33.695701398 ], [ -85.506637007, 33.695173994 ], [ -85.506555304, 33.694853194 ], [ -85.506035402, 33.6942572 ], [ -85.505597405, 33.694073595 ], [ -85.505378604, 33.693752699 ], [ -85.505489506, 33.692928299 ], [ -85.506585404, 33.692952298 ], [ -85.507681705, 33.692747295 ], [ -85.508778505, 33.692175597 ], [ -85.509573206, 33.6921077 ], [ -85.510203101, 33.692268699 ], [ -85.511517704, 33.692750894 ] ] } }
]
}
