{
"type": "FeatureCollection",
"name": "USGS_02414800_UM_12km",
"crs": { "type": "name", "properties": { "name": "urn:ogc:def:crs:OGC:1.3:CRS84" } },
"features": [
{ "type": "Feature", "properties": { "site_no": "02414800", "nhdplus_comid": "22035015", "navigation_mode": "UM", "requested_distance_km": 12.0, "start_source": "nwissite", "start_id": "USGS-02414800", "geometry_length_km": 1.1776685736417478 }, "geometry": { "type": "LineString", "coordinates": [ [ -85.954296105, 33.121378995 ], [ -85.954023704, 33.121241696 ], [ -85.952771604, 33.1214028 ], [ -85.952308506, 33.121219896 ], [ -85.951927401, 33.121197194 ], [ -85.950947404, 33.121335194 ], [ -85.950566106, 33.121197894 ], [ -85.949722104, 33.121129796 ], [ -85.949476905, 33.1209924 ], [ -85.949258901, 33.1207176 ], [ -85.949122302, 33.120099194 ], [ -85.949339606, 33.119503498 ], [ -85.948931105, 33.119274594 ], [ -85.948686101, 33.119228899 ], [ -85.948332205, 33.119320698 ], [ -85.946890205, 33.120421194 ], [ -85.946264103, 33.120536 ], [ -85.945828401, 33.120398894 ], [ -85.945120305, 33.120009698 ], [ -85.944536426, 33.119638388 ] ] } },
{ "type": "Feature", "properties": { "site_no": "02414800", "nhdplus_comid": "22034995", "navigation_mode": "UM", "requested_distance_km": 12.0, "start_source": "nwissite", "start_id": "USGS-02414800", "geometry_length_km": 1.5395801114746743 }, "geometry": { "type": "LineString", "coordinates": [ [ -85.968321003, 33.125607796 ], [ -85.967041001, 33.125127599 ], [ -85.966142505, 33.125151098 ], [ -85.964917704, 33.125449799 ], [ -85.964046605, 33.125610799 ], [ -85.963175006, 33.125313498 ], [ -85.962766401, 33.125130594 ], [ -85.962004006, 33.1249936 ], [ -85.961677402, 33.125131294 ], [ -85.961105905, 33.125314996 ], [ -85.960615903, 33.125406794 ], [ -85.959118202, 33.125110097 ], [ -85.9578382, 33.124584094 ], [ -85.956585005, 33.123714395 ], [ -85.956203401, 33.123233497 ], [ -85.955522403, 33.122798599 ], [ -85.954705402, 33.1224555 ], [ -85.954487406, 33.122249499 ], [ -85.954296105, 33.121378995 ] ] } },
{ "type": "Feature", "properties": { "site_no": "02414800", "nhdplus_comid": "22034989", "navigation_mode": "UM", "requested_distance_km": 12.0, "start_source": "nwissite", "start_id": "USGS-02414800", "geometry_length_km": 1.1405169261085681 }, "geometry": { "type": "LineString", "coordinates": [ [ -85.977416106, 33.127021194 ], [ -85.977062106, 33.1269757 ], [ -85.976162605, 33.1259913 ], [ -85.975372307, 33.125396296 ], [ -85.974392004, 33.1251451 ], [ -85.973792806, 33.125008099 ], [ -85.973411605, 33.124985494 ], [ -85.972894505, 33.125123397 ], [ -85.9725409, 33.125398494 ], [ -85.972541302, 33.125833698 ], [ -85.972760007, 33.126589596 ], [ -85.972732805, 33.126727097 ], [ -85.972433403, 33.126773097 ], [ -85.9705818, 33.126545399 ], [ -85.968321003, 33.125607796 ] ] } },
{ "type": "Feature", "properties": { "site_no": "02414800", "nhdplus_comid": "22034971", "navigation_mode": "UM", "requested_distance_km": 12.0, "start_source": "nwissite", "start_id": "USGS-02414800", "geometry_length_km": 2.1347864096763969 }, "geometry": { "type": "LineString", "coordinates": [ [ -85.995861202, 33.136558197 ], [ -85.992593303, 33.136194699 ], [ -85.991858207, 33.136286996 ], [ -85.990660101, 33.136310995 ], [ -85.986192003, 33.134390496 ], [ -85.983957104, 33.132445194 ], [ -85.982812606, 33.131735995 ], [ -85.9825131, 33.131736293 ], [ -85.981668606, 33.131393299 ], [ -85.979406707, 33.129562497 ], [ -85.978097402, 33.127524696 ], [ -85.977416106, 33.127021194 ] ] } }
]
}
