{
"type": "FeatureCollection",
"name": "USGS_03589250_UM_12km",
"crs": { "type": "name", "properties": { "name": "urn:ogc:def:crs:OGC:1.3:CRS84" } },
"features": [
{ "type": "Feature", "properties": { "site_no": "03589250", "nhdplus_comid": "19581357", "navigation_mode": "UM", "requested_distance_km": 12.0, "start_source": "nwissite", "start_id": "USGS-03589250", "geometry_length_km": 0.14290770468429728 }, "geometry": { "type": "LineString", "coordinates": [ [ -87.600881606, 34.7576501 ], [ -87.602455212, 34.757628737 ] ] } },
{ "type": "Feature", "properties": { "site_no": "03589250", "nhdplus_comid": "19581361", "navigation_mode": "UM", "requested_distance_km": 12.0, "start_source": "nwissite", "start_id": "USGS-03589250", "geometry_length_km": 3.8903574030574375 }, "geometry": { "type": "LineString", "coordinates": [ [ -87.563428007, 34.749126099 ], [ -87.563483603, 34.7489888 ], [ -87.563872106, 34.748851493 ], [ -87.564510502, 34.748783194 ], [ -87.566064507, 34.748738095 ], [ -87.566897102, 34.748532295 ], [ -87.567368805, 34.748555399 ], [ -87.568589501, 34.749128595 ], [ -87.569310904, 34.749105997 ], [ -87.570393406, 34.748831496 ], [ -87.571975201, 34.748740599 ], [ -87.573807001, 34.748077095 ], [ -87.574861504, 34.747985899 ], [ -87.576776206, 34.748169795 ], [ -87.578246906, 34.748101696 ], [ -87.579079501, 34.747987397 ], [ -87.580161706, 34.748010695 ], [ -87.581909701, 34.748263195 ], [ -87.583546802, 34.748698898 ], [ -87.584739506, 34.749638394 ], [ -87.585155703, 34.7498217 ], [ -87.586626306, 34.750096999 ], [ -87.589478105, 34.751279898 ], [ -87.590948805, 34.751761295 ], [ -87.592946701, 34.7521054 ], [ -87.5959711, 34.752976596 ], [ -87.597635902, 34.753915995 ], [ -87.599078804, 34.754626296 ], [ -87.599578202, 34.754947193 ], [ -87.600271903, 34.755199194 ], [ -87.600549206, 34.755519994 ], [ -87.600881904, 34.756413199 ], [ -87.600881606, 34.7576501 ] ] } },
{ "type": "Feature", "properties": { "site_no": "03589250", "nhdplus_comid": "19580209", "navigation_mode": "UM", "requested_distance_km": 12.0, "start_source": "nwissite", "start_id": "USGS-03589250", "geometry_length_km": 3.6743480985098178 }, "geometry": { "type": "LineString", "coordinates": [ [ -87.528174303, 34.734651394 ], [ -87.528451405, 34.734880693 ], [ -87.528700702, 34.735315993 ], [ -87.5295045, 34.736026697 ], [ -87.531639703, 34.737150595 ], [ -87.536160007, 34.739283994 ], [ -87.538461804, 34.740568295 ], [ -87.539376907, 34.741141498 ], [ -87.543897405, 34.743503697 ], [ -87.5463937, 34.744673394 ], [ -87.549028806, 34.745682694 ], [ -87.551331401, 34.746417098 ], [ -87.553939402, 34.746739194 ], [ -87.555604003, 34.747221097 ], [ -87.560209006, 34.749216199 ], [ -87.561013602, 34.749422796 ], [ -87.562262401, 34.749331698 ], [ -87.563428007, 34.749126099 ] ] } }
]
}
