{
"type": "FeatureCollection",
"name": "USGS_02450825_DM_12km",
"crs": { "type": "name", "properties": { "name": "urn:ogc:def:crs:OGC:1.3:CRS84" } },
"features": [
{ "type": "Feature", "properties": { "site_no": "02450825", "nhdplus_comid": "18579837", "navigation_mode": "DM", "requested_distance_km": 12.0, "start_source": "nwissite", "start_id": "USGS-02450825", "geometry_length_km": 0.52752097625619754 }, "geometry": { "type": "LineString", "coordinates": [ [ -87.422952483, 34.080730479 ], [ -87.4223653, 34.080305398 ], [ -87.421704002, 34.079320498 ], [ -87.420905307, 34.078656495 ], [ -87.419720702, 34.077305295 ], [ -87.419307701, 34.077190995 ] ] } },
{ "type": "Feature", "properties": { "site_no": "02450825", "nhdplus_comid": "18579877", "navigation_mode": "DM", "requested_distance_km": 12.0, "start_source": "nwissite", "start_id": "USGS-02450825", "geometry_length_km": 1.406292241492402 }, "geometry": { "type": "LineString", "coordinates": [ [ -87.419307701, 34.077190995 ], [ -87.419169903, 34.076984897 ], [ -87.418371402, 34.0766645 ], [ -87.417627901, 34.076092094 ], [ -87.416911602, 34.075084396 ], [ -87.416635901, 34.074282698 ], [ -87.416304603, 34.072450198 ], [ -87.416276805, 34.071923397 ], [ -87.416166604, 34.071763098 ], [ -87.416220702, 34.069701396 ], [ -87.416495003, 34.067983195 ], [ -87.417539805, 34.065715 ] ] } },
{ "type": "Feature", "properties": { "site_no": "02450825", "nhdplus_comid": "18579905", "navigation_mode": "DM", "requested_distance_km": 12.0, "start_source": "nwissite", "start_id": "USGS-02450825", "geometry_length_km": 1.7706946267901782 }, "geometry": { "type": "LineString", "coordinates": [ [ -87.417539805, 34.065715 ], [ -87.417512007, 34.065142296 ], [ -87.417264104, 34.064752899 ], [ -87.417071, 34.0641803 ], [ -87.416795, 34.062691398 ], [ -87.416463904, 34.060973495 ], [ -87.416271001, 34.060606994 ], [ -87.415527403, 34.059851296 ], [ -87.414536402, 34.059530996 ], [ -87.413738206, 34.059485398 ], [ -87.412637301, 34.059737697 ], [ -87.409912504, 34.059509397 ], [ -87.407820702, 34.059441298 ], [ -87.4068847, 34.059326999 ], [ -87.405453503, 34.059006698 ], [ -87.404077105, 34.058594696 ] ] } },
{ "type": "Feature", "properties": { "site_no": "02450825", "nhdplus_comid": "18579925", "navigation_mode": "DM", "requested_distance_km": 12.0, "start_source": "nwissite", "start_id": "USGS-02450825", "geometry_length_km": 0.9810814171038087 }, "geometry": { "type": "LineString", "coordinates": [ [ -87.404077105, 34.058594696 ], [ -87.401104204, 34.057083495 ], [ -87.400581002, 34.056556694 ], [ -87.400223106, 34.055961199 ], [ -87.399947606, 34.055182397 ], [ -87.399809606, 34.054174498 ], [ -87.399314001, 34.053487398 ], [ -87.398791, 34.053120896 ], [ -87.397414804, 34.0526402 ], [ -87.397332206, 34.052502699 ] ] } },
{ "type": "Feature", "properties": { "site_no": "02450825", "nhdplus_comid": "18579933", "navigation_mode": "DM", "requested_distance_km": 12.0, "start_source": "nwissite", "start_id": "USGS-02450825", "geometry_length_km": 0.77255878829617575 }, "geometry": { "type": "LineString", "coordinates": [ [ -87.397332206, 34.052502699 ], [ -87.396589205, 34.0523654 ], [ -87.396011107, 34.052113496 ], [ -87.394937702, 34.051815897 ], [ -87.394359805, 34.051793098 ], [ -87.393864401, 34.051907696 ], [ -87.392460905, 34.051999494 ], [ -87.391029701, 34.051908098 ], [ -87.390231706, 34.051976994 ], [ -87.389158405, 34.052297793 ] ] } },
{ "type": "Feature", "properties": { "site_no": "02450825", "nhdplus_comid": "18579927", "navigation_mode": "DM", "requested_distance_km": 12.0, "start_source": "nwissite", "start_id": "USGS-02450825", "geometry_length_km": 0.74880086306512461 }, "geometry": { "type": "LineString", "coordinates": [ [ -87.389158405, 34.052297793 ], [ -87.388580404, 34.052435294 ], [ -87.387727305, 34.052733295 ], [ -87.385305405, 34.052802198 ], [ -87.384094507, 34.053077199 ], [ -87.383626707, 34.053054295 ], [ -87.383131303, 34.052893996 ], [ -87.381672703, 34.053168997 ], [ -87.381370001, 34.053168997 ], [ -87.381287403, 34.053283498 ] ] } },
{ "type": "Feature", "properties": { "site_no": "02450825", "nhdplus_comid": "18579959", "navigation_mode": "DM", "requested_distance_km": 12.0, "start_source": "nwissite", "start_id": "USGS-02450825", "geometry_length_km": 1.5514638830623826 }, "geometry": { "type": "LineString", "coordinates": [ [ -87.381287403, 34.053283498 ], [ -87.380076401, 34.053237796 ], [ -87.379911304, 34.053031698 ], [ -87.379718505, 34.0520695 ], [ -87.379828602, 34.051267698 ], [ -87.380021207, 34.050969899 ], [ -87.380599201, 34.050649196 ], [ -87.381672502, 34.050236799 ], [ -87.383763701, 34.049205795 ], [ -87.384286605, 34.048793398 ], [ -87.384286501, 34.048174895 ], [ -87.383928604, 34.046411 ], [ -87.383377902, 34.0452656 ], [ -87.3830202, 34.0448533 ], [ -87.381424002, 34.043433197 ], [ -87.381066203, 34.043341599 ] ] } },
{ "type": "Feature", "properties": { "site_no": "02450825", "nhdplus_comid": "18579973", "navigation_mode": "DM", "requested_distance_km": 12.0, "start_source": "nwissite", "start_id": "USGS-02450825", "geometry_length_km": 0.32482367730741279 }, "geometry": { "type": "LineString", "coordinates": [ [ -87.381066203, 34.043341599 ], [ -87.381011203, 34.043226995 ], [ -87.379249901, 34.042219199 ], [ -87.378644601, 34.041715197 ], [ -87.378314301, 34.041554898 ] ] } },
{ "type": "Feature", "properties": { "site_no": "02450825", "nhdplus_comid": "18579981", "navigation_mode": "DM", "requested_distance_km": 12.0, "start_source": "nwissite", "start_id": "USGS-02450825", "geometry_length_km": 0.58337774214454685 }, "geometry": { "type": "LineString", "coordinates": [ [ -87.378314301, 34.041554898 ], [ -87.377598703, 34.040821895 ], [ -87.377461106, 34.040134594 ], [ -87.377350904, 34.038714297 ], [ -87.377571106, 34.038026996 ], [ -87.378341503, 34.036721297 ] ] } },
{ "type": "Feature", "properties": { "site_no": "02450825", "nhdplus_comid": "18580009", "navigation_mode": "DM", "requested_distance_km": 12.0, "start_source": "nwissite", "start_id": "USGS-02450825", "geometry_length_km": 1.9479953648245552 }, "geometry": { "type": "LineString", "coordinates": [ [ -87.378341503, 34.036721297 ], [ -87.378506504, 34.036194399 ], [ -87.378506407, 34.035346799 ], [ -87.378368802, 34.035048999 ], [ -87.377901107, 34.034682594 ], [ -87.377130605, 34.034636796 ], [ -87.376222603, 34.034361899 ], [ -87.375012003, 34.034155697 ], [ -87.374324106, 34.034224398 ], [ -87.373085901, 34.034545094 ], [ -87.372397907, 34.034636796 ], [ -87.372095302, 34.034499198 ], [ -87.371985205, 34.034315996 ], [ -87.372040302, 34.033926599 ], [ -87.372783206, 34.033056095 ], [ -87.373828702, 34.031452596 ], [ -87.374323905, 34.030421697 ], [ -87.374324001, 34.029367894 ], [ -87.374158904, 34.0289784 ], [ -87.373911306, 34.028772295 ], [ -87.373113401, 34.028451599 ], [ -87.372150406, 34.027787298 ], [ -87.371490106, 34.027443595 ], [ -87.370224401, 34.026573099 ], [ -87.370196901, 34.026412696 ] ] } },
{ "type": "Feature", "properties": { "site_no": "02450825", "nhdplus_comid": "18580015", "navigation_mode": "DM", "requested_distance_km": 12.0, "start_source": "nwissite", "start_id": "USGS-02450825", "geometry_length_km": 0.65445488174877198 }, "geometry": { "type": "LineString", "coordinates": [ [ -87.370196901, 34.026412696 ], [ -87.369866803, 34.026366897 ], [ -87.369289003, 34.025885798 ], [ -87.368326105, 34.025450595 ], [ -87.366868004, 34.025381699 ], [ -87.366152607, 34.025541998 ], [ -87.364914507, 34.025931299 ], [ -87.363676503, 34.026183195 ], [ -87.363621406, 34.026229098 ] ] } }
]
}
