{
"type": "FeatureCollection",
"name": "USGS_02406500_UM_12km",
"crs": { "type": "name", "properties": { "name": "urn:ogc:def:crs:OGC:1.3:CRS84" } },
"features": [
{ "type": "Feature", "properties": { "site_no": "02406500", "nhdplus_comid": "22206629", "navigation_mode": "UM", "requested_distance_km": 12.0, "start_source": "nwissite", "start_id": "USGS-02406500", "geometry_length_km": 0.14170332171726285 }, "geometry": { "type": "LineString", "coordinates": [ [ -86.232643701, 33.360147394 ], [ -86.234128088, 33.359830913 ] ] } },
{ "type": "Feature", "properties": { "site_no": "02406500", "nhdplus_comid": "22206443", "navigation_mode": "UM", "requested_distance_km": 12.0, "start_source": "nwissite", "start_id": "USGS-02406500", "geometry_length_km": 1.0737006824425035 }, "geometry": { "type": "LineString", "coordinates": [ [ -86.221451402, 33.360889398 ], [ -86.221943103, 33.361186795 ], [ -86.222571202, 33.361392498 ], [ -86.223663405, 33.361506194 ], [ -86.225492604, 33.361527793 ], [ -86.226939507, 33.361480795 ], [ -86.228659101, 33.361250296 ], [ -86.2302422, 33.360882498 ], [ -86.231661201, 33.3603772 ], [ -86.232643701, 33.360147394 ] ] } },
{ "type": "Feature", "properties": { "site_no": "02406500", "nhdplus_comid": "22206765", "navigation_mode": "UM", "requested_distance_km": 12.0, "start_source": "nwissite", "start_id": "USGS-02406500", "geometry_length_km": 0.21303269177681058 }, "geometry": { "type": "LineString", "coordinates": [ [ -86.219881602, 33.359516695 ], [ -86.219904706, 33.359540299 ], [ -86.220010504, 33.359647997 ], [ -86.220116206, 33.359755695 ], [ -86.220222004, 33.359863393 ], [ -86.220327705, 33.359971099 ], [ -86.220433503, 33.360078894 ], [ -86.220539205, 33.360186599 ], [ -86.220645003, 33.360294297 ], [ -86.220750704, 33.360401995 ], [ -86.220856503, 33.360509694 ], [ -86.220962204, 33.360617399 ], [ -86.221080005, 33.360672496 ], [ -86.221226007, 33.360740699 ], [ -86.221451402, 33.360889398 ] ] } },
{ "type": "Feature", "properties": { "site_no": "02406500", "nhdplus_comid": "22206783", "navigation_mode": "UM", "requested_distance_km": 12.0, "start_source": "nwissite", "start_id": "USGS-02406500", "geometry_length_km": 0.63065551608356529 }, "geometry": { "type": "LineString", "coordinates": [ [ -86.215377502, 33.3553501 ], [ -86.2160528, 33.356038094 ], [ -86.217751503, 33.3570657 ], [ -86.219881602, 33.359516695 ] ] } },
{ "type": "Feature", "properties": { "site_no": "02406500", "nhdplus_comid": "22206785", "navigation_mode": "UM", "requested_distance_km": 12.0, "start_source": "nwissite", "start_id": "USGS-02406500", "geometry_length_km": 1.3517325300693246 }, "geometry": { "type": "LineString", "coordinates": [ [ -86.205851704, 33.356047295 ], [ -86.206319205, 33.355961293 ], [ -86.206724301, 33.3563741 ], [ -86.207176201, 33.356412798 ], [ -86.207508601, 33.356189199 ], [ -86.207487702, 33.3539185 ], [ -86.207986303, 33.353583097 ], [ -86.210728705, 33.353565693 ], [ -86.211377904, 33.353243195 ], [ -86.213247702, 33.352899 ], [ -86.213834606, 33.353075199 ], [ -86.214374803, 33.3536257 ], [ -86.214717805, 33.354537293 ], [ -86.215377502, 33.3553501 ] ] } },
{ "type": "Feature", "properties": { "site_no": "02406500", "nhdplus_comid": "22206775", "navigation_mode": "UM", "requested_distance_km": 12.0, "start_source": "nwissite", "start_id": "USGS-02406500", "geometry_length_km": 0.85640015419770732 }, "geometry": { "type": "LineString", "coordinates": [ [ -86.204397403, 33.361594893 ], [ -86.2031819, 33.360356398 ], [ -86.203244202, 33.3598575 ], [ -86.204464905, 33.359835997 ], [ -86.205446601, 33.359289899 ], [ -86.2055557, 33.3584169 ], [ -86.206085503, 33.357832 ], [ -86.206147805, 33.357333094 ], [ -86.205607601, 33.356782697 ], [ -86.205851704, 33.356047295 ] ] } },
{ "type": "Feature", "properties": { "site_no": "02406500", "nhdplus_comid": "22206759", "navigation_mode": "UM", "requested_distance_km": 12.0, "start_source": "nwissite", "start_id": "USGS-02406500", "geometry_length_km": 0.23684662419728875 }, "geometry": { "type": "LineString", "coordinates": [ [ -86.203104906, 33.363383695 ], [ -86.203971505, 33.362566799 ], [ -86.204397403, 33.361594893 ] ] } },
{ "type": "Feature", "properties": { "site_no": "02406500", "nhdplus_comid": "22206849", "navigation_mode": "UM", "requested_distance_km": 12.0, "start_source": "nwissite", "start_id": "USGS-02406500", "geometry_length_km": 0.29956843715988313 }, "geometry": { "type": "LineString", "coordinates": [ [ -86.200267702, 33.363573097 ], [ -86.201031402, 33.362945199 ], [ -86.203076206, 33.363410793 ], [ -86.203104906, 33.363383695 ] ] } },
{ "type": "Feature", "properties": { "site_no": "02406500", "nhdplus_comid": "22206753", "navigation_mode": "UM", "requested_distance_km": 12.0, "start_source": "nwissite", "start_id": "USGS-02406500", "geometry_length_km": 2.4223217733952143 }, "geometry": { "type": "LineString", "coordinates": [ [ -86.187452801, 33.381526694 ], [ -86.188036107, 33.381620795 ], [ -86.188883103, 33.380937099 ], [ -86.190193005, 33.377772197 ], [ -86.191237502, 33.376727395 ], [ -86.191284306, 33.376353197 ], [ -86.191798702, 33.375893198 ], [ -86.192983501, 33.373725899 ], [ -86.194755405, 33.371734999 ], [ -86.195545204, 33.370290093 ], [ -86.1961428, 33.367946394 ], [ -86.1968702, 33.367000394 ], [ -86.199379407, 33.365198597 ], [ -86.199909307, 33.364613794 ], [ -86.200267702, 33.363573097 ] ] } },
{ "type": "Feature", "properties": { "site_no": "02406500", "nhdplus_comid": "22206733", "navigation_mode": "UM", "requested_distance_km": 12.0, "start_source": "nwissite", "start_id": "USGS-02406500", "geometry_length_km": 2.2024193911730698 }, "geometry": { "type": "LineString", "coordinates": [ [ -86.167576805, 33.389317997 ], [ -86.168850705, 33.387662798 ], [ -86.172073305, 33.385040499 ], [ -86.174603604, 33.385509893 ], [ -86.176261105, 33.385652199 ], [ -86.177196406, 33.385480396 ], [ -86.178646304, 33.384848595 ], [ -86.181956701, 33.382737793 ], [ -86.184071705, 33.3816588 ], [ -86.185474604, 33.381401099 ], [ -86.187452801, 33.381526694 ] ] } },
{ "type": "Feature", "properties": { "site_no": "02406500", "nhdplus_comid": "22206721", "navigation_mode": "UM", "requested_distance_km": 12.0, "start_source": "nwissite", "start_id": "USGS-02406500", "geometry_length_km": 2.5286722522136715 }, "geometry": { "type": "LineString", "coordinates": [ [ -86.164950304, 33.404331096 ], [ -86.164973706, 33.404310994 ], [ -86.164888605, 33.403456293 ], [ -86.165481605, 33.4023728 ], [ -86.165685102, 33.400751695 ], [ -86.166350506, 33.400304697 ], [ -86.167436704, 33.400145896 ], [ -86.170601606, 33.400417797 ], [ -86.171100602, 33.400082499 ], [ -86.171043806, 33.3993214 ], [ -86.169485606, 33.397170797 ], [ -86.169808403, 33.395811997 ], [ -86.171757601, 33.394845098 ], [ -86.171898402, 33.393722698 ], [ -86.170937307, 33.392883897 ], [ -86.168557502, 33.3924274 ], [ -86.168017402, 33.391876794 ], [ -86.167586707, 33.390453197 ], [ -86.167576805, 33.389317997 ] ] } }
]
}
