{
"type": "FeatureCollection",
"name": "USGS_02443730_UM_12km",
"crs": { "type": "name", "properties": { "name": "urn:ogc:def:crs:OGC:1.3:CRS84" } },
"features": [
{ "type": "Feature", "properties": { "site_no": "02443730", "nhdplus_comid": "18629358", "navigation_mode": "UM", "requested_distance_km": 12.0, "start_source": "nwissite", "start_id": "USGS-02443730", "geometry_length_km": 1.2509033477031346 }, "geometry": { "type": "LineString", "coordinates": [ [ -88.175207905, 33.414274096 ], [ -88.175317004, 33.414136596 ], [ -88.176272303, 33.412990898 ], [ -88.176517807, 33.412532598 ], [ -88.177472405, 33.410310194 ], [ -88.177799806, 33.409760296 ], [ -88.178318404, 33.409278996 ], [ -88.178700604, 33.409003899 ], [ -88.1795194, 33.407949798 ], [ -88.180065006, 33.407101996 ], [ -88.180419706, 33.406460397 ], [ -88.1814017, 33.404718995 ], [ -88.181509221, 33.404466014 ] ] } }
]
}
