{
"type": "FeatureCollection",
"name": "USGS_02448900_DM_12km",
"crs": { "type": "name", "properties": { "name": "urn:ogc:def:crs:OGC:1.3:CRS84" } },
"features": [
{ "type": "Feature", "properties": { "site_no": "02448900", "nhdplus_comid": "18604744", "navigation_mode": "DM", "requested_distance_km": 12.0, "start_source": "nwissite", "start_id": "USGS-02448900", "geometry_length_km": 0.93576952879216524 }, "geometry": { "type": "LineString", "coordinates": [ [ -88.312200006, 32.806693006 ], [ -88.312016003, 32.806752697 ], [ -88.311473504, 32.8067066 ], [ -88.310686804, 32.806545898 ], [ -88.309954606, 32.806224793 ], [ -88.309303604, 32.806201495 ], [ -88.309140705, 32.806315996 ], [ -88.308977805, 32.806590796 ], [ -88.309167303, 32.807140693 ], [ -88.309546605, 32.807805195 ], [ -88.309654906, 32.808125995 ], [ -88.309627101, 32.809133999 ], [ -88.309165001, 32.810462393 ], [ -88.3087302, 32.811607599 ], [ -88.308702901, 32.811744995 ] ] } },
{ "type": "Feature", "properties": { "site_no": "02448900", "nhdplus_comid": "18604708", "navigation_mode": "DM", "requested_distance_km": 12.0, "start_source": "nwissite", "start_id": "USGS-02448900", "geometry_length_km": 0.50969731847010025 }, "geometry": { "type": "LineString", "coordinates": [ [ -88.308702901, 32.811744995 ], [ -88.308512703, 32.812111594 ], [ -88.308078602, 32.812363297 ], [ -88.307725802, 32.812431894 ], [ -88.307318904, 32.812431596 ], [ -88.306857802, 32.812293895 ], [ -88.306179807, 32.8119957 ], [ -88.305447601, 32.811560094 ], [ -88.304932304, 32.811330698 ], [ -88.303983003, 32.811215594 ] ] } },
{ "type": "Feature", "properties": { "site_no": "02448900", "nhdplus_comid": "18604706", "navigation_mode": "DM", "requested_distance_km": 12.0, "start_source": "nwissite", "start_id": "USGS-02448900", "geometry_length_km": 0.99149840337014239 }, "geometry": { "type": "LineString", "coordinates": [ [ -88.303983003, 32.811215594 ], [ -88.303087607, 32.811421297 ], [ -88.302843302, 32.811627395 ], [ -88.302734502, 32.811970994 ], [ -88.302815504, 32.812406197 ], [ -88.302896805, 32.812566593 ], [ -88.303086303, 32.813093595 ], [ -88.303492904, 32.813437596 ], [ -88.304686204, 32.813919298 ], [ -88.305771202, 32.814194798 ], [ -88.306367904, 32.814469993 ], [ -88.306693107, 32.814836696 ], [ -88.306801505, 32.815065794 ], [ -88.306773804, 32.815775894 ], [ -88.3065565, 32.816188194 ], [ -88.305986404, 32.816668995 ], [ -88.305769302, 32.816760495 ], [ -88.305226706, 32.816806093 ] ] } },
{ "type": "Feature", "properties": { "site_no": "02448900", "nhdplus_comid": "18604676", "navigation_mode": "DM", "requested_distance_km": 12.0, "start_source": "nwissite", "start_id": "USGS-02448900", "geometry_length_km": 0.27203889865838493 }, "geometry": { "type": "LineString", "coordinates": [ [ -88.305226706, 32.816806093 ], [ -88.303572007, 32.816415697 ], [ -88.3029209, 32.816392496 ], [ -88.302459501, 32.816644095 ] ] } },
{ "type": "Feature", "properties": { "site_no": "02448900", "nhdplus_comid": "18604672", "navigation_mode": "DM", "requested_distance_km": 12.0, "start_source": "nwissite", "start_id": "USGS-02448900", "geometry_length_km": 1.7801923656593799 }, "geometry": { "type": "LineString", "coordinates": [ [ -88.302459501, 32.816644095 ], [ -88.302106306, 32.817399897 ], [ -88.301942803, 32.818316199 ], [ -88.301725507, 32.818613797 ], [ -88.301318303, 32.818957299 ], [ -88.300124206, 32.819391795 ], [ -88.297899, 32.820100695 ], [ -88.297844507, 32.820306793 ], [ -88.2979258, 32.820398495 ], [ -88.298549801, 32.820444696 ], [ -88.2985496, 32.820650898 ], [ -88.297626704, 32.821268797 ], [ -88.296703801, 32.821657799 ], [ -88.296378203, 32.821749195 ], [ -88.295428701, 32.821702793 ], [ -88.293530203, 32.820762396 ], [ -88.292716406, 32.820601493 ], [ -88.291739702, 32.820692495 ], [ -88.289623007, 32.821240894 ], [ -88.288673103, 32.821560897 ], [ -88.288374603, 32.821652398 ] ] } },
{ "type": "Feature", "properties": { "site_no": "02448900", "nhdplus_comid": "18604660", "navigation_mode": "DM", "requested_distance_km": 12.0, "start_source": "nwissite", "start_id": "USGS-02448900", "geometry_length_km": 1.2947926372417078 }, "geometry": { "type": "LineString", "coordinates": [ [ -88.288374603, 32.821652398 ], [ -88.287180901, 32.821491197 ], [ -88.286394, 32.821605198 ], [ -88.285986707, 32.8219257 ], [ -88.285606503, 32.822269 ], [ -88.285389401, 32.822360598 ], [ -88.2848197, 32.822337195 ], [ -88.284114406, 32.822222196 ], [ -88.283707507, 32.822038695 ], [ -88.283436507, 32.821786493 ], [ -88.283273906, 32.821511395 ], [ -88.283084303, 32.821236394 ], [ -88.282867402, 32.821144596 ], [ -88.281782106, 32.821212493 ], [ -88.281185105, 32.821189195 ], [ -88.280534104, 32.821097098 ], [ -88.279584706, 32.820821494 ], [ -88.279204905, 32.820866995 ], [ -88.279014707, 32.821141794 ], [ -88.278824203, 32.821645595 ], [ -88.278742403, 32.822080798 ], [ -88.278660804, 32.822309896 ], [ -88.278579004, 32.822699293 ], [ -88.278388701, 32.823088497 ], [ -88.278361306, 32.823271796 ], [ -88.278306901, 32.823340498 ], [ -88.278116606, 32.823752694 ] ] } },
{ "type": "Feature", "properties": { "site_no": "02448900", "nhdplus_comid": "18604662", "navigation_mode": "DM", "requested_distance_km": 12.0, "start_source": "nwissite", "start_id": "USGS-02448900", "geometry_length_km": 1.4651473996125262 }, "geometry": { "type": "LineString", "coordinates": [ [ -88.278116606, 32.823752694 ], [ -88.278062202, 32.823912993 ], [ -88.277953506, 32.824118994 ], [ -88.277410202, 32.824622698 ], [ -88.276731603, 32.824965797 ], [ -88.276053101, 32.825125597 ], [ -88.274479404, 32.8251931 ], [ -88.273529805, 32.825123698 ], [ -88.2726347, 32.824939594 ], [ -88.271522701, 32.824480698 ], [ -88.270139903, 32.823654793 ], [ -88.269651704, 32.823471099 ], [ -88.267888203, 32.823446795 ], [ -88.267562903, 32.823240295 ], [ -88.267454706, 32.8228966 ], [ -88.267374106, 32.8221405 ], [ -88.267347202, 32.821934298 ], [ -88.267184705, 32.821727999 ], [ -88.266507104, 32.8211089 ], [ -88.265720904, 32.820627093 ] ] } },
{ "type": "Feature", "properties": { "site_no": "02448900", "nhdplus_comid": "18604666", "navigation_mode": "DM", "requested_distance_km": 12.0, "start_source": "nwissite", "start_id": "USGS-02448900", "geometry_length_km": 2.1453409779662818 }, "geometry": { "type": "LineString", "coordinates": [ [ -88.265720904, 32.820627093 ], [ -88.264825806, 32.820443094 ], [ -88.263930403, 32.820556894 ], [ -88.263224602, 32.820876993 ], [ -88.262600005, 32.821265794 ], [ -88.262301303, 32.821540497 ], [ -88.262029603, 32.821860999 ], [ -88.261839107, 32.822318994 ], [ -88.261865601, 32.822891794 ], [ -88.261973605, 32.823235497 ], [ -88.262786604, 32.824015096 ], [ -88.263627201, 32.824428193 ], [ -88.264522105, 32.824795499 ], [ -88.264576301, 32.824887194 ], [ -88.264494501, 32.825161994 ], [ -88.263788901, 32.825390495 ], [ -88.263436101, 32.825413093 ], [ -88.262730807, 32.825274996 ], [ -88.262161404, 32.824999593 ], [ -88.260182701, 32.823462993 ], [ -88.258990102, 32.822453894 ], [ -88.258259103, 32.821147397 ], [ -88.2579339, 32.820849299 ], [ -88.257500105, 32.820688598 ], [ -88.256930202, 32.820779696 ], [ -88.256577201, 32.821008496 ], [ -88.256332606, 32.821374699 ], [ -88.256277904, 32.821672499 ], [ -88.256304406, 32.822199397 ], [ -88.256628707, 32.823207699 ] ] } },
{ "type": "Feature", "properties": { "site_no": "02448900", "nhdplus_comid": "18605042", "navigation_mode": "DM", "requested_distance_km": 12.0, "start_source": "nwissite", "start_id": "USGS-02448900", "geometry_length_km": 2.2245975017536357 }, "geometry": { "type": "LineString", "coordinates": [ [ -88.256628707, 32.823207699 ], [ -88.256573506, 32.823849194 ], [ -88.256329104, 32.824055098 ], [ -88.255976304, 32.824077696 ], [ -88.255542703, 32.823733695 ], [ -88.255326301, 32.823206499 ], [ -88.254704803, 32.82119 ], [ -88.253946401, 32.820226997 ], [ -88.253214702, 32.819607899 ], [ -88.252726801, 32.819263794 ], [ -88.251967803, 32.818827793 ], [ -88.250828601, 32.8185976 ], [ -88.250042506, 32.818679996 ], [ -88.249391705, 32.818886794 ], [ -88.248822607, 32.819345497 ], [ -88.248633102, 32.819643497 ], [ -88.247982904, 32.820308499 ], [ -88.247305103, 32.820698597 ], [ -88.246925302, 32.820699096 ], [ -88.246626705, 32.820607699 ], [ -88.245703302, 32.819829799 ], [ -88.245268203, 32.819257498 ], [ -88.244969502, 32.819028594 ], [ -88.2444809, 32.818799995 ], [ -88.243585706, 32.818938397 ], [ -88.242582403, 32.819305897 ], [ -88.242202803, 32.819512397 ], [ -88.241444103, 32.820246197 ], [ -88.240848601, 32.821300596 ], [ -88.240876004, 32.821438 ] ] } }
]
}
