{
"type": "FeatureCollection",
"name": "USGS_02444160_UM_12km",
"crs": { "type": "name", "properties": { "name": "urn:ogc:def:crs:OGC:1.3:CRS84" } },
"features": [
{ "type": "Feature", "properties": { "site_no": "02444160", "nhdplus_comid": "18631042", "navigation_mode": "UM", "requested_distance_km": 12.0, "start_source": "nwissite", "start_id": "USGS-02444160", "geometry_length_km": 0.62527310660521973 }, "geometry": { "type": "LineString", "coordinates": [ [ -88.285554104, 33.215639994 ], [ -88.287997901, 33.213917598 ], [ -88.288222201, 33.211204 ], [ -88.288201664, 33.210984005 ] ] } },
{ "type": "Feature", "properties": { "site_no": "02444160", "nhdplus_comid": "18631040", "navigation_mode": "UM", "requested_distance_km": 12.0, "start_source": "nwissite", "start_id": "USGS-02444160", "geometry_length_km": 3.7777034764625621 }, "geometry": { "type": "LineString", "coordinates": [ [ -88.277515307, 33.235731393 ], [ -88.275940105, 33.233234495 ], [ -88.276148804, 33.231109694 ], [ -88.276674502, 33.230390295 ], [ -88.278955907, 33.228782997 ], [ -88.281216301, 33.228935599 ], [ -88.282649606, 33.229787298 ], [ -88.286856703, 33.230196998 ], [ -88.287634701, 33.229997799 ], [ -88.289304502, 33.229984693 ], [ -88.2912599, 33.228606693 ], [ -88.291419104, 33.226981893 ], [ -88.291191205, 33.2262116 ], [ -88.290258802, 33.224890493 ], [ -88.287315205, 33.222427294 ], [ -88.286798306, 33.221511699 ], [ -88.286444306, 33.220481195 ], [ -88.286339104, 33.218460999 ], [ -88.285545401, 33.217275098 ], [ -88.285554104, 33.215639994 ] ] } },
{ "type": "Feature", "properties": { "site_no": "02444160", "nhdplus_comid": "18631036", "navigation_mode": "UM", "requested_distance_km": 12.0, "start_source": "nwissite", "start_id": "USGS-02444160", "geometry_length_km": 3.7611336778239721 }, "geometry": { "type": "LineString", "coordinates": [ [ -88.304954305, 33.256075695 ], [ -88.304840304, 33.255690597 ], [ -88.3010884, 33.252167098 ], [ -88.301382102, 33.249167398 ], [ -88.3011785, 33.248147197 ], [ -88.300042301, 33.245805994 ], [ -88.299952805, 33.245170899 ], [ -88.299121901, 33.244360097 ], [ -88.2975007, 33.243873499 ], [ -88.293162905, 33.241693996 ], [ -88.290010102, 33.241355598 ], [ -88.288148902, 33.240223594 ], [ -88.285961807, 33.239321195 ], [ -88.279603906, 33.237633899 ], [ -88.277515307, 33.235731393 ] ] } },
{ "type": "Feature", "properties": { "site_no": "02444160", "nhdplus_comid": "18631024", "navigation_mode": "UM", "requested_distance_km": 12.0, "start_source": "nwissite", "start_id": "USGS-02444160", "geometry_length_km": 0.97748338026415549 }, "geometry": { "type": "LineString", "coordinates": [ [ -88.308266304, 33.264098696 ], [ -88.308290802, 33.2638487 ], [ -88.307748906, 33.263183199 ], [ -88.307630807, 33.261288196 ], [ -88.307366006, 33.260892898 ], [ -88.307085, 33.259112693 ], [ -88.306302801, 33.257801995 ], [ -88.305194706, 33.256720997 ], [ -88.304954305, 33.256075695 ] ] } },
{ "type": "Feature", "properties": { "site_no": "02444160", "nhdplus_comid": "18631008", "navigation_mode": "UM", "requested_distance_km": 12.0, "start_source": "nwissite", "start_id": "USGS-02444160", "geometry_length_km": 1.2923702780242385 }, "geometry": { "type": "LineString", "coordinates": [ [ -88.307090007, 33.273537099 ], [ -88.307271704, 33.272712499 ], [ -88.307923704, 33.272253096 ], [ -88.308135606, 33.271638393 ], [ -88.309602603, 33.2706047 ], [ -88.310792506, 33.269300796 ], [ -88.310939305, 33.267800994 ], [ -88.309566103, 33.266324796 ], [ -88.308975302, 33.266159296 ], [ -88.308282606, 33.2654837 ], [ -88.308266304, 33.264098696 ] ] } },
{ "type": "Feature", "properties": { "site_no": "02444160", "nhdplus_comid": "18631000", "navigation_mode": "UM", "requested_distance_km": 12.0, "start_source": "nwissite", "start_id": "USGS-02444160", "geometry_length_km": 0.004176443985020606 }, "geometry": { "type": "LineString", "coordinates": [ [ -88.307081901, 33.273573898 ], [ -88.307090007, 33.273537099 ] ] } },
{ "type": "Feature", "properties": { "site_no": "02444160", "nhdplus_comid": "18630998", "navigation_mode": "UM", "requested_distance_km": 12.0, "start_source": "nwissite", "start_id": "USGS-02444160", "geometry_length_km": 3.4214377599693844 }, "geometry": { "type": "LineString", "coordinates": [ [ -88.302851103, 33.302356593 ], [ -88.302508801, 33.301201396 ], [ -88.302765906, 33.298576795 ], [ -88.305550605, 33.291844897 ], [ -88.305758603, 33.289720297 ], [ -88.305277705, 33.288429894 ], [ -88.304597102, 33.287629299 ], [ -88.303749606, 33.285433598 ], [ -88.302918203, 33.2846229 ], [ -88.302690104, 33.283852696 ], [ -88.302910402, 33.281602994 ], [ -88.304622404, 33.278069794 ], [ -88.305510901, 33.276745699 ], [ -88.306509502, 33.274296694 ], [ -88.306998603, 33.273952194 ], [ -88.307081901, 33.273573898 ] ] } }
]
}
