{
"type": "FeatureCollection",
"name": "USGS_02450825_UM_12km",
"crs": { "type": "name", "properties": { "name": "urn:ogc:def:crs:OGC:1.3:CRS84" } },
"features": [
{ "type": "Feature", "properties": { "site_no": "02450825", "nhdplus_comid": "18579837", "navigation_mode": "UM", "requested_distance_km": 12.0, "start_source": "nwissite", "start_id": "USGS-02450825", "geometry_length_km": 1.0865598158137522 }, "geometry": { "type": "LineString", "coordinates": [ [ -87.4208562, 34.089033596 ], [ -87.421020806, 34.088002793 ], [ -87.421323106, 34.087086298 ], [ -87.421763204, 34.086467698 ], [ -87.422423705, 34.085940495 ], [ -87.423442103, 34.085550696 ], [ -87.423965007, 34.085138097 ], [ -87.424350105, 34.084404893 ], [ -87.424377203, 34.083923899 ], [ -87.423797801, 34.0817938 ], [ -87.423219107, 34.080923498 ], [ -87.422952483, 34.080730479 ] ] } },
{ "type": "Feature", "properties": { "site_no": "02450825", "nhdplus_comid": "18579809", "navigation_mode": "UM", "requested_distance_km": 12.0, "start_source": "nwissite", "start_id": "USGS-02450825", "geometry_length_km": 1.4755297833749508 }, "geometry": { "type": "LineString", "coordinates": [ [ -87.425294206, 34.097324394 ], [ -87.425238304, 34.095972799 ], [ -87.425017804, 34.0956752 ], [ -87.424770005, 34.095514998 ], [ -87.423420705, 34.0954009 ], [ -87.4229526, 34.095538497 ], [ -87.421879105, 34.096226193 ], [ -87.421383604, 34.096409597 ], [ -87.420832902, 34.096432798 ], [ -87.420475006, 34.096318394 ], [ -87.420282103, 34.096112296 ], [ -87.420281701, 34.095585398 ], [ -87.420666404, 34.094142094 ], [ -87.420693204, 34.092950895 ], [ -87.420803204, 34.092515595 ], [ -87.4207462, 34.089354299 ], [ -87.4208562, 34.089033596 ] ] } },
{ "type": "Feature", "properties": { "site_no": "02450825", "nhdplus_comid": "18579769", "navigation_mode": "UM", "requested_distance_km": 12.0, "start_source": "nwissite", "start_id": "USGS-02450825", "geometry_length_km": 0.30823694202783863 }, "geometry": { "type": "LineString", "coordinates": [ [ -87.425461203, 34.100073196 ], [ -87.425295301, 34.099042393 ], [ -87.425294206, 34.097324394 ] ] } },
{ "type": "Feature", "properties": { "site_no": "02450825", "nhdplus_comid": "18579763", "navigation_mode": "UM", "requested_distance_km": 12.0, "start_source": "nwissite", "start_id": "USGS-02450825", "geometry_length_km": 1.0228380178447465 }, "geometry": { "type": "LineString", "coordinates": [ [ -87.4262105, 34.109144196 ], [ -87.426044203, 34.107517898 ], [ -87.426043205, 34.106143497 ], [ -87.426235601, 34.1054103 ], [ -87.426179305, 34.103554897 ], [ -87.426041305, 34.103188396 ], [ -87.425654307, 34.100691594 ], [ -87.425461203, 34.100073196 ] ] } },
{ "type": "Feature", "properties": { "site_no": "02450825", "nhdplus_comid": "18579727", "navigation_mode": "UM", "requested_distance_km": 12.0, "start_source": "nwissite", "start_id": "USGS-02450825", "geometry_length_km": 1.7031680726880019 }, "geometry": { "type": "LineString", "coordinates": [ [ -87.433628201, 34.122427195 ], [ -87.433600105, 34.121648297 ], [ -87.433462001, 34.121190198 ], [ -87.433405407, 34.119036995 ], [ -87.433074303, 34.118097797 ], [ -87.432522602, 34.117044397 ], [ -87.431833401, 34.116242997 ], [ -87.430290401, 34.115052596 ], [ -87.4267627, 34.111480594 ], [ -87.426431805, 34.110793494 ], [ -87.4262105, 34.109144196 ] ] } },
{ "type": "Feature", "properties": { "site_no": "02450825", "nhdplus_comid": "18579639", "navigation_mode": "UM", "requested_distance_km": 12.0, "start_source": "nwissite", "start_id": "USGS-02450825", "geometry_length_km": 0.014865446198644817 }, "geometry": { "type": "LineString", "coordinates": [ [ -87.433711, 34.122541599 ], [ -87.433628201, 34.122427195 ] ] } },
{ "type": "Feature", "properties": { "site_no": "02450825", "nhdplus_comid": "18579635", "navigation_mode": "UM", "requested_distance_km": 12.0, "start_source": "nwissite", "start_id": "USGS-02450825", "geometry_length_km": 0.34922990779998619 }, "geometry": { "type": "LineString", "coordinates": [ [ -87.433217302, 34.125634395 ], [ -87.433327101, 34.1251074 ], [ -87.433601804, 34.123916194 ], [ -87.433711, 34.122541599 ] ] } },
{ "type": "Feature", "properties": { "site_no": "02450825", "nhdplus_comid": "18579625", "navigation_mode": "UM", "requested_distance_km": 12.0, "start_source": "nwissite", "start_id": "USGS-02450825", "geometry_length_km": 1.8291748520437865 }, "geometry": { "type": "LineString", "coordinates": [ [ -87.426972903, 34.138305098 ], [ -87.426945306, 34.138075896 ], [ -87.426945001, 34.137709394 ], [ -87.4272478, 34.137411498 ], [ -87.428845204, 34.136608995 ], [ -87.430249907, 34.136173196 ], [ -87.431929804, 34.135507993 ], [ -87.432700701, 34.134957895 ], [ -87.434132807, 34.134338699 ], [ -87.434463106, 34.133972093 ], [ -87.434407406, 34.133216098 ], [ -87.433800004, 34.131292298 ], [ -87.433689207, 34.130536295 ], [ -87.433054, 34.1281313 ], [ -87.433080606, 34.126985997 ], [ -87.433217302, 34.125634395 ] ] } },
{ "type": "Feature", "properties": { "site_no": "02450825", "nhdplus_comid": "18579585", "navigation_mode": "UM", "requested_distance_km": 12.0, "start_source": "nwissite", "start_id": "USGS-02450825", "geometry_length_km": 1.1441713047769677 }, "geometry": { "type": "LineString", "coordinates": [ [ -87.431413807, 34.145953998 ], [ -87.431220703, 34.145725094 ], [ -87.4305318, 34.145450495 ], [ -87.430063106, 34.144969694 ], [ -87.429869406, 34.143893093 ], [ -87.429951601, 34.143251695 ], [ -87.430171505, 34.1425872 ], [ -87.430749401, 34.141441599 ], [ -87.430886507, 34.140433595 ], [ -87.429507904, 34.139036797 ], [ -87.429122105, 34.1388309 ], [ -87.427716903, 34.138625398 ], [ -87.427579202, 34.138510898 ], [ -87.426972903, 34.138305098 ] ] } },
{ "type": "Feature", "properties": { "site_no": "02450825", "nhdplus_comid": "18579537", "navigation_mode": "UM", "requested_distance_km": 12.0, "start_source": "nwissite", "start_id": "USGS-02450825", "geometry_length_km": 2.468838727225807 }, "geometry": { "type": "LineString", "coordinates": [ [ -87.443404004, 34.152315997 ], [ -87.443266004, 34.152086996 ], [ -87.443210304, 34.151399799 ], [ -87.443512604, 34.150345795 ], [ -87.444200903, 34.149726897 ], [ -87.444668703, 34.149085298 ], [ -87.444695704, 34.148466699 ], [ -87.444556907, 34.147275694 ], [ -87.444115505, 34.146634594 ], [ -87.443839706, 34.146359794 ], [ -87.442517206, 34.146154396 ], [ -87.4420764, 34.146292098 ], [ -87.441663302, 34.146521397 ], [ -87.441443205, 34.146956697 ], [ -87.440892704, 34.147575498 ], [ -87.440672606, 34.147942096 ], [ -87.440233305, 34.149752095 ], [ -87.440150701, 34.149820894 ], [ -87.440013304, 34.150301993 ], [ -87.439545304, 34.150920793 ], [ -87.439187303, 34.151104197 ], [ -87.438774005, 34.151104398 ], [ -87.438277803, 34.150783993 ], [ -87.435659401, 34.149548396 ], [ -87.4351907, 34.149113394 ], [ -87.435135506, 34.148930095 ], [ -87.434831902, 34.148472093 ], [ -87.434831902, 34.1483576 ], [ -87.4343905, 34.147647694 ], [ -87.433205202, 34.146823697 ], [ -87.431744404, 34.146045499 ], [ -87.431413807, 34.145953998 ] ] } },
{ "type": "Feature", "properties": { "site_no": "02450825", "nhdplus_comid": "18579499", "navigation_mode": "UM", "requested_distance_km": 12.0, "start_source": "nwissite", "start_id": "USGS-02450825", "geometry_length_km": 0.1683690167985108 }, "geometry": { "type": "LineString", "coordinates": [ [ -87.444589503, 34.1531858 ], [ -87.444038302, 34.153117396 ], [ -87.443542205, 34.152888596 ], [ -87.443404004, 34.152315997 ] ] } }
]
}
