{
"type": "FeatureCollection",
"name": "USGS_02371500_DM_12km",
"crs": { "type": "name", "properties": { "name": "urn:ogc:def:crs:OGC:1.3:CRS84" } },
"features": [
{ "type": "Feature", "properties": { "site_no": "02371500", "nhdplus_comid": "2377281", "navigation_mode": "DM", "requested_distance_km": 12.0, "start_source": "nwissite", "start_id": "USGS-02371500", "geometry_length_km": 0.24375608768844476 }, "geometry": { "type": "LineString", "coordinates": [ [ -86.251160125, 31.573611649 ], [ -86.251298301, 31.573989496 ], [ -86.251699105, 31.574471094 ], [ -86.251832403, 31.574929595 ], [ -86.252072901, 31.575204797 ], [ -86.252528004, 31.575159393 ] ] } },
{ "type": "Feature", "properties": { "site_no": "02371500", "nhdplus_comid": "2376959", "navigation_mode": "DM", "requested_distance_km": 12.0, "start_source": "nwissite", "start_id": "USGS-02371500", "geometry_length_km": 2.6823490231598224 }, "geometry": { "type": "LineString", "coordinates": [ [ -86.252528004, 31.575159393 ], [ -86.252608605, 31.574953198 ], [ -86.2533594, 31.574014395 ], [ -86.253413506, 31.573418699 ], [ -86.252932802, 31.572616197 ], [ -86.252960302, 31.572043195 ], [ -86.253550507, 31.571012698 ], [ -86.254166603, 31.570669398 ], [ -86.254193604, 31.5704633 ], [ -86.253899701, 31.570073396 ], [ -86.253739707, 31.569546193 ], [ -86.253472202, 31.569385499 ], [ -86.252508506, 31.569544993 ], [ -86.252054103, 31.569109194 ], [ -86.252054401, 31.568811297 ], [ -86.252912402, 31.567757994 ], [ -86.252939902, 31.567139298 ], [ -86.252806306, 31.566932894 ], [ -86.252806902, 31.566451699 ], [ -86.253021501, 31.566062294 ], [ -86.253102601, 31.565512396 ], [ -86.252648801, 31.564549595 ], [ -86.2525151, 31.564411893 ], [ -86.2521694, 31.56267 ], [ -86.252117902, 31.561203294 ], [ -86.252574906, 31.559622593 ], [ -86.252656102, 31.559003994 ], [ -86.253086001, 31.557537794 ], [ -86.253407903, 31.557011098 ], [ -86.253916904, 31.556530297 ], [ -86.254318602, 31.556347296 ], [ -86.255094804, 31.556233495 ], [ -86.255496107, 31.5563256 ], [ -86.255709901, 31.5565091 ], [ -86.255950302, 31.556898899 ], [ -86.256378107, 31.5572889 ] ] } },
{ "type": "Feature", "properties": { "site_no": "02371500", "nhdplus_comid": "2376961", "navigation_mode": "DM", "requested_distance_km": 12.0, "start_source": "nwissite", "start_id": "USGS-02371500", "geometry_length_km": 2.1778017900182962 }, "geometry": { "type": "LineString", "coordinates": [ [ -86.256378107, 31.5572889 ], [ -86.258251503, 31.557244696 ], [ -86.258599706, 31.556993 ], [ -86.259323202, 31.5562604 ], [ -86.259590901, 31.556214795 ], [ -86.260019004, 31.556306794 ], [ -86.260714106, 31.556811593 ], [ -86.261008404, 31.556811795 ], [ -86.2619991, 31.556400299 ], [ -86.262962602, 31.556309499 ], [ -86.263257302, 31.5561722 ], [ -86.263311006, 31.555965997 ], [ -86.263230801, 31.555874296 ], [ -86.262348004, 31.555621393 ], [ -86.261973605, 31.5554149 ], [ -86.261973903, 31.555162795 ], [ -86.262134701, 31.555002496 ], [ -86.264998503, 31.554707095 ], [ -86.267220102, 31.554273695 ], [ -86.267568007, 31.554388493 ], [ -86.2679957, 31.554801397 ], [ -86.268503606, 31.555214293 ], [ -86.268797904, 31.555306196 ], [ -86.269788101, 31.555238299 ], [ -86.270349607, 31.555651195 ], [ -86.270375706, 31.556407496 ], [ -86.270642906, 31.556774296 ], [ -86.2709103, 31.556957893 ], [ -86.271338403, 31.556981198 ], [ -86.2719808, 31.556912899 ], [ -86.273078404, 31.556547195 ] ] } },
{ "type": "Feature", "properties": { "site_no": "02371500", "nhdplus_comid": "2376967", "navigation_mode": "DM", "requested_distance_km": 12.0, "start_source": "nwissite", "start_id": "USGS-02371500", "geometry_length_km": 0.80353602247885736 }, "geometry": { "type": "LineString", "coordinates": [ [ -86.273078404, 31.556547195 ], [ -86.273266204, 31.556157693 ], [ -86.273159407, 31.555882595 ], [ -86.2725446, 31.555332199 ], [ -86.272545002, 31.554805197 ], [ -86.272036806, 31.554621398 ], [ -86.271742605, 31.554437794 ], [ -86.271850005, 31.5540713 ], [ -86.272680506, 31.553269893 ], [ -86.272894703, 31.5531784 ], [ -86.273135401, 31.553293198 ], [ -86.273562901, 31.553889297 ], [ -86.273750201, 31.5539812 ], [ -86.274071306, 31.554004297 ], [ -86.274285503, 31.553889893 ], [ -86.274259202, 31.553500295 ], [ -86.274688102, 31.552790195 ] ] } },
{ "type": "Feature", "properties": { "site_no": "02371500", "nhdplus_comid": "2376981", "navigation_mode": "DM", "requested_distance_km": 12.0, "start_source": "nwissite", "start_id": "USGS-02371500", "geometry_length_km": 2.4361974488225084 }, "geometry": { "type": "LineString", "coordinates": [ [ -86.274688102, 31.552790195 ], [ -86.275866002, 31.552309997 ], [ -86.276375204, 31.551645793 ], [ -86.277231902, 31.551325694 ], [ -86.277928106, 31.550867796 ], [ -86.278249703, 31.550386898 ], [ -86.2786256, 31.5491497 ], [ -86.278492205, 31.548874594 ], [ -86.277877301, 31.548278399 ], [ -86.277877703, 31.547797099 ], [ -86.278306507, 31.547224596 ], [ -86.278734706, 31.547133297 ], [ -86.2790289, 31.547248095 ], [ -86.280018106, 31.548211195 ], [ -86.280232206, 31.548211396 ], [ -86.280419603, 31.548119895 ], [ -86.281116404, 31.547020495 ], [ -86.281545103, 31.546516597 ], [ -86.281919904, 31.546310596 ], [ -86.282187805, 31.546081699 ], [ -86.282429002, 31.545669399 ], [ -86.282564104, 31.544179894 ], [ -86.282912403, 31.543767698 ], [ -86.283474401, 31.543699399 ], [ -86.283875607, 31.5438601 ], [ -86.283982404, 31.544066399 ], [ -86.284035303, 31.544799693 ], [ -86.284463406, 31.544845894 ], [ -86.284838207, 31.544685699 ], [ -86.285052605, 31.544319198 ], [ -86.286123402, 31.543907396 ], [ -86.286498405, 31.543449394 ], [ -86.286819503, 31.543403797 ], [ -86.287140407, 31.543587394 ], [ -86.287621506, 31.544206396 ], [ -86.287834801, 31.545054495 ], [ -86.288075306, 31.545283794 ] ] } },
{ "type": "Feature", "properties": { "site_no": "02371500", "nhdplus_comid": "2376977", "navigation_mode": "DM", "requested_distance_km": 12.0, "start_source": "nwissite", "start_id": "USGS-02371500", "geometry_length_km": 0.47034898513651568 }, "geometry": { "type": "LineString", "coordinates": [ [ -86.288075306, 31.545283794 ], [ -86.289654501, 31.544780694 ], [ -86.290082701, 31.544964299 ], [ -86.290349901, 31.545216598 ], [ -86.290671006, 31.545262598 ], [ -86.291099504, 31.544942096 ], [ -86.291661605, 31.544690393 ], [ -86.291902803, 31.544323899 ], [ -86.291849606, 31.544003099 ] ] } },
{ "type": "Feature", "properties": { "site_no": "02371500", "nhdplus_comid": "2376987", "navigation_mode": "DM", "requested_distance_km": 12.0, "start_source": "nwissite", "start_id": "USGS-02371500", "geometry_length_km": 1.3475482108830796 }, "geometry": { "type": "LineString", "coordinates": [ [ -86.291849606, 31.544003099 ], [ -86.290806904, 31.542810693 ], [ -86.290727206, 31.542306595 ], [ -86.291048601, 31.541871294 ], [ -86.291476801, 31.541848697 ], [ -86.291770801, 31.542100899 ], [ -86.291877501, 31.542513497 ], [ -86.292118207, 31.542696998 ], [ -86.293054603, 31.542835094 ], [ -86.2934025, 31.542743698 ], [ -86.2934561, 31.542652093 ], [ -86.2931621, 31.542216495 ], [ -86.293108903, 31.541895598 ], [ -86.293349907, 31.541712396 ], [ -86.293671004, 31.541712694 ], [ -86.293911502, 31.541964896 ], [ -86.294473402, 31.542056896 ], [ -86.295436904, 31.541942894 ], [ -86.295918703, 31.541736998 ], [ -86.296266705, 31.541462198 ], [ -86.296508007, 31.540981099 ], [ -86.296588503, 31.540614493 ], [ -86.2964819, 31.540110298 ], [ -86.296722807, 31.539835498 ], [ -86.297365203, 31.539744198 ], [ -86.2981949, 31.539400898 ] ] } },
{ "type": "Feature", "properties": { "site_no": "02371500", "nhdplus_comid": "2377007", "navigation_mode": "DM", "requested_distance_km": 12.0, "start_source": "nwissite", "start_id": "USGS-02371500", "geometry_length_km": 1.6871852639437706 }, "geometry": { "type": "LineString", "coordinates": [ [ -86.2981949, 31.539400898 ], [ -86.298570007, 31.538736597 ], [ -86.298919104, 31.537224397 ], [ -86.299240604, 31.536789194 ], [ -86.299267501, 31.536560096 ], [ -86.298572302, 31.535986796 ], [ -86.299242005, 31.534910098 ], [ -86.299590103, 31.534543693 ], [ -86.300098605, 31.534360595 ], [ -86.3004997, 31.534567095 ], [ -86.300820902, 31.534613095 ], [ -86.301249102, 31.534269594 ], [ -86.301169604, 31.533375897 ], [ -86.301277101, 31.532734297 ], [ -86.3013326, 31.530030198 ], [ -86.300878905, 31.528609194 ], [ -86.300611705, 31.528219499 ], [ -86.300317504, 31.528035998 ], [ -86.300023206, 31.528035797 ], [ -86.299782306, 31.528241895 ], [ -86.299594805, 31.528608397 ], [ -86.2993806, 31.528791599 ], [ -86.2990328, 31.528768495 ] ] } }
]
}
