{
"type": "FeatureCollection",
"name": "USGS_02416481_UM_12km",
"crs": { "type": "name", "properties": { "name": "urn:ogc:def:crs:OGC:1.3:CRS84" } },
"features": [
{ "type": "Feature", "properties": { "site_no": "02416481", "nhdplus_comid": "22038085", "navigation_mode": "UM", "requested_distance_km": 12.0, "start_source": "nwissite", "start_id": "USGS-02416481", "geometry_length_km": 0.61754628913485854 }, "geometry": { "type": "LineString", "coordinates": [ [ -85.767153203, 32.767307796 ], [ -85.7683459, 32.767652497 ], [ -85.768616706, 32.767835997 ], [ -85.768887505, 32.768156894 ], [ -85.768914506, 32.768317297 ], [ -85.769158006, 32.768706895 ], [ -85.769212, 32.769073598 ], [ -85.769482605, 32.769509099 ], [ -85.769671805, 32.770013198 ], [ -85.769753002, 32.770059094 ], [ -85.769887902, 32.770700596 ], [ -85.770050004, 32.771181896 ], [ -85.770374805, 32.771663196 ], [ -85.770376493, 32.771685793 ] ] } },
{ "type": "Feature", "properties": { "site_no": "02416481", "nhdplus_comid": "22038089", "navigation_mode": "UM", "requested_distance_km": 12.0, "start_source": "nwissite", "start_id": "USGS-02416481", "geometry_length_km": 1.0717029128206834 }, "geometry": { "type": "LineString", "coordinates": [ [ -85.758145005, 32.771904394 ], [ -85.758145601, 32.771446198 ], [ -85.759285204, 32.770966098 ], [ -85.7600988, 32.770829394 ], [ -85.761020601, 32.7709677 ], [ -85.761998005, 32.769960694 ], [ -85.762649603, 32.769319795 ], [ -85.763490804, 32.768793598 ], [ -85.7661229, 32.767238095 ], [ -85.7666924, 32.767146997 ], [ -85.767153203, 32.767307796 ] ] } }
]
}
