{
"type": "FeatureCollection",
"name": "USGS_02418764_DM_12km",
"crs": { "type": "name", "properties": { "name": "urn:ogc:def:crs:OGC:1.3:CRS84" } },
"features": [
{ "type": "Feature", "properties": { "site_no": "02418764", "nhdplus_comid": "21712422", "navigation_mode": "DM", "requested_distance_km": 12.0, "start_source": "nwissite", "start_id": "USGS-02418764", "geometry_length_km": 0.8021704643005102 }, "geometry": { "type": "LineString", "coordinates": [ [ -85.472273887, 32.586614372 ], [ -85.473248504, 32.585601896 ], [ -85.473842807, 32.584685095 ], [ -85.474572405, 32.583768196 ], [ -85.475302406, 32.583309494 ], [ -85.477112606, 32.580948599 ], [ -85.477247804, 32.580811098 ] ] } },
{ "type": "Feature", "properties": { "site_no": "02418764", "nhdplus_comid": "21712672", "navigation_mode": "DM", "requested_distance_km": 12.0, "start_source": "nwissite", "start_id": "USGS-02418764", "geometry_length_km": 4.2900439046925261 }, "geometry": { "type": "LineString", "coordinates": [ [ -85.477247804, 32.580811098 ], [ -85.477274701, 32.580650695 ], [ -85.479950406, 32.578059994 ], [ -85.4805713, 32.576959893 ], [ -85.480570801, 32.576478899 ], [ -85.480381005, 32.576089598 ], [ -85.4805158, 32.575700097 ], [ -85.4813537, 32.574943498 ], [ -85.481272101, 32.574668594 ], [ -85.480974205, 32.574393995 ], [ -85.480892204, 32.573592193 ], [ -85.480756603, 32.5733862 ], [ -85.479619101, 32.572356299 ], [ -85.479429305, 32.571966998 ], [ -85.479483202, 32.571737893 ], [ -85.480105504, 32.5717832 ], [ -85.480294704, 32.571691394 ], [ -85.480537504, 32.571095593 ], [ -85.480780803, 32.570889197 ], [ -85.481024101, 32.570797399 ], [ -85.481294304, 32.570522197 ], [ -85.481997803, 32.570521593 ], [ -85.482565604, 32.570291996 ], [ -85.482808806, 32.570039898 ], [ -85.483187303, 32.569879197 ], [ -85.4834847, 32.569695696 ], [ -85.484242402, 32.569717996 ], [ -85.484512202, 32.569145098 ], [ -85.484457001, 32.568320394 ], [ -85.483860202, 32.566923596 ], [ -85.483643606, 32.566786297 ], [ -85.4829669, 32.566489093 ], [ -85.482722402, 32.565527096 ], [ -85.482965603, 32.565320797 ], [ -85.483073205, 32.564862594 ], [ -85.483722307, 32.564678699 ], [ -85.4841277, 32.564357698 ], [ -85.484316602, 32.563990995 ], [ -85.484262004, 32.563532896 ], [ -85.484153502, 32.563281 ], [ -85.484153003, 32.562891498 ], [ -85.484261006, 32.562639497 ], [ -85.484314606, 32.562272899 ], [ -85.484584503, 32.561791696 ], [ -85.484611101, 32.561402097 ], [ -85.484529905, 32.5613335 ], [ -85.484475203, 32.560852498 ], [ -85.484664202, 32.560531698 ], [ -85.484690405, 32.559844397 ], [ -85.484987304, 32.559340194 ], [ -85.485500805, 32.558835797 ], [ -85.486933403, 32.558055699 ], [ -85.4873925, 32.5574826 ], [ -85.488067403, 32.5563595 ], [ -85.4880125, 32.555718094 ], [ -85.488363601, 32.555305496 ], [ -85.488904402, 32.555144697 ], [ -85.489066906, 32.555327699 ], [ -85.489365004, 32.555808499 ], [ -85.4896897, 32.555922799 ], [ -85.489960201, 32.555830896 ], [ -85.4900681, 32.555578895 ], [ -85.489878304, 32.555258296 ], [ -85.4898507, 32.554777294 ], [ -85.489958405, 32.554456495 ], [ -85.489930704, 32.553860895 ], [ -85.489768006, 32.553609096 ], [ -85.4891994, 32.5531056 ], [ -85.489009105, 32.552326895 ] ] } },
{ "type": "Feature", "properties": { "site_no": "02418764", "nhdplus_comid": "21712734", "navigation_mode": "DM", "requested_distance_km": 12.0, "start_source": "nwissite", "start_id": "USGS-02418764", "geometry_length_km": 0.95533646073917922 }, "geometry": { "type": "LineString", "coordinates": [ [ -85.489009105, 32.552326895 ], [ -85.488684401, 32.552258395 ], [ -85.488413505, 32.551892199 ], [ -85.488196507, 32.551319599 ], [ -85.4874916, 32.549991697 ], [ -85.487491407, 32.549854197 ], [ -85.487112001, 32.549213096 ], [ -85.487138905, 32.549075596 ], [ -85.486840904, 32.5486864 ], [ -85.485975102, 32.548435196 ], [ -85.485352501, 32.548069298 ], [ -85.484973103, 32.547565594 ], [ -85.485000104, 32.547382295 ], [ -85.485648304, 32.546648696 ], [ -85.485593706, 32.546282195 ], [ -85.485160001, 32.545480795 ] ] } },
{ "type": "Feature", "properties": { "site_no": "02418764", "nhdplus_comid": "21713172", "navigation_mode": "DM", "requested_distance_km": 12.0, "start_source": "nwissite", "start_id": "USGS-02418764", "geometry_length_km": 1.0126378976878714 }, "geometry": { "type": "LineString", "coordinates": [ [ -85.485160001, 32.545480795 ], [ -85.485159904, 32.545343295 ], [ -85.485673502, 32.545090899 ], [ -85.486214302, 32.544998899 ], [ -85.487106301, 32.544608697 ], [ -85.489376903, 32.543575794 ], [ -85.489890605, 32.543483697 ], [ -85.490350403, 32.543483198 ], [ -85.490891002, 32.543207794 ], [ -85.492592804, 32.541671395 ], [ -85.493376605, 32.541258395 ], [ -85.493916705, 32.540662199 ] ] } },
{ "type": "Feature", "properties": { "site_no": "02418764", "nhdplus_comid": "21712836", "navigation_mode": "DM", "requested_distance_km": 12.0, "start_source": "nwissite", "start_id": "USGS-02418764", "geometry_length_km": 1.3954820140914974 }, "geometry": { "type": "LineString", "coordinates": [ [ -85.493916705, 32.540662199 ], [ -85.493889101, 32.540249899 ], [ -85.493834004, 32.539402395 ], [ -85.493941903, 32.539287798 ], [ -85.495429002, 32.538942695 ], [ -85.496023402, 32.538552798 ], [ -85.496482402, 32.538071297 ], [ -85.496833302, 32.537521094 ], [ -85.496778801, 32.537223399 ], [ -85.496670507, 32.537108995 ], [ -85.495832205, 32.537155598 ], [ -85.495642602, 32.536880799 ], [ -85.495642006, 32.536468498 ], [ -85.4964258, 32.5361242 ], [ -85.4969116, 32.535367697 ], [ -85.497613706, 32.534633994 ], [ -85.497882403, 32.5333279 ], [ -85.498799406, 32.531517394 ], [ -85.499015503, 32.5313797 ] ] } },
{ "type": "Feature", "properties": { "site_no": "02418764", "nhdplus_comid": "21712864", "navigation_mode": "DM", "requested_distance_km": 12.0, "start_source": "nwissite", "start_id": "USGS-02418764", "geometry_length_km": 0.57110535744691471 }, "geometry": { "type": "LineString", "coordinates": [ [ -85.499015503, 32.5313797 ], [ -85.499014802, 32.530898698 ], [ -85.499526806, 32.529546596 ], [ -85.499471605, 32.528744899 ], [ -85.499308601, 32.528309695 ], [ -85.498794302, 32.5278292 ], [ -85.4985772, 32.527302496 ], [ -85.498414807, 32.5272111 ], [ -85.497711703, 32.527120098 ] ] } },
{ "type": "Feature", "properties": { "site_no": "02418764", "nhdplus_comid": "21712946", "navigation_mode": "DM", "requested_distance_km": 12.0, "start_source": "nwissite", "start_id": "USGS-02418764", "geometry_length_km": 1.7579700226824868 }, "geometry": { "type": "LineString", "coordinates": [ [ -85.497711703, 32.527120098 ], [ -85.497495204, 32.526982799 ], [ -85.497440606, 32.526639298 ], [ -85.497575305, 32.526318498 ], [ -85.497385107, 32.525562696 ], [ -85.496653602, 32.524463795 ], [ -85.496680103, 32.524074294 ], [ -85.496977203, 32.523822099 ], [ -85.497652806, 32.523546495 ], [ -85.498030804, 32.523133799 ], [ -85.498408005, 32.522217095 ], [ -85.498894304, 32.521895997 ], [ -85.499541901, 32.520956099 ], [ -85.499568701, 32.5207498 ], [ -85.499514401, 32.520589493 ], [ -85.499027602, 32.520452596 ], [ -85.498783804, 32.520200796 ], [ -85.498594001, 32.519765794 ], [ -85.498593204, 32.519193098 ], [ -85.498889804, 32.518620096 ], [ -85.498158902, 32.5179106 ], [ -85.497969307, 32.5176818 ], [ -85.497914203, 32.516902894 ], [ -85.497778505, 32.516536497 ], [ -85.4972369, 32.515895598 ], [ -85.4969116, 32.515300393 ], [ -85.496884204, 32.5150484 ], [ -85.496504605, 32.514224097 ], [ -85.496368706, 32.513628595 ] ] } }
]
}
