{
"type": "FeatureCollection",
"name": "USGS_02468000_DM_12km",
"crs": { "type": "name", "properties": { "name": "urn:ogc:def:crs:OGC:1.3:CRS84" } },
"features": [
{ "type": "Feature", "properties": { "site_no": "02468000", "nhdplus_comid": "18533178", "navigation_mode": "DM", "requested_distance_km": 12.0, "start_source": "nwissite", "start_id": "USGS-02468000", "geometry_length_km": 0.75784438009286093 }, "geometry": { "type": "LineString", "coordinates": [ [ -88.33894288, 32.43701992 ], [ -88.338808104, 32.437055998 ], [ -88.338537902, 32.437330894 ], [ -88.338564806, 32.437628694 ], [ -88.338645801, 32.437766097 ], [ -88.338942803, 32.438086994 ], [ -88.338969804, 32.438224398 ], [ -88.338618703, 32.438178495 ], [ -88.338078402, 32.438040994 ], [ -88.3378352, 32.438109599 ], [ -88.337592006, 32.438407399 ], [ -88.337510906, 32.438590594 ], [ -88.337564707, 32.439186297 ], [ -88.337726705, 32.439598694 ], [ -88.338185906, 32.439919494 ], [ -88.338266805, 32.440148696 ], [ -88.338158704, 32.440240197 ], [ -88.337861501, 32.440240197 ], [ -88.3375374, 32.440056793 ], [ -88.337348305, 32.439827695 ], [ -88.337132305, 32.439827599 ], [ -88.337051101, 32.439942099 ], [ -88.336997002, 32.440354496 ], [ -88.337078005, 32.440469094 ], [ -88.337105006, 32.440629393 ] ] } },
{ "type": "Feature", "properties": { "site_no": "02468000", "nhdplus_comid": "18533130", "navigation_mode": "DM", "requested_distance_km": 12.0, "start_source": "nwissite", "start_id": "USGS-02468000", "geometry_length_km": 0.80055946840887382 }, "geometry": { "type": "LineString", "coordinates": [ [ -88.337105006, 32.440629393 ], [ -88.337186106, 32.440629497 ], [ -88.337294102, 32.440698199 ], [ -88.337293804, 32.441179499 ], [ -88.337536901, 32.441454396 ], [ -88.337536804, 32.441866696 ], [ -88.337320603, 32.442164496 ], [ -88.337131403, 32.442324795 ], [ -88.337131307, 32.442714296 ], [ -88.337320402, 32.4428747 ], [ -88.337887704, 32.442783199 ], [ -88.338103801, 32.442897797 ], [ -88.338157706, 32.443126895 ], [ -88.338049404, 32.443974495 ], [ -88.337941304, 32.444157794 ], [ -88.337806106, 32.444226496 ], [ -88.337482005, 32.444203496 ], [ -88.336995803, 32.443997197 ], [ -88.336671606, 32.444088697 ], [ -88.336698502, 32.444363698 ], [ -88.337400705, 32.444707394 ], [ -88.337373704, 32.444936596 ], [ -88.337130502, 32.445073999 ] ] } },
{ "type": "Feature", "properties": { "site_no": "02468000", "nhdplus_comid": "18533100", "navigation_mode": "DM", "requested_distance_km": 12.0, "start_source": "nwissite", "start_id": "USGS-02468000", "geometry_length_km": 0.65670031288535502 }, "geometry": { "type": "LineString", "coordinates": [ [ -88.337130502, 32.445073999 ], [ -88.336374007, 32.444959298 ], [ -88.336293004, 32.444982097 ], [ -88.335914604, 32.445348598 ], [ -88.335617304, 32.445554696 ], [ -88.335644104, 32.446196198 ], [ -88.3353469, 32.4464252 ], [ -88.334941506, 32.446699999 ], [ -88.3347793, 32.446883194 ], [ -88.334806301, 32.447135195 ], [ -88.335211404, 32.447410293 ], [ -88.335184306, 32.447730996 ], [ -88.334779002, 32.448028699 ], [ -88.334778607, 32.448784694 ], [ -88.334670506, 32.448990799 ], [ -88.3344272, 32.449174099 ] ] } },
{ "type": "Feature", "properties": { "site_no": "02468000", "nhdplus_comid": "18533082", "navigation_mode": "DM", "requested_distance_km": 12.0, "start_source": "nwissite", "start_id": "USGS-02468000", "geometry_length_km": 0.14401855488135457 }, "geometry": { "type": "LineString", "coordinates": [ [ -88.3344272, 32.449174099 ], [ -88.334346101, 32.449494898 ], [ -88.334427007, 32.450136393 ], [ -88.334291704, 32.450434096 ] ] } },
{ "type": "Feature", "properties": { "site_no": "02468000", "nhdplus_comid": "18533074", "navigation_mode": "DM", "requested_distance_km": 12.0, "start_source": "nwissite", "start_id": "USGS-02468000", "geometry_length_km": 2.2016792273059607 }, "geometry": { "type": "LineString", "coordinates": [ [ -88.334291704, 32.450434096 ], [ -88.334048502, 32.450479895 ], [ -88.333237901, 32.450548396 ], [ -88.332778506, 32.450731598 ], [ -88.332373202, 32.451097995 ], [ -88.332427107, 32.451327093 ], [ -88.332751207, 32.4516479 ], [ -88.332724005, 32.451808199 ], [ -88.332507901, 32.4519227 ], [ -88.332021505, 32.452105895 ], [ -88.331805207, 32.452449493 ], [ -88.331372604, 32.452838793 ], [ -88.331372604, 32.452953398 ], [ -88.331507705, 32.453067996 ], [ -88.331453703, 32.453228295 ], [ -88.3310211, 32.453480199 ], [ -88.330615707, 32.453846596 ], [ -88.330021106, 32.454075493 ], [ -88.329318404, 32.454625197 ], [ -88.329075202, 32.454716794 ], [ -88.328642905, 32.454693697 ], [ -88.328237504, 32.454739399 ], [ -88.328021303, 32.454922594 ], [ -88.328075103, 32.455541097 ], [ -88.328183003, 32.455770195 ], [ -88.328182802, 32.456365898 ], [ -88.327966504, 32.456617899 ], [ -88.327723302, 32.456686497 ], [ -88.327345006, 32.456640594 ], [ -88.327264003, 32.456594698 ], [ -88.327102005, 32.456319794 ], [ -88.326750703, 32.456319593 ], [ -88.326345302, 32.456640199 ], [ -88.325804405, 32.457441896 ], [ -88.325074703, 32.4579686 ], [ -88.325074501, 32.458380997 ], [ -88.325128503, 32.458472595 ], [ -88.325128302, 32.458770394 ], [ -88.324614801, 32.459068097 ], [ -88.324587606, 32.459434599 ], [ -88.325100802, 32.459892996 ], [ -88.325127803, 32.460099198 ], [ -88.324803405, 32.460236497 ], [ -88.324317001, 32.4603967 ], [ -88.324046604, 32.460694395 ], [ -88.323992401, 32.460946396 ], [ -88.324019201, 32.461610898 ], [ -88.324181005, 32.462160796 ], [ -88.324289002, 32.462366998 ], [ -88.324586101, 32.462596193 ], [ -88.3251535, 32.462802596 ], [ -88.325207502, 32.462985896 ] ] } },
{ "type": "Feature", "properties": { "site_no": "02468000", "nhdplus_comid": "18533012", "navigation_mode": "DM", "requested_distance_km": 12.0, "start_source": "nwissite", "start_id": "USGS-02468000", "geometry_length_km": 0.8146292312277289 }, "geometry": { "type": "LineString", "coordinates": [ [ -88.325207502, 32.462985896 ], [ -88.325072303, 32.463077493 ], [ -88.324585907, 32.463214695 ], [ -88.324450701, 32.463397995 ], [ -88.324477606, 32.463558398 ], [ -88.324774705, 32.463764593 ], [ -88.324747607, 32.464039594 ], [ -88.324531302, 32.464176998 ], [ -88.3240989, 32.464359999 ], [ -88.323882602, 32.464703597 ], [ -88.323882505, 32.464795299 ], [ -88.3240446, 32.464955598 ], [ -88.324044406, 32.465276398 ], [ -88.323909305, 32.465436794 ], [ -88.323963106, 32.465619996 ], [ -88.324179307, 32.465780497 ], [ -88.324935906, 32.4659869 ], [ -88.324935704, 32.466193095 ], [ -88.324395306, 32.466284595 ], [ -88.324178904, 32.466559395 ], [ -88.324178606, 32.467155099 ], [ -88.324016303, 32.467429899 ], [ -88.323719002, 32.4676589 ], [ -88.3235837, 32.467910893 ], [ -88.323610604, 32.468208693 ] ] } },
{ "type": "Feature", "properties": { "site_no": "02468000", "nhdplus_comid": "18532982", "navigation_mode": "DM", "requested_distance_km": 12.0, "start_source": "nwissite", "start_id": "USGS-02468000", "geometry_length_km": 3.4095941554649292 }, "geometry": { "type": "LineString", "coordinates": [ [ -88.323610604, 32.468208693 ], [ -88.323664606, 32.468437895 ], [ -88.3236375, 32.468712695 ], [ -88.323367104, 32.468895994 ], [ -88.322529301, 32.468895696 ], [ -88.3221239, 32.469078794 ], [ -88.321745306, 32.4693994 ], [ -88.321745105, 32.470109597 ], [ -88.321582705, 32.470338695 ], [ -88.321393505, 32.470521897 ], [ -88.320312403, 32.4707276 ], [ -88.319988102, 32.4707046 ], [ -88.319853, 32.470612898 ], [ -88.319582805, 32.470704496 ], [ -88.319474503, 32.470841795 ], [ -88.319393404, 32.471025094 ], [ -88.319312103, 32.471414499 ], [ -88.319014601, 32.471895494 ], [ -88.319041505, 32.472193293 ], [ -88.319149502, 32.472307898 ], [ -88.319825105, 32.472285196 ], [ -88.319824904, 32.472720496 ], [ -88.319608502, 32.473201595 ], [ -88.319392204, 32.473338895 ], [ -88.319257103, 32.473338895 ], [ -88.319014102, 32.472857699 ], [ -88.318743803, 32.472903393 ], [ -88.318662703, 32.472994998 ], [ -88.318689302, 32.4737968 ], [ -88.3184999, 32.474163294 ], [ -88.318148404, 32.474369399 ], [ -88.317580901, 32.4744609 ], [ -88.317256503, 32.474437699 ], [ -88.3169863, 32.474323094 ], [ -88.316743001, 32.474391796 ], [ -88.316391706, 32.474345796 ], [ -88.3162027, 32.474093698 ], [ -88.316067502, 32.473956198 ], [ -88.315662101, 32.474001899 ], [ -88.315418907, 32.4741164 ], [ -88.315094501, 32.474093296 ], [ -88.314932406, 32.474024497 ], [ -88.314689204, 32.4740244 ], [ -88.314473003, 32.474115998 ], [ -88.312932506, 32.474115297 ], [ -88.312797405, 32.4740007 ], [ -88.312716603, 32.473588295 ], [ -88.312473506, 32.473290294 ], [ -88.311987005, 32.473335899 ], [ -88.310878605, 32.473839395 ], [ -88.310527205, 32.473816298 ], [ -88.310527407, 32.473518498 ], [ -88.310689703, 32.473289497 ], [ -88.310689807, 32.473151997 ], [ -88.310527705, 32.473037399 ], [ -88.310311504, 32.473037295 ], [ -88.309662506, 32.473586798 ], [ -88.309527203, 32.473861694 ], [ -88.309337705, 32.474457197 ], [ -88.308661804, 32.474754795 ], [ -88.308499604, 32.474983796 ], [ -88.308472306, 32.475442 ], [ -88.308336906, 32.475671098 ], [ -88.308363706, 32.476014793 ], [ -88.308255501, 32.476129293 ], [ -88.307958305, 32.476060398 ], [ -88.307742201, 32.475876994 ], [ -88.307201706, 32.475807898 ], [ -88.306796506, 32.475624494 ], [ -88.306499302, 32.4753723 ], [ -88.306310102, 32.475417994 ], [ -88.306310005, 32.475669995 ], [ -88.306418002, 32.475830495 ], [ -88.306390807, 32.476128198 ], [ -88.306336604, 32.4762199 ], [ -88.306039304, 32.476196796 ], [ -88.305769302, 32.475898899 ], [ -88.305039607, 32.475852698 ], [ -88.304823406, 32.475738093 ], [ -88.304310106, 32.475485794 ], [ -88.304229304, 32.475164995 ], [ -88.304121301, 32.475004598 ], [ -88.3038508, 32.475050196 ], [ -88.303661503, 32.475141898 ], [ -88.303201705, 32.475760199 ], [ -88.3030935, 32.475828893 ], [ -88.302769303, 32.475805797 ], [ -88.302364007, 32.475553498 ] ] } },
{ "type": "Feature", "properties": { "site_no": "02468000", "nhdplus_comid": "18532916", "navigation_mode": "DM", "requested_distance_km": 12.0, "start_source": "nwissite", "start_id": "USGS-02468000", "geometry_length_km": 1.5272528547184805 }, "geometry": { "type": "LineString", "coordinates": [ [ -88.302364007, 32.475553498 ], [ -88.301607303, 32.475576095 ], [ -88.301121004, 32.475346796 ], [ -88.300661504, 32.475392297 ], [ -88.3000395, 32.475850195 ], [ -88.300012402, 32.4760793 ], [ -88.3001744, 32.476216793 ], [ -88.300147206, 32.476445898 ], [ -88.300066106, 32.476491697 ], [ -88.299795806, 32.476537295 ], [ -88.299390607, 32.476216398 ], [ -88.298634, 32.476032697 ], [ -88.298499003, 32.475895196 ], [ -88.298472106, 32.475597396 ], [ -88.298229001, 32.475459695 ], [ -88.297580406, 32.475505196 ], [ -88.297363907, 32.475711294 ], [ -88.297417805, 32.475940399 ], [ -88.297634006, 32.476077899 ], [ -88.297958203, 32.476192698 ], [ -88.298309304, 32.476536497 ], [ -88.298255004, 32.476811394 ], [ -88.298119806, 32.476902999 ], [ -88.297930703, 32.476856999 ], [ -88.2972553, 32.476535894 ], [ -88.296930805, 32.476581596 ], [ -88.296768405, 32.476787694 ], [ -88.296795405, 32.476948097 ], [ -88.297146507, 32.477429397 ], [ -88.297119305, 32.477658398 ], [ -88.297038101, 32.477772899 ], [ -88.296497405, 32.477703899 ], [ -88.295876004, 32.477543198 ], [ -88.295740902, 32.477428496 ], [ -88.295795202, 32.477153696 ], [ -88.296011604, 32.476947598 ], [ -88.296011806, 32.476718597 ], [ -88.295849703, 32.476603895 ], [ -88.2954982, 32.476695396 ], [ -88.295092702, 32.4769013 ], [ -88.294768102, 32.477198899 ], [ -88.294146307, 32.477450497 ] ] } }
]
}
