{
"type": "FeatureCollection",
"name": "USGS_02479980_DM_12km",
"crs": { "type": "name", "properties": { "name": "urn:ogc:def:crs:OGC:1.3:CRS84" } },
"features": [
{ "type": "Feature", "properties": { "site_no": "02479980", "nhdplus_comid": "18094345", "navigation_mode": "DM", "requested_distance_km": 12.0, "start_source": "nwissite", "start_id": "USGS-02479980", "geometry_length_km": 3.1306138960168455 }, "geometry": { "type": "LineString", "coordinates": [ [ -88.319153622, 30.780170293 ], [ -88.320471302, 30.778981999 ], [ -88.321519405, 30.778055996 ], [ -88.322152503, 30.777986996 ], [ -88.322820105, 30.777914099 ], [ -88.323253602, 30.777866796 ], [ -88.325489201, 30.775351994 ], [ -88.327197403, 30.772469394 ], [ -88.331147701, 30.771828793 ], [ -88.335204802, 30.772362597 ], [ -88.338621207, 30.773643799 ], [ -88.343852602, 30.7742844 ], [ -88.346574001, 30.775449194 ] ] } },
{ "type": "Feature", "properties": { "site_no": "02479980", "nhdplus_comid": "166751271", "navigation_mode": "DM", "requested_distance_km": 12.0, "start_source": "nwissite", "start_id": "USGS-02479980", "geometry_length_km": 0.28322316515421442 }, "geometry": { "type": "LineString", "coordinates": [ [ -88.346574001, 30.775449194 ], [ -88.349524505, 30.775712796 ] ] } },
{ "type": "Feature", "properties": { "site_no": "02479980", "nhdplus_comid": "18095215", "navigation_mode": "DM", "requested_distance_km": 12.0, "start_source": "nwissite", "start_id": "USGS-02479980", "geometry_length_km": 8.0351649458624053 }, "geometry": { "type": "LineString", "coordinates": [ [ -88.349524505, 30.775712796 ], [ -88.3500126, 30.772082195 ], [ -88.349656701, 30.771173097 ], [ -88.349251404, 30.766090594 ], [ -88.348089501, 30.764367394 ], [ -88.348360702, 30.761479899 ], [ -88.347882301, 30.760309495 ], [ -88.348071001, 30.758300796 ], [ -88.347861201, 30.757401697 ], [ -88.342330307, 30.752089895 ], [ -88.341366507, 30.751391195 ], [ -88.340221204, 30.751058996 ], [ -88.338206604, 30.749023698 ], [ -88.3377757, 30.747350998 ], [ -88.336322002, 30.745607294 ], [ -88.336223103, 30.745095 ], [ -88.336277701, 30.742950499 ], [ -88.335993007, 30.741287999 ], [ -88.336527206, 30.732479297 ], [ -88.337802105, 30.731430493 ], [ -88.338054404, 30.730310693 ], [ -88.339715801, 30.728277698 ], [ -88.340164103, 30.723506697 ], [ -88.3394766, 30.721437 ], [ -88.339688905, 30.719177097 ], [ -88.337138101, 30.716598794 ], [ -88.333779, 30.716365397 ], [ -88.331844904, 30.716610096 ], [ -88.329216003, 30.716427296 ] ] } }
]
}
