{
"type": "FeatureCollection",
"name": "USGS_02444000_UM_12km",
"crs": { "type": "name", "properties": { "name": "urn:ogc:def:crs:OGC:1.3:CRS84" } },
"features": [
{ "type": "Feature", "properties": { "site_no": "02444000", "nhdplus_comid": "18630772", "navigation_mode": "UM", "requested_distance_km": 12.0, "start_source": "nwissite", "start_id": "USGS-02444000", "geometry_length_km": 0.054702308777923897 }, "geometry": { "type": "LineString", "coordinates": [ [ -88.264564402, 33.294208698 ], [ -88.265084452, 33.293975641 ] ] } },
{ "type": "Feature", "properties": { "site_no": "02444000", "nhdplus_comid": "18629804", "navigation_mode": "UM", "requested_distance_km": 12.0, "start_source": "nwissite", "start_id": "USGS-02444000", "geometry_length_km": 0.14047572396988858 }, "geometry": { "type": "LineString", "coordinates": [ [ -88.263172701, 33.294688493 ], [ -88.263472706, 33.294643 ], [ -88.264018506, 33.294391498 ], [ -88.264564402, 33.294208698 ] ] } },
{ "type": "Feature", "properties": { "site_no": "02444000", "nhdplus_comid": "18630764", "navigation_mode": "UM", "requested_distance_km": 12.0, "start_source": "nwissite", "start_id": "USGS-02444000", "geometry_length_km": 0.75157647397089522 }, "geometry": { "type": "LineString", "coordinates": [ [ -88.259622902, 33.297594495 ], [ -88.259568602, 33.297319494 ], [ -88.258913904, 33.297273099 ], [ -88.258832306, 33.297181398 ], [ -88.258914307, 33.297043994 ], [ -88.259351, 33.296769597 ], [ -88.2593242, 33.296494596 ], [ -88.259051606, 33.296265297 ], [ -88.259024605, 33.296104796 ], [ -88.259761907, 33.2955328 ], [ -88.260089606, 33.295189597 ], [ -88.260308504, 33.294708699 ], [ -88.2604452, 33.294433996 ], [ -88.260854505, 33.294342697 ], [ -88.262409203, 33.294412799 ], [ -88.262900002, 33.294527896 ], [ -88.263172701, 33.294688493 ] ] } },
{ "type": "Feature", "properties": { "site_no": "02444000", "nhdplus_comid": "18629782", "navigation_mode": "UM", "requested_distance_km": 12.0, "start_source": "nwissite", "start_id": "USGS-02444000", "geometry_length_km": 0.088022744434097702 }, "geometry": { "type": "LineString", "coordinates": [ [ -88.259049103, 33.298189498 ], [ -88.259103805, 33.2981437 ], [ -88.259377107, 33.297708698 ], [ -88.259622902, 33.297594495 ] ] } },
{ "type": "Feature", "properties": { "site_no": "02444000", "nhdplus_comid": "18629778", "navigation_mode": "UM", "requested_distance_km": 12.0, "start_source": "nwissite", "start_id": "USGS-02444000", "geometry_length_km": 0.15585389423648882 }, "geometry": { "type": "LineString", "coordinates": [ [ -88.258556403, 33.299517594 ], [ -88.258638807, 33.299128294 ], [ -88.258939601, 33.298533 ], [ -88.259049103, 33.298189498 ] ] } },
{ "type": "Feature", "properties": { "site_no": "02444000", "nhdplus_comid": "18630760", "navigation_mode": "UM", "requested_distance_km": 12.0, "start_source": "nwissite", "start_id": "USGS-02444000", "geometry_length_km": 5.1259145674371762 }, "geometry": { "type": "LineString", "coordinates": [ [ -88.221941702, 33.317508399 ], [ -88.222213902, 33.317004196 ], [ -88.222131707, 33.316660695 ], [ -88.221885607, 33.316248596 ], [ -88.221858107, 33.315996595 ], [ -88.222048804, 33.315790296 ], [ -88.222594306, 33.315675296 ], [ -88.223030806, 33.315537497 ], [ -88.223494001, 33.315010294 ], [ -88.224475704, 33.3145971 ], [ -88.224830307, 33.314528197 ], [ -88.225157805, 33.314665399 ], [ -88.225376204, 33.314688094 ], [ -88.225730702, 33.314596094 ], [ -88.225921504, 33.314389795 ], [ -88.226275504, 33.313770995 ], [ -88.226465605, 33.3131295 ], [ -88.2265746, 33.312946096 ], [ -88.227065407, 33.312624998 ], [ -88.227419905, 33.312487297 ], [ -88.228047006, 33.312166095 ], [ -88.228319705, 33.312097095 ], [ -88.229629301, 33.312073097 ], [ -88.229983702, 33.311889499 ], [ -88.230283506, 33.311614394 ], [ -88.230419502, 33.311339393 ], [ -88.230528601, 33.3112019 ], [ -88.230528302, 33.311041497 ], [ -88.231182203, 33.310353793 ], [ -88.2316183, 33.309986897 ], [ -88.232163504, 33.309688598 ], [ -88.233390801, 33.309275299 ], [ -88.233854502, 33.309251897 ], [ -88.233963802, 33.309343398 ], [ -88.233991705, 33.309870295 ], [ -88.234101005, 33.3099619 ], [ -88.234346502, 33.309961595 ], [ -88.234510206, 33.309915699 ], [ -88.234591804, 33.309801094 ], [ -88.235137105, 33.309456997 ], [ -88.235191405, 33.309250697 ], [ -88.234809004, 33.3089533 ], [ -88.234754302, 33.3088388 ], [ -88.2347541, 33.308678493 ], [ -88.234863102, 33.308586694 ], [ -88.235108703, 33.308563598 ], [ -88.235544905, 33.308379896 ], [ -88.235516906, 33.3078302 ], [ -88.235653207, 33.307715595 ], [ -88.236116901, 33.3076922 ], [ -88.236690201, 33.307989493 ], [ -88.237017602, 33.307989195 ], [ -88.237426601, 33.3078513 ], [ -88.2380815, 33.307850793 ], [ -88.238408901, 33.307873398 ], [ -88.238654301, 33.307781599 ], [ -88.238817804, 33.307620995 ], [ -88.239636406, 33.307711899 ], [ -88.240427405, 33.307665296 ], [ -88.240836702, 33.307687797 ], [ -88.241354704, 33.3074812 ], [ -88.241791204, 33.307480797 ], [ -88.241872907, 33.307434797 ], [ -88.2418999, 33.307182796 ], [ -88.2414902, 33.306793898 ], [ -88.241517104, 33.306541897 ], [ -88.241544306, 33.306495994 ], [ -88.2429628, 33.306403093 ], [ -88.243917003, 33.305875294 ], [ -88.244407602, 33.305508293 ], [ -88.244870901, 33.305255897 ], [ -88.245362006, 33.305209495 ], [ -88.245416403, 33.305140696 ], [ -88.245443404, 33.304957494 ], [ -88.245060906, 33.304568395 ], [ -88.2450881, 33.304453894 ], [ -88.245496802, 33.304086894 ], [ -88.246587202, 33.303604797 ], [ -88.246886902, 33.303306699 ], [ -88.247023001, 33.303077497 ], [ -88.247131601, 33.302710898 ], [ -88.247729905, 33.3013817 ], [ -88.247892603, 33.300694399 ], [ -88.248083003, 33.300373398 ], [ -88.248437501, 33.300281495 ], [ -88.249228902, 33.300486796 ], [ -88.249692805, 33.300532199 ], [ -88.250047304, 33.300417297 ], [ -88.2506992, 33.300265998 ], [ -88.251054205, 33.299945593 ], [ -88.251381606, 33.299922995 ], [ -88.252035804, 33.300335996 ], [ -88.252363205, 33.300313398 ], [ -88.252690807, 33.300084598 ], [ -88.253072701, 33.300039299 ], [ -88.253236204, 33.300176896 ], [ -88.253235802, 33.300543398 ], [ -88.253317304, 33.3007496 ], [ -88.253753506, 33.300956294 ], [ -88.254108101, 33.300979495 ], [ -88.254135601, 33.300842099 ], [ -88.254054204, 33.300452597 ], [ -88.254136205, 33.300315194 ], [ -88.254572801, 33.300269797 ], [ -88.254899904, 33.300453395 ], [ -88.255444907, 33.300866194 ], [ -88.255799502, 33.300843693 ], [ -88.258147001, 33.299746297 ], [ -88.258419901, 33.299563393 ], [ -88.258556403, 33.299517594 ] ] } },
{ "type": "Feature", "properties": { "site_no": "02444000", "nhdplus_comid": "18629696", "navigation_mode": "UM", "requested_distance_km": 12.0, "start_source": "nwissite", "start_id": "USGS-02444000", "geometry_length_km": 1.0122781819421369 }, "geometry": { "type": "LineString", "coordinates": [ [ -88.213897906, 33.322622798 ], [ -88.213952303, 33.322393693 ], [ -88.214197606, 33.322187394 ], [ -88.214906804, 33.321957797 ], [ -88.2149885, 33.321797296 ], [ -88.215206601, 33.321522295 ], [ -88.215615802, 33.321476199 ], [ -88.215915807, 33.321338497 ], [ -88.216024704, 33.321109399 ], [ -88.216269903, 33.320834294 ], [ -88.217088506, 33.320833698 ], [ -88.217306703, 33.320787698 ], [ -88.217606701, 33.320604198 ], [ -88.218342707, 33.319916494 ], [ -88.219215706, 33.319801196 ], [ -88.219679303, 33.319640495 ], [ -88.220851704, 33.318769097 ], [ -88.221206106, 33.318471096 ], [ -88.221423507, 33.317783698 ], [ -88.221614406, 33.317623198 ], [ -88.221941702, 33.317508399 ] ] } }
]
}
