{
"type": "FeatureCollection",
"name": "USGS_02453000_UM_12km",
"crs": { "type": "name", "properties": { "name": "urn:ogc:def:crs:OGC:1.3:CRS84" } },
"features": [
{ "type": "Feature", "properties": { "site_no": "02453000", "nhdplus_comid": "18591938", "navigation_mode": "UM", "requested_distance_km": 12.0, "start_source": "nwissite", "start_id": "USGS-02453000", "geometry_length_km": 0.85535591318612025 }, "geometry": { "type": "LineString", "coordinates": [ [ -87.261777602, 33.914660998 ], [ -87.260789104, 33.9140874 ], [ -87.259718701, 33.913192898 ], [ -87.258758307, 33.912092499 ], [ -87.258320205, 33.911038294 ], [ -87.256723082, 33.908409469 ] ] } },
{ "type": "Feature", "properties": { "site_no": "02453000", "nhdplus_comid": "18591428", "navigation_mode": "UM", "requested_distance_km": 12.0, "start_source": "nwissite", "start_id": "USGS-02453000", "geometry_length_km": 2.6392042506903186 }, "geometry": { "type": "LineString", "coordinates": [ [ -87.283978805, 33.914747894 ], [ -87.276147604, 33.915039696 ], [ -87.273701802, 33.915404297 ], [ -87.273014605, 33.915632896 ], [ -87.271309003, 33.917235099 ], [ -87.270621501, 33.917715594 ], [ -87.269961901, 33.917829596 ], [ -87.269467503, 33.917668894 ], [ -87.268753506, 33.9173017 ], [ -87.267930105, 33.916544899 ], [ -87.267381705, 33.915628098 ], [ -87.266889401, 33.913749196 ], [ -87.266423605, 33.912672095 ], [ -87.265984401, 33.912305199 ], [ -87.265489802, 33.912304699 ], [ -87.2645825, 33.912739098 ], [ -87.263702504, 33.913425699 ], [ -87.262932107, 33.9142268 ], [ -87.262382202, 33.914569899 ], [ -87.261777602, 33.914660998 ] ] } },
{ "type": "Feature", "properties": { "site_no": "02453000", "nhdplus_comid": "18591436", "navigation_mode": "UM", "requested_distance_km": 12.0, "start_source": "nwissite", "start_id": "USGS-02453000", "geometry_length_km": 2.8569301403139904 }, "geometry": { "type": "LineString", "coordinates": [ [ -87.292667106, 33.908820696 ], [ -87.292803906, 33.909462094 ], [ -87.292748302, 33.910126396 ], [ -87.2925006, 33.910607398 ], [ -87.292253107, 33.910813399 ], [ -87.291401103, 33.911064796 ], [ -87.2911539, 33.911064699 ], [ -87.290714301, 33.910926893 ], [ -87.290467203, 33.910697699 ], [ -87.290275604, 33.910010293 ], [ -87.290028803, 33.909597799 ], [ -87.289616905, 33.909230895 ], [ -87.288024306, 33.9083822 ], [ -87.2869258, 33.907648399 ], [ -87.285580404, 33.906891398 ], [ -87.285031103, 33.906684794 ], [ -87.284042202, 33.906523794 ], [ -87.283053003, 33.906637497 ], [ -87.281073801, 33.907598294 ], [ -87.278874904, 33.908489995 ], [ -87.278434902, 33.908856198 ], [ -87.278187007, 33.909428693 ], [ -87.2782415, 33.909818195 ], [ -87.2785981, 33.910391293 ], [ -87.279366702, 33.911101997 ], [ -87.279860906, 33.911445998 ], [ -87.280986801, 33.912019596 ], [ -87.282360107, 33.9125017 ], [ -87.2843104, 33.9129842 ], [ -87.284914501, 33.913397096 ], [ -87.285024203, 33.913580298 ], [ -87.284996301, 33.9139698 ], [ -87.284253806, 33.914633594 ], [ -87.283978805, 33.914747894 ] ] } },
{ "type": "Feature", "properties": { "site_no": "02453000", "nhdplus_comid": "18591498", "navigation_mode": "UM", "requested_distance_km": 12.0, "start_source": "nwissite", "start_id": "USGS-02453000", "geometry_length_km": 6.592915123540072 }, "geometry": { "type": "LineString", "coordinates": [ [ -87.326137401, 33.898094095 ], [ -87.325862505, 33.898323096 ], [ -87.325230107, 33.899353594 ], [ -87.324543007, 33.899994798 ], [ -87.324268304, 33.899994694 ], [ -87.323746301, 33.899834193 ], [ -87.323142007, 33.8999255 ], [ -87.322729804, 33.900108598 ], [ -87.322647303, 33.900246099 ], [ -87.322619602, 33.900704294 ], [ -87.322152302, 33.901093498 ], [ -87.321575306, 33.901184894 ], [ -87.320558801, 33.901115693 ], [ -87.319295004, 33.901206799 ], [ -87.318470702, 33.901389696 ], [ -87.318031207, 33.901366495 ], [ -87.317756601, 33.901274793 ], [ -87.317399606, 33.900953896 ], [ -87.3172075, 33.900656097 ], [ -87.317152701, 33.900381096 ], [ -87.316686407, 33.899418697 ], [ -87.316576406, 33.899349898 ], [ -87.316137403, 33.898433395 ], [ -87.315094605, 33.896783493 ], [ -87.315039806, 33.896554396 ], [ -87.3148202, 33.896302298 ], [ -87.314463705, 33.895385697 ], [ -87.314244904, 33.893827796 ], [ -87.313861504, 33.892223999 ], [ -87.313669406, 33.891857393 ], [ -87.312983006, 33.891421795 ], [ -87.3126534, 33.891352996 ], [ -87.311444804, 33.8913294 ], [ -87.3104285, 33.891191393 ], [ -87.310126401, 33.891076699 ], [ -87.309742101, 33.890686996 ], [ -87.309357904, 33.889999598 ], [ -87.309358105, 33.889839195 ], [ -87.309275806, 33.889793299 ], [ -87.309304006, 33.888739593 ], [ -87.310074501, 33.886815697 ], [ -87.310075, 33.886151299 ], [ -87.309910402, 33.885853395 ], [ -87.309470907, 33.885876097 ], [ -87.309003606, 33.886265196 ], [ -87.308701001, 33.887066998 ], [ -87.308371104, 33.887364596 ], [ -87.307272002, 33.887890898 ], [ -87.306145303, 33.888554595 ], [ -87.304551005, 33.889836594 ], [ -87.299603, 33.894209199 ], [ -87.298448101, 33.895514399 ], [ -87.298310407, 33.895835094 ], [ -87.298337102, 33.896728396 ], [ -87.298802905, 33.898240693 ], [ -87.298912004, 33.899157099 ], [ -87.299295403, 33.900600694 ], [ -87.299377702, 33.900669396 ], [ -87.299459904, 33.901058897 ], [ -87.299899004, 33.901700594 ], [ -87.300695106, 33.902365498 ], [ -87.300804801, 33.902663298 ], [ -87.300749503, 33.902983896 ], [ -87.300309606, 33.903418995 ], [ -87.299210303, 33.9038307 ], [ -87.295967601, 33.904699199 ], [ -87.294703402, 33.905293994 ], [ -87.293548606, 33.9061867 ], [ -87.293053605, 33.906713396 ], [ -87.292640805, 33.907537796 ], [ -87.292667106, 33.908820696 ] ] } }
]
}
