{
"type": "FeatureCollection",
"name": "USGS_03575980_DM_12km",
"crs": { "type": "name", "properties": { "name": "urn:ogc:def:crs:OGC:1.3:CRS84" } },
"features": [
{ "type": "Feature", "properties": { "site_no": "03575980", "nhdplus_comid": "19620232", "navigation_mode": "DM", "requested_distance_km": 12.0, "start_source": "nwissite", "start_id": "USGS-03575980", "geometry_length_km": 2.8000446087864583 }, "geometry": { "type": "LineString", "coordinates": [ [ -86.627632904, 34.692488768 ], [ -86.627572, 34.692476794 ], [ -86.625714004, 34.692476794 ], [ -86.625408903, 34.6924081 ], [ -86.624993004, 34.692156099 ], [ -86.624688007, 34.691652194 ], [ -86.623606503, 34.690758899 ], [ -86.622941002, 34.689796694 ], [ -86.622636005, 34.688995093 ], [ -86.6225252, 34.688376598 ], [ -86.622497506, 34.686315097 ], [ -86.623135403, 34.684849195 ], [ -86.6229413, 34.683955893 ], [ -86.622608505, 34.683108397 ], [ -86.621804506, 34.681229994 ], [ -86.618061803, 34.675457597 ], [ -86.618034206, 34.675136894 ], [ -86.618256003, 34.674609996 ], [ -86.618256003, 34.6740603 ], [ -86.617646106, 34.6733502 ], [ -86.616870105, 34.671998695 ], [ -86.616703704, 34.671311498 ] ] } },
{ "type": "Feature", "properties": { "site_no": "03575980", "nhdplus_comid": "19621402", "navigation_mode": "DM", "requested_distance_km": 12.0, "start_source": "nwissite", "start_id": "USGS-03575980", "geometry_length_km": 4.071250240465262 }, "geometry": { "type": "LineString", "coordinates": [ [ -86.616703704, 34.671311498 ], [ -86.616454303, 34.671242796 ], [ -86.616066106, 34.670853294 ], [ -86.615899801, 34.670234799 ], [ -86.616121605, 34.669753894 ], [ -86.616565406, 34.669570699 ], [ -86.616593204, 34.668791898 ], [ -86.617064402, 34.668608695 ], [ -86.617591202, 34.668127693 ], [ -86.617619105, 34.667669594 ], [ -86.617508307, 34.666936494 ], [ -86.617258705, 34.666707397 ], [ -86.616343804, 34.666317999 ], [ -86.615734003, 34.665813997 ], [ -86.615151905, 34.665539093 ], [ -86.614791505, 34.665172599 ], [ -86.614708804, 34.662629999 ], [ -86.614348501, 34.661782496 ], [ -86.614348605, 34.660843395 ], [ -86.614127003, 34.659904197 ], [ -86.614348806, 34.659308597 ], [ -86.614376701, 34.658758894 ], [ -86.614238106, 34.658621497 ], [ -86.613295704, 34.658300698 ], [ -86.613212503, 34.658094496 ], [ -86.613711506, 34.6576593 ], [ -86.613739602, 34.655300096 ], [ -86.612658806, 34.653352894 ], [ -86.612603605, 34.652413793 ], [ -86.612354204, 34.652093098 ], [ -86.612326704, 34.651314296 ], [ -86.6119387, 34.650878996 ], [ -86.6119387, 34.650283493 ], [ -86.611440003, 34.649710797 ], [ -86.611356802, 34.6494359 ], [ -86.611329205, 34.648588397 ], [ -86.611052103, 34.648107193 ], [ -86.610996701, 34.647626199 ], [ -86.611800902, 34.646183297 ], [ -86.611828707, 34.6453816 ], [ -86.611939602, 34.6451068 ], [ -86.6122723, 34.644854896 ], [ -86.612771302, 34.6439844 ], [ -86.6133257, 34.643755399 ], [ -86.6136306, 34.643457696 ], [ -86.613519907, 34.642678894 ], [ -86.613658406, 34.642381094 ], [ -86.613658503, 34.641991697 ], [ -86.613547705, 34.641785599 ], [ -86.613575801, 34.6390827 ] ] } },
{ "type": "Feature", "properties": { "site_no": "03575980", "nhdplus_comid": "19621418", "navigation_mode": "DM", "requested_distance_km": 12.0, "start_source": "nwissite", "start_id": "USGS-03575980", "geometry_length_km": 2.5714309495132159 }, "geometry": { "type": "LineString", "coordinates": [ [ -86.613575801, 34.6390827 ], [ -86.615294106, 34.639014199 ], [ -86.615626603, 34.638922594 ], [ -86.616458103, 34.638006397 ], [ -86.616929404, 34.636998594 ], [ -86.617068104, 34.635853298 ], [ -86.617373005, 34.635463893 ], [ -86.618121207, 34.634845495 ], [ -86.618564703, 34.634639397 ], [ -86.619617701, 34.634456195 ], [ -86.620421402, 34.634685293 ], [ -86.621031106, 34.634387493 ], [ -86.621696204, 34.634318896 ], [ -86.6223059, 34.634341799 ], [ -86.622749306, 34.634204395 ], [ -86.623414502, 34.633837894 ], [ -86.624328904, 34.633150697 ], [ -86.624994002, 34.6324865 ], [ -86.625271104, 34.631913893 ], [ -86.625298806, 34.631272398 ], [ -86.624994002, 34.630745597 ], [ -86.624883205, 34.630562298 ], [ -86.624883205, 34.6302187 ], [ -86.624994002, 34.630012698 ], [ -86.625437401, 34.6295546 ], [ -86.625797704, 34.629439995 ], [ -86.626822904, 34.628775798 ], [ -86.627654307, 34.627905294 ], [ -86.628014505, 34.627378397 ], [ -86.628069803, 34.626782797 ], [ -86.627820402, 34.626072794 ], [ -86.6279312, 34.625637598 ], [ -86.628346905, 34.625316896 ], [ -86.628817901, 34.625294 ], [ -86.629621603, 34.625614695 ], [ -86.630175807, 34.6257063 ] ] } }
]
}
