{
"type": "FeatureCollection",
"name": "USGS_02428300_DM_12km",
"crs": { "type": "name", "properties": { "name": "urn:ogc:def:crs:OGC:1.3:CRS84" } },
"features": [
{ "type": "Feature", "properties": { "site_no": "02428300", "nhdplus_comid": "18237875", "navigation_mode": "DM", "requested_distance_km": 12.0, "start_source": "nwissite", "start_id": "USGS-02428300", "geometry_length_km": 3.7095397880070435 }, "geometry": { "type": "LineString", "coordinates": [ [ -87.304782518, 31.800322584 ], [ -87.304821901, 31.800305799 ], [ -87.305573307, 31.800283194 ], [ -87.305948704, 31.800581299 ], [ -87.306297503, 31.800650299 ], [ -87.306431703, 31.800558694 ], [ -87.306566805, 31.799137898 ], [ -87.306754902, 31.798702694 ], [ -87.307238206, 31.798450798 ], [ -87.307453707, 31.797190495 ], [ -87.307561107, 31.797098994 ], [ -87.307883002, 31.797121994 ], [ -87.308580302, 31.7976036 ], [ -87.308580101, 31.797878593 ], [ -87.3084727, 31.7980849 ], [ -87.308472507, 31.798336893 ], [ -87.308579706, 31.798428595 ], [ -87.308955401, 31.798405893 ], [ -87.309438601, 31.798108198 ], [ -87.3098948, 31.798016794 ], [ -87.310565501, 31.7981776 ], [ -87.310700007, 31.797673494 ], [ -87.310995206, 31.797627799 ], [ -87.311263502, 31.797742493 ], [ -87.311531506, 31.798109293 ], [ -87.312578, 31.798132695 ], [ -87.313302405, 31.798316397 ], [ -87.313544005, 31.798201896 ], [ -87.313544102, 31.797949895 ], [ -87.313356303, 31.797835194 ], [ -87.313356504, 31.797583096 ], [ -87.314188607, 31.797079399 ], [ -87.3150203, 31.797148496 ], [ -87.315154605, 31.796827696 ], [ -87.314940207, 31.796552598 ], [ -87.314886704, 31.796300597 ], [ -87.315047801, 31.796186 ], [ -87.315477103, 31.7960945 ], [ -87.315584406, 31.796163194 ], [ -87.315664701, 31.796461195 ], [ -87.315825604, 31.796621695 ], [ -87.316523001, 31.7968283 ], [ -87.316737801, 31.796713799 ], [ -87.316898905, 31.796461798 ], [ -87.316792205, 31.795567997 ], [ -87.316953301, 31.795407698 ], [ -87.317275301, 31.795384899 ], [ -87.317597106, 31.795545496 ], [ -87.317972302, 31.796278894 ], [ -87.318321005, 31.796485394 ], [ -87.318508901, 31.796439596 ], [ -87.318616301, 31.796256296 ], [ -87.318643406, 31.795797996 ], [ -87.318429001, 31.795408294 ], [ -87.318429202, 31.7951333 ], [ -87.318617105, 31.795064695 ], [ -87.319180407, 31.795225397 ], [ -87.319609404, 31.795706794 ], [ -87.319877602, 31.795867294 ], [ -87.321621701, 31.7957763 ], [ -87.321783006, 31.795432694 ], [ -87.322024502, 31.795272298 ], [ -87.322427005, 31.795249693 ], [ -87.322722003, 31.795387194 ], [ -87.322802305, 31.795776896 ], [ -87.323285103, 31.795960397 ], [ -87.323660605, 31.796327196 ], [ -87.324411906, 31.796510793 ], [ -87.324518904, 31.797129594 ], [ -87.3243578, 31.797312796 ], [ -87.324089505, 31.797450297 ], [ -87.323096506, 31.797610193 ], [ -87.322854906, 31.797862194 ], [ -87.322854802, 31.798205897 ], [ -87.323364504, 31.798274897 ], [ -87.323767103, 31.798091695 ], [ -87.324089102, 31.798069 ], [ -87.324491404, 31.798321195 ], [ -87.324518204, 31.798550397 ], [ -87.324786305, 31.798939995 ] ] } },
{ "type": "Feature", "properties": { "site_no": "02428300", "nhdplus_comid": "18237867", "navigation_mode": "DM", "requested_distance_km": 12.0, "start_source": "nwissite", "start_id": "USGS-02428300", "geometry_length_km": 6.0050214687890611 }, "geometry": { "type": "LineString", "coordinates": [ [ -87.324786305, 31.798939995 ], [ -87.325322807, 31.799077794 ], [ -87.325322703, 31.799306899 ], [ -87.325215302, 31.799513094 ], [ -87.325376205, 31.799719393 ], [ -87.325698204, 31.799673699 ], [ -87.326208107, 31.799375996 ], [ -87.326476805, 31.798826098 ], [ -87.326825604, 31.798757493 ], [ -87.327442706, 31.798803493 ], [ -87.327737801, 31.798918299 ], [ -87.327871904, 31.7990558 ], [ -87.327925406, 31.799422495 ], [ -87.328113206, 31.799514197 ], [ -87.328462005, 31.799422599 ], [ -87.328864902, 31.798712395 ], [ -87.329294406, 31.798162498 ], [ -87.330555804, 31.797635995 ], [ -87.331468306, 31.797338299 ], [ -87.332139105, 31.797338597 ], [ -87.332326807, 31.797407396 ], [ -87.332809605, 31.797911696 ], [ -87.333319306, 31.798049398 ], [ -87.333641104, 31.798530698 ], [ -87.333238401, 31.799195096 ], [ -87.333265103, 31.799424298 ], [ -87.333452806, 31.799516 ], [ -87.333935805, 31.799562 ], [ -87.334069803, 31.799836993 ], [ -87.334230803, 31.799928695 ], [ -87.334901705, 31.7997915 ], [ -87.335304007, 31.800181098 ], [ -87.335438102, 31.800456196 ], [ -87.335437901, 31.8007541 ], [ -87.335196204, 31.801166497 ], [ -87.3352229, 31.801601999 ], [ -87.335544802, 31.801991597 ], [ -87.336081401, 31.8020605 ], [ -87.336081304, 31.802266799 ], [ -87.335786, 31.802587494 ], [ -87.335866407, 31.802908398 ], [ -87.336295702, 31.802793898 ], [ -87.336510502, 31.802450195 ], [ -87.336832501, 31.802450299 ], [ -87.336832203, 31.803183593 ], [ -87.337020002, 31.803389899 ], [ -87.337046802, 31.803619094 ], [ -87.336590402, 31.804100193 ], [ -87.336590305, 31.804443896 ], [ -87.3369122, 31.804833598 ], [ -87.337609805, 31.804856695 ], [ -87.337851301, 31.804948397 ], [ -87.338039003, 31.8053151 ], [ -87.338280506, 31.8054756 ], [ -87.338817202, 31.805452898 ], [ -87.338951401, 31.805315398 ], [ -87.339086004, 31.804329999 ], [ -87.339327604, 31.804146796 ], [ -87.339649603, 31.804146893 ], [ -87.339730002, 31.804238498 ], [ -87.339756705, 31.804605193 ], [ -87.339515001, 31.805155098 ], [ -87.339568406, 31.805590495 ], [ -87.339997903, 31.805498995 ], [ -87.340346903, 31.804880396 ], [ -87.340803206, 31.804513797 ], [ -87.341125302, 31.804536797 ], [ -87.341286205, 31.804628499 ], [ -87.341232404, 31.805018097 ], [ -87.340668805, 31.805315897 ], [ -87.340641603, 31.8061179 ], [ -87.340775706, 31.806461595 ], [ -87.341473304, 31.8066452 ], [ -87.341473207, 31.806874298 ], [ -87.341365904, 31.806988895 ], [ -87.341365807, 31.807355598 ], [ -87.341821805, 31.807699494 ], [ -87.3433244, 31.8081811 ], [ -87.344183005, 31.808616593 ], [ -87.345605202, 31.808662795 ], [ -87.345846705, 31.808731593 ], [ -87.346437201, 31.8086401 ], [ -87.346813001, 31.808250494 ], [ -87.346947104, 31.808296494 ], [ -87.347108103, 31.808502696 ], [ -87.347644806, 31.808502793 ], [ -87.347778901, 31.808617495 ], [ -87.347805604, 31.808961198 ], [ -87.348208107, 31.809052899 ], [ -87.348396003, 31.8092134 ], [ -87.348449603, 31.809396699 ], [ -87.348852105, 31.809305198 ], [ -87.349013202, 31.809075996 ], [ -87.349040106, 31.808800995 ], [ -87.349630505, 31.808526099 ], [ -87.349952504, 31.808686696 ], [ -87.349898703, 31.809213698 ], [ -87.350086607, 31.809351198 ], [ -87.350542702, 31.809397094 ], [ -87.350542702, 31.809626296 ], [ -87.349979006, 31.810061499 ], [ -87.350005805, 31.810405299 ], [ -87.350140102, 31.810451195 ], [ -87.3509183, 31.810359694 ], [ -87.351964906, 31.809763998 ], [ -87.352501601, 31.809809998 ], [ -87.353011504, 31.8100392 ], [ -87.353494406, 31.810589299 ], [ -87.353870101, 31.810566396 ], [ -87.354299605, 31.810383096 ], [ -87.355533905, 31.810818695 ], [ -87.356204703, 31.811185494 ], [ -87.357036501, 31.811964698 ], [ -87.357143804, 31.8125147 ], [ -87.3570631, 31.8132938 ], [ -87.357143603, 31.813362598 ], [ -87.357948706, 31.813248098 ], [ -87.358914703, 31.813248299 ], [ -87.359209903, 31.813546196 ], [ -87.359209903, 31.8138441 ], [ -87.359558702, 31.814096294 ] ] } },
{ "type": "Feature", "properties": { "site_no": "02428300", "nhdplus_comid": "18237773", "navigation_mode": "DM", "requested_distance_km": 12.0, "start_source": "nwissite", "start_id": "USGS-02428300", "geometry_length_km": 1.7083879853128836 }, "geometry": { "type": "LineString", "coordinates": [ [ -87.359558702, 31.814096294 ], [ -87.360095605, 31.813821293 ], [ -87.360283405, 31.8138671 ], [ -87.360444404, 31.814027496 ], [ -87.361088507, 31.8140276 ], [ -87.361330003, 31.814210996 ], [ -87.361598201, 31.814669296 ], [ -87.361598201, 31.815013096 ], [ -87.361786, 31.815196395 ], [ -87.363127805, 31.815471597 ], [ -87.363610901, 31.815425798 ], [ -87.364094101, 31.815150797 ], [ -87.3644161, 31.8150592 ], [ -87.364952803, 31.815173693 ], [ -87.365328602, 31.815448798 ], [ -87.365194403, 31.815952897 ], [ -87.365355402, 31.816090398 ], [ -87.365892105, 31.815930098 ], [ -87.366321504, 31.816044696 ], [ -87.367072903, 31.816777997 ], [ -87.368039005, 31.817098893 ], [ -87.368602701, 31.816984296 ], [ -87.368844204, 31.816869795 ], [ -87.369005203, 31.816892698 ], [ -87.369085804, 31.8169844 ], [ -87.369085602, 31.817511395 ], [ -87.369354002, 31.817511499 ], [ -87.369998105, 31.8173282 ], [ -87.370588601, 31.816938594 ], [ -87.370803304, 31.816594899 ], [ -87.370964304, 31.8165261 ], [ -87.371313207, 31.8165491 ], [ -87.372064702, 31.817030296 ], [ -87.372386701, 31.817121997 ], [ -87.372762404, 31.817099094 ], [ -87.373299204, 31.816755295 ], [ -87.373299204, 31.816663593 ] ] } },
{ "type": "Feature", "properties": { "site_no": "02428300", "nhdplus_comid": "18237757", "navigation_mode": "DM", "requested_distance_km": 12.0, "start_source": "nwissite", "start_id": "USGS-02428300", "geometry_length_km": 0.21364383464261077 }, "geometry": { "type": "LineString", "coordinates": [ [ -87.373299204, 31.816663593 ], [ -87.373836003, 31.816480294 ], [ -87.374399506, 31.816938594 ], [ -87.374775305, 31.816915698 ], [ -87.374989904, 31.816755295 ], [ -87.375231504, 31.816732399 ] ] } },
{ "type": "Feature", "properties": { "site_no": "02428300", "nhdplus_comid": "18237755", "navigation_mode": "DM", "requested_distance_km": 12.0, "start_source": "nwissite", "start_id": "USGS-02428300", "geometry_length_km": 1.3910222804391932 }, "geometry": { "type": "LineString", "coordinates": [ [ -87.375231504, 31.816732399 ], [ -87.3756072, 31.817099094 ], [ -87.375902407, 31.817259394 ], [ -87.376412407, 31.817396998 ], [ -87.376814902, 31.817396894 ], [ -87.377351701, 31.817259394 ], [ -87.377593204, 31.8174427 ], [ -87.377861604, 31.817878097 ], [ -87.3780495, 31.818771794 ], [ -87.3781837, 31.8190239 ], [ -87.378425203, 31.819184296 ], [ -87.378720403, 31.819046795 ], [ -87.378962003, 31.819138497 ], [ -87.3789353, 31.8202843 ], [ -87.379230604, 31.820604995 ], [ -87.379633203, 31.820811294 ], [ -87.379552707, 31.821452893 ], [ -87.380089507, 31.821842395 ], [ -87.380196907, 31.822048694 ], [ -87.380196907, 31.822392493 ], [ -87.379874803, 31.822713196 ], [ -87.378667101, 31.823354997 ], [ -87.378452405, 31.823584095 ], [ -87.378452405, 31.823767498 ], [ -87.378908701, 31.824088298 ], [ -87.379123501, 31.824569494 ], [ -87.379096605, 31.825004995 ], [ -87.378989302, 31.825394496 ] ] } }
]
}
