{
"type": "FeatureCollection",
"name": "USGS_02465500_UM_12km",
"crs": { "type": "name", "properties": { "name": "urn:ogc:def:crs:OGC:1.3:CRS84" } },
"features": [
{ "type": "Feature", "properties": { "site_no": "02465500", "nhdplus_comid": "18208932", "navigation_mode": "UM", "requested_distance_km": 12.0, "start_source": "nwissite", "start_id": "USGS-02465500", "geometry_length_km": 0.93219214328014399 }, "geometry": { "type": "LineString", "coordinates": [ [ -87.598628305, 32.8308312 ], [ -87.599144302, 32.829158798 ], [ -87.599253006, 32.8289297 ], [ -87.600257203, 32.828242496 ], [ -87.600583106, 32.827417694 ], [ -87.600854404, 32.827257499 ], [ -87.601424307, 32.827257499 ], [ -87.601831406, 32.827417895 ], [ -87.601939805, 32.827578396 ], [ -87.601885401, 32.828334399 ], [ -87.602021106, 32.828563593 ], [ -87.602645107, 32.828930296 ], [ -87.6037305, 32.829228394 ], [ -87.604333359, 32.829336783 ] ] } },
{ "type": "Feature", "properties": { "site_no": "02465500", "nhdplus_comid": "18208906", "navigation_mode": "UM", "requested_distance_km": 12.0, "start_source": "nwissite", "start_id": "USGS-02465500", "geometry_length_km": 0.45306325437935097 }, "geometry": { "type": "LineString", "coordinates": [ [ -87.595886402, 32.833900794 ], [ -87.596185103, 32.8333968 ], [ -87.596375406, 32.832296997 ], [ -87.597705401, 32.831518397 ], [ -87.598628305, 32.8308312 ] ] } },
{ "type": "Feature", "properties": { "site_no": "02465500", "nhdplus_comid": "18208890", "navigation_mode": "UM", "requested_distance_km": 12.0, "start_source": "nwissite", "start_id": "USGS-02465500", "geometry_length_km": 1.2215089616379984 }, "geometry": { "type": "LineString", "coordinates": [ [ -87.586901002, 32.840222195 ], [ -87.587226905, 32.839672297 ], [ -87.588801801, 32.837885596 ], [ -87.589154705, 32.837610796 ], [ -87.591298901, 32.836992696 ], [ -87.591977507, 32.836603396 ], [ -87.592737705, 32.836007893 ], [ -87.593036205, 32.835870497 ], [ -87.595641606, 32.835550398 ], [ -87.595886007, 32.835390098 ], [ -87.596021801, 32.835069396 ], [ -87.5960491, 32.834473699 ], [ -87.595886402, 32.833900794 ] ] } },
{ "type": "Feature", "properties": { "site_no": "02465500", "nhdplus_comid": "18210672", "navigation_mode": "UM", "requested_distance_km": 12.0, "start_source": "nwissite", "start_id": "USGS-02465500", "geometry_length_km": 0.74547239068277238 }, "geometry": { "type": "LineString", "coordinates": [ [ -87.5818239, 32.844207197 ], [ -87.583099701, 32.843818098 ], [ -87.583669804, 32.843405895 ], [ -87.583995603, 32.843360193 ], [ -87.584131204, 32.843497597 ], [ -87.584484003, 32.8435665 ], [ -87.584864102, 32.843452096 ], [ -87.585352704, 32.843062699 ], [ -87.58557, 32.842787795 ], [ -87.585651606, 32.842490099 ], [ -87.585516103, 32.841962993 ], [ -87.586901002, 32.840222195 ] ] } },
{ "type": "Feature", "properties": { "site_no": "02465500", "nhdplus_comid": "18208858", "navigation_mode": "UM", "requested_distance_km": 12.0, "start_source": "nwissite", "start_id": "USGS-02465500", "geometry_length_km": 0.10065793686721144 }, "geometry": { "type": "LineString", "coordinates": [ [ -87.581579201, 32.845077693 ], [ -87.581823803, 32.844436295 ], [ -87.5818239, 32.844207197 ] ] } },
{ "type": "Feature", "properties": { "site_no": "02465500", "nhdplus_comid": "18208856", "navigation_mode": "UM", "requested_distance_km": 12.0, "start_source": "nwissite", "start_id": "USGS-02465500", "geometry_length_km": 0.54783788623166252 }, "geometry": { "type": "LineString", "coordinates": [ [ -87.578863405, 32.848101094 ], [ -87.578727804, 32.847826093 ], [ -87.578728005, 32.847459495 ], [ -87.579053804, 32.8472763 ], [ -87.578999802, 32.846680693 ], [ -87.579190001, 32.846405797 ], [ -87.579787105, 32.846405998 ], [ -87.580085807, 32.846245699 ], [ -87.580221601, 32.845993698 ], [ -87.580791801, 32.845696099 ], [ -87.580819003, 32.845398195 ], [ -87.580737703, 32.845329493 ], [ -87.580737807, 32.845054597 ], [ -87.581579201, 32.845077693 ] ] } },
{ "type": "Feature", "properties": { "site_no": "02465500", "nhdplus_comid": "18208838", "navigation_mode": "UM", "requested_distance_km": 12.0, "start_source": "nwissite", "start_id": "USGS-02465500", "geometry_length_km": 0.73204104682871474 }, "geometry": { "type": "LineString", "coordinates": [ [ -87.575387105, 32.852063499 ], [ -87.575740106, 32.851834595 ], [ -87.575876005, 32.851513796 ], [ -87.575985104, 32.850345396 ], [ -87.5761481, 32.850070499 ], [ -87.577017002, 32.849520996 ], [ -87.578048505, 32.8494526 ], [ -87.578048706, 32.8491548 ], [ -87.577533007, 32.8489483 ], [ -87.577424601, 32.848650396 ], [ -87.577831902, 32.848261096 ], [ -87.578157701, 32.848238297 ], [ -87.578374803, 32.848330095 ], [ -87.578646302, 32.8483302 ], [ -87.578863405, 32.848101094 ] ] } },
{ "type": "Feature", "properties": { "site_no": "02465500", "nhdplus_comid": "18210660", "navigation_mode": "UM", "requested_distance_km": 12.0, "start_source": "nwissite", "start_id": "USGS-02465500", "geometry_length_km": 1.7863179693736062 }, "geometry": { "type": "LineString", "coordinates": [ [ -87.560643703, 32.857761994 ], [ -87.5624898, 32.857464999 ], [ -87.562788501, 32.857258998 ], [ -87.5631686, 32.857167497 ], [ -87.563765801, 32.8572824 ], [ -87.564281903, 32.856824398 ], [ -87.5646348, 32.856755793 ], [ -87.565231904, 32.856847793 ], [ -87.566453703, 32.856504597 ], [ -87.566888206, 32.8561382 ], [ -87.567838505, 32.855863698 ], [ -87.568001501, 32.8556576 ], [ -87.568083204, 32.855153598 ], [ -87.568191901, 32.855039097 ], [ -87.568816304, 32.854924798 ], [ -87.568979301, 32.854810297 ], [ -87.569088101, 32.8542834 ], [ -87.569332503, 32.854100198 ], [ -87.570065506, 32.854008794 ], [ -87.570120007, 32.853802696 ], [ -87.570011601, 32.853527695 ], [ -87.570065901, 32.853413098 ], [ -87.570744507, 32.853344694 ], [ -87.571043402, 32.852749094 ], [ -87.571152404, 32.852015994 ], [ -87.571505502, 32.851809993 ], [ -87.572320007, 32.851672798 ], [ -87.573242903, 32.851604499 ], [ -87.573487103, 32.851764895 ], [ -87.574328601, 32.851673596 ], [ -87.574844301, 32.851811297 ], [ -87.575169906, 32.852063395 ], [ -87.575387105, 32.852063499 ] ] } },
{ "type": "Feature", "properties": { "site_no": "02465500", "nhdplus_comid": "18208794", "navigation_mode": "UM", "requested_distance_km": 12.0, "start_source": "nwissite", "start_id": "USGS-02465500", "geometry_length_km": 1.2382430576991414 }, "geometry": { "type": "LineString", "coordinates": [ [ -87.550789006, 32.858581394 ], [ -87.551603302, 32.858673498 ], [ -87.552173205, 32.858925894 ], [ -87.552607305, 32.859223895 ], [ -87.553638905, 32.859270297 ], [ -87.554371603, 32.859476998 ], [ -87.555945501, 32.860348493 ], [ -87.556976907, 32.860578299 ], [ -87.557112604, 32.860509597 ], [ -87.557112806, 32.860234596 ], [ -87.556624606, 32.859730199 ], [ -87.556625105, 32.859065793 ], [ -87.556869604, 32.858882599 ], [ -87.557466805, 32.858814195 ], [ -87.558471404, 32.858470999 ], [ -87.559204407, 32.858471498 ], [ -87.559475906, 32.858379997 ], [ -87.560182102, 32.857876293 ], [ -87.560643703, 32.857761994 ] ] } },
{ "type": "Feature", "properties": { "site_no": "02465500", "nhdplus_comid": "18208788", "navigation_mode": "UM", "requested_distance_km": 12.0, "start_source": "nwissite", "start_id": "USGS-02465500", "geometry_length_km": 0.64319792617123173 }, "geometry": { "type": "LineString", "coordinates": [ [ -87.5471754, 32.8623138 ], [ -87.547284007, 32.862222299 ], [ -87.547854304, 32.862085193 ], [ -87.5481802, 32.861924998 ], [ -87.548506305, 32.861466996 ], [ -87.548073001, 32.860137798 ], [ -87.548372202, 32.859542295 ], [ -87.5486167, 32.859336197 ], [ -87.550083205, 32.8586955 ], [ -87.550789006, 32.858581394 ] ] } },
{ "type": "Feature", "properties": { "site_no": "02465500", "nhdplus_comid": "18208772", "navigation_mode": "UM", "requested_distance_km": 12.0, "start_source": "nwissite", "start_id": "USGS-02465500", "geometry_length_km": 2.6637952394123015 }, "geometry": { "type": "LineString", "coordinates": [ [ -87.524389505, 32.870477393 ], [ -87.527213, 32.8707316 ], [ -87.530036606, 32.870710798 ], [ -87.531313203, 32.870138995 ], [ -87.531774804, 32.869978994 ], [ -87.533322804, 32.869773798 ], [ -87.535495304, 32.8691338 ], [ -87.5361204, 32.8685157 ], [ -87.536310501, 32.868470095 ], [ -87.536934704, 32.868562095 ], [ -87.537260801, 32.868356094 ], [ -87.537532501, 32.868058398 ], [ -87.5376691, 32.867210798 ], [ -87.537560806, 32.866981596 ], [ -87.537561305, 32.866431795 ], [ -87.5380233, 32.865927994 ], [ -87.5390011, 32.865424596 ], [ -87.539924406, 32.865058593 ], [ -87.541336201, 32.865013696 ], [ -87.541499205, 32.8648763 ], [ -87.541499704, 32.864326499 ], [ -87.541391402, 32.864097394 ], [ -87.541418806, 32.863845296 ], [ -87.541907907, 32.863387398 ], [ -87.542315505, 32.862860695 ], [ -87.542804502, 32.8624257 ], [ -87.543347701, 32.8621969 ], [ -87.544433706, 32.862105995 ], [ -87.546768107, 32.862382397 ], [ -87.5471754, 32.8623138 ] ] } },
{ "type": "Feature", "properties": { "site_no": "02465500", "nhdplus_comid": "18208738", "navigation_mode": "UM", "requested_distance_km": 12.0, "start_source": "nwissite", "start_id": "USGS-02465500", "geometry_length_km": 1.5833588947004476 }, "geometry": { "type": "LineString", "coordinates": [ [ -87.510186702, 32.873191796 ], [ -87.511435807, 32.873101294 ], [ -87.512875207, 32.872827597 ], [ -87.515726104, 32.8727156 ], [ -87.517735802, 32.8722132 ], [ -87.5179803, 32.872075893 ], [ -87.517980501, 32.871915497 ], [ -87.517274804, 32.871708699 ], [ -87.517275006, 32.871571198 ], [ -87.517492503, 32.871319398 ], [ -87.518225707, 32.871182598 ], [ -87.5184163, 32.870770298 ], [ -87.518742301, 32.870518498 ], [ -87.5191769, 32.8703814 ], [ -87.522000603, 32.870337993 ], [ -87.522570901, 32.870132297 ], [ -87.523304105, 32.870064095 ], [ -87.524389505, 32.870477393 ] ] } }
]
}
