{
"type": "FeatureCollection",
"name": "USGS_02399200_DM_12km",
"crs": { "type": "name", "properties": { "name": "urn:ogc:def:crs:OGC:1.3:CRS84" } },
"features": [
{ "type": "Feature", "properties": { "site_no": "02399200", "nhdplus_comid": "15822929", "navigation_mode": "DM", "requested_distance_km": 12.0, "start_source": "nwissite", "start_id": "USGS-02399200", "geometry_length_km": 2.1466422285733495 }, "geometry": { "type": "LineString", "coordinates": [ [ -85.684316582, 34.289981064 ], [ -85.683411002, 34.2900365 ], [ -85.682776101, 34.289876498 ], [ -85.682058305, 34.289304294 ], [ -85.681561105, 34.288479894 ], [ -85.680953704, 34.287976295 ], [ -85.678387001, 34.287175894 ], [ -85.677834801, 34.286695093 ], [ -85.677337304, 34.285160899 ], [ -85.677061006, 34.284634195 ], [ -85.676591806, 34.284290895 ], [ -85.676012203, 34.283993296 ], [ -85.674632601, 34.283925198 ], [ -85.674025401, 34.283627696 ], [ -85.673445605, 34.283078194 ], [ -85.672810502, 34.282093696 ], [ -85.671926804, 34.281017594 ], [ -85.670270704, 34.279666893 ], [ -85.667869501, 34.277995795 ] ] } },
{ "type": "Feature", "properties": { "site_no": "02399200", "nhdplus_comid": "15821289", "navigation_mode": "DM", "requested_distance_km": 12.0, "start_source": "nwissite", "start_id": "USGS-02399200", "geometry_length_km": 1.0540671157724235 }, "geometry": { "type": "LineString", "coordinates": [ [ -85.667869501, 34.277995795 ], [ -85.667289704, 34.277194396 ], [ -85.667344302, 34.276026398 ], [ -85.667620003, 34.275545396 ], [ -85.668447301, 34.274857894 ], [ -85.669274405, 34.273827098 ], [ -85.669824906, 34.271467894 ], [ -85.6698514, 34.269269198 ] ] } },
{ "type": "Feature", "properties": { "site_no": "02399200", "nhdplus_comid": "15821331", "navigation_mode": "DM", "requested_distance_km": 12.0, "start_source": "nwissite", "start_id": "USGS-02399200", "geometry_length_km": 0.85419496983775178 }, "geometry": { "type": "LineString", "coordinates": [ [ -85.6698514, 34.269269198 ], [ -85.668968007, 34.2683305 ], [ -85.667808302, 34.266269594 ], [ -85.667559803, 34.265674196 ], [ -85.666455403, 34.263636298 ], [ -85.665461801, 34.262583099 ] ] } },
{ "type": "Feature", "properties": { "site_no": "02399200", "nhdplus_comid": "15821335", "navigation_mode": "DM", "requested_distance_km": 12.0, "start_source": "nwissite", "start_id": "USGS-02399200", "geometry_length_km": 0.19419135683720137 }, "geometry": { "type": "LineString", "coordinates": [ [ -85.665461801, 34.262583099 ], [ -85.664275602, 34.262629293 ], [ -85.663365304, 34.262446299 ] ] } },
{ "type": "Feature", "properties": { "site_no": "02399200", "nhdplus_comid": "15823269", "navigation_mode": "DM", "requested_distance_km": 12.0, "start_source": "nwissite", "start_id": "USGS-02399200", "geometry_length_km": 1.2164950252355413 }, "geometry": { "type": "LineString", "coordinates": [ [ -85.663365304, 34.262446299 ], [ -85.663235307, 34.262406997 ], [ -85.662725002, 34.262684397 ], [ -85.660914205, 34.262396693 ], [ -85.659828901, 34.261291996 ], [ -85.659809701, 34.260282494 ], [ -85.658317603, 34.2587635 ], [ -85.658747606, 34.254392795 ] ] } },
{ "type": "Feature", "properties": { "site_no": "02399200", "nhdplus_comid": "15823367", "navigation_mode": "DM", "requested_distance_km": 12.0, "start_source": "nwissite", "start_id": "USGS-02399200", "geometry_length_km": 3.3898290720088426 }, "geometry": { "type": "LineString", "coordinates": [ [ -85.658747606, 34.254392795 ], [ -85.660436705, 34.253283799 ], [ -85.663125105, 34.252767995 ], [ -85.665996403, 34.250882797 ], [ -85.666411906, 34.247770496 ], [ -85.664950505, 34.244868495 ], [ -85.663525105, 34.2428516 ], [ -85.663168103, 34.242063895 ], [ -85.663132206, 34.241178796 ], [ -85.661552005, 34.238014199 ], [ -85.661145203, 34.237599999 ], [ -85.661777005, 34.232869193 ], [ -85.665829502, 34.2302076 ] ] } },
{ "type": "Feature", "properties": { "site_no": "02399200", "nhdplus_comid": "15823387", "navigation_mode": "DM", "requested_distance_km": 12.0, "start_source": "nwissite", "start_id": "USGS-02399200", "geometry_length_km": 1.2318613747256844 }, "geometry": { "type": "LineString", "coordinates": [ [ -85.665829502, 34.2302076 ], [ -85.667385101, 34.2300945 ], [ -85.670125201, 34.230339095 ], [ -85.674515001, 34.2274554 ], [ -85.675049104, 34.224605493 ] ] } },
{ "type": "Feature", "properties": { "site_no": "02399200", "nhdplus_comid": "15823469", "navigation_mode": "DM", "requested_distance_km": 12.0, "start_source": "nwissite", "start_id": "USGS-02399200", "geometry_length_km": 3.5273413366958715 }, "geometry": { "type": "LineString", "coordinates": [ [ -85.675049104, 34.224605493 ], [ -85.675096102, 34.223097995 ], [ -85.674824901, 34.222821794 ], [ -85.676819704, 34.2090161 ], [ -85.679857805, 34.207019396 ], [ -85.680820704, 34.206727296 ], [ -85.685383402, 34.206000298 ], [ -85.688883804, 34.206312299 ], [ -85.689830005, 34.206144698 ], [ -85.691739105, 34.205684893 ], [ -85.694338202, 34.204089694 ] ] } }
]
}
