{
"type": "FeatureCollection",
"name": "USGS_02457670_UM_12km",
"crs": { "type": "name", "properties": { "name": "urn:ogc:def:crs:OGC:1.3:CRS84" } },
"features": [
{ "type": "Feature", "properties": { "site_no": "02457670", "nhdplus_comid": "18565949", "navigation_mode": "UM", "requested_distance_km": 12.0, "start_source": "nwissite", "start_id": "USGS-02457670", "geometry_length_km": 0.67885766202230846 }, "geometry": { "type": "LineString", "coordinates": [ [ -86.949274704, 33.640290797 ], [ -86.949302301, 33.640496999 ], [ -86.949795701, 33.6409778 ], [ -86.950453401, 33.641252398 ], [ -86.955770542, 33.64274589 ] ] } },
{ "type": "Feature", "properties": { "site_no": "02457670", "nhdplus_comid": "18565953", "navigation_mode": "UM", "requested_distance_km": 12.0, "start_source": "nwissite", "start_id": "USGS-02457670", "geometry_length_km": 0.30065757282013972 }, "geometry": { "type": "LineString", "coordinates": [ [ -86.946480706, 33.639925897 ], [ -86.947904602, 33.639558494 ], [ -86.948260702, 33.639558293 ], [ -86.948671706, 33.6396726 ], [ -86.949110307, 33.640222095 ], [ -86.949274704, 33.640290797 ] ] } },
{ "type": "Feature", "properties": { "site_no": "02457670", "nhdplus_comid": "18565951", "navigation_mode": "UM", "requested_distance_km": 12.0, "start_source": "nwissite", "start_id": "USGS-02457670", "geometry_length_km": 2.0478394279201932 }, "geometry": { "type": "LineString", "coordinates": [ [ -86.931555904, 33.643759295 ], [ -86.932925403, 33.643804498 ], [ -86.934404306, 33.643460199 ], [ -86.935499802, 33.643345095 ], [ -86.936787106, 33.643069595 ], [ -86.9378004, 33.642954595 ], [ -86.938293606, 33.643183395 ], [ -86.938979, 33.644007899 ], [ -86.939719602, 33.645427793 ], [ -86.939911403, 33.645565197 ], [ -86.940678604, 33.645839795 ], [ -86.941609904, 33.645884998 ], [ -86.942815103, 33.645769998 ], [ -86.943362802, 33.645540595 ], [ -86.943499602, 33.645311393 ], [ -86.943581104, 33.644578099 ], [ -86.943442702, 33.642722599 ], [ -86.943633705, 33.641828999 ], [ -86.943825103, 33.641416498 ], [ -86.944126107, 33.641095594 ], [ -86.9445915, 33.640797496 ], [ -86.946371205, 33.640063398 ], [ -86.946480706, 33.639925897 ] ] } },
{ "type": "Feature", "properties": { "site_no": "02457670", "nhdplus_comid": "18565961", "navigation_mode": "UM", "requested_distance_km": 12.0, "start_source": "nwissite", "start_id": "USGS-02457670", "geometry_length_km": 2.4796671333226872 }, "geometry": { "type": "LineString", "coordinates": [ [ -86.915831305, 33.639343694 ], [ -86.916132607, 33.639389396 ], [ -86.916790105, 33.639664099 ], [ -86.917995207, 33.639595099 ], [ -86.919145405, 33.6393198 ], [ -86.9202682, 33.638906896 ], [ -86.921117, 33.638379797 ], [ -86.922020301, 33.637485996 ], [ -86.922567703, 33.6368443 ], [ -86.923772402, 33.636018999 ], [ -86.924867705, 33.635697894 ], [ -86.925662003, 33.635720499 ], [ -86.926155202, 33.635880694 ], [ -86.9264291, 33.636086799 ], [ -86.926758505, 33.637438297 ], [ -86.926978007, 33.638010897 ], [ -86.927389301, 33.638697997 ], [ -86.928485505, 33.639636897 ], [ -86.928595103, 33.639888793 ], [ -86.928567901, 33.640140899 ], [ -86.9268713, 33.642661698 ], [ -86.926898904, 33.642982297 ], [ -86.927282706, 33.643371597 ], [ -86.927775905, 33.643600598 ], [ -86.928816706, 33.643714696 ], [ -86.931555904, 33.643759295 ] ] } },
{ "type": "Feature", "properties": { "site_no": "02457670", "nhdplus_comid": "18566013", "navigation_mode": "UM", "requested_distance_km": 12.0, "start_source": "nwissite", "start_id": "USGS-02457670", "geometry_length_km": 5.3518316545138997 }, "geometry": { "type": "LineString", "coordinates": [ [ -86.8965993, 33.621616095 ], [ -86.899118803, 33.622050896 ], [ -86.900816806, 33.6228524 ], [ -86.901391901, 33.623035699 ], [ -86.901967004, 33.622966796 ], [ -86.902322903, 33.622829199 ], [ -86.902514607, 33.622577198 ], [ -86.902760506, 33.621294193 ], [ -86.902842805, 33.621225394 ], [ -86.903116107, 33.619965397 ], [ -86.903444603, 33.619667396 ], [ -86.903663605, 33.619575694 ], [ -86.904019505, 33.619552694 ], [ -86.904676907, 33.619804598 ], [ -86.9052798, 33.620858394 ], [ -86.9052798, 33.621018693 ], [ -86.905608602, 33.621545598 ], [ -86.905800305, 33.621705897 ], [ -86.905937403, 33.621980794 ], [ -86.906512603, 33.622461796 ], [ -86.907197304, 33.622828096 ], [ -86.907745205, 33.623331994 ], [ -86.907854803, 33.623561099 ], [ -86.907855101, 33.624317095 ], [ -86.907663703, 33.625096098 ], [ -86.907664001, 33.625806294 ], [ -86.908020101, 33.626126997 ], [ -86.9084308, 33.626080997 ], [ -86.908841506, 33.625805996 ], [ -86.909306802, 33.625095695 ], [ -86.912508704, 33.620283693 ], [ -86.912919305, 33.619939893 ], [ -86.913384803, 33.619985595 ], [ -86.913823105, 33.620352 ], [ -86.914042406, 33.6206728 ], [ -86.914152101, 33.621039294 ], [ -86.914755702, 33.623650797 ], [ -86.914865404, 33.623833999 ], [ -86.915331006, 33.624017097 ], [ -86.916618004, 33.623810597 ], [ -86.9175217, 33.623924896 ], [ -86.917631403, 33.6240623 ], [ -86.917631507, 33.624474697 ], [ -86.917221107, 33.625116296 ], [ -86.915715806, 33.626903698 ], [ -86.915223502, 33.628209695 ], [ -86.915251404, 33.629263498 ], [ -86.915936701, 33.630683795 ], [ -86.916375503, 33.631943695 ], [ -86.916239001, 33.632905893 ], [ -86.915062606, 33.635311693 ], [ -86.914680205, 33.637832098 ], [ -86.915146202, 33.638519198 ], [ -86.915803805, 33.639160395 ], [ -86.915831305, 33.639343694 ] ] } }
]
}
