{
"type": "FeatureCollection",
"name": "USGS_02423414_DM_12km",
"crs": { "type": "name", "properties": { "name": "urn:ogc:def:crs:OGC:1.3:CRS84" } },
"features": [
{ "type": "Feature", "properties": { "site_no": "02423414", "nhdplus_comid": "21655412", "navigation_mode": "DM", "requested_distance_km": 12.0, "start_source": "nwissite", "start_id": "USGS-02423414", "geometry_length_km": 0.96385665991927949 }, "geometry": { "type": "LineString", "coordinates": [ [ -86.698456693, 33.439740448 ], [ -86.698546901, 33.439850293 ], [ -86.699667402, 33.439941294 ], [ -86.7005421, 33.4403302 ], [ -86.700897306, 33.440329999 ], [ -86.701143205, 33.440215297 ], [ -86.701169901, 33.439459197 ], [ -86.701388001, 33.4388863 ], [ -86.7013871, 33.437809594 ], [ -86.701605506, 33.437580399 ], [ -86.702070005, 33.437511295 ], [ -86.702425003, 33.437304996 ], [ -86.702725202, 33.436823696 ], [ -86.703243002, 33.435357094 ], [ -86.703625105, 33.434761196 ] ] } },
{ "type": "Feature", "properties": { "site_no": "02423414", "nhdplus_comid": "21655416", "navigation_mode": "DM", "requested_distance_km": 12.0, "start_source": "nwissite", "start_id": "USGS-02423414", "geometry_length_km": 0.94109342437014942 }, "geometry": { "type": "LineString", "coordinates": [ [ -86.703625105, 33.434761196 ], [ -86.704554006, 33.434577398 ], [ -86.705209903, 33.434714399 ], [ -86.706030004, 33.435149096 ], [ -86.706276007, 33.435194798 ], [ -86.706713103, 33.434988394 ], [ -86.707013205, 33.434529997 ], [ -86.707231604, 33.4343694 ], [ -86.7077507, 33.434323296 ], [ -86.707942203, 33.4344377 ], [ -86.708161503, 33.435308099 ], [ -86.708353102, 33.435582995 ], [ -86.708735906, 33.435765997 ], [ -86.709173106, 33.435788594 ], [ -86.7095282, 33.435673796 ], [ -86.709801205, 33.435421593 ], [ -86.710128605, 33.434940293 ], [ -86.710565701, 33.434733793 ], [ -86.711412705, 33.434733197 ] ] } },
{ "type": "Feature", "properties": { "site_no": "02423414", "nhdplus_comid": "21655446", "navigation_mode": "DM", "requested_distance_km": 12.0, "start_source": "nwissite", "start_id": "USGS-02423414", "geometry_length_km": 3.5693984874175877 }, "geometry": { "type": "LineString", "coordinates": [ [ -86.711412705, 33.434733197 ], [ -86.711522005, 33.4347331 ], [ -86.712476701, 33.433037095 ], [ -86.7130768, 33.432166196 ], [ -86.7135958, 33.431867994 ], [ -86.715016305, 33.431592196 ], [ -86.716901407, 33.431361698 ], [ -86.720180206, 33.431313396 ], [ -86.721136205, 33.431014895 ], [ -86.721436501, 33.430762693 ], [ -86.721709207, 33.430304199 ], [ -86.7217905, 33.429616898 ], [ -86.721680805, 33.429319099 ], [ -86.721161, 33.428609297 ], [ -86.7208049, 33.427853599 ], [ -86.720421202, 33.426731199 ], [ -86.720118701, 33.424944498 ], [ -86.7200367, 33.424875796 ], [ -86.719871201, 33.423409693 ], [ -86.719706602, 33.422722496 ], [ -86.719678506, 33.422080994 ], [ -86.720142305, 33.421370499 ], [ -86.720388003, 33.4212787 ], [ -86.721153207, 33.421415493 ], [ -86.721727505, 33.422010794 ], [ -86.722110301, 33.422262497 ], [ -86.722875506, 33.422422297 ], [ -86.7234492, 33.422444694 ], [ -86.723804303, 33.422352798 ], [ -86.724186607, 33.422146298 ], [ -86.725496702, 33.421022698 ], [ -86.727134503, 33.419852994 ], [ -86.727461904, 33.419417396 ], [ -86.7279521, 33.418088295 ], [ -86.727978103, 33.417011499 ], [ -86.727675602, 33.415270597 ] ] } },
{ "type": "Feature", "properties": { "site_no": "02423414", "nhdplus_comid": "21655464", "navigation_mode": "DM", "requested_distance_km": 12.0, "start_source": "nwissite", "start_id": "USGS-02423414", "geometry_length_km": 2.3118779309774715 }, "geometry": { "type": "LineString", "coordinates": [ [ -86.727675602, 33.415270597 ], [ -86.727839105, 33.4149497 ], [ -86.728766806, 33.413940899 ], [ -86.729585506, 33.413229994 ], [ -86.730213501, 33.412954599 ], [ -86.730978303, 33.412885197 ], [ -86.732125901, 33.413113296 ], [ -86.732508205, 33.412929699 ], [ -86.733545206, 33.412058294 ], [ -86.734118402, 33.411737099 ], [ -86.735265702, 33.411621399 ], [ -86.735511504, 33.411689997 ], [ -86.735703103, 33.411873095 ], [ -86.735703707, 33.412468798 ], [ -86.734913506, 33.413958594 ], [ -86.734887101, 33.414806299 ], [ -86.734996803, 33.4150353 ], [ -86.735407002, 33.415424496 ], [ -86.736008301, 33.415698893 ], [ -86.73691, 33.4158125 ], [ -86.738603704, 33.415811099 ], [ -86.741854407, 33.415487297 ], [ -86.7433291, 33.415142298 ], [ -86.7442028, 33.414774895 ], [ -86.744749106, 33.414682798 ], [ -86.745377406, 33.414750896 ] ] } },
{ "type": "Feature", "properties": { "site_no": "02423414", "nhdplus_comid": "21656490", "navigation_mode": "DM", "requested_distance_km": 12.0, "start_source": "nwissite", "start_id": "USGS-02423414", "geometry_length_km": 1.8052812499762441 }, "geometry": { "type": "LineString", "coordinates": [ [ -86.745377406, 33.414750896 ], [ -86.745759904, 33.414750494 ], [ -86.746087603, 33.414612696 ], [ -86.747097403, 33.413924493 ], [ -86.747916505, 33.413625799 ], [ -86.749992102, 33.413211398 ], [ -86.751758605, 33.412867896 ], [ -86.752633207, 33.412525095 ], [ -86.752934001, 33.412296295 ], [ -86.753399201, 33.411746897 ], [ -86.754111201, 33.410487697 ], [ -86.755370103, 33.408770598 ], [ -86.756300204, 33.4079009 ], [ -86.756902404, 33.406939298 ], [ -86.757094406, 33.406297997 ], [ -86.757288806, 33.403961293 ] ] } },
{ "type": "Feature", "properties": { "site_no": "02423414", "nhdplus_comid": "21655502", "navigation_mode": "DM", "requested_distance_km": 12.0, "start_source": "nwissite", "start_id": "USGS-02423414", "geometry_length_km": 1.77002914361326 }, "geometry": { "type": "LineString", "coordinates": [ [ -86.757288806, 33.403961293 ], [ -86.757316306, 33.403777994 ], [ -86.757754207, 33.403113998 ], [ -86.758684203, 33.402198598 ], [ -86.7588211, 33.401900798 ], [ -86.758767106, 33.401511297 ], [ -86.758549005, 33.401144497 ], [ -86.758549705, 33.400617599 ], [ -86.758851603, 33.399564095 ], [ -86.759207301, 33.399083294 ], [ -86.7597268, 33.398717195 ], [ -86.761803702, 33.397894397 ], [ -86.762404904, 33.397620097 ], [ -86.766205303, 33.394622199 ], [ -86.766780205, 33.393454395 ], [ -86.767354406, 33.392973699 ], [ -86.7680922, 33.392630696 ], [ -86.768556707, 33.392516598 ] ] } }
]
}
