{
"type": "FeatureCollection",
"name": "USGS_03575700_DM_12km",
"crs": { "type": "name", "properties": { "name": "urn:ogc:def:crs:OGC:1.3:CRS84" } },
"features": [
{ "type": "Feature", "properties": { "site_no": "03575700", "nhdplus_comid": "19620688", "navigation_mode": "DM", "requested_distance_km": 12.0, "start_source": "nwissite", "start_id": "USGS-03575700", "geometry_length_km": 5.8537695576378361 }, "geometry": { "type": "LineString", "coordinates": [ [ -86.541550384, 34.623426724 ], [ -86.541840807, 34.622905396 ], [ -86.542035207, 34.622447297 ], [ -86.542313404, 34.621325098 ], [ -86.542314902, 34.619836293 ], [ -86.542204507, 34.619378097 ], [ -86.5422341, 34.617614299 ], [ -86.542400807, 34.617087595 ], [ -86.542761706, 34.616400696 ], [ -86.5436766, 34.6156912 ], [ -86.543898903, 34.615072899 ], [ -86.543930903, 34.610697895 ], [ -86.544044405, 34.607834697 ], [ -86.544212103, 34.606414698 ], [ -86.544517301, 34.605842195 ], [ -86.544684, 34.605407193 ], [ -86.545155704, 34.604674399 ], [ -86.545350306, 34.603987396 ], [ -86.544935904, 34.602727294 ], [ -86.544604003, 34.602223195 ], [ -86.543996006, 34.600733899 ], [ -86.543830805, 34.599794596 ], [ -86.543969803, 34.599153399 ], [ -86.544663802, 34.5976419 ], [ -86.545496501, 34.5959704 ], [ -86.546301402, 34.594207294 ], [ -86.547438905, 34.5921693 ], [ -86.547550105, 34.591802895 ], [ -86.548382603, 34.590268694 ], [ -86.551183105, 34.586834595 ], [ -86.552125603, 34.585896 ], [ -86.552513406, 34.585689999 ], [ -86.553760007, 34.585347198 ], [ -86.554923706, 34.584843896 ], [ -86.556170806, 34.5838826 ], [ -86.556503505, 34.583470598 ], [ -86.556891903, 34.582714893 ], [ -86.556809701, 34.581661098 ], [ -86.556920603, 34.581455 ], [ -86.557225406, 34.581294894 ], [ -86.5573918, 34.581065893 ], [ -86.557447702, 34.580470398 ], [ -86.557614103, 34.580195598 ], [ -86.558029503, 34.580127098 ], [ -86.558389403, 34.580425099 ], [ -86.5587769, 34.580516897 ], [ -86.559220307, 34.5801965 ], [ -86.559552707, 34.580127895 ], [ -86.559940107, 34.580471694 ], [ -86.560355507, 34.580540694 ], [ -86.560355805, 34.580151297 ], [ -86.559719406, 34.5795554 ], [ -86.559692003, 34.579165995 ] ] } },
{ "type": "Feature", "properties": { "site_no": "03575700", "nhdplus_comid": "19621594", "navigation_mode": "DM", "requested_distance_km": 12.0, "start_source": "nwissite", "start_id": "USGS-03575700", "geometry_length_km": 0.92564373041370229 }, "geometry": { "type": "LineString", "coordinates": [ [ -86.559692003, 34.579165995 ], [ -86.5597497, 34.579052098 ], [ -86.560586907, 34.578508198 ], [ -86.562915601, 34.578427397 ], [ -86.563456602, 34.578066893 ], [ -86.563620001, 34.5767323 ], [ -86.563980602, 34.5764919 ], [ -86.564652905, 34.576411597 ], [ -86.565915205, 34.575570397 ], [ -86.567407504, 34.575556599 ] ] } },
{ "type": "Feature", "properties": { "site_no": "03575700", "nhdplus_comid": "19621596", "navigation_mode": "DM", "requested_distance_km": 12.0, "start_source": "nwissite", "start_id": "USGS-03575700", "geometry_length_km": 1.9019313046259632 }, "geometry": { "type": "LineString", "coordinates": [ [ -86.567407504, 34.575556599 ], [ -86.572345205, 34.578517698 ], [ -86.578447707, 34.581437998 ], [ -86.583270103, 34.5826369 ], [ -86.585910603, 34.582715698 ] ] } },
{ "type": "Feature", "properties": { "site_no": "03575700", "nhdplus_comid": "19621588", "navigation_mode": "DM", "requested_distance_km": 12.0, "start_source": "nwissite", "start_id": "USGS-03575700", "geometry_length_km": 0.29336557574535216 }, "geometry": { "type": "LineString", "coordinates": [ [ -86.585910603, 34.582715698 ], [ -86.589084402, 34.583174497 ] ] } },
{ "type": "Feature", "properties": { "site_no": "03575700", "nhdplus_comid": "19621602", "navigation_mode": "DM", "requested_distance_km": 12.0, "start_source": "nwissite", "start_id": "USGS-03575700", "geometry_length_km": 2.3860345703122419 }, "geometry": { "type": "LineString", "coordinates": [ [ -86.589084402, 34.583174497 ], [ -86.589354903, 34.582994193 ], [ -86.590995006, 34.583126798 ], [ -86.595340803, 34.582804099 ], [ -86.602801502, 34.581384897 ], [ -86.609326705, 34.579485394 ], [ -86.612982206, 34.578028098 ], [ -86.613703206, 34.577547096 ], [ -86.613941103, 34.577633694 ] ] } }
]
}
