{
"type": "FeatureCollection",
"name": "USGS_02412000_DM_12km",
"crs": { "type": "name", "properties": { "name": "urn:ogc:def:crs:OGC:1.3:CRS84" } },
"features": [
{ "type": "Feature", "properties": { "site_no": "02412000", "nhdplus_comid": "15810691", "navigation_mode": "DM", "requested_distance_km": 12.0, "start_source": "nwissite", "start_id": "USGS-02412000", "geometry_length_km": 0.087791592910497179 }, "geometry": { "type": "LineString", "coordinates": [ [ -85.513255113, 33.622700979 ], [ -85.514105402, 33.622346297 ] ] } },
{ "type": "Feature", "properties": { "site_no": "02412000", "nhdplus_comid": "15809945", "navigation_mode": "DM", "requested_distance_km": 12.0, "start_source": "nwissite", "start_id": "USGS-02412000", "geometry_length_km": 5.7126135810387577 }, "geometry": { "type": "LineString", "coordinates": [ [ -85.514105402, 33.622346297 ], [ -85.516953006, 33.622119896 ], [ -85.519225106, 33.6222592 ], [ -85.519499101, 33.622030497 ], [ -85.519527502, 33.621297494 ], [ -85.518845104, 33.619670793 ], [ -85.518790901, 33.619258396 ], [ -85.518681504, 33.619189598 ], [ -85.518764406, 33.618594199 ], [ -85.518983804, 33.618319497 ], [ -85.519476704, 33.618136697 ], [ -85.520818301, 33.618092097 ], [ -85.521940604, 33.618207596 ], [ -85.522871301, 33.618185394 ], [ -85.523282401, 33.617910996 ], [ -85.523255803, 33.617269598 ], [ -85.523173705, 33.617223695 ], [ -85.523064606, 33.616857193 ], [ -85.522271603, 33.6160549 ], [ -85.521970704, 33.6158714 ], [ -85.521013804, 33.6149543 ], [ -85.519044004, 33.613944896 ], [ -85.518606506, 33.613577999 ], [ -85.518388405, 33.612844795 ], [ -85.518937603, 33.611471094 ], [ -85.519485906, 33.610876098 ], [ -85.520471901, 33.610373095 ], [ -85.521403, 33.610098995 ], [ -85.522552706, 33.610054195 ], [ -85.523455806, 33.610238194 ], [ -85.526547, 33.612072997 ], [ -85.527476907, 33.612783797 ], [ -85.528324507, 33.613700695 ], [ -85.531169005, 33.615993395 ], [ -85.533768006, 33.617507197 ], [ -85.535081506, 33.618080795 ], [ -85.537818104, 33.618998997 ], [ -85.5389679, 33.619045593 ], [ -85.540090501, 33.618954696 ], [ -85.542774104, 33.618269496 ], [ -85.544663407, 33.617973097 ], [ -85.545019306, 33.618133597 ], [ -85.548741907, 33.618731499 ], [ -85.551506706, 33.619053997 ] ] } },
{ "type": "Feature", "properties": { "site_no": "02412000", "nhdplus_comid": "15809931", "navigation_mode": "DM", "requested_distance_km": 12.0, "start_source": "nwissite", "start_id": "USGS-02412000", "geometry_length_km": 0.94855200756535862 }, "geometry": { "type": "LineString", "coordinates": [ [ -85.551506706, 33.619053997 ], [ -85.551862702, 33.619031295 ], [ -85.554491706, 33.6179564 ], [ -85.554574206, 33.617612898 ], [ -85.555890404, 33.615048394 ], [ -85.5561653, 33.613559693 ], [ -85.556056701, 33.612528898 ], [ -85.555947207, 33.612483099 ] ] } },
{ "type": "Feature", "properties": { "site_no": "02412000", "nhdplus_comid": "15809955", "navigation_mode": "DM", "requested_distance_km": 12.0, "start_source": "nwissite", "start_id": "USGS-02412000", "geometry_length_km": 3.1101625786721412 }, "geometry": { "type": "LineString", "coordinates": [ [ -85.555947207, 33.612483099 ], [ -85.555975504, 33.611383595 ], [ -85.556359202, 33.610925794 ], [ -85.557098202, 33.610926196 ], [ -85.557536401, 33.610766195 ], [ -85.559262402, 33.608957693 ], [ -85.559700601, 33.608683094 ], [ -85.564053304, 33.608364694 ], [ -85.564682901, 33.608456694 ], [ -85.565804802, 33.608983994 ], [ -85.567610703, 33.610244595 ], [ -85.568486504, 33.610542797 ], [ -85.569690801, 33.610726699 ], [ -85.570621602, 33.610589698 ], [ -85.5721002, 33.610132195 ], [ -85.572867006, 33.609537095 ], [ -85.574263506, 33.608942196 ], [ -85.574948005, 33.608827993 ], [ -85.575824104, 33.608530499 ], [ -85.576782502, 33.608049899 ], [ -85.5776859, 33.607752495 ], [ -85.578726307, 33.607592694 ], [ -85.580122203, 33.607799396 ], [ -85.582147501, 33.608578898 ], [ -85.582557902, 33.608830996 ], [ -85.583707407, 33.609129198 ], [ -85.584583305, 33.609243996 ], [ -85.584610701, 33.609358497 ] ] } }
]
}
