{
"type": "FeatureCollection",
"name": "USGS_02360500_DM_12km",
"crs": { "type": "name", "properties": { "name": "urn:ogc:def:crs:OGC:1.3:CRS84" } },
"features": [
{ "type": "Feature", "properties": { "site_no": "02360500", "nhdplus_comid": "2189527", "navigation_mode": "DM", "requested_distance_km": 12.0, "start_source": "nwissite", "start_id": "USGS-02360500", "geometry_length_km": 3.0614552488026807 }, "geometry": { "type": "LineString", "coordinates": [ [ -85.477396184, 31.373066097 ], [ -85.477689505, 31.373065896 ], [ -85.479880504, 31.374232598 ], [ -85.480574705, 31.374231994 ], [ -85.480681404, 31.374048695 ], [ -85.480280407, 31.373659499 ], [ -85.479505606, 31.3733164 ], [ -85.479372106, 31.373247795 ], [ -85.479371801, 31.372995697 ], [ -85.479585201, 31.372835197 ], [ -85.480146103, 31.372903496 ], [ -85.481374905, 31.373360693 ], [ -85.4817755, 31.3733375 ], [ -85.482817106, 31.373474196 ], [ -85.483431704, 31.373817399 ], [ -85.483779006, 31.373954497 ], [ -85.485835403, 31.374204896 ], [ -85.486235805, 31.374089994 ], [ -85.486662403, 31.373471096 ], [ -85.486901604, 31.372393996 ], [ -85.487248205, 31.371958397 ], [ -85.490078703, 31.371910095 ], [ -85.4905864, 31.372161694 ], [ -85.491361603, 31.372779593 ], [ -85.491949305, 31.3729854 ], [ -85.492616907, 31.372984797 ], [ -85.493124001, 31.372823894 ], [ -85.495152302, 31.371882699 ], [ -85.496193901, 31.372042194 ], [ -85.496487804, 31.372110695 ], [ -85.497183003, 31.3727974 ], [ -85.497450203, 31.372934699 ], [ -85.498197705, 31.372796498 ], [ -85.498544902, 31.372887895 ], [ -85.498999804, 31.373505995 ], [ -85.499321006, 31.374170199 ], [ -85.499349006, 31.375155397 ], [ -85.499323502, 31.376163498 ] ] } },
{ "type": "Feature", "properties": { "site_no": "02360500", "nhdplus_comid": "2189521", "navigation_mode": "DM", "requested_distance_km": 12.0, "start_source": "nwissite", "start_id": "USGS-02360500", "geometry_length_km": 0.44269967128527282 }, "geometry": { "type": "LineString", "coordinates": [ [ -85.499323502, 31.376163498 ], [ -85.499937706, 31.376139998 ], [ -85.500678502, 31.375786595 ], [ -85.500759102, 31.3754889 ], [ -85.500786304, 31.3751681 ], [ -85.500866704, 31.374939099 ], [ -85.5012144, 31.374504097 ], [ -85.501882203, 31.374412999 ], [ -85.5027363, 31.374643095 ] ] } },
{ "type": "Feature", "properties": { "site_no": "02360500", "nhdplus_comid": "2187847", "navigation_mode": "DM", "requested_distance_km": 12.0, "start_source": "nwissite", "start_id": "USGS-02360500", "geometry_length_km": 1.3496195883659394 }, "geometry": { "type": "LineString", "coordinates": [ [ -85.5027363, 31.374643095 ], [ -85.5028174, 31.373932898 ], [ -85.502231106, 31.373038694 ], [ -85.502365604, 31.372259796 ], [ -85.502526306, 31.371893294 ], [ -85.503141403, 31.371298298 ], [ -85.503302202, 31.370885998 ], [ -85.5032764, 31.3701986 ], [ -85.503410302, 31.3699238 ], [ -85.504478507, 31.369764499 ], [ -85.505652204, 31.370704994 ], [ -85.507146902, 31.371279299 ], [ -85.5075735, 31.371714994 ], [ -85.5076534, 31.371875398 ], [ -85.507653005, 31.372150399 ], [ -85.507385403, 31.372631297 ], [ -85.5073312, 31.373227 ], [ -85.507411301, 31.373295695 ], [ -85.507410504, 31.373822697 ], [ -85.507196404, 31.374326594 ] ] } },
{ "type": "Feature", "properties": { "site_no": "02360500", "nhdplus_comid": "2187805", "navigation_mode": "DM", "requested_distance_km": 12.0, "start_source": "nwissite", "start_id": "USGS-02360500", "geometry_length_km": 0.35677782467921504 }, "geometry": { "type": "LineString", "coordinates": [ [ -85.507196404, 31.374326594 ], [ -85.507703505, 31.3744874 ], [ -85.507997006, 31.374648094 ], [ -85.508477002, 31.375175498 ], [ -85.508956902, 31.375771694 ], [ -85.509303801, 31.376023993 ], [ -85.510078304, 31.375910297 ] ] } },
{ "type": "Feature", "properties": { "site_no": "02360500", "nhdplus_comid": "2187813", "navigation_mode": "DM", "requested_distance_km": 12.0, "start_source": "nwissite", "start_id": "USGS-02360500", "geometry_length_km": 0.49975660524739457 }, "geometry": { "type": "LineString", "coordinates": [ [ -85.510078304, 31.375910297 ], [ -85.510265902, 31.375383399 ], [ -85.510052502, 31.375199996 ], [ -85.509439103, 31.374626599 ], [ -85.509412907, 31.374259897 ], [ -85.509519905, 31.374076799 ], [ -85.5098138, 31.374008298 ], [ -85.510000505, 31.374168895 ], [ -85.510106802, 31.374512695 ], [ -85.510400407, 31.374673299 ], [ -85.510667406, 31.374696396 ], [ -85.511228502, 31.374513693 ], [ -85.511656001, 31.374239199 ] ] } },
{ "type": "Feature", "properties": { "site_no": "02360500", "nhdplus_comid": "2187887", "navigation_mode": "DM", "requested_distance_km": 12.0, "start_source": "nwissite", "start_id": "USGS-02360500", "geometry_length_km": 4.0235792744378802 }, "geometry": { "type": "LineString", "coordinates": [ [ -85.511656001, 31.374239199 ], [ -85.512163505, 31.374216594 ], [ -85.512590602, 31.374331698 ], [ -85.512830801, 31.374537997 ], [ -85.5130703, 31.375179797 ], [ -85.513203502, 31.375363193 ], [ -85.513309807, 31.375821598 ], [ -85.513736807, 31.376096897 ], [ -85.513977103, 31.376005493 ], [ -85.514004506, 31.3754327 ], [ -85.514912806, 31.375181496 ], [ -85.516034901, 31.374792896 ], [ -85.516515501, 31.374862097 ], [ -85.516515106, 31.375159994 ], [ -85.516568303, 31.375297494 ], [ -85.516595103, 31.375343397 ], [ -85.517075904, 31.375160493 ], [ -85.5180915, 31.374473996 ], [ -85.5185453, 31.374543093 ], [ -85.518758304, 31.375161998 ], [ -85.518864803, 31.3753912 ], [ -85.518998601, 31.375162199 ], [ -85.519533306, 31.374589793 ], [ -85.519400805, 31.373741999 ], [ -85.519507706, 31.373627499 ], [ -85.520095304, 31.373559296 ], [ -85.520389006, 31.373651199 ], [ -85.521189407, 31.3742247 ], [ -85.521616504, 31.374385394 ], [ -85.521937005, 31.374408595 ], [ -85.522418104, 31.374019496 ], [ -85.522765301, 31.373973899 ], [ -85.523272306, 31.374363899 ], [ -85.523699507, 31.374387093 ], [ -85.5243138, 31.374227293 ], [ -85.525142305, 31.373678096 ], [ -85.525329605, 31.373334497 ], [ -85.525089502, 31.373128094 ], [ -85.524154902, 31.372989893 ], [ -85.524182007, 31.372692093 ], [ -85.524636902, 31.371890396 ], [ -85.525278606, 31.371180594 ], [ -85.525572404, 31.371089198 ], [ -85.526667103, 31.371112995 ], [ -85.527094603, 31.370975897 ], [ -85.528350607, 31.370106198 ], [ -85.529259704, 31.368961394 ], [ -85.530141704, 31.368160099 ], [ -85.531183504, 31.367771395 ], [ -85.531316802, 31.367908999 ], [ -85.531263001, 31.368298396 ], [ -85.530942202, 31.368618995 ], [ -85.530915402, 31.368802294 ], [ -85.531022005, 31.368916899 ], [ -85.531182207, 31.368916996 ], [ -85.531583101, 31.368711099 ], [ -85.532224603, 31.368024297 ], [ -85.5341231, 31.365459397 ], [ -85.534577303, 31.365139 ], [ -85.535699405, 31.364612795 ], [ -85.535913207, 31.364337996 ], [ -85.535913803, 31.363719396 ], [ -85.536101006, 31.363536194 ], [ -85.536955401, 31.363376498 ] ] } },
{ "type": "Feature", "properties": { "site_no": "02360500", "nhdplus_comid": "2187903", "navigation_mode": "DM", "requested_distance_km": 12.0, "start_source": "nwissite", "start_id": "USGS-02360500", "geometry_length_km": 1.1645031167121909 }, "geometry": { "type": "LineString", "coordinates": [ [ -85.536955401, 31.363376498 ], [ -85.537997, 31.363170996 ], [ -85.538397707, 31.362987995 ], [ -85.538771801, 31.3627133 ], [ -85.539574005, 31.361545295 ], [ -85.539841205, 31.361362197 ], [ -85.540268406, 31.361339599 ], [ -85.540935405, 31.361752495 ], [ -85.541522704, 31.361913294 ], [ -85.542243704, 31.3619138 ], [ -85.542938106, 31.361616395 ], [ -85.543338701, 31.361547895 ], [ -85.5435789, 31.361708499 ], [ -85.543605506, 31.361891694 ], [ -85.543231301, 31.362212293 ], [ -85.543204404, 31.362395495 ], [ -85.543631606, 31.362487495 ], [ -85.544219106, 31.362442099 ], [ -85.544780001, 31.362236194 ], [ -85.545554906, 31.3616869 ], [ -85.545768604, 31.361434996 ], [ -85.546009004, 31.361320496 ] ] } },
{ "type": "Feature", "properties": { "site_no": "02360500", "nhdplus_comid": "2187925", "navigation_mode": "DM", "requested_distance_km": 12.0, "start_source": "nwissite", "start_id": "USGS-02360500", "geometry_length_km": 1.9777131968952424 }, "geometry": { "type": "LineString", "coordinates": [ [ -85.546009004, 31.361320496 ], [ -85.546571307, 31.359487794 ], [ -85.5471332, 31.358205095 ], [ -85.547801107, 31.357609898 ], [ -85.5483886, 31.357380994 ], [ -85.549189702, 31.357335694 ], [ -85.549963906, 31.357450694 ], [ -85.550337605, 31.357657194 ], [ -85.551698402, 31.358711995 ], [ -85.5523654, 31.359330997 ], [ -85.553299703, 31.3596524 ], [ -85.554047406, 31.359606996 ], [ -85.554314502, 31.359469697 ], [ -85.554581605, 31.359171994 ], [ -85.554608606, 31.358759597 ], [ -85.554155104, 31.3582552 ], [ -85.554155402, 31.357865795 ], [ -85.554796301, 31.357820295 ], [ -85.555677302, 31.357912399 ], [ -85.557733305, 31.357844897 ], [ -85.559415504, 31.357524998 ], [ -85.560457006, 31.357410997 ] ] } }
]
}
