{
"type": "FeatureCollection",
"name": "USGS_02428400_UM_12km",
"crs": { "type": "name", "properties": { "name": "urn:ogc:def:crs:OGC:1.3:CRS84" } },
"features": [
{ "type": "Feature", "properties": { "site_no": "02428400", "nhdplus_comid": "18239647", "navigation_mode": "UM", "requested_distance_km": 12.0, "start_source": "nwissite", "start_id": "USGS-02428400", "geometry_length_km": 1.0733928753493405 }, "geometry": { "type": "LineString", "coordinates": [ [ -87.5521155, 31.624971099 ], [ -87.551648006, 31.619507499 ], [ -87.552083516, 31.615361359 ] ] } },
{ "type": "Feature", "properties": { "site_no": "02428400", "nhdplus_comid": "18239645", "navigation_mode": "UM", "requested_distance_km": 12.0, "start_source": "nwissite", "start_id": "USGS-02428400", "geometry_length_km": 0.38370853330778232 }, "geometry": { "type": "LineString", "coordinates": [ [ -87.552203104, 31.628386095 ], [ -87.551973701, 31.627737597 ], [ -87.5521155, 31.624971099 ] ] } },
{ "type": "Feature", "properties": { "site_no": "02428400", "nhdplus_comid": "18239637", "navigation_mode": "UM", "requested_distance_km": 12.0, "start_source": "nwissite", "start_id": "USGS-02428400", "geometry_length_km": 0.13281401416301566 }, "geometry": { "type": "LineString", "coordinates": [ [ -87.552232303, 31.629524395 ], [ -87.552016005, 31.628750697 ], [ -87.552203104, 31.628386095 ] ] } },
{ "type": "Feature", "properties": { "site_no": "02428400", "nhdplus_comid": "18239631", "navigation_mode": "UM", "requested_distance_km": 12.0, "start_source": "nwissite", "start_id": "USGS-02428400", "geometry_length_km": 1.9356195936133076 }, "geometry": { "type": "LineString", "coordinates": [ [ -87.5564401, 31.646126695 ], [ -87.555134803, 31.644386999 ], [ -87.553085603, 31.639813997 ], [ -87.553043202, 31.638800897 ], [ -87.552368, 31.636730097 ], [ -87.552014403, 31.634431094 ], [ -87.552058406, 31.629763797 ], [ -87.552232303, 31.629524395 ] ] } },
{ "type": "Feature", "properties": { "site_no": "02428400", "nhdplus_comid": "18239627", "navigation_mode": "UM", "requested_distance_km": 12.0, "start_source": "nwissite", "start_id": "USGS-02428400", "geometry_length_km": 2.1341410077307255 }, "geometry": { "type": "LineString", "coordinates": [ [ -87.567964002, 31.662522994 ], [ -87.567425907, 31.6619775 ], [ -87.565188505, 31.6577693 ], [ -87.560667805, 31.652631298 ], [ -87.5564401, 31.646126695 ] ] } },
{ "type": "Feature", "properties": { "site_no": "02428400", "nhdplus_comid": "18239619", "navigation_mode": "UM", "requested_distance_km": 12.0, "start_source": "nwissite", "start_id": "USGS-02428400", "geometry_length_km": 1.2206817660975773 }, "geometry": { "type": "LineString", "coordinates": [ [ -87.564927407, 31.673022993 ], [ -87.565249003, 31.672794797 ], [ -87.565380402, 31.671542495 ], [ -87.5670349, 31.667123199 ], [ -87.567753807, 31.664526694 ], [ -87.567790002, 31.662762299 ], [ -87.567964002, 31.662522994 ] ] } },
{ "type": "Feature", "properties": { "site_no": "02428400", "nhdplus_comid": "18239609", "navigation_mode": "UM", "requested_distance_km": 12.0, "start_source": "nwissite", "start_id": "USGS-02428400", "geometry_length_km": 2.7635075367498758 }, "geometry": { "type": "LineString", "coordinates": [ [ -87.545388103, 31.688965693 ], [ -87.545683503, 31.688988 ], [ -87.547682807, 31.688381895 ], [ -87.556776106, 31.684020095 ], [ -87.558318906, 31.683505498 ], [ -87.561348803, 31.681588493 ], [ -87.562688105, 31.680174895 ], [ -87.563797705, 31.678112894 ], [ -87.5648911, 31.674787395 ], [ -87.564927407, 31.673022993 ] ] } },
{ "type": "Feature", "properties": { "site_no": "02428400", "nhdplus_comid": "18239597", "navigation_mode": "UM", "requested_distance_km": 12.0, "start_source": "nwissite", "start_id": "USGS-02428400", "geometry_length_km": 3.7515453328301556 }, "geometry": { "type": "LineString", "coordinates": [ [ -87.516375303, 31.7057015 ], [ -87.516697206, 31.705473393 ], [ -87.517660603, 31.703400694 ], [ -87.518621802, 31.6999394 ], [ -87.519624606, 31.697490998 ], [ -87.519730404, 31.6964892 ], [ -87.520788506, 31.694928594 ], [ -87.522746004, 31.693309896 ], [ -87.527375504, 31.691767395 ], [ -87.530073904, 31.6915932 ], [ -87.531295203, 31.691307098 ], [ -87.533524007, 31.6913497 ], [ -87.535510302, 31.690868899 ], [ -87.538221702, 31.690569296 ], [ -87.543267503, 31.689310193 ], [ -87.545388103, 31.688965693 ] ] } }
]
}
