{
"type": "FeatureCollection",
"name": "USGS_02341460_UM_12km",
"crs": { "type": "name", "properties": { "name": "urn:ogc:def:crs:OGC:1.3:CRS84" } },
"features": [
{ "type": "Feature", "properties": { "site_no": "02341460", "nhdplus_comid": "3434274", "navigation_mode": "UM", "requested_distance_km": 12.0, "start_source": "nwissite", "start_id": "USGS-02341460", "geometry_length_km": 2.0728937477900811 }, "geometry": { "type": "LineString", "coordinates": [ [ -84.995828502, 32.490573794 ], [ -84.995865606, 32.490306593 ], [ -84.995461605, 32.489725493 ], [ -84.995291106, 32.488625497 ], [ -84.994764701, 32.487761594 ], [ -84.994331107, 32.486229695 ], [ -84.994483307, 32.481640093 ], [ -84.994983904, 32.4780325 ], [ -84.994672604, 32.476783298 ], [ -84.994895101, 32.475179896 ], [ -84.995858803, 32.474055097 ], [ -84.996462054, 32.472647815 ] ] } },
{ "type": "Feature", "properties": { "site_no": "02341460", "nhdplus_comid": "3434268", "navigation_mode": "UM", "requested_distance_km": 12.0, "start_source": "nwissite", "start_id": "USGS-02341460", "geometry_length_km": 1.0929054454018894 }, "geometry": { "type": "LineString", "coordinates": [ [ -84.9960813, 32.500143796 ], [ -84.996108003, 32.500034496 ], [ -84.996134907, 32.499924697 ], [ -84.996161804, 32.499814898 ], [ -84.996145606, 32.499759898 ], [ -84.996113405, 32.499651097 ], [ -84.996081203, 32.499542296 ], [ -84.996049002, 32.499433495 ], [ -84.996016905, 32.499324694 ], [ -84.995984703, 32.499215893 ], [ -84.995952502, 32.4991071 ], [ -84.9959203, 32.498998299 ], [ -84.995888107, 32.498889498 ], [ -84.995856002, 32.498780698 ], [ -84.995823801, 32.498671897 ], [ -84.995791607, 32.498563096 ], [ -84.995759405, 32.498454295 ], [ -84.995727204, 32.498345494 ], [ -84.995695107, 32.498236693 ], [ -84.995662905, 32.4981279 ], [ -84.995630704, 32.498019099 ], [ -84.995598502, 32.497910298 ], [ -84.995566301, 32.497801498 ], [ -84.995534204, 32.497692697 ], [ -84.995502003, 32.497583896 ], [ -84.995502204, 32.497580498 ], [ -84.995511003, 32.497468695 ], [ -84.995519802, 32.497356795 ], [ -84.995528601, 32.497244895 ], [ -84.9955374, 32.497133099 ], [ -84.995546207, 32.497021198 ], [ -84.995555006, 32.496909395 ], [ -84.995563805, 32.496797495 ], [ -84.995572604, 32.496685699 ], [ -84.995581403, 32.496573798 ], [ -84.995590203, 32.496461995 ], [ -84.995599002, 32.496350095 ], [ -84.995607801, 32.496238299 ], [ -84.9956166, 32.496126398 ], [ -84.995625407, 32.496014595 ], [ -84.995634206, 32.495902695 ], [ -84.995643005, 32.495790899 ], [ -84.995651804, 32.495678999 ], [ -84.995660603, 32.495567195 ], [ -84.995669402, 32.495455295 ], [ -84.995678201, 32.495343499 ], [ -84.995687, 32.495231599 ], [ -84.995695807, 32.495119795 ], [ -84.995704606, 32.495007895 ], [ -84.995713405, 32.494896099 ], [ -84.995742902, 32.494850494 ], [ -84.9958065, 32.494751893 ], [ -84.995870203, 32.494653396 ], [ -84.995933905, 32.494554795 ], [ -84.9959976, 32.494456194 ], [ -84.996061303, 32.494357593 ], [ -84.996125005, 32.494259097 ], [ -84.996134207, 32.494192295 ], [ -84.996149704, 32.494080894 ], [ -84.996165104, 32.493969597 ], [ -84.996180601, 32.493858196 ], [ -84.996196002, 32.493746899 ], [ -84.996211506, 32.493635498 ], [ -84.996227004, 32.493524194 ], [ -84.996242404, 32.493412897 ], [ -84.996257901, 32.493301496 ], [ -84.996273302, 32.493190199 ], [ -84.996288806, 32.493078798 ], [ -84.996304207, 32.492967494 ], [ -84.996319704, 32.4928561 ], [ -84.996335104, 32.492744796 ], [ -84.996350601, 32.492633395 ], [ -84.996366002, 32.492522098 ], [ -84.996340707, 32.492430396 ], [ -84.996310607, 32.492321193 ], [ -84.996280506, 32.492211998 ], [ -84.996250302, 32.492102794 ], [ -84.996220201, 32.491993599 ], [ -84.996190101, 32.491884395 ], [ -84.996159904, 32.4917752 ], [ -84.996129803, 32.4916659 ], [ -84.996099703, 32.491556697 ], [ -84.996069603, 32.491447493 ], [ -84.996039405, 32.491338298 ], [ -84.996009305, 32.491229095 ], [ -84.995979205, 32.491119899 ], [ -84.995949, 32.491010696 ], [ -84.9959189, 32.490901396 ], [ -84.995888807, 32.4907922 ], [ -84.995858707, 32.490682997 ], [ -84.995828502, 32.490573794 ] ] } },
{ "type": "Feature", "properties": { "site_no": "02341460", "nhdplus_comid": "3430706", "navigation_mode": "UM", "requested_distance_km": 12.0, "start_source": "nwissite", "start_id": "USGS-02341460", "geometry_length_km": 0.30886111169402775 }, "geometry": { "type": "LineString", "coordinates": [ [ -84.995416507, 32.502856895 ], [ -84.995431706, 32.502794698 ], [ -84.9954575, 32.502689295 ], [ -84.995483406, 32.502583899 ], [ -84.9955092, 32.502478495 ], [ -84.995535001, 32.502373099 ], [ -84.995560803, 32.502267696 ], [ -84.995586701, 32.5021623 ], [ -84.995612502, 32.502056897 ], [ -84.995638303, 32.501951493 ], [ -84.995664202, 32.501846097 ], [ -84.995690003, 32.501740597 ], [ -84.995715804, 32.501635194 ], [ -84.995741606, 32.501529798 ], [ -84.995767504, 32.501424395 ], [ -84.995793305, 32.501318999 ], [ -84.995819107, 32.501213595 ], [ -84.995845005, 32.501108199 ], [ -84.995870806, 32.501002796 ], [ -84.9958966, 32.5008974 ], [ -84.995922402, 32.5007919 ], [ -84.9959483, 32.500686496 ], [ -84.995974101, 32.500581093 ], [ -84.995999902, 32.500475697 ], [ -84.996025801, 32.500370294 ], [ -84.996051602, 32.500264898 ], [ -84.996077403, 32.500159495 ], [ -84.9960813, 32.500143796 ] ] } },
{ "type": "Feature", "properties": { "site_no": "02341460", "nhdplus_comid": "3430704", "navigation_mode": "UM", "requested_distance_km": 12.0, "start_source": "nwissite", "start_id": "USGS-02341460", "geometry_length_km": 0.43443677983728096 }, "geometry": { "type": "LineString", "coordinates": [ [ -84.997363001, 32.506296694 ], [ -84.996573202, 32.505000897 ], [ -84.996402703, 32.503900997 ], [ -84.995416507, 32.502856895 ] ] } },
{ "type": "Feature", "properties": { "site_no": "02341460", "nhdplus_comid": "3430700", "navigation_mode": "UM", "requested_distance_km": 12.0, "start_source": "nwissite", "start_id": "USGS-02341460", "geometry_length_km": 1.1432189991660853 }, "geometry": { "type": "LineString", "coordinates": [ [ -84.998298906, 32.515868895 ], [ -84.998052604, 32.515301399 ], [ -84.998145305, 32.514633298 ], [ -84.996754706, 32.5130082 ], [ -84.997032903, 32.511004098 ], [ -84.996702902, 32.509888597 ], [ -84.996851206, 32.508819699 ], [ -84.997496404, 32.507663794 ], [ -84.997644804, 32.506594993 ], [ -84.997363001, 32.506296694 ] ] } },
{ "type": "Feature", "properties": { "site_no": "02341460", "nhdplus_comid": "3295814", "navigation_mode": "UM", "requested_distance_km": 12.0, "start_source": "nwissite", "start_id": "USGS-02341460", "geometry_length_km": 0.059472008950886807 }, "geometry": { "type": "LineString", "coordinates": [ [ -84.998516403, 32.516370095 ], [ -84.998298906, 32.515868895 ] ] } },
{ "type": "Feature", "properties": { "site_no": "02341460", "nhdplus_comid": "3295812", "navigation_mode": "UM", "requested_distance_km": 12.0, "start_source": "nwissite", "start_id": "USGS-02341460", "geometry_length_km": 0.2132386336212708 }, "geometry": { "type": "LineString", "coordinates": [ [ -84.999932401, 32.517869696 ], [ -84.999871001, 32.517804697 ], [ -84.999791302, 32.517720297 ], [ -84.999711603, 32.517635897 ], [ -84.999631904, 32.517551497 ], [ -84.999552302, 32.517467096 ], [ -84.999472603, 32.517382793 ], [ -84.999392904, 32.517298393 ], [ -84.999313205, 32.517214 ], [ -84.999233507, 32.5171296 ], [ -84.9991538, 32.5170452 ], [ -84.999074101, 32.5169608 ], [ -84.998994507, 32.5168764 ], [ -84.998914801, 32.516791999 ], [ -84.998835102, 32.516707599 ], [ -84.998755403, 32.516623199 ], [ -84.998675704, 32.516538896 ], [ -84.998596005, 32.516454495 ], [ -84.998516403, 32.516370095 ] ] } },
{ "type": "Feature", "properties": { "site_no": "02341460", "nhdplus_comid": "3298876", "navigation_mode": "UM", "requested_distance_km": 12.0, "start_source": "nwissite", "start_id": "USGS-02341460", "geometry_length_km": 0.23560648248670607 }, "geometry": { "type": "LineString", "coordinates": [ [ -85.001676902, 32.519256495 ], [ -85.001608603, 32.519184195 ], [ -85.001479, 32.519047096 ], [ -85.001349501, 32.518909998 ], [ -85.001219906, 32.5187729 ], [ -85.0010904, 32.518635795 ], [ -85.000960805, 32.518498696 ], [ -85.000831306, 32.518361598 ], [ -85.000767507, 32.518355399 ], [ -85.000560202, 32.518335193 ], [ -85.000352904, 32.518314995 ], [ -85.0003433, 32.518304899 ], [ -85.000213802, 32.518167794 ], [ -85.000084303, 32.518030599 ], [ -84.999954805, 32.517893493 ], [ -84.999932401, 32.517869696 ] ] } },
{ "type": "Feature", "properties": { "site_no": "02341460", "nhdplus_comid": "3298874", "navigation_mode": "UM", "requested_distance_km": 12.0, "start_source": "nwissite", "start_id": "USGS-02341460", "geometry_length_km": 1.2518233149949181 }, "geometry": { "type": "LineString", "coordinates": [ [ -85.009588301, 32.527474396 ], [ -85.007392503, 32.5269899 ], [ -85.006650701, 32.526511498 ], [ -85.0049593, 32.524721794 ], [ -85.004807204, 32.523488298 ], [ -85.003649905, 32.521344393 ], [ -85.001676902, 32.519256495 ] ] } },
{ "type": "Feature", "properties": { "site_no": "02341460", "nhdplus_comid": "3298870", "navigation_mode": "UM", "requested_distance_km": 12.0, "start_source": "nwissite", "start_id": "USGS-02341460", "geometry_length_km": 1.946035620626736 }, "geometry": { "type": "LineString", "coordinates": [ [ -85.018723302, 32.542039298 ], [ -85.0189711, 32.539084397 ], [ -85.018800206, 32.537984498 ], [ -85.018414207, 32.537269995 ], [ -85.013179302, 32.531886093 ], [ -85.012585603, 32.530338898 ], [ -85.012641206, 32.529938094 ], [ -85.010808602, 32.527999394 ], [ -85.009588301, 32.527474396 ] ] } },
{ "type": "Feature", "properties": { "site_no": "02341460", "nhdplus_comid": "3298866", "navigation_mode": "UM", "requested_distance_km": 12.0, "start_source": "nwissite", "start_id": "USGS-02341460", "geometry_length_km": 0.97072177975817264 }, "geometry": { "type": "LineString", "coordinates": [ [ -85.027353406, 32.546262994 ], [ -85.025494501, 32.545676194 ], [ -85.024169907, 32.544735096 ], [ -85.023691304, 32.544688597 ], [ -85.022648707, 32.544045694 ], [ -85.021053404, 32.543890595 ], [ -85.020133302, 32.543530397 ], [ -85.018723302, 32.542039298 ] ] } },
{ "type": "Feature", "properties": { "site_no": "02341460", "nhdplus_comid": "3298858", "navigation_mode": "UM", "requested_distance_km": 12.0, "start_source": "nwissite", "start_id": "USGS-02341460", "geometry_length_km": 1.7040928128862223 }, "geometry": { "type": "LineString", "coordinates": [ [ -85.038926102, 32.557270795 ], [ -85.038607001, 32.557239793 ], [ -85.036914207, 32.555450797 ], [ -85.035374202, 32.554895096 ], [ -85.033098906, 32.552643195 ], [ -85.032178603, 32.552283093 ], [ -85.030768201, 32.550792098 ], [ -85.030106902, 32.548561499 ], [ -85.028273501, 32.5466232 ], [ -85.027353406, 32.546262994 ] ] } }
]
}
