{
"type": "FeatureCollection",
"name": "USGS_02444000_DM_12km",
"crs": { "type": "name", "properties": { "name": "urn:ogc:def:crs:OGC:1.3:CRS84" } },
"features": [
{ "type": "Feature", "properties": { "site_no": "02444000", "nhdplus_comid": "18630772", "navigation_mode": "DM", "requested_distance_km": 12.0, "start_source": "nwissite", "start_id": "USGS-02444000", "geometry_length_km": 4.7393616728643995 }, "geometry": { "type": "LineString", "coordinates": [ [ -88.265084452, 33.293975641 ], [ -88.265737906, 33.293682799 ], [ -88.266010702, 33.293568499 ], [ -88.266311303, 33.293133594 ], [ -88.266666606, 33.292584099 ], [ -88.266912602, 33.292149 ], [ -88.266913302, 33.291576296 ], [ -88.267486803, 33.290981196 ], [ -88.267651305, 33.290317096 ], [ -88.267842501, 33.290088199 ], [ -88.268660702, 33.290088899 ], [ -88.268960901, 33.2899746 ], [ -88.2694249, 33.289631397 ], [ -88.269943304, 33.289563097 ], [ -88.270625107, 33.289678194 ], [ -88.271115705, 33.289930597 ], [ -88.271579206, 33.290091395 ], [ -88.272124805, 33.290137596 ], [ -88.2723976, 33.2900462 ], [ -88.272861406, 33.289977893 ], [ -88.272970304, 33.290046699 ], [ -88.273079306, 33.290229999 ], [ -88.272970006, 33.290344499 ], [ -88.272915304, 33.290550597 ], [ -88.273460202, 33.2909633 ], [ -88.273869403, 33.290963694 ], [ -88.2750699, 33.290643997 ], [ -88.275670201, 33.290415399 ], [ -88.275888607, 33.290163599 ], [ -88.276107304, 33.289774299 ], [ -88.276325703, 33.289637096 ], [ -88.276625805, 33.289568499 ], [ -88.276734702, 33.289660297 ], [ -88.276761904, 33.289820597 ], [ -88.277880102, 33.289867297 ], [ -88.278207302, 33.290027894 ], [ -88.278507203, 33.2900282 ], [ -88.278780207, 33.289822198 ], [ -88.279489905, 33.2893188 ], [ -88.280117303, 33.289204799 ], [ -88.280281104, 33.289113194 ], [ -88.280390702, 33.288655199 ], [ -88.280472703, 33.288471997 ], [ -88.281182401, 33.287968494 ], [ -88.281373605, 33.287670895 ], [ -88.281646505, 33.287602395 ], [ -88.282055505, 33.287808798 ], [ -88.2826555, 33.287763499 ], [ -88.2827373, 33.287832297 ], [ -88.2827911, 33.288542397 ], [ -88.283336602, 33.288634494 ], [ -88.283554606, 33.288817793 ], [ -88.283554301, 33.289069794 ], [ -88.283608705, 33.289207295 ], [ -88.283935905, 33.2892076 ], [ -88.284045205, 33.289047293 ], [ -88.284127302, 33.288772397 ], [ -88.284318402, 33.288635097 ], [ -88.284591101, 33.288703993 ], [ -88.284618005, 33.288978897 ], [ -88.284781501, 33.289162293 ], [ -88.285572201, 33.289391994 ], [ -88.286199704, 33.289254993 ], [ -88.2866363, 33.289094999 ], [ -88.286827303, 33.2889347 ], [ -88.287291504, 33.288476899 ], [ -88.287919201, 33.288019195 ], [ -88.287947007, 33.287560999 ], [ -88.288083501, 33.287354998 ], [ -88.288111001, 33.287240498 ], [ -88.288438305, 33.2871949 ], [ -88.288820207, 33.287057698 ], [ -88.289311901, 33.286370896 ], [ -88.290321201, 33.286188297 ], [ -88.290484905, 33.286028095 ], [ -88.290758304, 33.285432696 ], [ -88.291576706, 33.285318695 ], [ -88.291795105, 33.285112694 ], [ -88.292150207, 33.284563094 ], [ -88.292205304, 33.283830099 ], [ -88.292696506, 33.283601396 ], [ -88.293733604, 33.282708794 ], [ -88.294088401, 33.282479897 ], [ -88.294416003, 33.282113597 ], [ -88.2948796, 33.282113895 ], [ -88.295207001, 33.282022499 ], [ -88.296135001, 33.281198397 ], [ -88.296244301, 33.280946493 ], [ -88.296271905, 33.280580096 ], [ -88.296435803, 33.280282296 ], [ -88.297036007, 33.280053698 ], [ -88.297881804, 33.279527299 ], [ -88.297936603, 33.279275395 ], [ -88.297827706, 33.279069096 ], [ -88.297719106, 33.2784964 ], [ -88.297010303, 33.278198197 ], [ -88.296356201, 33.277854197 ], [ -88.296247303, 33.277647994 ] ] } },
{ "type": "Feature", "properties": { "site_no": "02444000", "nhdplus_comid": "18631002", "navigation_mode": "DM", "requested_distance_km": 12.0, "start_source": "nwissite", "start_id": "USGS-02444000", "geometry_length_km": 1.2896423827740249 }, "geometry": { "type": "LineString", "coordinates": [ [ -88.296247303, 33.277647994 ], [ -88.296284907, 33.277579598 ], [ -88.296993606, 33.276927397 ], [ -88.297079407, 33.276052497 ], [ -88.296676002, 33.275522098 ], [ -88.296774, 33.2745222 ], [ -88.297336601, 33.273427896 ], [ -88.297410004, 33.272677995 ], [ -88.296301804, 33.271596894 ], [ -88.295409501, 33.271410994 ], [ -88.294716902, 33.270735294 ], [ -88.293543704, 33.268769093 ], [ -88.293478705, 33.267884098 ] ] } },
{ "type": "Feature", "properties": { "site_no": "02444000", "nhdplus_comid": "18631012", "navigation_mode": "DM", "requested_distance_km": 12.0, "start_source": "nwissite", "start_id": "USGS-02444000", "geometry_length_km": 0.86066297810627779 }, "geometry": { "type": "LineString", "coordinates": [ [ -88.293478705, 33.267884098 ], [ -88.294228807, 33.266424894 ], [ -88.295871206, 33.265151598 ], [ -88.297008403, 33.262837797 ], [ -88.2970291, 33.261077896 ] ] } },
{ "type": "Feature", "properties": { "site_no": "02444000", "nhdplus_comid": "18631010", "navigation_mode": "DM", "requested_distance_km": 12.0, "start_source": "nwissite", "start_id": "USGS-02444000", "geometry_length_km": 0.55470008182826969 }, "geometry": { "type": "LineString", "coordinates": [ [ -88.2970291, 33.261077896 ], [ -88.295399107, 33.262226194 ], [ -88.292384006, 33.262023099 ], [ -88.291968502, 33.261617593 ], [ -88.292035304, 33.261472799 ] ] } },
{ "type": "Feature", "properties": { "site_no": "02444000", "nhdplus_comid": "18629980", "navigation_mode": "DM", "requested_distance_km": 12.0, "start_source": "nwissite", "start_id": "USGS-02444000", "geometry_length_km": 0.23882517858493799 }, "geometry": { "type": "LineString", "coordinates": [ [ -88.292035304, 33.261472799 ], [ -88.292090103, 33.261129297 ], [ -88.292390704, 33.260465093 ], [ -88.292418301, 33.260029897 ], [ -88.292118602, 33.259709097 ], [ -88.291900702, 33.259548597 ] ] } },
{ "type": "Feature", "properties": { "site_no": "02444000", "nhdplus_comid": "18631018", "navigation_mode": "DM", "requested_distance_km": 12.0, "start_source": "nwissite", "start_id": "USGS-02444000", "geometry_length_km": 0.50650524273626085 }, "geometry": { "type": "LineString", "coordinates": [ [ -88.291900702, 33.259548597 ], [ -88.291689105, 33.259491697 ], [ -88.290530801, 33.259256095 ], [ -88.289891101, 33.259590395 ], [ -88.289137304, 33.259539597 ], [ -88.287878707, 33.258448295 ], [ -88.287274204, 33.258427598 ], [ -88.2871847, 33.258491598 ] ] } },
{ "type": "Feature", "properties": { "site_no": "02444000", "nhdplus_comid": "18629986", "navigation_mode": "DM", "requested_distance_km": 12.0, "start_source": "nwissite", "start_id": "USGS-02444000", "geometry_length_km": 0.1824505653622493 }, "geometry": { "type": "LineString", "coordinates": [ [ -88.2871847, 33.258491598 ], [ -88.286448605, 33.258513995 ], [ -88.286039807, 33.258307599 ], [ -88.2857401, 33.258032396 ], [ -88.285685904, 33.2577805 ] ] } },
{ "type": "Feature", "properties": { "site_no": "02444000", "nhdplus_comid": "18631020", "navigation_mode": "DM", "requested_distance_km": 12.0, "start_source": "nwissite", "start_id": "USGS-02444000", "geometry_length_km": 0.33713103952501361 }, "geometry": { "type": "LineString", "coordinates": [ [ -88.285685904, 33.2577805 ], [ -88.285645902, 33.257667094 ], [ -88.285703301, 33.257420897 ], [ -88.285287902, 33.2570154 ], [ -88.284534201, 33.256964594 ], [ -88.284045205, 33.257308997 ], [ -88.283833101, 33.257923797 ], [ -88.283653304, 33.2580432 ], [ -88.283613205, 33.258168198 ] ] } },
{ "type": "Feature", "properties": { "site_no": "02444000", "nhdplus_comid": "18629984", "navigation_mode": "DM", "requested_distance_km": 12.0, "start_source": "nwissite", "start_id": "USGS-02444000", "geometry_length_km": 0.59872160659485851 }, "geometry": { "type": "LineString", "coordinates": [ [ -88.283613205, 33.258168198 ], [ -88.283476502, 33.258488797 ], [ -88.282848805, 33.259152696 ], [ -88.282166801, 33.259518795 ], [ -88.281866401, 33.259839296 ], [ -88.281648204, 33.2599307 ], [ -88.280694, 33.259929895 ], [ -88.280066706, 33.2600898 ], [ -88.279712304, 33.260066599 ], [ -88.279494204, 33.2599748 ], [ -88.279194802, 33.259447798 ], [ -88.279168107, 33.258966699 ] ] } },
{ "type": "Feature", "properties": { "site_no": "02444000", "nhdplus_comid": "18631034", "navigation_mode": "DM", "requested_distance_km": 12.0, "start_source": "nwissite", "start_id": "USGS-02444000", "geometry_length_km": 2.8423615407595655 }, "geometry": { "type": "LineString", "coordinates": [ [ -88.279168107, 33.258966699 ], [ -88.279039003, 33.258833498 ], [ -88.277652606, 33.257506594 ], [ -88.277400203, 33.256986298 ], [ -88.277882405, 33.253621899 ], [ -88.277377605, 33.252581298 ], [ -88.277488105, 33.251456499 ], [ -88.278014004, 33.250737093 ], [ -88.278173506, 33.249112293 ], [ -88.277216703, 33.248041198 ], [ -88.276724204, 33.246875599 ], [ -88.276545703, 33.245605394 ], [ -88.276778802, 33.243230596 ], [ -88.275117502, 33.241608597 ], [ -88.275338501, 33.239358895 ], [ -88.275701307, 33.238754295 ], [ -88.2771805, 33.237595998 ], [ -88.277515307, 33.235731393 ] ] } }
]
}
