{
"type": "FeatureCollection",
"name": "USGS_02478500_UM_12km",
"crs": { "type": "name", "properties": { "name": "urn:ogc:def:crs:OGC:1.3:CRS84" } },
"features": [
{ "type": "Feature", "properties": { "site_no": "02478500", "nhdplus_comid": "18172814", "navigation_mode": "UM", "requested_distance_km": 12.0, "start_source": "nwissite", "start_id": "USGS-02478500", "geometry_length_km": 0.89469493940204858 }, "geometry": { "type": "LineString", "coordinates": [ [ -88.544624604, 31.155919299 ], [ -88.544740103, 31.154664598 ], [ -88.545454502, 31.153323993 ], [ -88.5474592, 31.1508075 ], [ -88.548302564, 31.148657768 ] ] } },
{ "type": "Feature", "properties": { "site_no": "02478500", "nhdplus_comid": "18175196", "navigation_mode": "UM", "requested_distance_km": 12.0, "start_source": "nwissite", "start_id": "USGS-02478500", "geometry_length_km": 2.2761769103833429 }, "geometry": { "type": "LineString", "coordinates": [ [ -88.539517701, 31.171781495 ], [ -88.539253004, 31.169318393 ], [ -88.538498804, 31.167879097 ], [ -88.537280805, 31.166661099 ], [ -88.537238002, 31.165522099 ], [ -88.538482405, 31.164848298 ], [ -88.539363705, 31.164907597 ], [ -88.540720306, 31.164619997 ], [ -88.541829303, 31.163810797 ], [ -88.542137906, 31.162064195 ], [ -88.541406803, 31.160373993 ], [ -88.541421607, 31.158607595 ], [ -88.544273205, 31.156526893 ], [ -88.544624604, 31.155919299 ] ] } },
{ "type": "Feature", "properties": { "site_no": "02478500", "nhdplus_comid": "18172810", "navigation_mode": "UM", "requested_distance_km": 12.0, "start_source": "nwissite", "start_id": "USGS-02478500", "geometry_length_km": 1.7600744006900204 }, "geometry": { "type": "LineString", "coordinates": [ [ -88.540059902, 31.183826596 ], [ -88.5422455, 31.181764297 ], [ -88.542395703, 31.180133298 ], [ -88.542024307, 31.179350995 ], [ -88.540941402, 31.178268395 ], [ -88.539970905, 31.177571997 ], [ -88.537983507, 31.176681094 ], [ -88.536777005, 31.175337598 ], [ -88.536881104, 31.174208499 ], [ -88.539517701, 31.171781495 ] ] } },
{ "type": "Feature", "properties": { "site_no": "02478500", "nhdplus_comid": "18172802", "navigation_mode": "UM", "requested_distance_km": 12.0, "start_source": "nwissite", "start_id": "USGS-02478500", "geometry_length_km": 1.3225726266102535 }, "geometry": { "type": "LineString", "coordinates": [ [ -88.540880404, 31.191771194 ], [ -88.540849, 31.190506794 ], [ -88.540048301, 31.189569399 ], [ -88.539336801, 31.189269096 ], [ -88.536862202, 31.188850395 ], [ -88.536173806, 31.188299194 ], [ -88.5362316, 31.1876719 ], [ -88.537793301, 31.186766997 ], [ -88.539072804, 31.185716897 ], [ -88.540059902, 31.183826596 ] ] } },
{ "type": "Feature", "properties": { "site_no": "02478500", "nhdplus_comid": "18172798", "navigation_mode": "UM", "requested_distance_km": 12.0, "start_source": "nwissite", "start_id": "USGS-02478500", "geometry_length_km": 3.1055080098989558 }, "geometry": { "type": "LineString", "coordinates": [ [ -88.549889706, 31.209542796 ], [ -88.550342202, 31.209446996 ], [ -88.551134706, 31.208868995 ], [ -88.551521003, 31.207885094 ], [ -88.551763304, 31.205250494 ], [ -88.551426403, 31.204091899 ], [ -88.550040707, 31.201474398 ], [ -88.5482805, 31.199715398 ], [ -88.545615606, 31.198148094 ], [ -88.544610105, 31.197828196 ], [ -88.538438506, 31.197413795 ], [ -88.537073202, 31.196185999 ], [ -88.537235007, 31.194429599 ], [ -88.5377452, 31.193706498 ], [ -88.540880404, 31.191771194 ] ] } },
{ "type": "Feature", "properties": { "site_no": "02478500", "nhdplus_comid": "18172794", "navigation_mode": "UM", "requested_distance_km": 12.0, "start_source": "nwissite", "start_id": "USGS-02478500", "geometry_length_km": 0.76167581101023651 }, "geometry": { "type": "LineString", "coordinates": [ [ -88.543114603, 31.210855499 ], [ -88.543783307, 31.210016795 ], [ -88.545674004, 31.208755195 ], [ -88.547743, 31.208767697 ], [ -88.548443206, 31.209193394 ], [ -88.549889706, 31.209542796 ] ] } },
{ "type": "Feature", "properties": { "site_no": "02478500", "nhdplus_comid": "18172786", "navigation_mode": "UM", "requested_distance_km": 12.0, "start_source": "nwissite", "start_id": "USGS-02478500", "geometry_length_km": 2.908080929910041 }, "geometry": { "type": "LineString", "coordinates": [ [ -88.544252902, 31.224185497 ], [ -88.543157905, 31.223228395 ], [ -88.538160302, 31.222892895 ], [ -88.532238007, 31.221359096 ], [ -88.531831801, 31.220953099 ], [ -88.5319359, 31.219824098 ], [ -88.532751903, 31.218995295 ], [ -88.533467107, 31.217654899 ], [ -88.534406804, 31.217086896 ], [ -88.535594203, 31.217040494 ], [ -88.5374735, 31.215904497 ], [ -88.541119806, 31.2132461 ], [ -88.542581201, 31.211829498 ], [ -88.543114603, 31.210855499 ] ] } }
]
}
