{
"type": "FeatureCollection",
"name": "USGS_03575272_UM_12km",
"crs": { "type": "name", "properties": { "name": "urn:ogc:def:crs:OGC:1.3:CRS84" } },
"features": [
{ "type": "Feature", "properties": { "site_no": "03575272", "nhdplus_comid": "19620186", "navigation_mode": "UM", "requested_distance_km": 12.0, "start_source": "nwissite", "start_id": "USGS-03575272", "geometry_length_km": 3.4040818146480727 }, "geometry": { "type": "LineString", "coordinates": [ [ -86.475463502, 34.700727396 ], [ -86.475047305, 34.700613193 ], [ -86.473327704, 34.700522996 ], [ -86.472772807, 34.700317197 ], [ -86.472300902, 34.699928194 ], [ -86.471606605, 34.699081197 ], [ -86.471024103, 34.698989995 ], [ -86.468360901, 34.698190294 ], [ -86.467861101, 34.697732493 ], [ -86.466474302, 34.697458699 ], [ -86.466335304, 34.6972069 ], [ -86.465780206, 34.696748994 ], [ -86.463561505, 34.696750693 ], [ -86.463450506, 34.696659096 ], [ -86.463422306, 34.6962239 ], [ -86.462950401, 34.695766099 ], [ -86.462783605, 34.695285194 ], [ -86.462339602, 34.694941893 ], [ -86.4618956, 34.694758996 ], [ -86.461673506, 34.694507197 ], [ -86.461590007, 34.694186598 ], [ -86.461367905, 34.693888895 ], [ -86.456843704, 34.689677298 ], [ -86.455179006, 34.688784994 ], [ -86.448380615, 34.682223936 ] ] } }
]
}
