{
"type": "FeatureCollection",
"name": "USGS_02479945_DM_12km",
"crs": { "type": "name", "properties": { "name": "urn:ogc:def:crs:OGC:1.3:CRS84" } },
"features": [
{ "type": "Feature", "properties": { "site_no": "02479945", "nhdplus_comid": "18094191", "navigation_mode": "DM", "requested_distance_km": 12.0, "start_source": "nwissite", "start_id": "USGS-02479945", "geometry_length_km": 1.2170101965062079 }, "geometry": { "type": "LineString", "coordinates": [ [ -88.333836841, 30.856017592 ], [ -88.333122902, 30.854801893 ], [ -88.333016604, 30.854733095 ], [ -88.333016604, 30.854664296 ], [ -88.331848502, 30.853036895 ], [ -88.331476904, 30.852578498 ], [ -88.331052005, 30.852211796 ], [ -88.330361806, 30.851501197 ], [ -88.330282301, 30.851226196 ], [ -88.330282502, 30.850653298 ], [ -88.330388904, 30.850263797 ], [ -88.331531502, 30.848843396 ], [ -88.331611305, 30.848683 ], [ -88.331691004, 30.848591395 ], [ -88.331691302, 30.847812295 ], [ -88.3315055, 30.847445495 ], [ -88.331372805, 30.847308099 ], [ -88.331187002, 30.846895397 ], [ -88.330948204, 30.846528694 ] ] } },
{ "type": "Feature", "properties": { "site_no": "02479945", "nhdplus_comid": "18094251", "navigation_mode": "DM", "requested_distance_km": 12.0, "start_source": "nwissite", "start_id": "USGS-02479945", "geometry_length_km": 2.7126149800878459 }, "geometry": { "type": "LineString", "coordinates": [ [ -88.330948204, 30.846528694 ], [ -88.331001505, 30.8459787 ], [ -88.331107907, 30.8456809 ], [ -88.331161104, 30.845635094 ], [ -88.331719406, 30.844099998 ], [ -88.331905603, 30.843366697 ], [ -88.331985302, 30.843229294 ], [ -88.331959203, 30.842083499 ], [ -88.3317471, 30.8414189 ], [ -88.331349, 30.840685494 ], [ -88.331189707, 30.840456299 ], [ -88.331163205, 30.840295896 ], [ -88.329995103, 30.838989295 ], [ -88.329968706, 30.838851795 ], [ -88.329809405, 30.838714197 ], [ -88.329623707, 30.838324599 ], [ -88.329597801, 30.836812295 ], [ -88.329305902, 30.836239293 ], [ -88.329014003, 30.835826695 ], [ -88.3285098, 30.834978595 ], [ -88.328032106, 30.834428594 ], [ -88.327049904, 30.833649099 ], [ -88.326704703, 30.833282299 ], [ -88.326519005, 30.832892597 ], [ -88.326359801, 30.832686394 ], [ -88.326359905, 30.832617596 ], [ -88.326253705, 30.8324342 ], [ -88.325749807, 30.831036195 ], [ -88.324980401, 30.829729795 ], [ -88.324874304, 30.829431899 ], [ -88.3244498, 30.828698397 ], [ -88.323680207, 30.827804394 ], [ -88.323043101, 30.8272084 ], [ -88.322326504, 30.826520599 ], [ -88.321742803, 30.825764194 ], [ -88.321477503, 30.825236998 ], [ -88.321371302, 30.825122394 ], [ -88.321371406, 30.825007796 ], [ -88.321344905, 30.825007796 ] ] } },
{ "type": "Feature", "properties": { "site_no": "02479945", "nhdplus_comid": "18094261", "navigation_mode": "DM", "requested_distance_km": 12.0, "start_source": "nwissite", "start_id": "USGS-02479945", "geometry_length_km": 0.52466372949780138 }, "geometry": { "type": "LineString", "coordinates": [ [ -88.321344905, 30.825007796 ], [ -88.321318403, 30.824824497 ], [ -88.321238704, 30.824755795 ], [ -88.321133107, 30.823586993 ], [ -88.320921406, 30.822257794 ], [ -88.3208692, 30.820722394 ], [ -88.320789702, 30.820424497 ], [ -88.320710003, 30.820378594 ] ] } },
{ "type": "Feature", "properties": { "site_no": "02479945", "nhdplus_comid": "18094281", "navigation_mode": "DM", "requested_distance_km": 12.0, "start_source": "nwissite", "start_id": "USGS-02479945", "geometry_length_km": 0.73987098219170011 }, "geometry": { "type": "LineString", "coordinates": [ [ -88.320710003, 30.820378594 ], [ -88.320657, 30.820172399 ], [ -88.319807902, 30.819209598 ], [ -88.319436401, 30.818590797 ], [ -88.319356903, 30.818361498 ], [ -88.319330901, 30.817353293 ], [ -88.318959504, 30.816963598 ], [ -88.318959601, 30.816665694 ], [ -88.319252007, 30.8161617 ], [ -88.319305301, 30.815726198 ], [ -88.318933904, 30.815221995 ], [ -88.318960905, 30.814328194 ] ] } },
{ "type": "Feature", "properties": { "site_no": "02479945", "nhdplus_comid": "18094287", "navigation_mode": "DM", "requested_distance_km": 12.0, "start_source": "nwissite", "start_id": "USGS-02479945", "geometry_length_km": 0.28325219259585721 }, "geometry": { "type": "LineString", "coordinates": [ [ -88.318960905, 30.814328194 ], [ -88.318562806, 30.814052999 ], [ -88.318589501, 30.813778095 ], [ -88.318669304, 30.813319795 ], [ -88.3187491, 30.8131136 ], [ -88.318855606, 30.812586598 ], [ -88.318962, 30.812403396 ], [ -88.318988703, 30.811990894 ] ] } },
{ "type": "Feature", "properties": { "site_no": "02479945", "nhdplus_comid": "18094289", "navigation_mode": "DM", "requested_distance_km": 12.0, "start_source": "nwissite", "start_id": "USGS-02479945", "geometry_length_km": 0.066480091441279865 }, "geometry": { "type": "LineString", "coordinates": [ [ -88.318988703, 30.811990894 ], [ -88.319493406, 30.811578698 ] ] } },
{ "type": "Feature", "properties": { "site_no": "02479945", "nhdplus_comid": "18095185", "navigation_mode": "DM", "requested_distance_km": 12.0, "start_source": "nwissite", "start_id": "USGS-02479945", "geometry_length_km": 1.6833978764435218 }, "geometry": { "type": "LineString", "coordinates": [ [ -88.319493406, 30.811578698 ], [ -88.319495402, 30.811577395 ], [ -88.3196816, 30.811326593 ], [ -88.320309401, 30.810959399 ], [ -88.320538506, 30.810090899 ], [ -88.321182601, 30.809503898 ], [ -88.321791202, 30.809293494 ], [ -88.322668403, 30.809354499 ], [ -88.325027406, 30.807749495 ], [ -88.326572306, 30.806972399 ], [ -88.330195405, 30.804444298 ], [ -88.332198106, 30.801929995 ] ] } },
{ "type": "Feature", "properties": { "site_no": "02479945", "nhdplus_comid": "18095191", "navigation_mode": "DM", "requested_distance_km": 12.0, "start_source": "nwissite", "start_id": "USGS-02479945", "geometry_length_km": 1.5230221165474596 }, "geometry": { "type": "LineString", "coordinates": [ [ -88.332198106, 30.801929995 ], [ -88.3331936, 30.800735593 ], [ -88.336195901, 30.798543297 ], [ -88.3363894, 30.798051298 ], [ -88.337653406, 30.797128193 ], [ -88.338648707, 30.795933694 ], [ -88.343602002, 30.792549796 ] ] } },
{ "type": "Feature", "properties": { "site_no": "02479945", "nhdplus_comid": "18095197", "navigation_mode": "DM", "requested_distance_km": 12.0, "start_source": "nwissite", "start_id": "USGS-02479945", "geometry_length_km": 2.0372519106804581 }, "geometry": { "type": "LineString", "coordinates": [ [ -88.343602002, 30.792549796 ], [ -88.345367104, 30.790208295 ], [ -88.345841102, 30.789861999 ], [ -88.346421205, 30.788385995 ], [ -88.346515603, 30.787381694 ], [ -88.348236904, 30.784721196 ], [ -88.348772302, 30.780588597 ], [ -88.348258406, 30.779794797 ], [ -88.348458901, 30.777660698 ], [ -88.349295802, 30.776581399 ], [ -88.349524505, 30.775712796 ] ] } },
{ "type": "Feature", "properties": { "site_no": "02479945", "nhdplus_comid": "18095215", "navigation_mode": "DM", "requested_distance_km": 12.0, "start_source": "nwissite", "start_id": "USGS-02479945", "geometry_length_km": 8.0351649458624053 }, "geometry": { "type": "LineString", "coordinates": [ [ -88.349524505, 30.775712796 ], [ -88.3500126, 30.772082195 ], [ -88.349656701, 30.771173097 ], [ -88.349251404, 30.766090594 ], [ -88.348089501, 30.764367394 ], [ -88.348360702, 30.761479899 ], [ -88.347882301, 30.760309495 ], [ -88.348071001, 30.758300796 ], [ -88.347861201, 30.757401697 ], [ -88.342330307, 30.752089895 ], [ -88.341366507, 30.751391195 ], [ -88.340221204, 30.751058996 ], [ -88.338206604, 30.749023698 ], [ -88.3377757, 30.747350998 ], [ -88.336322002, 30.745607294 ], [ -88.336223103, 30.745095 ], [ -88.336277701, 30.742950499 ], [ -88.335993007, 30.741287999 ], [ -88.336527206, 30.732479297 ], [ -88.337802105, 30.731430493 ], [ -88.338054404, 30.730310693 ], [ -88.339715801, 30.728277698 ], [ -88.340164103, 30.723506697 ], [ -88.3394766, 30.721437 ], [ -88.339688905, 30.719177097 ], [ -88.337138101, 30.716598794 ], [ -88.333779, 30.716365397 ], [ -88.331844904, 30.716610096 ], [ -88.329216003, 30.716427296 ] ] } }
]
}
