{
"type": "FeatureCollection",
"name": "USGS_02463500_UM_12km",
"crs": { "type": "name", "properties": { "name": "urn:ogc:def:crs:OGC:1.3:CRS84" } },
"features": [
{ "type": "Feature", "properties": { "site_no": "02463500", "nhdplus_comid": "18229243", "navigation_mode": "UM", "requested_distance_km": 12.0, "start_source": "nwissite", "start_id": "USGS-02463500", "geometry_length_km": 0.63226588475260681 }, "geometry": { "type": "LineString", "coordinates": [ [ -87.445427403, 33.208146393 ], [ -87.445155405, 33.208696395 ], [ -87.444991902, 33.208811097 ], [ -87.443983607, 33.208994895 ], [ -87.443656802, 33.209201194 ], [ -87.443657205, 33.209682398 ], [ -87.444802403, 33.210369095 ], [ -87.447117551, 33.21105826 ] ] } },
{ "type": "Feature", "properties": { "site_no": "02463500", "nhdplus_comid": "18228807", "navigation_mode": "UM", "requested_distance_km": 12.0, "start_source": "nwissite", "start_id": "USGS-02463500", "geometry_length_km": 2.2471184450480788 }, "geometry": { "type": "LineString", "coordinates": [ [ -87.427516304, 33.199518196 ], [ -87.427462101, 33.200182594 ], [ -87.427680306, 33.200411595 ], [ -87.429016203, 33.201350398 ], [ -87.429834001, 33.201693594 ], [ -87.430869803, 33.201990999 ], [ -87.431605503, 33.201830298 ], [ -87.432123303, 33.20183 ], [ -87.432232305, 33.201967396 ], [ -87.432015106, 33.203090094 ], [ -87.432015903, 33.2043273 ], [ -87.432261504, 33.204762593 ], [ -87.432670504, 33.205083199 ], [ -87.435777605, 33.205471098 ], [ -87.440193303, 33.206339397 ], [ -87.441774301, 33.206727996 ], [ -87.442591704, 33.206544198 ], [ -87.443572901, 33.206589498 ], [ -87.444063604, 33.206795394 ], [ -87.445318103, 33.207871497 ], [ -87.445427403, 33.208146393 ] ] } },
{ "type": "Feature", "properties": { "site_no": "02463500", "nhdplus_comid": "18228809", "navigation_mode": "UM", "requested_distance_km": 12.0, "start_source": "nwissite", "start_id": "USGS-02463500", "geometry_length_km": 6.0219101167581517 }, "geometry": { "type": "LineString", "coordinates": [ [ -87.408638202, 33.217372395 ], [ -87.409210704, 33.217372194 ], [ -87.410028502, 33.217601098 ], [ -87.411173701, 33.218379699 ], [ -87.413218401, 33.219432898 ], [ -87.414363705, 33.220417693 ], [ -87.415291302, 33.221952394 ], [ -87.416136503, 33.222639494 ], [ -87.4174724, 33.223074399 ], [ -87.4190263, 33.223325796 ], [ -87.421097703, 33.222820893 ], [ -87.421888106, 33.222476996 ], [ -87.422242001, 33.221812397 ], [ -87.422132, 33.220071293 ], [ -87.421503507, 33.2172077 ], [ -87.421502404, 33.215351894 ], [ -87.4210115, 33.214710593 ], [ -87.420575202, 33.214458697 ], [ -87.420002803, 33.214275599 ], [ -87.419212401, 33.214413397 ], [ -87.417795807, 33.215673998 ], [ -87.416923806, 33.216178395 ], [ -87.415888205, 33.2164765 ], [ -87.414307304, 33.216568694 ], [ -87.413707703, 33.216477297 ], [ -87.413217001, 33.216271296 ], [ -87.4127535, 33.215950593 ], [ -87.412426203, 33.215400897 ], [ -87.412562005, 33.2145302 ], [ -87.412889004, 33.2142094 ], [ -87.413651906, 33.213865496 ], [ -87.416949503, 33.212993793 ], [ -87.418829806, 33.212328598 ], [ -87.420137703, 33.211778298 ], [ -87.420600906, 33.2113657 ], [ -87.420818605, 33.210953295 ], [ -87.420927301, 33.210151397 ], [ -87.421199404, 33.209486797 ], [ -87.421798602, 33.208753496 ], [ -87.4252849, 33.205017596 ], [ -87.4262655, 33.204284094 ], [ -87.4267013, 33.203779899 ], [ -87.426700801, 33.203115493 ], [ -87.426591702, 33.2028635 ], [ -87.4262098, 33.202222094 ], [ -87.425827302, 33.200756095 ], [ -87.425881103, 33.199587598 ], [ -87.426071703, 33.199289694 ], [ -87.426398605, 33.1990375 ], [ -87.426834501, 33.198922694 ], [ -87.427407004, 33.199289098 ], [ -87.427516304, 33.199518196 ] ] } }
]
}
