{
"type": "FeatureCollection",
"name": "USGS_02416481_DM_12km",
"crs": { "type": "name", "properties": { "name": "urn:ogc:def:crs:OGC:1.3:CRS84" } },
"features": [
{ "type": "Feature", "properties": { "site_no": "02416481", "nhdplus_comid": "22038085", "navigation_mode": "DM", "requested_distance_km": 12.0, "start_source": "nwissite", "start_id": "USGS-02416481", "geometry_length_km": 3.968764311482305 }, "geometry": { "type": "LineString", "coordinates": [ [ -85.770376493, 32.771685793 ], [ -85.770508304, 32.7734503 ], [ -85.770697907, 32.773725294 ], [ -85.771564402, 32.774711095 ], [ -85.771726601, 32.775146499 ], [ -85.771806702, 32.776269093 ], [ -85.772267006, 32.776796393 ], [ -85.772375107, 32.777140096 ], [ -85.772429302, 32.777208894 ], [ -85.772456102, 32.777460895 ], [ -85.772862107, 32.778125599 ], [ -85.772916004, 32.778423399 ], [ -85.773620203, 32.779202998 ], [ -85.774460502, 32.779661797 ], [ -85.775056906, 32.779822595 ], [ -85.775761403, 32.780350097 ], [ -85.776221804, 32.780877396 ], [ -85.776845105, 32.781313099 ], [ -85.777224004, 32.781954899 ], [ -85.777874105, 32.782711394 ], [ -85.778198704, 32.783398896 ], [ -85.778442606, 32.783582397 ], [ -85.7792558, 32.783926696 ], [ -85.779960707, 32.784179196 ], [ -85.780963302, 32.784935899 ], [ -85.781098701, 32.785119399 ], [ -85.781314306, 32.786448196 ], [ -85.781720206, 32.787296094 ], [ -85.781746902, 32.7876627 ], [ -85.782099105, 32.788075298 ], [ -85.782451004, 32.788785696 ], [ -85.782504, 32.790045798 ], [ -85.783208005, 32.791100197 ], [ -85.783586703, 32.792016797 ], [ -85.783694804, 32.792475 ], [ -85.784020007, 32.792704396 ], [ -85.784643605, 32.792933896 ], [ -85.785131402, 32.793346696 ], [ -85.785429202, 32.793896697 ], [ -85.7855369, 32.794606894 ], [ -85.785374001, 32.794881694 ], [ -85.785210706, 32.795385599 ], [ -85.785400406, 32.795523196 ], [ -85.785970107, 32.795454897 ], [ -85.786566406, 32.795775995 ], [ -85.787244305, 32.796005599 ], [ -85.787922405, 32.7959373 ], [ -85.788139202, 32.796212398 ], [ -85.788491704, 32.796327196 ], [ -85.788681202, 32.796670996 ], [ -85.788653806, 32.796968795 ], [ -85.787893407, 32.7979763 ], [ -85.787757106, 32.7985489 ], [ -85.788895905, 32.799099497 ], [ -85.789275602, 32.799145497 ] ] } },
{ "type": "Feature", "properties": { "site_no": "02416481", "nhdplus_comid": "22037907", "navigation_mode": "DM", "requested_distance_km": 12.0, "start_source": "nwissite", "start_id": "USGS-02416481", "geometry_length_km": 0.90086627615359405 }, "geometry": { "type": "LineString", "coordinates": [ [ -85.789275602, 32.799145497 ], [ -85.789899804, 32.798870996 ], [ -85.790306605, 32.798917197 ], [ -85.7907947, 32.799077898 ], [ -85.792882003, 32.8004997 ], [ -85.793884404, 32.801714495 ], [ -85.7941285, 32.801897898 ], [ -85.795294501, 32.802265197 ], [ -85.795945302, 32.802586295 ], [ -85.796623103, 32.802907497 ], [ -85.796948306, 32.803182594 ] ] } },
{ "type": "Feature", "properties": { "site_no": "02416481", "nhdplus_comid": "22037835", "navigation_mode": "DM", "requested_distance_km": 12.0, "start_source": "nwissite", "start_id": "USGS-02416481", "geometry_length_km": 0.050582727899843256 }, "geometry": { "type": "LineString", "coordinates": [ [ -85.796948306, 32.803182594 ], [ -85.797490902, 32.8032059 ] ] } },
{ "type": "Feature", "properties": { "site_no": "02416481", "nhdplus_comid": "22038789", "navigation_mode": "DM", "requested_distance_km": 12.0, "start_source": "nwissite", "start_id": "USGS-02416481", "geometry_length_km": 1.6154087718449095 }, "geometry": { "type": "LineString", "coordinates": [ [ -85.797490902, 32.8032059 ], [ -85.798232004, 32.8033536 ], [ -85.798977703, 32.803342998 ], [ -85.798974901, 32.802644096 ], [ -85.798551902, 32.801596798 ], [ -85.798874602, 32.800538994 ], [ -85.799512804, 32.799198896 ], [ -85.800282501, 32.7975602 ], [ -85.802895606, 32.794612199 ], [ -85.803772703, 32.794302896 ], [ -85.804826707, 32.794785798 ], [ -85.805986904, 32.796131998 ] ] } },
{ "type": "Feature", "properties": { "site_no": "02416481", "nhdplus_comid": "22038787", "navigation_mode": "DM", "requested_distance_km": 12.0, "start_source": "nwissite", "start_id": "USGS-02416481", "geometry_length_km": 1.2724622137505139 }, "geometry": { "type": "LineString", "coordinates": [ [ -85.805986904, 32.796131998 ], [ -85.8091795, 32.797261797 ], [ -85.812937304, 32.796356194 ], [ -85.817683801, 32.792915098 ] ] } },
{ "type": "Feature", "properties": { "site_no": "02416481", "nhdplus_comid": "22038779", "navigation_mode": "DM", "requested_distance_km": 12.0, "start_source": "nwissite", "start_id": "USGS-02416481", "geometry_length_km": 4.5465298820523454 }, "geometry": { "type": "LineString", "coordinates": [ [ -85.817683801, 32.792915098 ], [ -85.821289904, 32.790614493 ], [ -85.824568704, 32.788284495 ], [ -85.827274106, 32.787836596 ], [ -85.828792304, 32.790182598 ], [ -85.827545702, 32.796009794 ], [ -85.826171905, 32.797682099 ], [ -85.827263005, 32.802061394 ], [ -85.833042406, 32.802165195 ], [ -85.845460102, 32.8034155 ], [ -85.846282907, 32.803631 ] ] } }
]
}
