{
"type": "FeatureCollection",
"name": "USGS_02469672_DM_12km",
"crs": { "type": "name", "properties": { "name": "urn:ogc:def:crs:OGC:1.3:CRS84" } },
"features": [
{ "type": "Feature", "properties": { "site_no": "02469672", "nhdplus_comid": "18545890", "navigation_mode": "DM", "requested_distance_km": 12.0, "start_source": "nwissite", "start_id": "USGS-02469672", "geometry_length_km": 0.296519046582431 }, "geometry": { "type": "LineString", "coordinates": [ [ -88.454600627, 32.085249255 ], [ -88.454600602, 32.085249193 ], [ -88.454600103, 32.084745295 ], [ -88.454815, 32.084263995 ], [ -88.454707004, 32.083966196 ], [ -88.454706602, 32.083622493 ], [ -88.455137104, 32.083576493 ], [ -88.455460407, 32.083805397 ], [ -88.4557565, 32.083896793 ] ] } },
{ "type": "Feature", "properties": { "site_no": "02469672", "nhdplus_comid": "18545926", "navigation_mode": "DM", "requested_distance_km": 12.0, "start_source": "nwissite", "start_id": "USGS-02469672", "geometry_length_km": 1.0412975376071614 }, "geometry": { "type": "LineString", "coordinates": [ [ -88.4557565, 32.083896793 ], [ -88.455783002, 32.083484396 ], [ -88.455702201, 32.083369896 ], [ -88.455728702, 32.082980499 ], [ -88.455727704, 32.082041197 ], [ -88.455620006, 32.081903793 ], [ -88.455485106, 32.081514396 ], [ -88.455458201, 32.081445694 ], [ -88.454919904, 32.081285596 ], [ -88.454623602, 32.081033796 ], [ -88.454596303, 32.080598496 ], [ -88.455134004, 32.080048293 ], [ -88.455456406, 32.079589896 ], [ -88.455456004, 32.079177596 ], [ -88.455375306, 32.079108894 ], [ -88.455348104, 32.078879796 ], [ -88.455509402, 32.078558996 ], [ -88.455454707, 32.077665493 ], [ -88.454889402, 32.077436693 ], [ -88.454620101, 32.077207796 ], [ -88.454592906, 32.076841198 ], [ -88.455076702, 32.076382697 ], [ -88.455211103, 32.076199293 ], [ -88.455264606, 32.075924397 ] ] } },
{ "type": "Feature", "properties": { "site_no": "02469672", "nhdplus_comid": "18545972", "navigation_mode": "DM", "requested_distance_km": 12.0, "start_source": "nwissite", "start_id": "USGS-02469672", "geometry_length_km": 1.0663333386121132 }, "geometry": { "type": "LineString", "coordinates": [ [ -88.455264606, 32.075924397 ], [ -88.455210701, 32.075809896 ], [ -88.455183707, 32.075718299 ], [ -88.455102906, 32.075580895 ], [ -88.455021203, 32.074458294 ], [ -88.454940103, 32.074091896 ], [ -88.454751603, 32.073885694 ], [ -88.454401806, 32.073771499 ], [ -88.453970902, 32.073405199 ], [ -88.4538901, 32.073290698 ], [ -88.453835905, 32.072878294 ], [ -88.453754507, 32.072236896 ], [ -88.453646801, 32.072168194 ], [ -88.453673601, 32.072099499 ], [ -88.453188606, 32.071297899 ], [ -88.452892303, 32.070862897 ], [ -88.452811405, 32.070725493 ], [ -88.452703804, 32.070611 ], [ -88.452568904, 32.070359096 ], [ -88.452541001, 32.069190599 ], [ -88.4524872, 32.069121897 ], [ -88.452164203, 32.069007598 ], [ -88.451679602, 32.068687096 ], [ -88.451598503, 32.068205997 ], [ -88.451678902, 32.068022698 ], [ -88.4517055, 32.067518696 ] ] } },
{ "type": "Feature", "properties": { "site_no": "02469672", "nhdplus_comid": "18546006", "navigation_mode": "DM", "requested_distance_km": 12.0, "start_source": "nwissite", "start_id": "USGS-02469672", "geometry_length_km": 0.9602644246782811 }, "geometry": { "type": "LineString", "coordinates": [ [ -88.4517055, 32.067518696 ], [ -88.451516904, 32.0672668 ], [ -88.450763002, 32.066625796 ], [ -88.450736001, 32.066465497 ], [ -88.450843506, 32.066282094 ], [ -88.450816303, 32.065961398 ], [ -88.4506815, 32.065732397 ], [ -88.450627506, 32.065480396 ], [ -88.450519703, 32.065274298 ], [ -88.450250402, 32.0650912 ], [ -88.449012503, 32.064679496 ], [ -88.448662505, 32.064381897 ], [ -88.448689006, 32.063923694 ], [ -88.449118905, 32.063259095 ], [ -88.449091606, 32.062777996 ], [ -88.448956907, 32.062502995 ], [ -88.448391505, 32.062090896 ], [ -88.447072804, 32.061610594 ], [ -88.446803607, 32.061381698 ] ] } },
{ "type": "Feature", "properties": { "site_no": "02469672", "nhdplus_comid": "18546092", "navigation_mode": "DM", "requested_distance_km": 12.0, "start_source": "nwissite", "start_id": "USGS-02469672", "geometry_length_km": 2.5850558410616333 }, "geometry": { "type": "LineString", "coordinates": [ [ -88.446803607, 32.061381698 ], [ -88.446749702, 32.061198495 ], [ -88.446911007, 32.060992196 ], [ -88.447287403, 32.060831599 ], [ -88.447475702, 32.060671099 ], [ -88.447475307, 32.060258694 ], [ -88.447421402, 32.060144193 ], [ -88.447394207, 32.059777699 ], [ -88.447232403, 32.059296697 ], [ -88.447097607, 32.059021793 ], [ -88.447097301, 32.058632299 ], [ -88.447581202, 32.058150999 ], [ -88.447553903, 32.057646893 ], [ -88.4474461, 32.0575324 ], [ -88.446315706, 32.056868695 ], [ -88.4459657, 32.056548096 ], [ -88.445723303, 32.056135997 ], [ -88.445507802, 32.055861093 ], [ -88.445400104, 32.055654995 ], [ -88.445023105, 32.055242799 ], [ -88.444807701, 32.055151299 ], [ -88.444377005, 32.054853596 ], [ -88.444161505, 32.054395594 ], [ -88.444107406, 32.053983293 ], [ -88.443891905, 32.053570993 ], [ -88.443918504, 32.053227298 ], [ -88.443891406, 32.0528837 ], [ -88.443649001, 32.052563094 ], [ -88.443541303, 32.052448593 ], [ -88.443191506, 32.052379996 ], [ -88.442949206, 32.052196898 ], [ -88.442976005, 32.052059397 ], [ -88.443191007, 32.051738597 ], [ -88.443190701, 32.0514865 ], [ -88.442948505, 32.0512347 ], [ -88.442302704, 32.0510289 ], [ -88.441415101, 32.051075093 ], [ -88.441145904, 32.050891995 ], [ -88.441038102, 32.050594196 ], [ -88.4409573, 32.050548494 ], [ -88.440930307, 32.050296493 ], [ -88.4407956, 32.050159097 ], [ -88.440714702, 32.049815394 ], [ -88.440553002, 32.049586393 ], [ -88.440337606, 32.049311697 ], [ -88.439880006, 32.048853599 ], [ -88.438992105, 32.048533395 ], [ -88.438749902, 32.0483502 ], [ -88.4387227, 32.047800295 ], [ -88.438507304, 32.047525495 ], [ -88.437861405, 32.047388397 ], [ -88.437699802, 32.047113597 ], [ -88.437403806, 32.046930499 ], [ -88.436435401, 32.046816297 ], [ -88.436085604, 32.046564594 ], [ -88.435843207, 32.046152294 ], [ -88.434470907, 32.045511499 ], [ -88.433771402, 32.045282699 ] ] } },
{ "type": "Feature", "properties": { "site_no": "02469672", "nhdplus_comid": "18546120", "navigation_mode": "DM", "requested_distance_km": 12.0, "start_source": "nwissite", "start_id": "USGS-02469672", "geometry_length_km": 2.0962005494607898 }, "geometry": { "type": "LineString", "coordinates": [ [ -88.433771402, 32.045282699 ], [ -88.4323726, 32.045100093 ], [ -88.431888103, 32.044871196 ], [ -88.431914605, 32.044298396 ], [ -88.431806907, 32.044092193 ], [ -88.431645505, 32.043954797 ], [ -88.431403503, 32.044069499 ], [ -88.431107603, 32.044138297 ], [ -88.430596203, 32.043657497 ], [ -88.430085003, 32.043405697 ], [ -88.429062806, 32.043268695 ], [ -88.428094104, 32.042787999 ], [ -88.427340806, 32.042604998 ], [ -88.426695406, 32.042628296 ], [ -88.425807901, 32.0429952 ], [ -88.424839504, 32.042995498 ], [ -88.424678102, 32.0429269 ], [ -88.424435906, 32.042697899 ], [ -88.424032405, 32.042537697 ], [ -88.423790202, 32.042331599 ], [ -88.423252203, 32.0423088 ], [ -88.423090704, 32.042240195 ], [ -88.423090704, 32.042056896 ], [ -88.423251905, 32.041781999 ], [ -88.4232786, 32.041552797 ], [ -88.423117101, 32.041323796 ], [ -88.421987303, 32.041095197 ], [ -88.420965001, 32.0407288 ], [ -88.419915907, 32.040660493 ], [ -88.419673704, 32.040614799 ], [ -88.4190014, 32.040706597 ], [ -88.418893807, 32.040615 ], [ -88.4187591, 32.040317297 ], [ -88.418651506, 32.040248595 ], [ -88.418355606, 32.040225796 ], [ -88.418194301, 32.040271699 ], [ -88.417468004, 32.040294893 ], [ -88.417199001, 32.040111594 ], [ -88.416930005, 32.040134594 ], [ -88.416876204, 32.0402034 ], [ -88.416903406, 32.040569894 ], [ -88.416715205, 32.040753298 ], [ -88.416204102, 32.040822193 ], [ -88.415854305, 32.0407077 ] ] } },
{ "type": "Feature", "properties": { "site_no": "02469672", "nhdplus_comid": "18546196", "navigation_mode": "DM", "requested_distance_km": 12.0, "start_source": "nwissite", "start_id": "USGS-02469672", "geometry_length_km": 2.823158534906649 }, "geometry": { "type": "LineString", "coordinates": [ [ -88.415854305, 32.0407077 ], [ -88.415773503, 32.040524498 ], [ -88.415020205, 32.040158197 ], [ -88.4149663, 32.039951995 ], [ -88.415315904, 32.0397458 ], [ -88.415504105, 32.0395623 ], [ -88.415530905, 32.039333299 ], [ -88.415477104, 32.039172895 ], [ -88.414831504, 32.038943999 ], [ -88.414616205, 32.038760796 ], [ -88.4146161, 32.038600497 ], [ -88.414723605, 32.0384859 ], [ -88.414696604, 32.038142197 ], [ -88.414615802, 32.038004793 ], [ -88.414265901, 32.037729897 ], [ -88.413566604, 32.037524 ], [ -88.413297504, 32.037317798 ], [ -88.413297504, 32.0372262 ], [ -88.413458802, 32.036951199 ], [ -88.413458504, 32.036263898 ], [ -88.4135928, 32.036034696 ], [ -88.413915604, 32.036034696 ], [ -88.414104, 32.036446996 ], [ -88.414346106, 32.036469795 ], [ -88.415233605, 32.036240496 ], [ -88.415287301, 32.0360801 ], [ -88.415152706, 32.035873994 ], [ -88.415179402, 32.035576098 ], [ -88.415179305, 32.035278194 ], [ -88.415044807, 32.0350262 ], [ -88.415044703, 32.034865893 ], [ -88.415313601, 32.034796998 ], [ -88.415528804, 32.034911498 ], [ -88.415744007, 32.034911498 ], [ -88.415716901, 32.034567796 ], [ -88.415447704, 32.034155495 ], [ -88.415393807, 32.033765994 ], [ -88.415716507, 32.033513896 ], [ -88.415770106, 32.033330597 ], [ -88.415662505, 32.033101499 ], [ -88.415285707, 32.032689296 ], [ -88.415043503, 32.032322794 ], [ -88.415043302, 32.032001995 ], [ -88.415446706, 32.031658299 ], [ -88.415822901, 32.031085394 ], [ -88.415930502, 32.0309937 ], [ -88.416495204, 32.031016394 ], [ -88.416844904, 32.031039193 ], [ -88.417006105, 32.030878797 ], [ -88.417032905, 32.030557998 ], [ -88.416710004, 32.030283198 ], [ -88.416467905, 32.030031294 ], [ -88.4164946, 32.029733397 ], [ -88.4164946, 32.029573098 ], [ -88.416387007, 32.029481493 ], [ -88.416279405, 32.029481493 ], [ -88.416091204, 32.029733598 ], [ -88.415741503, 32.029871196 ], [ -88.415364906, 32.029596396 ], [ -88.415337905, 32.029275596 ], [ -88.416010201, 32.029092096 ], [ -88.416117705, 32.028977498 ], [ -88.4161174, 32.028473496 ], [ -88.415902205, 32.028290294 ], [ -88.415364206, 32.027969696 ], [ -88.415364005, 32.027465694 ], [ -88.415310107, 32.027305298 ], [ -88.415014304, 32.027190894 ], [ -88.414422601, 32.0272827 ], [ -88.414342001, 32.027259797 ], [ -88.414315, 32.027122393 ], [ -88.415014103, 32.0268014 ], [ -88.415040806, 32.026549399 ], [ -88.4148257, 32.026434898 ], [ -88.414180301, 32.0265496 ], [ -88.413696103, 32.026549794 ], [ -88.413400203, 32.0263208 ], [ -88.413319305, 32.025999993 ] ] } },
{ "type": "Feature", "properties": { "site_no": "02469672", "nhdplus_comid": "18546234", "navigation_mode": "DM", "requested_distance_km": 12.0, "start_source": "nwissite", "start_id": "USGS-02469672", "geometry_length_km": 1.0819823374168371 }, "geometry": { "type": "LineString", "coordinates": [ [ -88.413319305, 32.025999993 ], [ -88.413319305, 32.025908396 ], [ -88.413426802, 32.025770895 ], [ -88.414179705, 32.025289498 ], [ -88.414287105, 32.025083296 ], [ -88.414206304, 32.024831295 ], [ -88.413991101, 32.024670899 ], [ -88.413775906, 32.0246711 ], [ -88.413211301, 32.024808697 ], [ -88.412861705, 32.024831697 ], [ -88.412700303, 32.024694294 ], [ -88.412700102, 32.024258994 ], [ -88.412942, 32.024052694 ], [ -88.4133185, 32.023846395 ], [ -88.413533501, 32.023685999 ], [ -88.4134527, 32.023411095 ], [ -88.413183704, 32.023159198 ], [ -88.412941501, 32.022792697 ], [ -88.412376404, 32.022197194 ], [ -88.412080504, 32.021853596 ], [ -88.412161, 32.021532893 ], [ -88.412537307, 32.021189094 ], [ -88.413102001, 32.021120198 ], [ -88.413505405, 32.021188699 ], [ -88.413586102, 32.021051295 ], [ -88.4135857, 32.0202723 ], [ -88.4136663, 32.020043194 ], [ -88.4136931, 32.019653693 ] ] } }
]
}
