{
"type": "FeatureCollection",
"name": "USGS_02455500_DM_12km",
"crs": { "type": "name", "properties": { "name": "urn:ogc:def:crs:OGC:1.3:CRS84" } },
"features": [
{ "type": "Feature", "properties": { "site_no": "02455500", "nhdplus_comid": "18566277", "navigation_mode": "DM", "requested_distance_km": 12.0, "start_source": "nwissite", "start_id": "USGS-02455500", "geometry_length_km": 4.8091019541286206 }, "geometry": { "type": "LineString", "coordinates": [ [ -86.755719398, 33.83051883 ], [ -86.755890802, 33.830182299 ], [ -86.755891606, 33.829586595 ], [ -86.7553984, 33.828898899 ], [ -86.754302301, 33.827614896 ], [ -86.753617607, 33.826468796 ], [ -86.753125407, 33.8251625 ], [ -86.7530431, 33.825116597 ], [ -86.752797402, 33.824245796 ], [ -86.752744406, 33.822756596 ], [ -86.752882406, 33.822275698 ], [ -86.7534879, 33.821084999 ], [ -86.753900304, 33.820581496 ], [ -86.7548621, 33.819780596 ], [ -86.755521201, 33.819506295 ], [ -86.756482005, 33.819415599 ], [ -86.757305205, 33.819576696 ], [ -86.758210301, 33.820012897 ], [ -86.760677606, 33.822145797 ], [ -86.762842901, 33.824644893 ], [ -86.769176602, 33.8301946 ], [ -86.769588307, 33.8303096 ], [ -86.770082302, 33.830332898 ], [ -86.770439304, 33.830241598 ], [ -86.771153405, 33.829898499 ], [ -86.771455802, 33.829623893 ], [ -86.771675907, 33.8292346 ], [ -86.772061504, 33.827997796 ], [ -86.772089906, 33.827173196 ], [ -86.771980703, 33.826669097 ], [ -86.771241806, 33.824858494 ], [ -86.7711595, 33.824812695 ], [ -86.771050304, 33.8243315 ], [ -86.770721801, 33.823552296 ], [ -86.770311803, 33.822108693 ], [ -86.770257607, 33.821581796 ], [ -86.769820303, 33.820092194 ], [ -86.769655801, 33.819885895 ], [ -86.769027002, 33.817892298 ], [ -86.768862501, 33.817777596 ] ] } },
{ "type": "Feature", "properties": { "site_no": "02455500", "nhdplus_comid": "18565397", "navigation_mode": "DM", "requested_distance_km": 12.0, "start_source": "nwissite", "start_id": "USGS-02455500", "geometry_length_km": 2.7234406818135275 }, "geometry": { "type": "LineString", "coordinates": [ [ -86.768862501, 33.817777596 ], [ -86.768890105, 33.817502595 ], [ -86.768644102, 33.816654794 ], [ -86.768372104, 33.814730294 ], [ -86.768677406, 33.811958499 ], [ -86.769641005, 33.809462294 ], [ -86.770631, 33.807699099 ], [ -86.771786101, 33.805546597 ], [ -86.772474304, 33.803783193 ], [ -86.773136906, 33.8003245 ], [ -86.773359604, 33.797644198 ], [ -86.773525201, 33.796842493 ], [ -86.7739655, 33.795766197 ], [ -86.774817601, 33.794323698 ] ] } }
]
}
