{
"type": "FeatureCollection",
"name": "USGS_02411000_DM_12km",
"crs": { "type": "name", "properties": { "name": "urn:ogc:def:crs:OGC:1.3:CRS84" } },
"features": [
{ "type": "Feature", "properties": { "site_no": "02411000", "nhdplus_comid": "22276638", "navigation_mode": "DM", "requested_distance_km": 12.0, "start_source": "nwissite", "start_id": "USGS-02411000", "geometry_length_km": 0.79927601320791564 }, "geometry": { "type": "LineString", "coordinates": [ [ -86.254803954, 32.614580416 ], [ -86.254582204, 32.614513196 ], [ -86.2533774, 32.613273799 ], [ -86.252135307, 32.609885998 ], [ -86.251753405, 32.608086497 ] ] } },
{ "type": "Feature", "properties": { "site_no": "02411000", "nhdplus_comid": "22276648", "navigation_mode": "DM", "requested_distance_km": 12.0, "start_source": "nwissite", "start_id": "USGS-02411000", "geometry_length_km": 2.1999428667969374 }, "geometry": { "type": "LineString", "coordinates": [ [ -86.251753405, 32.608086497 ], [ -86.250393003, 32.6044361 ], [ -86.247391403, 32.600644194 ], [ -86.247415602, 32.597996294 ], [ -86.247029506, 32.597458296 ], [ -86.247106306, 32.5968339 ], [ -86.246035703, 32.595732093 ], [ -86.245680407, 32.594944395 ], [ -86.245921701, 32.594207995 ], [ -86.245880105, 32.5933211 ], [ -86.2454786, 32.592907898 ], [ -86.244285107, 32.592804998 ], [ -86.243436106, 32.592353299 ], [ -86.242648602, 32.591401994 ] ] } },
{ "type": "Feature", "properties": { "site_no": "02411000", "nhdplus_comid": "22281116", "navigation_mode": "DM", "requested_distance_km": 12.0, "start_source": "nwissite", "start_id": "USGS-02411000", "geometry_length_km": 0.63070865543835031 }, "geometry": { "type": "LineString", "coordinates": [ [ -86.242648602, 32.591401994 ], [ -86.2424732, 32.590377398 ], [ -86.242765203, 32.588004895 ], [ -86.241339505, 32.586115196 ] ] } },
{ "type": "Feature", "properties": { "site_no": "02411000", "nhdplus_comid": "26134429", "navigation_mode": "DM", "requested_distance_km": 12.0, "start_source": "nwissite", "start_id": "USGS-02411000", "geometry_length_km": 0.86522774394495749 }, "geometry": { "type": "LineString", "coordinates": [ [ -86.241339505, 32.586115196 ], [ -86.241102606, 32.585589997 ], [ -86.239080302, 32.583648898 ], [ -86.237777703, 32.580760196 ], [ -86.236542605, 32.579627894 ] ] } },
{ "type": "Feature", "properties": { "site_no": "02411000", "nhdplus_comid": "22276652", "navigation_mode": "DM", "requested_distance_km": 12.0, "start_source": "nwissite", "start_id": "USGS-02411000", "geometry_length_km": 2.1710036488892284 }, "geometry": { "type": "LineString", "coordinates": [ [ -86.236542605, 32.579627894 ], [ -86.231547005, 32.575048395 ], [ -86.230698302, 32.574596494 ], [ -86.229803406, 32.574519195 ], [ -86.227524705, 32.573438995 ], [ -86.225734904, 32.573284298 ], [ -86.225467406, 32.573008798 ], [ -86.222993501, 32.572290197 ], [ -86.222011104, 32.571700498 ], [ -86.2215636, 32.5716618 ], [ -86.221296102, 32.5713863 ], [ -86.220416702, 32.571184099 ], [ -86.220149204, 32.570908494 ], [ -86.218837701, 32.570542693 ], [ -86.217706203, 32.569940098 ], [ -86.217392504, 32.570039198 ] ] } },
{ "type": "Feature", "properties": { "site_no": "02411000", "nhdplus_comid": "22276656", "navigation_mode": "DM", "requested_distance_km": 12.0, "start_source": "nwissite", "start_id": "USGS-02411000", "geometry_length_km": 1.7064039035494702 }, "geometry": { "type": "LineString", "coordinates": [ [ -86.217392504, 32.570039198 ], [ -86.214460902, 32.568144999 ], [ -86.212588802, 32.566216193 ], [ -86.211801901, 32.565264694 ], [ -86.211359501, 32.563964397 ], [ -86.211436704, 32.563339993 ], [ -86.210099503, 32.561962299 ], [ -86.2085208, 32.561320797 ], [ -86.207404904, 32.560593195 ], [ -86.204900704, 32.560123898 ] ] } },
{ "type": "Feature", "properties": { "site_no": "02411000", "nhdplus_comid": "22276660", "navigation_mode": "DM", "requested_distance_km": 12.0, "start_source": "nwissite", "start_id": "USGS-02411000", "geometry_length_km": 0.2628154252745406 }, "geometry": { "type": "LineString", "coordinates": [ [ -86.204900704, 32.560123898 ], [ -86.204216801, 32.559559897 ], [ -86.202473603, 32.559030294 ] ] } },
{ "type": "Feature", "properties": { "site_no": "02411000", "nhdplus_comid": "22276662", "navigation_mode": "DM", "requested_distance_km": 12.0, "start_source": "nwissite", "start_id": "USGS-02411000", "geometry_length_km": 1.4037621799955917 }, "geometry": { "type": "LineString", "coordinates": [ [ -86.202473603, 32.559030294 ], [ -86.202175401, 32.559004396 ], [ -86.198977202, 32.556834199 ], [ -86.196421906, 32.554340996 ], [ -86.195239604, 32.551714398 ], [ -86.1954557, 32.549966298 ], [ -86.196093403, 32.549075 ] ] } },
{ "type": "Feature", "properties": { "site_no": "02411000", "nhdplus_comid": "22276666", "navigation_mode": "DM", "requested_distance_km": 12.0, "start_source": "nwissite", "start_id": "USGS-02411000", "geometry_length_km": 0.5554265462657646 }, "geometry": { "type": "LineString", "coordinates": [ [ -86.196093403, 32.549075 ], [ -86.197507307, 32.547998697 ], [ -86.1999496, 32.545307599 ] ] } },
{ "type": "Feature", "properties": { "site_no": "02411000", "nhdplus_comid": "22276670", "navigation_mode": "DM", "requested_distance_km": 12.0, "start_source": "nwissite", "start_id": "USGS-02411000", "geometry_length_km": 0.4004040724791974 }, "geometry": { "type": "LineString", "coordinates": [ [ -86.1999496, 32.545307599 ], [ -86.202838905, 32.542655297 ] ] } },
{ "type": "Feature", "properties": { "site_no": "02411000", "nhdplus_comid": "22276676", "navigation_mode": "DM", "requested_distance_km": 12.0, "start_source": "nwissite", "start_id": "USGS-02411000", "geometry_length_km": 1.4868387191241885 }, "geometry": { "type": "LineString", "coordinates": [ [ -86.202838905, 32.542655297 ], [ -86.204293802, 32.540635794 ], [ -86.206941307, 32.538719699 ], [ -86.208396003, 32.5367001 ], [ -86.209218301, 32.536140293 ], [ -86.210400306, 32.5314468 ] ] } }
]
}
