{
"type": "FeatureCollection",
"name": "USGS_02453400_UM_12km",
"crs": { "type": "name", "properties": { "name": "urn:ogc:def:crs:OGC:1.3:CRS84" } },
"features": [
{ "type": "Feature", "properties": { "site_no": "02453400", "nhdplus_comid": "18591680", "navigation_mode": "UM", "requested_distance_km": 12.0, "start_source": "nwissite", "start_id": "USGS-02453400", "geometry_length_km": 0.69560208190314043 }, "geometry": { "type": "LineString", "coordinates": [ [ -87.232315101, 33.795767099 ], [ -87.232287206, 33.795285895 ], [ -87.231105603, 33.793981098 ], [ -87.230638206, 33.793179698 ], [ -87.230610102, 33.792652898 ], [ -87.230856001, 33.791873693 ], [ -87.230882406, 33.791071795 ], [ -87.230744705, 33.790590793 ], [ -87.2307439, 33.789995193 ], [ -87.230744955, 33.789991661 ] ] } },
{ "type": "Feature", "properties": { "site_no": "02453400", "nhdplus_comid": "18592048", "navigation_mode": "UM", "requested_distance_km": 12.0, "start_source": "nwissite", "start_id": "USGS-02453400", "geometry_length_km": 1.9655344388178693 }, "geometry": { "type": "LineString", "coordinates": [ [ -87.2288232, 33.812104195 ], [ -87.228801101, 33.811883293 ], [ -87.228789002, 33.808119796 ], [ -87.228131704, 33.8058047 ], [ -87.228592202, 33.803071395 ], [ -87.228979707, 33.802345797 ], [ -87.229372703, 33.798852295 ], [ -87.229732104, 33.798376299 ], [ -87.229844406, 33.797378197 ], [ -87.2321814, 33.795790695 ], [ -87.232315101, 33.795767099 ] ] } },
{ "type": "Feature", "properties": { "site_no": "02453400", "nhdplus_comid": "18591626", "navigation_mode": "UM", "requested_distance_km": 12.0, "start_source": "nwissite", "start_id": "USGS-02453400", "geometry_length_km": 3.1068289462271452 }, "geometry": { "type": "LineString", "coordinates": [ [ -87.234066702, 33.834527694 ], [ -87.233325705, 33.834619999 ], [ -87.232337303, 33.8344834 ], [ -87.231403306, 33.834003195 ], [ -87.231018603, 33.833705597 ], [ -87.229864903, 33.833110899 ], [ -87.228354305, 33.832539499 ], [ -87.227502801, 33.832081996 ], [ -87.226925701, 33.831464 ], [ -87.226870306, 33.831074499 ], [ -87.227582105, 33.829493195 ], [ -87.227800004, 33.828210093 ], [ -87.228100903, 33.827339396 ], [ -87.229525901, 33.825390995 ], [ -87.230046704, 33.824863598 ], [ -87.230073705, 33.824565798 ], [ -87.229963601, 33.824267998 ], [ -87.229606107, 33.823764294 ], [ -87.229687303, 33.822756194 ], [ -87.229412407, 33.822435699 ], [ -87.228753306, 33.8220926 ], [ -87.228450701, 33.821611896 ], [ -87.228340201, 33.821016297 ], [ -87.228364602, 33.818519197 ], [ -87.228501104, 33.818014994 ], [ -87.2296516, 33.816204295 ], [ -87.229788303, 33.815791793 ], [ -87.229842305, 33.815035693 ], [ -87.229649104, 33.814142399 ], [ -87.229236007, 33.812997296 ], [ -87.228906102, 33.812470697 ], [ -87.2288232, 33.812104195 ] ] } }
]
}
