{
"type": "FeatureCollection",
"name": "USGS_02421256_UM_12km",
"crs": { "type": "name", "properties": { "name": "urn:ogc:def:crs:OGC:1.3:CRS84" } },
"features": [
{ "type": "Feature", "properties": { "site_no": "02421256", "nhdplus_comid": "21677758", "navigation_mode": "UM", "requested_distance_km": 12.0, "start_source": "nwissite", "start_id": "USGS-02421256", "geometry_length_km": 1.2940754006591104 }, "geometry": { "type": "LineString", "coordinates": [ [ -86.675809503, 32.637787096 ], [ -86.675078303, 32.637535296 ], [ -86.674888603, 32.6372604 ], [ -86.673859105, 32.6362985 ], [ -86.672694206, 32.635565795 ], [ -86.671502404, 32.634924598 ], [ -86.671014607, 32.634443596 ], [ -86.670852102, 32.634122893 ], [ -86.670716301, 32.633275196 ], [ -86.670472004, 32.632335797 ], [ -86.670065701, 32.631900698 ], [ -86.669740401, 32.631144598 ], [ -86.669740103, 32.630502999 ], [ -86.669550002, 32.629540697 ], [ -86.669333205, 32.628967993 ], [ -86.669116504, 32.628807597 ], [ -86.668981001, 32.628555596 ], [ -86.668949516, 32.628524957 ] ] } },
{ "type": "Feature", "properties": { "site_no": "02421256", "nhdplus_comid": "21676380", "navigation_mode": "UM", "requested_distance_km": 12.0, "start_source": "nwissite", "start_id": "USGS-02421256", "geometry_length_km": 1.8056607712506472 }, "geometry": { "type": "LineString", "coordinates": [ [ -86.678553306, 32.6526336 ], [ -86.678526103, 32.652381599 ], [ -86.6783906, 32.652221195 ], [ -86.678336203, 32.651831694 ], [ -86.678092301, 32.651442297 ], [ -86.678091407, 32.650090493 ], [ -86.678714305, 32.649883993 ], [ -86.679147206, 32.649265096 ], [ -86.6792823, 32.648760997 ], [ -86.678577103, 32.646744996 ], [ -86.678387307, 32.646447293 ], [ -86.677303202, 32.645347796 ], [ -86.677032202, 32.644912593 ], [ -86.677113101, 32.6443398 ], [ -86.677383706, 32.643881395 ], [ -86.677383207, 32.643193893 ], [ -86.677139007, 32.642162897 ], [ -86.676651202, 32.641590297 ], [ -86.676217005, 32.640032396 ], [ -86.675972305, 32.638199493 ], [ -86.675809503, 32.637787096 ] ] } },
{ "type": "Feature", "properties": { "site_no": "02421256", "nhdplus_comid": "21676296", "navigation_mode": "UM", "requested_distance_km": 12.0, "start_source": "nwissite", "start_id": "USGS-02421256", "geometry_length_km": 0.47177130788647559 }, "geometry": { "type": "LineString", "coordinates": [ [ -86.676849, 32.6562545 ], [ -86.676957302, 32.656002499 ], [ -86.677417405, 32.655589797 ], [ -86.677877806, 32.655314699 ], [ -86.678256705, 32.654833399 ], [ -86.678851902, 32.653595798 ], [ -86.678851701, 32.653206296 ], [ -86.678553306, 32.6526336 ] ] } },
{ "type": "Feature", "properties": { "site_no": "02421256", "nhdplus_comid": "21676274", "navigation_mode": "UM", "requested_distance_km": 12.0, "start_source": "nwissite", "start_id": "USGS-02421256", "geometry_length_km": 0.80149906819943828 }, "geometry": { "type": "LineString", "coordinates": [ [ -86.677882202, 32.662944794 ], [ -86.677773401, 32.662119895 ], [ -86.677014306, 32.661134899 ], [ -86.676959701, 32.660424694 ], [ -86.677690007, 32.658362195 ], [ -86.677689604, 32.657835193 ], [ -86.677526906, 32.657537498 ], [ -86.677147605, 32.657216795 ], [ -86.676876403, 32.656758696 ], [ -86.676849, 32.6562545 ] ] } },
{ "type": "Feature", "properties": { "site_no": "02421256", "nhdplus_comid": "21677732", "navigation_mode": "UM", "requested_distance_km": 12.0, "start_source": "nwissite", "start_id": "USGS-02421256", "geometry_length_km": 1.1051052484132866 }, "geometry": { "type": "LineString", "coordinates": [ [ -86.680650502, 32.671833798 ], [ -86.680433303, 32.6710319 ], [ -86.680297807, 32.670917496 ], [ -86.680135101, 32.670642599 ], [ -86.679511704, 32.670115896 ], [ -86.679024003, 32.669863999 ], [ -86.678644605, 32.669680893 ], [ -86.678346403, 32.669405997 ], [ -86.678156607, 32.669108197 ], [ -86.677749306, 32.667343996 ], [ -86.677668005, 32.667298295 ], [ -86.677748606, 32.666129693 ], [ -86.677883707, 32.665442295 ], [ -86.677910402, 32.664731897 ], [ -86.677747503, 32.664136194 ], [ -86.677719802, 32.663059399 ], [ -86.677882202, 32.662944794 ] ] } },
{ "type": "Feature", "properties": { "site_no": "02421256", "nhdplus_comid": "21676170", "navigation_mode": "UM", "requested_distance_km": 12.0, "start_source": "nwissite", "start_id": "USGS-02421256", "geometry_length_km": 0.88301909933780176 }, "geometry": { "type": "LineString", "coordinates": [ [ -86.684447102, 32.677835293 ], [ -86.684149101, 32.677812494 ], [ -86.683688201, 32.677446097 ], [ -86.683687903, 32.676873296 ], [ -86.684202202, 32.676116899 ], [ -86.684256107, 32.675773196 ], [ -86.684120506, 32.675429597 ], [ -86.6835512, 32.6749487 ], [ -86.683253005, 32.6745364 ], [ -86.683035605, 32.673459597 ], [ -86.6828456, 32.672978498 ], [ -86.682601705, 32.672680795 ], [ -86.6823304, 32.672497593 ], [ -86.681517601, 32.672314696 ], [ -86.680650502, 32.671833798 ] ] } },
{ "type": "Feature", "properties": { "site_no": "02421256", "nhdplus_comid": "21676114", "navigation_mode": "UM", "requested_distance_km": 12.0, "start_source": "nwissite", "start_id": "USGS-02421256", "geometry_length_km": 0.43503992000291586 }, "geometry": { "type": "LineString", "coordinates": [ [ -86.684612006, 32.681432493 ], [ -86.684503406, 32.681203395 ], [ -86.6844761, 32.680790998 ], [ -86.685044102, 32.679370098 ], [ -86.685043506, 32.6783849 ], [ -86.684501402, 32.677972697 ], [ -86.684447102, 32.677835293 ] ] } },
{ "type": "Feature", "properties": { "site_no": "02421256", "nhdplus_comid": "21676102", "navigation_mode": "UM", "requested_distance_km": 12.0, "start_source": "nwissite", "start_id": "USGS-02421256", "geometry_length_km": 0.35696625491406742 }, "geometry": { "type": "LineString", "coordinates": [ [ -86.685697503, 32.684273295 ], [ -86.685534701, 32.683837995 ], [ -86.684694201, 32.683036499 ], [ -86.684720904, 32.682394899 ], [ -86.684829004, 32.681867696 ], [ -86.684720404, 32.681478299 ], [ -86.684612006, 32.681432493 ] ] } },
{ "type": "Feature", "properties": { "site_no": "02421256", "nhdplus_comid": "21677714", "navigation_mode": "UM", "requested_distance_km": 12.0, "start_source": "nwissite", "start_id": "USGS-02421256", "geometry_length_km": 2.7430064176910753 }, "geometry": { "type": "LineString", "coordinates": [ [ -86.693624102, 32.704340898 ], [ -86.693569504, 32.703722298 ], [ -86.693108402, 32.703264296 ], [ -86.6930537, 32.702599898 ], [ -86.6927009, 32.701798096 ], [ -86.692619003, 32.701087795 ], [ -86.692537606, 32.700973399 ], [ -86.692428105, 32.699392393 ], [ -86.692048401, 32.698980197 ], [ -86.692020804, 32.698292799 ], [ -86.692372702, 32.697719797 ], [ -86.692588903, 32.696848996 ], [ -86.692371607, 32.696207598 ], [ -86.692398205, 32.695726395 ], [ -86.692750201, 32.695405498 ], [ -86.692641206, 32.6945576 ], [ -86.692776404, 32.694190994 ], [ -86.693074204, 32.693778396 ], [ -86.693101004, 32.693342999 ], [ -86.691962205, 32.692427099 ], [ -86.691366002, 32.6921525 ], [ -86.690905102, 32.691831894 ], [ -86.690796502, 32.691488296 ], [ -86.690660901, 32.691419594 ], [ -86.690552503, 32.691373795 ], [ -86.690416805, 32.691007294 ], [ -86.690118507, 32.690640897 ], [ -86.690090902, 32.689953499 ], [ -86.690361403, 32.689380594 ], [ -86.690469205, 32.688578494 ], [ -86.690577403, 32.688280694 ], [ -86.690577, 32.687616199 ], [ -86.690414101, 32.6873184 ], [ -86.6891938, 32.685806699 ], [ -86.689003706, 32.685073696 ], [ -86.688813806, 32.684821695 ], [ -86.688407302, 32.6846615 ], [ -86.6873779, 32.684822395 ], [ -86.686510704, 32.684799895 ], [ -86.686158404, 32.684662499 ], [ -86.685697503, 32.684273295 ] ] } },
{ "type": "Feature", "properties": { "site_no": "02421256", "nhdplus_comid": "21675970", "navigation_mode": "UM", "requested_distance_km": 12.0, "start_source": "nwissite", "start_id": "USGS-02421256", "geometry_length_km": 0.884346477441319 }, "geometry": { "type": "LineString", "coordinates": [ [ -86.692220204, 32.711719595 ], [ -86.6921928, 32.711261399 ], [ -86.691730805, 32.709566094 ], [ -86.691866204, 32.709359795 ], [ -86.692326806, 32.709061697 ], [ -86.692515306, 32.707526296 ], [ -86.692921102, 32.706540897 ], [ -86.693354502, 32.706196994 ], [ -86.693381302, 32.705899097 ], [ -86.693245403, 32.705349296 ], [ -86.693407603, 32.7047306 ], [ -86.693624102, 32.704340898 ] ] } },
{ "type": "Feature", "properties": { "site_no": "02421256", "nhdplus_comid": "21675922", "navigation_mode": "UM", "requested_distance_km": 12.0, "start_source": "nwissite", "start_id": "USGS-02421256", "geometry_length_km": 1.1034051722363571 }, "geometry": { "type": "LineString", "coordinates": [ [ -86.692227207, 32.721090995 ], [ -86.692227006, 32.720907599 ], [ -86.692822501, 32.719738699 ], [ -86.692849204, 32.719211698 ], [ -86.692577802, 32.718730696 ], [ -86.6925226, 32.717470497 ], [ -86.692630604, 32.716783099 ], [ -86.692628905, 32.714514695 ], [ -86.692493103, 32.714102395 ], [ -86.691760905, 32.713529997 ], [ -86.691760406, 32.712750897 ], [ -86.691868506, 32.712292694 ], [ -86.692220204, 32.711719595 ] ] } }
]
}
