{
"type": "FeatureCollection",
"name": "USGS_02458600_DM_12km",
"crs": { "type": "name", "properties": { "name": "urn:ogc:def:crs:OGC:1.3:CRS84" } },
"features": [
{ "type": "Feature", "properties": { "site_no": "02458600", "nhdplus_comid": "18566179", "navigation_mode": "DM", "requested_distance_km": 12.0, "start_source": "nwissite", "start_id": "USGS-02458600", "geometry_length_km": 1.330260589346127 }, "geometry": { "type": "LineString", "coordinates": [ [ -86.92576567, 33.547880315 ], [ -86.927141801, 33.547837093 ], [ -86.928290807, 33.547584593 ], [ -86.928919904, 33.547286496 ], [ -86.9294395, 33.546919696 ], [ -86.930396505, 33.545934096 ], [ -86.930998102, 33.545429893 ], [ -86.931545205, 33.545246296 ], [ -86.931900904, 33.545246094 ], [ -86.932557605, 33.5454062 ], [ -86.934090301, 33.546207398 ], [ -86.93524, 33.547100395 ], [ -86.936499603, 33.548565999 ], [ -86.937238604, 33.548932195 ] ] } },
{ "type": "Feature", "properties": { "site_no": "02458600", "nhdplus_comid": "18566171", "navigation_mode": "DM", "requested_distance_km": 12.0, "start_source": "nwissite", "start_id": "USGS-02458600", "geometry_length_km": 0.75307996045324221 }, "geometry": { "type": "LineString", "coordinates": [ [ -86.937238604, 33.548932195 ], [ -86.939263307, 33.548747897 ], [ -86.939755805, 33.548770599 ], [ -86.940576807, 33.549113899 ], [ -86.941535302, 33.550235897 ], [ -86.9425207, 33.5507394 ], [ -86.9434513, 33.550944999 ], [ -86.944381602, 33.5509445 ] ] } },
{ "type": "Feature", "properties": { "site_no": "02458600", "nhdplus_comid": "18566553", "navigation_mode": "DM", "requested_distance_km": 12.0, "start_source": "nwissite", "start_id": "USGS-02458600", "geometry_length_km": 3.0475798868819597 }, "geometry": { "type": "LineString", "coordinates": [ [ -86.944381602, 33.5509445 ], [ -86.944325902, 33.550883293 ], [ -86.944949307, 33.550473399 ], [ -86.945116006, 33.547716394 ], [ -86.945605904, 33.546118096 ], [ -86.946253702, 33.545791499 ], [ -86.949441403, 33.545917094 ], [ -86.950319201, 33.546238095 ], [ -86.951304801, 33.546945497 ], [ -86.9526572, 33.548437193 ], [ -86.954196505, 33.5509509 ], [ -86.956685901, 33.5531618 ], [ -86.961824201, 33.553566597 ], [ -86.962975502, 33.554160893 ], [ -86.965393603, 33.5543513 ], [ -86.965861402, 33.554262199 ], [ -86.966689102, 33.553697795 ], [ -86.967459105, 33.553632498 ] ] } },
{ "type": "Feature", "properties": { "site_no": "02458600", "nhdplus_comid": "18566551", "navigation_mode": "DM", "requested_distance_km": 12.0, "start_source": "nwissite", "start_id": "USGS-02458600", "geometry_length_km": 1.7236296181185811 }, "geometry": { "type": "LineString", "coordinates": [ [ -86.967459105, 33.553632498 ], [ -86.968416207, 33.554589197 ], [ -86.968322404, 33.556722395 ], [ -86.9679913, 33.556948096 ], [ -86.967746407, 33.559069395 ], [ -86.966422006, 33.559972398 ], [ -86.9657166, 33.560798295 ], [ -86.965435706, 33.5619094 ], [ -86.965500407, 33.562669896 ], [ -86.966759801, 33.563650496 ], [ -86.9698475, 33.564648896 ], [ -86.970833503, 33.565355994 ] ] } },
{ "type": "Feature", "properties": { "site_no": "02458600", "nhdplus_comid": "18566549", "navigation_mode": "DM", "requested_distance_km": 12.0, "start_source": "nwissite", "start_id": "USGS-02458600", "geometry_length_km": 2.6542425754374475 }, "geometry": { "type": "LineString", "coordinates": [ [ -86.970833503, 33.565355994 ], [ -86.974597901, 33.565777995 ], [ -86.976152606, 33.565522499 ], [ -86.976980403, 33.564958096 ], [ -86.977361806, 33.562973499 ], [ -86.978024006, 33.562521897 ], [ -86.978779703, 33.562581293 ], [ -86.979600303, 33.563401297 ], [ -86.980104104, 33.564322196 ], [ -86.980168901, 33.565082796 ], [ -86.980687201, 33.565878995 ], [ -86.981781304, 33.566972196 ], [ -86.983055405, 33.567827798 ], [ -86.985761903, 33.568166293 ], [ -86.987374507, 33.570055597 ], [ -86.987590604, 33.570827998 ], [ -86.9874973, 33.572961099 ], [ -86.986678004, 33.573639996 ], [ -86.9866575, 33.573755495 ] ] } },
{ "type": "Feature", "properties": { "site_no": "02458600", "nhdplus_comid": "18566125", "navigation_mode": "DM", "requested_distance_km": 12.0, "start_source": "nwissite", "start_id": "USGS-02458600", "geometry_length_km": 0.12152682960067315 }, "geometry": { "type": "LineString", "coordinates": [ [ -86.9866575, 33.573755495 ], [ -86.9864114, 33.573870294 ], [ -86.985728003, 33.5745124 ] ] } },
{ "type": "Feature", "properties": { "site_no": "02458600", "nhdplus_comid": "18566133", "navigation_mode": "DM", "requested_distance_km": 12.0, "start_source": "nwissite", "start_id": "USGS-02458600", "geometry_length_km": 2.0599929989621768 }, "geometry": { "type": "LineString", "coordinates": [ [ -86.985728003, 33.5745124 ], [ -86.985701606, 33.575314194 ], [ -86.985838704, 33.575543195 ], [ -86.986523703, 33.576046698 ], [ -86.987454601, 33.576343693 ], [ -86.988029905, 33.5766868 ], [ -86.988304101, 33.577167697 ], [ -86.988359906, 33.578015193 ], [ -86.988442302, 33.578129694 ], [ -86.988798305, 33.578266799 ], [ -86.989236102, 33.578243494 ], [ -86.989591703, 33.578036994 ], [ -86.990848705, 33.576592498 ], [ -86.991394706, 33.5755153 ], [ -86.991803303, 33.574094497 ], [ -86.992267802, 33.573452599 ], [ -86.993607305, 33.572351597 ], [ -86.994782902, 33.571525797 ], [ -86.996369101, 33.570722394 ], [ -86.997135207, 33.570584193 ], [ -86.997765206, 33.570950098 ], [ -86.998807207, 33.572254896 ], [ -86.998917006, 33.572529696 ] ] } },
{ "type": "Feature", "properties": { "site_no": "02458600", "nhdplus_comid": "18566131", "navigation_mode": "DM", "requested_distance_km": 12.0, "start_source": "nwissite", "start_id": "USGS-02458600", "geometry_length_km": 0.15882004816526402 }, "geometry": { "type": "LineString", "coordinates": [ [ -86.998917006, 33.572529696 ], [ -86.999108806, 33.5726441 ], [ -86.9999955, 33.573628396 ] ] } },
{ "type": "Feature", "properties": { "site_no": "02458600", "nhdplus_comid": "18567329", "navigation_mode": "DM", "requested_distance_km": 12.0, "start_source": "nwissite", "start_id": "USGS-02458600", "geometry_length_km": 0.37602547202913855 }, "geometry": { "type": "LineString", "coordinates": [ [ -86.9999955, 33.573628396 ], [ -87.000196502, 33.5736515 ], [ -87.000579901, 33.573445797 ], [ -87.000689901, 33.573125094 ], [ -87.000663407, 33.572506495 ], [ -87.0001183, 33.5708334 ], [ -86.999995403, 33.570741698 ] ] } }
]
}
