{
"type": "FeatureCollection",
"name": "USGS_03592000_UM_12km",
"crs": { "type": "name", "properties": { "name": "urn:ogc:def:crs:OGC:1.3:CRS84" } },
"features": [
{ "type": "Feature", "properties": { "site_no": "03592000", "nhdplus_comid": "19569910", "navigation_mode": "UM", "requested_distance_km": 12.0, "start_source": "nwissite", "start_id": "USGS-03592000", "geometry_length_km": 0.89541560266444287 }, "geometry": { "type": "LineString", "coordinates": [ [ -88.111995406, 34.440187596 ], [ -88.111718901, 34.440576896 ], [ -88.111414805, 34.440760098 ], [ -88.109839, 34.440874495 ], [ -88.109617807, 34.441011995 ], [ -88.109617807, 34.441332594 ], [ -88.110143103, 34.4417907 ], [ -88.1107236, 34.4420655 ], [ -88.111221105, 34.442203097 ], [ -88.112354606, 34.442271896 ], [ -88.113653906, 34.443027794 ], [ -88.114123903, 34.4433714 ], [ -88.114925504, 34.443714999 ], [ -88.115103202, 34.44400938 ] ] } },
{ "type": "Feature", "properties": { "site_no": "03592000", "nhdplus_comid": "19569924", "navigation_mode": "UM", "requested_distance_km": 12.0, "start_source": "nwissite", "start_id": "USGS-03592000", "geometry_length_km": 1.6010263063649413 }, "geometry": { "type": "LineString", "coordinates": [ [ -88.101768501, 34.432147197 ], [ -88.101796202, 34.4320326 ], [ -88.102238402, 34.431757897 ], [ -88.102791302, 34.431780994 ], [ -88.103150606, 34.432078794 ], [ -88.103426903, 34.432445295 ], [ -88.103482105, 34.432788797 ], [ -88.103565104, 34.432834595 ], [ -88.103565, 34.433544695 ], [ -88.103205502, 34.434162997 ], [ -88.103233002, 34.434552394 ], [ -88.103316002, 34.434621096 ], [ -88.1032883, 34.434712693 ], [ -88.103758201, 34.435125098 ], [ -88.104228102, 34.435125098 ], [ -88.105333805, 34.434942 ], [ -88.105776101, 34.434735894 ], [ -88.106273703, 34.434758797 ], [ -88.106715903, 34.434987895 ], [ -88.108125702, 34.436247796 ], [ -88.108789004, 34.437393099 ], [ -88.1096735, 34.438377999 ], [ -88.111110903, 34.439042397 ], [ -88.111636005, 34.439500496 ], [ -88.111940205, 34.439889796 ], [ -88.111995406, 34.440187596 ] ] } },
{ "type": "Feature", "properties": { "site_no": "03592000", "nhdplus_comid": "19569918", "navigation_mode": "UM", "requested_distance_km": 12.0, "start_source": "nwissite", "start_id": "USGS-03592000", "geometry_length_km": 0.11683371527630085 }, "geometry": { "type": "LineString", "coordinates": [ [ -88.100497, 34.432078294 ], [ -88.1008562, 34.432147093 ], [ -88.101768501, 34.432147197 ] ] } },
{ "type": "Feature", "properties": { "site_no": "03592000", "nhdplus_comid": "19569932", "navigation_mode": "UM", "requested_distance_km": 12.0, "start_source": "nwissite", "start_id": "USGS-03592000", "geometry_length_km": 1.0793390100053153 }, "geometry": { "type": "LineString", "coordinates": [ [ -88.092150301, 34.428411998 ], [ -88.093394004, 34.428572595 ], [ -88.093919106, 34.428847499 ], [ -88.096019402, 34.430382699 ], [ -88.096765704, 34.430840798 ], [ -88.097346, 34.431390695 ], [ -88.097953901, 34.432169497 ], [ -88.0983961, 34.432284094 ], [ -88.0987553, 34.432719298 ], [ -88.098810501, 34.433062799 ], [ -88.098921001, 34.433223195 ], [ -88.099142201, 34.433314897 ], [ -88.099473901, 34.4332233 ], [ -88.099695101, 34.433017194 ], [ -88.099916302, 34.432444595 ], [ -88.100027002, 34.432307199 ], [ -88.100497, 34.432078294 ] ] } },
{ "type": "Feature", "properties": { "site_no": "03592000", "nhdplus_comid": "19569938", "navigation_mode": "UM", "requested_distance_km": 12.0, "start_source": "nwissite", "start_id": "USGS-03592000", "geometry_length_km": 0.075862516731168964 }, "geometry": { "type": "LineString", "coordinates": [ [ -88.091597602, 34.427930899 ], [ -88.092039801, 34.4282059 ], [ -88.092150301, 34.428411998 ] ] } },
{ "type": "Feature", "properties": { "site_no": "03592000", "nhdplus_comid": "19569944", "navigation_mode": "UM", "requested_distance_km": 12.0, "start_source": "nwissite", "start_id": "USGS-03592000", "geometry_length_km": 0.20707531509846638 }, "geometry": { "type": "LineString", "coordinates": [ [ -88.089828804, 34.427563995 ], [ -88.089994706, 34.427426696 ], [ -88.091266103, 34.427449897 ], [ -88.091542505, 34.427564494 ], [ -88.091597602, 34.427930899 ] ] } },
{ "type": "Feature", "properties": { "site_no": "03592000", "nhdplus_comid": "19569940", "navigation_mode": "UM", "requested_distance_km": 12.0, "start_source": "nwissite", "start_id": "USGS-03592000", "geometry_length_km": 0.31280847996850991 }, "geometry": { "type": "LineString", "coordinates": [ [ -88.087423503, 34.428937696 ], [ -88.087810405, 34.428937696 ], [ -88.088225104, 34.4288233 ], [ -88.088391103, 34.428640097 ], [ -88.088557102, 34.427952997 ], [ -88.0889166, 34.4276096 ], [ -88.089828804, 34.427563995 ] ] } },
{ "type": "Feature", "properties": { "site_no": "03592000", "nhdplus_comid": "19569958", "navigation_mode": "UM", "requested_distance_km": 12.0, "start_source": "nwissite", "start_id": "USGS-03592000", "geometry_length_km": 1.8586835387384864 }, "geometry": { "type": "LineString", "coordinates": [ [ -88.076728806, 34.424101397 ], [ -88.076866604, 34.424674094 ], [ -88.076811001, 34.425338298 ], [ -88.076312907, 34.426666595 ], [ -88.076423101, 34.427170597 ], [ -88.076643907, 34.427628696 ], [ -88.077168904, 34.428155698 ], [ -88.077970304, 34.428728595 ], [ -88.078136005, 34.429026298 ], [ -88.078080602, 34.429415695 ], [ -88.077748604, 34.429919496 ], [ -88.077748001, 34.430995896 ], [ -88.078024305, 34.431316696 ], [ -88.078273006, 34.431362599 ], [ -88.078770705, 34.431271195 ], [ -88.079240806, 34.430790298 ], [ -88.080070101, 34.430836394 ], [ -88.081203602, 34.430172496 ], [ -88.0826139, 34.429027796 ], [ -88.083111502, 34.428798899 ], [ -88.083968401, 34.428822197 ], [ -88.085101604, 34.428936996 ], [ -88.086124405, 34.428868599 ], [ -88.087423503, 34.428937696 ] ] } },
{ "type": "Feature", "properties": { "site_no": "03592000", "nhdplus_comid": "19569964", "navigation_mode": "UM", "requested_distance_km": 12.0, "start_source": "nwissite", "start_id": "USGS-03592000", "geometry_length_km": 0.25346668510467968 }, "geometry": { "type": "LineString", "coordinates": [ [ -88.076398201, 34.4219255 ], [ -88.076701604, 34.423253998 ], [ -88.0768672, 34.423643395 ], [ -88.076839305, 34.4240328 ], [ -88.076728806, 34.424101397 ] ] } },
{ "type": "Feature", "properties": { "site_no": "03592000", "nhdplus_comid": "19569968", "navigation_mode": "UM", "requested_distance_km": 12.0, "start_source": "nwissite", "start_id": "USGS-03592000", "geometry_length_km": 0.15163107550381844 }, "geometry": { "type": "LineString", "coordinates": [ [ -88.075486705, 34.420917399 ], [ -88.075873606, 34.4210549 ], [ -88.076149605, 34.421788 ], [ -88.076398201, 34.4219255 ] ] } },
{ "type": "Feature", "properties": { "site_no": "03592000", "nhdplus_comid": "19569984", "navigation_mode": "UM", "requested_distance_km": 12.0, "start_source": "nwissite", "start_id": "USGS-03592000", "geometry_length_km": 2.9160196025057088 }, "geometry": { "type": "LineString", "coordinates": [ [ -88.050527506, 34.422669098 ], [ -88.050721101, 34.4226235 ], [ -88.0517442, 34.422028497 ], [ -88.052601203, 34.421639696 ], [ -88.0532922, 34.421594195 ], [ -88.054728903, 34.422419496 ], [ -88.055778801, 34.4229239 ], [ -88.056828901, 34.423130594 ], [ -88.0587641, 34.422558993 ], [ -88.0599529, 34.422101595 ], [ -88.061224803, 34.421460897 ], [ -88.0623032, 34.420797199 ], [ -88.063547507, 34.419675395 ], [ -88.063879505, 34.419217497 ], [ -88.065649204, 34.417821199 ], [ -88.066534102, 34.416974097 ], [ -88.067142405, 34.4166537 ], [ -88.068773106, 34.416310996 ], [ -88.070514403, 34.416151397 ], [ -88.071757801, 34.416586995 ], [ -88.072393306, 34.416907899 ], [ -88.073056206, 34.417595297 ], [ -88.073636301, 34.418007798 ], [ -88.074188903, 34.418557696 ], [ -88.074768901, 34.419451199 ], [ -88.074796304, 34.419726096 ], [ -88.074879207, 34.419771999 ], [ -88.075017206, 34.420184299 ], [ -88.075210601, 34.420413397 ], [ -88.075182803, 34.420504995 ], [ -88.075348601, 34.420642495 ], [ -88.075486705, 34.420917399 ] ] } },
{ "type": "Feature", "properties": { "site_no": "03592000", "nhdplus_comid": "19569960", "navigation_mode": "UM", "requested_distance_km": 12.0, "start_source": "nwissite", "start_id": "USGS-03592000", "geometry_length_km": 1.3482581691575404 }, "geometry": { "type": "LineString", "coordinates": [ [ -88.052454002, 34.433183193 ], [ -88.052758403, 34.4327024 ], [ -88.053201906, 34.431236796 ], [ -88.053174406, 34.430801496 ], [ -88.052373901, 34.4294727 ], [ -88.051932201, 34.428762399 ], [ -88.051158801, 34.428051896 ], [ -88.049998306, 34.427570298 ], [ -88.0497775, 34.427226596 ], [ -88.0496675, 34.426470697 ], [ -88.049253702, 34.425554298 ], [ -88.049254306, 34.424821399 ], [ -88.049392901, 34.424340494 ], [ -88.049974203, 34.423424698 ], [ -88.050472103, 34.422898196 ], [ -88.050527506, 34.422669098 ] ] } }
]
}
