{
"type": "FeatureCollection",
"name": "USGS_02480002_DM_12km",
"crs": { "type": "name", "properties": { "name": "urn:ogc:def:crs:OGC:1.3:CRS84" } },
"features": [
{ "type": "Feature", "properties": { "site_no": "02480002", "nhdplus_comid": "18095029", "navigation_mode": "DM", "requested_distance_km": 12.0, "start_source": "nwissite", "start_id": "USGS-02480002", "geometry_length_km": 0.45290063771231198 }, "geometry": { "type": "LineString", "coordinates": [ [ -88.276586025, 30.726138563 ], [ -88.276897207, 30.726257093 ], [ -88.277454205, 30.726257496 ], [ -88.278436206, 30.725845695 ], [ -88.2791529, 30.725319095 ], [ -88.279312007, 30.725319199 ], [ -88.279338606, 30.725227594 ], [ -88.279816106, 30.7252279 ], [ -88.280213803, 30.725480199 ], [ -88.280770704, 30.725572199 ] ] } },
{ "type": "Feature", "properties": { "site_no": "02480002", "nhdplus_comid": "18094435", "navigation_mode": "DM", "requested_distance_km": 12.0, "start_source": "nwissite", "start_id": "USGS-02480002", "geometry_length_km": 0.64192907840014723 }, "geometry": { "type": "LineString", "coordinates": [ [ -88.280770704, 30.725572199 ], [ -88.281168707, 30.725434996 ], [ -88.2813811, 30.725251794 ], [ -88.282522, 30.724931695 ], [ -88.284220301, 30.724268399 ], [ -88.285493501, 30.724337898 ], [ -88.285971001, 30.724131994 ], [ -88.286183402, 30.724017493 ], [ -88.286661103, 30.7238345 ], [ -88.286926202, 30.724017896 ] ] } },
{ "type": "Feature", "properties": { "site_no": "02480002", "nhdplus_comid": "18095207", "navigation_mode": "DM", "requested_distance_km": 12.0, "start_source": "nwissite", "start_id": "USGS-02480002", "geometry_length_km": 0.76329687823212178 }, "geometry": { "type": "LineString", "coordinates": [ [ -88.286926202, 30.724017896 ], [ -88.2870377, 30.724115096 ], [ -88.287436001, 30.724508896 ], [ -88.288142607, 30.724810995 ], [ -88.292536303, 30.724991694 ], [ -88.293302201, 30.724666096 ], [ -88.294482507, 30.724622197 ] ] } },
{ "type": "Feature", "properties": { "site_no": "02480002", "nhdplus_comid": "18095211", "navigation_mode": "DM", "requested_distance_km": 12.0, "start_source": "nwissite", "start_id": "USGS-02480002", "geometry_length_km": 2.3758132914088645 }, "geometry": { "type": "LineString", "coordinates": [ [ -88.294482507, 30.724622197 ], [ -88.295430101, 30.723930098 ], [ -88.2958683, 30.723960698 ], [ -88.297996201, 30.723224595 ], [ -88.299310707, 30.723316394 ], [ -88.300076604, 30.722990699 ], [ -88.301110804, 30.722936496 ], [ -88.303605705, 30.722984299 ], [ -88.305796601, 30.723137096 ], [ -88.306345202, 30.723554499 ], [ -88.308244005, 30.723686896 ], [ -88.310249403, 30.722689293 ], [ -88.313608803, 30.722923398 ], [ -88.314864106, 30.723642796 ], [ -88.315669507, 30.7244571 ], [ -88.3175565, 30.724714898 ] ] } },
{ "type": "Feature", "properties": { "site_no": "02480002", "nhdplus_comid": "18095213", "navigation_mode": "DM", "requested_distance_km": 12.0, "start_source": "nwissite", "start_id": "USGS-02480002", "geometry_length_km": 1.5729913587660704 }, "geometry": { "type": "LineString", "coordinates": [ [ -88.3175565, 30.724714898 ], [ -88.318918303, 30.724304199 ], [ -88.321286701, 30.722573496 ], [ -88.323343404, 30.722590297 ], [ -88.324752502, 30.721677296 ], [ -88.325506404, 30.721476994 ], [ -88.328687601, 30.7189181 ], [ -88.329216003, 30.716427296 ] ] } },
{ "type": "Feature", "properties": { "site_no": "02480002", "nhdplus_comid": "18095217", "navigation_mode": "DM", "requested_distance_km": 12.0, "start_source": "nwissite", "start_id": "USGS-02480002", "geometry_length_km": 0.591899436103973 }, "geometry": { "type": "LineString", "coordinates": [ [ -88.329216003, 30.716427296 ], [ -88.326665603, 30.713848799 ], [ -88.326704703, 30.712021098 ], [ -88.326746404, 30.711913995 ] ] } },
{ "type": "Feature", "properties": { "site_no": "02480002", "nhdplus_comid": "18094465", "navigation_mode": "DM", "requested_distance_km": 12.0, "start_source": "nwissite", "start_id": "USGS-02480002", "geometry_length_km": 0.29795560392912396 }, "geometry": { "type": "LineString", "coordinates": [ [ -88.326746404, 30.711913995 ], [ -88.326747105, 30.7101954 ], [ -88.326853402, 30.709782995 ], [ -88.327224806, 30.709347695 ] ] } },
{ "type": "Feature", "properties": { "site_no": "02480002", "nhdplus_comid": "18094475", "navigation_mode": "DM", "requested_distance_km": 12.0, "start_source": "nwissite", "start_id": "USGS-02480002", "geometry_length_km": 0.46638261228323041 }, "geometry": { "type": "LineString", "coordinates": [ [ -88.327224806, 30.709347695 ], [ -88.327331007, 30.709301896 ], [ -88.327622801, 30.709027 ], [ -88.329851307, 30.707125597 ], [ -88.330488004, 30.706507094 ], [ -88.330620602, 30.706346795 ] ] } },
{ "type": "Feature", "properties": { "site_no": "02480002", "nhdplus_comid": "18094567", "navigation_mode": "DM", "requested_distance_km": 12.0, "start_source": "nwissite", "start_id": "USGS-02480002", "geometry_length_km": 4.6751029303043481 }, "geometry": { "type": "LineString", "coordinates": [ [ -88.330620602, 30.706346795 ], [ -88.330753401, 30.706300899 ], [ -88.331443101, 30.7057053 ], [ -88.332265407, 30.705247194 ], [ -88.334360607, 30.704674996 ], [ -88.334864706, 30.703987695 ], [ -88.335289307, 30.703552298 ], [ -88.335368901, 30.703369096 ], [ -88.335422106, 30.703025296 ], [ -88.335130304, 30.702704497 ], [ -88.335130401, 30.702521197 ], [ -88.335528404, 30.702108696 ], [ -88.335873201, 30.701948397 ], [ -88.336456701, 30.701925598 ], [ -88.336880803, 30.702154897 ], [ -88.337146007, 30.702154897 ], [ -88.337252103, 30.702063397 ], [ -88.337305203, 30.701948799 ], [ -88.337040104, 30.701673694 ], [ -88.336881101, 30.701559097 ], [ -88.336881101, 30.701238297 ], [ -88.337332003, 30.701077998 ], [ -88.337968603, 30.700688496 ], [ -88.338260405, 30.7004136 ], [ -88.338313401, 30.700276196 ], [ -88.337915704, 30.700001098 ], [ -88.337915801, 30.699840695 ], [ -88.338022001, 30.699726097 ], [ -88.338923603, 30.699405499 ], [ -88.339109302, 30.699245095 ], [ -88.339268401, 30.699038893 ], [ -88.3395603, 30.698557794 ], [ -88.339560501, 30.697870299 ], [ -88.339666605, 30.697526596 ], [ -88.3397993, 30.697297394 ], [ -88.339879006, 30.696930796 ], [ -88.3402237, 30.696701698 ], [ -88.340224206, 30.695074797 ], [ -88.340065107, 30.694822595 ], [ -88.340091906, 30.693951793 ], [ -88.3398799, 30.693676896 ], [ -88.3398799, 30.693585195 ], [ -88.339800403, 30.693539299 ], [ -88.339641504, 30.692805998 ], [ -88.339429505, 30.692347594 ], [ -88.339429505, 30.691957995 ], [ -88.339562304, 30.691660196 ], [ -88.339562304, 30.691316396 ], [ -88.339191206, 30.691087194 ], [ -88.339191407, 30.690399796 ], [ -88.3390854, 30.690124795 ], [ -88.339191601, 30.689712293 ], [ -88.339536406, 30.689322799 ], [ -88.340066902, 30.688635394 ], [ -88.340120107, 30.687695898 ], [ -88.340385504, 30.6873293 ], [ -88.340836301, 30.687077299 ], [ -88.341737904, 30.686917193 ], [ -88.341950007, 30.686573498 ], [ -88.3421624, 30.685840197 ], [ -88.342374504, 30.685450695 ], [ -88.342401102, 30.685175695 ], [ -88.342083104, 30.6849235 ], [ -88.342083201, 30.684350699 ], [ -88.3417916, 30.684213094 ], [ -88.341712005, 30.684052698 ], [ -88.341924302, 30.683663197 ], [ -88.342083402, 30.683502793 ], [ -88.342375204, 30.683113299 ], [ -88.342481405, 30.682517499 ], [ -88.342587501, 30.682379998 ], [ -88.343170807, 30.682219699 ], [ -88.343435906, 30.6820824 ], [ -88.343648203, 30.681715697 ], [ -88.343727805, 30.681028195 ], [ -88.343966506, 30.680776194 ], [ -88.344099104, 30.680478297 ], [ -88.344444007, 30.679997198 ], [ -88.344603203, 30.679607697 ], [ -88.344470806, 30.678576395 ], [ -88.344391301, 30.678461894 ], [ -88.344391502, 30.677682698 ], [ -88.344444506, 30.677499399 ], [ -88.344550706, 30.677063994 ], [ -88.344789505, 30.676307894 ], [ -88.344948605, 30.676055796 ], [ -88.3457442, 30.675276794 ], [ -88.346301205, 30.6745895 ], [ -88.346327707, 30.674291499 ], [ -88.346142106, 30.674199797 ], [ -88.346062504, 30.674062297 ], [ -88.346168704, 30.673741594 ] ] } }
]
}
