{
"type": "FeatureCollection",
"name": "USGS_02480002_UM_12km",
"crs": { "type": "name", "properties": { "name": "urn:ogc:def:crs:OGC:1.3:CRS84" } },
"features": [
{ "type": "Feature", "properties": { "site_no": "02480002", "nhdplus_comid": "18095029", "navigation_mode": "UM", "requested_distance_km": 12.0, "start_source": "nwissite", "start_id": "USGS-02480002", "geometry_length_km": 2.525080415204048 }, "geometry": { "type": "LineString", "coordinates": [ [ -88.259083606, 30.739122398 ], [ -88.259322703, 30.738939196 ], [ -88.259508602, 30.738687195 ], [ -88.259562306, 30.738114394 ], [ -88.259589106, 30.737931095 ], [ -88.2596687, 30.737862498 ], [ -88.259695403, 30.737702094 ], [ -88.260120302, 30.737335794 ], [ -88.260518506, 30.737038098 ], [ -88.260784201, 30.736694694 ], [ -88.261102803, 30.7364887 ], [ -88.261925302, 30.736374699 ], [ -88.262535803, 30.736168995 ], [ -88.262880802, 30.735962994 ], [ -88.2633323, 30.735573798 ], [ -88.263651207, 30.735024095 ], [ -88.263784401, 30.7344971 ], [ -88.263917305, 30.734222196 ], [ -88.264501505, 30.733649798 ], [ -88.264873505, 30.7330084 ], [ -88.265351601, 30.732573397 ], [ -88.265829302, 30.732298799 ], [ -88.266254202, 30.731978297 ], [ -88.2665997, 30.731428497 ], [ -88.267105006, 30.730122693 ], [ -88.267556906, 30.729137696 ], [ -88.267902203, 30.728771299 ], [ -88.268326901, 30.728450797 ], [ -88.269282304, 30.727993198 ], [ -88.270582601, 30.727558799 ], [ -88.271007203, 30.727375694 ], [ -88.2724149, 30.725566395 ], [ -88.272653803, 30.725360394 ], [ -88.273290604, 30.725177497 ], [ -88.273821101, 30.725132093 ], [ -88.273953706, 30.725200899 ], [ -88.274749205, 30.725682698 ], [ -88.275385506, 30.725935295 ], [ -88.276234306, 30.726004593 ], [ -88.276586025, 30.726138563 ] ] } },
{ "type": "Feature", "properties": { "site_no": "02480002", "nhdplus_comid": "18095013", "navigation_mode": "UM", "requested_distance_km": 12.0, "start_source": "nwissite", "start_id": "USGS-02480002", "geometry_length_km": 1.0513276573489512 }, "geometry": { "type": "LineString", "coordinates": [ [ -88.249538302, 30.736699998 ], [ -88.249856703, 30.736791298 ], [ -88.250016101, 30.736997299 ], [ -88.250224702, 30.737166896 ], [ -88.250251204, 30.737258494 ], [ -88.250357106, 30.737373196 ], [ -88.250436403, 30.737648197 ], [ -88.250887007, 30.7380611 ], [ -88.2520537, 30.738566294 ], [ -88.252345301, 30.738749899 ], [ -88.253936604, 30.7391866 ], [ -88.255342104, 30.739783697 ], [ -88.255607307, 30.739852697 ], [ -88.256721705, 30.739739098 ], [ -88.257757001, 30.739258796 ], [ -88.258234702, 30.739144593 ], [ -88.259083606, 30.739122398 ] ] } },
{ "type": "Feature", "properties": { "site_no": "02480002", "nhdplus_comid": "18095017", "navigation_mode": "UM", "requested_distance_km": 12.0, "start_source": "nwissite", "start_id": "USGS-02480002", "geometry_length_km": 2.7995784131032102 }, "geometry": { "type": "LineString", "coordinates": [ [ -88.232679807, 30.726426698 ], [ -88.232679702, 30.726266295 ], [ -88.233183004, 30.725738697 ], [ -88.233341806, 30.7254178 ], [ -88.2338451, 30.724890195 ], [ -88.234348305, 30.724202394 ], [ -88.235434704, 30.723330498 ], [ -88.235805601, 30.722940594 ], [ -88.236203201, 30.722711094 ], [ -88.236786701, 30.722527198 ], [ -88.237662002, 30.722549297 ], [ -88.238139704, 30.722732194 ], [ -88.23883, 30.723189898 ], [ -88.239626601, 30.7238767 ], [ -88.241112806, 30.724516898 ], [ -88.241378404, 30.724745795 ], [ -88.241644204, 30.725180894 ], [ -88.2418302, 30.725387 ], [ -88.242095701, 30.725547194 ], [ -88.242308006, 30.7257073 ], [ -88.242414303, 30.725867696 ], [ -88.242520906, 30.726257093 ], [ -88.242468506, 30.726761393 ], [ -88.242204405, 30.727678195 ], [ -88.242099203, 30.728342898 ], [ -88.242205903, 30.728778198 ], [ -88.242233001, 30.729213595 ], [ -88.242392704, 30.729625896 ], [ -88.243136503, 30.730496094 ], [ -88.243296102, 30.730770893 ], [ -88.243322805, 30.730931394 ], [ -88.243535504, 30.731274895 ], [ -88.243934005, 30.731641196 ], [ -88.244518206, 30.732121795 ], [ -88.245314807, 30.732648097 ], [ -88.246616103, 30.733723797 ], [ -88.246855207, 30.7340215 ], [ -88.246908501, 30.734181896 ], [ -88.247253902, 30.734548099 ], [ -88.247440003, 30.734845899 ], [ -88.247466601, 30.734914593 ], [ -88.247546405, 30.735074997 ], [ -88.247599803, 30.735349894 ], [ -88.247679502, 30.735418499 ], [ -88.247812502, 30.735647596 ], [ -88.247786, 30.735762097 ], [ -88.247945704, 30.7360828 ], [ -88.248370506, 30.736426197 ], [ -88.249431901, 30.736585498 ], [ -88.249538302, 30.736699998 ] ] } }
]
}
