{
"type": "FeatureCollection",
"name": "USGS_02372500_DM_12km",
"crs": { "type": "name", "properties": { "name": "urn:ogc:def:crs:OGC:1.3:CRS84" } },
"features": [
{ "type": "Feature", "properties": { "site_no": "02372500", "nhdplus_comid": "2378385", "navigation_mode": "DM", "requested_distance_km": 12.0, "start_source": "nwissite", "start_id": "USGS-02372500", "geometry_length_km": 0.67877543077348312 }, "geometry": { "type": "LineString", "coordinates": [ [ -86.600362562, 31.255574506 ], [ -86.602765903, 31.253719099 ], [ -86.605194002, 31.251427598 ], [ -86.605300702, 31.251198493 ] ] } },
{ "type": "Feature", "properties": { "site_no": "02372500", "nhdplus_comid": "2378747", "navigation_mode": "DM", "requested_distance_km": 12.0, "start_source": "nwissite", "start_id": "USGS-02372500", "geometry_length_km": 1.3000501535896816 }, "geometry": { "type": "LineString", "coordinates": [ [ -86.605300702, 31.251198493 ], [ -86.605674304, 31.250923499 ], [ -86.606230907, 31.250162296 ], [ -86.607031703, 31.2481457 ], [ -86.608232304, 31.246037498 ], [ -86.608979404, 31.245029196 ], [ -86.609513007, 31.244502194 ], [ -86.609966502, 31.244181298 ], [ -86.612234004, 31.2431961 ], [ -86.613061003, 31.24244 ], [ -86.613381103, 31.242325395 ] ] } },
{ "type": "Feature", "properties": { "site_no": "02372500", "nhdplus_comid": "2378403", "navigation_mode": "DM", "requested_distance_km": 12.0, "start_source": "nwissite", "start_id": "USGS-02372500", "geometry_length_km": 2.0005454575978527 }, "geometry": { "type": "LineString", "coordinates": [ [ -86.613381103, 31.242325395 ], [ -86.613407806, 31.242210895 ], [ -86.614848204, 31.241271295 ], [ -86.616688803, 31.239850596 ], [ -86.617249005, 31.239300497 ], [ -86.618609503, 31.237169296 ], [ -86.6192763, 31.235565096 ], [ -86.619596504, 31.234487899 ], [ -86.619623303, 31.233066998 ], [ -86.619543307, 31.232998297 ], [ -86.619489901, 31.2320816 ], [ -86.619303301, 31.231623195 ], [ -86.619116701, 31.230477296 ], [ -86.619116701, 31.229629397 ], [ -86.619036704, 31.229331397 ], [ -86.6190634, 31.228185594 ], [ -86.619303502, 31.227910496 ], [ -86.619596802, 31.227750197 ], [ -86.620370306, 31.227589794 ], [ -86.620957002, 31.2277731 ] ] } },
{ "type": "Feature", "properties": { "site_no": "02372500", "nhdplus_comid": "2378415", "navigation_mode": "DM", "requested_distance_km": 12.0, "start_source": "nwissite", "start_id": "USGS-02372500", "geometry_length_km": 4.1612211788074429 }, "geometry": { "type": "LineString", "coordinates": [ [ -86.620957002, 31.2277731 ], [ -86.621623807, 31.229423195 ], [ -86.6221838, 31.230202399 ], [ -86.622423701, 31.230248295 ], [ -86.623090506, 31.230110794 ], [ -86.623597302, 31.229354493 ], [ -86.624290802, 31.228781596 ], [ -86.624957502, 31.228391998 ], [ -86.625384204, 31.228185795 ], [ -86.6266376, 31.2278421 ], [ -86.627544403, 31.227796197 ], [ -86.627837807, 31.227910794 ], [ -86.628291205, 31.228231594 ], [ -86.628504604, 31.2286442 ], [ -86.6283179, 31.229263 ], [ -86.627917804, 31.230087996 ], [ -86.627704501, 31.230317093 ], [ -86.627517805, 31.230706796 ], [ -86.627464406, 31.2313485 ], [ -86.627757803, 31.231669299 ], [ -86.6283179, 31.231646396 ], [ -86.629651405, 31.230912998 ], [ -86.630158104, 31.2305234 ], [ -86.630371504, 31.230225496 ], [ -86.630718201, 31.229354493 ], [ -86.6308515, 31.2287587 ], [ -86.630904905, 31.228048295 ], [ -86.6306113, 31.227360696 ], [ -86.630318001, 31.227039799 ], [ -86.629757904, 31.225939795 ], [ -86.629597902, 31.225664899 ], [ -86.629197806, 31.224679299 ], [ -86.629011005, 31.222868897 ], [ -86.629091002, 31.222525097 ], [ -86.629304305, 31.222135499 ], [ -86.629757702, 31.221883394 ], [ -86.630371101, 31.221860394 ], [ -86.631011106, 31.222158298 ], [ -86.631357804, 31.222181194 ], [ -86.632531106, 31.221745797 ], [ -86.634024501, 31.221333094 ], [ -86.634824507, 31.221287198 ], [ -86.6353046, 31.221470498 ], [ -86.635677904, 31.221745595 ], [ -86.6359713, 31.222226799 ], [ -86.636264905, 31.223395593 ], [ -86.636345103, 31.225595698 ], [ -86.636825204, 31.226191595 ], [ -86.637172006, 31.226283096 ], [ -86.638078704, 31.226283096 ], [ -86.638932101, 31.225939296 ], [ -86.639652103, 31.225503795 ], [ -86.6399187, 31.225434899 ] ] } },
{ "type": "Feature", "properties": { "site_no": "02372500", "nhdplus_comid": "2378417", "navigation_mode": "DM", "requested_distance_km": 12.0, "start_source": "nwissite", "start_id": "USGS-02372500", "geometry_length_km": 0.95853789620937002 }, "geometry": { "type": "LineString", "coordinates": [ [ -86.6399187, 31.225434899 ], [ -86.640718706, 31.224311896 ], [ -86.641411901, 31.223601297 ], [ -86.644585207, 31.2221343 ], [ -86.645331703, 31.221469596 ], [ -86.645971507, 31.220277697 ], [ -86.645998001, 31.219612993 ], [ -86.645811304, 31.219246395 ] ] } },
{ "type": "Feature", "properties": { "site_no": "02372500", "nhdplus_comid": "2378435", "navigation_mode": "DM", "requested_distance_km": 12.0, "start_source": "nwissite", "start_id": "USGS-02372500", "geometry_length_km": 1.4374727576908715 }, "geometry": { "type": "LineString", "coordinates": [ [ -86.645811304, 31.219246395 ], [ -86.645224504, 31.218627699 ], [ -86.644371003, 31.218238294 ], [ -86.642130807, 31.2177343 ], [ -86.640077405, 31.216542698 ], [ -86.638637304, 31.215901196 ], [ -86.638423905, 31.215694994 ], [ -86.638423905, 31.215053298 ], [ -86.6385305, 31.214869894 ], [ -86.6398369, 31.213769697 ], [ -86.640103504, 31.213380098 ], [ -86.640529901, 31.212279998 ], [ -86.641009904, 31.211454898 ], [ -86.641276404, 31.211179897 ], [ -86.641356401, 31.210950695 ] ] } },
{ "type": "Feature", "properties": { "site_no": "02372500", "nhdplus_comid": "2378447", "navigation_mode": "DM", "requested_distance_km": 12.0, "start_source": "nwissite", "start_id": "USGS-02372500", "geometry_length_km": 1.7338252268114387 }, "geometry": { "type": "LineString", "coordinates": [ [ -86.641356401, 31.210950695 ], [ -86.6421296, 31.210469298 ], [ -86.644049302, 31.209689893 ], [ -86.644982405, 31.209162593 ], [ -86.6472487, 31.207924694 ], [ -86.647621803, 31.207626693 ], [ -86.648421407, 31.206091098 ], [ -86.648821205, 31.205563895 ], [ -86.649381101, 31.205311693 ], [ -86.650580905, 31.205173999 ], [ -86.650954001, 31.204921894 ], [ -86.650954001, 31.204532295 ], [ -86.650820605, 31.204371795 ], [ -86.649967305, 31.204119898 ], [ -86.648847401, 31.203547098 ], [ -86.6478073, 31.202699393 ], [ -86.647433907, 31.2021036 ], [ -86.6472205, 31.201530598 ] ] } }
]
}
