{
"type": "FeatureCollection",
"name": "USGS_02401370_UM_12km",
"crs": { "type": "name", "properties": { "name": "urn:ogc:def:crs:OGC:1.3:CRS84" } },
"features": [
{ "type": "Feature", "properties": { "site_no": "02401370", "nhdplus_comid": "22203463", "navigation_mode": "UM", "requested_distance_km": 12.0, "start_source": "nwissite", "start_id": "USGS-02401370", "geometry_length_km": 1.1774048528467833 }, "geometry": { "type": "LineString", "coordinates": [ [ -86.3835738, 33.819381498 ], [ -86.383518904, 33.819243997 ], [ -86.381899506, 33.818556897 ], [ -86.3812408, 33.818121694 ], [ -86.381185904, 33.817915499 ], [ -86.381542705, 33.817709297 ], [ -86.382530704, 33.8177092 ], [ -86.383710802, 33.817984097 ], [ -86.384177402, 33.818029895 ], [ -86.384506807, 33.817892298 ], [ -86.384506807, 33.8176632 ], [ -86.384095006, 33.816838697 ], [ -86.382475607, 33.814524993 ], [ -86.3816061, 33.813407038 ] ] } },
{ "type": "Feature", "properties": { "site_no": "02401370", "nhdplus_comid": "22203429", "navigation_mode": "UM", "requested_distance_km": 12.0, "start_source": "nwissite", "start_id": "USGS-02401370", "geometry_length_km": 1.573733739199646 }, "geometry": { "type": "LineString", "coordinates": [ [ -86.396226704, 33.820594296 ], [ -86.395046502, 33.8205944 ], [ -86.394525006, 33.820525795 ], [ -86.393482007, 33.820182294 ], [ -86.391944803, 33.819059998 ], [ -86.391505502, 33.818578996 ], [ -86.390956603, 33.817960598 ], [ -86.390434906, 33.817548193 ], [ -86.389940903, 33.817273393 ], [ -86.387909904, 33.817113198 ], [ -86.387663007, 33.817296498 ], [ -86.387663007, 33.817731693 ], [ -86.387800306, 33.818189994 ], [ -86.387800403, 33.819243699 ], [ -86.3876632, 33.819449894 ], [ -86.3871966, 33.819656096 ], [ -86.385714605, 33.819747895 ], [ -86.384699106, 33.819656298 ], [ -86.3835738, 33.819381498 ] ] } },
{ "type": "Feature", "properties": { "site_no": "02401370", "nhdplus_comid": "22203435", "navigation_mode": "UM", "requested_distance_km": 12.0, "start_source": "nwissite", "start_id": "USGS-02401370", "geometry_length_km": 1.4121189335131896 }, "geometry": { "type": "LineString", "coordinates": [ [ -86.404348001, 33.812460095 ], [ -86.404238403, 33.812551796 ], [ -86.403251402, 33.816148594 ], [ -86.402757801, 33.817110896 ], [ -86.402593106, 33.817248397 ], [ -86.402373701, 33.817798294 ], [ -86.402319103, 33.818279393 ], [ -86.402127102, 33.818760499 ], [ -86.401907705, 33.819035396 ], [ -86.399575204, 33.820960194 ], [ -86.399300702, 33.821051799 ], [ -86.398312703, 33.820754297 ], [ -86.397736207, 33.820433594 ], [ -86.397269607, 33.820342094 ], [ -86.396226704, 33.820594296 ] ] } },
{ "type": "Feature", "properties": { "site_no": "02401370", "nhdplus_comid": "22203497", "navigation_mode": "UM", "requested_distance_km": 12.0, "start_source": "nwissite", "start_id": "USGS-02401370", "geometry_length_km": 2.7696416190692768 }, "geometry": { "type": "LineString", "coordinates": [ [ -86.426295802, 33.800082594 ], [ -86.424841806, 33.800655998 ], [ -86.4240188, 33.801068597 ], [ -86.421961606, 33.802489698 ], [ -86.4215229, 33.8030167 ], [ -86.421029605, 33.804253995 ], [ -86.420947507, 33.804757997 ], [ -86.420783006, 33.805078797 ], [ -86.4205909, 33.805078797 ], [ -86.419767506, 33.804689795 ], [ -86.419163607, 33.804300494 ], [ -86.418477401, 33.804094598 ], [ -86.417599306, 33.804026097 ], [ -86.415157005, 33.804164395 ], [ -86.414114401, 33.804416694 ], [ -86.413318701, 33.804829299 ], [ -86.411947206, 33.8057689 ], [ -86.4105478, 33.806342095 ], [ -86.409587502, 33.806525499 ], [ -86.408819206, 33.806915194 ], [ -86.406322807, 33.808954693 ], [ -86.405883901, 33.8094818 ], [ -86.404375501, 33.812299795 ], [ -86.404348001, 33.812460095 ] ] } },
{ "type": "Feature", "properties": { "site_no": "02401370", "nhdplus_comid": "22203501", "navigation_mode": "UM", "requested_distance_km": 12.0, "start_source": "nwissite", "start_id": "USGS-02401370", "geometry_length_km": 2.3893491899161488 }, "geometry": { "type": "LineString", "coordinates": [ [ -86.447317407, 33.803141996 ], [ -86.445753105, 33.803028397 ], [ -86.442707203, 33.802984193 ], [ -86.440951601, 33.8036495 ], [ -86.440375201, 33.8037415 ], [ -86.4399909, 33.8034667 ], [ -86.439688407, 33.802573398 ], [ -86.439029403, 33.8021155 ], [ -86.438480601, 33.802115798 ], [ -86.436999403, 33.802826695 ], [ -86.435573101, 33.803697996 ], [ -86.434420802, 33.804042198 ], [ -86.432719506, 33.804065898 ], [ -86.431457005, 33.803768694 ], [ -86.4311001, 33.803608499 ], [ -86.431099303, 33.802417196 ], [ -86.430961907, 33.802027799 ], [ -86.429863304, 33.800768398 ], [ -86.429561406, 33.800539397 ], [ -86.4284361, 33.800058797 ], [ -86.427969605, 33.799967393 ], [ -86.427064002, 33.799967796 ], [ -86.426295802, 33.800082594 ] ] } },
{ "type": "Feature", "properties": { "site_no": "02401370", "nhdplus_comid": "22203477", "navigation_mode": "UM", "requested_distance_km": 12.0, "start_source": "nwissite", "start_id": "USGS-02401370", "geometry_length_km": 1.5749272321379093 }, "geometry": { "type": "LineString", "coordinates": [ [ -86.462881505, 33.808126099 ], [ -86.462030604, 33.807897598 ], [ -86.461563803, 33.807623096 ], [ -86.460053205, 33.806387 ], [ -86.459366702, 33.805929199 ], [ -86.458652906, 33.8055861 ], [ -86.456786305, 33.8049917 ], [ -86.455798201, 33.804763198 ], [ -86.454069301, 33.804718494 ], [ -86.452422805, 33.804628 ], [ -86.447317407, 33.803141996 ] ] } },
{ "type": "Feature", "properties": { "site_no": "02401370", "nhdplus_comid": "22203469", "navigation_mode": "UM", "requested_distance_km": 12.0, "start_source": "nwissite", "start_id": "USGS-02401370", "geometry_length_km": 1.6466641527542054 }, "geometry": { "type": "LineString", "coordinates": [ [ -86.478110507, 33.806694098 ], [ -86.476738706, 33.806924395 ], [ -86.474405907, 33.806765795 ], [ -86.4732529, 33.806377195 ], [ -86.4729781, 33.806148395 ], [ -86.472785704, 33.8058507 ], [ -86.472236402, 33.805461697 ], [ -86.471714906, 33.805278897 ], [ -86.470973805, 33.805141993 ], [ -86.4694096, 33.805097394 ], [ -86.4671591, 33.804892793 ], [ -86.4659518, 33.804962493 ], [ -86.465567805, 33.805168897 ], [ -86.463868804, 33.8075068 ], [ -86.463375404, 33.807942495 ], [ -86.462881505, 33.808126099 ] ] } }
]
}
