{
"type": "FeatureCollection",
"name": "USGS_02404245_DM_12km",
"crs": { "type": "name", "properties": { "name": "urn:ogc:def:crs:OGC:1.3:CRS84" } },
"features": [
{ "type": "Feature", "properties": { "site_no": "02404245", "nhdplus_comid": "22204521", "navigation_mode": "DM", "requested_distance_km": 12.0, "start_source": "nwissite", "start_id": "USGS-02404245", "geometry_length_km": 0.8360678545710708 }, "geometry": { "type": "LineString", "coordinates": [ [ -86.015685769, 33.510298833 ], [ -86.015780404, 33.510350294 ], [ -86.018158205, 33.511474796 ], [ -86.019196406, 33.512231596 ], [ -86.019578405, 33.512919195 ], [ -86.019659705, 33.513537794 ], [ -86.019549005, 33.514660195 ], [ -86.019219607, 33.515713699 ], [ -86.019164406, 33.516102999 ] ] } },
{ "type": "Feature", "properties": { "site_no": "02404245", "nhdplus_comid": "22204491", "navigation_mode": "DM", "requested_distance_km": 12.0, "start_source": "nwissite", "start_id": "USGS-02404245", "geometry_length_km": 0.053050794209519775 }, "geometry": { "type": "LineString", "coordinates": [ [ -86.019164406, 33.516102999 ], [ -86.019738704, 33.516126394 ] ] } },
{ "type": "Feature", "properties": { "site_no": "02404245", "nhdplus_comid": "22204503", "navigation_mode": "DM", "requested_distance_km": 12.0, "start_source": "nwissite", "start_id": "USGS-02404245", "geometry_length_km": 1.801821389571586 }, "geometry": { "type": "LineString", "coordinates": [ [ -86.019738704, 33.516126394 ], [ -86.020148605, 33.516378798 ], [ -86.021434002, 33.516288199 ], [ -86.022364303, 33.515945397 ], [ -86.022938907, 33.515671 ], [ -86.023623504, 33.514961295 ], [ -86.024116606, 33.514228694 ], [ -86.024472401, 33.513954096 ], [ -86.024964705, 33.513931595 ], [ -86.025648206, 33.514115393 ], [ -86.027506903, 33.514804095 ], [ -86.028436102, 33.515354596 ], [ -86.029201306, 33.515904993 ], [ -86.030158103, 33.516203597 ], [ -86.031005904, 33.516318798 ], [ -86.031279102, 33.516456395 ], [ -86.032016307, 33.517648198 ], [ -86.034529507, 33.520444795 ] ] } },
{ "type": "Feature", "properties": { "site_no": "02404245", "nhdplus_comid": "22204481", "navigation_mode": "DM", "requested_distance_km": 12.0, "start_source": "nwissite", "start_id": "USGS-02404245", "geometry_length_km": 2.372034823528788 }, "geometry": { "type": "LineString", "coordinates": [ [ -86.034529507, 33.520444795 ], [ -86.034802407, 33.521063499 ], [ -86.034799904, 33.523377195 ], [ -86.035073005, 33.523766793 ], [ -86.036166102, 33.524706796 ], [ -86.036494106, 33.524867393 ], [ -86.038024701, 33.526105493 ], [ -86.040046804, 33.5278937 ], [ -86.040538907, 33.528214693 ], [ -86.041824006, 33.528627895 ], [ -86.0420698, 33.529017597 ], [ -86.042069301, 33.529590294 ], [ -86.041987002, 33.529681794 ], [ -86.041135706, 33.533208996 ], [ -86.041135207, 33.533712998 ], [ -86.041353807, 33.534056798 ], [ -86.042529404, 33.5345845 ], [ -86.042912103, 33.5349053 ], [ -86.044332005, 33.537609398 ], [ -86.044331901, 33.537815593 ] ] } },
{ "type": "Feature", "properties": { "site_no": "02404245", "nhdplus_comid": "22204431", "navigation_mode": "DM", "requested_distance_km": 12.0, "start_source": "nwissite", "start_id": "USGS-02404245", "geometry_length_km": 0.47300577825517182 }, "geometry": { "type": "LineString", "coordinates": [ [ -86.044331901, 33.537815593 ], [ -86.046407305, 33.541688293 ] ] } },
{ "type": "Feature", "properties": { "site_no": "02404245", "nhdplus_comid": "22204433", "navigation_mode": "DM", "requested_distance_km": 12.0, "start_source": "nwissite", "start_id": "USGS-02404245", "geometry_length_km": 1.7844129551405945 }, "geometry": { "type": "LineString", "coordinates": [ [ -86.046407305, 33.541688293 ], [ -86.046872504, 33.541551098 ], [ -86.047419906, 33.541162096 ], [ -86.050294504, 33.538643993 ], [ -86.050978705, 33.538209297 ], [ -86.051909104, 33.537889093 ], [ -86.052812003, 33.537752099 ], [ -86.054152101, 33.538027793 ], [ -86.056613304, 33.539082997 ], [ -86.057816304, 33.539862499 ], [ -86.058581807, 33.540481493 ], [ -86.059347004, 33.541535594 ], [ -86.060385004, 33.543506198 ], [ -86.060384803, 33.543758199 ] ] } },
{ "type": "Feature", "properties": { "site_no": "02404245", "nhdplus_comid": "22204427", "navigation_mode": "DM", "requested_distance_km": 12.0, "start_source": "nwissite", "start_id": "USGS-02404245", "geometry_length_km": 1.2052848029009067 }, "geometry": { "type": "LineString", "coordinates": [ [ -86.060384803, 33.543758199 ], [ -86.060603403, 33.544101998 ], [ -86.061423503, 33.544995695 ], [ -86.0621344, 33.545454293 ], [ -86.0629002, 33.5457066 ], [ -86.063857704, 33.545729995 ], [ -86.064432502, 33.545455396 ], [ -86.064870402, 33.545111999 ], [ -86.065171905, 33.544356197 ], [ -86.065200001, 33.543187894 ], [ -86.064981803, 33.542317398 ], [ -86.064189807, 33.540392794 ], [ -86.064162605, 33.540071994 ], [ -86.064080603, 33.540026098 ], [ -86.064053401, 33.539842896 ], [ -86.064217903, 33.539316095 ] ] } },
{ "type": "Feature", "properties": { "site_no": "02404245", "nhdplus_comid": "22204429", "navigation_mode": "DM", "requested_distance_km": 12.0, "start_source": "nwissite", "start_id": "USGS-02404245", "geometry_length_km": 2.1638778878955893 }, "geometry": { "type": "LineString", "coordinates": [ [ -86.064217903, 33.539316095 ], [ -86.064519003, 33.539087094 ], [ -86.064902, 33.538972795 ], [ -86.065367006, 33.538995899 ], [ -86.0678012, 33.539707199 ], [ -86.069387503, 33.540440999 ], [ -86.070618004, 33.541197494 ], [ -86.070782006, 33.541449599 ], [ -86.070890903, 33.542159699 ], [ -86.071107201, 33.546260394 ], [ -86.071407601, 33.547153898 ], [ -86.071735606, 33.547657996 ], [ -86.072665103, 33.548597597 ], [ -86.074415103, 33.550224796 ], [ -86.074989103, 33.551187195 ], [ -86.075262405, 33.551920295 ], [ -86.075727105, 33.552470297 ], [ -86.076602302, 33.5530205 ] ] } },
{ "type": "Feature", "properties": { "site_no": "02404245", "nhdplus_comid": "22204379", "navigation_mode": "DM", "requested_distance_km": 12.0, "start_source": "nwissite", "start_id": "USGS-02404245", "geometry_length_km": 0.40783843975990713 }, "geometry": { "type": "LineString", "coordinates": [ [ -86.076602302, 33.5530205 ], [ -86.0780797, 33.553089693 ], [ -86.078627005, 33.552952498 ], [ -86.079338603, 33.552494593 ], [ -86.079667106, 33.552082397 ], [ -86.079804301, 33.551372297 ] ] } },
{ "type": "Feature", "properties": { "site_no": "02404245", "nhdplus_comid": "22204881", "navigation_mode": "DM", "requested_distance_km": 12.0, "start_source": "nwissite", "start_id": "USGS-02404245", "geometry_length_km": 1.8818278249324205 }, "geometry": { "type": "LineString", "coordinates": [ [ -86.079804301, 33.551372297 ], [ -86.0797792, 33.5512392 ], [ -86.079785705, 33.551145293 ], [ -86.079792202, 33.551051497 ], [ -86.079798803, 33.550957598 ], [ -86.079805307, 33.550863698 ], [ -86.079811901, 33.550769895 ], [ -86.079775803, 33.550687 ], [ -86.079737201, 33.550598599 ], [ -86.079698704, 33.550510094 ], [ -86.079660103, 33.5504217 ], [ -86.079621606, 33.550333194 ], [ -86.079583004, 33.550244696 ], [ -86.079544507, 33.550156295 ], [ -86.079505906, 33.550067797 ], [ -86.079467401, 33.549979396 ], [ -86.079428807, 33.549890898 ], [ -86.079390302, 33.549802497 ], [ -86.079351805, 33.549713999 ], [ -86.079313204, 33.549625494 ], [ -86.079274707, 33.5495371 ], [ -86.079236105, 33.549448594 ], [ -86.0791976, 33.549360193 ], [ -86.079159006, 33.549271695 ], [ -86.079120502, 33.549183294 ], [ -86.0790819, 33.549094796 ], [ -86.079043403, 33.549006298 ], [ -86.079004906, 33.548917897 ], [ -86.078966305, 33.548829399 ], [ -86.0789278, 33.548740998 ], [ -86.078889206, 33.5486525 ], [ -86.078850701, 33.548563994 ], [ -86.0788121, 33.548475593 ], [ -86.078773603, 33.548387095 ], [ -86.078735106, 33.548298694 ], [ -86.078696504, 33.548210196 ], [ -86.078658007, 33.548121795 ], [ -86.078619406, 33.548033297 ], [ -86.078580901, 33.547944799 ], [ -86.078542307, 33.547856398 ], [ -86.078503802, 33.5477679 ], [ -86.078465305, 33.547679499 ], [ -86.078426704, 33.547590993 ], [ -86.078388207, 33.547502495 ], [ -86.078349605, 33.547414094 ], [ -86.078311101, 33.547325596 ], [ -86.078272507, 33.547237195 ], [ -86.078234002, 33.547148697 ], [ -86.078195505, 33.547060296 ], [ -86.078156903, 33.546971798 ], [ -86.078169204, 33.546906799 ], [ -86.078186706, 33.546813898 ], [ -86.078204207, 33.546720996 ], [ -86.078221701, 33.546628095 ], [ -86.078239202, 33.546535194 ], [ -86.078256704, 33.5464423 ], [ -86.078274205, 33.546349399 ], [ -86.078291707, 33.546256498 ], [ -86.078309201, 33.546163596 ], [ -86.078326702, 33.546070695 ], [ -86.078344204, 33.545977898 ], [ -86.078361705, 33.545884997 ], [ -86.078379206, 33.545792095 ], [ -86.0783967, 33.545699194 ], [ -86.078414202, 33.5456063 ], [ -86.078431703, 33.545513399 ], [ -86.078449205, 33.545420498 ], [ -86.078466706, 33.545327596 ], [ -86.0784842, 33.545234695 ], [ -86.078501701, 33.545141794 ], [ -86.078519307, 33.5450489 ], [ -86.078536801, 33.544955999 ], [ -86.078554302, 33.544863194 ], [ -86.078571804, 33.544770293 ], [ -86.078589305, 33.544677399 ], [ -86.078606807, 33.544584498 ], [ -86.078624301, 33.544491597 ], [ -86.078637905, 33.544477597 ], [ -86.078709103, 33.544404194 ], [ -86.078780301, 33.544330895 ], [ -86.078851506, 33.544257499 ], [ -86.078922704, 33.544184193 ], [ -86.078993902, 33.544110797 ], [ -86.079065107, 33.544037499 ], [ -86.079136305, 33.543964095 ], [ -86.079207502, 33.543890797 ], [ -86.0792787, 33.543817393 ], [ -86.079350002, 33.543744095 ], [ -86.0794212, 33.543670699 ], [ -86.079492405, 33.5435974 ], [ -86.079563603, 33.543523997 ], [ -86.079634801, 33.543450698 ], [ -86.079706006, 33.543377295 ], [ -86.079777204, 33.543303996 ], [ -86.079848401, 33.543230593 ], [ -86.079919606, 33.543157198 ], [ -86.079990804, 33.543083899 ], [ -86.080062002, 33.543010496 ], [ -86.080133207, 33.542937197 ], [ -86.080204405, 33.542863794 ], [ -86.0802119, 33.542858794 ], [ -86.080300406, 33.542799599 ], [ -86.080388807, 33.542740397 ], [ -86.080477305, 33.542681299 ], [ -86.080565706, 33.542622097 ], [ -86.080654204, 33.542562895 ], [ -86.080742605, 33.5425037 ], [ -86.080831103, 33.542444497 ], [ -86.080919504, 33.542385295 ], [ -86.081008002, 33.5423261 ], [ -86.081096403, 33.542266898 ], [ -86.081184901, 33.5422078 ], [ -86.081273302, 33.542148598 ], [ -86.0813618, 33.542089395 ], [ -86.081450202, 33.542030193 ], [ -86.081538707, 33.541970998 ], [ -86.081547104, 33.541970998 ], [ -86.081660904, 33.541970395 ], [ -86.081774704, 33.541969799 ], [ -86.081888601, 33.541969195 ], [ -86.082002401, 33.541968599 ], [ -86.082116306, 33.541967995 ], [ -86.082230106, 33.541967399 ], [ -86.082344003, 33.541966796 ], [ -86.082457803, 33.5419662 ], [ -86.082571603, 33.541965596 ], [ -86.0826855, 33.541964993 ], [ -86.082799301, 33.541964397 ], [ -86.082913205, 33.541963898 ], [ -86.083002001, 33.542010695 ], [ -86.083098002, 33.542061195 ], [ -86.083193906, 33.542111799 ], [ -86.083289906, 33.542162396 ], [ -86.083385907, 33.542212993 ], [ -86.083481804, 33.542263493 ], [ -86.083577804, 33.542314097 ], [ -86.083673805, 33.542364694 ], [ -86.083769701, 33.542415194 ], [ -86.083865702, 33.542465799 ], [ -86.083961703, 33.542516395 ], [ -86.084057607, 33.542567 ], [ -86.084061906, 33.5425708 ], [ -86.084138602, 33.542640194 ], [ -86.084215403, 33.542709693 ], [ -86.084292106, 33.542779095 ], [ -86.084368907, 33.542848594 ], [ -86.084445603, 33.542917997 ], [ -86.084522404, 33.542987399 ], [ -86.0845991, 33.543056898 ], [ -86.084675901, 33.5431263 ], [ -86.084752604, 33.543195695 ], [ -86.084829405, 33.543265194 ], [ -86.084906101, 33.543334596 ], [ -86.084982902, 33.543403998 ], [ -86.085059606, 33.543473497 ], [ -86.085136406, 33.543542899 ], [ -86.085213102, 33.543612294 ], [ -86.085289903, 33.543681793 ], [ -86.085339807, 33.543712795 ], [ -86.085430801, 33.5437693 ], [ -86.085521802, 33.543825798 ], [ -86.085612804, 33.543882295 ], [ -86.085703805, 33.543938793 ], [ -86.085794806, 33.543995298 ], [ -86.0858858, 33.544051796 ], [ -86.085976802, 33.544108294 ], [ -86.086067803, 33.544164799 ], [ -86.086158805, 33.544221297 ], [ -86.086249806, 33.544277795 ], [ -86.0863408, 33.5443343 ], [ -86.086431704, 33.544390798 ], [ -86.086522706, 33.544447295 ], [ -86.0866137, 33.544503793 ], [ -86.086704701, 33.544560298 ], [ -86.086757906, 33.544576295 ], [ -86.086864904, 33.544608496 ], [ -86.086971901, 33.544640593 ], [ -86.087078907, 33.544672795 ], [ -86.0871858, 33.544704996 ], [ -86.087292805, 33.544737197 ], [ -86.087338306, 33.544737294 ], [ -86.087452203, 33.544737794 ], [ -86.087566003, 33.544738196 ], [ -86.0876799, 33.544738598 ], [ -86.0877937, 33.544739097 ], [ -86.087836303, 33.544739194 ] ] } }
]
}
