{
"type": "FeatureCollection",
"name": "USGS_0357586650_DM_12km",
"crs": { "type": "name", "properties": { "name": "urn:ogc:def:crs:OGC:1.3:CRS84" } },
"features": [
{ "type": "Feature", "properties": { "site_no": "0357586650", "nhdplus_comid": "19619914", "navigation_mode": "DM", "requested_distance_km": 12.0, "start_source": "nwissite", "start_id": "USGS-0357586650", "geometry_length_km": 1.6493467848181389 }, "geometry": { "type": "LineString", "coordinates": [ [ -86.575485075, 34.722795644 ], [ -86.575556405, 34.722792998 ], [ -86.577664703, 34.722885497 ], [ -86.578496605, 34.723572999 ], [ -86.579245105, 34.724374898 ], [ -86.579605803, 34.724466696 ], [ -86.5828242, 34.723803699 ], [ -86.586236507, 34.7237591 ], [ -86.5880116, 34.724355198 ], [ -86.588760503, 34.724767797 ], [ -86.589231901, 34.725157298 ], [ -86.590008706, 34.725363694 ], [ -86.590452604, 34.725249298 ], [ -86.5910355, 34.7247914 ], [ -86.591867805, 34.724676996 ] ] } },
{ "type": "Feature", "properties": { "site_no": "0357586650", "nhdplus_comid": "19619926", "navigation_mode": "DM", "requested_distance_km": 12.0, "start_source": "nwissite", "start_id": "USGS-0357586650", "geometry_length_km": 0.73963379066336277 }, "geometry": { "type": "LineString", "coordinates": [ [ -86.591867805, 34.724676996 ], [ -86.592673004, 34.7230739 ], [ -86.593700401, 34.720669098 ], [ -86.594699904, 34.718722396 ], [ -86.594921805, 34.718585096 ] ] } },
{ "type": "Feature", "properties": { "site_no": "0357586650", "nhdplus_comid": "19620058", "navigation_mode": "DM", "requested_distance_km": 12.0, "start_source": "nwissite", "start_id": "USGS-0357586650", "geometry_length_km": 2.3137057217824815 }, "geometry": { "type": "LineString", "coordinates": [ [ -86.594921805, 34.718585096 ], [ -86.594811305, 34.717462599 ], [ -86.594395801, 34.715904996 ], [ -86.594230004, 34.714164093 ], [ -86.594509102, 34.709766194 ], [ -86.594787203, 34.7080255 ], [ -86.594815306, 34.707040593 ], [ -86.595205106, 34.703238398 ], [ -86.595621705, 34.7016121 ], [ -86.595871605, 34.701016694 ], [ -86.596455, 34.698084898 ] ] } },
{ "type": "Feature", "properties": { "site_no": "0357586650", "nhdplus_comid": "19620296", "navigation_mode": "DM", "requested_distance_km": 12.0, "start_source": "nwissite", "start_id": "USGS-0357586650", "geometry_length_km": 4.1527322318547446 }, "geometry": { "type": "LineString", "coordinates": [ [ -86.596455, 34.698084898 ], [ -86.5962888, 34.697649695 ], [ -86.596345402, 34.694053493 ], [ -86.596428804, 34.693709895 ], [ -86.596568801, 34.689861797 ], [ -86.59668, 34.689151794 ], [ -86.597512707, 34.687090397 ], [ -86.598067604, 34.686197199 ], [ -86.598788902, 34.685326993 ], [ -86.599482603, 34.683815397 ], [ -86.599843502, 34.682761796 ], [ -86.5998713, 34.682372399 ], [ -86.600482106, 34.679967396 ], [ -86.601342507, 34.677127294 ], [ -86.601814903, 34.673508398 ], [ -86.601871006, 34.6714468 ], [ -86.602232106, 34.669018894 ], [ -86.602232501, 34.667896494 ], [ -86.602426805, 34.667094797 ], [ -86.603092603, 34.665262498 ], [ -86.603702903, 34.663888194 ], [ -86.604590401, 34.662262097 ], [ -86.604812205, 34.662124798 ] ] } },
{ "type": "Feature", "properties": { "site_no": "0357586650", "nhdplus_comid": "19621400", "navigation_mode": "DM", "requested_distance_km": 12.0, "start_source": "nwissite", "start_id": "USGS-0357586650", "geometry_length_km": 3.337390424491042 }, "geometry": { "type": "LineString", "coordinates": [ [ -86.604812205, 34.662124798 ], [ -86.605200604, 34.661162697 ], [ -86.605228402, 34.660521396 ], [ -86.6048683, 34.659696698 ], [ -86.6037599, 34.657978594 ], [ -86.6033445, 34.656810395 ], [ -86.603344701, 34.655962795 ], [ -86.604121201, 34.654405296 ], [ -86.604481801, 34.653786898 ], [ -86.604786702, 34.653557993 ], [ -86.605646104, 34.653191693 ], [ -86.606034204, 34.6526419 ], [ -86.606367201, 34.651404999 ], [ -86.606367305, 34.650878198 ], [ -86.606145702, 34.650351398 ], [ -86.605730005, 34.649893194 ], [ -86.605591603, 34.6494122 ], [ -86.605592005, 34.647602595 ], [ -86.605703101, 34.647121496 ], [ -86.606035702, 34.646777995 ], [ -86.6060635, 34.646388695 ], [ -86.605980404, 34.646296993 ], [ -86.605038203, 34.645976193 ], [ -86.605010502, 34.645655498 ], [ -86.605371103, 34.644693494 ], [ -86.6061197, 34.643250495 ], [ -86.606646404, 34.642563395 ], [ -86.607006803, 34.6422657 ], [ -86.607339501, 34.641693197 ], [ -86.607810706, 34.641349696 ], [ -86.608254202, 34.6413268 ], [ -86.608558901, 34.641601697 ], [ -86.6087806, 34.6416476 ], [ -86.611330606, 34.640571199 ], [ -86.611746401, 34.640227698 ], [ -86.611884907, 34.639998794 ], [ -86.612245403, 34.638876393 ], [ -86.612883002, 34.6386474 ], [ -86.613575801, 34.6390827 ] ] } }
]
}
