{
"type": "FeatureCollection",
"name": "USGS_02419000_DM_12km",
"crs": { "type": "name", "properties": { "name": "urn:ogc:def:crs:OGC:1.3:CRS84" } },
"features": [
{ "type": "Feature", "properties": { "site_no": "02419000", "nhdplus_comid": "21717690", "navigation_mode": "DM", "requested_distance_km": 12.0, "start_source": "nwissite", "start_id": "USGS-02419000", "geometry_length_km": 1.0237394923000651 }, "geometry": { "type": "LineString", "coordinates": [ [ -85.695756776, 32.477298871 ], [ -85.697177507, 32.476341695 ], [ -85.698252104, 32.476187095 ], [ -85.700614907, 32.475392297 ], [ -85.705246307, 32.475688398 ], [ -85.705777101, 32.476241998 ] ] } },
{ "type": "Feature", "properties": { "site_no": "02419000", "nhdplus_comid": "21717680", "navigation_mode": "DM", "requested_distance_km": 12.0, "start_source": "nwissite", "start_id": "USGS-02419000", "geometry_length_km": 1.1353216787600211 }, "geometry": { "type": "LineString", "coordinates": [ [ -85.705777101, 32.476241998 ], [ -85.706159003, 32.476781897 ], [ -85.706511706, 32.478708498 ], [ -85.707874201, 32.480979599 ], [ -85.707696103, 32.482352495 ], [ -85.706475802, 32.483630493 ], [ -85.706430405, 32.485141799 ], [ -85.706828505, 32.485556893 ] ] } },
{ "type": "Feature", "properties": { "site_no": "02419000", "nhdplus_comid": "21717666", "navigation_mode": "DM", "requested_distance_km": 12.0, "start_source": "nwissite", "start_id": "USGS-02419000", "geometry_length_km": 0.093915369389207581 }, "geometry": { "type": "LineString", "coordinates": [ [ -85.706828505, 32.485556893 ], [ -85.707673304, 32.486012794 ] ] } },
{ "type": "Feature", "properties": { "site_no": "02419000", "nhdplus_comid": "21717668", "navigation_mode": "DM", "requested_distance_km": 12.0, "start_source": "nwissite", "start_id": "USGS-02419000", "geometry_length_km": 4.1576655183989963 }, "geometry": { "type": "LineString", "coordinates": [ [ -85.707673304, 32.486012794 ], [ -85.710042804, 32.4874916 ], [ -85.711382903, 32.487613693 ], [ -85.7130014, 32.486750796 ], [ -85.713066101, 32.4862516 ], [ -85.712535203, 32.485698096 ], [ -85.711259902, 32.485076696 ], [ -85.7107291, 32.484523199 ], [ -85.710842304, 32.4836495 ], [ -85.711337507, 32.483315796 ], [ -85.711933203, 32.483370095 ], [ -85.712480202, 32.483798794 ], [ -85.713787906, 32.484170496 ], [ -85.715529405, 32.485844493 ], [ -85.717614003, 32.486034296 ], [ -85.719051205, 32.485407494 ], [ -85.719944604, 32.485488795 ], [ -85.720724806, 32.486443795 ], [ -85.7201197, 32.488788195 ], [ -85.720783405, 32.489479996 ], [ -85.721990906, 32.489463598 ], [ -85.723246805, 32.4890728 ], [ -85.7242731, 32.489292398 ], [ -85.725069501, 32.490122594 ], [ -85.726267703, 32.492504694 ], [ -85.727627501, 32.493638694 ], [ -85.728818901, 32.493746996 ], [ -85.730570003, 32.493022293 ], [ -85.731560506, 32.492354698 ], [ -85.731906801, 32.4920073 ], [ -85.732149005, 32.490135096 ], [ -85.7324792, 32.489912495 ] ] } },
{ "type": "Feature", "properties": { "site_no": "02419000", "nhdplus_comid": "25810661", "navigation_mode": "DM", "requested_distance_km": 12.0, "start_source": "nwissite", "start_id": "USGS-02419000", "geometry_length_km": 1.0061153792183062 }, "geometry": { "type": "LineString", "coordinates": [ [ -85.7324792, 32.489912495 ], [ -85.7336023, 32.489383198 ], [ -85.734777406, 32.489616297 ], [ -85.735175706, 32.490031295 ], [ -85.734981902, 32.4915291 ], [ -85.735247605, 32.491805799 ], [ -85.7356942, 32.491846398 ], [ -85.737594105, 32.491135098 ], [ -85.738918304, 32.491381697 ], [ -85.740052104, 32.492236793 ] ] } },
{ "type": "Feature", "properties": { "site_no": "02419000", "nhdplus_comid": "21717662", "navigation_mode": "DM", "requested_distance_km": 12.0, "start_source": "nwissite", "start_id": "USGS-02419000", "geometry_length_km": 0.7543045119030114 }, "geometry": { "type": "LineString", "coordinates": [ [ -85.740052104, 32.492236793 ], [ -85.7414499, 32.491611697 ], [ -85.742388107, 32.490181498 ], [ -85.743724607, 32.489166297 ], [ -85.745246001, 32.489051893 ], [ -85.7462238, 32.489645794 ] ] } },
{ "type": "Feature", "properties": { "site_no": "02419000", "nhdplus_comid": "21717670", "navigation_mode": "DM", "requested_distance_km": 12.0, "start_source": "nwissite", "start_id": "USGS-02419000", "geometry_length_km": 1.8732991329985451 }, "geometry": { "type": "LineString", "coordinates": [ [ -85.7462238, 32.489645794 ], [ -85.746755004, 32.490199193 ], [ -85.747201703, 32.490239695 ], [ -85.747467302, 32.490516394 ], [ -85.749403201, 32.490692094 ], [ -85.750691205, 32.490051396 ], [ -85.751130305, 32.4878181 ], [ -85.751955502, 32.487261593 ], [ -85.752865106, 32.487217896 ], [ -85.754124701, 32.487963594 ], [ -85.7547203, 32.488017596 ], [ -85.757956304, 32.486290596 ], [ -85.762005106, 32.485268593 ] ] } },
{ "type": "Feature", "properties": { "site_no": "02419000", "nhdplus_comid": "21717672", "navigation_mode": "DM", "requested_distance_km": 12.0, "start_source": "nwissite", "start_id": "USGS-02419000", "geometry_length_km": 0.36651279157540073 }, "geometry": { "type": "LineString", "coordinates": [ [ -85.762005106, 32.485268593 ], [ -85.764936, 32.4856278 ], [ -85.765838206, 32.485355295 ] ] } }
]
}
