{
"type": "FeatureCollection",
"name": "USGS_02471065_UM_12km",
"crs": { "type": "name", "properties": { "name": "urn:ogc:def:crs:OGC:1.3:CRS84" } },
"features": [
{ "type": "Feature", "properties": { "site_no": "02471065", "nhdplus_comid": "18515590", "navigation_mode": "UM", "requested_distance_km": 12.0, "start_source": "nwissite", "start_id": "USGS-02471065", "geometry_length_km": 1.6382708565788802 }, "geometry": { "type": "LineString", "coordinates": [ [ -88.131974004, 30.662080497 ], [ -88.131443806, 30.6616221 ], [ -88.131258205, 30.6613013 ], [ -88.130834006, 30.661117993 ], [ -88.129508503, 30.661095195 ], [ -88.128819302, 30.660820194 ], [ -88.128580704, 30.660591096 ], [ -88.128156506, 30.659972295 ], [ -88.128156401, 30.659857795 ], [ -88.128077, 30.659720294 ], [ -88.127997406, 30.659445196 ], [ -88.127811804, 30.659216098 ], [ -88.127599604, 30.658643194 ], [ -88.127573103, 30.658459798 ], [ -88.127493605, 30.6583452 ], [ -88.127467103, 30.658230595 ], [ -88.127148904, 30.657611899 ], [ -88.126486003, 30.656053595 ], [ -88.126353502, 30.655595198 ], [ -88.1262739, 30.655457795 ], [ -88.126220904, 30.655182697 ], [ -88.126088306, 30.654861897 ], [ -88.125982307, 30.654289 ], [ -88.126141302, 30.652891099 ], [ -88.126114704, 30.650965996 ], [ -88.125929102, 30.650484793 ], [ -88.125611, 30.649980597 ], [ -88.125560104, 30.649926842 ] ] } },
{ "type": "Feature", "properties": { "site_no": "02471065", "nhdplus_comid": "18515578", "navigation_mode": "UM", "requested_distance_km": 12.0, "start_source": "nwissite", "start_id": "USGS-02471065", "geometry_length_km": 1.7868867843974727 }, "geometry": { "type": "LineString", "coordinates": [ [ -88.132983804, 30.678030498 ], [ -88.132957205, 30.677893095 ], [ -88.132798105, 30.677778497 ], [ -88.1326655, 30.677526399 ], [ -88.132532902, 30.676907696 ], [ -88.132479802, 30.676197194 ], [ -88.132426605, 30.675830595 ], [ -88.132426202, 30.672392994 ], [ -88.1322935, 30.671270095 ], [ -88.132160902, 30.670720093 ], [ -88.1320282, 30.669597194 ], [ -88.131974906, 30.6675805 ], [ -88.131974004, 30.662080497 ] ] } },
{ "type": "Feature", "properties": { "site_no": "02471065", "nhdplus_comid": "18515336", "navigation_mode": "UM", "requested_distance_km": 12.0, "start_source": "nwissite", "start_id": "USGS-02471065", "geometry_length_km": 2.9754449572151769 }, "geometry": { "type": "LineString", "coordinates": [ [ -88.163077705, 30.6791697 ], [ -88.162573904, 30.679284498 ], [ -88.162176102, 30.679147094 ], [ -88.161433801, 30.679147296 ], [ -88.160771005, 30.679285094 ], [ -88.158358507, 30.679973297 ], [ -88.157457002, 30.680019394 ], [ -88.156900302, 30.679973699 ], [ -88.156078205, 30.679790594 ], [ -88.155123502, 30.679332495 ], [ -88.154089101, 30.678622395 ], [ -88.153373204, 30.678324699 ], [ -88.152842805, 30.678301893 ], [ -88.151517302, 30.678623095 ], [ -88.150748402, 30.678691998 ], [ -88.150165103, 30.678646296 ], [ -88.149449207, 30.678646497 ], [ -88.148044102, 30.678990595 ], [ -88.143695705, 30.679037295 ], [ -88.142847307, 30.678968698 ], [ -88.1408851, 30.678693995 ], [ -88.136908002, 30.678786397 ], [ -88.1345217, 30.678580396 ], [ -88.133938305, 30.678465798 ], [ -88.132983804, 30.678030498 ] ] } }
]
}
