{
"type": "FeatureCollection",
"name": "USGS_02450180_UM_12km",
"crs": { "type": "name", "properties": { "name": "urn:ogc:def:crs:OGC:1.3:CRS84" } },
"features": [
{ "type": "Feature", "properties": { "site_no": "02450180", "nhdplus_comid": "18590656", "navigation_mode": "UM", "requested_distance_km": 12.0, "start_source": "nwissite", "start_id": "USGS-02450180", "geometry_length_km": 0.28731860640033607 }, "geometry": { "type": "LineString", "coordinates": [ [ -86.919929303, 33.873646796 ], [ -86.919956505, 33.873211496 ], [ -86.920148604, 33.872936599 ], [ -86.920423105, 33.872776099 ], [ -86.921192005, 33.872615397 ], [ -86.92227112, 33.872549174 ] ] } },
{ "type": "Feature", "properties": { "site_no": "02450180", "nhdplus_comid": "18590650", "navigation_mode": "UM", "requested_distance_km": 12.0, "start_source": "nwissite", "start_id": "USGS-02450180", "geometry_length_km": 5.3382147260587285 }, "geometry": { "type": "LineString", "coordinates": [ [ -86.9190161, 33.912684098 ], [ -86.919290803, 33.912615195 ], [ -86.920279406, 33.911629699 ], [ -86.921103403, 33.911010899 ], [ -86.924015, 33.909451999 ], [ -86.9247289, 33.9087874 ], [ -86.925195701, 33.908168696 ], [ -86.925717101, 33.907045998 ], [ -86.926237606, 33.904754899 ], [ -86.927113906, 33.900058195 ], [ -86.927331902, 33.897354893 ], [ -86.927084602, 33.897080094 ], [ -86.926315203, 33.896782495 ], [ -86.922606006, 33.896005094 ], [ -86.921919003, 33.895661697 ], [ -86.921341904, 33.895226695 ], [ -86.921149403, 33.894905999 ], [ -86.920653403, 33.8920426 ], [ -86.920430906, 33.886979699 ], [ -86.920265704, 33.886361197 ], [ -86.920100801, 33.886177994 ], [ -86.919853002, 33.885147095 ], [ -86.919797607, 33.8842538 ], [ -86.919962205, 33.883818395 ], [ -86.920428403, 33.8822833 ], [ -86.921032004, 33.881091796 ], [ -86.921910204, 33.879923195 ], [ -86.923941404, 33.877723098 ], [ -86.924243204, 33.877264895 ], [ -86.924270406, 33.876829594 ], [ -86.924023002, 33.8763716 ], [ -86.923555806, 33.875936396 ], [ -86.922814004, 33.875524297 ], [ -86.922264405, 33.875112198 ], [ -86.920945801, 33.874356695 ], [ -86.919929303, 33.873646796 ] ] } },
{ "type": "Feature", "properties": { "site_no": "02450180", "nhdplus_comid": "18590578", "navigation_mode": "UM", "requested_distance_km": 12.0, "start_source": "nwissite", "start_id": "USGS-02450180", "geometry_length_km": 0.59242468932934023 }, "geometry": { "type": "LineString", "coordinates": [ [ -86.914621301, 33.915823996 ], [ -86.915967807, 33.915938199 ], [ -86.916517206, 33.915708795 ], [ -86.918961301, 33.912958995 ], [ -86.9190161, 33.912684098 ] ] } },
{ "type": "Feature", "properties": { "site_no": "02450180", "nhdplus_comid": "18590580", "navigation_mode": "UM", "requested_distance_km": 12.0, "start_source": "nwissite", "start_id": "USGS-02450180", "geometry_length_km": 3.2204258754041013 }, "geometry": { "type": "LineString", "coordinates": [ [ -86.884176604, 33.920457199 ], [ -86.886209607, 33.917410098 ], [ -86.886621706, 33.917020597 ], [ -86.887088902, 33.916768499 ], [ -86.887638301, 33.916676894 ], [ -86.888902307, 33.916585095 ], [ -86.891567707, 33.916699395 ], [ -86.893133901, 33.916561693 ], [ -86.895606801, 33.916149095 ], [ -86.897227906, 33.915644795 ], [ -86.901459202, 33.914681897 ], [ -86.904041804, 33.913948193 ], [ -86.907915503, 33.912572794 ], [ -86.9089595, 33.9125496 ], [ -86.910388604, 33.913144797 ], [ -86.912477501, 33.914541796 ], [ -86.914621301, 33.915823996 ] ] } },
{ "type": "Feature", "properties": { "site_no": "02450180", "nhdplus_comid": "18590556", "navigation_mode": "UM", "requested_distance_km": 12.0, "start_source": "nwissite", "start_id": "USGS-02450180", "geometry_length_km": 1.5933572609509359 }, "geometry": { "type": "LineString", "coordinates": [ [ -86.884947807, 33.933950298 ], [ -86.885387503, 33.933744095 ], [ -86.885634802, 33.933354698 ], [ -86.885662206, 33.933010995 ], [ -86.885552302, 33.932621695 ], [ -86.884507701, 33.930651493 ], [ -86.884122804, 33.929712296 ], [ -86.883545406, 33.9277879 ], [ -86.883050404, 33.9250848 ], [ -86.8829678, 33.923274897 ], [ -86.883847006, 33.921007 ], [ -86.884176604, 33.920457199 ] ] } }
]
}
