{
"type": "FeatureCollection",
"name": "USGS_02447000_UM_12km",
"crs": { "type": "name", "properties": { "name": "urn:ogc:def:crs:OGC:1.3:CRS84" } },
"features": [
{ "type": "Feature", "properties": { "site_no": "02447000", "nhdplus_comid": "18618644", "navigation_mode": "UM", "requested_distance_km": 12.0, "start_source": "nwissite", "start_id": "USGS-02447000", "geometry_length_km": 0.12999678696519379 }, "geometry": { "type": "LineString", "coordinates": [ [ -88.110525303, 33.038156696 ], [ -88.111042105, 33.038340099 ], [ -88.111759851, 33.038700776 ] ] } },
{ "type": "Feature", "properties": { "site_no": "02447000", "nhdplus_comid": "18618460", "navigation_mode": "UM", "requested_distance_km": 12.0, "start_source": "nwissite", "start_id": "USGS-02447000", "geometry_length_km": 3.5200001746843692 }, "geometry": { "type": "LineString", "coordinates": [ [ -88.084986202, 33.036066495 ], [ -88.085475706, 33.036112398 ], [ -88.086074002, 33.036249995 ], [ -88.086345904, 33.0363876 ], [ -88.087025806, 33.036823094 ], [ -88.089282505, 33.0386336 ], [ -88.090098403, 33.039023198 ], [ -88.090506405, 33.039114997 ], [ -88.0912681, 33.039000593 ], [ -88.091621704, 33.038863294 ], [ -88.091948204, 33.038565494 ], [ -88.092383504, 33.038038693 ], [ -88.092737302, 33.037420295 ], [ -88.092846103, 33.037328698 ], [ -88.092927806, 33.037145495 ], [ -88.093553603, 33.036389597 ], [ -88.093988903, 33.036046095 ], [ -88.094668902, 33.035794295 ], [ -88.0954578, 33.035611197 ], [ -88.0966001, 33.035542697 ], [ -88.097497702, 33.035565794 ], [ -88.099129401, 33.035749398 ], [ -88.1001359, 33.035978794 ], [ -88.100652501, 33.036207996 ], [ -88.101413906, 33.036803797 ], [ -88.102746502, 33.037353799 ], [ -88.102882601, 33.037491195 ], [ -88.103127301, 33.037537195 ], [ -88.103970505, 33.037399799 ], [ -88.104732104, 33.037102096 ], [ -88.105548203, 33.036575295 ], [ -88.106146604, 33.036048494 ], [ -88.106282704, 33.035865299 ], [ -88.1063371, 33.035636194 ], [ -88.106337205, 33.035200894 ], [ -88.106146902, 33.034948893 ], [ -88.105439804, 33.034330197 ], [ -88.105385505, 33.034146994 ], [ -88.105412804, 33.033734597 ], [ -88.105576001, 33.033482596 ], [ -88.105739206, 33.033436894 ], [ -88.106255904, 33.033551499 ], [ -88.107751802, 33.033643298 ], [ -88.108187005, 33.033826597 ], [ -88.108350202, 33.033986993 ], [ -88.108458802, 33.034445196 ], [ -88.108621702, 33.036346696 ], [ -88.108812004, 33.036827795 ], [ -88.109029502, 33.037148498 ], [ -88.109546207, 33.037560999 ], [ -88.110470906, 33.038065098 ], [ -88.110525303, 33.038156696 ] ] } },
{ "type": "Feature", "properties": { "site_no": "02447000", "nhdplus_comid": "18618458", "navigation_mode": "UM", "requested_distance_km": 12.0, "start_source": "nwissite", "start_id": "USGS-02447000", "geometry_length_km": 4.4831527036590506 }, "geometry": { "type": "LineString", "coordinates": [ [ -88.080219902, 33.049351998 ], [ -88.0801659, 33.048687696 ], [ -88.079975806, 33.048023194 ], [ -88.079894401, 33.047816999 ], [ -88.079568103, 33.047450393 ], [ -88.079024203, 33.047221094 ], [ -88.078126505, 33.047129095 ], [ -88.077854402, 33.047197796 ], [ -88.077283107, 33.047426693 ], [ -88.076167405, 33.048159294 ], [ -88.075078905, 33.049144 ], [ -88.074806705, 33.049258396 ], [ -88.074262604, 33.049258098 ], [ -88.073854901, 33.048891395 ], [ -88.073691905, 33.048318595 ], [ -88.073774301, 33.046921194 ], [ -88.073720001, 33.046554595 ], [ -88.073693104, 33.046050593 ], [ -88.073584601, 33.0455008 ], [ -88.073585205, 33.044515699 ], [ -88.073775806, 33.044172093 ], [ -88.074020803, 33.043851495 ], [ -88.074510701, 33.0433935 ], [ -88.074946001, 33.043118797 ], [ -88.0761704, 33.042683996 ], [ -88.077421702, 33.042409495 ], [ -88.080495603, 33.042181596 ], [ -88.080821805, 33.042250395 ], [ -88.081121005, 33.042388 ], [ -88.081583202, 33.042777695 ], [ -88.0817191, 33.042938098 ], [ -88.081746206, 33.043304697 ], [ -88.081854805, 33.043579593 ], [ -88.081963405, 33.044266894 ], [ -88.081962705, 33.045503899 ], [ -88.082125805, 33.045755997 ], [ -88.082697004, 33.045916498 ], [ -88.083268203, 33.045985393 ], [ -88.083567604, 33.045870997 ], [ -88.084030002, 33.045619197 ], [ -88.084465504, 33.045183994 ], [ -88.084955603, 33.044084594 ], [ -88.085173704, 33.043030798 ], [ -88.085201405, 33.041816697 ], [ -88.085119903, 33.041495994 ], [ -88.084956802, 33.041243896 ], [ -88.084548905, 33.040900096 ], [ -88.084004901, 33.040693797 ], [ -88.0822642, 33.040624395 ], [ -88.081312403, 33.040303297 ], [ -88.080496602, 33.039913595 ], [ -88.080170304, 33.039661594 ], [ -88.079925604, 33.039294899 ], [ -88.079952903, 33.039134495 ], [ -88.079844102, 33.039065793 ], [ -88.0798444, 33.038630597 ], [ -88.079953201, 33.038607597 ], [ -88.079926006, 33.038493097 ], [ -88.0800348, 33.038424395 ], [ -88.080034904, 33.038195297 ], [ -88.080171101, 33.037966296 ], [ -88.080660805, 33.0375541 ], [ -88.081504107, 33.037348196 ], [ -88.082156904, 33.037073493 ], [ -88.082646802, 33.036798693 ], [ -88.083462901, 33.036386698 ], [ -88.084986202, 33.036066495 ] ] } },
{ "type": "Feature", "properties": { "site_no": "02447000", "nhdplus_comid": "18618426", "navigation_mode": "UM", "requested_distance_km": 12.0, "start_source": "nwissite", "start_id": "USGS-02447000", "geometry_length_km": 0.51295335947189935 }, "geometry": { "type": "LineString", "coordinates": [ [ -88.077062801, 33.052741393 ], [ -88.077770106, 33.052695796 ], [ -88.078096606, 33.052535594 ], [ -88.078368805, 33.052169196 ], [ -88.078532204, 33.051756896 ], [ -88.078750104, 33.0513217 ], [ -88.079648204, 33.050428495 ], [ -88.079920404, 33.050062098 ], [ -88.080083802, 33.049695596 ], [ -88.080111101, 33.049512394 ], [ -88.080219902, 33.049351998 ] ] } },
{ "type": "Feature", "properties": { "site_no": "02447000", "nhdplus_comid": "18618424", "navigation_mode": "UM", "requested_distance_km": 12.0, "start_source": "nwissite", "start_id": "USGS-02447000", "geometry_length_km": 1.2069070191256337 }, "geometry": { "type": "LineString", "coordinates": [ [ -88.064985104, 33.051361695 ], [ -88.065692402, 33.051384896 ], [ -88.066889606, 33.050973095 ], [ -88.068929903, 33.050996996 ], [ -88.069773406, 33.050722398 ], [ -88.070317402, 33.050722599 ], [ -88.0714598, 33.050906397 ], [ -88.072438806, 33.051273398 ], [ -88.073554002, 33.051915295 ], [ -88.074315205, 33.052625798 ], [ -88.074859202, 33.052763499 ], [ -88.077062801, 33.052741393 ] ] } }
]
}
