{
"type": "FeatureCollection",
"name": "USGS_02408150_UM_12km",
"crs": { "type": "name", "properties": { "name": "urn:ogc:def:crs:OGC:1.3:CRS84" } },
"features": [
{ "type": "Feature", "properties": { "site_no": "02408150", "nhdplus_comid": "22274808", "navigation_mode": "UM", "requested_distance_km": 12.0, "start_source": "nwissite", "start_id": "USGS-02408150", "geometry_length_km": 1.0901470728524238 }, "geometry": { "type": "LineString", "coordinates": [ [ -86.578359, 32.882006995 ], [ -86.578413203, 32.8821446 ], [ -86.579390205, 32.8831072 ], [ -86.579824105, 32.884161294 ], [ -86.580149807, 32.884734198 ], [ -86.580149502, 32.885261297 ], [ -86.579714701, 32.885833897 ], [ -86.5795516, 32.886200495 ], [ -86.5796047, 32.888537496 ], [ -86.578951903, 32.890599199 ], [ -86.578745079, 32.891121867 ] ] } },
{ "type": "Feature", "properties": { "site_no": "02408150", "nhdplus_comid": "22274864", "navigation_mode": "UM", "requested_distance_km": 12.0, "start_source": "nwissite", "start_id": "USGS-02408150", "geometry_length_km": 2.3391922015197189 }, "geometry": { "type": "LineString", "coordinates": [ [ -86.582653806, 32.872637697 ], [ -86.582382001, 32.873301998 ], [ -86.5809156, 32.873599298 ], [ -86.580562502, 32.873942897 ], [ -86.580345102, 32.874355197 ], [ -86.580426402, 32.874630198 ], [ -86.5805621, 32.874744795 ], [ -86.581539601, 32.874722295 ], [ -86.582109801, 32.874607898 ], [ -86.582707107, 32.874653898 ], [ -86.583032906, 32.8747686 ], [ -86.583548605, 32.875135399 ], [ -86.583657004, 32.875478998 ], [ -86.5835483, 32.875753999 ], [ -86.582624905, 32.876097299 ], [ -86.581945904, 32.876738593 ], [ -86.582054302, 32.877219796 ], [ -86.582162805, 32.877334394 ], [ -86.582026705, 32.878044598 ], [ -86.581863604, 32.878296599 ], [ -86.581266001, 32.878639996 ], [ -86.580940202, 32.878639899 ], [ -86.5798278, 32.877196096 ], [ -86.578986302, 32.876714595 ], [ -86.578551903, 32.876622796 ], [ -86.578090303, 32.876668498 ], [ -86.575917102, 32.878523499 ], [ -86.575781003, 32.878889993 ], [ -86.576595105, 32.879875496 ], [ -86.577490501, 32.881113097 ], [ -86.578250304, 32.882006995 ], [ -86.578359, 32.882006995 ] ] } },
{ "type": "Feature", "properties": { "site_no": "02408150", "nhdplus_comid": "22274868", "navigation_mode": "UM", "requested_distance_km": 12.0, "start_source": "nwissite", "start_id": "USGS-02408150", "geometry_length_km": 1.5263332922757438 }, "geometry": { "type": "LineString", "coordinates": [ [ -86.593595505, 32.872892998 ], [ -86.593025103, 32.873534396 ], [ -86.592807904, 32.8736718 ], [ -86.591803201, 32.873763196 ], [ -86.591423102, 32.873923495 ], [ -86.590689607, 32.874656394 ], [ -86.590255007, 32.875137493 ], [ -86.589059703, 32.876488894 ], [ -86.588435106, 32.877038598 ], [ -86.587647602, 32.877152897 ], [ -86.587294705, 32.877106994 ], [ -86.586724706, 32.876717396 ], [ -86.586371802, 32.8763735 ], [ -86.5856122, 32.8751361 ], [ -86.5846624, 32.8738297 ], [ -86.584364101, 32.872958995 ], [ -86.583957106, 32.872638099 ], [ -86.583549805, 32.872500494 ], [ -86.583196901, 32.872477494 ], [ -86.582653806, 32.872637697 ] ] } },
{ "type": "Feature", "properties": { "site_no": "02408150", "nhdplus_comid": "22274924", "navigation_mode": "UM", "requested_distance_km": 12.0, "start_source": "nwissite", "start_id": "USGS-02408150", "geometry_length_km": 1.4981577297314286 }, "geometry": { "type": "LineString", "coordinates": [ [ -86.599273406, 32.861598797 ], [ -86.599246301, 32.861804999 ], [ -86.598675802, 32.862881795 ], [ -86.598458402, 32.863523297 ], [ -86.5982408, 32.864874996 ], [ -86.598104604, 32.866157994 ], [ -86.597860001, 32.867211893 ], [ -86.597371005, 32.868403293 ], [ -86.596854903, 32.868930094 ], [ -86.596393302, 32.869181998 ], [ -86.596040301, 32.8692507 ], [ -86.594900005, 32.869250298 ], [ -86.594519906, 32.869364798 ], [ -86.5942754, 32.869662598 ], [ -86.594166704, 32.869960494 ], [ -86.593894504, 32.872045293 ], [ -86.593622707, 32.872618094 ], [ -86.593595505, 32.872892998 ] ] } },
{ "type": "Feature", "properties": { "site_no": "02408150", "nhdplus_comid": "22274976", "navigation_mode": "UM", "requested_distance_km": 12.0, "start_source": "nwissite", "start_id": "USGS-02408150", "geometry_length_km": 1.2429839091554531 }, "geometry": { "type": "LineString", "coordinates": [ [ -86.603375003, 32.852228597 ], [ -86.603266403, 32.852503493 ], [ -86.603429101, 32.852984697 ], [ -86.603456102, 32.853397094 ], [ -86.603999004, 32.854038693 ], [ -86.604215905, 32.854909398 ], [ -86.603509702, 32.856169395 ], [ -86.603102401, 32.856581695 ], [ -86.602532305, 32.856971197 ], [ -86.601337701, 32.857589595 ], [ -86.600496002, 32.858299799 ], [ -86.599708304, 32.859605595 ], [ -86.599735305, 32.860567898 ], [ -86.599355005, 32.861575894 ], [ -86.599273406, 32.861598797 ] ] } },
{ "type": "Feature", "properties": { "site_no": "02408150", "nhdplus_comid": "22274994", "navigation_mode": "UM", "requested_distance_km": 12.0, "start_source": "nwissite", "start_id": "USGS-02408150", "geometry_length_km": 0.44201085096161102 }, "geometry": { "type": "LineString", "coordinates": [ [ -86.605737403, 32.848975398 ], [ -86.605710201, 32.849089995 ], [ -86.604760006, 32.849731393 ], [ -86.604054004, 32.850418597 ], [ -86.603619702, 32.851082996 ], [ -86.603375003, 32.852228597 ] ] } },
{ "type": "Feature", "properties": { "site_no": "02408150", "nhdplus_comid": "22275026", "navigation_mode": "UM", "requested_distance_km": 12.0, "start_source": "nwissite", "start_id": "USGS-02408150", "geometry_length_km": 1.2188746124340017 }, "geometry": { "type": "LineString", "coordinates": [ [ -86.616676703, 32.844921298 ], [ -86.615862407, 32.845471099 ], [ -86.614043601, 32.847510099 ], [ -86.6132835, 32.848243199 ], [ -86.612767607, 32.848563999 ], [ -86.611709006, 32.848793 ], [ -86.609184705, 32.848655194 ], [ -86.606280304, 32.848677598 ], [ -86.605846003, 32.848975495 ], [ -86.605737403, 32.848975398 ] ] } },
{ "type": "Feature", "properties": { "site_no": "02408150", "nhdplus_comid": "22275042", "navigation_mode": "UM", "requested_distance_km": 12.0, "start_source": "nwissite", "start_id": "USGS-02408150", "geometry_length_km": 1.1936666728670522 }, "geometry": { "type": "LineString", "coordinates": [ [ -86.627669603, 32.846250594 ], [ -86.627642401, 32.846113093 ], [ -86.627289601, 32.845815197 ], [ -86.626719601, 32.845631897 ], [ -86.625606701, 32.845494397 ], [ -86.625009403, 32.845311195 ], [ -86.624520905, 32.845127799 ], [ -86.623652406, 32.844463393 ], [ -86.623001002, 32.843776099 ], [ -86.621426806, 32.843157396 ], [ -86.621101007, 32.8431345 ], [ -86.619988106, 32.8434323 ], [ -86.618386701, 32.8441654 ], [ -86.6171652, 32.844829693 ], [ -86.616676703, 32.844921298 ] ] } }
]
}
