{
"type": "FeatureCollection",
"name": "USGS_02400100_DM_12km",
"crs": { "type": "name", "properties": { "name": "urn:ogc:def:crs:OGC:1.3:CRS84" } },
"features": [
{ "type": "Feature", "properties": { "site_no": "02400100", "nhdplus_comid": "15823141", "navigation_mode": "DM", "requested_distance_km": 12.0, "start_source": "nwissite", "start_id": "USGS-02400100", "geometry_length_km": 0.97332989726197194 }, "geometry": { "type": "LineString", "coordinates": [ [ -85.614437991, 34.063857284 ], [ -85.617782906, 34.064559095 ], [ -85.619351506, 34.0652005 ], [ -85.620755002, 34.066277094 ], [ -85.621718101, 34.066551894 ], [ -85.624167502, 34.066254295 ] ] } },
{ "type": "Feature", "properties": { "site_no": "02400100", "nhdplus_comid": "15822309", "navigation_mode": "DM", "requested_distance_km": 12.0, "start_source": "nwissite", "start_id": "USGS-02400100", "geometry_length_km": 0.78261111250815341 }, "geometry": { "type": "LineString", "coordinates": [ [ -85.624167502, 34.066254295 ], [ -85.624772906, 34.066529095 ], [ -85.624965601, 34.066689499 ], [ -85.625488505, 34.067147598 ], [ -85.627332404, 34.069437899 ], [ -85.628350802, 34.070285298 ], [ -85.628791101, 34.0704685 ], [ -85.630249903, 34.070811994 ] ] } },
{ "type": "Feature", "properties": { "site_no": "02400100", "nhdplus_comid": "15822277", "navigation_mode": "DM", "requested_distance_km": 12.0, "start_source": "nwissite", "start_id": "USGS-02400100", "geometry_length_km": 0.880339556379794 }, "geometry": { "type": "LineString", "coordinates": [ [ -85.630249903, 34.070811994 ], [ -85.6303875, 34.071407594 ], [ -85.6303325, 34.071865596 ], [ -85.630139805, 34.072483994 ], [ -85.630222403, 34.072919197 ], [ -85.630772904, 34.072873294 ], [ -85.631873801, 34.072575495 ], [ -85.6325894, 34.072598398 ], [ -85.633112304, 34.072827496 ], [ -85.633993201, 34.073560394 ], [ -85.634626202, 34.073880993 ], [ -85.636552803, 34.074224398 ] ] } },
{ "type": "Feature", "properties": { "site_no": "02400100", "nhdplus_comid": "15822255", "navigation_mode": "DM", "requested_distance_km": 12.0, "start_source": "nwissite", "start_id": "USGS-02400100", "geometry_length_km": 0.27288525372969941 }, "geometry": { "type": "LineString", "coordinates": [ [ -85.636552803, 34.074224398 ], [ -85.636690505, 34.074842796 ], [ -85.636553101, 34.076652199 ] ] } },
{ "type": "Feature", "properties": { "site_no": "02400100", "nhdplus_comid": "15822225", "navigation_mode": "DM", "requested_distance_km": 12.0, "start_source": "nwissite", "start_id": "USGS-02400100", "geometry_length_km": 4.9427150198029732 }, "geometry": { "type": "LineString", "coordinates": [ [ -85.636553101, 34.076652199 ], [ -85.636388101, 34.077843197 ], [ -85.634929501, 34.080179296 ], [ -85.634186506, 34.083179794 ], [ -85.6341867, 34.084599793 ], [ -85.634544604, 34.085630395 ], [ -85.635948606, 34.087347999 ], [ -85.637022406, 34.088447295 ], [ -85.6379859, 34.089248896 ], [ -85.638811804, 34.089615293 ], [ -85.640188307, 34.090096198 ], [ -85.641124405, 34.090576999 ], [ -85.642418206, 34.090897493 ], [ -85.648171701, 34.090530299 ], [ -85.648805, 34.090759195 ], [ -85.649217904, 34.0910111 ], [ -85.649961501, 34.092247695 ], [ -85.650650203, 34.094011098 ], [ -85.651283704, 34.095064595 ], [ -85.651779503, 34.095614195 ], [ -85.656681202, 34.099781498 ], [ -85.660206206, 34.102002397 ], [ -85.661059901, 34.102780893 ], [ -85.661335602, 34.103307597 ], [ -85.661280803, 34.104361095 ], [ -85.660868406, 34.105643898 ], [ -85.660455704, 34.106537297 ], [ -85.660455905, 34.107018195 ], [ -85.660924107, 34.107430398 ] ] } },
{ "type": "Feature", "properties": { "site_no": "02400100", "nhdplus_comid": "15822029", "navigation_mode": "DM", "requested_distance_km": 12.0, "start_source": "nwissite", "start_id": "USGS-02400100", "geometry_length_km": 0.57177217296581873 }, "geometry": { "type": "LineString", "coordinates": [ [ -85.660924107, 34.107430398 ], [ -85.661860302, 34.107544594 ], [ -85.662741601, 34.107864998 ], [ -85.663457803, 34.1084603 ], [ -85.664008804, 34.109284595 ], [ -85.664174207, 34.109742694 ], [ -85.664174505, 34.110383995 ], [ -85.664009504, 34.111025393 ] ] } },
{ "type": "Feature", "properties": { "site_no": "02400100", "nhdplus_comid": "15821999", "navigation_mode": "DM", "requested_distance_km": 12.0, "start_source": "nwissite", "start_id": "USGS-02400100", "geometry_length_km": 0.56138881439110866 }, "geometry": { "type": "LineString", "coordinates": [ [ -85.664009504, 34.111025393 ], [ -85.665249102, 34.112009794 ], [ -85.666571103, 34.112833999 ], [ -85.667094402, 34.112925395 ], [ -85.668581307, 34.112901993 ], [ -85.669187203, 34.113222398 ] ] } },
{ "type": "Feature", "properties": { "site_no": "02400100", "nhdplus_comid": "15821983", "navigation_mode": "DM", "requested_distance_km": 12.0, "start_source": "nwissite", "start_id": "USGS-02400100", "geometry_length_km": 0.94740826393867117 }, "geometry": { "type": "LineString", "coordinates": [ [ -85.669187203, 34.113222398 ], [ -85.669242606, 34.113863699 ], [ -85.669022404, 34.1141157 ], [ -85.668389201, 34.114230394 ], [ -85.6673702, 34.114024699 ], [ -85.666736901, 34.114093594 ], [ -85.666489102, 34.114276893 ], [ -85.666544303, 34.114620395 ], [ -85.6668474, 34.115032494 ], [ -85.667343304, 34.115490496 ], [ -85.667701505, 34.1160172 ], [ -85.669271804, 34.117482498 ], [ -85.670566507, 34.1183066 ] ] } },
{ "type": "Feature", "properties": { "site_no": "02400100", "nhdplus_comid": "15821959", "navigation_mode": "DM", "requested_distance_km": 12.0, "start_source": "nwissite", "start_id": "USGS-02400100", "geometry_length_km": 0.077517871430994215 }, "geometry": { "type": "LineString", "coordinates": [ [ -85.670566507, 34.1183066 ], [ -85.671117604, 34.118833095 ] ] } },
{ "type": "Feature", "properties": { "site_no": "02400100", "nhdplus_comid": "15821955", "navigation_mode": "DM", "requested_distance_km": 12.0, "start_source": "nwissite", "start_id": "USGS-02400100", "geometry_length_km": 0.050936376790576603 }, "geometry": { "type": "LineString", "coordinates": [ [ -85.671117604, 34.118833095 ], [ -85.671283007, 34.119268194 ] ] } },
{ "type": "Feature", "properties": { "site_no": "02400100", "nhdplus_comid": "15821947", "navigation_mode": "DM", "requested_distance_km": 12.0, "start_source": "nwissite", "start_id": "USGS-02400100", "geometry_length_km": 0.49569467805695699 }, "geometry": { "type": "LineString", "coordinates": [ [ -85.671283007, 34.119268194 ], [ -85.670401901, 34.119474694 ], [ -85.670181707, 34.119772494 ], [ -85.6701819, 34.120138995 ], [ -85.670567602, 34.120573997 ], [ -85.670925707, 34.1207342 ], [ -85.671944603, 34.120619297 ], [ -85.672660306, 34.119977795 ], [ -85.673100807, 34.119840197 ] ] } },
{ "type": "Feature", "properties": { "site_no": "02400100", "nhdplus_comid": "15821945", "navigation_mode": "DM", "requested_distance_km": 12.0, "start_source": "nwissite", "start_id": "USGS-02400100", "geometry_length_km": 0.28096037067757018 }, "geometry": { "type": "LineString", "coordinates": [ [ -85.673100807, 34.119840197 ], [ -85.673679404, 34.120343894 ], [ -85.673789807, 34.120618694 ], [ -85.674423404, 34.121122293 ], [ -85.675304905, 34.121488497 ] ] } },
{ "type": "Feature", "properties": { "site_no": "02400100", "nhdplus_comid": "15821939", "navigation_mode": "DM", "requested_distance_km": 12.0, "start_source": "nwissite", "start_id": "USGS-02400100", "geometry_length_km": 2.3869540593759444 }, "geometry": { "type": "LineString", "coordinates": [ [ -85.675304905, 34.121488497 ], [ -85.676213801, 34.121762998 ], [ -85.677949406, 34.122907497 ], [ -85.678776205, 34.123869099 ], [ -85.679134302, 34.124097899 ], [ -85.679740205, 34.124028996 ], [ -85.680098101, 34.1238456 ], [ -85.680262402, 34.122265197 ], [ -85.680482402, 34.121806994 ], [ -85.680867806, 34.121554993 ], [ -85.681501307, 34.1216463 ], [ -85.682135105, 34.122287296 ], [ -85.6831825, 34.1238214 ], [ -85.683458403, 34.124622896 ], [ -85.683376104, 34.125080995 ], [ -85.683211602, 34.126272097 ], [ -85.683239706, 34.127050698 ], [ -85.683542803, 34.127325594 ], [ -85.684699707, 34.1276915 ], [ -85.685498305, 34.127553694 ], [ -85.686930001, 34.126888894 ], [ -85.687398203, 34.1268887 ], [ -85.687839307, 34.127483994 ], [ -85.687894806, 34.128170997 ], [ -85.687482402, 34.1292018 ], [ -85.687455401, 34.130072199 ], [ -85.6875384, 34.130415693 ] ] } }
]
}
