{
"type": "FeatureCollection",
"name": "USGS_02444500_DM_12km",
"crs": { "type": "name", "properties": { "name": "urn:ogc:def:crs:OGC:1.3:CRS84" } },
"features": [
{ "type": "Feature", "properties": { "site_no": "02444500", "nhdplus_comid": "18631086", "navigation_mode": "DM", "requested_distance_km": 12.0, "start_source": "nwissite", "start_id": "USGS-02444500", "geometry_length_km": 3.8512736918577173 }, "geometry": { "type": "LineString", "coordinates": [ [ -88.237685017, 33.080647098 ], [ -88.236398004, 33.0805595 ], [ -88.2355325, 33.080123097 ], [ -88.231496401, 33.079596594 ], [ -88.224701501, 33.0778751 ], [ -88.214958601, 33.073812596 ], [ -88.211211301, 33.073430896 ], [ -88.209658004, 33.073828295 ], [ -88.208543606, 33.074381396 ], [ -88.207190104, 33.074288994 ], [ -88.206085905, 33.073206693 ], [ -88.204217501, 33.072197996 ], [ -88.201068006, 33.068836294 ] ] } },
{ "type": "Feature", "properties": { "site_no": "02444500", "nhdplus_comid": "18631092", "navigation_mode": "DM", "requested_distance_km": 12.0, "start_source": "nwissite", "start_id": "USGS-02444500", "geometry_length_km": 6.1065491030080405 }, "geometry": { "type": "LineString", "coordinates": [ [ -88.201068006, 33.068836294 ], [ -88.200738601, 33.066044994 ], [ -88.2008994, 33.064419799 ], [ -88.202125102, 33.0627416 ], [ -88.2052292, 33.060436696 ], [ -88.205527805, 33.058946796 ], [ -88.205301307, 33.058176197 ], [ -88.203869902, 33.055812895 ], [ -88.201548904, 33.053262897 ], [ -88.200657301, 33.051565699 ], [ -88.200544104, 33.0511804 ], [ -88.200929306, 33.048815399 ], [ -88.202255704, 33.047647499 ], [ -88.205787502, 33.047133796 ], [ -88.208804406, 33.045703799 ], [ -88.213164002, 33.046001695 ], [ -88.2138023, 33.045667693 ], [ -88.2153427, 33.0453953 ], [ -88.217546001, 33.044538796 ], [ -88.219798706, 33.043182194 ], [ -88.220262006, 33.043087997 ], [ -88.221400604, 33.042284697 ], [ -88.221449904, 33.041784599 ], [ -88.222849801, 33.039866298 ], [ -88.223648302, 33.037907094 ], [ -88.225858703, 33.033904396 ], [ -88.227283105, 33.031736098 ], [ -88.228295803, 33.030672394 ] ] } }
]
}
