{
"type": "FeatureCollection",
"name": "USGS_02360000_DM_12km",
"crs": { "type": "name", "properties": { "name": "urn:ogc:def:crs:OGC:1.3:CRS84" } },
"features": [
{ "type": "Feature", "properties": { "site_no": "02360000", "nhdplus_comid": "2186293", "navigation_mode": "DM", "requested_distance_km": 12.0, "start_source": "nwissite", "start_id": "USGS-02360000", "geometry_length_km": 1.3735390806540027 }, "geometry": { "type": "LineString", "coordinates": [ [ -85.50457945, 31.663443883 ], [ -85.504611306, 31.663429499 ], [ -85.504933104, 31.6631549 ], [ -85.505040206, 31.663154997 ], [ -85.505658805, 31.661299795 ], [ -85.505686305, 31.660726994 ], [ -85.505552702, 31.660474896 ], [ -85.504937403, 31.659924395 ], [ -85.504857302, 31.659695193 ], [ -85.504965201, 31.659099594 ], [ -85.505314402, 31.658458397 ], [ -85.506413803, 31.657565996 ], [ -85.506789505, 31.656993598 ], [ -85.508319907, 31.654176898 ], [ -85.508322105, 31.652481399 ] ] } },
{ "type": "Feature", "properties": { "site_no": "02360000", "nhdplus_comid": "2186299", "navigation_mode": "DM", "requested_distance_km": 12.0, "start_source": "nwissite", "start_id": "USGS-02360000", "geometry_length_km": 0.55267934786064887 }, "geometry": { "type": "LineString", "coordinates": [ [ -85.508322105, 31.652481399 ], [ -85.508457102, 31.651633896 ], [ -85.509316802, 31.649549693 ], [ -85.509371206, 31.648862399 ], [ -85.509077102, 31.648541398 ], [ -85.508247301, 31.6481511 ] ] } },
{ "type": "Feature", "properties": { "site_no": "02360000", "nhdplus_comid": "2185255", "navigation_mode": "DM", "requested_distance_km": 12.0, "start_source": "nwissite", "start_id": "USGS-02360000", "geometry_length_km": 0.28664648693098599 }, "geometry": { "type": "LineString", "coordinates": [ [ -85.508247301, 31.6481511 ], [ -85.508113705, 31.647898898 ], [ -85.508060701, 31.647509396 ], [ -85.508651704, 31.646089494 ], [ -85.508759402, 31.645700097 ] ] } },
{ "type": "Feature", "properties": { "site_no": "02360000", "nhdplus_comid": "2185297", "navigation_mode": "DM", "requested_distance_km": 12.0, "start_source": "nwissite", "start_id": "USGS-02360000", "geometry_length_km": 1.0855468832871984 }, "geometry": { "type": "LineString", "coordinates": [ [ -85.508759402, 31.645700097 ], [ -85.508866504, 31.645700194 ], [ -85.509886205, 31.644120194 ], [ -85.509966902, 31.643822394 ], [ -85.5098067, 31.643455699 ], [ -85.509726904, 31.642974496 ], [ -85.510183401, 31.642035596 ], [ -85.510184005, 31.641623095 ], [ -85.5095696, 31.6404083 ], [ -85.5095971, 31.639904298 ], [ -85.509838901, 31.639308795 ], [ -85.510000505, 31.638575695 ], [ -85.510538504, 31.636582896 ] ] } },
{ "type": "Feature", "properties": { "site_no": "02360000", "nhdplus_comid": "2185369", "navigation_mode": "DM", "requested_distance_km": 12.0, "start_source": "nwissite", "start_id": "USGS-02360000", "geometry_length_km": 1.4080211657402621 }, "geometry": { "type": "LineString", "coordinates": [ [ -85.510538504, 31.636582896 ], [ -85.510645702, 31.636560097 ], [ -85.510726906, 31.635918699 ], [ -85.511075906, 31.635139994 ], [ -85.5114244, 31.634842396 ], [ -85.511987001, 31.634636797 ], [ -85.5122554, 31.634155899 ], [ -85.512792401, 31.6330567 ], [ -85.512873806, 31.632231899 ], [ -85.512875907, 31.630398899 ], [ -85.513037406, 31.6298263 ], [ -85.513600707, 31.628979094 ], [ -85.515370004, 31.627445593 ], [ -85.515986905, 31.626460895 ], [ -85.516362503, 31.625842698 ], [ -85.516309202, 31.625613496 ] ] } },
{ "type": "Feature", "properties": { "site_no": "02360000", "nhdplus_comid": "2186345", "navigation_mode": "DM", "requested_distance_km": 12.0, "start_source": "nwissite", "start_id": "USGS-02360000", "geometry_length_km": 2.083454854959875 }, "geometry": { "type": "LineString", "coordinates": [ [ -85.516309202, 31.625613496 ], [ -85.516497307, 31.625178397 ], [ -85.516685605, 31.624376595 ], [ -85.517223105, 31.6227962 ], [ -85.517465204, 31.621811196 ], [ -85.5176531, 31.621353097 ], [ -85.518162705, 31.620643295 ], [ -85.5192094, 31.618513398 ], [ -85.519317701, 31.617482498 ], [ -85.519532606, 31.616886996 ], [ -85.520095803, 31.615948096 ], [ -85.520122804, 31.615764797 ], [ -85.520229906, 31.615787797 ], [ -85.520980805, 31.614711598 ], [ -85.521785803, 31.613108397 ], [ -85.522376902, 31.611184299 ], [ -85.522353806, 31.607999593 ] ] } },
{ "type": "Feature", "properties": { "site_no": "02360000", "nhdplus_comid": "2185477", "navigation_mode": "DM", "requested_distance_km": 12.0, "start_source": "nwissite", "start_id": "USGS-02360000", "geometry_length_km": 0.69841378153827893 }, "geometry": { "type": "LineString", "coordinates": [ [ -85.522353806, 31.607999593 ], [ -85.523159601, 31.605594493 ], [ -85.5230003, 31.604334295 ], [ -85.522786707, 31.603852898 ], [ -85.522707306, 31.603073895 ], [ -85.522921801, 31.602821998 ], [ -85.5232701, 31.6025244 ], [ -85.523778901, 31.6023186 ] ] } },
{ "type": "Feature", "properties": { "site_no": "02360000", "nhdplus_comid": "2185499", "navigation_mode": "DM", "requested_distance_km": 12.0, "start_source": "nwissite", "start_id": "USGS-02360000", "geometry_length_km": 0.61237234039615984 }, "geometry": { "type": "LineString", "coordinates": [ [ -85.523778901, 31.6023186 ], [ -85.523806006, 31.602135293 ], [ -85.523324907, 31.601424694 ], [ -85.523245007, 31.601103894 ], [ -85.522924207, 31.600691199 ], [ -85.522094905, 31.600209296 ], [ -85.520945303, 31.5989253 ], [ -85.520918801, 31.598741993 ], [ -85.520731606, 31.598558597 ], [ -85.520250507, 31.5978937 ] ] } },
{ "type": "Feature", "properties": { "site_no": "02360000", "nhdplus_comid": "2185545", "navigation_mode": "DM", "requested_distance_km": 12.0, "start_source": "nwissite", "start_id": "USGS-02360000", "geometry_length_km": 1.3878914754460645 }, "geometry": { "type": "LineString", "coordinates": [ [ -85.520250507, 31.5978937 ], [ -85.520090006, 31.597778998 ], [ -85.519341402, 31.597045198 ], [ -85.518379405, 31.595692597 ], [ -85.518406205, 31.595600896 ], [ -85.518086001, 31.594752997 ], [ -85.517551601, 31.593950599 ], [ -85.517365001, 31.593354695 ], [ -85.5172325, 31.592117399 ], [ -85.517314203, 31.590994693 ], [ -85.517020702, 31.590077996 ], [ -85.516941205, 31.589505099 ], [ -85.516273402, 31.588358998 ], [ -85.514937103, 31.5866623 ] ] } },
{ "type": "Feature", "properties": { "site_no": "02360000", "nhdplus_comid": "2186369", "navigation_mode": "DM", "requested_distance_km": 12.0, "start_source": "nwissite", "start_id": "USGS-02360000", "geometry_length_km": 1.2895475260830414 }, "geometry": { "type": "LineString", "coordinates": [ [ -85.514937103, 31.5866623 ], [ -85.511995301, 31.584826797 ], [ -85.511380702, 31.584047198 ], [ -85.511167303, 31.583428398 ], [ -85.511382602, 31.582557999 ], [ -85.511865303, 31.581710696 ], [ -85.512187503, 31.580840394 ], [ -85.5122151, 31.580175899 ], [ -85.512001902, 31.579350799 ], [ -85.511868402, 31.579098694 ], [ -85.511227004, 31.578479499 ], [ -85.510237604, 31.577791296 ], [ -85.509729303, 31.577630393 ] ] } },
{ "type": "Feature", "properties": { "site_no": "02360000", "nhdplus_comid": "2185611", "navigation_mode": "DM", "requested_distance_km": 12.0, "start_source": "nwissite", "start_id": "USGS-02360000", "geometry_length_km": 0.22905460002136102 }, "geometry": { "type": "LineString", "coordinates": [ [ -85.509729303, 31.577630393 ], [ -85.508900307, 31.577079795 ], [ -85.508446105, 31.576460697 ], [ -85.508286104, 31.576048195 ] ] } },
{ "type": "Feature", "properties": { "site_no": "02360000", "nhdplus_comid": "2186383", "navigation_mode": "DM", "requested_distance_km": 12.0, "start_source": "nwissite", "start_id": "USGS-02360000", "geometry_length_km": 1.4466629560909834 }, "geometry": { "type": "LineString", "coordinates": [ [ -85.508286104, 31.576048195 ], [ -85.507965401, 31.575749993 ], [ -85.507483907, 31.575497597 ], [ -85.505744904, 31.575266793 ], [ -85.504487701, 31.574807398 ], [ -85.503417403, 31.574623093 ], [ -85.502588205, 31.574301496 ], [ -85.501625106, 31.574162997 ], [ -85.501197301, 31.573864795 ], [ -85.499937102, 31.572797097 ], [ -85.499615707, 31.572591193 ], [ -85.498437703, 31.572225794 ], [ -85.497982405, 31.571905397 ], [ -85.497848205, 31.571630597 ], [ -85.497633107, 31.570851699 ], [ -85.497552805, 31.5708059 ], [ -85.497364804, 31.570279099 ], [ -85.496828504, 31.569386199 ], [ -85.496801302, 31.569088295 ] ] } }
]
}
