{
"type": "FeatureCollection",
"name": "USGS_02399200_UM_12km",
"crs": { "type": "name", "properties": { "name": "urn:ogc:def:crs:OGC:1.3:CRS84" } },
"features": [
{ "type": "Feature", "properties": { "site_no": "02399200", "nhdplus_comid": "15822929", "navigation_mode": "UM", "requested_distance_km": 12.0, "start_source": "nwissite", "start_id": "USGS-02399200", "geometry_length_km": 0.38463920182770778 }, "geometry": { "type": "LineString", "coordinates": [ [ -85.687937304, 34.291271098 ], [ -85.686612003, 34.290263996 ], [ -85.685673602, 34.289897993 ], [ -85.684316582, 34.289981064 ] ] } },
{ "type": "Feature", "properties": { "site_no": "02399200", "nhdplus_comid": "15821123", "navigation_mode": "UM", "requested_distance_km": 12.0, "start_source": "nwissite", "start_id": "USGS-02399200", "geometry_length_km": 0.48706658870439395 }, "geometry": { "type": "LineString", "coordinates": [ [ -85.691968106, 34.293902799 ], [ -85.689704604, 34.2930566 ], [ -85.689180203, 34.292736195 ], [ -85.688738301, 34.292324193 ], [ -85.687937304, 34.291271098 ] ] } },
{ "type": "Feature", "properties": { "site_no": "02399200", "nhdplus_comid": "15821105", "navigation_mode": "UM", "requested_distance_km": 12.0, "start_source": "nwissite", "start_id": "USGS-02399200", "geometry_length_km": 1.044000062838683 }, "geometry": { "type": "LineString", "coordinates": [ [ -85.687834904, 34.302172899 ], [ -85.6888832, 34.301691398 ], [ -85.689544506, 34.300339796 ], [ -85.690399006, 34.298919395 ], [ -85.691914402, 34.295803696 ], [ -85.692189604, 34.294864595 ], [ -85.6921615, 34.294223294 ], [ -85.691968106, 34.293902799 ] ] } },
{ "type": "Feature", "properties": { "site_no": "02399200", "nhdplus_comid": "15821039", "navigation_mode": "UM", "requested_distance_km": 12.0, "start_source": "nwissite", "start_id": "USGS-02399200", "geometry_length_km": 4.6099542570881331 }, "geometry": { "type": "LineString", "coordinates": [ [ -85.670464702, 34.334129497 ], [ -85.670657605, 34.333465196 ], [ -85.670684807, 34.332571998 ], [ -85.670491301, 34.332182698 ], [ -85.668171205, 34.330007799 ], [ -85.667176805, 34.328611098 ], [ -85.666983105, 34.327740796 ], [ -85.667037703, 34.326710194 ], [ -85.667561702, 34.325633496 ], [ -85.669217102, 34.323686294 ], [ -85.672142006, 34.321326293 ], [ -85.672500506, 34.320753597 ], [ -85.6726107, 34.3203642 ], [ -85.672692902, 34.319196194 ], [ -85.672249906, 34.316631198 ], [ -85.6721671, 34.316608295 ], [ -85.672110006, 34.313241698 ], [ -85.672551304, 34.312439896 ], [ -85.6734064, 34.311637998 ], [ -85.6743166, 34.310378 ], [ -85.675585307, 34.308865897 ], [ -85.676744007, 34.3078807 ], [ -85.678399503, 34.307101198 ], [ -85.679392301, 34.306047395 ], [ -85.680192307, 34.305428699 ], [ -85.680964805, 34.305061795 ], [ -85.683088802, 34.303388998 ], [ -85.684882104, 34.302540794 ], [ -85.685847901, 34.302311294 ], [ -85.687669404, 34.302241594 ], [ -85.687834904, 34.302172899 ] ] } },
{ "type": "Feature", "properties": { "site_no": "02399200", "nhdplus_comid": "15820871", "navigation_mode": "UM", "requested_distance_km": 12.0, "start_source": "nwissite", "start_id": "USGS-02399200", "geometry_length_km": 0.93803911715186239 }, "geometry": { "type": "LineString", "coordinates": [ [ -85.669557802, 34.342351794 ], [ -85.669364206, 34.341710694 ], [ -85.669280805, 34.3405426 ], [ -85.669556007, 34.339053795 ], [ -85.669554703, 34.336328499 ], [ -85.669720002, 34.335664198 ], [ -85.670464702, 34.334129497 ] ] } },
{ "type": "Feature", "properties": { "site_no": "02399200", "nhdplus_comid": "15822903", "navigation_mode": "UM", "requested_distance_km": 12.0, "start_source": "nwissite", "start_id": "USGS-02399200", "geometry_length_km": 1.6375212815361753 }, "geometry": { "type": "LineString", "coordinates": [ [ -85.672185406, 34.350985199 ], [ -85.672930203, 34.3496795 ], [ -85.673703, 34.349129595 ], [ -85.675856203, 34.347869098 ], [ -85.676463403, 34.347342096 ], [ -85.676463, 34.346632093 ], [ -85.675937906, 34.345830694 ], [ -85.675716601, 34.345166594 ], [ -85.675522804, 34.344067395 ], [ -85.675163306, 34.343082696 ], [ -85.674748905, 34.3426935 ], [ -85.674113706, 34.342464693 ], [ -85.673119605, 34.342396393 ], [ -85.672098204, 34.342717394 ], [ -85.670938604, 34.342923895 ], [ -85.670496903, 34.342832498 ], [ -85.669557802, 34.342351794 ] ] } },
{ "type": "Feature", "properties": { "site_no": "02399200", "nhdplus_comid": "15820807", "navigation_mode": "UM", "requested_distance_km": 12.0, "start_source": "nwissite", "start_id": "USGS-02399200", "geometry_length_km": 0.092319677665186173 }, "geometry": { "type": "LineString", "coordinates": [ [ -85.672130503, 34.351809695 ], [ -85.672185406, 34.350985199 ] ] } },
{ "type": "Feature", "properties": { "site_no": "02399200", "nhdplus_comid": "15820799", "navigation_mode": "UM", "requested_distance_km": 12.0, "start_source": "nwissite", "start_id": "USGS-02399200", "geometry_length_km": 1.76356089484296 }, "geometry": { "type": "LineString", "coordinates": [ [ -85.661393002, 34.362714499 ], [ -85.662000604, 34.362714395 ], [ -85.662773803, 34.362576798 ], [ -85.6641545, 34.361912198 ], [ -85.666694202, 34.359712794 ], [ -85.668406002, 34.358589999 ], [ -85.668902606, 34.3577196 ], [ -85.668874204, 34.356047697 ], [ -85.668735802, 34.355498098 ], [ -85.668570101, 34.355315 ], [ -85.668569602, 34.354490399 ], [ -85.668652207, 34.354169697 ], [ -85.669011205, 34.353940599 ], [ -85.670198604, 34.353619598 ], [ -85.671358101, 34.353115298 ], [ -85.6717996, 34.352634296 ], [ -85.672130503, 34.351809695 ] ] } }
]
}
