{
"type": "FeatureCollection",
"name": "USGS_02450200_DM_12km",
"crs": { "type": "name", "properties": { "name": "urn:ogc:def:crs:OGC:1.3:CRS84" } },
"features": [
{ "type": "Feature", "properties": { "site_no": "02450200", "nhdplus_comid": "18591336", "navigation_mode": "DM", "requested_distance_km": 12.0, "start_source": "nwissite", "start_id": "USGS-02450200", "geometry_length_km": 0.95877892615212834 }, "geometry": { "type": "LineString", "coordinates": [ [ -87.003605073, 33.953011618 ], [ -87.003639206, 33.953021899 ], [ -87.005289204, 33.952588193 ], [ -87.005949706, 33.9520391 ], [ -87.006829605, 33.951925397 ], [ -87.007653803, 33.952246897 ], [ -87.007956102, 33.952269994 ], [ -87.008643605, 33.952041596 ], [ -87.009304002, 33.951561093 ], [ -87.011394203, 33.950761296 ], [ -87.012879506, 33.9500755 ] ] } },
{ "type": "Feature", "properties": { "site_no": "02450200", "nhdplus_comid": "18591354", "navigation_mode": "DM", "requested_distance_km": 12.0, "start_source": "nwissite", "start_id": "USGS-02450200", "geometry_length_km": 0.90799027122655285 }, "geometry": { "type": "LineString", "coordinates": [ [ -87.012879506, 33.9500755 ], [ -87.013677306, 33.949526399 ], [ -87.013732605, 33.949320197 ], [ -87.013623007, 33.949136898 ], [ -87.013733305, 33.948770396 ], [ -87.014201403, 33.948106498 ], [ -87.015687406, 33.946801998 ], [ -87.015715204, 33.9465959 ], [ -87.015248902, 33.945747897 ], [ -87.014921203, 33.944120996 ], [ -87.014756501, 33.9439146 ], [ -87.014592201, 33.9434563 ], [ -87.0146202, 33.943043999 ] ] } },
{ "type": "Feature", "properties": { "site_no": "02450200", "nhdplus_comid": "18591378", "navigation_mode": "DM", "requested_distance_km": 12.0, "start_source": "nwissite", "start_id": "USGS-02450200", "geometry_length_km": 1.1971148306899448 }, "geometry": { "type": "LineString", "coordinates": [ [ -87.0146202, 33.943043999 ], [ -87.0145109, 33.942562796 ], [ -87.014016606, 33.942104198 ], [ -87.013907, 33.941829294 ], [ -87.013166301, 33.940751798 ], [ -87.013084404, 33.940293498 ], [ -87.012919903, 33.939995497 ], [ -87.012783304, 33.939331099 ], [ -87.012316801, 33.938757993 ], [ -87.012317806, 33.938024998 ], [ -87.012208305, 33.937681094 ], [ -87.0117414, 33.937382899 ], [ -87.011385106, 33.936580695 ], [ -87.011138007, 33.936374299 ], [ -87.010726005, 33.936236493 ], [ -87.010259204, 33.935823798 ], [ -87.010094903, 33.9354342 ], [ -87.009628206, 33.935044095 ], [ -87.008694105, 33.934837095 ], [ -87.008227304, 33.934470199 ] ] } },
{ "type": "Feature", "properties": { "site_no": "02450200", "nhdplus_comid": "18591408", "navigation_mode": "DM", "requested_distance_km": 12.0, "start_source": "nwissite", "start_id": "USGS-02450200", "geometry_length_km": 2.7202727949290351 }, "geometry": { "type": "LineString", "coordinates": [ [ -87.008227304, 33.934470199 ], [ -87.008173905, 33.933324695 ], [ -87.007844903, 33.932751596 ], [ -87.007845104, 33.932568394 ], [ -87.008999705, 33.932340398 ], [ -87.009082206, 33.932248794 ], [ -87.009082802, 33.931767695 ], [ -87.0088908, 33.931515597 ], [ -87.008478902, 33.931217298 ], [ -87.006913401, 33.930505693 ], [ -87.006391905, 33.930046998 ], [ -87.0063373, 33.929749094 ], [ -87.0065303, 33.929291196 ], [ -87.007906504, 33.927734599 ], [ -87.007989705, 33.927230693 ], [ -87.008319803, 33.926887393 ], [ -87.009557702, 33.925926395 ], [ -87.010025203, 33.925697796 ], [ -87.011537105, 33.925355598 ], [ -87.011977106, 33.925103895 ], [ -87.012307301, 33.924806394 ], [ -87.012692802, 33.924256898 ], [ -87.0128313, 33.923340797 ], [ -87.012941405, 33.9232492 ], [ -87.013793506, 33.923043795 ], [ -87.013903603, 33.922929399 ], [ -87.013958901, 33.922608696 ], [ -87.013602905, 33.921646297 ], [ -87.013246, 33.921439797 ], [ -87.012669004, 33.921370499 ], [ -87.009920001, 33.922100894 ], [ -87.0091784, 33.921825297 ], [ -87.008876503, 33.921573095 ], [ -87.007834807, 33.9197165 ], [ -87.007670105, 33.919624597 ] ] } },
{ "type": "Feature", "properties": { "site_no": "02450200", "nhdplus_comid": "18591442", "navigation_mode": "DM", "requested_distance_km": 12.0, "start_source": "nwissite", "start_id": "USGS-02450200", "geometry_length_km": 1.997121602650443 }, "geometry": { "type": "LineString", "coordinates": [ [ -87.007670105, 33.919624597 ], [ -87.007642902, 33.919395499 ], [ -87.0071766, 33.918776594 ], [ -87.006819703, 33.9184784 ], [ -87.004678205, 33.9172621 ], [ -87.004239105, 33.916895196 ], [ -87.003279202, 33.915450998 ], [ -87.002731703, 33.914052993 ], [ -87.002705306, 33.913296893 ], [ -87.003449805, 33.911350496 ], [ -87.003781401, 33.909999095 ], [ -87.004001506, 33.909770295 ], [ -87.004441403, 33.909610398 ], [ -87.004661404, 33.9094273 ], [ -87.0046895, 33.908946097 ], [ -87.002823301, 33.907478198 ], [ -87.001890704, 33.906354696 ], [ -87.001588807, 33.9061253 ], [ -87.000001505, 33.906032093 ] ] } },
{ "type": "Feature", "properties": { "site_no": "02450200", "nhdplus_comid": "18590596", "navigation_mode": "DM", "requested_distance_km": 12.0, "start_source": "nwissite", "start_id": "USGS-02450200", "geometry_length_km": 1.0384656940555221 }, "geometry": { "type": "LineString", "coordinates": [ [ -87.000001505, 33.906032093 ], [ -86.999402806, 33.905757695 ], [ -86.998852603, 33.905231394 ], [ -86.998631805, 33.904590197 ], [ -86.998301603, 33.9042468 ], [ -86.998054303, 33.904178396 ], [ -86.997230202, 33.904270798 ], [ -86.9969832, 33.904431395 ], [ -86.9967639, 33.904775195 ], [ -86.996023007, 33.905486099 ], [ -86.9953641, 33.905761696 ], [ -86.994292803, 33.905968897 ], [ -86.990721405, 33.906155594 ] ] } },
{ "type": "Feature", "properties": { "site_no": "02450200", "nhdplus_comid": "18590610", "navigation_mode": "DM", "requested_distance_km": 12.0, "start_source": "nwissite", "start_id": "USGS-02450200", "geometry_length_km": 2.2479045384297986 }, "geometry": { "type": "LineString", "coordinates": [ [ -86.990721405, 33.906155594 ], [ -86.9906388, 33.906041093 ], [ -86.990610801, 33.905651696 ], [ -86.990087703, 33.904804498 ], [ -86.990086801, 33.904162996 ], [ -86.990304805, 33.902834095 ], [ -86.990194201, 33.902330294 ], [ -86.989753507, 33.901528798 ], [ -86.989065707, 33.900842093 ], [ -86.987278305, 33.899560899 ], [ -86.986398704, 33.899172194 ], [ -86.9860688, 33.898943394 ], [ -86.985875502, 33.8981876 ], [ -86.9855178, 33.897729695 ], [ -86.985050701, 33.897707194 ], [ -86.984446906, 33.898142993 ], [ -86.9839525, 33.898234993 ], [ -86.982578002, 33.897571996 ], [ -86.981616102, 33.8972978 ], [ -86.9813141, 33.8974813 ], [ -86.981314406, 33.897641696 ], [ -86.982139602, 33.898442894 ], [ -86.982085206, 33.898878098 ], [ -86.981865503, 33.898992896 ], [ -86.981426105, 33.899016194 ], [ -86.981178604, 33.898901798 ], [ -86.980848603, 33.898604296 ], [ -86.980820902, 33.898420997 ], [ -86.980270207, 33.897482194 ], [ -86.979582705, 33.896864198 ], [ -86.9788398, 33.895948596 ] ] } },
{ "type": "Feature", "properties": { "site_no": "02450200", "nhdplus_comid": "18590620", "navigation_mode": "DM", "requested_distance_km": 12.0, "start_source": "nwissite", "start_id": "USGS-02450200", "geometry_length_km": 1.4175657229554026 }, "geometry": { "type": "LineString", "coordinates": [ [ -86.9788398, 33.895948596 ], [ -86.978674501, 33.895513393 ], [ -86.978316903, 33.895078294 ], [ -86.977409303, 33.8941857 ], [ -86.976089604, 33.893339097 ], [ -86.975869305, 33.892926998 ], [ -86.975868903, 33.8925834 ], [ -86.976718307, 33.890818596 ], [ -86.976745203, 33.890268795 ], [ -86.976607502, 33.889970995 ], [ -86.976579703, 33.889650397 ], [ -86.977293402, 33.889283299 ], [ -86.977293104, 33.889031298 ], [ -86.975918502, 33.888024293 ], [ -86.974901706, 33.887750193 ], [ -86.973610505, 33.887567997 ], [ -86.972676001, 33.887156397 ] ] } }
]
}
