{
"type": "FeatureCollection",
"name": "USGS_02398400_UM_12km",
"crs": { "type": "name", "properties": { "name": "urn:ogc:def:crs:OGC:1.3:CRS84" } },
"features": [
{ "type": "Feature", "properties": { "site_no": "02398400", "nhdplus_comid": "15822925", "navigation_mode": "UM", "requested_distance_km": 12.0, "start_source": "nwissite", "start_id": "USGS-02398400", "geometry_length_km": 0.22300979982533781 }, "geometry": { "type": "LineString", "coordinates": [ [ -85.508879803, 34.292305999 ], [ -85.509102404, 34.291023694 ], [ -85.509324007, 34.2904284 ], [ -85.509391318, 34.290373958 ] ] } },
{ "type": "Feature", "properties": { "site_no": "02398400", "nhdplus_comid": "15822921", "navigation_mode": "UM", "requested_distance_km": 12.0, "start_source": "nwissite", "start_id": "USGS-02398400", "geometry_length_km": 1.5879944010417597 }, "geometry": { "type": "LineString", "coordinates": [ [ -85.495028004, 34.300235696 ], [ -85.495523706, 34.299479395 ], [ -85.496295303, 34.298745893 ], [ -85.497067206, 34.298218399 ], [ -85.499962807, 34.2969101 ], [ -85.501147404, 34.296603799 ], [ -85.503576405, 34.2961253 ], [ -85.505758107, 34.294868 ], [ -85.508879803, 34.292305999 ] ] } },
{ "type": "Feature", "properties": { "site_no": "02398400", "nhdplus_comid": "15821033", "navigation_mode": "UM", "requested_distance_km": 12.0, "start_source": "nwissite", "start_id": "USGS-02398400", "geometry_length_km": 1.9787909403457105 }, "geometry": { "type": "LineString", "coordinates": [ [ -85.478675403, 34.309937596 ], [ -85.479503103, 34.309639193 ], [ -85.479971707, 34.309249498 ], [ -85.480936207, 34.308057897 ], [ -85.482010603, 34.306499697 ], [ -85.483278304, 34.305101596 ], [ -85.485098407, 34.303954899 ], [ -85.486560002, 34.303174898 ], [ -85.487691, 34.302853294 ], [ -85.488767006, 34.302714899 ], [ -85.490450807, 34.303011097 ], [ -85.491527103, 34.3029643 ], [ -85.493071303, 34.302138396 ], [ -85.494036101, 34.301312998 ], [ -85.495028004, 34.300235696 ] ] } },
{ "type": "Feature", "properties": { "site_no": "02398400", "nhdplus_comid": "15820981", "navigation_mode": "UM", "requested_distance_km": 12.0, "start_source": "nwissite", "start_id": "USGS-02398400", "geometry_length_km": 0.42436456776934667 }, "geometry": { "type": "LineString", "coordinates": [ [ -85.474565104, 34.311521098 ], [ -85.475475006, 34.310810499 ], [ -85.477185503, 34.3102137 ], [ -85.478675403, 34.309937596 ] ] } },
{ "type": "Feature", "properties": { "site_no": "02398400", "nhdplus_comid": "15820971", "navigation_mode": "UM", "requested_distance_km": 12.0, "start_source": "nwissite", "start_id": "USGS-02398400", "geometry_length_km": 1.9611801189733655 }, "geometry": { "type": "LineString", "coordinates": [ [ -85.455221303, 34.315015994 ], [ -85.456186801, 34.314557299 ], [ -85.457704604, 34.314350195 ], [ -85.460795701, 34.314141996 ], [ -85.464604303, 34.314093597 ], [ -85.469738603, 34.314593695 ], [ -85.4707046, 34.314615898 ], [ -85.471946307, 34.314362995 ], [ -85.472498104, 34.314156495 ], [ -85.473104902, 34.313766599 ], [ -85.474565104, 34.311521098 ] ] } },
{ "type": "Feature", "properties": { "site_no": "02398400", "nhdplus_comid": "15820951", "navigation_mode": "UM", "requested_distance_km": 12.0, "start_source": "nwissite", "start_id": "USGS-02398400", "geometry_length_km": 1.2256702196113625 }, "geometry": { "type": "LineString", "coordinates": [ [ -85.451366305, 34.325415395 ], [ -85.451365903, 34.324980393 ], [ -85.451669, 34.324338898 ], [ -85.452937007, 34.322277099 ], [ -85.453707404, 34.319620095 ], [ -85.453789502, 34.318887196 ], [ -85.454339601, 34.316711299 ], [ -85.454725206, 34.315840699 ], [ -85.455221303, 34.315015994 ] ] } },
{ "type": "Feature", "properties": { "site_no": "02398400", "nhdplus_comid": "15820897", "navigation_mode": "UM", "requested_distance_km": 12.0, "start_source": "nwissite", "start_id": "USGS-02398400", "geometry_length_km": 0.80358535579295498 }, "geometry": { "type": "LineString", "coordinates": [ [ -85.449302003, 34.332309999 ], [ -85.450376704, 34.330202393 ], [ -85.451258101, 34.328026295 ], [ -85.451366305, 34.325415395 ] ] } },
{ "type": "Feature", "properties": { "site_no": "02398400", "nhdplus_comid": "15820865", "navigation_mode": "UM", "requested_distance_km": 12.0, "start_source": "nwissite", "start_id": "USGS-02398400", "geometry_length_km": 0.50413023231342824 }, "geometry": { "type": "LineString", "coordinates": [ [ -85.445853904, 34.3356096 ], [ -85.447289005, 34.334990494 ], [ -85.447951101, 34.334486395 ], [ -85.4485026, 34.333753198 ], [ -85.449302003, 34.332309999 ] ] } },
{ "type": "Feature", "properties": { "site_no": "02398400", "nhdplus_comid": "15820849", "navigation_mode": "UM", "requested_distance_km": 12.0, "start_source": "nwissite", "start_id": "USGS-02398400", "geometry_length_km": 0.59827494759848332 }, "geometry": { "type": "LineString", "coordinates": [ [ -85.439947605, 34.337742597 ], [ -85.442404002, 34.336825199 ], [ -85.443480104, 34.336114697 ], [ -85.444170006, 34.335862495 ], [ -85.445853904, 34.3356096 ] ] } },
{ "type": "Feature", "properties": { "site_no": "02398400", "nhdplus_comid": "15820841", "navigation_mode": "UM", "requested_distance_km": 12.0, "start_source": "nwissite", "start_id": "USGS-02398400", "geometry_length_km": 1.7040491821236288 }, "geometry": { "type": "LineString", "coordinates": [ [ -85.433246903, 34.350203797 ], [ -85.433412105, 34.349379398 ], [ -85.433936305, 34.348669194 ], [ -85.437137403, 34.346171498 ], [ -85.438268602, 34.345002994 ], [ -85.438792802, 34.344338596 ], [ -85.4388474, 34.343445398 ], [ -85.438155703, 34.341499195 ], [ -85.437547505, 34.340331495 ], [ -85.437519401, 34.339575797 ], [ -85.437684804, 34.339323796 ], [ -85.438816004, 34.338338494 ], [ -85.439947605, 34.337742597 ] ] } },
{ "type": "Feature", "properties": { "site_no": "02398400", "nhdplus_comid": "15820789", "navigation_mode": "UM", "requested_distance_km": 12.0, "start_source": "nwissite", "start_id": "USGS-02398400", "geometry_length_km": 0.67942124502424051 }, "geometry": { "type": "LineString", "coordinates": [ [ -85.432808407, 34.3552652 ], [ -85.433360606, 34.355219096 ], [ -85.434023201, 34.354966894 ], [ -85.434437104, 34.354485795 ], [ -85.434464402, 34.353958994 ], [ -85.434325904, 34.353409499 ], [ -85.433828302, 34.352402098 ], [ -85.433745205, 34.352035694 ], [ -85.4335794, 34.3518067 ], [ -85.433246903, 34.350203797 ] ] } },
{ "type": "Feature", "properties": { "site_no": "02398400", "nhdplus_comid": "15820775", "navigation_mode": "UM", "requested_distance_km": 12.0, "start_source": "nwissite", "start_id": "USGS-02398400", "geometry_length_km": 4.8540739006185065 }, "geometry": { "type": "LineString", "coordinates": [ [ -85.411501005, 34.381379396 ], [ -85.4118874, 34.380440399 ], [ -85.413819507, 34.3771879 ], [ -85.414482102, 34.376294598 ], [ -85.415282801, 34.375676095 ], [ -85.416332103, 34.375126198 ], [ -85.420777902, 34.373155296 ], [ -85.421247207, 34.372674294 ], [ -85.421274602, 34.372124597 ], [ -85.421053402, 34.371712394 ], [ -85.4197824, 34.370750993 ], [ -85.419064105, 34.370361999 ], [ -85.4176827, 34.3691945 ], [ -85.416936703, 34.368278593 ], [ -85.416687906, 34.367797896 ], [ -85.416659907, 34.366950497 ], [ -85.417101406, 34.366080098 ], [ -85.418067604, 34.365209594 ], [ -85.418067001, 34.364202 ], [ -85.418508701, 34.363743894 ], [ -85.418840006, 34.363560498 ], [ -85.421380505, 34.363147497 ], [ -85.422844104, 34.363055393 ], [ -85.424998201, 34.363352299 ], [ -85.426047601, 34.363397695 ], [ -85.426655002, 34.363008097 ], [ -85.426710002, 34.362550095 ], [ -85.4265441, 34.362252496 ], [ -85.426240303, 34.362046495 ], [ -85.425052501, 34.361543193 ], [ -85.424555101, 34.361039497 ], [ -85.424361505, 34.360375494 ], [ -85.424333304, 34.359321997 ], [ -85.424471103, 34.358886793 ], [ -85.4248024, 34.3586348 ], [ -85.426541805, 34.357947193 ], [ -85.427480206, 34.357213899 ], [ -85.428390801, 34.356137194 ], [ -85.429218903, 34.355518594 ], [ -85.429798506, 34.355243497 ], [ -85.430875406, 34.355197296 ], [ -85.432808407, 34.3552652 ] ] } }
]
}
