{
"type": "FeatureCollection",
"name": "USGS_03572690_UM_12km",
"crs": { "type": "name", "properties": { "name": "urn:ogc:def:crs:OGC:1.3:CRS84" } },
"features": [
{ "type": "Feature", "properties": { "site_no": "03572690", "nhdplus_comid": "19647854", "navigation_mode": "UM", "requested_distance_km": 12.0, "start_source": "nwissite", "start_id": "USGS-03572690", "geometry_length_km": 1.0919616435806407 }, "geometry": { "type": "LineString", "coordinates": [ [ -85.922020003, 34.493834697 ], [ -85.923126303, 34.494131997 ], [ -85.924066201, 34.495002098 ], [ -85.924756207, 34.4965363 ], [ -85.9250587, 34.498208299 ], [ -85.925224304, 34.498528793 ], [ -85.925777204, 34.499078393 ], [ -85.926828206, 34.499398597 ], [ -85.927851707, 34.499214999 ], [ -85.929510378, 34.498549826 ] ] } },
{ "type": "Feature", "properties": { "site_no": "03572690", "nhdplus_comid": "19647860", "navigation_mode": "UM", "requested_distance_km": 12.0, "start_source": "nwissite", "start_id": "USGS-03572690", "geometry_length_km": 1.4893870789394625 }, "geometry": { "type": "LineString", "coordinates": [ [ -85.917256206, 34.500101797 ], [ -85.916315705, 34.499699697 ], [ -85.915928401, 34.4993563 ], [ -85.9157627, 34.498966999 ], [ -85.9156534, 34.496607997 ], [ -85.915570401, 34.496539295 ], [ -85.915543102, 34.496264398 ], [ -85.9150462, 34.495165095 ], [ -85.9149644, 34.494248994 ], [ -85.915158704, 34.493676394 ], [ -85.915491104, 34.493378498 ], [ -85.916819103, 34.492897198 ], [ -85.917731903, 34.492805295 ], [ -85.918645106, 34.493469298 ], [ -85.919115402, 34.493675299 ], [ -85.9203602, 34.493858099 ], [ -85.921494402, 34.4939036 ], [ -85.922020003, 34.493834697 ] ] } },
{ "type": "Feature", "properties": { "site_no": "03572690", "nhdplus_comid": "19645962", "navigation_mode": "UM", "requested_distance_km": 12.0, "start_source": "nwissite", "start_id": "USGS-03572690", "geometry_length_km": 2.677287690906256 }, "geometry": { "type": "LineString", "coordinates": [ [ -85.898632802, 34.511845395 ], [ -85.898743503, 34.511868298 ], [ -85.899435103, 34.511249796 ], [ -85.900292501, 34.509875394 ], [ -85.900569201, 34.509623393 ], [ -85.901288703, 34.509462893 ], [ -85.903613307, 34.509279199 ], [ -85.904222205, 34.509004198 ], [ -85.904637404, 34.508614793 ], [ -85.905966006, 34.505659796 ], [ -85.906602502, 34.504514493 ], [ -85.906851605, 34.504331194 ], [ -85.907599203, 34.504170693 ], [ -85.908153102, 34.504743099 ], [ -85.908374704, 34.505132399 ], [ -85.908679307, 34.505361296 ], [ -85.909371205, 34.505567297 ], [ -85.909980305, 34.505246393 ], [ -85.910312407, 34.504834093 ], [ -85.910395205, 34.503505699 ], [ -85.910533503, 34.503024697 ], [ -85.9111147, 34.502772599 ], [ -85.912886001, 34.502474293 ], [ -85.913937405, 34.502130397 ], [ -85.914905503, 34.501511596 ], [ -85.9163168, 34.501396693 ], [ -85.9174233, 34.501121499 ], [ -85.917699806, 34.500823699 ], [ -85.9175888, 34.500480093 ], [ -85.917256206, 34.500101797 ] ] } },
{ "type": "Feature", "properties": { "site_no": "03572690", "nhdplus_comid": "19645928", "navigation_mode": "UM", "requested_distance_km": 12.0, "start_source": "nwissite", "start_id": "USGS-03572690", "geometry_length_km": 3.0898342189227268 }, "geometry": { "type": "LineString", "coordinates": [ [ -85.8781588, 34.525841497 ], [ -85.880372606, 34.524696298 ], [ -85.880538605, 34.524444394 ], [ -85.880427703, 34.522474699 ], [ -85.880621403, 34.521810494 ], [ -85.880953401, 34.521169193 ], [ -85.881534405, 34.520894393 ], [ -85.882143207, 34.520779796 ], [ -85.883416101, 34.520733893 ], [ -85.884080306, 34.521100298 ], [ -85.886045203, 34.522565998 ], [ -85.886405006, 34.522955298 ], [ -85.886847705, 34.523275897 ], [ -85.887622602, 34.523596399 ], [ -85.888010003, 34.523596399 ], [ -85.888369702, 34.523458995 ], [ -85.888757102, 34.5231383 ], [ -85.889144406, 34.522244997 ], [ -85.890250906, 34.5204584 ], [ -85.890831903, 34.519954495 ], [ -85.892907001, 34.519038096 ], [ -85.893349707, 34.518419594 ], [ -85.894649804, 34.516953498 ], [ -85.8956732, 34.515235595 ], [ -85.897664703, 34.512738794 ], [ -85.898439206, 34.512120299 ], [ -85.898632802, 34.511845395 ] ] } },
{ "type": "Feature", "properties": { "site_no": "03572690", "nhdplus_comid": "19645904", "navigation_mode": "UM", "requested_distance_km": 12.0, "start_source": "nwissite", "start_id": "USGS-03572690", "geometry_length_km": 0.79435934097824179 }, "geometry": { "type": "LineString", "coordinates": [ [ -85.872015402, 34.524742194 ], [ -85.872762606, 34.524261199 ], [ -85.873343706, 34.523688599 ], [ -85.873648107, 34.5235283 ], [ -85.874395207, 34.523642898 ], [ -85.874754906, 34.523871899 ], [ -85.874976307, 34.524398699 ], [ -85.875363804, 34.525635399 ], [ -85.875862002, 34.526001796 ], [ -85.876277007, 34.526116394 ], [ -85.877328701, 34.526024796 ], [ -85.8781588, 34.525841497 ] ] } },
{ "type": "Feature", "properties": { "site_no": "03572690", "nhdplus_comid": "19645902", "navigation_mode": "UM", "requested_distance_km": 12.0, "start_source": "nwissite", "start_id": "USGS-03572690", "geometry_length_km": 0.55968071089919524 }, "geometry": { "type": "LineString", "coordinates": [ [ -85.866702102, 34.526093096 ], [ -85.867753804, 34.525085494 ], [ -85.869026802, 34.524787799 ], [ -85.870548703, 34.5251543 ], [ -85.871517301, 34.525062695 ], [ -85.872015402, 34.524742194 ] ] } },
{ "type": "Feature", "properties": { "site_no": "03572690", "nhdplus_comid": "19645896", "navigation_mode": "UM", "requested_distance_km": 12.0, "start_source": "nwissite", "start_id": "USGS-03572690", "geometry_length_km": 0.54283284461732872 }, "geometry": { "type": "LineString", "coordinates": [ [ -85.862384707, 34.529024296 ], [ -85.862523101, 34.528749496 ], [ -85.862993605, 34.528428897 ], [ -85.8655397, 34.527581796 ], [ -85.866010204, 34.527329795 ], [ -85.866702102, 34.526093096 ] ] } },
{ "type": "Feature", "properties": { "site_no": "03572690", "nhdplus_comid": "19645890", "navigation_mode": "UM", "requested_distance_km": 12.0, "start_source": "nwissite", "start_id": "USGS-03572690", "geometry_length_km": 1.413649754836122 }, "geometry": { "type": "LineString", "coordinates": [ [ -85.858314902, 34.537955999 ], [ -85.858287305, 34.5374064 ], [ -85.858591907, 34.536879696 ], [ -85.858647503, 34.535551295 ], [ -85.858924307, 34.534795396 ], [ -85.859173402, 34.534543596 ], [ -85.859893106, 34.534474999 ], [ -85.860252902, 34.534681097 ], [ -85.860861607, 34.535253793 ], [ -85.861387402, 34.535322696 ], [ -85.861747302, 34.535093695 ], [ -85.861996502, 34.534589797 ], [ -85.862107202, 34.533948496 ], [ -85.8615539, 34.532734498 ], [ -85.861360304, 34.531841293 ], [ -85.8617201, 34.531222895 ], [ -85.862190701, 34.530993998 ], [ -85.862439804, 34.530696198 ], [ -85.862384707, 34.529024296 ] ] } },
{ "type": "Feature", "properties": { "site_no": "03572690", "nhdplus_comid": "19645866", "navigation_mode": "UM", "requested_distance_km": 12.0, "start_source": "nwissite", "start_id": "USGS-03572690", "geometry_length_km": 0.58506002424458137 }, "geometry": { "type": "LineString", "coordinates": [ [ -85.858756803, 34.5429032 ], [ -85.8587294, 34.541002199 ], [ -85.858812504, 34.540360995 ], [ -85.859117202, 34.539902896 ], [ -85.859200202, 34.539467797 ], [ -85.859117202, 34.539444894 ], [ -85.859117202, 34.539330393 ], [ -85.858536206, 34.538597398 ], [ -85.858314902, 34.537955999 ] ] } }
]
}
