{
"type": "FeatureCollection",
"name": "USGS_02371000_UM_12km",
"crs": { "type": "name", "properties": { "name": "urn:ogc:def:crs:OGC:1.3:CRS84" } },
"features": [
{ "type": "Feature", "properties": { "site_no": "02371000", "nhdplus_comid": "2376083", "navigation_mode": "UM", "requested_distance_km": 12.0, "start_source": "nwissite", "start_id": "USGS-02371000", "geometry_length_km": 0.37209074998246633 }, "geometry": { "type": "LineString", "coordinates": [ [ -85.992738806, 31.846684799 ], [ -85.992979705, 31.846134596 ], [ -85.993086204, 31.845447198 ], [ -85.993434705, 31.844988599 ], [ -85.993917406, 31.844804794 ], [ -85.995044902, 31.844689094 ], [ -85.995157793, 31.844641316 ] ] } },
{ "type": "Feature", "properties": { "site_no": "02371000", "nhdplus_comid": "2376081", "navigation_mode": "UM", "requested_distance_km": 12.0, "start_source": "nwissite", "start_id": "USGS-02371000", "geometry_length_km": 0.46513655467162157 }, "geometry": { "type": "LineString", "coordinates": [ [ -85.988445707, 31.848177999 ], [ -85.988579504, 31.847948797 ], [ -85.989544906, 31.847099997 ], [ -85.990135401, 31.847007796 ], [ -85.9919874, 31.846868694 ], [ -85.992738806, 31.846684799 ] ] } },
{ "type": "Feature", "properties": { "site_no": "02371000", "nhdplus_comid": "2376077", "navigation_mode": "UM", "requested_distance_km": 12.0, "start_source": "nwissite", "start_id": "USGS-02371000", "geometry_length_km": 0.35901870636619843 }, "geometry": { "type": "LineString", "coordinates": [ [ -85.985387504, 31.849921994 ], [ -85.985655807, 31.849830195 ], [ -85.986084707, 31.849279895 ], [ -85.986486904, 31.848935798 ], [ -85.988016203, 31.848247096 ], [ -85.988445707, 31.848177999 ] ] } },
{ "type": "Feature", "properties": { "site_no": "02371000", "nhdplus_comid": "2376373", "navigation_mode": "UM", "requested_distance_km": 12.0, "start_source": "nwissite", "start_id": "USGS-02371000", "geometry_length_km": 1.2747535514850901 }, "geometry": { "type": "LineString", "coordinates": [ [ -85.975700401, 31.853504494 ], [ -85.975646406, 31.853252493 ], [ -85.9758607, 31.852748193 ], [ -85.976504207, 31.852106199 ], [ -85.976664901, 31.851693593 ], [ -85.977094002, 31.851280794 ], [ -85.977416001, 31.851143099 ], [ -85.977764904, 31.851096995 ], [ -85.978194103, 31.850844599 ], [ -85.978757806, 31.850683793 ], [ -85.9790259, 31.850477397 ], [ -85.979508303, 31.849674895 ], [ -85.9811185, 31.849261194 ], [ -85.981628306, 31.849008694 ], [ -85.982137501, 31.8483897 ], [ -85.982540101, 31.848251797 ], [ -85.983749405, 31.849373594 ], [ -85.984286502, 31.849670999 ], [ -85.985387504, 31.849921994 ] ] } },
{ "type": "Feature", "properties": { "site_no": "02371000", "nhdplus_comid": "2376059", "navigation_mode": "UM", "requested_distance_km": 12.0, "start_source": "nwissite", "start_id": "USGS-02371000", "geometry_length_km": 0.27744524868629944 }, "geometry": { "type": "LineString", "coordinates": [ [ -85.973822802, 31.854972497 ], [ -85.975352407, 31.854444295 ], [ -85.975701205, 31.854237698 ], [ -85.975700401, 31.853504494 ] ] } },
{ "type": "Feature", "properties": { "site_no": "02371000", "nhdplus_comid": "2376371", "navigation_mode": "UM", "requested_distance_km": 12.0, "start_source": "nwissite", "start_id": "USGS-02371000", "geometry_length_km": 0.48653787430855044 }, "geometry": { "type": "LineString", "coordinates": [ [ -85.969285704, 31.854907095 ], [ -85.970198505, 31.854883499 ], [ -85.970762603, 31.8552268 ], [ -85.971541204, 31.855340697 ], [ -85.972104803, 31.855225794 ], [ -85.9729366, 31.854743995 ], [ -85.9736076, 31.854651898 ], [ -85.973741904, 31.854674697 ], [ -85.973822802, 31.854972497 ] ] } },
{ "type": "Feature", "properties": { "site_no": "02371000", "nhdplus_comid": "2376055", "navigation_mode": "UM", "requested_distance_km": 12.0, "start_source": "nwissite", "start_id": "USGS-02371000", "geometry_length_km": 0.63039859198195136 }, "geometry": { "type": "LineString", "coordinates": [ [ -85.965207405, 31.857224293 ], [ -85.965556204, 31.856971994 ], [ -85.965770803, 31.856742695 ], [ -85.965823904, 31.856238596 ], [ -85.966359906, 31.855207093 ], [ -85.966681905, 31.855069399 ], [ -85.967218705, 31.855000295 ], [ -85.967379905, 31.855114698 ], [ -85.967460804, 31.855481297 ], [ -85.967622004, 31.855687298 ], [ -85.968159005, 31.855778694 ], [ -85.968534507, 31.855320096 ], [ -85.969151601, 31.855021797 ], [ -85.969285704, 31.854907095 ] ] } },
{ "type": "Feature", "properties": { "site_no": "02371000", "nhdplus_comid": "2376367", "navigation_mode": "UM", "requested_distance_km": 12.0, "start_source": "nwissite", "start_id": "USGS-02371000", "geometry_length_km": 0.93870638690297681 }, "geometry": { "type": "LineString", "coordinates": [ [ -85.9569683, 31.860460594 ], [ -85.957343705, 31.859795794 ], [ -85.958068304, 31.859520495 ], [ -85.958658904, 31.859405495 ], [ -85.959571704, 31.859381996 ], [ -85.960081607, 31.859244093 ], [ -85.961584903, 31.859174393 ], [ -85.963597804, 31.858348198 ], [ -85.964832507, 31.858209893 ], [ -85.965073906, 31.857934795 ], [ -85.965207405, 31.857224293 ] ] } },
{ "type": "Feature", "properties": { "site_no": "02371000", "nhdplus_comid": "2376037", "navigation_mode": "UM", "requested_distance_km": 12.0, "start_source": "nwissite", "start_id": "USGS-02371000", "geometry_length_km": 0.71213641106165315 }, "geometry": { "type": "LineString", "coordinates": [ [ -85.951762706, 31.863900699 ], [ -85.951789401, 31.863786094 ], [ -85.952111602, 31.863694295 ], [ -85.952433906, 31.863854498 ], [ -85.952702403, 31.863854393 ], [ -85.952809602, 31.863648094 ], [ -85.952862903, 31.8632586 ], [ -85.953292407, 31.863029197 ], [ -85.953507006, 31.862799898 ], [ -85.9534797, 31.862387493 ], [ -85.953774907, 31.862203993 ], [ -85.954633802, 31.861859694 ], [ -85.955009505, 31.861538693 ], [ -85.955277503, 31.861080296 ], [ -85.955545805, 31.860828094 ], [ -85.9563509, 31.860506795 ], [ -85.9569683, 31.860460594 ] ] } },
{ "type": "Feature", "properties": { "site_no": "02371000", "nhdplus_comid": "2376359", "navigation_mode": "UM", "requested_distance_km": 12.0, "start_source": "nwissite", "start_id": "USGS-02371000", "geometry_length_km": 1.6611561298945696 }, "geometry": { "type": "LineString", "coordinates": [ [ -85.9430684, 31.870137997 ], [ -85.943551503, 31.870068997 ], [ -85.943712704, 31.870000198 ], [ -85.943658605, 31.869518995 ], [ -85.943953902, 31.869358495 ], [ -85.944893606, 31.869380899 ], [ -85.945108302, 31.869289197 ], [ -85.945564501, 31.868899398 ], [ -85.947255604, 31.868233897 ], [ -85.947631501, 31.868233696 ], [ -85.948142007, 31.868783295 ], [ -85.948517904, 31.868783198 ], [ -85.948786207, 31.868576795 ], [ -85.948812805, 31.868324697 ], [ -85.948409803, 31.867935397 ], [ -85.947765201, 31.867592096 ], [ -85.947711401, 31.867317095 ], [ -85.948006503, 31.867156595 ], [ -85.948543504, 31.8671792 ], [ -85.948946401, 31.867362298 ], [ -85.949268505, 31.867339194 ], [ -85.949375905, 31.8672475 ], [ -85.9492952, 31.866995499 ], [ -85.948972702, 31.866743594 ], [ -85.948972702, 31.866606094 ], [ -85.949455805, 31.866491295 ], [ -85.949724101, 31.866307899 ], [ -85.949723803, 31.865918294 ], [ -85.949401304, 31.865414396 ], [ -85.949293502, 31.8649562 ], [ -85.949534707, 31.864406094 ], [ -85.949829906, 31.864199795 ], [ -85.950930707, 31.864290699 ], [ -85.951762706, 31.863900699 ] ] } },
{ "type": "Feature", "properties": { "site_no": "02371000", "nhdplus_comid": "2376013", "navigation_mode": "UM", "requested_distance_km": 12.0, "start_source": "nwissite", "start_id": "USGS-02371000", "geometry_length_km": 0.50522107041800213 }, "geometry": { "type": "LineString", "coordinates": [ [ -85.939040802, 31.870094195 ], [ -85.939900003, 31.870047897 ], [ -85.940275803, 31.8699333 ], [ -85.9406249, 31.869955897 ], [ -85.941081405, 31.8700931 ], [ -85.940947302, 31.870391093 ], [ -85.940974504, 31.870734796 ], [ -85.941081904, 31.870780595 ], [ -85.9414846, 31.870711595 ], [ -85.9417798, 31.8704824 ], [ -85.942074902, 31.870138496 ], [ -85.942423806, 31.870000795 ], [ -85.9430684, 31.870137997 ] ] } },
{ "type": "Feature", "properties": { "site_no": "02371000", "nhdplus_comid": "2376019", "navigation_mode": "UM", "requested_distance_km": 12.0, "start_source": "nwissite", "start_id": "USGS-02371000", "geometry_length_km": 0.15662915587601958 }, "geometry": { "type": "LineString", "coordinates": [ [ -85.938583702, 31.869086295 ], [ -85.9383156, 31.8695447 ], [ -85.938396201, 31.869796693 ], [ -85.938476801, 31.869888298 ], [ -85.939040802, 31.870094195 ] ] } },
{ "type": "Feature", "properties": { "site_no": "02371000", "nhdplus_comid": "2376351", "navigation_mode": "UM", "requested_distance_km": 12.0, "start_source": "nwissite", "start_id": "USGS-02371000", "geometry_length_km": 1.0678797970547187 }, "geometry": { "type": "LineString", "coordinates": [ [ -85.931765601, 31.871930599 ], [ -85.932060905, 31.871976294 ], [ -85.932356402, 31.872205295 ], [ -85.932651803, 31.872159399 ], [ -85.933913305, 31.871425599 ], [ -85.934396602, 31.871356696 ], [ -85.934611507, 31.871539898 ], [ -85.934879906, 31.8715626 ], [ -85.935604706, 31.871172696 ], [ -85.935738802, 31.870989397 ], [ -85.935631305, 31.870828994 ], [ -85.934772104, 31.870898098 ], [ -85.934611, 31.870783597 ], [ -85.934610903, 31.870577395 ], [ -85.934745006, 31.870416895 ], [ -85.9366244, 31.870301597 ], [ -85.9371612, 31.870026298 ], [ -85.937483303, 31.8697742 ], [ -85.937509805, 31.869247198 ], [ -85.937670805, 31.869109593 ], [ -85.938261405, 31.868880197 ], [ -85.938583702, 31.869086295 ] ] } },
{ "type": "Feature", "properties": { "site_no": "02371000", "nhdplus_comid": "2375999", "navigation_mode": "UM", "requested_distance_km": 12.0, "start_source": "nwissite", "start_id": "USGS-02371000", "geometry_length_km": 0.43813547612329473 }, "geometry": { "type": "LineString", "coordinates": [ [ -85.929377206, 31.874337494 ], [ -85.929752901, 31.874108195 ], [ -85.930611804, 31.873420395 ], [ -85.9306117, 31.873237096 ], [ -85.930182002, 31.873031095 ], [ -85.930181906, 31.872778997 ], [ -85.930396505, 31.872549795 ], [ -85.931201905, 31.872411996 ], [ -85.931524105, 31.872251496 ], [ -85.931604505, 31.872090995 ], [ -85.931765601, 31.871930599 ] ] } },
{ "type": "Feature", "properties": { "site_no": "02371000", "nhdplus_comid": "2375983", "navigation_mode": "UM", "requested_distance_km": 12.0, "start_source": "nwissite", "start_id": "USGS-02371000", "geometry_length_km": 0.038008683174925208 }, "geometry": { "type": "LineString", "coordinates": [ [ -85.9291353, 31.874108493 ], [ -85.929242902, 31.874314696 ], [ -85.929377206, 31.874337494 ] ] } },
{ "type": "Feature", "properties": { "site_no": "02371000", "nhdplus_comid": "2376347", "navigation_mode": "UM", "requested_distance_km": 12.0, "start_source": "nwissite", "start_id": "USGS-02371000", "geometry_length_km": 0.4488104320066042 }, "geometry": { "type": "LineString", "coordinates": [ [ -85.925536402, 31.872322597 ], [ -85.926127106, 31.872368298 ], [ -85.926503003, 31.872299396 ], [ -85.926959507, 31.872253299 ], [ -85.927469701, 31.872298993 ], [ -85.929081403, 31.873650193 ], [ -85.9291353, 31.874108493 ] ] } },
{ "type": "Feature", "properties": { "site_no": "02371000", "nhdplus_comid": "2376345", "navigation_mode": "UM", "requested_distance_km": 12.0, "start_source": "nwissite", "start_id": "USGS-02371000", "geometry_length_km": 0.2046168466720524 }, "geometry": { "type": "LineString", "coordinates": [ [ -85.924274705, 31.872872993 ], [ -85.924784906, 31.872804098 ], [ -85.924892202, 31.872620694 ], [ -85.924704105, 31.872483395 ], [ -85.924677201, 31.872277096 ], [ -85.924972504, 31.872162499 ], [ -85.925536402, 31.872322597 ] ] } },
{ "type": "Feature", "properties": { "site_no": "02371000", "nhdplus_comid": "2376003", "navigation_mode": "UM", "requested_distance_km": 12.0, "start_source": "nwissite", "start_id": "USGS-02371000", "geometry_length_km": 0.23560304019946993 }, "geometry": { "type": "LineString", "coordinates": [ [ -85.922314204, 31.871796794 ], [ -85.922958702, 31.872002795 ], [ -85.923119903, 31.872254796 ], [ -85.923656903, 31.8723462 ], [ -85.923764504, 31.872552395 ], [ -85.924113601, 31.872850098 ], [ -85.924274705, 31.872872993 ] ] } },
{ "type": "Feature", "properties": { "site_no": "02371000", "nhdplus_comid": "2376001", "navigation_mode": "UM", "requested_distance_km": 12.0, "start_source": "nwissite", "start_id": "USGS-02371000", "geometry_length_km": 0.41170279486417438 }, "geometry": { "type": "LineString", "coordinates": [ [ -85.924302407, 31.8745915 ], [ -85.923792005, 31.874110498 ], [ -85.923040003, 31.873812996 ], [ -85.9222342, 31.8729655 ], [ -85.922126502, 31.872553095 ], [ -85.922394902, 31.872254997 ], [ -85.922314204, 31.871796794 ] ] } },
{ "type": "Feature", "properties": { "site_no": "02371000", "nhdplus_comid": "2375979", "navigation_mode": "UM", "requested_distance_km": 12.0, "start_source": "nwissite", "start_id": "USGS-02371000", "geometry_length_km": 0.13166120839337253 }, "geometry": { "type": "LineString", "coordinates": [ [ -85.923174903, 31.874889798 ], [ -85.924034104, 31.874958195 ], [ -85.924275607, 31.874751799 ], [ -85.924302407, 31.8745915 ] ] } },
{ "type": "Feature", "properties": { "site_no": "02371000", "nhdplus_comid": "2376341", "navigation_mode": "UM", "requested_distance_km": 12.0, "start_source": "nwissite", "start_id": "USGS-02371000", "geometry_length_km": 0.49282055734945945 }, "geometry": { "type": "LineString", "coordinates": [ [ -85.919362605, 31.876265898 ], [ -85.919416003, 31.875693098 ], [ -85.919684306, 31.875165999 ], [ -85.920785002, 31.8747532 ], [ -85.921456203, 31.874661297 ], [ -85.922073804, 31.874683999 ], [ -85.922449604, 31.874500595 ], [ -85.922718205, 31.874523394 ], [ -85.923121005, 31.874729395 ], [ -85.923174903, 31.874889798 ] ] } },
{ "type": "Feature", "properties": { "site_no": "02371000", "nhdplus_comid": "2375971", "navigation_mode": "UM", "requested_distance_km": 12.0, "start_source": "nwissite", "start_id": "USGS-02371000", "geometry_length_km": 0.29518258005506326 }, "geometry": { "type": "LineString", "coordinates": [ [ -85.916677803, 31.877137497 ], [ -85.916999906, 31.876908198 ], [ -85.918423101, 31.876976497 ], [ -85.918637902, 31.876907595 ], [ -85.919040501, 31.876472197 ], [ -85.919362605, 31.876265898 ] ] } }
]
}
