{
"type": "FeatureCollection",
"name": "USGS_02372000_DM_12km",
"crs": { "type": "name", "properties": { "name": "urn:ogc:def:crs:OGC:1.3:CRS84" } },
"features": [
{ "type": "Feature", "properties": { "site_no": "02372000", "nhdplus_comid": "2323204", "navigation_mode": "DM", "requested_distance_km": 12.0, "start_source": "nwissite", "start_id": "USGS-02372000", "geometry_length_km": 0.86787838173589671 }, "geometry": { "type": "LineString", "coordinates": [ [ -86.278406166, 31.724609761 ], [ -86.278525107, 31.724567495 ], [ -86.279437304, 31.724041194 ], [ -86.279973604, 31.723972894 ], [ -86.280321904, 31.724064797 ], [ -86.280563101, 31.724248298 ], [ -86.280777603, 31.724271297 ], [ -86.281019002, 31.724088199 ], [ -86.282066204, 31.722439095 ], [ -86.282066606, 31.722072497 ], [ -86.281638205, 31.721590996 ], [ -86.2817192, 31.721086897 ], [ -86.281907104, 31.720834993 ], [ -86.282685004, 31.720423095 ], [ -86.283623502, 31.720217593 ] ] } },
{ "type": "Feature", "properties": { "site_no": "02372000", "nhdplus_comid": "2323208", "navigation_mode": "DM", "requested_distance_km": 12.0, "start_source": "nwissite", "start_id": "USGS-02372000", "geometry_length_km": 0.53328421753888666 }, "geometry": { "type": "LineString", "coordinates": [ [ -86.283623502, 31.720217593 ], [ -86.284160405, 31.719507597 ], [ -86.2841876, 31.719072193 ], [ -86.283947006, 31.718292996 ], [ -86.283786304, 31.718155295 ], [ -86.283760101, 31.717582397 ], [ -86.284001902, 31.717147194 ], [ -86.285128802, 31.716048099 ] ] } },
{ "type": "Feature", "properties": { "site_no": "02372000", "nhdplus_comid": "2323716", "navigation_mode": "DM", "requested_distance_km": 12.0, "start_source": "nwissite", "start_id": "USGS-02372000", "geometry_length_km": 1.0836607734283512 }, "geometry": { "type": "LineString", "coordinates": [ [ -86.285128802, 31.716048099 ], [ -86.285397701, 31.715269193 ], [ -86.2855324, 31.714604795 ], [ -86.285801202, 31.713848695 ], [ -86.285801604, 31.713367499 ], [ -86.285721302, 31.713252895 ], [ -86.285721801, 31.712679997 ], [ -86.285963707, 31.712153099 ], [ -86.286071107, 31.711878195 ], [ -86.286956906, 31.710733093 ], [ -86.287815407, 31.709931694 ], [ -86.288512707, 31.709588498 ], [ -86.288834706, 31.709313698 ], [ -86.289987706, 31.7088333 ], [ -86.290390201, 31.708489895 ], [ -86.290765502, 31.708490096 ] ] } },
{ "type": "Feature", "properties": { "site_no": "02372000", "nhdplus_comid": "2323724", "navigation_mode": "DM", "requested_distance_km": 12.0, "start_source": "nwissite", "start_id": "USGS-02372000", "geometry_length_km": 2.7226176200452463 }, "geometry": { "type": "LineString", "coordinates": [ [ -86.290765502, 31.708490096 ], [ -86.291113406, 31.708971493 ], [ -86.291595906, 31.708994798 ], [ -86.292025, 31.708651297 ], [ -86.292239904, 31.708353594 ], [ -86.292401202, 31.707803696 ], [ -86.292642802, 31.707391396 ], [ -86.295513205, 31.704826899 ], [ -86.2963183, 31.703544095 ], [ -86.296425603, 31.703475498 ], [ -86.296506606, 31.702856697 ], [ -86.296185903, 31.701779597 ], [ -86.296025306, 31.701573193 ], [ -86.295569703, 31.701481193 ], [ -86.295221403, 31.701297693 ], [ -86.295275405, 31.700908095 ], [ -86.295489803, 31.700793795 ], [ -86.296186805, 31.7006796 ], [ -86.296615601, 31.700817399 ], [ -86.296830304, 31.700519599 ], [ -86.296991505, 31.699969798 ], [ -86.296938106, 31.699809298 ], [ -86.296723805, 31.699625798 ], [ -86.296536103, 31.699602798 ], [ -86.295865804, 31.699900299 ], [ -86.2950349, 31.6998998 ], [ -86.294847406, 31.699762195 ], [ -86.295169607, 31.699120693 ], [ -86.2953851, 31.697929293 ], [ -86.296136104, 31.6972882 ], [ -86.296163201, 31.696990199 ], [ -86.296163507, 31.696623594 ], [ -86.2962979, 31.696302898 ], [ -86.296512507, 31.696050994 ], [ -86.297798805, 31.696097597 ], [ -86.297933102, 31.6958685 ], [ -86.297906503, 31.695662193 ], [ -86.297531605, 31.695112094 ], [ -86.297532007, 31.694722496 ], [ -86.298819505, 31.693462893 ], [ -86.299007401, 31.693119295 ], [ -86.299061306, 31.692752697 ] ] } },
{ "type": "Feature", "properties": { "site_no": "02372000", "nhdplus_comid": "2323246", "navigation_mode": "DM", "requested_distance_km": 12.0, "start_source": "nwissite", "start_id": "USGS-02372000", "geometry_length_km": 0.36211153533718671 }, "geometry": { "type": "LineString", "coordinates": [ [ -86.299061306, 31.692752697 ], [ -86.2985797, 31.69179 ], [ -86.299411505, 31.690644793 ], [ -86.299465403, 31.690300994 ], [ -86.299251206, 31.689819694 ] ] } },
{ "type": "Feature", "properties": { "site_no": "02372000", "nhdplus_comid": "2323730", "navigation_mode": "DM", "requested_distance_km": 12.0, "start_source": "nwissite", "start_id": "USGS-02372000", "geometry_length_km": 3.7257801398614667 }, "geometry": { "type": "LineString", "coordinates": [ [ -86.299251206, 31.689819694 ], [ -86.2993588, 31.689475998 ], [ -86.299788006, 31.688926294 ], [ -86.300110206, 31.688239098 ], [ -86.300431907, 31.688147597 ], [ -86.301449805, 31.688606493 ], [ -86.301825106, 31.688538 ], [ -86.302200906, 31.687850796 ], [ -86.3021743, 31.687484093 ], [ -86.301987, 31.6872091 ], [ -86.301237203, 31.686543994 ], [ -86.301157005, 31.686360694 ], [ -86.301264502, 31.6858337 ], [ -86.301532604, 31.685764998 ], [ -86.302819602, 31.684940897 ], [ -86.303168505, 31.684138998 ], [ -86.303062305, 31.682947397 ], [ -86.303142704, 31.682832897 ], [ -86.303759307, 31.682649896 ], [ -86.304348804, 31.682627298 ], [ -86.3050723, 31.682765298 ], [ -86.306412503, 31.682238899 ], [ -86.3072436, 31.681987397 ], [ -86.308127701, 31.682285793 ], [ -86.3085564, 31.682308897 ], [ -86.309173405, 31.6814842 ], [ -86.309575401, 31.681369893 ], [ -86.309762806, 31.681553394 ], [ -86.309923403, 31.681920096 ], [ -86.310110904, 31.682034798 ], [ -86.310405701, 31.682034895 ], [ -86.311237305, 31.6806833 ], [ -86.311077103, 31.679926999 ], [ -86.311238103, 31.679743797 ], [ -86.311452404, 31.679675199 ], [ -86.313059703, 31.680569693 ], [ -86.313193202, 31.681211397 ], [ -86.313380606, 31.681440599 ], [ -86.313836105, 31.681555495 ], [ -86.314023703, 31.681486793 ], [ -86.314399101, 31.681166194 ], [ -86.315096803, 31.679676995 ], [ -86.315070607, 31.678943694 ], [ -86.314722501, 31.6784852 ], [ -86.314776406, 31.678003997 ], [ -86.314910606, 31.677774899 ], [ -86.316438802, 31.676400796 ], [ -86.317725606, 31.675393097 ], [ -86.317940101, 31.675118193 ], [ -86.318154901, 31.674522594 ], [ -86.318557106, 31.674201898 ], [ -86.3191467, 31.673927195 ], [ -86.319923803, 31.673789993 ] ] } },
{ "type": "Feature", "properties": { "site_no": "02372000", "nhdplus_comid": "2323270", "navigation_mode": "DM", "requested_distance_km": 12.0, "start_source": "nwissite", "start_id": "USGS-02372000", "geometry_length_km": 2.5626514062921211 }, "geometry": { "type": "LineString", "coordinates": [ [ -86.319923803, 31.673789993 ], [ -86.320433006, 31.673859097 ], [ -86.320915304, 31.673767596 ], [ -86.321585305, 31.673492894 ], [ -86.321933806, 31.673538893 ], [ -86.321986906, 31.674386799 ], [ -86.322335102, 31.674501494 ], [ -86.322630003, 31.674387097 ], [ -86.322844401, 31.674203798 ], [ -86.323407702, 31.673172899 ], [ -86.324051104, 31.672577299 ], [ -86.326088302, 31.671340793 ], [ -86.326463602, 31.671042994 ], [ -86.327187501, 31.669989094 ], [ -86.328447007, 31.669462599 ], [ -86.328795403, 31.669393994 ], [ -86.329893805, 31.669990197 ], [ -86.331019007, 31.670173898 ], [ -86.331608504, 31.670174196 ], [ -86.332358904, 31.669853598 ], [ -86.333055802, 31.6693497 ], [ -86.333752602, 31.6689834 ], [ -86.335092805, 31.668044299 ], [ -86.3353341, 31.667563096 ], [ -86.335307404, 31.667288095 ], [ -86.334878907, 31.667012997 ], [ -86.334637903, 31.666760795 ], [ -86.334531002, 31.666233696 ], [ -86.334826, 31.665271394 ], [ -86.335147701, 31.664927699 ], [ -86.335710503, 31.664561294 ], [ -86.335951902, 31.664011396 ], [ -86.336140007, 31.662682399 ] ] } },
{ "type": "Feature", "properties": { "site_no": "02372000", "nhdplus_comid": "2323736", "navigation_mode": "DM", "requested_distance_km": 12.0, "start_source": "nwissite", "start_id": "USGS-02372000", "geometry_length_km": 1.2328328251961274 }, "geometry": { "type": "LineString", "coordinates": [ [ -86.336140007, 31.662682399 ], [ -86.337024406, 31.662178494 ], [ -86.3373731, 31.661239095 ], [ -86.337400503, 31.659566194 ], [ -86.337534502, 31.659382999 ], [ -86.338016801, 31.659130998 ], [ -86.338820606, 31.659039699 ], [ -86.340428106, 31.659200497 ], [ -86.340722702, 31.659360997 ], [ -86.341071002, 31.659498595 ], [ -86.342089102, 31.659636393 ], [ -86.342597902, 31.659934498 ], [ -86.342919402, 31.660255298 ], [ -86.343267702, 31.660209596 ], [ -86.343508705, 31.660095096 ], [ -86.343884103, 31.659270197 ], [ -86.344259404, 31.658789098 ], [ -86.344581001, 31.658628799 ] ] } }
]
}
