{
"type": "FeatureCollection",
"name": "USGS_02469672_UM_12km",
"crs": { "type": "name", "properties": { "name": "urn:ogc:def:crs:OGC:1.3:CRS84" } },
"features": [
{ "type": "Feature", "properties": { "site_no": "02469672", "nhdplus_comid": "18545890", "navigation_mode": "UM", "requested_distance_km": 12.0, "start_source": "nwissite", "start_id": "USGS-02469672", "geometry_length_km": 0.70981025772979278 }, "geometry": { "type": "LineString", "coordinates": [ [ -88.458076805, 32.09031 ], [ -88.457753301, 32.089737497 ], [ -88.457483903, 32.089462794 ], [ -88.457053207, 32.089302793 ], [ -88.4564071, 32.089005299 ], [ -88.456191607, 32.088730596 ], [ -88.4560294, 32.088089198 ], [ -88.455840707, 32.087791495 ], [ -88.455867603, 32.087722793 ], [ -88.4554905, 32.087333597 ], [ -88.4553288, 32.087081693 ], [ -88.455328606, 32.0868067 ], [ -88.455409102, 32.086554594 ], [ -88.455462404, 32.086004697 ], [ -88.454924002, 32.085730098 ], [ -88.454681501, 32.085455395 ], [ -88.454600627, 32.085249255 ] ] } },
{ "type": "Feature", "properties": { "site_no": "02469672", "nhdplus_comid": "18545840", "navigation_mode": "UM", "requested_distance_km": 12.0, "start_source": "nwissite", "start_id": "USGS-02469672", "geometry_length_km": 0.34577462569304396 }, "geometry": { "type": "LineString", "coordinates": [ [ -88.460635602, 32.092484795 ], [ -88.460150801, 32.092141494 ], [ -88.459989101, 32.091866598 ], [ -88.459935203, 32.091729194 ], [ -88.459477305, 32.091317199 ], [ -88.458884902, 32.090905197 ], [ -88.458534606, 32.0906763 ], [ -88.458076805, 32.09031 ] ] } },
{ "type": "Feature", "properties": { "site_no": "02469672", "nhdplus_comid": "18545832", "navigation_mode": "UM", "requested_distance_km": 12.0, "start_source": "nwissite", "start_id": "USGS-02469672", "geometry_length_km": 1.1249213497634738 }, "geometry": { "type": "LineString", "coordinates": [ [ -88.471535005, 32.092270494 ], [ -88.471319705, 32.092316493 ], [ -88.4707276, 32.092294 ], [ -88.470404506, 32.092133895 ], [ -88.469677202, 32.091515899 ], [ -88.468896605, 32.091356099 ], [ -88.468412101, 32.091333598 ], [ -88.468008704, 32.091517195 ], [ -88.467444003, 32.092021599 ], [ -88.466340803, 32.0922058 ], [ -88.4657223, 32.092572793 ], [ -88.465049602, 32.0928711 ], [ -88.462842807, 32.092804 ], [ -88.462223902, 32.092896096 ], [ -88.461766407, 32.092873499 ], [ -88.461093202, 32.092530295 ], [ -88.460635602, 32.092484795 ] ] } },
{ "type": "Feature", "properties": { "site_no": "02469672", "nhdplus_comid": "18545814", "navigation_mode": "UM", "requested_distance_km": 12.0, "start_source": "nwissite", "start_id": "USGS-02469672", "geometry_length_km": 1.3371856619567724 }, "geometry": { "type": "LineString", "coordinates": [ [ -88.475179605, 32.102347896 ], [ -88.475206107, 32.101958498 ], [ -88.475447804, 32.101477198 ], [ -88.475500904, 32.100858495 ], [ -88.475366004, 32.100514896 ], [ -88.474746004, 32.099667795 ], [ -88.474745505, 32.099301197 ], [ -88.474933706, 32.099094898 ], [ -88.475552201, 32.098659098 ], [ -88.475713402, 32.098383993 ], [ -88.475739807, 32.097879998 ], [ -88.475604907, 32.097582296 ], [ -88.475254402, 32.097101599 ], [ -88.474796303, 32.096643694 ], [ -88.474769205, 32.096460395 ], [ -88.474688306, 32.096368797 ], [ -88.4746067, 32.0955671 ], [ -88.474525601, 32.0952693 ], [ -88.474229202, 32.094857194 ], [ -88.4739324, 32.094284698 ], [ -88.473447107, 32.093529098 ], [ -88.4723965, 32.092590496 ], [ -88.472019404, 32.092292994 ], [ -88.471535005, 32.092270494 ] ] } }
]
}
