{
"type": "FeatureCollection",
"name": "USGS_02375500_DM_12km",
"crs": { "type": "name", "properties": { "name": "urn:ogc:def:crs:OGC:1.3:CRS84" } },
"features": [
{ "type": "Feature", "properties": { "site_no": "02375500", "nhdplus_comid": "448444", "navigation_mode": "DM", "requested_distance_km": 12.0, "start_source": "nwissite", "start_id": "USGS-02375500", "geometry_length_km": 0.44839111856143615 }, "geometry": { "type": "LineString", "coordinates": [ [ -87.234566952, 30.9654605 ], [ -87.2345725, 30.965453699 ], [ -87.234644704, 30.965365298 ], [ -87.234717004, 30.965276897 ], [ -87.2347892, 30.965188496 ], [ -87.234861404, 30.965100095 ], [ -87.234933704, 30.965011694 ], [ -87.2350059, 30.9649233 ], [ -87.235078104, 30.964834794 ], [ -87.235150404, 30.964746393 ], [ -87.2352226, 30.964658 ], [ -87.235294804, 30.964569598 ], [ -87.235367104, 30.964481197 ], [ -87.235439301, 30.964392796 ], [ -87.235511504, 30.964304395 ], [ -87.2355837, 30.964215994 ], [ -87.235656001, 30.964127496 ], [ -87.235684805, 30.964108497 ], [ -87.235784702, 30.964042693 ], [ -87.235884503, 30.963976793 ], [ -87.235984303, 30.963910997 ], [ -87.236084104, 30.963845193 ], [ -87.236183904, 30.963779293 ], [ -87.236283705, 30.963713497 ], [ -87.236383505, 30.963647693 ], [ -87.236483403, 30.963581793 ], [ -87.236583203, 30.963515997 ], [ -87.236683004, 30.963450097 ], [ -87.236782804, 30.963384293 ], [ -87.236882605, 30.963318497 ], [ -87.236982405, 30.963252597 ], [ -87.237082303, 30.963186793 ], [ -87.237182103, 30.963120997 ], [ -87.237281904, 30.963055097 ], [ -87.237381704, 30.962989293 ], [ -87.237481505, 30.9629234 ], [ -87.237581305, 30.962857597 ], [ -87.237681106, 30.962791793 ], [ -87.237781003, 30.9627259 ], [ -87.237880804, 30.962660097 ] ] } },
{ "type": "Feature", "properties": { "site_no": "02375500", "nhdplus_comid": "450546", "navigation_mode": "DM", "requested_distance_km": 12.0, "start_source": "nwissite", "start_id": "USGS-02375500", "geometry_length_km": 0.14566129207836545 }, "geometry": { "type": "LineString", "coordinates": [ [ -87.237880804, 30.962660097 ], [ -87.239265501, 30.962137595 ], [ -87.239281505, 30.962136596 ] ] } },
{ "type": "Feature", "properties": { "site_no": "02375500", "nhdplus_comid": "448450", "navigation_mode": "DM", "requested_distance_km": 12.0, "start_source": "nwissite", "start_id": "USGS-02375500", "geometry_length_km": 0.55965305072763316 }, "geometry": { "type": "LineString", "coordinates": [ [ -87.239281505, 30.962136596 ], [ -87.241048701, 30.962025896 ], [ -87.241688207, 30.961570799 ], [ -87.241650105, 30.960556298 ], [ -87.241118707, 30.960008495 ], [ -87.239988804, 30.959539697 ] ] } },
{ "type": "Feature", "properties": { "site_no": "02375500", "nhdplus_comid": "448462", "navigation_mode": "DM", "requested_distance_km": 12.0, "start_source": "nwissite", "start_id": "USGS-02375500", "geometry_length_km": 1.4231324705738411 }, "geometry": { "type": "LineString", "coordinates": [ [ -87.239988804, 30.959539697 ], [ -87.239270501, 30.959356397 ], [ -87.238487206, 30.958409198 ], [ -87.238622405, 30.9571556 ], [ -87.239329502, 30.956073597 ], [ -87.2394538, 30.953554697 ], [ -87.239933304, 30.953213394 ], [ -87.241144605, 30.952929996 ], [ -87.241797507, 30.952349499 ], [ -87.241919205, 30.951221198 ], [ -87.241135903, 30.950274095 ], [ -87.241124801, 30.9490088 ] ] } },
{ "type": "Feature", "properties": { "site_no": "02375500", "nhdplus_comid": "448690", "navigation_mode": "DM", "requested_distance_km": 12.0, "start_source": "nwissite", "start_id": "USGS-02375500", "geometry_length_km": 0.41338997851684856 }, "geometry": { "type": "LineString", "coordinates": [ [ -87.241124801, 30.9490088 ], [ -87.242270805, 30.947961599 ], [ -87.244254105, 30.947359897 ], [ -87.244715102, 30.947088197 ] ] } },
{ "type": "Feature", "properties": { "site_no": "02375500", "nhdplus_comid": "448694", "navigation_mode": "DM", "requested_distance_km": 12.0, "start_source": "nwissite", "start_id": "USGS-02375500", "geometry_length_km": 3.6972594036357078 }, "geometry": { "type": "LineString", "coordinates": [ [ -87.244715102, 30.947088197 ], [ -87.245199606, 30.946802594 ], [ -87.245573305, 30.946073495 ], [ -87.245924801, 30.942813896 ], [ -87.247203305, 30.941903599 ], [ -87.248241, 30.941859297 ], [ -87.248799302, 30.9421563 ], [ -87.250645004, 30.944198996 ], [ -87.251230203, 30.944245294 ], [ -87.251869507, 30.943790093 ], [ -87.2520428, 30.9435509 ], [ -87.252031602, 30.942285597 ], [ -87.250624806, 30.940277696 ], [ -87.2506271, 30.938887 ], [ -87.253197506, 30.936940894 ], [ -87.253451906, 30.9359494 ], [ -87.254559204, 30.933887497 ], [ -87.254653707, 30.9330099 ], [ -87.255027302, 30.932280794 ], [ -87.256172806, 30.931233399 ], [ -87.257077701, 30.931051999 ], [ -87.258686803, 30.9311793 ], [ -87.259749204, 30.932274796 ], [ -87.260105006, 30.9344524 ], [ -87.260343604, 30.934976995 ], [ -87.260875903, 30.935484797 ], [ -87.261181504, 30.935279593 ] ] } },
{ "type": "Feature", "properties": { "site_no": "02375500", "nhdplus_comid": "25910045", "navigation_mode": "DM", "requested_distance_km": 12.0, "start_source": "nwissite", "start_id": "USGS-02375500", "geometry_length_km": 1.3245325755046604 }, "geometry": { "type": "LineString", "coordinates": [ [ -87.261181504, 30.935279593 ], [ -87.261833601, 30.934841894 ], [ -87.263408601, 30.931173094 ], [ -87.264340304, 30.930740893 ], [ -87.264925607, 30.930787198 ], [ -87.265456706, 30.931334898 ], [ -87.265439205, 30.934241697 ], [ -87.2662495, 30.934937894 ], [ -87.266997904, 30.934965894 ], [ -87.267663002, 30.934681393 ] ] } },
{ "type": "Feature", "properties": { "site_no": "02375500", "nhdplus_comid": "448464", "navigation_mode": "DM", "requested_distance_km": 12.0, "start_source": "nwissite", "start_id": "USGS-02375500", "geometry_length_km": 1.0550125977409139 }, "geometry": { "type": "LineString", "coordinates": [ [ -87.267663002, 30.934681393 ], [ -87.268056005, 30.934424594 ], [ -87.268288903, 30.934230894 ], [ -87.270363405, 30.932354599 ], [ -87.271427803, 30.932059295 ], [ -87.2739418, 30.932004794 ], [ -87.274713702, 30.931686394 ], [ -87.275845505, 30.930764198 ], [ -87.2760996, 30.929772697 ] ] } },
{ "type": "Feature", "properties": { "site_no": "02375500", "nhdplus_comid": "448698", "navigation_mode": "DM", "requested_distance_km": 12.0, "start_source": "nwissite", "start_id": "USGS-02375500", "geometry_length_km": 6.6133077106482681 }, "geometry": { "type": "LineString", "coordinates": [ [ -87.2760996, 30.929772697 ], [ -87.275304504, 30.927560493 ], [ -87.275398806, 30.9266828 ], [ -87.276357301, 30.925999798 ], [ -87.278711304, 30.926059097 ], [ -87.279615901, 30.925877497 ], [ -87.282091103, 30.924808294 ], [ -87.282995701, 30.924626797 ], [ -87.284019805, 30.924707495 ], [ -87.285681002, 30.925723493 ], [ -87.286412403, 30.925781198 ], [ -87.286891602, 30.925439596 ], [ -87.286958806, 30.924812697 ], [ -87.28672, 30.924288094 ], [ -87.284169406, 30.9219376 ], [ -87.28328, 30.920603 ], [ -87.283441506, 30.9190984 ], [ -87.285531305, 30.917492993 ], [ -87.288204603, 30.917324394 ], [ -87.288683705, 30.9169828 ], [ -87.288645007, 30.915968195 ], [ -87.287980907, 30.915283695 ], [ -87.286518201, 30.915168397 ], [ -87.284376301, 30.915884599 ], [ -87.2838047, 30.915713094 ], [ -87.283273406, 30.915165499 ], [ -87.283396207, 30.912646294 ], [ -87.282347202, 30.911425494 ], [ -87.282481804, 30.910171695 ], [ -87.283307306, 30.909351699 ], [ -87.285210304, 30.908110797 ], [ -87.286686301, 30.908100694 ], [ -87.2881741, 30.909355998 ], [ -87.2888785, 30.9096644 ], [ -87.290062003, 30.9096312 ], [ -87.290381402, 30.909403495 ], [ -87.290462002, 30.908651195 ], [ -87.289545804, 30.907567397 ], [ -87.287513301, 30.905889899 ], [ -87.285401903, 30.903573893 ], [ -87.285111107, 30.902160093 ], [ -87.285259105, 30.900780797 ], [ -87.285618804, 30.900176898 ], [ -87.285674304, 30.898284599 ] ] } }
]
}
