{
"type": "FeatureCollection",
"name": "USGS_02437800_DM_12km",
"crs": { "type": "name", "properties": { "name": "urn:ogc:def:crs:OGC:1.3:CRS84" } },
"features": [
{ "type": "Feature", "properties": { "site_no": "02437800", "nhdplus_comid": "18670524", "navigation_mode": "DM", "requested_distance_km": 12.0, "start_source": "nwissite", "start_id": "USGS-02437800", "geometry_length_km": 0.16749756076841735 }, "geometry": { "type": "LineString", "coordinates": [ [ -87.787446256, 34.16645481 ], [ -87.787566304, 34.166344099 ], [ -87.789192401, 34.166116193 ] ] } },
{ "type": "Feature", "properties": { "site_no": "02437800", "nhdplus_comid": "18669926", "navigation_mode": "DM", "requested_distance_km": 12.0, "start_source": "nwissite", "start_id": "USGS-02437800", "geometry_length_km": 0.17238372054374418 }, "geometry": { "type": "LineString", "coordinates": [ [ -87.789192401, 34.166116193 ], [ -87.789413102, 34.165887296 ], [ -87.789441206, 34.165360399 ], [ -87.789717406, 34.1646735 ] ] } },
{ "type": "Feature", "properties": { "site_no": "02437800", "nhdplus_comid": "18669978", "navigation_mode": "DM", "requested_distance_km": 12.0, "start_source": "nwissite", "start_id": "USGS-02437800", "geometry_length_km": 2.006851865276948 }, "geometry": { "type": "LineString", "coordinates": [ [ -87.789717406, 34.1646735 ], [ -87.789938107, 34.164375797 ], [ -87.790159702, 34.163070299 ], [ -87.789527804, 34.161168598 ], [ -87.789610602, 34.160939597 ], [ -87.789748505, 34.160848096 ], [ -87.790602803, 34.160779893 ], [ -87.790768102, 34.160848893 ], [ -87.791043304, 34.161238395 ], [ -87.791262805, 34.162063099 ], [ -87.791455604, 34.1622236 ], [ -87.791731, 34.162315398 ], [ -87.792365104, 34.162109695 ], [ -87.794323102, 34.160347193 ], [ -87.794626504, 34.159957998 ], [ -87.795591705, 34.159042299 ], [ -87.795812503, 34.158675998 ], [ -87.795840606, 34.158149198 ], [ -87.795620501, 34.157667994 ], [ -87.795648903, 34.156705797 ], [ -87.796062902, 34.155835696 ], [ -87.796476305, 34.155767299 ], [ -87.7966967, 34.155858994 ], [ -87.797137104, 34.156294599 ], [ -87.798156001, 34.157005295 ], [ -87.798982106, 34.157784499 ], [ -87.799009502, 34.157899097 ] ] } },
{ "type": "Feature", "properties": { "site_no": "02437800", "nhdplus_comid": "18669964", "navigation_mode": "DM", "requested_distance_km": 12.0, "start_source": "nwissite", "start_id": "USGS-02437800", "geometry_length_km": 0.23503596516325428 }, "geometry": { "type": "LineString", "coordinates": [ [ -87.799009502, 34.157899097 ], [ -87.799505107, 34.158380397 ], [ -87.799863301, 34.158403598 ], [ -87.800305001, 34.157281399 ] ] } },
{ "type": "Feature", "properties": { "site_no": "02437800", "nhdplus_comid": "18670002", "navigation_mode": "DM", "requested_distance_km": 12.0, "start_source": "nwissite", "start_id": "USGS-02437800", "geometry_length_km": 1.0347782834238037 }, "geometry": { "type": "LineString", "coordinates": [ [ -87.800305001, 34.157281399 ], [ -87.800388202, 34.156639993 ], [ -87.800388902, 34.1557239 ], [ -87.800168805, 34.155425996 ], [ -87.799287707, 34.154623695 ], [ -87.7987094, 34.154233895 ], [ -87.798544407, 34.153958894 ], [ -87.798489705, 34.153477795 ], [ -87.798903607, 34.152676396 ], [ -87.800171703, 34.151737995 ], [ -87.802102104, 34.149677597 ] ] } },
{ "type": "Feature", "properties": { "site_no": "02437800", "nhdplus_comid": "18670114", "navigation_mode": "DM", "requested_distance_km": 12.0, "start_source": "nwissite", "start_id": "USGS-02437800", "geometry_length_km": 3.1232622723335508 }, "geometry": { "type": "LineString", "coordinates": [ [ -87.802102104, 34.149677597 ], [ -87.802433401, 34.148784399 ], [ -87.802489102, 34.148074396 ], [ -87.802379407, 34.147432894 ], [ -87.801774301, 34.146103993 ], [ -87.800865807, 34.145301796 ], [ -87.800618306, 34.144751899 ], [ -87.800040402, 34.1440643 ], [ -87.798912406, 34.142002098 ], [ -87.798611306, 34.139825799 ], [ -87.798391506, 34.139161393 ], [ -87.798227303, 34.137878597 ], [ -87.798365407, 34.137420498 ], [ -87.798668802, 34.136939697 ], [ -87.800130002, 34.135520399 ], [ -87.800874807, 34.134192199 ], [ -87.800902702, 34.133802794 ], [ -87.800021805, 34.133160897 ], [ -87.7998292, 34.132931694 ], [ -87.799829602, 34.1324507 ], [ -87.800077803, 34.132153094 ], [ -87.800298207, 34.132038698 ], [ -87.801675603, 34.131741695 ], [ -87.802502401, 34.1312382 ], [ -87.802778102, 34.130848996 ], [ -87.802972205, 34.129451893 ], [ -87.803137802, 34.129016697 ], [ -87.803578705, 34.128650494 ], [ -87.804763705, 34.128032595 ], [ -87.805728406, 34.127185598 ], [ -87.806307003, 34.126933999 ], [ -87.806995705, 34.126773998 ] ] } },
{ "type": "Feature", "properties": { "site_no": "02437800", "nhdplus_comid": "18670116", "navigation_mode": "DM", "requested_distance_km": 12.0, "start_source": "nwissite", "start_id": "USGS-02437800", "geometry_length_km": 0.68381892044981274 }, "geometry": { "type": "LineString", "coordinates": [ [ -87.806995705, 34.126773998 ], [ -87.807022505, 34.127758995 ], [ -87.807215102, 34.128010996 ], [ -87.8078207, 34.128469497 ], [ -87.810436405, 34.129891098 ], [ -87.812171303, 34.130602099 ] ] } },
{ "type": "Feature", "properties": { "site_no": "02437800", "nhdplus_comid": "18670086", "navigation_mode": "DM", "requested_distance_km": 12.0, "start_source": "nwissite", "start_id": "USGS-02437800", "geometry_length_km": 0.87588765692891701 }, "geometry": { "type": "LineString", "coordinates": [ [ -87.812171303, 34.130602099 ], [ -87.815007903, 34.131473899 ], [ -87.816853106, 34.132093199 ], [ -87.817486405, 34.132437095 ], [ -87.818037003, 34.132941298 ], [ -87.818257101, 34.133353695 ], [ -87.818614401, 34.1344992 ], [ -87.819358103, 34.135003395 ] ] } },
{ "type": "Feature", "properties": { "site_no": "02437800", "nhdplus_comid": "18670132", "navigation_mode": "DM", "requested_distance_km": 12.0, "start_source": "nwissite", "start_id": "USGS-02437800", "geometry_length_km": 3.042015904366314 }, "geometry": { "type": "LineString", "coordinates": [ [ -87.819358103, 34.135003395 ], [ -87.820211902, 34.135095298 ], [ -87.823241405, 34.136081696 ], [ -87.824536003, 34.136402793 ], [ -87.825197101, 34.136448897 ], [ -87.827345803, 34.136197798 ], [ -87.828448005, 34.135831699 ], [ -87.830679305, 34.135626197 ], [ -87.831561007, 34.135260098 ], [ -87.832580604, 34.134367093 ], [ -87.832939006, 34.1338403 ], [ -87.833159603, 34.133244894 ], [ -87.833104603, 34.132832497 ], [ -87.832389005, 34.131595299 ], [ -87.831370406, 34.130358197 ], [ -87.831150204, 34.130014293 ], [ -87.831150502, 34.129487596 ], [ -87.831398502, 34.129143998 ], [ -87.831811704, 34.1289609 ], [ -87.832720704, 34.128892496 ], [ -87.834703803, 34.129259698 ], [ -87.835640304, 34.129191197 ], [ -87.835915901, 34.129008099 ], [ -87.836274102, 34.128527194 ], [ -87.836494803, 34.127794199 ], [ -87.836550102, 34.127198696 ], [ -87.836688004, 34.126442797 ], [ -87.837377004, 34.1256641 ], [ -87.838286206, 34.125091799 ], [ -87.839305602, 34.124381997 ], [ -87.839388207, 34.124175794 ] ] } }
]
}
