{
"type": "FeatureCollection",
"name": "USGS_02423000_DM_12km",
"crs": { "type": "name", "properties": { "name": "urn:ogc:def:crs:OGC:1.3:CRS84" } },
"features": [
{ "type": "Feature", "properties": { "site_no": "02423000", "nhdplus_comid": "21688826", "navigation_mode": "DM", "requested_distance_km": 12.0, "start_source": "nwissite", "start_id": "USGS-02423000", "geometry_length_km": 1.5663191939765799 }, "geometry": { "type": "LineString", "coordinates": [ [ -87.018696426, 32.405271481 ], [ -87.019267805, 32.405185997 ], [ -87.021778204, 32.404250495 ], [ -87.032994606, 32.398078799 ] ] } },
{ "type": "Feature", "properties": { "site_no": "02423000", "nhdplus_comid": "21688830", "navigation_mode": "DM", "requested_distance_km": 12.0, "start_source": "nwissite", "start_id": "USGS-02423000", "geometry_length_km": 0.49500099427387478 }, "geometry": { "type": "LineString", "coordinates": [ [ -87.032994606, 32.398078799 ], [ -87.036752507, 32.396737598 ], [ -87.037958205, 32.3967072 ] ] } },
{ "type": "Feature", "properties": { "site_no": "02423000", "nhdplus_comid": "21688838", "navigation_mode": "DM", "requested_distance_km": 12.0, "start_source": "nwissite", "start_id": "USGS-02423000", "geometry_length_km": 2.6055333770686837 }, "geometry": { "type": "LineString", "coordinates": [ [ -87.037958205, 32.3967072 ], [ -87.038610302, 32.396254398 ], [ -87.043382406, 32.395245694 ], [ -87.048559107, 32.3946473 ], [ -87.052097306, 32.393918797 ], [ -87.054592803, 32.393107593 ], [ -87.064341307, 32.390600398 ], [ -87.064625204, 32.390749 ] ] } },
{ "type": "Feature", "properties": { "site_no": "02423000", "nhdplus_comid": "21688840", "navigation_mode": "DM", "requested_distance_km": 12.0, "start_source": "nwissite", "start_id": "USGS-02423000", "geometry_length_km": 2.1727669415492525 }, "geometry": { "type": "LineString", "coordinates": [ [ -87.064625204, 32.390749 ], [ -87.065114103, 32.390409298 ], [ -87.069332004, 32.388977297 ], [ -87.072046302, 32.387552395 ], [ -87.075468406, 32.385174394 ], [ -87.0771541, 32.383541897 ], [ -87.079086706, 32.381045997 ], [ -87.080246605, 32.378741294 ], [ -87.0803167, 32.378116198 ], [ -87.080656603, 32.377764694 ] ] } },
{ "type": "Feature", "properties": { "site_no": "02423000", "nhdplus_comid": "21688846", "navigation_mode": "DM", "requested_distance_km": 12.0, "start_source": "nwissite", "start_id": "USGS-02423000", "geometry_length_km": 6.260297746771772 }, "geometry": { "type": "LineString", "coordinates": [ [ -87.080656603, 32.377764694 ], [ -87.080667101, 32.374990694 ], [ -87.080360606, 32.373705298 ], [ -87.0796353, 32.372134395 ], [ -87.077519305, 32.369570695 ], [ -87.073293, 32.363056093 ], [ -87.071688704, 32.361289494 ], [ -87.070986405, 32.360855594 ], [ -87.068376705, 32.360018395 ], [ -87.064952403, 32.359747298 ], [ -87.062486105, 32.360308699 ], [ -87.059637703, 32.361596696 ], [ -87.0573567, 32.3631818 ], [ -87.056308806, 32.364486195 ], [ -87.055884503, 32.365587696 ], [ -87.055412404, 32.368451297 ], [ -87.054294102, 32.370380796 ], [ -87.053004503, 32.371161498 ], [ -87.051515505, 32.371043399 ], [ -87.050032303, 32.3695383 ], [ -87.048816502, 32.365657896 ], [ -87.0478504, 32.363563195 ], [ -87.045657106, 32.360361896 ], [ -87.044188306, 32.358731799 ] ] } }
]
}
