{
"type": "FeatureCollection",
"name": "USGS_02425500_DM_12km",
"crs": { "type": "name", "properties": { "name": "urn:ogc:def:crs:OGC:1.3:CRS84" } },
"features": [
{ "type": "Feature", "properties": { "site_no": "02425500", "nhdplus_comid": "21453804", "navigation_mode": "DM", "requested_distance_km": 12.0, "start_source": "nwissite", "start_id": "USGS-02425500", "geometry_length_km": 1.7033126080437602 }, "geometry": { "type": "LineString", "coordinates": [ [ -86.983406031, 32.078096613 ], [ -86.983606905, 32.078046098 ], [ -86.9837678, 32.077450298 ], [ -86.983982801, 32.077197999 ], [ -86.984359607, 32.077197693 ], [ -86.985651903, 32.077631898 ], [ -86.986702703, 32.0785935 ], [ -86.987160601, 32.078868099 ], [ -86.987699501, 32.079325899 ], [ -86.988103904, 32.07999 ], [ -86.988131806, 32.080746196 ], [ -86.987595707, 32.082511194 ], [ -86.987596504, 32.083129995 ], [ -86.988243006, 32.083610594 ], [ -86.9887546, 32.083793394 ], [ -86.988943301, 32.084022395 ], [ -86.989079103, 32.085053496 ], [ -86.988810606, 32.085534997 ], [ -86.988811702, 32.086405799 ], [ -86.988570102, 32.086795598 ], [ -86.988005206, 32.0871398 ], [ -86.987413302, 32.087346494 ], [ -86.986417502, 32.087439097 ] ] } },
{ "type": "Feature", "properties": { "site_no": "02425500", "nhdplus_comid": "21453286", "navigation_mode": "DM", "requested_distance_km": 12.0, "start_source": "nwissite", "start_id": "USGS-02425500", "geometry_length_km": 0.33852773827711152 }, "geometry": { "type": "LineString", "coordinates": [ [ -86.986417502, 32.087439097 ], [ -86.985771701, 32.087645799 ], [ -86.985475905, 32.087829396 ], [ -86.985368401, 32.0880358 ], [ -86.985531807, 32.089525096 ], [ -86.985236101, 32.089869097 ] ] } },
{ "type": "Feature", "properties": { "site_no": "02425500", "nhdplus_comid": "21453270", "navigation_mode": "DM", "requested_distance_km": 12.0, "start_source": "nwissite", "start_id": "USGS-02425500", "geometry_length_km": 0.14435684448591177 }, "geometry": { "type": "LineString", "coordinates": [ [ -86.985236101, 32.089869097 ], [ -86.985236704, 32.090441994 ], [ -86.985156305, 32.090625398 ], [ -86.985156804, 32.0911524 ] ] } },
{ "type": "Feature", "properties": { "site_no": "02425500", "nhdplus_comid": "21453262", "navigation_mode": "DM", "requested_distance_km": 12.0, "start_source": "nwissite", "start_id": "USGS-02425500", "geometry_length_km": 0.11816834748736534 }, "geometry": { "type": "LineString", "coordinates": [ [ -86.985156804, 32.0911524 ], [ -86.984484605, 32.091725796 ], [ -86.984215505, 32.091840699 ] ] } },
{ "type": "Feature", "properties": { "site_no": "02425500", "nhdplus_comid": "21453258", "navigation_mode": "DM", "requested_distance_km": 12.0, "start_source": "nwissite", "start_id": "USGS-02425500", "geometry_length_km": 2.2152235847412065 }, "geometry": { "type": "LineString", "coordinates": [ [ -86.984215505, 32.091840699 ], [ -86.984216101, 32.092321895 ], [ -86.983866602, 32.092688799 ], [ -86.983355306, 32.092872597 ], [ -86.982709303, 32.092873193 ], [ -86.982170902, 32.092781998 ], [ -86.981982201, 32.092530094 ], [ -86.981605001, 32.092278294 ], [ -86.981255107, 32.092324398 ], [ -86.980852306, 32.093172595 ], [ -86.980800204, 32.0945476 ], [ -86.9810431, 32.0950974 ], [ -86.981474407, 32.095692798 ], [ -86.981475607, 32.096678197 ], [ -86.9813952, 32.096953198 ], [ -86.981449701, 32.0975032 ], [ -86.981611401, 32.097709298 ], [ -86.982822806, 32.097799897 ], [ -86.983469501, 32.098211899 ], [ -86.984223105, 32.098119497 ], [ -86.985192306, 32.098210394 ], [ -86.985327102, 32.098370597 ], [ -86.985300906, 32.098897696 ], [ -86.984147601, 32.102519199 ], [ -86.984175004, 32.102954596 ], [ -86.984283, 32.103183694 ], [ -86.984714106, 32.103504099 ], [ -86.985252701, 32.103709899 ], [ -86.985979706, 32.103800893 ], [ -86.987002507, 32.103639595 ] ] } },
{ "type": "Feature", "properties": { "site_no": "02425500", "nhdplus_comid": "21453224", "navigation_mode": "DM", "requested_distance_km": 12.0, "start_source": "nwissite", "start_id": "USGS-02425500", "geometry_length_km": 4.1932611962359356 }, "geometry": { "type": "LineString", "coordinates": [ [ -86.987002507, 32.103639595 ], [ -86.987675406, 32.103547394 ], [ -86.988456301, 32.103638299 ], [ -86.9889412, 32.103889994 ], [ -86.989345402, 32.104233399 ], [ -86.989480503, 32.104531094 ], [ -86.9894813, 32.105195597 ], [ -86.988459304, 32.105906896 ], [ -86.987651907, 32.106159694 ], [ -86.986252002, 32.106298395 ], [ -86.9857677, 32.106482193 ], [ -86.985229805, 32.106941 ], [ -86.985095501, 32.107238993 ], [ -86.985123105, 32.107743099 ], [ -86.985312, 32.108132496 ], [ -86.985770106, 32.108544596 ], [ -86.986255005, 32.108750299 ], [ -86.986928105, 32.108749695 ], [ -86.988435403, 32.108427599 ], [ -86.989162304, 32.108426996 ], [ -86.989835605, 32.108586699 ], [ -86.990239903, 32.108952999 ], [ -86.990240306, 32.109319694 ], [ -86.9897293, 32.109686799 ], [ -86.988948807, 32.109962396 ], [ -86.987145506, 32.110422499 ], [ -86.985880807, 32.110950597 ], [ -86.985450402, 32.111225896 ], [ -86.984186307, 32.112464495 ], [ -86.9841602, 32.112945698 ], [ -86.984267905, 32.113060199 ], [ -86.986072101, 32.113310695 ], [ -86.987688504, 32.113950893 ], [ -86.988092802, 32.114340097 ], [ -86.988632903, 32.115691595 ], [ -86.988795601, 32.116653897 ], [ -86.988661803, 32.117226794 ], [ -86.988419704, 32.117502093 ], [ -86.987504706, 32.117800795 ], [ -86.986804605, 32.117778495 ], [ -86.984946102, 32.117253095 ], [ -86.984272905, 32.117276497 ], [ -86.984138504, 32.117391296 ], [ -86.984247506, 32.118513994 ], [ -86.984328404, 32.1185598 ], [ -86.984436601, 32.119086698 ], [ -86.984571502, 32.119315699 ], [ -86.985083707, 32.119750693 ], [ -86.987023301, 32.120505095 ], [ -86.9876431, 32.120963 ], [ -86.988101505, 32.121466696 ], [ -86.988479704, 32.1223142 ] ] } },
{ "type": "Feature", "properties": { "site_no": "02425500", "nhdplus_comid": "21453144", "navigation_mode": "DM", "requested_distance_km": 12.0, "start_source": "nwissite", "start_id": "USGS-02425500", "geometry_length_km": 0.24393923434357159 }, "geometry": { "type": "LineString", "coordinates": [ [ -86.988479704, 32.1223142 ], [ -86.988534607, 32.1232078 ], [ -86.988697201, 32.124078393 ], [ -86.988859206, 32.124467999 ] ] } },
{ "type": "Feature", "properties": { "site_no": "02425500", "nhdplus_comid": "21453140", "navigation_mode": "DM", "requested_distance_km": 12.0, "start_source": "nwissite", "start_id": "USGS-02425500", "geometry_length_km": 1.7158705498650042 }, "geometry": { "type": "LineString", "coordinates": [ [ -86.988859206, 32.124467999 ], [ -86.988914005, 32.125132397 ], [ -86.988887303, 32.125361599 ], [ -86.988726005, 32.125522196 ], [ -86.987972103, 32.125614494 ], [ -86.987190902, 32.125363097 ], [ -86.986813605, 32.125134297 ], [ -86.986409307, 32.124836698 ], [ -86.985574007, 32.124402098 ], [ -86.984981403, 32.124219298 ], [ -86.984227404, 32.124196999 ], [ -86.983769804, 32.124311998 ], [ -86.983339205, 32.124564499 ], [ -86.983258702, 32.124747798 ], [ -86.983286105, 32.125137299 ], [ -86.9833408, 32.125847697 ], [ -86.984015606, 32.127267793 ], [ -86.984204806, 32.127840497 ], [ -86.984205507, 32.128436297 ], [ -86.983963706, 32.128871895 ], [ -86.983479604, 32.129330598 ], [ -86.982672006, 32.129674993 ], [ -86.9814604, 32.129859298 ], [ -86.980679601, 32.129882999 ], [ -86.9787402, 32.129449196 ] ] } },
{ "type": "Feature", "properties": { "site_no": "02425500", "nhdplus_comid": "21453122", "navigation_mode": "DM", "requested_distance_km": 12.0, "start_source": "nwissite", "start_id": "USGS-02425500", "geometry_length_km": 0.31468667545281753 }, "geometry": { "type": "LineString", "coordinates": [ [ -86.9787402, 32.129449196 ], [ -86.978309505, 32.129586995 ], [ -86.977986701, 32.129907995 ], [ -86.9776913, 32.130595699 ], [ -86.977719702, 32.131878994 ] ] } },
{ "type": "Feature", "properties": { "site_no": "02425500", "nhdplus_comid": "21453110", "navigation_mode": "DM", "requested_distance_km": 12.0, "start_source": "nwissite", "start_id": "USGS-02425500", "geometry_length_km": 1.1321479879857441 }, "geometry": { "type": "LineString", "coordinates": [ [ -86.977719702, 32.131878994 ], [ -86.978178501, 32.132772297 ], [ -86.978502102, 32.133161597 ], [ -86.979715005, 32.134122998 ], [ -86.980497107, 32.135084793 ], [ -86.981494002, 32.135473497 ], [ -86.981979102, 32.135793895 ], [ -86.982383907, 32.136526793 ], [ -86.982414506, 32.139620394 ], [ -86.982603304, 32.139826499 ], [ -86.983223006, 32.1399405 ] ] } }
]
}
