{
"type": "FeatureCollection",
"name": "USGS_02442500_UM_12km",
"crs": { "type": "name", "properties": { "name": "urn:ogc:def:crs:OGC:1.3:CRS84" } },
"features": [
{ "type": "Feature", "properties": { "site_no": "02442500", "nhdplus_comid": "18648072", "navigation_mode": "UM", "requested_distance_km": 12.0, "start_source": "nwissite", "start_id": "USGS-02442500", "geometry_length_km": 0.32500252970612414 }, "geometry": { "type": "LineString", "coordinates": [ [ -88.0798719, 33.575393595 ], [ -88.0800087, 33.575393595 ], [ -88.083156101, 33.575051099 ], [ -88.08336803, 33.575027827 ] ] } },
{ "type": "Feature", "properties": { "site_no": "02442500", "nhdplus_comid": "18648064", "navigation_mode": "UM", "requested_distance_km": 12.0, "start_source": "nwissite", "start_id": "USGS-02442500", "geometry_length_km": 0.17162781561341076 }, "geometry": { "type": "LineString", "coordinates": [ [ -88.078093, 33.575736597 ], [ -88.078229904, 33.575622 ], [ -88.079680406, 33.575439297 ], [ -88.0798719, 33.575393595 ] ] } },
{ "type": "Feature", "properties": { "site_no": "02442500", "nhdplus_comid": "18648058", "navigation_mode": "UM", "requested_distance_km": 12.0, "start_source": "nwissite", "start_id": "USGS-02442500", "geometry_length_km": 0.75155529304495128 }, "geometry": { "type": "LineString", "coordinates": [ [ -88.070019305, 33.576649599 ], [ -88.070293002, 33.576649696 ], [ -88.076943606, 33.575850695 ], [ -88.078093, 33.575736597 ] ] } },
{ "type": "Feature", "properties": { "site_no": "02442500", "nhdplus_comid": "18648048", "navigation_mode": "UM", "requested_distance_km": 12.0, "start_source": "nwissite", "start_id": "USGS-02442500", "geometry_length_km": 1.8603505675302192 }, "geometry": { "type": "LineString", "coordinates": [ [ -88.050121106, 33.579388194 ], [ -88.052091807, 33.579206094 ], [ -88.060850404, 33.577950895 ], [ -88.069882505, 33.576695293 ], [ -88.070019305, 33.576649599 ] ] } },
{ "type": "Feature", "properties": { "site_no": "02442500", "nhdplus_comid": "18648036", "navigation_mode": "UM", "requested_distance_km": 12.0, "start_source": "nwissite", "start_id": "USGS-02442500", "geometry_length_km": 1.7706636662551609 }, "geometry": { "type": "LineString", "coordinates": [ [ -88.031152703, 33.581826597 ], [ -88.043196306, 33.580231495 ], [ -88.050039001, 33.579433896 ], [ -88.050121106, 33.579388194 ] ] } },
{ "type": "Feature", "properties": { "site_no": "02442500", "nhdplus_comid": "18648020", "navigation_mode": "UM", "requested_distance_km": 12.0, "start_source": "nwissite", "start_id": "USGS-02442500", "geometry_length_km": 1.074731797442984 }, "geometry": { "type": "LineString", "coordinates": [ [ -88.019655801, 33.583420895 ], [ -88.027594201, 33.582281895 ], [ -88.031152703, 33.581826597 ] ] } },
{ "type": "Feature", "properties": { "site_no": "02442500", "nhdplus_comid": "18648008", "navigation_mode": "UM", "requested_distance_km": 12.0, "start_source": "nwissite", "start_id": "USGS-02442500", "geometry_length_km": 0.37053673607343651 }, "geometry": { "type": "LineString", "coordinates": [ [ -88.015686601, 33.583944395 ], [ -88.019655801, 33.583420895 ] ] } },
{ "type": "Feature", "properties": { "site_no": "02442500", "nhdplus_comid": "18648006", "navigation_mode": "UM", "requested_distance_km": 12.0, "start_source": "nwissite", "start_id": "USGS-02442500", "geometry_length_km": 0.36393064118015994 }, "geometry": { "type": "LineString", "coordinates": [ [ -88.011799403, 33.584513694 ], [ -88.015686601, 33.583944395 ] ] } },
{ "type": "Feature", "properties": { "site_no": "02442500", "nhdplus_comid": "18648002", "navigation_mode": "UM", "requested_distance_km": 12.0, "start_source": "nwissite", "start_id": "USGS-02442500", "geometry_length_km": 0.76781034406155246 }, "geometry": { "type": "LineString", "coordinates": [ [ -88.003586903, 33.585651293 ], [ -88.0037238, 33.585651398 ], [ -88.011799403, 33.584513694 ] ] } },
{ "type": "Feature", "properties": { "site_no": "02442500", "nhdplus_comid": "18647996", "navigation_mode": "UM", "requested_distance_km": 12.0, "start_source": "nwissite", "start_id": "USGS-02442500", "geometry_length_km": 0.14115717968520528 }, "geometry": { "type": "LineString", "coordinates": [ [ -88.0020812, 33.585878797 ], [ -88.003367804, 33.585696898 ], [ -88.003586903, 33.585651293 ] ] } },
{ "type": "Feature", "properties": { "site_no": "02442500", "nhdplus_comid": "18647994", "navigation_mode": "UM", "requested_distance_km": 12.0, "start_source": "nwissite", "start_id": "USGS-02442500", "geometry_length_km": 0.19045120173767863 }, "geometry": { "type": "LineString", "coordinates": [ [ -88.0000237, 33.586033896 ], [ -88.0020812, 33.585878797 ] ] } },
{ "type": "Feature", "properties": { "site_no": "02442500", "nhdplus_comid": "18645700", "navigation_mode": "UM", "requested_distance_km": 12.0, "start_source": "nwissite", "start_id": "USGS-02442500", "geometry_length_km": 1.0623834004923216 }, "geometry": { "type": "LineString", "coordinates": [ [ -87.990994006, 33.591628797 ], [ -87.991103403, 33.591582797 ], [ -87.996380001, 33.587342598 ], [ -87.997200504, 33.586815193 ], [ -87.998650305, 33.586264394 ], [ -88.0000237, 33.586033896 ] ] } },
{ "type": "Feature", "properties": { "site_no": "02442500", "nhdplus_comid": "18645696", "navigation_mode": "UM", "requested_distance_km": 12.0, "start_source": "nwissite", "start_id": "USGS-02442500", "geometry_length_km": 1.6162222104469448 }, "geometry": { "type": "LineString", "coordinates": [ [ -87.978798807, 33.601947993 ], [ -87.9788533, 33.601696 ], [ -87.979208805, 33.601374999 ], [ -87.982135206, 33.599241994 ], [ -87.988122903, 33.593945093 ], [ -87.990994006, 33.591628797 ] ] } },
{ "type": "Feature", "properties": { "site_no": "02442500", "nhdplus_comid": "18645692", "navigation_mode": "UM", "requested_distance_km": 12.0, "start_source": "nwissite", "start_id": "USGS-02442500", "geometry_length_km": 0.52164054406578786 }, "geometry": { "type": "LineString", "coordinates": [ [ -87.974778406, 33.605181299 ], [ -87.977349102, 33.602957197 ], [ -87.977458604, 33.602911294 ], [ -87.978415705, 33.602062896 ], [ -87.978798807, 33.601947993 ] ] } },
{ "type": "Feature", "properties": { "site_no": "02442500", "nhdplus_comid": "18645686", "navigation_mode": "UM", "requested_distance_km": 12.0, "start_source": "nwissite", "start_id": "USGS-02442500", "geometry_length_km": 0.97572775365822151 }, "geometry": { "type": "LineString", "coordinates": [ [ -87.967037506, 33.611097597 ], [ -87.967256501, 33.611028694 ], [ -87.969171301, 33.609515399 ], [ -87.972781606, 33.606511593 ], [ -87.974340707, 33.605387896 ], [ -87.974778406, 33.605181299 ] ] } }
]
}
