{
"type": "FeatureCollection",
"name": "USGS_02480150_UM_12km",
"crs": { "type": "name", "properties": { "name": "urn:ogc:def:crs:OGC:1.3:CRS84" } },
"features": [
{ "type": "Feature", "properties": { "site_no": "02480150", "nhdplus_comid": "18096243", "navigation_mode": "UM", "requested_distance_km": 12.0, "start_source": "nwissite", "start_id": "USGS-02480150", "geometry_length_km": 1.1426546045866852 }, "geometry": { "type": "LineString", "coordinates": [ [ -88.378244005, 30.476321898 ], [ -88.379169904, 30.475519799 ], [ -88.379725404, 30.474855095 ], [ -88.380122103, 30.4741906 ], [ -88.380651303, 30.473823898 ], [ -88.382609002, 30.473136194 ], [ -88.382952906, 30.472952798 ], [ -88.383270301, 30.472471498 ], [ -88.383614101, 30.471692197 ], [ -88.383878507, 30.471188098 ], [ -88.384381101, 30.470523395 ], [ -88.385068707, 30.469262898 ], [ -88.385730006, 30.468941994 ], [ -88.385773162, 30.468912614 ] ] } },
{ "type": "Feature", "properties": { "site_no": "02480150", "nhdplus_comid": "18096225", "navigation_mode": "UM", "requested_distance_km": 12.0, "start_source": "nwissite", "start_id": "USGS-02480150", "geometry_length_km": 6.5218854302559333 }, "geometry": { "type": "LineString", "coordinates": [ [ -88.323178604, 30.491715096 ], [ -88.323416807, 30.491508894 ], [ -88.323522702, 30.491325594 ], [ -88.324475504, 30.490913399 ], [ -88.325163707, 30.4904553 ], [ -88.3259046, 30.490455493 ], [ -88.326513305, 30.490134895 ], [ -88.328207001, 30.490066595 ], [ -88.329979606, 30.490685798 ], [ -88.330350004, 30.490983896 ], [ -88.330641001, 30.491190195 ], [ -88.3314614, 30.491213299 ], [ -88.332096502, 30.491282299 ], [ -88.332705103, 30.491328299 ], [ -88.333102003, 30.491259597 ], [ -88.333737105, 30.491282694 ], [ -88.334477901, 30.491580896 ], [ -88.335192502, 30.491558097 ], [ -88.336303905, 30.491466694 ], [ -88.336674303, 30.491718799 ], [ -88.3369653, 30.492177196 ], [ -88.338155903, 30.492750399 ], [ -88.338949703, 30.492796399 ], [ -88.339267306, 30.492865093 ], [ -88.3402199, 30.493346699 ], [ -88.340563804, 30.493415497 ], [ -88.3408814, 30.493438393 ], [ -88.341225505, 30.493209295 ], [ -88.342442706, 30.493049197 ], [ -88.342813306, 30.492842995 ], [ -88.343501404, 30.491834797 ], [ -88.344057202, 30.491468199 ], [ -88.344692506, 30.4910101 ], [ -88.3451159, 30.490826793 ], [ -88.346650802, 30.490643598 ], [ -88.348000303, 30.490162596 ], [ -88.348979406, 30.490093999 ], [ -88.349323407, 30.490025297 ], [ -88.350276001, 30.490300395 ], [ -88.350699402, 30.490254596 ], [ -88.350884803, 30.490139998 ], [ -88.351123005, 30.489750497 ], [ -88.351440601, 30.488902599 ], [ -88.351758204, 30.488650493 ], [ -88.352155104, 30.488008998 ], [ -88.352631502, 30.487596594 ], [ -88.352710903, 30.487321496 ], [ -88.352737404, 30.486863196 ], [ -88.352684505, 30.486771494 ], [ -88.352684706, 30.4859007 ], [ -88.352843404, 30.485625796 ], [ -88.353266805, 30.485281996 ], [ -88.353293307, 30.484938294 ], [ -88.353134602, 30.484273799 ], [ -88.353319906, 30.484044597 ], [ -88.353611, 30.483929999 ], [ -88.354272507, 30.483884297 ], [ -88.354801707, 30.483655199 ], [ -88.356389202, 30.483655296 ], [ -88.357024305, 30.483586594 ], [ -88.3577388, 30.483678199 ], [ -88.358294301, 30.483724095 ], [ -88.358638406, 30.483563699 ], [ -88.359167501, 30.483197093 ], [ -88.359538101, 30.482715897 ], [ -88.360993303, 30.481524296 ], [ -88.361654803, 30.481249399 ], [ -88.362210505, 30.481043093 ], [ -88.364962205, 30.480676495 ], [ -88.365676604, 30.480355598 ], [ -88.366470307, 30.479691096 ], [ -88.366576202, 30.4796452 ], [ -88.367608003, 30.479416095 ], [ -88.368349001, 30.479416095 ], [ -88.368984006, 30.479759797 ], [ -88.370439202, 30.480103597 ], [ -88.370968401, 30.480149396 ], [ -88.372238405, 30.479897194 ], [ -88.372873306, 30.479599297 ], [ -88.373243906, 30.479118094 ], [ -88.373825803, 30.478201397 ], [ -88.373931706, 30.477926396 ], [ -88.374222606, 30.4774452 ], [ -88.374645904, 30.476940997 ], [ -88.375016302, 30.476734698 ], [ -88.375175007, 30.476688899 ], [ -88.375677802, 30.4769409 ], [ -88.376233302, 30.476986594 ], [ -88.377159305, 30.476505294 ], [ -88.377609104, 30.476459496 ], [ -88.378244005, 30.476321898 ] ] } },
{ "type": "Feature", "properties": { "site_no": "02480150", "nhdplus_comid": "18096221", "navigation_mode": "UM", "requested_distance_km": 12.0, "start_source": "nwissite", "start_id": "USGS-02480150", "geometry_length_km": 0.73062161766181066 }, "geometry": { "type": "LineString", "coordinates": [ [ -88.3169346, 30.489054494 ], [ -88.3174638, 30.489260994 ], [ -88.3178607, 30.489467397 ], [ -88.318469003, 30.490017593 ], [ -88.319051206, 30.489994794 ], [ -88.319898106, 30.489880599 ], [ -88.320374303, 30.490041196 ], [ -88.320718005, 30.4903851 ], [ -88.321511805, 30.490660295 ], [ -88.321935102, 30.491049998 ], [ -88.322146602, 30.4914397 ], [ -88.322199501, 30.491600193 ], [ -88.322596401, 30.4918065 ], [ -88.323178604, 30.491715096 ] ] } },
{ "type": "Feature", "properties": { "site_no": "02480150", "nhdplus_comid": "18096223", "navigation_mode": "UM", "requested_distance_km": 12.0, "start_source": "nwissite", "start_id": "USGS-02480150", "geometry_length_km": 2.3410383775832604 }, "geometry": { "type": "LineString", "coordinates": [ [ -88.294863507, 30.491954699 ], [ -88.295287102, 30.491679899 ], [ -88.295869403, 30.491473995 ], [ -88.297430903, 30.491131 ], [ -88.298330605, 30.491108596 ], [ -88.298965603, 30.491315193 ], [ -88.299468204, 30.491659194 ], [ -88.300420605, 30.492117994 ], [ -88.301717207, 30.492027 ], [ -88.3027227, 30.492073394 ], [ -88.3031196, 30.492348596 ], [ -88.303595901, 30.492417499 ], [ -88.303939804, 30.492601097 ], [ -88.304363102, 30.492784597 ], [ -88.304865703, 30.4928765 ], [ -88.304998204, 30.492807694 ], [ -88.305633605, 30.492326796 ], [ -88.306162901, 30.492052093 ], [ -88.306877904, 30.491341993 ], [ -88.307724901, 30.491113193 ], [ -88.308307305, 30.490632199 ], [ -88.309524506, 30.490586899 ], [ -88.309974402, 30.490472496 ], [ -88.311244905, 30.489854194 ], [ -88.311959602, 30.489396296 ], [ -88.312330306, 30.489190198 ], [ -88.313282907, 30.489167593 ], [ -88.313732803, 30.489190698 ], [ -88.314791307, 30.489053696 ], [ -88.315585002, 30.489374898 ], [ -88.315929003, 30.489397898 ], [ -88.316908203, 30.489077397 ], [ -88.3169346, 30.489054494 ] ] } },
{ "type": "Feature", "properties": { "site_no": "02480150", "nhdplus_comid": "18096049", "navigation_mode": "UM", "requested_distance_km": 12.0, "start_source": "nwissite", "start_id": "USGS-02480150", "geometry_length_km": 1.6024839551400298 }, "geometry": { "type": "LineString", "coordinates": [ [ -88.281337507, 30.496094495 ], [ -88.281416804, 30.496277899 ], [ -88.282077603, 30.497149095 ], [ -88.282553703, 30.497630693 ], [ -88.283585601, 30.497837596 ], [ -88.283903107, 30.4978837 ], [ -88.284538306, 30.497700594 ], [ -88.285173804, 30.497334398 ], [ -88.285571001, 30.4970138 ], [ -88.285862401, 30.496647395 ], [ -88.286471501, 30.496120594 ], [ -88.287160002, 30.495548099 ], [ -88.290177904, 30.494220696 ], [ -88.292957105, 30.493351594 ], [ -88.293751404, 30.492939495 ], [ -88.294863507, 30.491954699 ] ] } }
]
}
