{
"type": "FeatureCollection",
"name": "USGS_03573000_UM_12km",
"crs": { "type": "name", "properties": { "name": "urn:ogc:def:crs:OGC:1.3:CRS84" } },
"features": [
{ "type": "Feature", "properties": { "site_no": "03573000", "nhdplus_comid": "19650054", "navigation_mode": "UM", "requested_distance_km": 12.0, "start_source": "nwissite", "start_id": "USGS-03573000", "geometry_length_km": 0.22923610180507675 }, "geometry": { "type": "LineString", "coordinates": [ [ -86.178661801, 34.300954893 ], [ -86.178689405, 34.301046498 ], [ -86.180400707, 34.301183194 ], [ -86.180925205, 34.301366098 ], [ -86.18099856, 34.301426919 ] ] } },
{ "type": "Feature", "properties": { "site_no": "03573000", "nhdplus_comid": "19649420", "navigation_mode": "UM", "requested_distance_km": 12.0, "start_source": "nwissite", "start_id": "USGS-03573000", "geometry_length_km": 2.1204716683766165 }, "geometry": { "type": "LineString", "coordinates": [ [ -86.164057806, 34.293951094 ], [ -86.1648857, 34.2938364 ], [ -86.165934302, 34.293423697 ], [ -86.166237906, 34.293446496 ], [ -86.167452507, 34.294156194 ], [ -86.167977206, 34.294774495 ], [ -86.168391503, 34.295484394 ], [ -86.1685021, 34.295965396 ], [ -86.1684753, 34.297454298 ], [ -86.168062001, 34.298943296 ], [ -86.168090202, 34.2997908 ], [ -86.168228403, 34.300134294 ], [ -86.169664003, 34.301187396 ], [ -86.170575202, 34.301645197 ], [ -86.171127304, 34.301782399 ], [ -86.171596505, 34.301805198 ], [ -86.172672801, 34.301621497 ], [ -86.173831806, 34.301162995 ], [ -86.175790906, 34.300200194 ], [ -86.176177301, 34.300245799 ], [ -86.177668005, 34.300657496 ], [ -86.178441003, 34.300954998 ], [ -86.178661801, 34.300954893 ] ] } },
{ "type": "Feature", "properties": { "site_no": "03573000", "nhdplus_comid": "19649444", "navigation_mode": "UM", "requested_distance_km": 12.0, "start_source": "nwissite", "start_id": "USGS-03573000", "geometry_length_km": 0.45532016729733099 }, "geometry": { "type": "LineString", "coordinates": [ [ -86.161517203, 34.290607698 ], [ -86.162069507, 34.291317597 ], [ -86.162235305, 34.291821495 ], [ -86.163008802, 34.293195598 ], [ -86.163588606, 34.293836698 ], [ -86.164057806, 34.293951094 ] ] } },
{ "type": "Feature", "properties": { "site_no": "03573000", "nhdplus_comid": "19649446", "navigation_mode": "UM", "requested_distance_km": 12.0, "start_source": "nwissite", "start_id": "USGS-03573000", "geometry_length_km": 0.52771374489305944 }, "geometry": { "type": "LineString", "coordinates": [ [ -86.156053402, 34.2915712 ], [ -86.157460704, 34.291318893 ], [ -86.158481702, 34.290814698 ], [ -86.159640603, 34.290516697 ], [ -86.160799704, 34.290401794 ], [ -86.161517203, 34.290607698 ] ] } },
{ "type": "Feature", "properties": { "site_no": "03573000", "nhdplus_comid": "19649472", "navigation_mode": "UM", "requested_distance_km": 12.0, "start_source": "nwissite", "start_id": "USGS-03573000", "geometry_length_km": 0.80581918830873767 }, "geometry": { "type": "LineString", "coordinates": [ [ -86.1509462, 34.286189593 ], [ -86.150974005, 34.286670595 ], [ -86.151250303, 34.287632599 ], [ -86.151471205, 34.288090698 ], [ -86.152685903, 34.289510496 ], [ -86.154093705, 34.290769994 ], [ -86.154866502, 34.291204996 ], [ -86.155446202, 34.291433893 ], [ -86.156053402, 34.2915712 ] ] } },
{ "type": "Feature", "properties": { "site_no": "03573000", "nhdplus_comid": "19649492", "navigation_mode": "UM", "requested_distance_km": 12.0, "start_source": "nwissite", "start_id": "USGS-03573000", "geometry_length_km": 0.53977474810264758 }, "geometry": { "type": "LineString", "coordinates": [ [ -86.146833703, 34.2830524 ], [ -86.146916501, 34.283235595 ], [ -86.149648704, 34.2846094 ], [ -86.150725201, 34.285342194 ], [ -86.1509462, 34.286189593 ] ] } },
{ "type": "Feature", "properties": { "site_no": "03573000", "nhdplus_comid": "19649572", "navigation_mode": "UM", "requested_distance_km": 12.0, "start_source": "nwissite", "start_id": "USGS-03573000", "geometry_length_km": 2.431229208514663 }, "geometry": { "type": "LineString", "coordinates": [ [ -86.141229004, 34.268531196 ], [ -86.141974002, 34.268737197 ], [ -86.142525904, 34.269263998 ], [ -86.142526105, 34.270065598 ], [ -86.1419193, 34.271096498 ], [ -86.140512504, 34.2723106 ], [ -86.139685005, 34.273387298 ], [ -86.139464304, 34.274074398 ], [ -86.139354207, 34.275288396 ], [ -86.138995603, 34.276571199 ], [ -86.138554305, 34.277556196 ], [ -86.138361305, 34.277693599 ], [ -86.137726903, 34.278839 ], [ -86.1376165, 34.279251195 ], [ -86.137782201, 34.280007094 ], [ -86.138113402, 34.280304894 ], [ -86.138582505, 34.280419394 ], [ -86.140569203, 34.280121297 ], [ -86.141369402, 34.280098297 ], [ -86.142473206, 34.280304298 ], [ -86.143466607, 34.280739397 ], [ -86.145591803, 34.2823653 ], [ -86.146668106, 34.283029497 ], [ -86.146833703, 34.2830524 ] ] } },
{ "type": "Feature", "properties": { "site_no": "03573000", "nhdplus_comid": "19649602", "navigation_mode": "UM", "requested_distance_km": 12.0, "start_source": "nwissite", "start_id": "USGS-03573000", "geometry_length_km": 1.1436195923938515 }, "geometry": { "type": "LineString", "coordinates": [ [ -86.134110406, 34.263904996 ], [ -86.134248301, 34.2640654 ], [ -86.134414107, 34.2654396 ], [ -86.134524502, 34.265668698 ], [ -86.135572903, 34.266378693 ], [ -86.136124805, 34.267019995 ], [ -86.136593901, 34.267867394 ], [ -86.136897601, 34.269424893 ], [ -86.137283906, 34.269722596 ], [ -86.137642607, 34.269791394 ], [ -86.138525404, 34.269630894 ], [ -86.139380701, 34.269355997 ], [ -86.140429005, 34.268645793 ], [ -86.141229004, 34.268531196 ] ] } },
{ "type": "Feature", "properties": { "site_no": "03573000", "nhdplus_comid": "19649626", "navigation_mode": "UM", "requested_distance_km": 12.0, "start_source": "nwissite", "start_id": "USGS-03573000", "geometry_length_km": 0.29053777517154528 }, "geometry": { "type": "LineString", "coordinates": [ [ -86.1325652, 34.261774898 ], [ -86.133034207, 34.262003995 ], [ -86.133917101, 34.2630575 ], [ -86.134110205, 34.263492696 ], [ -86.134110406, 34.263904996 ] ] } },
{ "type": "Feature", "properties": { "site_no": "03573000", "nhdplus_comid": "19649624", "navigation_mode": "UM", "requested_distance_km": 12.0, "start_source": "nwissite", "start_id": "USGS-03573000", "geometry_length_km": 0.66425560927839244 }, "geometry": { "type": "LineString", "coordinates": [ [ -86.127268605, 34.265027694 ], [ -86.127654806, 34.265119299 ], [ -86.128317006, 34.265073493 ], [ -86.1290894, 34.264844395 ], [ -86.129503302, 34.264477894 ], [ -86.130634107, 34.262736998 ], [ -86.131185904, 34.262187295 ], [ -86.131985903, 34.261843696 ], [ -86.1325652, 34.261774898 ] ] } },
{ "type": "Feature", "properties": { "site_no": "03573000", "nhdplus_comid": "19649642", "navigation_mode": "UM", "requested_distance_km": 12.0, "start_source": "nwissite", "start_id": "USGS-03573000", "geometry_length_km": 0.85804986805238392 }, "geometry": { "type": "LineString", "coordinates": [ [ -86.123351105, 34.259209596 ], [ -86.123378605, 34.261271097 ], [ -86.123626903, 34.261500098 ], [ -86.124344103, 34.261683397 ], [ -86.124978602, 34.261729196 ], [ -86.1257511, 34.261820793 ], [ -86.1260821, 34.262026995 ], [ -86.1265788, 34.262736998 ], [ -86.126744203, 34.263195194 ], [ -86.126909904, 34.264317498 ], [ -86.127268605, 34.265027694 ] ] } },
{ "type": "Feature", "properties": { "site_no": "03573000", "nhdplus_comid": "19649694", "navigation_mode": "UM", "requested_distance_km": 12.0, "start_source": "nwissite", "start_id": "USGS-03573000", "geometry_length_km": 1.3591787205004686 }, "geometry": { "type": "LineString", "coordinates": [ [ -86.128399007, 34.2509408 ], [ -86.128978103, 34.250757493 ], [ -86.129309103, 34.250780396 ], [ -86.129723005, 34.251444697 ], [ -86.129805803, 34.2517424 ], [ -86.129640304, 34.253025196 ], [ -86.129006006, 34.253712296 ], [ -86.127957702, 34.254330695 ], [ -86.125778504, 34.255109496 ], [ -86.124978602, 34.255430296 ], [ -86.124454401, 34.2556822 ], [ -86.123406202, 34.256483898 ], [ -86.123213001, 34.256781697 ], [ -86.123185605, 34.257583395 ], [ -86.1233235, 34.258133098 ], [ -86.123351105, 34.259209596 ] ] } }
]
}
