{
"type": "FeatureCollection",
"name": "USGS_03592300_UM_12km",
"crs": { "type": "name", "properties": { "name": "urn:ogc:def:crs:OGC:1.3:CRS84" } },
"features": [
{ "type": "Feature", "properties": { "site_no": "03592300", "nhdplus_comid": "19569742", "navigation_mode": "UM", "requested_distance_km": 12.0, "start_source": "nwissite", "start_id": "USGS-03592300", "geometry_length_km": 0.85267141984188843 }, "geometry": { "type": "LineString", "coordinates": [ [ -88.028456502, 34.488297798 ], [ -88.028815806, 34.488504194 ], [ -88.029147804, 34.488504395 ], [ -88.029369302, 34.488275595 ], [ -88.029590704, 34.488184094 ], [ -88.030199304, 34.488161594 ], [ -88.030172303, 34.487497397 ], [ -88.030504204, 34.487497598 ], [ -88.0313337, 34.487795994 ], [ -88.031776406, 34.487704694 ], [ -88.032164, 34.487430096 ], [ -88.033132404, 34.487155899 ], [ -88.034460001, 34.487271398 ], [ -88.034681, 34.487454697 ], [ -88.034956902, 34.488233693 ], [ -88.035426803, 34.488531694 ], [ -88.035499885, 34.488558889 ] ] } },
{ "type": "Feature", "properties": { "site_no": "03592300", "nhdplus_comid": "19569740", "navigation_mode": "UM", "requested_distance_km": 12.0, "start_source": "nwissite", "start_id": "USGS-03592300", "geometry_length_km": 0.11822189291105001 }, "geometry": { "type": "LineString", "coordinates": [ [ -88.028014801, 34.487450093 ], [ -88.028539903, 34.487862699 ], [ -88.028539501, 34.488229096 ], [ -88.028456502, 34.488297798 ] ] } },
{ "type": "Feature", "properties": { "site_no": "03592300", "nhdplus_comid": "19569792", "navigation_mode": "UM", "requested_distance_km": 12.0, "start_source": "nwissite", "start_id": "USGS-03592300", "geometry_length_km": 2.2453075475760382 }, "geometry": { "type": "LineString", "coordinates": [ [ -88.019674607, 34.476082996 ], [ -88.021166906, 34.477114893 ], [ -88.021609105, 34.477298498 ], [ -88.022051804, 34.477207296 ], [ -88.024154507, 34.476453096 ], [ -88.024624705, 34.476476297 ], [ -88.025039405, 34.476614095 ], [ -88.025565006, 34.476568699 ], [ -88.026616402, 34.4761343 ], [ -88.0271971, 34.4762493 ], [ -88.027390406, 34.476478398 ], [ -88.027389906, 34.4769594 ], [ -88.026198007, 34.479386397 ], [ -88.025449902, 34.480576895 ], [ -88.025255501, 34.481309697 ], [ -88.024784803, 34.481767394 ], [ -88.024756804, 34.482088 ], [ -88.025198504, 34.482821196 ], [ -88.026082806, 34.483440295 ], [ -88.026525006, 34.483875796 ], [ -88.026635304, 34.484127797 ], [ -88.027188003, 34.484677896 ], [ -88.027187705, 34.4849528 ], [ -88.026578903, 34.485158496 ], [ -88.026578605, 34.485456198 ], [ -88.027186103, 34.486372799 ], [ -88.027932405, 34.4868773 ], [ -88.028014801, 34.487450093 ] ] } },
{ "type": "Feature", "properties": { "site_no": "03592300", "nhdplus_comid": "19569794", "navigation_mode": "UM", "requested_distance_km": 12.0, "start_source": "nwissite", "start_id": "USGS-03592300", "geometry_length_km": 1.0904893399656979 }, "geometry": { "type": "LineString", "coordinates": [ [ -88.013036907, 34.4761004 ], [ -88.012981303, 34.476329394 ], [ -88.012289301, 34.476763897 ], [ -88.011984602, 34.4771301 ], [ -88.0119837, 34.477817297 ], [ -88.012259804, 34.478184 ], [ -88.0127296, 34.478504993 ], [ -88.014001504, 34.478735097 ], [ -88.014969707, 34.478644297 ], [ -88.015384801, 34.478438593 ], [ -88.016575702, 34.477111094 ], [ -88.017184801, 34.476607695 ], [ -88.017793603, 34.476310499 ], [ -88.018761806, 34.476082295 ], [ -88.019674607, 34.476082996 ] ] } },
{ "type": "Feature", "properties": { "site_no": "03592300", "nhdplus_comid": "19569820", "navigation_mode": "UM", "requested_distance_km": 12.0, "start_source": "nwissite", "start_id": "USGS-03592300", "geometry_length_km": 0.79930745336096798 }, "geometry": { "type": "LineString", "coordinates": [ [ -88.009697303, 34.470623299 ], [ -88.0100566, 34.470783994 ], [ -88.0106095, 34.470921896 ], [ -88.011797801, 34.471655793 ], [ -88.012460701, 34.472297698 ], [ -88.012792006, 34.472733095 ], [ -88.013620004, 34.474153996 ], [ -88.013785206, 34.474703796 ], [ -88.013756901, 34.475299299 ], [ -88.013285801, 34.476031899 ], [ -88.013036907, 34.4761004 ] ] } },
{ "type": "Feature", "properties": { "site_no": "03592300", "nhdplus_comid": "19569874", "navigation_mode": "UM", "requested_distance_km": 12.0, "start_source": "nwissite", "start_id": "USGS-03592300", "geometry_length_km": 2.403102961701387 }, "geometry": { "type": "LineString", "coordinates": [ [ -88.003433101, 34.460699998 ], [ -88.003737107, 34.460837699 ], [ -88.004428506, 34.460746698 ], [ -88.0052865, 34.460174896 ], [ -88.006338701, 34.459167995 ], [ -88.006643005, 34.459076695 ], [ -88.007278904, 34.459123194 ], [ -88.0078317, 34.459261097 ], [ -88.008273803, 34.459536299 ], [ -88.008577302, 34.460017599 ], [ -88.008576304, 34.460704699 ], [ -88.008437805, 34.460933596 ], [ -88.007524602, 34.461459599 ], [ -88.0070545, 34.461504996 ], [ -88.006695107, 34.461390197 ], [ -88.005727202, 34.461503699 ], [ -88.004731104, 34.461915098 ], [ -88.004232705, 34.462326899 ], [ -88.003678605, 34.463150896 ], [ -88.003483504, 34.464250199 ], [ -88.0034822, 34.465257898 ], [ -88.003841102, 34.465647697 ], [ -88.004531905, 34.466060594 ], [ -88.005222902, 34.466267399 ], [ -88.005830705, 34.466840595 ], [ -88.005691305, 34.467687793 ], [ -88.006187402, 34.468925096 ], [ -88.006353006, 34.4691085 ], [ -88.006352805, 34.469291799 ], [ -88.006877601, 34.4697733 ], [ -88.007596105, 34.470186196 ], [ -88.009061307, 34.470622696 ], [ -88.009697303, 34.470623299 ] ] } },
{ "type": "Feature", "properties": { "site_no": "03592300", "nhdplus_comid": "19569876", "navigation_mode": "UM", "requested_distance_km": 12.0, "start_source": "nwissite", "start_id": "USGS-03592300", "geometry_length_km": 0.23012265749597755 }, "geometry": { "type": "LineString", "coordinates": [ [ -88.002661504, 34.4587752 ], [ -88.002744101, 34.459073097 ], [ -88.003461204, 34.460379295 ], [ -88.003433101, 34.460699998 ] ] } },
{ "type": "Feature", "properties": { "site_no": "03592300", "nhdplus_comid": "19569882", "navigation_mode": "UM", "requested_distance_km": 12.0, "start_source": "nwissite", "start_id": "USGS-03592300", "geometry_length_km": 0.1218143873786922 }, "geometry": { "type": "LineString", "coordinates": [ [ -88.001666903, 34.458109997 ], [ -88.0020262, 34.458202094 ], [ -88.002578601, 34.458752297 ], [ -88.002661504, 34.4587752 ] ] } },
{ "type": "Feature", "properties": { "site_no": "03592300", "nhdplus_comid": "19569884", "navigation_mode": "UM", "requested_distance_km": 12.0, "start_source": "nwissite", "start_id": "USGS-03592300", "geometry_length_km": 0.17439254681180541 }, "geometry": { "type": "LineString", "coordinates": [ [ -88.000038102, 34.457372293 ], [ -88.000672303, 34.457488194 ], [ -88.001280203, 34.457788296 ], [ -88.001666903, 34.458109997 ] ] } },
{ "type": "Feature", "properties": { "site_no": "03592300", "nhdplus_comid": "19568248", "navigation_mode": "UM", "requested_distance_km": 12.0, "start_source": "nwissite", "start_id": "USGS-03592300", "geometry_length_km": 0.65488797980997338 }, "geometry": { "type": "LineString", "coordinates": [ [ -87.996096902, 34.4582664 ], [ -87.996650606, 34.458678097 ], [ -87.997675501, 34.459753498 ], [ -87.9980352, 34.4598905 ], [ -87.998505302, 34.459935896 ], [ -87.998809405, 34.459844396 ], [ -87.999085404, 34.459546894 ], [ -87.999248706, 34.457876697 ], [ -87.999552205, 34.457510196 ], [ -88.000038102, 34.457372293 ] ] } },
{ "type": "Feature", "properties": { "site_no": "03592300", "nhdplus_comid": "19568266", "navigation_mode": "UM", "requested_distance_km": 12.0, "start_source": "nwissite", "start_id": "USGS-03592300", "geometry_length_km": 1.8794553416764197 }, "geometry": { "type": "LineString", "coordinates": [ [ -87.987353802, 34.454404198 ], [ -87.987299204, 34.454930998 ], [ -87.986333907, 34.456695594 ], [ -87.985008404, 34.457979493 ], [ -87.984345406, 34.458438098 ], [ -87.984180205, 34.458827697 ], [ -87.984208502, 34.459400393 ], [ -87.984568506, 34.4597665 ], [ -87.984983504, 34.459903494 ], [ -87.985508904, 34.459880099 ], [ -87.987305604, 34.459420294 ], [ -87.9879416, 34.459419794 ], [ -87.989407606, 34.459784694 ], [ -87.990874, 34.460355997 ], [ -87.991399504, 34.460424095 ], [ -87.992284201, 34.460331596 ], [ -87.9927264, 34.460170895 ], [ -87.994852901, 34.458382197 ], [ -87.995350406, 34.458244197 ], [ -87.996096902, 34.4582664 ] ] } },
{ "type": "Feature", "properties": { "site_no": "03592300", "nhdplus_comid": "19568268", "navigation_mode": "UM", "requested_distance_km": 12.0, "start_source": "nwissite", "start_id": "USGS-03592300", "geometry_length_km": 0.67277256586470524 }, "geometry": { "type": "LineString", "coordinates": [ [ -87.980913505, 34.456127994 ], [ -87.981687807, 34.456127197 ], [ -87.983263403, 34.455759399 ], [ -87.984783001, 34.454910494 ], [ -87.985666707, 34.454108097 ], [ -87.986330204, 34.454015799 ], [ -87.987353802, 34.454404198 ] ] } },
{ "type": "Feature", "properties": { "site_no": "03592300", "nhdplus_comid": "19568264", "navigation_mode": "UM", "requested_distance_km": 12.0, "start_source": "nwissite", "start_id": "USGS-03592300", "geometry_length_km": 0.55623687472569738 }, "geometry": { "type": "LineString", "coordinates": [ [ -87.975353904, 34.454621099 ], [ -87.977206506, 34.4546424 ], [ -87.977704406, 34.454802394 ], [ -87.978368707, 34.455374494 ], [ -87.979613706, 34.455945894 ], [ -87.980913505, 34.456127994 ] ] } },
{ "type": "Feature", "properties": { "site_no": "03592300", "nhdplus_comid": "19569426", "navigation_mode": "UM", "requested_distance_km": 12.0, "start_source": "nwissite", "start_id": "USGS-03592300", "geometry_length_km": 0.799505500553367 }, "geometry": { "type": "LineString", "coordinates": [ [ -87.967186503, 34.453779995 ], [ -87.969387501, 34.453258894 ], [ -87.972174801, 34.453451298 ], [ -87.973239206, 34.454332493 ], [ -87.975038901, 34.454489 ], [ -87.975353904, 34.454621099 ] ] } }
]
}
