{
"type": "FeatureCollection",
"name": "USGS_02456500_UM_12km",
"crs": { "type": "name", "properties": { "name": "urn:ogc:def:crs:OGC:1.3:CRS84" } },
"features": [
{ "type": "Feature", "properties": { "site_no": "02456500", "nhdplus_comid": "18566317", "navigation_mode": "UM", "requested_distance_km": 12.0, "start_source": "nwissite", "start_id": "USGS-02456500", "geometry_length_km": 2.7458307689455101 }, "geometry": { "type": "LineString", "coordinates": [ [ -86.975528501, 33.722587295 ], [ -86.975720502, 33.7226329 ], [ -86.977778502, 33.724120297 ], [ -86.978573903, 33.7244175 ], [ -86.980685502, 33.724919796 ], [ -86.9813435, 33.724919297 ], [ -86.9818094, 33.724735595 ], [ -86.982713103, 33.723909996 ], [ -86.983670905, 33.722488895 ], [ -86.983670503, 33.722099297 ], [ -86.983203702, 33.721595697 ], [ -86.981859401, 33.720749296 ], [ -86.981173106, 33.720131293 ], [ -86.9798555, 33.718734793 ], [ -86.979305804, 33.717658594 ], [ -86.979357406, 33.7149323 ], [ -86.979602702, 33.7137179 ], [ -86.979903303, 33.712915793 ], [ -86.9802588, 33.712251097 ], [ -86.980641901, 33.711815499 ], [ -86.9818196, 33.710898198 ], [ -86.983945641, 33.709350778 ] ] } },
{ "type": "Feature", "properties": { "site_no": "02456500", "nhdplus_comid": "18565715", "navigation_mode": "UM", "requested_distance_km": 12.0, "start_source": "nwissite", "start_id": "USGS-02456500", "geometry_length_km": 8.0709500382729065 }, "geometry": { "type": "LineString", "coordinates": [ [ -86.942222603, 33.728359498 ], [ -86.942221701, 33.727122396 ], [ -86.9424408, 33.726755798 ], [ -86.942796901, 33.726388998 ], [ -86.943399906, 33.726159595 ], [ -86.944331907, 33.7260217 ], [ -86.945209406, 33.726135693 ], [ -86.946032204, 33.726478897 ], [ -86.946526006, 33.726822294 ], [ -86.946855403, 33.727280296 ], [ -86.947761804, 33.729295693 ], [ -86.948201202, 33.730097398 ], [ -86.948421001, 33.730647095 ], [ -86.949739605, 33.733395495 ], [ -86.950096302, 33.733670197 ], [ -86.950864203, 33.733875796 ], [ -86.951823905, 33.7338982 ], [ -86.952673703, 33.733622797 ], [ -86.953331202, 33.733003795 ], [ -86.953632101, 33.732453793 ], [ -86.953849904, 33.7307126 ], [ -86.954397306, 33.729543798 ], [ -86.955273606, 33.728420697 ], [ -86.956040606, 33.727732897 ], [ -86.959657103, 33.725073099 ], [ -86.960588403, 33.724156 ], [ -86.961766005, 33.722895198 ], [ -86.962614805, 33.721772097 ], [ -86.962943003, 33.721061699 ], [ -86.963106804, 33.720328398 ], [ -86.963133305, 33.719434895 ], [ -86.962968305, 33.718953997 ], [ -86.962666303, 33.718518898 ], [ -86.961486205, 33.717351295 ], [ -86.9577832, 33.715200298 ], [ -86.955013402, 33.713964894 ], [ -86.9544098, 33.7135759 ], [ -86.953751303, 33.712866098 ], [ -86.953284204, 33.711697996 ], [ -86.953255005, 33.709727794 ], [ -86.953446403, 33.709177896 ], [ -86.953993902, 33.7083527 ], [ -86.954733402, 33.707756594 ], [ -86.955610201, 33.707435295 ], [ -86.956788801, 33.707342893 ], [ -86.957721002, 33.707479797 ], [ -86.962904401, 33.710133798 ], [ -86.964413002, 33.711026199 ], [ -86.965318404, 33.711804494 ], [ -86.966910303, 33.713613197 ], [ -86.9671847, 33.713819198 ], [ -86.968914405, 33.7163608 ], [ -86.970890507, 33.7183754 ], [ -86.973552607, 33.720824793 ], [ -86.975500904, 33.722449698 ], [ -86.975528501, 33.722587295 ] ] } }
]
}
