{
"type": "FeatureCollection",
"name": "USGS_02471078_UM_12km",
"crs": { "type": "name", "properties": { "name": "urn:ogc:def:crs:OGC:1.3:CRS84" } },
"features": [
{ "type": "Feature", "properties": { "site_no": "02471078", "nhdplus_comid": "18515610", "navigation_mode": "UM", "requested_distance_km": 12.0, "start_source": "nwissite", "start_id": "USGS-02471078", "geometry_length_km": 9.0427165871673232 }, "geometry": { "type": "LineString", "coordinates": [ [ -88.235077202, 30.556086496 ], [ -88.234652907, 30.555536896 ], [ -88.234175205, 30.5546664 ], [ -88.2338043, 30.5543916 ], [ -88.2316586, 30.553728893 ], [ -88.230784804, 30.553706698 ], [ -88.2298842, 30.553455293 ], [ -88.229751505, 30.5532263 ], [ -88.229566, 30.553134799 ], [ -88.229592405, 30.553020194 ], [ -88.2294598, 30.552836895 ], [ -88.229431801, 30.551484898 ], [ -88.229405001, 30.551141195 ], [ -88.229113102, 30.550568499 ], [ -88.2288744, 30.5502479 ], [ -88.228264906, 30.549744196 ], [ -88.227364101, 30.549217798 ], [ -88.227072507, 30.548942998 ], [ -88.226966403, 30.548668094 ], [ -88.226965405, 30.547751494 ], [ -88.227123506, 30.547086693 ], [ -88.2270694, 30.546055496 ], [ -88.226963207, 30.545688994 ], [ -88.226433001, 30.545116499 ], [ -88.225929104, 30.544245899 ], [ -88.225637302, 30.5437878 ], [ -88.225053601, 30.542734094 ], [ -88.224523403, 30.542001195 ], [ -88.2238077, 30.541153796 ], [ -88.223807603, 30.541062094 ], [ -88.223701507, 30.540947594 ], [ -88.223595403, 30.540787295 ], [ -88.223145001, 30.540443897 ], [ -88.222826906, 30.540100396 ], [ -88.2228266, 30.539802499 ], [ -88.222720802, 30.539848395 ], [ -88.222667903, 30.539894298 ], [ -88.222429305, 30.539642297 ], [ -88.221661106, 30.539161697 ], [ -88.220998704, 30.538612194 ], [ -88.220733605, 30.538268596 ], [ -88.220150605, 30.537856497 ], [ -88.218906, 30.537536696 ], [ -88.218508504, 30.537261896 ], [ -88.217713401, 30.536231197 ], [ -88.2167596, 30.535590298 ], [ -88.214640602, 30.534399994 ], [ -88.2145347, 30.534400098 ], [ -88.2142433, 30.534216896 ], [ -88.213899001, 30.534056693 ], [ -88.212839805, 30.534011699 ], [ -88.212416202, 30.533943094 ], [ -88.211860001, 30.533622697 ], [ -88.211833403, 30.533485197 ], [ -88.210985705, 30.532867 ], [ -88.209979102, 30.532340594 ], [ -88.209184401, 30.531653695 ], [ -88.209051803, 30.531401597 ], [ -88.208919302, 30.531310096 ], [ -88.2086806, 30.530828997 ], [ -88.208362706, 30.530531295 ], [ -88.207859606, 30.530348293 ], [ -88.207118206, 30.530302897 ], [ -88.205476806, 30.530189298 ], [ -88.205132507, 30.530074894 ], [ -88.204973601, 30.530075096 ], [ -88.204364605, 30.529914998 ], [ -88.202458605, 30.529893197 ], [ -88.201584503, 30.529229097 ], [ -88.2007633, 30.528610796 ], [ -88.200339407, 30.528358996 ], [ -88.199254103, 30.528474197 ], [ -88.198804006, 30.528428599 ], [ -88.198327802, 30.528680995 ], [ -88.197798304, 30.528750099 ], [ -88.1973482, 30.528589897 ], [ -88.197162703, 30.528429598 ], [ -88.197030403, 30.528406695 ], [ -88.196580306, 30.528246596 ], [ -88.196209602, 30.528177999 ], [ -88.195230007, 30.528155595 ], [ -88.194541402, 30.527651794 ], [ -88.193455607, 30.5270795 ], [ -88.193296604, 30.526942097 ], [ -88.193164103, 30.526712999 ], [ -88.193057902, 30.526346393 ], [ -88.192819402, 30.525956899 ], [ -88.192263007, 30.525338396 ], [ -88.191812605, 30.524696998 ], [ -88.191679902, 30.5243074 ], [ -88.191705503, 30.5229095 ], [ -88.191493504, 30.522611596 ], [ -88.191202104, 30.522313893 ], [ -88.190116502, 30.521833099 ], [ -88.189666204, 30.521466695 ], [ -88.188950904, 30.520504594 ], [ -88.188076802, 30.519748695 ], [ -88.188050203, 30.519611195 ], [ -88.187944204, 30.519359194 ], [ -88.187599503, 30.518694699 ], [ -88.187599607, 30.518602997 ], [ -88.187520102, 30.518511496 ], [ -88.187493406, 30.518350996 ], [ -88.187440604, 30.518305197 ], [ -88.1872814, 30.517824098 ], [ -88.187042907, 30.517434597 ], [ -88.185798101, 30.516335197 ], [ -88.185612701, 30.5160373 ], [ -88.1854266, 30.514799893 ], [ -88.185241103, 30.514433295 ], [ -88.185135007, 30.514089599 ], [ -88.185214005, 30.513401896 ], [ -88.185081504, 30.513126999 ], [ -88.184869602, 30.512897998 ], [ -88.184737101, 30.5126459 ], [ -88.184815705, 30.511637494 ], [ -88.184894703, 30.510812394 ], [ -88.184920706, 30.508726999 ], [ -88.184814505, 30.508314498 ], [ -88.184629001, 30.507902093 ], [ -88.184284702, 30.5073293 ], [ -88.184284501, 30.507214695 ], [ -88.184205003, 30.507077299 ], [ -88.184205003, 30.506985694 ], [ -88.183327802, 30.5053818 ], [ -88.1832994, 30.5044652 ], [ -88.183193006, 30.504419394 ], [ -88.182872407, 30.503296494 ], [ -88.182792805, 30.503250696 ], [ -88.182526901, 30.502494499 ], [ -88.181785107, 30.501898997 ], [ -88.181546301, 30.501119897 ], [ -88.181355168, 30.500810023 ] ] } }
]
}
