{
"type": "FeatureCollection",
"name": "USGS_02365310_DM_12km",
"crs": { "type": "name", "properties": { "name": "urn:ogc:def:crs:OGC:1.3:CRS84" } },
"features": [
{ "type": "Feature", "properties": { "site_no": "02365310", "nhdplus_comid": "2238713", "navigation_mode": "DM", "requested_distance_km": 12.0, "start_source": "nwissite", "start_id": "USGS-02365310", "geometry_length_km": 0.77999155358594652 }, "geometry": { "type": "LineString", "coordinates": [ [ -85.586017963, 31.039270847 ], [ -85.585978806, 31.039259598 ], [ -85.5851008, 31.038801 ], [ -85.583983406, 31.038319394 ], [ -85.583664104, 31.038273498 ], [ -85.5826528, 31.038548097 ], [ -85.581428602, 31.038685195 ], [ -85.5796194, 31.038203396 ], [ -85.578368902, 31.037744597 ] ] } },
{ "type": "Feature", "properties": { "site_no": "02365310", "nhdplus_comid": "2238721", "navigation_mode": "DM", "requested_distance_km": 12.0, "start_source": "nwissite", "start_id": "USGS-02365310", "geometry_length_km": 0.88855824345681378 }, "geometry": { "type": "LineString", "coordinates": [ [ -85.578368902, 31.037744597 ], [ -85.577358, 31.037171394 ], [ -85.5769324, 31.036781698 ], [ -85.576826103, 31.036575399 ], [ -85.576800004, 31.035544299 ], [ -85.576242, 31.034008898 ], [ -85.576269306, 31.032702796 ], [ -85.5759238, 31.031900696 ], [ -85.575232707, 31.030640095 ] ] } },
{ "type": "Feature", "properties": { "site_no": "02365310", "nhdplus_comid": "2238729", "navigation_mode": "DM", "requested_distance_km": 12.0, "start_source": "nwissite", "start_id": "USGS-02365310", "geometry_length_km": 0.24890404954712275 }, "geometry": { "type": "LineString", "coordinates": [ [ -85.575232707, 31.030640095 ], [ -85.576590404, 31.029242896 ], [ -85.576776907, 31.028853498 ] ] } },
{ "type": "Feature", "properties": { "site_no": "02365310", "nhdplus_comid": "2238743", "navigation_mode": "DM", "requested_distance_km": 12.0, "start_source": "nwissite", "start_id": "USGS-02365310", "geometry_length_km": 1.5050351924048064 }, "geometry": { "type": "LineString", "coordinates": [ [ -85.576776907, 31.028853498 ], [ -85.578773104, 31.027593896 ], [ -85.5795715, 31.026975498 ], [ -85.580290504, 31.0260133 ], [ -85.580690101, 31.024867795 ], [ -85.5808236, 31.023905493 ], [ -85.580664404, 31.022874296 ], [ -85.581117101, 31.022209994 ], [ -85.580957703, 31.021683 ], [ -85.580452405, 31.021109894 ], [ -85.5803461, 31.020903595 ], [ -85.580346204, 31.020628698 ], [ -85.580985405, 31.0190937 ], [ -85.581624106, 31.018543996 ], [ -85.5820233, 31.018383697 ], [ -85.582981206, 31.018269494 ] ] } },
{ "type": "Feature", "properties": { "site_no": "02365310", "nhdplus_comid": "2238789", "navigation_mode": "DM", "requested_distance_km": 12.0, "start_source": "nwissite", "start_id": "USGS-02365310", "geometry_length_km": 1.8965963338709415 }, "geometry": { "type": "LineString", "coordinates": [ [ -85.582981206, 31.018269494 ], [ -85.583912902, 31.017078295 ], [ -85.584152602, 31.016619995 ], [ -85.584152706, 31.016299196 ], [ -85.584019803, 31.015978396 ], [ -85.583966702, 31.015542999 ], [ -85.584419206, 31.015038997 ], [ -85.584658705, 31.0146266 ], [ -85.584792003, 31.014030896 ], [ -85.585404404, 31.012770899 ], [ -85.585378006, 31.012472898 ], [ -85.584925801, 31.012243599 ], [ -85.584580101, 31.011853993 ], [ -85.584287904, 31.010845698 ], [ -85.584022105, 31.010410294 ], [ -85.5833572, 31.010134995 ], [ -85.583171107, 31.009882994 ], [ -85.583091505, 31.009401694 ], [ -85.583277702, 31.009218499 ], [ -85.583517201, 31.009172693 ], [ -85.583916403, 31.0087834 ], [ -85.584156007, 31.008325197 ], [ -85.584103003, 31.007843897 ], [ -85.583757401, 31.007316798 ], [ -85.583625406, 31.004864894 ], [ -85.584025301, 31.003146596 ] ] } },
{ "type": "Feature", "properties": { "site_no": "02365310", "nhdplus_comid": "2238883", "navigation_mode": "DM", "requested_distance_km": 12.0, "start_source": "nwissite", "start_id": "USGS-02365310", "geometry_length_km": 0.41404762382563076 }, "geometry": { "type": "LineString", "coordinates": [ [ -85.584025301, 31.003146596 ], [ -85.583998904, 31.002481997 ], [ -85.583653301, 31.001977898 ], [ -85.583600506, 31.000923797 ], [ -85.583148405, 31.000671595 ], [ -85.582591906, 31.000556797 ], [ -85.582356505, 31.000419296 ], [ -85.582360804, 31.0001968 ] ] } },
{ "type": "Feature", "properties": { "site_no": "02365310", "nhdplus_comid": "2240059", "navigation_mode": "DM", "requested_distance_km": 12.0, "start_source": "nwissite", "start_id": "USGS-02365310", "geometry_length_km": 1.3878666229149741 }, "geometry": { "type": "LineString", "coordinates": [ [ -85.582360804, 31.0001968 ], [ -85.582415104, 30.998745099 ], [ -85.582681403, 30.998424396 ], [ -85.582762301, 30.9970496 ], [ -85.583162107, 30.996179096 ], [ -85.583216101, 30.995193698 ], [ -85.583509006, 30.994827196 ], [ -85.584201105, 30.994346395 ], [ -85.584680706, 30.993475899 ], [ -85.585027203, 30.992674097 ], [ -85.585479707, 30.992192999 ], [ -85.586198002, 30.992055796 ], [ -85.586677104, 30.991597697 ], [ -85.587608807, 30.990521096 ], [ -85.587955102, 30.989902593 ], [ -85.588061601, 30.989490196 ] ] } },
{ "type": "Feature", "properties": { "site_no": "02365310", "nhdplus_comid": "2240099", "navigation_mode": "DM", "requested_distance_km": 12.0, "start_source": "nwissite", "start_id": "USGS-02365310", "geometry_length_km": 2.0403819741769036 }, "geometry": { "type": "LineString", "coordinates": [ [ -85.588061601, 30.989490196 ], [ -85.588434301, 30.988779999 ], [ -85.588993102, 30.9881844 ], [ -85.589472301, 30.987428397 ], [ -85.589818105, 30.987130597 ], [ -85.5900582, 30.985732995 ], [ -85.590457201, 30.985412396 ], [ -85.591574304, 30.985321097 ], [ -85.591973305, 30.985160798 ], [ -85.593117505, 30.983969599 ], [ -85.593304001, 30.982823998 ], [ -85.593543403, 30.9825949 ], [ -85.594208501, 30.982159793 ], [ -85.595644906, 30.981610298 ], [ -85.597480103, 30.980946198 ], [ -85.598065302, 30.980511099 ], [ -85.598491207, 30.979823798 ], [ -85.599103004, 30.979411393 ], [ -85.599635005, 30.978792995 ], [ -85.600167006, 30.978357799 ], [ -85.600406602, 30.977784894 ], [ -85.600805603, 30.977326795 ], [ -85.6008856, 30.977051899 ], [ -85.600646302, 30.976845495 ], [ -85.600540005, 30.976593494 ] ] } },
{ "type": "Feature", "properties": { "site_no": "02365310", "nhdplus_comid": "2241445", "navigation_mode": "DM", "requested_distance_km": 12.0, "start_source": "nwissite", "start_id": "USGS-02365310", "geometry_length_km": 0.45457213213617925 }, "geometry": { "type": "LineString", "coordinates": [ [ -85.600540005, 30.976593494 ], [ -85.600832701, 30.976249896 ], [ -85.601391204, 30.976020895 ], [ -85.601524301, 30.975585595 ], [ -85.602508202, 30.975539893 ], [ -85.602987006, 30.975058898 ], [ -85.603279807, 30.974440299 ], [ -85.603785105, 30.974119596 ] ] } },
{ "type": "Feature", "properties": { "site_no": "02365310", "nhdplus_comid": "25290651", "navigation_mode": "DM", "requested_distance_km": 12.0, "start_source": "nwissite", "start_id": "USGS-02365310", "geometry_length_km": 0.63509389050568399 }, "geometry": { "type": "LineString", "coordinates": [ [ -85.603785105, 30.974119596 ], [ -85.603918403, 30.973317593 ], [ -85.604051501, 30.972951099 ], [ -85.604503602, 30.972699098 ], [ -85.604849301, 30.972034596 ], [ -85.605434507, 30.971530698 ], [ -85.605806902, 30.971461996 ], [ -85.606046304, 30.971164197 ], [ -85.606551602, 30.971026793 ], [ -85.6079612, 30.970179297 ] ] } }
]
}
