{
"type": "FeatureCollection",
"name": "USGS_03576250_UM_12km",
"crs": { "type": "name", "properties": { "name": "urn:ogc:def:crs:OGC:1.3:CRS84" } },
"features": [
{ "type": "Feature", "properties": { "site_no": "03576250", "nhdplus_comid": "19621374", "navigation_mode": "UM", "requested_distance_km": 12.0, "start_source": "nwissite", "start_id": "USGS-03576250", "geometry_length_km": 2.4097022971108197 }, "geometry": { "type": "LineString", "coordinates": [ [ -86.804619402, 34.758247897 ], [ -86.804758303, 34.758179195 ], [ -86.804869607, 34.757858597 ], [ -86.8048153, 34.756415494 ], [ -86.805150107, 34.754331298 ], [ -86.805428207, 34.753667198 ], [ -86.805789106, 34.753438294 ], [ -86.806538403, 34.753392994 ], [ -86.808452703, 34.754241496 ], [ -86.809618302, 34.754310898 ], [ -86.812504604, 34.754266597 ], [ -86.813392505, 34.754518993 ], [ -86.814724401, 34.754725695 ], [ -86.817028202, 34.754451998 ], [ -86.817694202, 34.754498199 ], [ -86.8182768, 34.7547962 ], [ -86.818942904, 34.754819393 ], [ -86.819386803, 34.755002797 ], [ -86.819747604, 34.755025893 ], [ -86.820524804, 34.754820094 ], [ -86.820857905, 34.754614197 ], [ -86.823357604, 34.751591593 ], [ -86.823376851, 34.751548399 ] ] } },
{ "type": "Feature", "properties": { "site_no": "03576250", "nhdplus_comid": "19619742", "navigation_mode": "UM", "requested_distance_km": 12.0, "start_source": "nwissite", "start_id": "USGS-03576250", "geometry_length_km": 1.5246190600019338 }, "geometry": { "type": "LineString", "coordinates": [ [ -86.799280107, 34.769834697 ], [ -86.799530305, 34.769399695 ], [ -86.799808003, 34.769193694 ], [ -86.801029906, 34.768736295 ], [ -86.801168703, 34.768621899 ], [ -86.801169105, 34.768140897 ], [ -86.800753504, 34.767430596 ], [ -86.800726205, 34.766857997 ], [ -86.800920904, 34.766422898 ], [ -86.801309906, 34.765896194 ], [ -86.801615506, 34.765644498 ], [ -86.802448407, 34.765301295 ], [ -86.802948907, 34.764408395 ], [ -86.803726904, 34.763378099 ], [ -86.804033406, 34.761912294 ], [ -86.804256007, 34.761339895 ], [ -86.804589406, 34.760881893 ], [ -86.8048397, 34.760309398 ], [ -86.804951102, 34.759805597 ], [ -86.805007204, 34.759141393 ], [ -86.804674603, 34.758683093 ], [ -86.804619402, 34.758247897 ] ] } },
{ "type": "Feature", "properties": { "site_no": "03576250", "nhdplus_comid": "19619690", "navigation_mode": "UM", "requested_distance_km": 12.0, "start_source": "nwissite", "start_id": "USGS-03576250", "geometry_length_km": 1.0823463959585296 }, "geometry": { "type": "LineString", "coordinates": [ [ -86.801549107, 34.777921699 ], [ -86.801521607, 34.777555093 ], [ -86.801299803, 34.777371697 ], [ -86.800661102, 34.777554594 ], [ -86.800494701, 34.777439997 ], [ -86.800189704, 34.776912995 ], [ -86.799607202, 34.776408695 ], [ -86.799163803, 34.775698394 ], [ -86.799164005, 34.7753319 ], [ -86.799525604, 34.7745305 ], [ -86.799970202, 34.774118394 ], [ -86.799943402, 34.7730648 ], [ -86.799777105, 34.772721097 ], [ -86.799361102, 34.772354297 ], [ -86.799084105, 34.771598294 ], [ -86.799084805, 34.770750895 ], [ -86.799280107, 34.769834697 ] ] } },
{ "type": "Feature", "properties": { "site_no": "03576250", "nhdplus_comid": "19619638", "navigation_mode": "UM", "requested_distance_km": 12.0, "start_source": "nwissite", "start_id": "USGS-03576250", "geometry_length_km": 3.7607309106390434 }, "geometry": { "type": "LineString", "coordinates": [ [ -86.814385004, 34.801429398 ], [ -86.814552106, 34.800948493 ], [ -86.815358207, 34.799666099 ], [ -86.815913901, 34.799414396 ], [ -86.816497102, 34.799277298 ], [ -86.816913903, 34.798865199 ], [ -86.817052901, 34.798521593 ], [ -86.816997707, 34.798200995 ], [ -86.816470802, 34.7972387 ], [ -86.816221401, 34.796207897 ], [ -86.813807301, 34.794099398 ], [ -86.812697701, 34.792953596 ], [ -86.812253706, 34.792541094 ], [ -86.811670706, 34.792357497 ], [ -86.810338102, 34.792219393 ], [ -86.809727803, 34.791509099 ], [ -86.809283607, 34.791394293 ], [ -86.808173001, 34.791416496 ], [ -86.806951001, 34.791942798 ], [ -86.806256704, 34.792034 ], [ -86.805979207, 34.791942194 ], [ -86.804758102, 34.791185699 ], [ -86.803814203, 34.791116394 ], [ -86.803147905, 34.790978499 ], [ -86.802898206, 34.790818095 ], [ -86.8027317, 34.790543094 ], [ -86.802621104, 34.790084898 ], [ -86.802427001, 34.789787099 ], [ -86.802232802, 34.789649598 ], [ -86.801872402, 34.789007999 ], [ -86.801873401, 34.787954397 ], [ -86.802457206, 34.786992699 ], [ -86.802568704, 34.786488794 ], [ -86.802485906, 34.786007799 ], [ -86.802014701, 34.784976698 ], [ -86.8017096, 34.784678794 ], [ -86.801126905, 34.784380697 ], [ -86.800988302, 34.784197398 ], [ -86.800960705, 34.7839683 ], [ -86.801461004, 34.783395894 ], [ -86.801489301, 34.782754496 ], [ -86.801157102, 34.781631999 ], [ -86.801018402, 34.781494498 ], [ -86.800963901, 34.7804408 ], [ -86.801047601, 34.779936999 ], [ -86.801325701, 34.779410295 ], [ -86.801492803, 34.778814897 ], [ -86.801549107, 34.777921699 ] ] } },
{ "type": "Feature", "properties": { "site_no": "03576250", "nhdplus_comid": "19619480", "navigation_mode": "UM", "requested_distance_km": 12.0, "start_source": "nwissite", "start_id": "USGS-03576250", "geometry_length_km": 0.60495339921818347 }, "geometry": { "type": "LineString", "coordinates": [ [ -86.8147429, 34.8057587 ], [ -86.814826407, 34.8054609 ], [ -86.815382205, 34.805094697 ], [ -86.815521203, 34.8048428 ], [ -86.815577306, 34.804132797 ], [ -86.816105403, 34.803354293 ], [ -86.816105902, 34.802712895 ], [ -86.8156619, 34.802231699 ], [ -86.814551406, 34.8018189 ], [ -86.814385004, 34.801429398 ] ] } },
{ "type": "Feature", "properties": { "site_no": "03576250", "nhdplus_comid": "19619462", "navigation_mode": "UM", "requested_distance_km": 12.0, "start_source": "nwissite", "start_id": "USGS-03576250", "geometry_length_km": 2.2208337908781677 }, "geometry": { "type": "LineString", "coordinates": [ [ -86.807760701, 34.820551693 ], [ -86.8077887, 34.8202997 ], [ -86.808011003, 34.8200479 ], [ -86.808622301, 34.819773294 ], [ -86.810039707, 34.8186289 ], [ -86.810178906, 34.818239599 ], [ -86.810068704, 34.817002699 ], [ -86.810541704, 34.815994993 ], [ -86.811737403, 34.814140394 ], [ -86.812598906, 34.813293293 ], [ -86.812626906, 34.8130643 ], [ -86.812404901, 34.812835097 ], [ -86.811488405, 34.812742993 ], [ -86.811405405, 34.812422298 ], [ -86.811711207, 34.812101796 ], [ -86.812294602, 34.811781399 ], [ -86.812433705, 34.811414994 ], [ -86.8123511, 34.810475893 ], [ -86.8122124, 34.8102009 ], [ -86.811407305, 34.810017295 ], [ -86.811213106, 34.809719399 ], [ -86.8109641, 34.808436595 ], [ -86.810964905, 34.807497494 ], [ -86.811159506, 34.807085194 ], [ -86.811382003, 34.806879297 ], [ -86.811909705, 34.806627594 ], [ -86.8136039, 34.806399398 ], [ -86.814187206, 34.806147695 ], [ -86.8147429, 34.8057587 ] ] } }
]
}
