{
"type": "FeatureCollection",
"name": "USGS_02365200_DM_12km",
"crs": { "type": "name", "properties": { "name": "urn:ogc:def:crs:OGC:1.3:CRS84" } },
"features": [
{ "type": "Feature", "properties": { "site_no": "02365200", "nhdplus_comid": "2242015", "navigation_mode": "DM", "requested_distance_km": 12.0, "start_source": "nwissite", "start_id": "USGS-02365200", "geometry_length_km": 0.079950926221230914 }, "geometry": { "type": "LineString", "coordinates": [ [ -85.843150907, 30.949971634 ], [ -85.843219005, 30.949254997 ] ] } },
{ "type": "Feature", "properties": { "site_no": "02365200", "nhdplus_comid": "2242357", "navigation_mode": "DM", "requested_distance_km": 12.0, "start_source": "nwissite", "start_id": "USGS-02365200", "geometry_length_km": 0.85272963444718253 }, "geometry": { "type": "LineString", "coordinates": [ [ -85.843219005, 30.949254997 ], [ -85.8436234, 30.948975593 ], [ -85.844009705, 30.948251396 ], [ -85.845303901, 30.947357297 ], [ -85.847297303, 30.946780697 ], [ -85.848414004, 30.9461236 ], [ -85.849436805, 30.944281995 ] ] } },
{ "type": "Feature", "properties": { "site_no": "02365200", "nhdplus_comid": "2242019", "navigation_mode": "DM", "requested_distance_km": 12.0, "start_source": "nwissite", "start_id": "USGS-02365200", "geometry_length_km": 3.3144753096883961 }, "geometry": { "type": "LineString", "coordinates": [ [ -85.849436805, 30.944281995 ], [ -85.849254504, 30.9417689 ], [ -85.847533107, 30.937811896 ], [ -85.847705401, 30.936434798 ], [ -85.848884702, 30.935276896 ], [ -85.853616804, 30.934065394 ], [ -85.855072401, 30.933059499 ], [ -85.855176806, 30.931042999 ], [ -85.853622206, 30.928114399 ], [ -85.854430906, 30.924009897 ], [ -85.8535337, 30.922914393 ], [ -85.853090405, 30.921733998 ], [ -85.852308005, 30.920902297 ], [ -85.852318503, 30.919636995 ] ] } },
{ "type": "Feature", "properties": { "site_no": "02365200", "nhdplus_comid": "2242021", "navigation_mode": "DM", "requested_distance_km": 12.0, "start_source": "nwissite", "start_id": "USGS-02365200", "geometry_length_km": 1.7175464891452317 }, "geometry": { "type": "LineString", "coordinates": [ [ -85.852318503, 30.919636995 ], [ -85.852803603, 30.919301599 ], [ -85.853012301, 30.918814294 ], [ -85.853820801, 30.918255396 ], [ -85.856611505, 30.918385096 ], [ -85.858765803, 30.917696498 ], [ -85.859751604, 30.916900598 ], [ -85.860121906, 30.916301399 ], [ -85.860278301, 30.915049493 ], [ -85.859495901, 30.9142178 ], [ -85.8575451, 30.9132789 ], [ -85.856877506, 30.912711099 ], [ -85.857148707, 30.911722898 ], [ -85.857795507, 30.911275797 ], [ -85.858395301, 30.911204197 ] ] } },
{ "type": "Feature", "properties": { "site_no": "02365200", "nhdplus_comid": "2242025", "navigation_mode": "DM", "requested_distance_km": 12.0, "start_source": "nwissite", "start_id": "USGS-02365200", "geometry_length_km": 1.583427150987019 }, "geometry": { "type": "LineString", "coordinates": [ [ -85.858395301, 30.911204197 ], [ -85.859355003, 30.911798894 ], [ -85.860069603, 30.911991097 ], [ -85.8622602, 30.912192196 ], [ -85.8641847, 30.910975896 ], [ -85.865248606, 30.909553997 ], [ -85.866411604, 30.908520997 ], [ -85.867866606, 30.907514796 ], [ -85.868935704, 30.907233 ], [ -85.870067403, 30.906450398 ], [ -85.870854601, 30.904876396 ] ] } },
{ "type": "Feature", "properties": { "site_no": "02365200", "nhdplus_comid": "2242031", "navigation_mode": "DM", "requested_distance_km": 12.0, "start_source": "nwissite", "start_id": "USGS-02365200", "geometry_length_km": 1.582408293868576 }, "geometry": { "type": "LineString", "coordinates": [ [ -85.870854601, 30.904876396 ], [ -85.870818004, 30.903986596 ], [ -85.871318504, 30.903525896 ], [ -85.871412307, 30.902774699 ], [ -85.871766806, 30.902300693 ], [ -85.873336405, 30.901558295 ], [ -85.875250407, 30.901607096 ], [ -85.876350701, 30.901074797 ], [ -85.876876906, 30.899223596 ], [ -85.876663007, 30.898570798 ], [ -85.875896104, 30.897613995 ], [ -85.875697806, 30.896836095 ], [ -85.875791505, 30.896084793 ], [ -85.877081804, 30.894620195 ] ] } },
{ "type": "Feature", "properties": { "site_no": "02365200", "nhdplus_comid": "2242037", "navigation_mode": "DM", "requested_distance_km": 12.0, "start_source": "nwissite", "start_id": "USGS-02365200", "geometry_length_km": 0.53230940710017272 }, "geometry": { "type": "LineString", "coordinates": [ [ -85.877081804, 30.894620195 ], [ -85.877110302, 30.8937997 ], [ -85.876880705, 30.893272094 ], [ -85.874778703, 30.8911798 ], [ -85.874710806, 30.890540399 ] ] } },
{ "type": "Feature", "properties": { "site_no": "02365200", "nhdplus_comid": "2242043", "navigation_mode": "DM", "requested_distance_km": 12.0, "start_source": "nwissite", "start_id": "USGS-02365200", "geometry_length_km": 5.2431790060813768 }, "geometry": { "type": "LineString", "coordinates": [ [ -85.874710806, 30.890540399 ], [ -85.875518903, 30.8899813 ], [ -85.876733802, 30.889712796 ], [ -85.881244406, 30.890253 ], [ -85.882537305, 30.889358394 ], [ -85.882562906, 30.887967698 ], [ -85.882041305, 30.887413397 ], [ -85.880774103, 30.886917293 ], [ -85.879501402, 30.885280997 ], [ -85.879511505, 30.884015597 ], [ -85.880558006, 30.879172593 ], [ -85.880458906, 30.878783599 ], [ -85.877950504, 30.876400694 ], [ -85.878169, 30.874647796 ], [ -85.878523402, 30.874173798 ], [ -85.878617004, 30.873422496 ], [ -85.879570901, 30.872876793 ], [ -85.881030604, 30.873010598 ], [ -85.882558405, 30.873783894 ], [ -85.883434303, 30.873864099 ], [ -85.884242207, 30.873304993 ], [ -85.884324506, 30.870273195 ], [ -85.884856001, 30.869562 ], [ -85.886471704, 30.868443698 ], [ -85.886549607, 30.867817596 ], [ -85.884578504, 30.865863994 ], [ -85.883436404, 30.864366293 ], [ -85.883076504, 30.863700099 ], [ -85.883216806, 30.862573199 ], [ -85.884832405, 30.8614548 ], [ -85.885431804, 30.861383095 ], [ -85.886078, 30.8609358 ], [ -85.886317506, 30.860197894 ] ] } }
]
}
