{
"type": "FeatureCollection",
"name": "USGS_02454000_DM_12km",
"crs": { "type": "name", "properties": { "name": "urn:ogc:def:crs:OGC:1.3:CRS84" } },
"features": [
{ "type": "Feature", "properties": { "site_no": "02454000", "nhdplus_comid": "18591722", "navigation_mode": "DM", "requested_distance_km": 12.0, "start_source": "nwissite", "start_id": "USGS-02454000", "geometry_length_km": 0.40148664134760931 }, "geometry": { "type": "LineString", "coordinates": [ [ -87.358029645, 33.763971984 ], [ -87.3565173, 33.763306797 ], [ -87.355749302, 33.763283893 ], [ -87.354131006, 33.763764694 ], [ -87.354048602, 33.763879195 ] ] } },
{ "type": "Feature", "properties": { "site_no": "02454000", "nhdplus_comid": "18591978", "navigation_mode": "DM", "requested_distance_km": 12.0, "start_source": "nwissite", "start_id": "USGS-02454000", "geometry_length_km": 3.1132531385448643 }, "geometry": { "type": "LineString", "coordinates": [ [ -87.354048602, 33.763879195 ], [ -87.352210902, 33.764428698 ], [ -87.351881705, 33.764428593 ], [ -87.351717107, 33.764268294 ], [ -87.351717204, 33.7638788 ], [ -87.3524855, 33.762733497 ], [ -87.352979302, 33.762114994 ], [ -87.353555404, 33.761748597 ], [ -87.354076602, 33.761679895 ], [ -87.354707405, 33.7618405 ], [ -87.358629704, 33.760833099 ], [ -87.359397806, 33.760535397 ], [ -87.360330403, 33.759939797 ], [ -87.360988803, 33.759344198 ], [ -87.361317903, 33.758863196 ], [ -87.361647002, 33.758038498 ], [ -87.361894101, 33.756732799 ], [ -87.362305701, 33.755266696 ], [ -87.362881705, 33.754075393 ], [ -87.363375403, 33.7535486 ], [ -87.365048505, 33.752174199 ], [ -87.365459904, 33.751693197 ], [ -87.365624405, 33.751303799 ], [ -87.365624502, 33.750639297 ], [ -87.365491003, 33.750099398 ], [ -87.365299106, 33.749503799 ], [ -87.364421703, 33.747899994 ], [ -87.363763705, 33.746135898 ], [ -87.363489501, 33.744830094 ] ] } },
{ "type": "Feature", "properties": { "site_no": "02454000", "nhdplus_comid": "18591980", "navigation_mode": "DM", "requested_distance_km": 12.0, "start_source": "nwissite", "start_id": "USGS-02454000", "geometry_length_km": 9.2152760863137129 }, "geometry": { "type": "LineString", "coordinates": [ [ -87.363489501, 33.744830094 ], [ -87.363352403, 33.744601093 ], [ -87.363297701, 33.743203595 ], [ -87.363489807, 33.742264196 ], [ -87.363873705, 33.741324998 ], [ -87.365190201, 33.739767298 ], [ -87.365793504, 33.738644898 ], [ -87.365903102, 33.738003395 ], [ -87.365903206, 33.737316094 ], [ -87.365766101, 33.736720398 ], [ -87.365492001, 33.736101896 ], [ -87.364642106, 33.734818898 ], [ -87.363819607, 33.733902499 ], [ -87.363051802, 33.733512893 ], [ -87.361653507, 33.733146198 ], [ -87.360858403, 33.733191997 ], [ -87.360227704, 33.733466893 ], [ -87.359898701, 33.733833395 ], [ -87.359651707, 33.734589294 ], [ -87.359624006, 33.737384297 ], [ -87.359514207, 33.738186099 ], [ -87.359240003, 33.738781594 ], [ -87.358993202, 33.738781594 ], [ -87.356662601, 33.737956598 ], [ -87.356251203, 33.737979494 ], [ -87.3561415, 33.738094099 ], [ -87.356059104, 33.738689698 ], [ -87.356579505, 33.742515594 ], [ -87.356579207, 33.744210795 ], [ -87.356414504, 33.745172895 ], [ -87.3560578, 33.746066399 ], [ -87.355619006, 33.746822298 ], [ -87.355234906, 33.747234598 ], [ -87.354658902, 33.747601099 ], [ -87.354055606, 33.747784197 ], [ -87.353534505, 33.747738294 ], [ -87.352931201, 33.747554995 ], [ -87.3522458, 33.747050896 ], [ -87.350354001, 33.745332293 ], [ -87.349476606, 33.744713597 ], [ -87.348900802, 33.744461499 ], [ -87.348352402, 33.744507194 ], [ -87.347858705, 33.744690396 ], [ -87.347529605, 33.745056793 ], [ -87.347392306, 33.745446295 ], [ -87.347282305, 33.746339694 ], [ -87.3481315, 33.750119895 ], [ -87.348292202, 33.751003094 ], [ -87.348291904, 33.752079897 ], [ -87.347688504, 33.752675496 ], [ -87.346865602, 33.753225096 ], [ -87.346536405, 33.753293693 ], [ -87.345823407, 33.753018595 ], [ -87.345220201, 33.752514496 ], [ -87.344589606, 33.752262197 ], [ -87.341984406, 33.751734696 ], [ -87.340393901, 33.751253098 ], [ -87.339489102, 33.750863396 ], [ -87.339214906, 33.750588395 ], [ -87.339054003, 33.7501176 ], [ -87.339026906, 33.7494075 ], [ -87.339384101, 33.747781098 ], [ -87.339905806, 33.7461088 ], [ -87.341113806, 33.741802298 ], [ -87.341031805, 33.740954496 ], [ -87.340401605, 33.739785999 ], [ -87.339963004, 33.739419296 ], [ -87.339058302, 33.738937996 ], [ -87.3379343, 33.738204494 ], [ -87.334507503, 33.736439593 ], [ -87.333520606, 33.736095496 ], [ -87.333027005, 33.736072399 ], [ -87.332643002, 33.736209698 ], [ -87.332259104, 33.736553296 ], [ -87.331298806, 33.737721294 ], [ -87.329241, 33.740286395 ], [ -87.327979207, 33.741110697 ], [ -87.326991804, 33.741614394 ] ] } }
]
}
