{
"type": "FeatureCollection",
"name": "USGS_02416000_DM_12km",
"crs": { "type": "name", "properties": { "name": "urn:ogc:def:crs:OGC:1.3:CRS84" } },
"features": [
{ "type": "Feature", "properties": { "site_no": "02416000", "nhdplus_comid": "22038691", "navigation_mode": "DM", "requested_distance_km": 12.0, "start_source": "nwissite", "start_id": "USGS-02416000", "geometry_length_km": 1.8555208114066668 }, "geometry": { "type": "LineString", "coordinates": [ [ -85.870887928, 32.913884257 ], [ -85.876260802, 32.914362997 ], [ -85.8776564, 32.914108798 ], [ -85.8793035, 32.9142555 ], [ -85.8809608, 32.9131414 ], [ -85.881398603, 32.910909198 ], [ -85.882569, 32.908868395 ], [ -85.882910706, 32.907384694 ], [ -85.883867301, 32.905829497 ] ] } },
{ "type": "Feature", "properties": { "site_no": "02416000", "nhdplus_comid": "22038737", "navigation_mode": "DM", "requested_distance_km": 12.0, "start_source": "nwissite", "start_id": "USGS-02416000", "geometry_length_km": 5.6758083090120763 }, "geometry": { "type": "LineString", "coordinates": [ [ -85.883867301, 32.905829497 ], [ -85.884065002, 32.905468598 ], [ -85.884743907, 32.9048981 ], [ -85.885417007, 32.903191596 ], [ -85.886576906, 32.902411595 ], [ -85.886934504, 32.900803097 ], [ -85.888340101, 32.899287894 ], [ -85.888799407, 32.898066998 ], [ -85.889510103, 32.897246994 ], [ -85.8898516, 32.895763196 ], [ -85.891352907, 32.893499397 ], [ -85.891742401, 32.891641393 ], [ -85.892137602, 32.890919499 ], [ -85.892441303, 32.888549097 ], [ -85.893499203, 32.887381397 ], [ -85.894092105, 32.8862985 ], [ -85.896956101, 32.884029694 ], [ -85.897976004, 32.881975293 ], [ -85.900706202, 32.879568294 ], [ -85.901229002, 32.877848297 ], [ -85.902767606, 32.876470894 ], [ -85.902997106, 32.875860393 ], [ -85.904038705, 32.874817394 ], [ -85.904497601, 32.873596296 ], [ -85.904844806, 32.873248696 ], [ -85.905307606, 32.869630493 ], [ -85.9050721, 32.869104899 ], [ -85.905806005, 32.863365695 ], [ -85.904147901, 32.860946998 ] ] } },
{ "type": "Feature", "properties": { "site_no": "02416000", "nhdplus_comid": "22038753", "navigation_mode": "DM", "requested_distance_km": 12.0, "start_source": "nwissite", "start_id": "USGS-02416000", "geometry_length_km": 7.3783916859578067 }, "geometry": { "type": "LineString", "coordinates": [ [ -85.904147901, 32.860946998 ], [ -85.904179901, 32.860697493 ], [ -85.901105307, 32.857521795 ], [ -85.900062002, 32.855031498 ], [ -85.900125802, 32.854532398 ], [ -85.899371706, 32.853329696 ], [ -85.899365805, 32.8521934 ], [ -85.899130404, 32.851667799 ], [ -85.898392305, 32.850340195 ], [ -85.895719402, 32.8475786 ], [ -85.8953823, 32.846665293 ], [ -85.895494103, 32.845791899 ], [ -85.894712403, 32.842441395 ], [ -85.8928416, 32.8405082 ], [ -85.891361602, 32.840250298 ], [ -85.887219504, 32.835969396 ], [ -85.882133603, 32.835516199 ], [ -85.878109805, 32.831497796 ], [ -85.8785896, 32.827754796 ], [ -85.880720101, 32.825294696 ], [ -85.881526202, 32.823725998 ], [ -85.884885006, 32.821122997 ], [ -85.885194406, 32.819888599 ], [ -85.885786802, 32.818805695 ], [ -85.886441804, 32.813689999 ], [ -85.892400302, 32.809677899 ], [ -85.892282702, 32.809414998 ] ] } }
]
}
