{
"type": "FeatureCollection",
"name": "USGS_02427250_UM_12km",
"crs": { "type": "name", "properties": { "name": "urn:ogc:def:crs:OGC:1.3:CRS84" } },
"features": [
{ "type": "Feature", "properties": { "site_no": "02427250", "nhdplus_comid": "21457950", "navigation_mode": "UM", "requested_distance_km": 12.0, "start_source": "nwissite", "start_id": "USGS-02427250", "geometry_length_km": 0.47389900062245116 }, "geometry": { "type": "LineString", "coordinates": [ [ -87.065749802, 31.994842693 ], [ -87.066018403, 31.995392799 ], [ -87.065910302, 31.996125996 ], [ -87.065936901, 31.996607199 ], [ -87.066259407, 31.996882297 ], [ -87.066528201, 31.996974096 ], [ -87.067066103, 31.996859796 ], [ -87.067523606, 31.996401697 ], [ -87.0677118, 31.9963101 ], [ -87.067980707, 31.996333197 ], [ -87.068326606, 31.996480763 ] ] } },
{ "type": "Feature", "properties": { "site_no": "02427250", "nhdplus_comid": "21459208", "navigation_mode": "UM", "requested_distance_km": 12.0, "start_source": "nwissite", "start_id": "USGS-02427250", "geometry_length_km": 0.92047038990259789 }, "geometry": { "type": "LineString", "coordinates": [ [ -87.059588805, 31.999399796 ], [ -87.060502902, 31.9998357 ], [ -87.060771801, 31.999835797 ], [ -87.061363801, 31.999286093 ], [ -87.061471507, 31.999011196 ], [ -87.062413104, 31.998438798 ], [ -87.0634351, 31.998164296 ], [ -87.0637042, 31.997981094 ], [ -87.0639733, 31.997545898 ], [ -87.0640008, 31.996514693 ], [ -87.064216301, 31.996102296 ], [ -87.064431503, 31.995918997 ], [ -87.064593107, 31.995552495 ], [ -87.064781405, 31.995415099 ], [ -87.064862207, 31.9952318 ], [ -87.065319605, 31.994842395 ], [ -87.065749802, 31.994842693 ] ] } },
{ "type": "Feature", "properties": { "site_no": "02427250", "nhdplus_comid": "21459210", "navigation_mode": "UM", "requested_distance_km": 12.0, "start_source": "nwissite", "start_id": "USGS-02427250", "geometry_length_km": 0.28663081787079853 }, "geometry": { "type": "LineString", "coordinates": [ [ -87.056980506, 31.9993755 ], [ -87.057464205, 31.999811098 ], [ -87.057921305, 31.999925897 ], [ -87.058378503, 31.999811597 ], [ -87.0587283, 31.999513894 ], [ -87.059024103, 31.999399498 ], [ -87.059588805, 31.999399796 ] ] } },
{ "type": "Feature", "properties": { "site_no": "02427250", "nhdplus_comid": "21458008", "navigation_mode": "UM", "requested_distance_km": 12.0, "start_source": "nwissite", "start_id": "USGS-02427250", "geometry_length_km": 2.0200973951275514 }, "geometry": { "type": "LineString", "coordinates": [ [ -87.045615405, 31.987842396 ], [ -87.045803905, 31.987659194 ], [ -87.046045907, 31.987567797 ], [ -87.046529904, 31.987590894 ], [ -87.0470137, 31.987820394 ], [ -87.048088402, 31.988714799 ], [ -87.048706107, 31.989631794 ], [ -87.049081802, 31.990571499 ], [ -87.049484506, 31.991282098 ], [ -87.049564905, 31.991671696 ], [ -87.049860001, 31.992450997 ], [ -87.051472202, 31.993941493 ], [ -87.051821306, 31.994514599 ], [ -87.051955201, 31.995087497 ], [ -87.051954202, 31.996416599 ], [ -87.051765501, 31.997103997 ], [ -87.051791802, 31.997905999 ], [ -87.051979803, 31.998203993 ], [ -87.052463502, 31.998639695 ], [ -87.052732304, 31.998708598 ], [ -87.0534584, 31.998525694 ], [ -87.0543999, 31.998113796 ], [ -87.055045202, 31.998136997 ], [ -87.055717506, 31.9982749 ], [ -87.056685001, 31.998985797 ], [ -87.056980506, 31.9993755 ] ] } },
{ "type": "Feature", "properties": { "site_no": "02427250", "nhdplus_comid": "21458006", "navigation_mode": "UM", "requested_distance_km": 12.0, "start_source": "nwissite", "start_id": "USGS-02427250", "geometry_length_km": 3.9123953491420864 }, "geometry": { "type": "LineString", "coordinates": [ [ -87.028050005, 31.995621599 ], [ -87.0285879, 31.995576195 ], [ -87.028830007, 31.995438799 ], [ -87.028830402, 31.995049194 ], [ -87.028159, 31.994292498 ], [ -87.028159201, 31.994040497 ], [ -87.028428204, 31.993811496 ], [ -87.029369801, 31.993331 ], [ -87.029853903, 31.993262596 ], [ -87.030767702, 31.993721597 ], [ -87.031170703, 31.994019799 ], [ -87.031224206, 31.994271897 ], [ -87.031115703, 31.995257199 ], [ -87.031196304, 31.995325997 ], [ -87.031680405, 31.995234698 ], [ -87.032084204, 31.994822495 ], [ -87.032487705, 31.994708195 ], [ -87.0328371, 31.994868897 ], [ -87.033805102, 31.994800799 ], [ -87.034020007, 31.994984299 ], [ -87.034153506, 31.996038496 ], [ -87.0343142, 31.996611498 ], [ -87.034502201, 31.996886596 ], [ -87.034528404, 31.997665696 ], [ -87.034743302, 31.997849293 ], [ -87.035227306, 31.997872494 ], [ -87.035550207, 31.997689493 ], [ -87.035738707, 31.997345895 ], [ -87.035659507, 31.9958563 ], [ -87.036090001, 31.995650396 ], [ -87.0365199, 31.995833993 ], [ -87.037218407, 31.996590696 ], [ -87.037244901, 31.997071996 ], [ -87.037056401, 31.997278094 ], [ -87.037056006, 31.9976447 ], [ -87.037486203, 31.997759499 ], [ -87.037809007, 31.997668199 ], [ -87.038078107, 31.997416295 ], [ -87.038132206, 31.997141294 ], [ -87.037998006, 31.996774599 ], [ -87.037004605, 31.995169796 ], [ -87.037005104, 31.994688593 ], [ -87.0372205, 31.994367898 ], [ -87.038323306, 31.993979096 ], [ -87.038861804, 31.993177399 ], [ -87.039346002, 31.992925599 ], [ -87.040287301, 31.992834695 ], [ -87.0430305, 31.992171794 ], [ -87.0436491, 31.992126398 ], [ -87.043890901, 31.992286995 ], [ -87.044213101, 31.992837198 ], [ -87.044428103, 31.992951795 ], [ -87.044697002, 31.992951997 ], [ -87.044777706, 31.992883295 ], [ -87.044804901, 31.992493793 ], [ -87.044509806, 31.991783194 ], [ -87.044375807, 31.9912332 ], [ -87.044376403, 31.990476996 ], [ -87.044780001, 31.990133494 ], [ -87.045426503, 31.988713093 ], [ -87.045615405, 31.987842396 ] ] } },
{ "type": "Feature", "properties": { "site_no": "02427250", "nhdplus_comid": "21457972", "navigation_mode": "UM", "requested_distance_km": 12.0, "start_source": "nwissite", "start_id": "USGS-02427250", "geometry_length_km": 0.57529033320778478 }, "geometry": { "type": "LineString", "coordinates": [ [ -87.023669206, 31.993578598 ], [ -87.023857601, 31.993418396 ], [ -87.024368703, 31.993212596 ], [ -87.025148302, 31.993373595 ], [ -87.025605604, 31.9932594 ], [ -87.025874503, 31.993282497 ], [ -87.026008703, 31.993442997 ], [ -87.026089102, 31.993740998 ], [ -87.026465006, 31.994199596 ], [ -87.027110204, 31.994337596 ], [ -87.027325206, 31.994521096 ], [ -87.027566604, 31.995071195 ], [ -87.028050005, 31.995621599 ] ] } },
{ "type": "Feature", "properties": { "site_no": "02427250", "nhdplus_comid": "21458044", "navigation_mode": "UM", "requested_distance_km": 12.0, "start_source": "nwissite", "start_id": "USGS-02427250", "geometry_length_km": 2.5086878733641478 }, "geometry": { "type": "LineString", "coordinates": [ [ -87.0165039, 31.981335893 ], [ -87.017148606, 31.981932193 ], [ -87.018169701, 31.982414298 ], [ -87.018653102, 31.982896 ], [ -87.018625706, 31.983262599 ], [ -87.018464006, 31.9836521 ], [ -87.0184635, 31.984041594 ], [ -87.0185709, 31.984224997 ], [ -87.019000702, 31.984546199 ], [ -87.019457601, 31.984683998 ], [ -87.019995406, 31.984592795 ], [ -87.020130105, 31.984340899 ], [ -87.020265304, 31.983653493 ], [ -87.020400107, 31.983378693 ], [ -87.021126807, 31.982737698 ], [ -87.021341801, 31.982760698 ], [ -87.021449201, 31.982852399 ], [ -87.021475106, 31.983723193 ], [ -87.021662705, 31.9842963 ], [ -87.021877602, 31.984548599 ], [ -87.022603206, 31.984732494 ], [ -87.023435906, 31.985443495 ], [ -87.024511002, 31.985856794 ], [ -87.0248328, 31.986613296 ], [ -87.024912104, 31.987919599 ], [ -87.025421701, 31.989111498 ], [ -87.025367305, 31.989615694 ], [ -87.025205702, 31.989982195 ], [ -87.025178105, 31.990577996 ], [ -87.025715403, 31.991059497 ], [ -87.025822707, 31.991265893 ], [ -87.025795601, 31.9914492 ], [ -87.025607102, 31.991723999 ], [ -87.025392003, 31.9918155 ], [ -87.024504803, 31.991677299 ], [ -87.024047606, 31.991745695 ], [ -87.023670606, 31.992295399 ], [ -87.022917204, 31.992753096 ], [ -87.022916406, 31.9935093 ], [ -87.022997007, 31.993601099 ], [ -87.023669206, 31.993578598 ] ] } }
]
}
