{
"type": "FeatureCollection",
"name": "USGS_02406930_UM_12km",
"crs": { "type": "name", "properties": { "name": "urn:ogc:def:crs:OGC:1.3:CRS84" } },
"features": [
{ "type": "Feature", "properties": { "site_no": "02406930", "nhdplus_comid": "22271988", "navigation_mode": "UM", "requested_distance_km": 12.0, "start_source": "nwissite", "start_id": "USGS-02406930", "geometry_length_km": 2.677910929876159 }, "geometry": { "type": "LineString", "coordinates": [ [ -86.272576801, 33.1921032 ], [ -86.272140406, 33.192492299 ], [ -86.271593906, 33.193706095 ], [ -86.271620505, 33.194278896 ], [ -86.271947205, 33.194554098 ], [ -86.272274002, 33.194668896 ], [ -86.272573307, 33.194989897 ], [ -86.272409007, 33.195654199 ], [ -86.271808304, 33.196707495 ], [ -86.270880803, 33.197531395 ], [ -86.2705805, 33.197966397 ], [ -86.270307206, 33.198607698 ], [ -86.270115003, 33.199844696 ], [ -86.270168506, 33.200623699 ], [ -86.2705492, 33.201334096 ], [ -86.272127606, 33.203030996 ], [ -86.274659403, 33.205324098 ], [ -86.274822503, 33.205599099 ], [ -86.274822004, 33.206057295 ], [ -86.275230303, 33.206469998 ], [ -86.275229901, 33.206859499 ], [ -86.274357304, 33.207225293 ], [ -86.274357006, 33.207500197 ], [ -86.274465807, 33.207637794 ], [ -86.274492607, 33.208072998 ], [ -86.273673907, 33.209011599 ], [ -86.272637807, 33.209377393 ], [ -86.272392206, 33.209629096 ], [ -86.272418305, 33.210637294 ], [ -86.272989407, 33.211714499 ], [ -86.273060648, 33.212022236 ] ] } },
{ "type": "Feature", "properties": { "site_no": "02406930", "nhdplus_comid": "22271998", "navigation_mode": "UM", "requested_distance_km": 12.0, "start_source": "nwissite", "start_id": "USGS-02406930", "geometry_length_km": 0.1475595969815392 }, "geometry": { "type": "LineString", "coordinates": [ [ -86.272005901, 33.190888494 ], [ -86.272060104, 33.191209294 ], [ -86.272305004, 33.191507295 ], [ -86.272576801, 33.1921032 ] ] } },
{ "type": "Feature", "properties": { "site_no": "02406930", "nhdplus_comid": "22272020", "navigation_mode": "UM", "requested_distance_km": 12.0, "start_source": "nwissite", "start_id": "USGS-02406930", "geometry_length_km": 0.55462535370049826 }, "geometry": { "type": "LineString", "coordinates": [ [ -86.266967803, 33.188776493 ], [ -86.267403707, 33.188891396 ], [ -86.268329404, 33.189441994 ], [ -86.269282401, 33.189900994 ], [ -86.269962803, 33.190611795 ], [ -86.270316705, 33.190818399 ], [ -86.270970806, 33.190658599 ], [ -86.271543004, 33.1907278 ], [ -86.272005901, 33.190888494 ] ] } },
{ "type": "Feature", "properties": { "site_no": "02406930", "nhdplus_comid": "22272036", "navigation_mode": "UM", "requested_distance_km": 12.0, "start_source": "nwissite", "start_id": "USGS-02406930", "geometry_length_km": 1.2053274667126044 }, "geometry": { "type": "LineString", "coordinates": [ [ -86.257493004, 33.183635794 ], [ -86.258336604, 33.184300996 ], [ -86.259561107, 33.185539395 ], [ -86.260459401, 33.186135799 ], [ -86.261140101, 33.1863885 ], [ -86.261766702, 33.186503597 ], [ -86.263753101, 33.188475698 ], [ -86.2644336, 33.188980296 ], [ -86.265059903, 33.189278699 ], [ -86.265604302, 33.189737394 ], [ -86.266040407, 33.189646199 ], [ -86.266940504, 33.188890897 ], [ -86.266967803, 33.188776493 ] ] } }
]
}
