{
"type": "FeatureCollection",
"name": "USGS_02446000_UM_12km",
"crs": { "type": "name", "properties": { "name": "urn:ogc:def:crs:OGC:1.3:CRS84" } },
"features": [
{ "type": "Feature", "properties": { "site_no": "02446000", "nhdplus_comid": "18615770", "navigation_mode": "UM", "requested_distance_km": 12.0, "start_source": "nwissite", "start_id": "USGS-02446000", "geometry_length_km": 1.2537419589911534 }, "geometry": { "type": "LineString", "coordinates": [ [ -87.7738491, 33.451680399 ], [ -87.773603201, 33.451680198 ], [ -87.773138307, 33.451863199 ], [ -87.772564404, 33.451977193 ], [ -87.772154406, 33.451976895 ], [ -87.770706803, 33.451288499 ], [ -87.770133302, 33.450898595 ], [ -87.770161003, 33.4505549 ], [ -87.770817406, 33.4501203 ], [ -87.770845003, 33.449868299 ], [ -87.769834705, 33.449134193 ], [ -87.769835107, 33.448813498 ], [ -87.769972205, 33.448424198 ], [ -87.769726403, 33.448217794 ], [ -87.768906504, 33.448308796 ], [ -87.767978005, 33.447735295 ], [ -87.767513506, 33.4477349 ], [ -87.766474403, 33.448169298 ], [ -87.765681803, 33.448306099 ], [ -87.7649986, 33.448259696 ], [ -87.764855447, 33.448207065 ] ] } },
{ "type": "Feature", "properties": { "site_no": "02446000", "nhdplus_comid": "18615744", "navigation_mode": "UM", "requested_distance_km": 12.0, "start_source": "nwissite", "start_id": "USGS-02446000", "geometry_length_km": 5.4718118417256836 }, "geometry": { "type": "LineString", "coordinates": [ [ -87.7757634, 33.475827895 ], [ -87.774997905, 33.475873195 ], [ -87.774697505, 33.475689694 ], [ -87.774424404, 33.475368597 ], [ -87.774452306, 33.474910498 ], [ -87.774698906, 33.474406697 ], [ -87.774945803, 33.473559298 ], [ -87.775301501, 33.473284699 ], [ -87.776067205, 33.472918697 ], [ -87.776094906, 33.472597994 ], [ -87.775903702, 33.472391695 ], [ -87.775084004, 33.472070299 ], [ -87.774674304, 33.471818097 ], [ -87.773964405, 33.471176095 ], [ -87.773964606, 33.470878296 ], [ -87.774101503, 33.470740795 ], [ -87.774511702, 33.470580794 ], [ -87.775604904, 33.470696196 ], [ -87.776151702, 33.470627896 ], [ -87.776288301, 33.470719695 ], [ -87.776123405, 33.471475497 ], [ -87.776041403, 33.471544199 ], [ -87.776041202, 33.471727394 ], [ -87.776150405, 33.471841998 ], [ -87.776369005, 33.4718422 ], [ -87.776587903, 33.471682094 ], [ -87.777354702, 33.470376797 ], [ -87.777327701, 33.470033199 ], [ -87.777136602, 33.469849795 ], [ -87.777000405, 33.469368495 ], [ -87.777110606, 33.468566798 ], [ -87.777439103, 33.4681089 ], [ -87.777903907, 33.467971794 ], [ -87.778231807, 33.468109496 ], [ -87.778340906, 33.4684074 ], [ -87.778339103, 33.470125496 ], [ -87.778639801, 33.470171593 ], [ -87.778885804, 33.4701031 ], [ -87.780062601, 33.468775198 ], [ -87.7809112, 33.467584595 ], [ -87.7807476, 33.467103399 ], [ -87.780447304, 33.466805294 ], [ -87.779436506, 33.466277696 ], [ -87.779409505, 33.465888299 ], [ -87.7795192, 33.465636298 ], [ -87.780531503, 33.464674897 ], [ -87.780696101, 33.464102298 ], [ -87.780642405, 33.463117093 ], [ -87.780396901, 33.462681696 ], [ -87.779932402, 33.462475099 ], [ -87.779823303, 33.462314695 ], [ -87.779660001, 33.461695999 ], [ -87.7787586, 33.460985295 ], [ -87.778321505, 33.460801698 ], [ -87.778130405, 33.460641198 ], [ -87.777884901, 33.460114099 ], [ -87.7780222, 33.4595415 ], [ -87.777723007, 33.458189495 ], [ -87.777532905, 33.457020998 ], [ -87.777970605, 33.4565631 ], [ -87.778025605, 33.456311196 ], [ -87.777889006, 33.456242397 ], [ -87.777205803, 33.456218995 ], [ -87.776604407, 33.456355996 ], [ -87.775456004, 33.456836194 ], [ -87.775128007, 33.456835896 ], [ -87.7751562, 33.456057094 ], [ -87.774937905, 33.455781996 ], [ -87.773654103, 33.455093697 ], [ -87.7726705, 33.454703495 ], [ -87.772424504, 33.454840697 ], [ -87.772369504, 33.455138594 ], [ -87.772942401, 33.455963694 ], [ -87.7729422, 33.456261493 ], [ -87.772532001, 33.456398599 ], [ -87.7722589, 33.456329696 ], [ -87.771876603, 33.455962799 ], [ -87.770948805, 33.454702094 ], [ -87.770922303, 33.453923196 ], [ -87.771469407, 33.453534096 ], [ -87.773684107, 33.452573694 ], [ -87.773957804, 33.4522532 ], [ -87.774012707, 33.451978393 ], [ -87.7738491, 33.451680399 ] ] } },
{ "type": "Feature", "properties": { "site_no": "02446000", "nhdplus_comid": "18615708", "navigation_mode": "UM", "requested_distance_km": 12.0, "start_source": "nwissite", "start_id": "USGS-02446000", "geometry_length_km": 2.7655585608638877 }, "geometry": { "type": "LineString", "coordinates": [ [ -87.776490502, 33.486206196 ], [ -87.776135102, 33.486091293 ], [ -87.775752507, 33.486090995 ], [ -87.775177807, 33.486548796 ], [ -87.774603404, 33.486846194 ], [ -87.774439305, 33.486823097 ], [ -87.774193503, 33.486547999 ], [ -87.7741943, 33.485860795 ], [ -87.774550304, 33.485402897 ], [ -87.774495803, 33.485265397 ], [ -87.774277106, 33.485196494 ], [ -87.773948707, 33.485402398 ], [ -87.773702607, 33.485447995 ], [ -87.773538806, 33.485264599 ], [ -87.773511901, 33.484783597 ], [ -87.773621805, 33.484371297 ], [ -87.774470307, 33.483409695 ], [ -87.774798602, 33.483295493 ], [ -87.775481701, 33.483593799 ], [ -87.775837101, 33.483594097 ], [ -87.775837503, 33.483319193 ], [ -87.775291301, 33.482723199 ], [ -87.774580903, 33.482310094 ], [ -87.774553806, 33.482035197 ], [ -87.775265701, 33.481119499 ], [ -87.775484405, 33.481073797 ], [ -87.7756209, 33.481302999 ], [ -87.775729306, 33.482150793 ], [ -87.775838606, 33.482173696 ], [ -87.775838502, 33.4823341 ], [ -87.776029602, 33.482563399 ], [ -87.776330404, 33.4825636 ], [ -87.776604503, 33.481784895 ], [ -87.7773991, 33.480158895 ], [ -87.777618006, 33.479929894 ], [ -87.777782105, 33.479884297 ], [ -87.778246604, 33.480044998 ], [ -87.778602205, 33.479976498 ], [ -87.778629705, 33.4797704 ], [ -87.778192706, 33.479311794 ], [ -87.777755603, 33.479082398 ], [ -87.7770181, 33.4784863 ], [ -87.777073205, 33.478096895 ], [ -87.7772374, 33.4779137 ], [ -87.778276406, 33.477799997 ], [ -87.778850704, 33.477502599 ], [ -87.779151805, 33.477181993 ], [ -87.779152207, 33.476884298 ], [ -87.778797001, 33.476677798 ], [ -87.777895004, 33.476448096 ], [ -87.776938803, 33.475966297 ], [ -87.7757634, 33.475827895 ] ] } },
{ "type": "Feature", "properties": { "site_no": "02446000", "nhdplus_comid": "18615676", "navigation_mode": "UM", "requested_distance_km": 12.0, "start_source": "nwissite", "start_id": "USGS-02446000", "geometry_length_km": 0.50515470211841673 }, "geometry": { "type": "LineString", "coordinates": [ [ -87.77758, 33.4900328 ], [ -87.777935602, 33.4899185 ], [ -87.778017901, 33.489643693 ], [ -87.777936406, 33.4890939 ], [ -87.777854502, 33.4890479 ], [ -87.777690902, 33.488589697 ], [ -87.776789404, 33.487901695 ], [ -87.776790902, 33.486458398 ], [ -87.776490502, 33.486206196 ] ] } },
{ "type": "Feature", "properties": { "site_no": "02446000", "nhdplus_comid": "18615662", "navigation_mode": "UM", "requested_distance_km": 12.0, "start_source": "nwissite", "start_id": "USGS-02446000", "geometry_length_km": 1.1062433068834343 }, "geometry": { "type": "LineString", "coordinates": [ [ -87.776837103, 33.4944994 ], [ -87.776755303, 33.494224399 ], [ -87.776454702, 33.4940181 ], [ -87.775416002, 33.493856899 ], [ -87.775252104, 33.493673496 ], [ -87.775252804, 33.493009195 ], [ -87.775390305, 33.492276199 ], [ -87.776156403, 33.491795696 ], [ -87.776429802, 33.491795897 ], [ -87.776702404, 33.492574997 ], [ -87.776866205, 33.492735498 ], [ -87.7774131, 33.492781699 ], [ -87.777413607, 33.492277697 ], [ -87.776540205, 33.490810893 ], [ -87.776513606, 33.490169495 ], [ -87.7768149, 33.489642799 ], [ -87.777225107, 33.489551499 ], [ -87.7773614, 33.489872299 ], [ -87.77758, 33.4900328 ] ] } }
]
}
