{
"type": "FeatureCollection",
"name": "USGS_02464000_DM_12km",
"crs": { "type": "name", "properties": { "name": "urn:ogc:def:crs:OGC:1.3:CRS84" } },
"features": [
{ "type": "Feature", "properties": { "site_no": "02464000", "nhdplus_comid": "18229143", "navigation_mode": "DM", "requested_distance_km": 12.0, "start_source": "nwissite", "start_id": "USGS-02464000", "geometry_length_km": 2.7366897760980526 }, "geometry": { "type": "LineString", "coordinates": [ [ -87.596609825, 33.479026025 ], [ -87.596498102, 33.477789298 ], [ -87.596116006, 33.475681499 ], [ -87.595132306, 33.474169299 ], [ -87.594203003, 33.473413095 ], [ -87.5926999, 33.472427696 ], [ -87.589912407, 33.470090196 ], [ -87.588819206, 33.469448395 ], [ -87.587972, 33.469150394 ], [ -87.586304605, 33.469012499 ], [ -87.583324604, 33.469927996 ], [ -87.582203701, 33.470179699 ], [ -87.581137605, 33.470247999 ], [ -87.580591001, 33.470133297 ], [ -87.580372401, 33.469995797 ], [ -87.578951605, 33.468529098 ], [ -87.576519907, 33.466374695 ], [ -87.576410703, 33.466168493 ] ] } },
{ "type": "Feature", "properties": { "site_no": "02464000", "nhdplus_comid": "18227153", "navigation_mode": "DM", "requested_distance_km": 12.0, "start_source": "nwissite", "start_id": "USGS-02464000", "geometry_length_km": 1.0863435616870967 }, "geometry": { "type": "LineString", "coordinates": [ [ -87.576410703, 33.466168493 ], [ -87.576383606, 33.465870693 ], [ -87.576657102, 33.465412498 ], [ -87.578242905, 33.464588299 ], [ -87.578953803, 33.464038797 ], [ -87.580102406, 33.462802097 ], [ -87.580868304, 33.461588196 ], [ -87.582536601, 33.459503897 ], [ -87.583083503, 33.459045798 ], [ -87.583411604, 33.458633497 ] ] } },
{ "type": "Feature", "properties": { "site_no": "02464000", "nhdplus_comid": "18227299", "navigation_mode": "DM", "requested_distance_km": 12.0, "start_source": "nwissite", "start_id": "USGS-02464000", "geometry_length_km": 4.3402647637399534 }, "geometry": { "type": "LineString", "coordinates": [ [ -87.583411604, 33.458633497 ], [ -87.583329901, 33.458060794 ], [ -87.582892701, 33.457602493 ], [ -87.582018405, 33.456960693 ], [ -87.579313301, 33.455585293 ], [ -87.577537201, 33.454828694 ], [ -87.576498702, 33.454507597 ], [ -87.571798302, 33.453772694 ], [ -87.569885105, 33.453748897 ], [ -87.569584601, 33.453634299 ], [ -87.569393404, 33.453428 ], [ -87.569366202, 33.453198895 ], [ -87.569284201, 33.453152999 ], [ -87.569202803, 33.452328198 ], [ -87.569476604, 33.451434895 ], [ -87.571445905, 33.448732398 ], [ -87.573907003, 33.4459612 ], [ -87.575137407, 33.444816299 ], [ -87.576477006, 33.443739995 ], [ -87.5775434, 33.442663595 ], [ -87.577735007, 33.441884696 ], [ -87.5775984, 33.441655599 ], [ -87.577325307, 33.441472299 ], [ -87.576587506, 33.441494897 ], [ -87.575303003, 33.441837996 ], [ -87.572897702, 33.4427993 ], [ -87.568661205, 33.443965994 ], [ -87.566911906, 33.444606595 ], [ -87.5660372, 33.445018694 ], [ -87.564889304, 33.445201397 ] ] } },
{ "type": "Feature", "properties": { "site_no": "02464000", "nhdplus_comid": "18227383", "navigation_mode": "DM", "requested_distance_km": 12.0, "start_source": "nwissite", "start_id": "USGS-02464000", "geometry_length_km": 3.1564846362327166 }, "geometry": { "type": "LineString", "coordinates": [ [ -87.564889304, 33.445201397 ], [ -87.5640423, 33.444971897 ], [ -87.563414104, 33.4444905 ], [ -87.562403701, 33.443390399 ], [ -87.561120301, 33.441923596 ], [ -87.561093301, 33.441534095 ], [ -87.561202906, 33.440984294 ], [ -87.5616953, 33.440457597 ], [ -87.563062303, 33.4393356 ], [ -87.563609205, 33.438740298 ], [ -87.563909903, 33.4385342 ], [ -87.564292602, 33.438419893 ], [ -87.564538404, 33.438534498 ], [ -87.566040605, 33.439772293 ], [ -87.566450305, 33.440024495 ], [ -87.567734301, 33.440551996 ], [ -87.568553902, 33.440827295 ], [ -87.5692643, 33.440850593 ], [ -87.570166305, 33.440438494 ], [ -87.570385203, 33.440186493 ], [ -87.570768401, 33.439224593 ], [ -87.570825905, 33.434115596 ], [ -87.571127303, 33.432901494 ], [ -87.571537405, 33.432466395 ], [ -87.5722479, 33.432283498 ], [ -87.574952804, 33.432284497 ], [ -87.577493601, 33.432835296 ] ] } }
]
}
