{
"type": "FeatureCollection",
"name": "USGS_02421300_UM_12km",
"crs": { "type": "name", "properties": { "name": "urn:ogc:def:crs:OGC:1.3:CRS84" } },
"features": [
{ "type": "Feature", "properties": { "site_no": "02421300", "nhdplus_comid": "21686494", "navigation_mode": "UM", "requested_distance_km": 12.0, "start_source": "nwissite", "start_id": "USGS-02421300", "geometry_length_km": 0.96988735477501964 }, "geometry": { "type": "LineString", "coordinates": [ [ -86.782820001, 32.463843599 ], [ -86.782657906, 32.463705994 ], [ -86.782550305, 32.463270597 ], [ -86.782361403, 32.462995395 ], [ -86.7823079, 32.462491199 ], [ -86.782957003, 32.462033398 ], [ -86.782957301, 32.461735494 ], [ -86.782309301, 32.461070597 ], [ -86.781039603, 32.460519694 ], [ -86.780445606, 32.459969394 ], [ -86.779878803, 32.459281497 ], [ -86.779663302, 32.458593898 ], [ -86.779582903, 32.457998097 ], [ -86.779393807, 32.457814597 ], [ -86.778894282, 32.456864582 ] ] } },
{ "type": "Feature", "properties": { "site_no": "02421300", "nhdplus_comid": "21680896", "navigation_mode": "UM", "requested_distance_km": 12.0, "start_source": "nwissite", "start_id": "USGS-02421300", "geometry_length_km": 1.0904926016372178 }, "geometry": { "type": "LineString", "coordinates": [ [ -86.791274004, 32.470036194 ], [ -86.791004106, 32.469669394 ], [ -86.790545002, 32.469210796 ], [ -86.789194301, 32.468430899 ], [ -86.788032502, 32.4679031 ], [ -86.787600502, 32.467421494 ], [ -86.787492603, 32.467192397 ], [ -86.787033506, 32.4668025 ], [ -86.786061101, 32.466183096 ], [ -86.785142504, 32.465792894 ], [ -86.784304805, 32.465654798 ], [ -86.784115702, 32.465494394 ], [ -86.783387206, 32.464187697 ], [ -86.783090107, 32.463935494 ], [ -86.782820001, 32.463843599 ] ] } },
{ "type": "Feature", "properties": { "site_no": "02421300", "nhdplus_comid": "21680822", "navigation_mode": "UM", "requested_distance_km": 12.0, "start_source": "nwissite", "start_id": "USGS-02421300", "geometry_length_km": 2.3612478156226429 }, "geometry": { "type": "LineString", "coordinates": [ [ -86.806996204, 32.482350595 ], [ -86.806483604, 32.481090099 ], [ -86.806078501, 32.480494097 ], [ -86.806051806, 32.480104499 ], [ -86.80635, 32.479004793 ], [ -86.806674607, 32.478661299 ], [ -86.806702003, 32.478180096 ], [ -86.806459807, 32.476736397 ], [ -86.806243807, 32.476392597 ], [ -86.8050825, 32.475085795 ], [ -86.804299004, 32.474397995 ], [ -86.802624002, 32.473343 ], [ -86.800246902, 32.471302293 ], [ -86.799544401, 32.470980994 ], [ -86.7967337, 32.470635593 ], [ -86.792922504, 32.470358096 ], [ -86.791787602, 32.470082499 ], [ -86.791274004, 32.470036194 ] ] } },
{ "type": "Feature", "properties": { "site_no": "02421300", "nhdplus_comid": "21680710", "navigation_mode": "UM", "requested_distance_km": 12.0, "start_source": "nwissite", "start_id": "USGS-02421300", "geometry_length_km": 2.1673719473398996 }, "geometry": { "type": "LineString", "coordinates": [ [ -86.8064427, 32.500151396 ], [ -86.806362607, 32.498916797 ], [ -86.806417003, 32.498412795 ], [ -86.806931406, 32.497565299 ], [ -86.807662003, 32.496809497 ], [ -86.808338307, 32.496305794 ], [ -86.809447601, 32.495206594 ], [ -86.809718505, 32.494450599 ], [ -86.810286701, 32.493694693 ], [ -86.809909105, 32.492228098 ], [ -86.809828103, 32.492159195 ], [ -86.809612706, 32.490807295 ], [ -86.809694305, 32.490051098 ], [ -86.809560806, 32.487690799 ], [ -86.808696605, 32.486315593 ], [ -86.808588706, 32.485994697 ], [ -86.807940505, 32.485077798 ], [ -86.807508603, 32.484183997 ], [ -86.807266004, 32.483015195 ], [ -86.806996204, 32.482350595 ] ] } },
{ "type": "Feature", "properties": { "site_no": "02421300", "nhdplus_comid": "21677558", "navigation_mode": "UM", "requested_distance_km": 12.0, "start_source": "nwissite", "start_id": "USGS-02421300", "geometry_length_km": 1.3600181808730933 }, "geometry": { "type": "LineString", "coordinates": [ [ -86.804081902, 32.511798695 ], [ -86.805056505, 32.510355495 ], [ -86.806031406, 32.508431293 ], [ -86.806275502, 32.507285796 ], [ -86.806248903, 32.506758794 ], [ -86.806167804, 32.506598398 ], [ -86.806385003, 32.505200796 ], [ -86.806601904, 32.504398897 ], [ -86.806927003, 32.503619999 ], [ -86.807009004, 32.502176493 ], [ -86.8064427, 32.500151396 ] ] } },
{ "type": "Feature", "properties": { "site_no": "02421300", "nhdplus_comid": "21677398", "navigation_mode": "UM", "requested_distance_km": 12.0, "start_source": "nwissite", "start_id": "USGS-02421300", "geometry_length_km": 1.3286706319884065 }, "geometry": { "type": "LineString", "coordinates": [ [ -86.792339906, 32.517794795 ], [ -86.7924482, 32.517726094 ], [ -86.792800501, 32.516901493 ], [ -86.793125406, 32.516489297 ], [ -86.794072703, 32.515619099 ], [ -86.7949927, 32.515046895 ], [ -86.797725007, 32.513925895 ], [ -86.801106304, 32.512896799 ], [ -86.802972801, 32.512118794 ], [ -86.804081902, 32.511798695 ] ] } },
{ "type": "Feature", "properties": { "site_no": "02421300", "nhdplus_comid": "21677324", "navigation_mode": "UM", "requested_distance_km": 12.0, "start_source": "nwissite", "start_id": "USGS-02421300", "geometry_length_km": 1.3480013945170191 }, "geometry": { "type": "LineString", "coordinates": [ [ -86.781946801, 32.5257615 ], [ -86.7820011, 32.525624096 ], [ -86.782974906, 32.525418498 ], [ -86.783922002, 32.524960995 ], [ -86.785004705, 32.524068095 ], [ -86.786141805, 32.522946097 ], [ -86.789470807, 32.520359196 ], [ -86.7910133, 32.519420795 ], [ -86.791879207, 32.518802695 ], [ -86.792231306, 32.518207096 ], [ -86.792339906, 32.517794795 ] ] } },
{ "type": "Feature", "properties": { "site_no": "02421300", "nhdplus_comid": "21677278", "navigation_mode": "UM", "requested_distance_km": 12.0, "start_source": "nwissite", "start_id": "USGS-02421300", "geometry_length_km": 2.3593080286068786 }, "geometry": { "type": "LineString", "coordinates": [ [ -86.7677918, 32.533907495 ], [ -86.768927604, 32.534183294 ], [ -86.769360006, 32.5344586 ], [ -86.769602902, 32.534917198 ], [ -86.770170301, 32.535513297 ], [ -86.770494305, 32.5360865 ], [ -86.771143101, 32.536407799 ], [ -86.772035502, 32.536568895 ], [ -86.775579005, 32.536709294 ], [ -86.777066901, 32.536504194 ], [ -86.777770504, 32.536183998 ], [ -86.7781495, 32.535840593 ], [ -86.779504001, 32.534031495 ], [ -86.779666804, 32.533504598 ], [ -86.779667303, 32.533092096 ], [ -86.7799666, 32.531465396 ], [ -86.780074902, 32.531259298 ], [ -86.780129604, 32.530617796 ], [ -86.780428, 32.5297473 ], [ -86.781051204, 32.528739594 ], [ -86.781241104, 32.528189793 ], [ -86.781620502, 32.527479798 ], [ -86.782351606, 32.526586697 ], [ -86.782271005, 32.526059598 ], [ -86.782000802, 32.525921896 ], [ -86.781946801, 32.5257615 ] ] } }
]
}
