{
"type": "FeatureCollection",
"name": "USGS_02415000_DM_12km",
"crs": { "type": "name", "properties": { "name": "urn:ogc:def:crs:OGC:1.3:CRS84" } },
"features": [
{ "type": "Feature", "properties": { "site_no": "02415000", "nhdplus_comid": "22035157", "navigation_mode": "DM", "requested_distance_km": 12.0, "start_source": "nwissite", "start_id": "USGS-02415000", "geometry_length_km": 0.28749930632655574 }, "geometry": { "type": "LineString", "coordinates": [ [ -85.878443109, 33.06536391 ], [ -85.878339402, 33.065276593 ], [ -85.877713501, 33.063398197 ], [ -85.877713606, 33.062894195 ] ] } },
{ "type": "Feature", "properties": { "site_no": "02415000", "nhdplus_comid": "22035193", "navigation_mode": "DM", "requested_distance_km": 12.0, "start_source": "nwissite", "start_id": "USGS-02415000", "geometry_length_km": 1.3974655595674754 }, "geometry": { "type": "LineString", "coordinates": [ [ -85.877713606, 33.062894195 ], [ -85.877550304, 33.062206894 ], [ -85.877033405, 33.061634198 ], [ -85.876951806, 33.061153196 ], [ -85.877033405, 33.060946994 ], [ -85.877604701, 33.060626298 ], [ -85.880298004, 33.059549496 ], [ -85.883045502, 33.058403999 ], [ -85.883562401, 33.057991594 ], [ -85.883725703, 33.057556294 ], [ -85.883644007, 33.057441793 ], [ -85.883208707, 33.057235599 ], [ -85.8810324, 33.057098299 ], [ -85.880379505, 33.056731798 ], [ -85.880134605, 33.056044497 ] ] } },
{ "type": "Feature", "properties": { "site_no": "02415000", "nhdplus_comid": "22035257", "navigation_mode": "DM", "requested_distance_km": 12.0, "start_source": "nwissite", "start_id": "USGS-02415000", "geometry_length_km": 2.1936235209276878 }, "geometry": { "type": "LineString", "coordinates": [ [ -85.880134605, 33.056044497 ], [ -85.879264101, 33.056021698 ], [ -85.878692701, 33.055838399 ], [ -85.878502406, 33.055563495 ], [ -85.878502302, 33.054967798 ], [ -85.879019104, 33.054211795 ], [ -85.879944004, 33.053295597 ], [ -85.880161606, 33.052722797 ], [ -85.879780903, 33.0523104 ], [ -85.878937505, 33.051920995 ], [ -85.8779855, 33.051165 ], [ -85.876815706, 33.0497218 ], [ -85.876162805, 33.049126193 ], [ -85.8758635, 33.0490117 ], [ -85.874993101, 33.049057499 ], [ -85.874530703, 33.049057499 ], [ -85.871892102, 33.048393093 ], [ -85.871130504, 33.048003599 ], [ -85.870912902, 33.047682896 ], [ -85.870776907, 33.047064297 ], [ -85.870777003, 33.046651997 ], [ -85.871212207, 33.045827299 ], [ -85.873687506, 33.043444797 ] ] } },
{ "type": "Feature", "properties": { "site_no": "02415000", "nhdplus_comid": "22035361", "navigation_mode": "DM", "requested_distance_km": 12.0, "start_source": "nwissite", "start_id": "USGS-02415000", "geometry_length_km": 5.2021857524021531 }, "geometry": { "type": "LineString", "coordinates": [ [ -85.873687506, 33.043444797 ], [ -85.873796307, 33.043444797 ], [ -85.874993205, 33.042734697 ], [ -85.875863604, 33.042001694 ], [ -85.876081206, 33.041703798 ], [ -85.876108401, 33.041428998 ], [ -85.875836305, 33.0407646 ], [ -85.876543604, 33.040214799 ], [ -85.876870006, 33.039825395 ], [ -85.877413906, 33.038496494 ], [ -85.877577104, 33.037900895 ], [ -85.877468303, 33.037030399 ], [ -85.877087504, 33.036297299 ], [ -85.876978807, 33.035380997 ], [ -85.877087504, 33.034876995 ], [ -85.877413802, 33.034327194 ], [ -85.878828101, 33.033158794 ], [ -85.879915901, 33.032104999 ], [ -85.880378202, 33.031852998 ], [ -85.883369803, 33.031692393 ], [ -85.884294502, 33.031417497 ], [ -85.884648003, 33.0311426 ], [ -85.885409303, 33.030111693 ], [ -85.885599703, 33.029263996 ], [ -85.885110103, 33.028256096 ], [ -85.8851372, 33.0276604 ], [ -85.8852458, 33.027202293 ], [ -85.886061601, 33.025987998 ], [ -85.886279106, 33.025186196 ], [ -85.885898307, 33.024338596 ], [ -85.885626204, 33.023949198 ], [ -85.885598905, 33.023674294 ], [ -85.885517403, 33.023628496 ], [ -85.885517307, 33.023193195 ], [ -85.886251301, 33.021612398 ], [ -85.8863056, 33.020810597 ], [ -85.8859521, 33.020214893 ], [ -85.884102806, 33.018107496 ], [ -85.884102605, 33.017557696 ], [ -85.884429, 33.017053694 ], [ -85.885897204, 33.0159081 ], [ -85.886495106, 33.013617195 ], [ -85.887038805, 33.012838297 ], [ -85.887772903, 33.012288399 ], [ -85.8906276, 33.010317899 ], [ -85.891198404, 33.009745196 ], [ -85.891334303, 33.009538896 ], [ -85.891225502, 33.009011999 ], [ -85.891089402, 33.008645497 ], [ -85.889756806, 33.006744295 ], [ -85.8896752, 33.006446496 ] ] } },
{ "type": "Feature", "properties": { "site_no": "02415000", "nhdplus_comid": "22035371", "navigation_mode": "DM", "requested_distance_km": 12.0, "start_source": "nwissite", "start_id": "USGS-02415000", "geometry_length_km": 0.11527781388055106 }, "geometry": { "type": "LineString", "coordinates": [ [ -85.8896752, 33.006446496 ], [ -85.889158502, 33.005507298 ] ] } },
{ "type": "Feature", "properties": { "site_no": "02415000", "nhdplus_comid": "22035423", "navigation_mode": "DM", "requested_distance_km": 12.0, "start_source": "nwissite", "start_id": "USGS-02415000", "geometry_length_km": 0.97038674023657434 }, "geometry": { "type": "LineString", "coordinates": [ [ -85.889158502, 33.005507298 ], [ -85.888343103, 33.005049199 ], [ -85.883589007, 33.002896197 ], [ -85.882286102, 33.0020715 ], [ -85.882042207, 33.0016592 ], [ -85.882097207, 33.000742793 ], [ -85.882206, 33.000422098 ], [ -85.882151604, 33.000125498 ] ] } },
{ "type": "Feature", "properties": { "site_no": "02415000", "nhdplus_comid": "22036577", "navigation_mode": "DM", "requested_distance_km": 12.0, "start_source": "nwissite", "start_id": "USGS-02415000", "geometry_length_km": 0.89873595280157503 }, "geometry": { "type": "LineString", "coordinates": [ [ -85.882151604, 33.000125498 ], [ -85.881907307, 32.9996536 ], [ -85.881146803, 32.999195494 ], [ -85.880413502, 32.999057993 ], [ -85.8794358, 32.999126695 ], [ -85.878757, 32.999241099 ], [ -85.877997003, 32.9991953 ], [ -85.874954507, 32.999332696 ], [ -85.874166302, 32.999217995 ], [ -85.8735146, 32.998782694 ], [ -85.873269901, 32.998737 ] ] } }
]
}
