{
"type": "FeatureCollection",
"name": "USGS_02367900_DM_12km",
"crs": { "type": "name", "properties": { "name": "urn:ogc:def:crs:OGC:1.3:CRS84" } },
"features": [
{ "type": "Feature", "properties": { "site_no": "02367900", "nhdplus_comid": "896197", "navigation_mode": "DM", "requested_distance_km": 12.0, "start_source": "nwissite", "start_id": "USGS-02367900", "geometry_length_km": 0.28874469416483178 }, "geometry": { "type": "LineString", "coordinates": [ [ -86.559870006, 30.924735229 ], [ -86.559899606, 30.9247109 ], [ -86.560245506, 30.924275599 ], [ -86.560937606, 30.923061296 ], [ -86.5607519, 30.922396496 ] ] } },
{ "type": "Feature", "properties": { "site_no": "02367900", "nhdplus_comid": "896215", "navigation_mode": "DM", "requested_distance_km": 12.0, "start_source": "nwissite", "start_id": "USGS-02367900", "geometry_length_km": 0.32038519445491342 }, "geometry": { "type": "LineString", "coordinates": [ [ -86.5607519, 30.922396496 ], [ -86.560699105, 30.9218923 ], [ -86.560248107, 30.920631595 ], [ -86.560169101, 30.919577196 ] ] } },
{ "type": "Feature", "properties": { "site_no": "02367900", "nhdplus_comid": "896249", "navigation_mode": "DM", "requested_distance_km": 12.0, "start_source": "nwissite", "start_id": "USGS-02367900", "geometry_length_km": 0.75712162881033196 }, "geometry": { "type": "LineString", "coordinates": [ [ -86.560169101, 30.919577196 ], [ -86.560143903, 30.917583197 ], [ -86.559453905, 30.915840998 ], [ -86.559188306, 30.915565893 ], [ -86.559161805, 30.915382497 ], [ -86.557462007, 30.9134335 ] ] } },
{ "type": "Feature", "properties": { "site_no": "02367900", "nhdplus_comid": "896261", "navigation_mode": "DM", "requested_distance_km": 12.0, "start_source": "nwissite", "start_id": "USGS-02367900", "geometry_length_km": 0.43541718790229467 }, "geometry": { "type": "LineString", "coordinates": [ [ -86.557462007, 30.9134335 ], [ -86.556771405, 30.912630893 ], [ -86.556718901, 30.911668293 ], [ -86.557171404, 30.910797693 ], [ -86.557996005, 30.910087593 ] ] } },
{ "type": "Feature", "properties": { "site_no": "02367900", "nhdplus_comid": "896265", "navigation_mode": "DM", "requested_distance_km": 12.0, "start_source": "nwissite", "start_id": "USGS-02367900", "geometry_length_km": 0.36723112860345197 }, "geometry": { "type": "LineString", "coordinates": [ [ -86.557996005, 30.910087593 ], [ -86.559299007, 30.909309097 ], [ -86.559937, 30.9090802 ], [ -86.560894102, 30.908920296 ], [ -86.561452106, 30.9091039 ] ] } },
{ "type": "Feature", "properties": { "site_no": "02367900", "nhdplus_comid": "896325", "navigation_mode": "DM", "requested_distance_km": 12.0, "start_source": "nwissite", "start_id": "USGS-02367900", "geometry_length_km": 2.0744229811896417 }, "geometry": { "type": "LineString", "coordinates": [ [ -86.561452106, 30.9091039 ], [ -86.562488705, 30.909241997 ], [ -86.562701501, 30.908921197 ], [ -86.5627551, 30.908348195 ], [ -86.562489502, 30.908095993 ], [ -86.560815506, 30.907338798 ], [ -86.560523205, 30.9070637 ], [ -86.560523607, 30.906536594 ], [ -86.560896106, 30.905917898 ], [ -86.561507806, 30.905482695 ], [ -86.561747201, 30.905116193 ], [ -86.561854303, 30.904107794 ], [ -86.561960705, 30.903855793 ], [ -86.562439501, 30.903374694 ], [ -86.5635029, 30.9029627 ], [ -86.563689105, 30.902756497 ], [ -86.563715905, 30.902389795 ], [ -86.562812604, 30.901724696 ], [ -86.562680006, 30.901357897 ], [ -86.562813103, 30.900991298 ], [ -86.563823603, 30.900166795 ], [ -86.563930102, 30.900006294 ], [ -86.563930303, 30.899570897 ], [ -86.563824207, 30.899387494 ], [ -86.563771501, 30.898699895 ], [ -86.564330004, 30.898150094 ], [ -86.564941503, 30.897852495 ], [ -86.565260507, 30.897577599 ], [ -86.565287501, 30.8970505 ], [ -86.564862505, 30.896614797 ], [ -86.564384207, 30.896454096 ], [ -86.563719802, 30.896407999 ], [ -86.563560501, 30.896155797 ] ] } },
{ "type": "Feature", "properties": { "site_no": "02367900", "nhdplus_comid": "896365", "navigation_mode": "DM", "requested_distance_km": 12.0, "start_source": "nwissite", "start_id": "USGS-02367900", "geometry_length_km": 2.0526464574417647 }, "geometry": { "type": "LineString", "coordinates": [ [ -86.563560501, 30.896155797 ], [ -86.563534103, 30.895995297 ], [ -86.563773505, 30.895628698 ], [ -86.564836703, 30.8953771 ], [ -86.564996302, 30.895262599 ], [ -86.564810805, 30.894276999 ], [ -86.565289706, 30.893452197 ], [ -86.565289907, 30.893131293 ], [ -86.564891502, 30.892741494 ], [ -86.564865202, 30.892512299 ], [ -86.565476805, 30.891939595 ], [ -86.565822706, 30.891366795 ], [ -86.566593803, 30.890725397 ], [ -86.567497604, 30.8902217 ], [ -86.568374805, 30.889969997 ], [ -86.568640605, 30.890038796 ], [ -86.568826206, 30.890611798 ], [ -86.569012202, 30.890818194 ], [ -86.5694106, 30.891001694 ], [ -86.570393905, 30.891025096 ], [ -86.570872501, 30.890796095 ], [ -86.570952304, 30.890612796 ], [ -86.570872605, 30.890383594 ], [ -86.570288301, 30.8898561 ], [ -86.570235603, 30.889099799 ], [ -86.569863707, 30.888733 ], [ -86.569837406, 30.888366297 ], [ -86.569943704, 30.8882287 ], [ -86.571458906, 30.887702294 ], [ -86.571698003, 30.887725294 ], [ -86.571883902, 30.887954496 ], [ -86.571804002, 30.888252497 ], [ -86.571803503, 30.889031693 ], [ -86.571989603, 30.889123499 ], [ -86.572547607, 30.889146596 ], [ -86.572893105, 30.888986297 ] ] } },
{ "type": "Feature", "properties": { "site_no": "02367900", "nhdplus_comid": "896431", "navigation_mode": "DM", "requested_distance_km": 12.0, "start_source": "nwissite", "start_id": "USGS-02367900", "geometry_length_km": 1.5437741232787925 }, "geometry": { "type": "LineString", "coordinates": [ [ -86.572893105, 30.888986297 ], [ -86.573531404, 30.888069898 ], [ -86.573717907, 30.8873365 ], [ -86.573957302, 30.886969894 ], [ -86.575127102, 30.885755695 ], [ -86.576616004, 30.884472795 ], [ -86.576988406, 30.8837853 ], [ -86.577201501, 30.882731199 ], [ -86.577121906, 30.882547796 ], [ -86.576564103, 30.882157996 ], [ -86.576404803, 30.881882899 ], [ -86.576591305, 30.880966194 ], [ -86.577708006, 30.879751898 ], [ -86.578000501, 30.879270695 ], [ -86.578187004, 30.878331095 ], [ -86.578905001, 30.877139494 ] ] } },
{ "type": "Feature", "properties": { "site_no": "02367900", "nhdplus_comid": "896459", "navigation_mode": "DM", "requested_distance_km": 12.0, "start_source": "nwissite", "start_id": "USGS-02367900", "geometry_length_km": 0.49371822650269154 }, "geometry": { "type": "LineString", "coordinates": [ [ -86.578905001, 30.877139494 ], [ -86.579118103, 30.875970796 ], [ -86.579065204, 30.875558197 ], [ -86.578507304, 30.875191294 ], [ -86.578055806, 30.874939099 ], [ -86.578055903, 30.874641098 ], [ -86.578959905, 30.873380899 ] ] } },
{ "type": "Feature", "properties": { "site_no": "02367900", "nhdplus_comid": "896469", "navigation_mode": "DM", "requested_distance_km": 12.0, "start_source": "nwissite", "start_id": "USGS-02367900", "geometry_length_km": 0.15599535319453697 }, "geometry": { "type": "LineString", "coordinates": [ [ -86.578959905, 30.873380899 ], [ -86.579731107, 30.8721435 ] ] } },
{ "type": "Feature", "properties": { "site_no": "02367900", "nhdplus_comid": "896533", "navigation_mode": "DM", "requested_distance_km": 12.0, "start_source": "nwissite", "start_id": "USGS-02367900", "geometry_length_km": 2.7647327569023905 }, "geometry": { "type": "LineString", "coordinates": [ [ -86.579731107, 30.8721435 ], [ -86.5802892, 30.8718917 ], [ -86.581298903, 30.871868998 ], [ -86.581511602, 30.871777393 ], [ -86.581644505, 30.871548295 ], [ -86.5816181, 30.871158697 ], [ -86.5815119, 30.871021099 ], [ -86.581379302, 30.870493993 ], [ -86.5824688, 30.870150596 ], [ -86.5831066, 30.869852796 ], [ -86.583585106, 30.869486198 ], [ -86.584780902, 30.868913695 ], [ -86.587092802, 30.868203893 ], [ -86.587650806, 30.867837295 ], [ -86.588049501, 30.867379099 ], [ -86.588474706, 30.867310494 ], [ -86.589032404, 30.867814898 ], [ -86.589324705, 30.867814995 ], [ -86.589590505, 30.867700398 ], [ -86.590042204, 30.867792197 ], [ -86.591662206, 30.869328298 ], [ -86.592167102, 30.869374193 ], [ -86.592406303, 30.8690992 ], [ -86.592459604, 30.8687784 ], [ -86.592061207, 30.868296996 ], [ -86.591981702, 30.867769897 ], [ -86.592088103, 30.867403097 ], [ -86.5924602, 30.866967797 ], [ -86.593363605, 30.8665784 ], [ -86.593656205, 30.866074197 ], [ -86.593576506, 30.865707494 ], [ -86.593390606, 30.865501195 ], [ -86.5930188, 30.865317799 ], [ -86.592354506, 30.865386397 ], [ -86.592168607, 30.865340494 ], [ -86.592142105, 30.864996694 ], [ -86.592434406, 30.8645842 ], [ -86.593205005, 30.864355199 ], [ -86.593763106, 30.864080295 ], [ -86.5940556, 30.863301195 ], [ -86.594162203, 30.862155199 ], [ -86.594428204, 30.861307293 ] ] } }
]
}
