{
"type": "FeatureCollection",
"name": "USGS_03590000_UM_12km",
"crs": { "type": "name", "properties": { "name": "urn:ogc:def:crs:OGC:1.3:CRS84" } },
"features": [
{ "type": "Feature", "properties": { "site_no": "03590000", "nhdplus_comid": "19581347", "navigation_mode": "UM", "requested_distance_km": 12.0, "start_source": "nwissite", "start_id": "USGS-03590000", "geometry_length_km": 7.0100982799042857 }, "geometry": { "type": "LineString", "coordinates": [ [ -87.701576203, 34.828127496 ], [ -87.701436803, 34.827555098 ], [ -87.701436304, 34.826982498 ], [ -87.701602601, 34.826684594 ], [ -87.701796904, 34.8265699 ], [ -87.702963501, 34.826500498 ], [ -87.704352506, 34.826774493 ], [ -87.705435805, 34.826796599 ], [ -87.706268802, 34.826612897 ], [ -87.707407102, 34.8261768 ], [ -87.708156601, 34.825695395 ], [ -87.708628602, 34.825534694 ], [ -87.711822204, 34.8249828 ], [ -87.712155506, 34.8250513 ], [ -87.712961406, 34.8254629 ], [ -87.715630405, 34.827842996 ], [ -87.716491804, 34.828277394 ], [ -87.716964006, 34.828277096 ], [ -87.717741504, 34.827978797 ], [ -87.718546405, 34.827497095 ], [ -87.7191291, 34.826992795 ], [ -87.719434001, 34.826488599 ], [ -87.719516404, 34.825664096 ], [ -87.718819603, 34.823465794 ], [ -87.718790904, 34.822687194 ], [ -87.719178602, 34.821633294 ], [ -87.720704004, 34.819776796 ], [ -87.721313804, 34.818768598 ], [ -87.721730106, 34.818539195 ], [ -87.7223958, 34.817920297 ], [ -87.722589903, 34.817553699 ], [ -87.722617105, 34.817164294 ], [ -87.722394504, 34.816683494 ], [ -87.722060807, 34.816385999 ], [ -87.721310601, 34.816020198 ], [ -87.719949603, 34.815906696 ], [ -87.719283305, 34.816090398 ], [ -87.7174512, 34.816893496 ], [ -87.716729701, 34.817306399 ], [ -87.7154532, 34.818292193 ], [ -87.714648306, 34.818773694 ], [ -87.7136489, 34.819117993 ], [ -87.712371603, 34.819370896 ], [ -87.710733101, 34.819417797 ], [ -87.710149705, 34.819280796 ], [ -87.709621705, 34.818983398 ], [ -87.709149204, 34.818525694 ], [ -87.708342202, 34.816900097 ], [ -87.707395107, 34.814060695 ], [ -87.707366705, 34.813465096 ], [ -87.707560107, 34.812525898 ], [ -87.708392002, 34.8113802 ], [ -87.708669305, 34.810830295 ], [ -87.708668604, 34.810097396 ], [ -87.708251506, 34.8096397 ], [ -87.707779206, 34.8094109 ], [ -87.707390502, 34.809388295 ], [ -87.705308706, 34.810282893 ], [ -87.7035878, 34.811268896 ], [ -87.7028661, 34.811612993 ], [ -87.701616801, 34.811911494 ], [ -87.701005802, 34.811911896 ], [ -87.700505704, 34.811705895 ], [ -87.700200006, 34.811431296 ], [ -87.699755006, 34.810561299 ], [ -87.699726604, 34.809942894 ], [ -87.700308606, 34.808728598 ], [ -87.700848231, 34.807560442 ] ] } }
]
}
