{
"type": "FeatureCollection",
"name": "USGS_02404000_UM_12km",
"crs": { "type": "name", "properties": { "name": "urn:ogc:def:crs:OGC:1.3:CRS84" } },
"features": [
{ "type": "Feature", "properties": { "site_no": "02404000", "nhdplus_comid": "22202073", "navigation_mode": "UM", "requested_distance_km": 12.0, "start_source": "nwissite", "start_id": "USGS-02404000", "geometry_length_km": 1.6974847719340314 }, "geometry": { "type": "LineString", "coordinates": [ [ -85.916210502, 33.579898395 ], [ -85.916265205, 33.579806797 ], [ -85.916703001, 33.579646297 ], [ -85.9191925, 33.577812999 ], [ -85.926495701, 33.571213 ], [ -85.926851302, 33.571098298 ], [ -85.9279733, 33.571074896 ], [ -85.930052802, 33.5707305 ], [ -85.930071289, 33.570729279 ] ] } },
{ "type": "Feature", "properties": { "site_no": "02404000", "nhdplus_comid": "22202047", "navigation_mode": "UM", "requested_distance_km": 12.0, "start_source": "nwissite", "start_id": "USGS-02404000", "geometry_length_km": 3.5737266008757778 }, "geometry": { "type": "LineString", "coordinates": [ [ -85.895082302, 33.576879896 ], [ -85.895821206, 33.577017196 ], [ -85.896341003, 33.576925397 ], [ -85.896642104, 33.576696299 ], [ -85.896806002, 33.575894497 ], [ -85.896970205, 33.575550899 ], [ -85.897490002, 33.575298794 ], [ -85.898064807, 33.575321697 ], [ -85.898749001, 33.575596496 ], [ -85.899159506, 33.575962894 ], [ -85.899132304, 33.576398 ], [ -85.898393802, 33.577978797 ], [ -85.898448907, 33.578734696 ], [ -85.898859404, 33.579123996 ], [ -85.899269901, 33.579192698 ], [ -85.899762601, 33.579123795 ], [ -85.900200404, 33.578848995 ], [ -85.900255002, 33.578596897 ], [ -85.9004739, 33.578528099 ], [ -85.900747605, 33.578757197 ], [ -85.900775202, 33.579100795 ], [ -85.900009103, 33.580452397 ], [ -85.899434902, 33.582285099 ], [ -85.899353102, 33.583476193 ], [ -85.8994627, 33.583934397 ], [ -85.899681807, 33.584232099 ], [ -85.900065005, 33.584483996 ], [ -85.900502905, 33.584575593 ], [ -85.901351407, 33.584460795 ], [ -85.902062707, 33.583773494 ], [ -85.902117401, 33.583567299 ], [ -85.902336307, 33.583384 ], [ -85.905155003, 33.582673296 ], [ -85.906194702, 33.581802599 ], [ -85.906823702, 33.580473796 ], [ -85.907206707, 33.580084294 ], [ -85.907890804, 33.579809196 ], [ -85.910025403, 33.579579599 ], [ -85.912460901, 33.579143696 ], [ -85.914869502, 33.580013499 ], [ -85.916210502, 33.579898395 ] ] } },
{ "type": "Feature", "properties": { "site_no": "02404000", "nhdplus_comid": "22202055", "navigation_mode": "UM", "requested_distance_km": 12.0, "start_source": "nwissite", "start_id": "USGS-02404000", "geometry_length_km": 1.2769159077765733 }, "geometry": { "type": "LineString", "coordinates": [ [ -85.882876702, 33.574567594 ], [ -85.883205101, 33.574727893 ], [ -85.883834504, 33.574681997 ], [ -85.884409204, 33.574475899 ], [ -85.885148101, 33.574544497 ], [ -85.8854765, 33.574842297 ], [ -85.885613404, 33.575185798 ], [ -85.885941707, 33.575506493 ], [ -85.887145907, 33.575827099 ], [ -85.887337506, 33.575941496 ], [ -85.887611106, 33.575987399 ], [ -85.888350002, 33.575849794 ], [ -85.888568901, 33.576033093 ], [ -85.888733201, 33.576399595 ], [ -85.889143705, 33.576674394 ], [ -85.8894995, 33.576743096 ], [ -85.891606607, 33.576353498 ], [ -85.893631704, 33.576513596 ], [ -85.895082206, 33.576765396 ], [ -85.895082302, 33.576879896 ] ] } },
{ "type": "Feature", "properties": { "site_no": "02404000", "nhdplus_comid": "22202057", "navigation_mode": "UM", "requested_distance_km": 12.0, "start_source": "nwissite", "start_id": "USGS-02404000", "geometry_length_km": 1.8166588160014481 }, "geometry": { "type": "LineString", "coordinates": [ [ -85.866922401, 33.576331295 ], [ -85.8669497, 33.576445796 ], [ -85.867469706, 33.576628894 ], [ -85.867825404, 33.576583199 ], [ -85.868783303, 33.576102197 ], [ -85.869440101, 33.576079398 ], [ -85.870452605, 33.575804494 ], [ -85.8708084, 33.575896196 ], [ -85.871492505, 33.575827494 ], [ -85.871985205, 33.574819595 ], [ -85.872477703, 33.574773796 ], [ -85.8730525, 33.574888393 ], [ -85.873982802, 33.575896293 ], [ -85.874420606, 33.5760796 ], [ -85.874940604, 33.576125398 ], [ -85.876144804, 33.575987995 ], [ -85.876774304, 33.576285698 ], [ -85.877622604, 33.576377295 ], [ -85.879757106, 33.575071596 ], [ -85.880304307, 33.574017897 ], [ -85.880714804, 33.573811695 ], [ -85.8814537, 33.573788695 ], [ -85.881891504, 33.573949099 ], [ -85.882876702, 33.574567594 ] ] } },
{ "type": "Feature", "properties": { "site_no": "02404000", "nhdplus_comid": "22202043", "navigation_mode": "UM", "requested_distance_km": 12.0, "start_source": "nwissite", "start_id": "USGS-02404000", "geometry_length_km": 3.6716356319300387 }, "geometry": { "type": "LineString", "coordinates": [ [ -85.847517006, 33.584986895 ], [ -85.8477633, 33.584986895 ], [ -85.849268705, 33.584529199 ], [ -85.852388807, 33.584277794 ], [ -85.853319503, 33.584003098 ], [ -85.853100702, 33.583476193 ], [ -85.852553301, 33.583247095 ], [ -85.852882005, 33.582445398 ], [ -85.854606405, 33.581185795 ], [ -85.854606502, 33.580956794 ], [ -85.854360305, 33.580750495 ], [ -85.854223505, 33.580475599 ], [ -85.854223602, 33.580200799 ], [ -85.854524702, 33.580017596 ], [ -85.855345607, 33.580040693 ], [ -85.855619401, 33.580201 ], [ -85.855564505, 33.580842398 ], [ -85.855838105, 33.5809341 ], [ -85.858328506, 33.5810261 ], [ -85.858547404, 33.580842897 ], [ -85.858574905, 33.5804535 ], [ -85.858328603, 33.580270298 ], [ -85.857206605, 33.579972297 ], [ -85.857042603, 33.579765998 ], [ -85.8573163, 33.578941494 ], [ -85.857781604, 33.578735396 ], [ -85.858000606, 33.578781299 ], [ -85.858328901, 33.579010196 ], [ -85.858493, 33.579262294 ], [ -85.858547702, 33.579651698 ], [ -85.858711906, 33.579949498 ], [ -85.859095007, 33.580018297 ], [ -85.859888703, 33.579674795 ], [ -85.859970905, 33.579308294 ], [ -85.858876407, 33.578300297 ], [ -85.858712301, 33.577887997 ], [ -85.858876601, 33.577612996 ], [ -85.859314501, 33.577338196 ], [ -85.859752305, 33.577269599 ], [ -85.860272303, 33.577567495 ], [ -85.860354304, 33.5779339 ], [ -85.861010902, 33.578575395 ], [ -85.861722402, 33.578712896 ], [ -85.862078302, 33.578575596 ], [ -85.862653106, 33.577888399 ], [ -85.863118306, 33.577750996 ], [ -85.864623405, 33.578232296 ], [ -85.864951804, 33.578255199 ], [ -85.865471803, 33.578048997 ], [ -85.8654171, 33.577819996 ], [ -85.864924505, 33.577476397 ], [ -85.864924505, 33.577086896 ], [ -85.865417302, 33.576193593 ], [ -85.865882501, 33.575964697 ], [ -85.866922401, 33.576331295 ] ] } }
]
}
