{
"type": "FeatureCollection",
"name": "USGS_02372000_UM_12km",
"crs": { "type": "name", "properties": { "name": "urn:ogc:def:crs:OGC:1.3:CRS84" } },
"features": [
{ "type": "Feature", "properties": { "site_no": "02372000", "nhdplus_comid": "2323204", "navigation_mode": "UM", "requested_distance_km": 12.0, "start_source": "nwissite", "start_id": "USGS-02372000", "geometry_length_km": 0.0536866588215048 }, "geometry": { "type": "LineString", "coordinates": [ [ -86.277881503, 31.724796198 ], [ -86.278406166, 31.724609761 ] ] } },
{ "type": "Feature", "properties": { "site_no": "02372000", "nhdplus_comid": "2323198", "navigation_mode": "UM", "requested_distance_km": 12.0, "start_source": "nwissite", "start_id": "USGS-02372000", "geometry_length_km": 1.486212834559457 }, "geometry": { "type": "LineString", "coordinates": [ [ -86.268009402, 31.729920998 ], [ -86.268036507, 31.729691796 ], [ -86.268439405, 31.729073495 ], [ -86.268708907, 31.7279737 ], [ -86.268763602, 31.7268968 ], [ -86.268898107, 31.726530194 ], [ -86.269381203, 31.726141095 ], [ -86.270212501, 31.725866899 ], [ -86.271821506, 31.725639097 ], [ -86.272035904, 31.725685097 ], [ -86.272705801, 31.726052299 ], [ -86.273054205, 31.726098396 ], [ -86.274207704, 31.7255494 ], [ -86.274609901, 31.725457996 ], [ -86.274743907, 31.725503996 ], [ -86.274850503, 31.726191498 ], [ -86.274984404, 31.726283297 ], [ -86.275520802, 31.726077497 ], [ -86.275735803, 31.7256881 ], [ -86.275870606, 31.724977896 ], [ -86.276058502, 31.724725895 ], [ -86.276541106, 31.724680498 ], [ -86.277345203, 31.724864498 ], [ -86.277881503, 31.724796198 ] ] } },
{ "type": "Feature", "properties": { "site_no": "02372000", "nhdplus_comid": "2323192", "navigation_mode": "UM", "requested_distance_km": 12.0, "start_source": "nwissite", "start_id": "USGS-02372000", "geometry_length_km": 0.15979317580904093 }, "geometry": { "type": "LineString", "coordinates": [ [ -86.268222407, 31.731250197 ], [ -86.268356703, 31.730975397 ], [ -86.268357001, 31.730677493 ], [ -86.268009104, 31.730195895 ], [ -86.268009402, 31.729920998 ] ] } },
{ "type": "Feature", "properties": { "site_no": "02372000", "nhdplus_comid": "2323190", "navigation_mode": "UM", "requested_distance_km": 12.0, "start_source": "nwissite", "start_id": "USGS-02372000", "geometry_length_km": 1.6779862548864144 }, "geometry": { "type": "LineString", "coordinates": [ [ -86.256638102, 31.732362397 ], [ -86.256933205, 31.732293896 ], [ -86.257174306, 31.732431695 ], [ -86.257736601, 31.733005099 ], [ -86.257870205, 31.733440593 ], [ -86.258057706, 31.733578295 ], [ -86.258218601, 31.733578399 ], [ -86.258352801, 31.733463995 ], [ -86.258406803, 31.733143196 ], [ -86.258326605, 31.732891098 ], [ -86.258005403, 31.732478298 ], [ -86.257978804, 31.732317895 ], [ -86.2580593, 31.732226297 ], [ -86.258434907, 31.732112095 ], [ -86.260365605, 31.732022196 ], [ -86.260741107, 31.731770493 ], [ -86.260554604, 31.730899595 ], [ -86.260849707, 31.7307394 ], [ -86.261305504, 31.730739795 ], [ -86.261277705, 31.731587693 ], [ -86.261518702, 31.731862895 ], [ -86.261759803, 31.731977694 ], [ -86.262215607, 31.732000999 ], [ -86.2635573, 31.731131494 ], [ -86.2643352, 31.730857193 ], [ -86.266051106, 31.730835795 ], [ -86.266936101, 31.730653197 ], [ -86.267552003, 31.731226698 ], [ -86.267793305, 31.731318593 ], [ -86.268222407, 31.731250197 ] ] } },
{ "type": "Feature", "properties": { "site_no": "02372000", "nhdplus_comid": "2323706", "navigation_mode": "UM", "requested_distance_km": 12.0, "start_source": "nwissite", "start_id": "USGS-02372000", "geometry_length_km": 2.1607082637400254 }, "geometry": { "type": "LineString", "coordinates": [ [ -86.258119702, 31.747991897 ], [ -86.258629806, 31.747488193 ], [ -86.2587374, 31.7472362 ], [ -86.258738205, 31.746732093 ], [ -86.257988401, 31.745883599 ], [ -86.257560201, 31.745241493 ], [ -86.257506803, 31.744989395 ], [ -86.257426403, 31.744943596 ], [ -86.257427201, 31.744324796 ], [ -86.2573203, 31.744072698 ], [ -86.256249502, 31.742650896 ], [ -86.256062403, 31.742261194 ], [ -86.256036103, 31.741802797 ], [ -86.256546706, 31.740932494 ], [ -86.256573901, 31.740634695 ], [ -86.256413504, 31.740199097 ], [ -86.255529806, 31.7393962 ], [ -86.255154602, 31.739166796 ], [ -86.254216604, 31.7387762 ], [ -86.254217803, 31.737859696 ], [ -86.254380003, 31.736851595 ], [ -86.254299901, 31.736668095 ], [ -86.253657401, 31.735819697 ], [ -86.253577404, 31.735475898 ], [ -86.253792107, 31.735338598 ], [ -86.254489206, 31.735362194 ], [ -86.254918501, 31.735110499 ], [ -86.255240701, 31.734767199 ], [ -86.255429007, 31.734331995 ], [ -86.255349405, 31.733758993 ], [ -86.2564224, 31.733324699 ], [ -86.256717801, 31.732935399 ], [ -86.256638102, 31.732362397 ] ] } },
{ "type": "Feature", "properties": { "site_no": "02372000", "nhdplus_comid": "2323692", "navigation_mode": "UM", "requested_distance_km": 12.0, "start_source": "nwissite", "start_id": "USGS-02372000", "geometry_length_km": 1.6910391140640211 }, "geometry": { "type": "LineString", "coordinates": [ [ -86.261062004, 31.759120695 ], [ -86.261143103, 31.758524999 ], [ -86.260875307, 31.7582497 ], [ -86.260848604, 31.758043498 ], [ -86.261573702, 31.757356696 ], [ -86.261520401, 31.757012896 ], [ -86.261413306, 31.756921098 ], [ -86.260823406, 31.756783195 ], [ -86.2608236, 31.756622799 ], [ -86.261065401, 31.756233297 ], [ -86.261146404, 31.755866796 ], [ -86.260932304, 31.755454198 ], [ -86.2609329, 31.754972897 ], [ -86.261067204, 31.754812695 ], [ -86.261281803, 31.754812799 ], [ -86.261415407, 31.755202495 ], [ -86.261683404, 31.755363196 ], [ -86.2617907, 31.755294494 ], [ -86.261791304, 31.754790299 ], [ -86.261497304, 31.753965199 ], [ -86.261175901, 31.753621198 ], [ -86.2604523, 31.753299698 ], [ -86.260104001, 31.753001496 ], [ -86.260104604, 31.7524058 ], [ -86.260292605, 31.752153799 ], [ -86.26032, 31.751741394 ], [ -86.259624101, 31.750686593 ], [ -86.259511501, 31.750170097 ], [ -86.259458706, 31.749505498 ], [ -86.259244606, 31.749138698 ], [ -86.2584939, 31.7490234 ], [ -86.258494303, 31.748748399 ], [ -86.2586556, 31.7484736 ], [ -86.258173004, 31.748312794 ], [ -86.258119702, 31.747991897 ] ] } },
{ "type": "Feature", "properties": { "site_no": "02372000", "nhdplus_comid": "2323686", "navigation_mode": "UM", "requested_distance_km": 12.0, "start_source": "nwissite", "start_id": "USGS-02372000", "geometry_length_km": 2.93922211871429 }, "geometry": { "type": "LineString", "coordinates": [ [ -86.243654206, 31.773649596 ], [ -86.244672805, 31.7730987 ], [ -86.2468163, 31.771286398 ], [ -86.247592404, 31.770025395 ], [ -86.2480212, 31.769681096 ], [ -86.249012902, 31.769176096 ], [ -86.2494682, 31.768671498 ], [ -86.249681801, 31.7679151 ], [ -86.249949902, 31.767800294 ], [ -86.251583003, 31.767842494 ], [ -86.252253301, 31.768026493 ], [ -86.252709404, 31.768026896 ], [ -86.253809907, 31.767409198 ], [ -86.254588105, 31.767134994 ], [ -86.254802905, 31.766951799 ], [ -86.254884906, 31.765783295 ], [ -86.255019307, 31.765577197 ], [ -86.256415501, 31.764363997 ], [ -86.256710805, 31.764226794 ], [ -86.256818004, 31.764318593 ], [ -86.256844103, 31.764868498 ], [ -86.257219501, 31.7648689 ], [ -86.257407501, 31.764616996 ], [ -86.257381305, 31.764204495 ], [ -86.257649504, 31.764158897 ], [ -86.258051306, 31.7646176 ], [ -86.258292705, 31.764617793 ], [ -86.258481406, 31.763861798 ], [ -86.258803606, 31.763587095 ], [ -86.259501301, 31.763312794 ], [ -86.259555101, 31.763198197 ], [ -86.259179905, 31.762877099 ], [ -86.2591803, 31.762579195 ], [ -86.260066003, 31.762144595 ], [ -86.260361306, 31.7618699 ], [ -86.260522902, 31.761365898 ], [ -86.260282002, 31.760884397 ], [ -86.260229401, 31.7601052 ], [ -86.260069102, 31.759509295 ], [ -86.260123007, 31.759234399 ], [ -86.260418102, 31.759234697 ], [ -86.2606325, 31.7594411 ], [ -86.260793507, 31.759395398 ], [ -86.260901004, 31.759212196 ], [ -86.261062004, 31.759120695 ] ] } },
{ "type": "Feature", "properties": { "site_no": "02372000", "nhdplus_comid": "2323136", "navigation_mode": "UM", "requested_distance_km": 12.0, "start_source": "nwissite", "start_id": "USGS-02372000", "geometry_length_km": 0.40439422099504274 }, "geometry": { "type": "LineString", "coordinates": [ [ -86.239605203, 31.774844997 ], [ -86.243654206, 31.773649596 ] ] } },
{ "type": "Feature", "properties": { "site_no": "02372000", "nhdplus_comid": "2323124", "navigation_mode": "UM", "requested_distance_km": 12.0, "start_source": "nwissite", "start_id": "USGS-02372000", "geometry_length_km": 1.4936671654661096 }, "geometry": { "type": "LineString", "coordinates": [ [ -86.226920404, 31.777765997 ], [ -86.227188304, 31.777399197 ], [ -86.227483302, 31.777330093 ], [ -86.228235304, 31.7781545 ], [ -86.228610806, 31.778154194 ], [ -86.228905804, 31.7779935 ], [ -86.229039401, 31.777603894 ], [ -86.229119107, 31.776870497 ], [ -86.229494601, 31.776847295 ], [ -86.229816705, 31.776961595 ], [ -86.230112001, 31.777236298 ], [ -86.230272904, 31.777236193 ], [ -86.2308622, 31.776433699 ], [ -86.231559604, 31.776364394 ], [ -86.233598702, 31.776729196 ], [ -86.234457105, 31.776751399 ], [ -86.235288501, 31.776521496 ], [ -86.238693401, 31.775097899 ], [ -86.239605203, 31.774844997 ] ] } }
]
}
