{
"type": "FeatureCollection",
"name": "USGS_02443000_UM_12km",
"crs": { "type": "name", "properties": { "name": "urn:ogc:def:crs:OGC:1.3:CRS84" } },
"features": [
{ "type": "Feature", "properties": { "site_no": "02443000", "nhdplus_comid": "18648210", "navigation_mode": "UM", "requested_distance_km": 12.0, "start_source": "nwissite", "start_id": "USGS-02443000", "geometry_length_km": 0.20979692576636752 }, "geometry": { "type": "LineString", "coordinates": [ [ -88.313475706, 33.560893096 ], [ -88.314296305, 33.561053894 ], [ -88.314706802, 33.561008297 ], [ -88.314925805, 33.560825095 ], [ -88.315117605, 33.560435794 ], [ -88.315272807, 33.560335947 ] ] } },
{ "type": "Feature", "properties": { "site_no": "02443000", "nhdplus_comid": "18648222", "navigation_mode": "UM", "requested_distance_km": 12.0, "start_source": "nwissite", "start_id": "USGS-02443000", "geometry_length_km": 2.7497665401820952 }, "geometry": { "type": "LineString", "coordinates": [ [ -88.2939151, 33.558820494 ], [ -88.294544406, 33.558706395 ], [ -88.295228302, 33.558821395 ], [ -88.295502104, 33.558706999 ], [ -88.295556806, 33.558592498 ], [ -88.295502305, 33.558363393 ], [ -88.295147002, 33.558019593 ], [ -88.295010604, 33.557607196 ], [ -88.295147404, 33.557561494 ], [ -88.295639701, 33.557676293 ], [ -88.296104901, 33.557493396 ], [ -88.296187103, 33.557447597 ], [ -88.2961879, 33.556577198 ], [ -88.296051301, 33.556347996 ], [ -88.296106406, 33.555958696 ], [ -88.296380006, 33.555958897 ], [ -88.297145903, 33.556234196 ], [ -88.297337204, 33.556463294 ], [ -88.297418304, 33.557494096 ], [ -88.297746405, 33.557837896 ], [ -88.298293404, 33.557952896 ], [ -88.300700903, 33.558137499 ], [ -88.301111102, 33.558298096 ], [ -88.301794507, 33.558985695 ], [ -88.302396305, 33.5591693 ], [ -88.303217202, 33.5589865 ], [ -88.303490907, 33.558872193 ], [ -88.303901203, 33.558941096 ], [ -88.304120004, 33.5591015 ], [ -88.305077106, 33.559743397 ], [ -88.305405304, 33.559789494 ], [ -88.306308202, 33.559789993 ], [ -88.306581706, 33.559904598 ], [ -88.306718104, 33.560316995 ], [ -88.306854703, 33.560660593 ], [ -88.307182707, 33.561050199 ], [ -88.307538405, 33.561119094 ], [ -88.307948604, 33.561348394 ], [ -88.308413602, 33.561623596 ], [ -88.308906101, 33.561623894 ], [ -88.309590206, 33.561349295 ], [ -88.309863903, 33.561395295 ], [ -88.310000405, 33.561578594 ], [ -88.3100003, 33.561853394 ], [ -88.309863307, 33.562197 ], [ -88.310273707, 33.562082596 ], [ -88.310547501, 33.561807893 ], [ -88.310958304, 33.561235398 ], [ -88.311232105, 33.561006494 ], [ -88.311505705, 33.561052494 ], [ -88.312107205, 33.561625399 ], [ -88.312462904, 33.5616256 ], [ -88.312873304, 33.561511293 ], [ -88.313338801, 33.561053395 ], [ -88.313475706, 33.560893096 ] ] } },
{ "type": "Feature", "properties": { "site_no": "02443000", "nhdplus_comid": "18648216", "navigation_mode": "UM", "requested_distance_km": 12.0, "start_source": "nwissite", "start_id": "USGS-02443000", "geometry_length_km": 2.4799516004787137 }, "geometry": { "type": "LineString", "coordinates": [ [ -88.279960103, 33.560414098 ], [ -88.280233607, 33.560414299 ], [ -88.280644603, 33.559841998 ], [ -88.2810551, 33.559773497 ], [ -88.281274103, 33.5597279 ], [ -88.281274401, 33.559384197 ], [ -88.281329304, 33.559200995 ], [ -88.281958707, 33.559086993 ], [ -88.2820132, 33.559201494 ], [ -88.282149903, 33.559316196 ], [ -88.282231607, 33.5597286 ], [ -88.2820943, 33.560232297 ], [ -88.281874806, 33.560804896 ], [ -88.281737901, 33.560873494 ], [ -88.281737506, 33.561217099 ], [ -88.282421507, 33.561263494 ], [ -88.283105604, 33.561263993 ], [ -88.283871703, 33.561218694 ], [ -88.284419306, 33.560806796 ], [ -88.284747705, 33.560692497 ], [ -88.284966402, 33.560807198 ], [ -88.285376802, 33.560876198 ], [ -88.285513707, 33.560761794 ], [ -88.285568602, 33.560532793 ], [ -88.285377204, 33.560418099 ], [ -88.285103902, 33.560188897 ], [ -88.285104007, 33.5600743 ], [ -88.285377704, 33.560005695 ], [ -88.286061205, 33.560464397 ], [ -88.286061101, 33.560578898 ], [ -88.286471404, 33.560693696 ], [ -88.286881901, 33.560693994 ], [ -88.287347302, 33.560419396 ], [ -88.287484303, 33.560236298 ], [ -88.287566707, 33.559846997 ], [ -88.287621707, 33.559663795 ], [ -88.288251005, 33.5595496 ], [ -88.288442701, 33.559435293 ], [ -88.288442902, 33.559160396 ], [ -88.288169503, 33.558976993 ], [ -88.288032904, 33.558747798 ], [ -88.288115107, 33.558587499 ], [ -88.288443804, 33.558244199 ], [ -88.289128102, 33.557946794 ], [ -88.289948903, 33.557901599 ], [ -88.2901676, 33.5580163 ], [ -88.2906323, 33.558405995 ], [ -88.2907691, 33.558474794 ], [ -88.2910427, 33.558474898 ], [ -88.291124903, 33.558360495 ], [ -88.291125104, 33.558062695 ], [ -88.290906601, 33.557719 ], [ -88.290633403, 33.5573752 ], [ -88.290578701, 33.557214797 ], [ -88.290852502, 33.557100497 ], [ -88.291317202, 33.557444394 ], [ -88.291672401, 33.557902694 ], [ -88.291809, 33.558177695 ], [ -88.292000405, 33.558360994 ], [ -88.292137101, 33.558475696 ], [ -88.292410702, 33.558407195 ], [ -88.293040305, 33.558063895 ], [ -88.293505304, 33.558064394 ], [ -88.293642007, 33.558178999 ], [ -88.293724105, 33.558293499 ], [ -88.293778405, 33.558705896 ], [ -88.2939151, 33.558820494 ] ] } },
{ "type": "Feature", "properties": { "site_no": "02443000", "nhdplus_comid": "18648204", "navigation_mode": "UM", "requested_distance_km": 12.0, "start_source": "nwissite", "start_id": "USGS-02443000", "geometry_length_km": 0.18226178381415176 }, "geometry": { "type": "LineString", "coordinates": [ [ -88.279140405, 33.559313998 ], [ -88.279632807, 33.5593144 ], [ -88.279960901, 33.559543699 ], [ -88.279960103, 33.560414098 ] ] } },
{ "type": "Feature", "properties": { "site_no": "02443000", "nhdplus_comid": "18648214", "navigation_mode": "UM", "requested_distance_km": 12.0, "start_source": "nwissite", "start_id": "USGS-02443000", "geometry_length_km": 0.63365570860145048 }, "geometry": { "type": "LineString", "coordinates": [ [ -88.273341902, 33.557774596 ], [ -88.274573304, 33.557546593 ], [ -88.275394104, 33.557478495 ], [ -88.276215002, 33.557479195 ], [ -88.2770904, 33.557594396 ], [ -88.277856, 33.557892799 ], [ -88.278457403, 33.558397196 ], [ -88.278949305, 33.558924399 ], [ -88.279003702, 33.559267998 ], [ -88.279140405, 33.559313998 ] ] } },
{ "type": "Feature", "properties": { "site_no": "02443000", "nhdplus_comid": "18648212", "navigation_mode": "UM", "requested_distance_km": 12.0, "start_source": "nwissite", "start_id": "USGS-02443000", "geometry_length_km": 0.52565291232985156 }, "geometry": { "type": "LineString", "coordinates": [ [ -88.268606007, 33.560061298 ], [ -88.268743105, 33.559832394 ], [ -88.269290604, 33.559534997 ], [ -88.270467505, 33.559146598 ], [ -88.271070004, 33.558688998 ], [ -88.271617405, 33.558506198 ], [ -88.272575103, 33.558392495 ], [ -88.273259506, 33.557934895 ], [ -88.273341902, 33.557774596 ] ] } },
{ "type": "Feature", "properties": { "site_no": "02443000", "nhdplus_comid": "18648194", "navigation_mode": "UM", "requested_distance_km": 12.0, "start_source": "nwissite", "start_id": "USGS-02443000", "geometry_length_km": 0.28425589655441763 }, "geometry": { "type": "LineString", "coordinates": [ [ -88.265596002, 33.560333595 ], [ -88.2658149, 33.560402498 ], [ -88.266362205, 33.560334295 ], [ -88.267867006, 33.5602898 ], [ -88.268606007, 33.560061298 ] ] } },
{ "type": "Feature", "properties": { "site_no": "02443000", "nhdplus_comid": "18648580", "navigation_mode": "UM", "requested_distance_km": 12.0, "start_source": "nwissite", "start_id": "USGS-02443000", "geometry_length_km": 5.845292686670815 }, "geometry": { "type": "LineString", "coordinates": [ [ -88.202600203, 33.565801494 ], [ -88.202737004, 33.565870196 ], [ -88.238714807, 33.562864296 ], [ -88.250040807, 33.561730795 ], [ -88.265459105, 33.560402296 ], [ -88.265596002, 33.560333595 ] ] } }
]
}
