{
"type": "FeatureCollection",
"name": "USGS_02419974_UM_12km",
"crs": { "type": "name", "properties": { "name": "urn:ogc:def:crs:OGC:1.3:CRS84" } },
"features": [
{ "type": "Feature", "properties": { "site_no": "02419974", "nhdplus_comid": "21686550", "navigation_mode": "UM", "requested_distance_km": 12.0, "start_source": "nwissite", "start_id": "USGS-02419974", "geometry_length_km": 2.5749576694162415 }, "geometry": { "type": "LineString", "coordinates": [ [ -86.238671705, 32.362275995 ], [ -86.238942705, 32.363169298 ], [ -86.239024207, 32.363512896 ], [ -86.239456706, 32.364039496 ], [ -86.240240403, 32.364680395 ], [ -86.240537606, 32.364817597 ], [ -86.242724501, 32.364861399 ], [ -86.243021503, 32.364952795 ], [ -86.243265405, 32.365617096 ], [ -86.2444534, 32.365776293 ], [ -86.244804606, 32.365959294 ], [ -86.246046506, 32.365935296 ], [ -86.246451803, 32.366186894 ], [ -86.246668205, 32.366530396 ], [ -86.247721203, 32.366598196 ], [ -86.247802302, 32.366735496 ], [ -86.247858301, 32.368178993 ], [ -86.2480506, 32.370676294 ], [ -86.248243101, 32.373311095 ], [ -86.248567507, 32.373608597 ], [ -86.248999804, 32.3738603 ], [ -86.249244504, 32.3750057 ], [ -86.249163605, 32.3751432 ], [ -86.249327905, 32.376838595 ], [ -86.2496261, 32.377708994 ], [ -86.249950707, 32.378212795 ], [ -86.250333205, 32.378597498 ], [ -86.250467807, 32.378872596 ], [ -86.25061486, 32.379035626 ] ] } },
{ "type": "Feature", "properties": { "site_no": "02419974", "nhdplus_comid": "21687630", "navigation_mode": "UM", "requested_distance_km": 12.0, "start_source": "nwissite", "start_id": "USGS-02419974", "geometry_length_km": 0.15847540597096552 }, "geometry": { "type": "LineString", "coordinates": [ [ -86.237887204, 32.3610164 ], [ -86.238671705, 32.362275995 ] ] } }
]
}
