{
"type": "FeatureCollection",
"name": "USGS_02374250_DM_12km",
"crs": { "type": "name", "properties": { "name": "urn:ogc:def:crs:OGC:1.3:CRS84" } },
"features": [
{ "type": "Feature", "properties": { "site_no": "02374250", "nhdplus_comid": "2413994", "navigation_mode": "DM", "requested_distance_km": 12.0, "start_source": "nwissite", "start_id": "USGS-02374250", "geometry_length_km": 0.73196473118267436 }, "geometry": { "type": "LineString", "coordinates": [ [ -87.06138521, 31.067224546 ], [ -87.062958404, 31.067272097 ], [ -87.064213403, 31.066614695 ], [ -87.064575501, 31.066011794 ], [ -87.064448304, 31.064484298 ], [ -87.0647882, 31.062741697 ] ] } },
{ "type": "Feature", "properties": { "site_no": "02374250", "nhdplus_comid": "2414000", "navigation_mode": "DM", "requested_distance_km": 12.0, "start_source": "nwissite", "start_id": "USGS-02374250", "geometry_length_km": 0.24194576485035374 }, "geometry": { "type": "LineString", "coordinates": [ [ -87.0647882, 31.062741697 ], [ -87.0658966, 31.062072493 ], [ -87.067082405, 31.0620417 ] ] } },
{ "type": "Feature", "properties": { "site_no": "02374250", "nhdplus_comid": "2414002", "navigation_mode": "DM", "requested_distance_km": 12.0, "start_source": "nwissite", "start_id": "USGS-02374250", "geometry_length_km": 3.4719241381523553 }, "geometry": { "type": "LineString", "coordinates": [ [ -87.067082405, 31.0620417 ], [ -87.068318106, 31.062899895 ], [ -87.068757601, 31.0629353 ], [ -87.070985802, 31.065517195 ], [ -87.0723956, 31.066136599 ], [ -87.074579507, 31.066438995 ], [ -87.076135904, 31.067070097 ], [ -87.078786902, 31.067157194 ], [ -87.079909004, 31.0663625 ], [ -87.080646701, 31.065031193 ], [ -87.081287906, 31.064577095 ], [ -87.082753003, 31.064694993 ], [ -87.084574901, 31.065600298 ], [ -87.0879483, 31.0685267 ], [ -87.088946305, 31.068859898 ], [ -87.0908648, 31.068887696 ], [ -87.092105806, 31.068355396 ], [ -87.093305506, 31.068198994 ], [ -87.095356703, 31.068363898 ], [ -87.096730404, 31.067968599 ], [ -87.097531803, 31.067400895 ] ] } },
{ "type": "Feature", "properties": { "site_no": "02374250", "nhdplus_comid": "2413990", "navigation_mode": "DM", "requested_distance_km": 12.0, "start_source": "nwissite", "start_id": "USGS-02374250", "geometry_length_km": 0.10662701824678314 }, "geometry": { "type": "LineString", "coordinates": [ [ -87.097531803, 31.067400895 ], [ -87.098067701, 31.066558897 ] ] } },
{ "type": "Feature", "properties": { "site_no": "02374250", "nhdplus_comid": "2414008", "navigation_mode": "DM", "requested_distance_km": 12.0, "start_source": "nwissite", "start_id": "USGS-02374250", "geometry_length_km": 0.91746807235810912 }, "geometry": { "type": "LineString", "coordinates": [ [ -87.098067701, 31.066558897 ], [ -87.098127604, 31.064667299 ], [ -87.097875901, 31.064267799 ], [ -87.097839504, 31.0632535 ], [ -87.0979634, 31.062125593 ], [ -87.099369407, 31.060089193 ], [ -87.099667206, 31.058722496 ] ] } },
{ "type": "Feature", "properties": { "site_no": "02374250", "nhdplus_comid": "2414020", "navigation_mode": "DM", "requested_distance_km": 12.0, "start_source": "nwissite", "start_id": "USGS-02374250", "geometry_length_km": 0.34648436772436025 }, "geometry": { "type": "LineString", "coordinates": [ [ -87.099667206, 31.058722496 ], [ -87.099491604, 31.055610798 ] ] } },
{ "type": "Feature", "properties": { "site_no": "02374250", "nhdplus_comid": "2414026", "navigation_mode": "DM", "requested_distance_km": 12.0, "start_source": "nwissite", "start_id": "USGS-02374250", "geometry_length_km": 0.92550938271343064 }, "geometry": { "type": "LineString", "coordinates": [ [ -87.099491604, 31.055610798 ], [ -87.100080006, 31.054962695 ], [ -87.102483802, 31.053259395 ], [ -87.103243701, 31.053067595 ], [ -87.1049878, 31.053334095 ], [ -87.106461704, 31.054716699 ], [ -87.107327007, 31.054912597 ] ] } },
{ "type": "Feature", "properties": { "site_no": "02374250", "nhdplus_comid": "2414032", "navigation_mode": "DM", "requested_distance_km": 12.0, "start_source": "nwissite", "start_id": "USGS-02374250", "geometry_length_km": 3.0585214065962436 }, "geometry": { "type": "LineString", "coordinates": [ [ -87.107327007, 31.054912597 ], [ -87.108274601, 31.054356597 ], [ -87.1083709, 31.053479299 ], [ -87.107455403, 31.052394398 ], [ -87.107579105, 31.051266395 ], [ -87.109131202, 31.049241699 ], [ -87.109602802, 31.047635898 ], [ -87.109154306, 31.046335593 ], [ -87.108266406, 31.044999994 ], [ -87.108376406, 31.0439974 ], [ -87.1091775, 31.043429494 ], [ -87.109937303, 31.043237694 ], [ -87.112134404, 31.043413997 ], [ -87.114500903, 31.044741794 ], [ -87.115526207, 31.044824094 ], [ -87.115846604, 31.044596896 ], [ -87.116089202, 31.043731399 ], [ -87.115306504, 31.042783596 ], [ -87.114977002, 31.0417457 ], [ -87.115233302, 31.040754795 ], [ -87.115929, 31.039799094 ], [ -87.116107605, 31.038169794 ], [ -87.115405001, 31.037165195 ] ] } },
{ "type": "Feature", "properties": { "site_no": "02374250", "nhdplus_comid": "2414036", "navigation_mode": "DM", "requested_distance_km": 12.0, "start_source": "nwissite", "start_id": "USGS-02374250", "geometry_length_km": 1.9190311554107711 }, "geometry": { "type": "LineString", "coordinates": [ [ -87.115405001, 31.037165195 ], [ -87.1151281, 31.036321193 ], [ -87.115251705, 31.035193197 ], [ -87.116052702, 31.034625299 ], [ -87.118263304, 31.034676194 ], [ -87.119169503, 31.034495994 ], [ -87.120130606, 31.033814497 ], [ -87.120693505, 31.032721698 ], [ -87.121668205, 31.031914897 ], [ -87.124331906, 31.031875499 ], [ -87.125439301, 31.031205699 ], [ -87.125430003, 31.029940598 ], [ -87.124528304, 31.0287304 ], [ -87.124665506, 31.027477093 ], [ -87.125187106, 31.026760295 ] ] } }
]
}
