{
"type": "FeatureCollection",
"name": "USGS_02423160_DM_12km",
"crs": { "type": "name", "properties": { "name": "urn:ogc:def:crs:OGC:1.3:CRS84" } },
"features": [
{ "type": "Feature", "properties": { "site_no": "02423160", "nhdplus_comid": "21654200", "navigation_mode": "DM", "requested_distance_km": 12.0, "start_source": "nwissite", "start_id": "USGS-02423160", "geometry_length_km": 0.76699195660613073 }, "geometry": { "type": "LineString", "coordinates": [ [ -86.549013955, 33.603869372 ], [ -86.549014002, 33.603814296 ], [ -86.549261004, 33.603104293 ], [ -86.549891107, 33.602692299 ], [ -86.550137602, 33.602417499 ], [ -86.550274901, 33.6019364 ], [ -86.5508506, 33.601020396 ], [ -86.551398501, 33.600585394 ], [ -86.553535007, 33.599372596 ], [ -86.553918503, 33.599052094 ], [ -86.553973503, 33.598731294 ] ] } },
{ "type": "Feature", "properties": { "site_no": "02423160", "nhdplus_comid": "21654220", "navigation_mode": "DM", "requested_distance_km": 12.0, "start_source": "nwissite", "start_id": "USGS-02423160", "geometry_length_km": 2.1916273295452342 }, "geometry": { "type": "LineString", "coordinates": [ [ -86.553973503, 33.598731294 ], [ -86.553179905, 33.598341495 ], [ -86.551428206, 33.597996697 ], [ -86.550360806, 33.597560793 ], [ -86.548472904, 33.596460097 ], [ -86.5461751, 33.594579995 ], [ -86.545682907, 33.593960993 ], [ -86.545300305, 33.593273498 ], [ -86.544562206, 33.592012994 ], [ -86.543249503, 33.590752199 ], [ -86.543249801, 33.590477295 ], [ -86.543359302, 33.590385795 ], [ -86.543879606, 33.590340197 ], [ -86.5443995, 33.590432197 ], [ -86.545028903, 33.590684697 ], [ -86.5460141, 33.590914398 ], [ -86.546370104, 33.590754293 ], [ -86.546644606, 33.589998394 ], [ -86.546946101, 33.589494593 ], [ -86.547192603, 33.5892886 ], [ -86.547849804, 33.5890828 ], [ -86.549300604, 33.589037895 ], [ -86.549957804, 33.588717498 ], [ -86.550040103, 33.588557296 ] ] } },
{ "type": "Feature", "properties": { "site_no": "02423160", "nhdplus_comid": "21654262", "navigation_mode": "DM", "requested_distance_km": 12.0, "start_source": "nwissite", "start_id": "USGS-02423160", "geometry_length_km": 7.08884419392718 }, "geometry": { "type": "LineString", "coordinates": [ [ -86.550040103, 33.588557296 ], [ -86.550341301, 33.588488698 ], [ -86.552861705, 33.586038895 ], [ -86.553300105, 33.585397795 ], [ -86.553328, 33.584825099 ], [ -86.5531644, 33.584045999 ], [ -86.553274103, 33.583839893 ], [ -86.5558483, 33.582237698 ], [ -86.556094803, 33.581939995 ], [ -86.556396902, 33.580657199 ], [ -86.556616105, 33.580313697 ], [ -86.561434701, 33.578300297 ], [ -86.562529802, 33.577980198 ], [ -86.563077204, 33.577957593 ], [ -86.563241303, 33.578072093 ], [ -86.563213602, 33.578461595 ], [ -86.562282607, 33.579262897 ], [ -86.562254407, 33.580179296 ], [ -86.562391102, 33.580500096 ], [ -86.562555306, 33.580660596 ], [ -86.562938601, 33.580591999 ], [ -86.5682512, 33.576196 ], [ -86.570277207, 33.575120196 ], [ -86.570742801, 33.574731 ], [ -86.571345307, 33.574021094 ], [ -86.5718107, 33.573654696 ], [ -86.572248802, 33.5734258 ], [ -86.572960503, 33.573242895 ], [ -86.574876405, 33.572968699 ], [ -86.577586204, 33.572190896 ], [ -86.580488101, 33.570725694 ], [ -86.5811451, 33.570221893 ], [ -86.581638001, 33.569695197 ], [ -86.581994005, 33.5688935 ], [ -86.5819396, 33.568412393 ], [ -86.581611603, 33.567679197 ], [ -86.581611805, 33.567243896 ], [ -86.581721403, 33.566969 ], [ -86.582542904, 33.565984197 ], [ -86.582570404, 33.565503098 ], [ -86.582324401, 33.565044798 ], [ -86.582461402, 33.564655498 ], [ -86.582653105, 33.564472198 ], [ -86.583665706, 33.5642206 ], [ -86.583884805, 33.564037398 ], [ -86.583885007, 33.563487597 ], [ -86.583802901, 33.563372999 ], [ -86.583803207, 33.562800296 ], [ -86.585309304, 33.560601294 ], [ -86.585665204, 33.560280696 ], [ -86.587060906, 33.559639797 ], [ -86.5876358, 33.559158795 ], [ -86.587827407, 33.558860995 ], [ -86.587827705, 33.558379896 ], [ -86.587499604, 33.557875797 ], [ -86.5874997, 33.5573489 ], [ -86.587581903, 33.557211496 ], [ -86.588102005, 33.556570195 ], [ -86.589005403, 33.555906095 ], [ -86.589799203, 33.554966994 ], [ -86.5899636, 33.554394394 ], [ -86.590018705, 33.553638399 ], [ -86.589854702, 33.553294495 ], [ -86.589471705, 33.552904993 ], [ -86.588322707, 33.552400693 ], [ -86.587721005, 33.552033894 ], [ -86.587447502, 33.551735997 ], [ -86.587447703, 33.551277794 ], [ -86.587666802, 33.550911397 ], [ -86.588542603, 33.550086893 ] ] } },
{ "type": "Feature", "properties": { "site_no": "02423160", "nhdplus_comid": "21654270", "navigation_mode": "DM", "requested_distance_km": 12.0, "start_source": "nwissite", "start_id": "USGS-02423160", "geometry_length_km": 0.2726336983606456 }, "geometry": { "type": "LineString", "coordinates": [ [ -86.588542603, 33.550086893 ], [ -86.588624604, 33.550109796 ], [ -86.590431102, 33.548666999 ], [ -86.590759404, 33.548552595 ] ] } },
{ "type": "Feature", "properties": { "site_no": "02423160", "nhdplus_comid": "21654272", "navigation_mode": "DM", "requested_distance_km": 12.0, "start_source": "nwissite", "start_id": "USGS-02423160", "geometry_length_km": 1.884438344731447 }, "geometry": { "type": "LineString", "coordinates": [ [ -86.590759404, 33.548552595 ], [ -86.591333807, 33.548713095 ], [ -86.591963001, 33.549102798 ], [ -86.592564605, 33.549790196 ], [ -86.593385406, 33.550408997 ], [ -86.593768202, 33.550935999 ], [ -86.593932204, 33.551600397 ], [ -86.594096303, 33.551898196 ], [ -86.594643302, 33.552356593 ], [ -86.595026307, 33.5525629 ], [ -86.596914105, 33.552906998 ], [ -86.600498505, 33.552839093 ], [ -86.601456307, 33.552655995 ], [ -86.602468707, 33.552197896 ], [ -86.603207603, 33.551625393 ], [ -86.604001202, 33.551579595 ], [ -86.604685202, 33.551808797 ], [ -86.607338801, 33.553550497 ], [ -86.607338801, 33.553642094 ] ] } }
]
}
