{
"type": "FeatureCollection",
"name": "USGS_02449400_UM_12km",
"crs": { "type": "name", "properties": { "name": "urn:ogc:def:crs:OGC:1.3:CRS84" } },
"features": [
{ "type": "Feature", "properties": { "site_no": "02449400", "nhdplus_comid": "18633680", "navigation_mode": "UM", "requested_distance_km": 12.0, "start_source": "nwissite", "start_id": "USGS-02449400", "geometry_length_km": 1.4246330327661465 }, "geometry": { "type": "LineString", "coordinates": [ [ -88.173602201, 32.689335197 ], [ -88.173250005, 32.689243697 ], [ -88.172518201, 32.688923195 ], [ -88.171895005, 32.688579693 ], [ -88.1714615, 32.688648596 ], [ -88.171326205, 32.688854896 ], [ -88.171163805, 32.689221598 ], [ -88.171218507, 32.6900234 ], [ -88.171299905, 32.690114997 ], [ -88.171299905, 32.690206595 ], [ -88.171706602, 32.690687597 ], [ -88.171706706, 32.6910083 ], [ -88.171544306, 32.691191696 ], [ -88.171192102, 32.6911918 ], [ -88.170514502, 32.690871395 ], [ -88.169918306, 32.690413497 ], [ -88.169674203, 32.690069899 ], [ -88.169592805, 32.689840794 ], [ -88.169619605, 32.689382598 ], [ -88.169781901, 32.688924298 ], [ -88.169754602, 32.688511893 ], [ -88.169483602, 32.688351698 ], [ -88.169023007, 32.688328899 ], [ -88.168562606, 32.688443698 ], [ -88.168508403, 32.688535295 ], [ -88.168481402, 32.688764393 ], [ -88.168779701, 32.689245395 ], [ -88.168752901, 32.689841196 ], [ -88.168482304, 32.690230794 ], [ -88.168211401, 32.6904829 ], [ -88.167751007, 32.6906434 ], [ -88.167236201, 32.690643594 ], [ -88.166972487, 32.690597235 ] ] } },
{ "type": "Feature", "properties": { "site_no": "02449400", "nhdplus_comid": "18633674", "navigation_mode": "UM", "requested_distance_km": 12.0, "start_source": "nwissite", "start_id": "USGS-02449400", "geometry_length_km": 0.39838831501794708 }, "geometry": { "type": "LineString", "coordinates": [ [ -88.176149704, 32.6905711 ], [ -88.175689004, 32.690479696 ], [ -88.175363705, 32.690204896 ], [ -88.175228104, 32.689975895 ], [ -88.175173603, 32.689586498 ], [ -88.175065205, 32.689311497 ], [ -88.174983606, 32.6889221 ], [ -88.174766801, 32.688738897 ], [ -88.174333505, 32.689105697 ], [ -88.174306504, 32.689151496 ], [ -88.173873104, 32.689334996 ], [ -88.173602201, 32.689335197 ] ] } },
{ "type": "Feature", "properties": { "site_no": "02449400", "nhdplus_comid": "18633678", "navigation_mode": "UM", "requested_distance_km": 12.0, "start_source": "nwissite", "start_id": "USGS-02449400", "geometry_length_km": 0.97187652577823003 }, "geometry": { "type": "LineString", "coordinates": [ [ -88.181975402, 32.691759594 ], [ -88.181568906, 32.691576496 ], [ -88.180674203, 32.690820999 ], [ -88.180484504, 32.690752298 ], [ -88.180240802, 32.690912798 ], [ -88.179888606, 32.690958798 ], [ -88.179807305, 32.690844297 ], [ -88.179671504, 32.690363295 ], [ -88.179562904, 32.689996794 ], [ -88.179454401, 32.689698994 ], [ -88.179101907, 32.689241 ], [ -88.178722404, 32.689034998 ], [ -88.177909605, 32.688943699 ], [ -88.176961102, 32.688508794 ], [ -88.176663205, 32.6886006 ], [ -88.176419601, 32.688852794 ], [ -88.176338404, 32.6890819 ], [ -88.176392801, 32.689562999 ], [ -88.1767454, 32.690020993 ], [ -88.176745504, 32.690227196 ], [ -88.176637203, 32.690410495 ], [ -88.176149704, 32.6905711 ] ] } },
{ "type": "Feature", "properties": { "site_no": "02449400", "nhdplus_comid": "18633670", "navigation_mode": "UM", "requested_distance_km": 12.0, "start_source": "nwissite", "start_id": "USGS-02449400", "geometry_length_km": 0.54209712147257161 }, "geometry": { "type": "LineString", "coordinates": [ [ -88.183247507, 32.689880393 ], [ -88.182597302, 32.689857796 ], [ -88.182434604, 32.6897204 ], [ -88.182271704, 32.689331099 ], [ -88.182163306, 32.689239495 ], [ -88.181838304, 32.689377099 ], [ -88.181621902, 32.689858399 ], [ -88.181622207, 32.690362297 ], [ -88.181758001, 32.690705895 ], [ -88.182002001, 32.6909348 ], [ -88.182598107, 32.691186599 ], [ -88.182733603, 32.691278197 ], [ -88.182679601, 32.691461399 ], [ -88.1824359, 32.691690698 ], [ -88.181975402, 32.691759594 ] ] } },
{ "type": "Feature", "properties": { "site_no": "02449400", "nhdplus_comid": "18633666", "navigation_mode": "UM", "requested_distance_km": 12.0, "start_source": "nwissite", "start_id": "USGS-02449400", "geometry_length_km": 1.6951996984151003 }, "geometry": { "type": "LineString", "coordinates": [ [ -88.192570806, 32.694273897 ], [ -88.192570701, 32.694159396 ], [ -88.192489304, 32.694022 ], [ -88.192489207, 32.693907395 ], [ -88.192407906, 32.693884596 ], [ -88.192299001, 32.693220198 ], [ -88.192082107, 32.692991197 ], [ -88.191188104, 32.693037599 ], [ -88.190998405, 32.692946099 ], [ -88.190781504, 32.692946196 ], [ -88.190537706, 32.693014994 ], [ -88.190348201, 32.693175599 ], [ -88.190348305, 32.693289995 ], [ -88.189915307, 32.693931796 ], [ -88.189590305, 32.694046497 ], [ -88.189400606, 32.6939779 ], [ -88.189345703, 32.693061493 ], [ -88.189291403, 32.692992799 ], [ -88.189101703, 32.692947097 ], [ -88.188722603, 32.693222299 ], [ -88.188614406, 32.693382695 ], [ -88.188370705, 32.693428695 ], [ -88.188208006, 32.693291299 ], [ -88.188045003, 32.692741498 ], [ -88.188207202, 32.692214496 ], [ -88.188261203, 32.692122899 ], [ -88.1882881, 32.691802196 ], [ -88.1882338, 32.691756293 ], [ -88.187962905, 32.691733599 ], [ -88.187665105, 32.691916995 ], [ -88.187394105, 32.691940099 ], [ -88.187421001, 32.691733897 ], [ -88.187799901, 32.691183895 ], [ -88.187718503, 32.691000596 ], [ -88.187528804, 32.6908632 ], [ -88.1871223, 32.690794699 ], [ -88.186147004, 32.690749496 ], [ -88.1859845, 32.690841094 ], [ -88.1855781, 32.690932997 ], [ -88.185469605, 32.690795697 ], [ -88.185388006, 32.6903833 ], [ -88.185333803, 32.690291695 ], [ -88.185171202, 32.6902688 ], [ -88.184792101, 32.690566897 ], [ -88.184413105, 32.690910697 ], [ -88.184006706, 32.690979697 ], [ -88.183383301, 32.690590493 ], [ -88.1833288, 32.6900407 ], [ -88.183247507, 32.689880393 ] ] } },
{ "type": "Feature", "properties": { "site_no": "02449400", "nhdplus_comid": "18633648", "navigation_mode": "UM", "requested_distance_km": 12.0, "start_source": "nwissite", "start_id": "USGS-02449400", "geometry_length_km": 0.86141876182250388 }, "geometry": { "type": "LineString", "coordinates": [ [ -88.199507602, 32.695208997 ], [ -88.199155301, 32.695209198 ], [ -88.1984777, 32.694843099 ], [ -88.198152401, 32.694682896 ], [ -88.197881505, 32.694660299 ], [ -88.197719, 32.694728993 ], [ -88.197556704, 32.695003994 ], [ -88.197340004, 32.695164599 ], [ -88.196960807, 32.6953023 ], [ -88.196852304, 32.695073299 ], [ -88.1967436, 32.694706798 ], [ -88.196553901, 32.694592297 ], [ -88.195930704, 32.694569796 ], [ -88.195415705, 32.694409795 ], [ -88.1949009, 32.694341198 ], [ -88.194711104, 32.694249697 ], [ -88.194602303, 32.693699993 ], [ -88.194331206, 32.693516798 ], [ -88.193870701, 32.6936775 ], [ -88.193518601, 32.693700597 ], [ -88.193356104, 32.693861097 ], [ -88.193221107, 32.694250599 ], [ -88.192950204, 32.694342397 ], [ -88.192570806, 32.694273897 ] ] } },
{ "type": "Feature", "properties": { "site_no": "02449400", "nhdplus_comid": "18633646", "navigation_mode": "UM", "requested_distance_km": 12.0, "start_source": "nwissite", "start_id": "USGS-02449400", "geometry_length_km": 0.90990007192289857 }, "geometry": { "type": "LineString", "coordinates": [ [ -88.207581706, 32.695341095 ], [ -88.207310803, 32.695318297 ], [ -88.207066804, 32.695180997 ], [ -88.206660204, 32.695066795 ], [ -88.206362106, 32.6949066 ], [ -88.206280507, 32.694585897 ], [ -88.206199206, 32.694517195 ], [ -88.2057385, 32.694586299 ], [ -88.205277905, 32.694586597 ], [ -88.205033906, 32.694426395 ], [ -88.204898104, 32.694037095 ], [ -88.204654105, 32.693899795 ], [ -88.204112202, 32.693808496 ], [ -88.2037872, 32.6938316 ], [ -88.203597605, 32.694014996 ], [ -88.2032727, 32.694198497 ], [ -88.2025683, 32.6941761 ], [ -88.202161901, 32.694130495 ], [ -88.2015661, 32.694520399 ], [ -88.201241106, 32.694543496 ], [ -88.200997204, 32.694520794 ], [ -88.200753503, 32.694795899 ], [ -88.200536802, 32.694841795 ], [ -88.199967802, 32.694796398 ], [ -88.199507602, 32.695208997 ] ] } },
{ "type": "Feature", "properties": { "site_no": "02449400", "nhdplus_comid": "18633654", "navigation_mode": "UM", "requested_distance_km": 12.0, "start_source": "nwissite", "start_id": "USGS-02449400", "geometry_length_km": 3.9483988596531585 }, "geometry": { "type": "LineString", "coordinates": [ [ -88.228224501, 32.7153247 ], [ -88.228196904, 32.7149124 ], [ -88.228196703, 32.714751996 ], [ -88.2279796, 32.714431494 ], [ -88.227518201, 32.713927798 ], [ -88.226460405, 32.713126898 ], [ -88.2262704, 32.712806299 ], [ -88.225890301, 32.712256797 ], [ -88.225564703, 32.711959198 ], [ -88.225374602, 32.711592898 ], [ -88.225156903, 32.710814193 ], [ -88.225154705, 32.709027298 ], [ -88.225235701, 32.708752297 ], [ -88.225641303, 32.708041795 ], [ -88.225667804, 32.707491897 ], [ -88.225613303, 32.707262896 ], [ -88.225287504, 32.706690393 ], [ -88.224337503, 32.705385298 ], [ -88.224174403, 32.704973094 ], [ -88.224173106, 32.703850597 ], [ -88.224064104, 32.703369498 ], [ -88.223657005, 32.702774197 ], [ -88.222598903, 32.701606795 ], [ -88.222463101, 32.701308995 ], [ -88.222354606, 32.701148793 ], [ -88.222245805, 32.700805195 ], [ -88.222191505, 32.700759396 ], [ -88.221892707, 32.700072393 ], [ -88.221594207, 32.699614495 ], [ -88.221051402, 32.698881797 ], [ -88.220753007, 32.698538296 ], [ -88.220563002, 32.698217794 ], [ -88.2205083, 32.697782494 ], [ -88.220616207, 32.697392896 ], [ -88.220724307, 32.697209597 ], [ -88.220724002, 32.696865894 ], [ -88.220479704, 32.696522593 ], [ -88.220126905, 32.696110494 ], [ -88.219448403, 32.6950114 ], [ -88.219204403, 32.694828294 ], [ -88.218852103, 32.694805697 ], [ -88.218202107, 32.695035197 ], [ -88.217687406, 32.695104398 ], [ -88.217497706, 32.695012897 ], [ -88.217036702, 32.694646694 ], [ -88.216115206, 32.694280796 ], [ -88.215871006, 32.694028996 ], [ -88.215843402, 32.693547994 ], [ -88.215572201, 32.693342 ], [ -88.214487903, 32.692838795 ], [ -88.213376805, 32.692473195 ], [ -88.212753505, 32.692404896 ], [ -88.211859606, 32.692405596 ], [ -88.2113721, 32.692657895 ], [ -88.210722007, 32.692818798 ], [ -88.210505307, 32.692979194 ], [ -88.210153602, 32.693460599 ], [ -88.210045904, 32.694079198 ], [ -88.209910505, 32.694170997 ], [ -88.209233306, 32.694171496 ], [ -88.209016606, 32.694354899 ], [ -88.208908603, 32.694606997 ], [ -88.208665006, 32.694904998 ], [ -88.207988106, 32.695294894 ], [ -88.207581706, 32.695341095 ] ] } }
]
}
