{
"type": "FeatureCollection",
"name": "USGS_02461500_UM_12km",
"crs": { "type": "name", "properties": { "name": "urn:ogc:def:crs:OGC:1.3:CRS84" } },
"features": [
{ "type": "Feature", "properties": { "site_no": "02461500", "nhdplus_comid": "18225427", "navigation_mode": "UM", "requested_distance_km": 12.0, "start_source": "nwissite", "start_id": "USGS-02461500", "geometry_length_km": 1.2391892805489597 }, "geometry": { "type": "LineString", "coordinates": [ [ -86.969849907, 33.422357097 ], [ -86.974249505, 33.423109695 ], [ -86.975096405, 33.423109099 ], [ -86.9756428, 33.423016995 ], [ -86.9773634, 33.422488697 ], [ -86.978592306, 33.422029398 ], [ -86.982249628, 33.420105845 ] ] } },
{ "type": "Feature", "properties": { "site_no": "02461500", "nhdplus_comid": "18225417", "navigation_mode": "UM", "requested_distance_km": 12.0, "start_source": "nwissite", "start_id": "USGS-02461500", "geometry_length_km": 0.1171005759211014 }, "geometry": { "type": "LineString", "coordinates": [ [ -86.968593001, 33.422220595 ], [ -86.969849907, 33.422357097 ] ] } },
{ "type": "Feature", "properties": { "site_no": "02461500", "nhdplus_comid": "18225421", "navigation_mode": "UM", "requested_distance_km": 12.0, "start_source": "nwissite", "start_id": "USGS-02461500", "geometry_length_km": 1.8458382304754384 }, "geometry": { "type": "LineString", "coordinates": [ [ -86.952913702, 33.425690696 ], [ -86.953706101, 33.425690196 ], [ -86.954662107, 33.425391793 ], [ -86.955235504, 33.4250248 ], [ -86.956000201, 33.424749397 ], [ -86.956737503, 33.424382299 ], [ -86.957420103, 33.423809193 ], [ -86.959030502, 33.422135599 ], [ -86.959931701, 33.421768494 ], [ -86.961597301, 33.420805097 ], [ -86.962252505, 33.420254894 ], [ -86.963399202, 33.4195209 ], [ -86.963972703, 33.419314399 ], [ -86.964683101, 33.419336699 ], [ -86.965503506, 33.420137994 ], [ -86.966269605, 33.421145499 ], [ -86.9668165, 33.421626195 ], [ -86.967445202, 33.4219236 ], [ -86.968593001, 33.422220595 ] ] } },
{ "type": "Feature", "properties": { "site_no": "02461500", "nhdplus_comid": "18225411", "navigation_mode": "UM", "requested_distance_km": 12.0, "start_source": "nwissite", "start_id": "USGS-02461500", "geometry_length_km": 0.16936216080431785 }, "geometry": { "type": "LineString", "coordinates": [ [ -86.951110207, 33.425439797 ], [ -86.951629303, 33.425462395 ], [ -86.952913702, 33.425690696 ] ] } },
{ "type": "Feature", "properties": { "site_no": "02461500", "nhdplus_comid": "18225409", "navigation_mode": "UM", "requested_distance_km": 12.0, "start_source": "nwissite", "start_id": "USGS-02461500", "geometry_length_km": 0.44572790790359823 }, "geometry": { "type": "LineString", "coordinates": [ [ -86.947615102, 33.427961893 ], [ -86.947806202, 33.427847296 ], [ -86.948379107, 33.426884696 ], [ -86.948979802, 33.4263575 ], [ -86.949771807, 33.425944597 ], [ -86.950946406, 33.425554395 ], [ -86.951110207, 33.425439797 ] ] } },
{ "type": "Feature", "properties": { "site_no": "02461500", "nhdplus_comid": "18225405", "navigation_mode": "UM", "requested_distance_km": 12.0, "start_source": "nwissite", "start_id": "USGS-02461500", "geometry_length_km": 0.37516953372224393 }, "geometry": { "type": "LineString", "coordinates": [ [ -86.945431605, 33.430781096 ], [ -86.946305104, 33.429795496 ], [ -86.947451301, 33.428328596 ], [ -86.947615102, 33.427961893 ] ] } },
{ "type": "Feature", "properties": { "site_no": "02461500", "nhdplus_comid": "18225399", "navigation_mode": "UM", "requested_distance_km": 12.0, "start_source": "nwissite", "start_id": "USGS-02461500", "geometry_length_km": 1.207877868150421 }, "geometry": { "type": "LineString", "coordinates": [ [ -86.935106501, 33.435620397 ], [ -86.936008103, 33.435505398 ], [ -86.937073804, 33.435481995 ], [ -86.937401801, 33.435642399 ], [ -86.938249007, 33.435825199 ], [ -86.938740902, 33.435847893 ], [ -86.939369202, 33.435732998 ], [ -86.939970203, 33.435388997 ], [ -86.942181803, 33.433119796 ], [ -86.942782402, 33.432340495 ], [ -86.943601407, 33.431492396 ], [ -86.945431605, 33.430781096 ] ] } },
{ "type": "Feature", "properties": { "site_no": "02461500", "nhdplus_comid": "18225387", "navigation_mode": "UM", "requested_distance_km": 12.0, "start_source": "nwissite", "start_id": "USGS-02461500", "geometry_length_km": 0.18425795478367918 }, "geometry": { "type": "LineString", "coordinates": [ [ -86.933221303, 33.436079495 ], [ -86.933303207, 33.435987793 ], [ -86.935106501, 33.435620397 ] ] } },
{ "type": "Feature", "properties": { "site_no": "02461500", "nhdplus_comid": "18225385", "navigation_mode": "UM", "requested_distance_km": 12.0, "start_source": "nwissite", "start_id": "USGS-02461500", "geometry_length_km": 0.27144160583903659 }, "geometry": { "type": "LineString", "coordinates": [ [ -86.930352502, 33.436607793 ], [ -86.933221303, 33.436079495 ] ] } },
{ "type": "Feature", "properties": { "site_no": "02461500", "nhdplus_comid": "18225383", "navigation_mode": "UM", "requested_distance_km": 12.0, "start_source": "nwissite", "start_id": "USGS-02461500", "geometry_length_km": 0.13252445284964201 }, "geometry": { "type": "LineString", "coordinates": [ [ -86.929041103, 33.437089495 ], [ -86.930352502, 33.436607793 ] ] } },
{ "type": "Feature", "properties": { "site_no": "02461500", "nhdplus_comid": "18225381", "navigation_mode": "UM", "requested_distance_km": 12.0, "start_source": "nwissite", "start_id": "USGS-02461500", "geometry_length_km": 0.87368583580281323 }, "geometry": { "type": "LineString", "coordinates": [ [ -86.9213918, 33.440758094 ], [ -86.9223755, 33.440551497 ], [ -86.923741505, 33.440001197 ], [ -86.9249162, 33.4393363 ], [ -86.925489902, 33.439221598 ], [ -86.926719703, 33.439335696 ], [ -86.927184202, 33.439197995 ], [ -86.927593902, 33.438854195 ], [ -86.928522207, 33.437616594 ], [ -86.928931907, 33.437295698 ], [ -86.929041103, 33.437089495 ] ] } },
{ "type": "Feature", "properties": { "site_no": "02461500", "nhdplus_comid": "18225377", "navigation_mode": "UM", "requested_distance_km": 12.0, "start_source": "nwissite", "start_id": "USGS-02461500", "geometry_length_km": 0.5371863548003416 }, "geometry": { "type": "LineString", "coordinates": [ [ -86.920709305, 33.442064196 ], [ -86.920217402, 33.441972695 ], [ -86.919916905, 33.4421103 ], [ -86.919479601, 33.442110397 ], [ -86.918768801, 33.441423394 ], [ -86.918768704, 33.441217199 ], [ -86.919041604, 33.440735996 ], [ -86.920052603, 33.440414898 ], [ -86.920517102, 33.440414794 ], [ -86.920872606, 33.440666594 ], [ -86.9213918, 33.440758094 ] ] } },
{ "type": "Feature", "properties": { "site_no": "02461500", "nhdplus_comid": "18225373", "navigation_mode": "UM", "requested_distance_km": 12.0, "start_source": "nwissite", "start_id": "USGS-02461500", "geometry_length_km": 1.8411305215184814 }, "geometry": { "type": "LineString", "coordinates": [ [ -86.916123606, 33.453039698 ], [ -86.917380907, 33.453337096 ], [ -86.918993406, 33.453313693 ], [ -86.919785805, 33.4529927 ], [ -86.919977106, 33.4528322 ], [ -86.920195505, 33.452396795 ], [ -86.920740902, 33.4501056 ], [ -86.9210959, 33.449486896 ], [ -86.921860904, 33.449097194 ], [ -86.922707401, 33.447859697 ], [ -86.923499607, 33.447217993 ], [ -86.924155101, 33.446484499 ], [ -86.924209505, 33.446003497 ], [ -86.924017906, 33.445522398 ], [ -86.923635103, 33.444995597 ], [ -86.923033603, 33.444514699 ], [ -86.921639405, 33.443644598 ], [ -86.920955807, 33.443117999 ], [ -86.920655005, 33.4426599 ], [ -86.920709305, 33.442064196 ] ] } },
{ "type": "Feature", "properties": { "site_no": "02461500", "nhdplus_comid": "18225367", "navigation_mode": "UM", "requested_distance_km": 12.0, "start_source": "nwissite", "start_id": "USGS-02461500", "geometry_length_km": 2.197414527646647 }, "geometry": { "type": "LineString", "coordinates": [ [ -86.897431701, 33.462506093 ], [ -86.899263106, 33.462505795 ], [ -86.899481706, 33.462436996 ], [ -86.902077906, 33.460672393 ], [ -86.905821405, 33.4577161 ], [ -86.907324404, 33.456753694 ], [ -86.907980204, 33.456501395 ], [ -86.909401402, 33.456294797 ], [ -86.910193905, 33.455951095 ], [ -86.910740301, 33.455492698 ], [ -86.912980303, 33.452719897 ], [ -86.9134994, 33.452421896 ], [ -86.914046004, 33.452352993 ], [ -86.916123606, 33.453039698 ] ] } }
]
}
