{
"type": "FeatureCollection",
"name": "USGS_02445245_DM_12km",
"crs": { "type": "name", "properties": { "name": "urn:ogc:def:crs:OGC:1.3:CRS84" } },
"features": [
{ "type": "Feature", "properties": { "site_no": "02445245", "nhdplus_comid": "18614496", "navigation_mode": "DM", "requested_distance_km": 12.0, "start_source": "nwissite", "start_id": "USGS-02445245", "geometry_length_km": 1.3827055373319355 }, "geometry": { "type": "LineString", "coordinates": [ [ -87.680310684, 33.930373856 ], [ -87.680311002, 33.930341296 ], [ -87.680420205, 33.9294708 ], [ -87.680611901, 33.928485699 ], [ -87.682586707, 33.923353396 ], [ -87.684891701, 33.919091493 ], [ -87.685001306, 33.918678999 ] ] } },
{ "type": "Feature", "properties": { "site_no": "02445245", "nhdplus_comid": "18614500", "navigation_mode": "DM", "requested_distance_km": 12.0, "start_source": "nwissite", "start_id": "USGS-02445245", "geometry_length_km": 0.52352199288585288 }, "geometry": { "type": "LineString", "coordinates": [ [ -87.685001306, 33.918678999 ], [ -87.685138606, 33.918587297 ], [ -87.686071604, 33.916891694 ], [ -87.6866749, 33.915241994 ], [ -87.686893903, 33.914302796 ] ] } },
{ "type": "Feature", "properties": { "site_no": "02445245", "nhdplus_comid": "18614504", "navigation_mode": "DM", "requested_distance_km": 12.0, "start_source": "nwissite", "start_id": "USGS-02445245", "geometry_length_km": 2.3267975917197803 }, "geometry": { "type": "LineString", "coordinates": [ [ -87.686893903, 33.914302796 ], [ -87.687084302, 33.911782898 ], [ -87.687001303, 33.911026798 ], [ -87.686808601, 33.910637595 ], [ -87.685956307, 33.909927793 ], [ -87.684747003, 33.909287095 ], [ -87.684389606, 33.908989593 ], [ -87.684362002, 33.908714697 ], [ -87.684608907, 33.908347994 ], [ -87.685103305, 33.908026993 ], [ -87.685322501, 33.907477096 ], [ -87.685294107, 33.906148493 ], [ -87.684853904, 33.9052324 ], [ -87.684496604, 33.905026399 ], [ -87.683892004, 33.904912196 ], [ -87.683562301, 33.904774897 ], [ -87.683314905, 33.904523 ], [ -87.683204502, 33.904156595 ], [ -87.682929605, 33.903767295 ], [ -87.682572201, 33.903446794 ], [ -87.681280404, 33.902576894 ], [ -87.681197904, 33.902416594 ], [ -87.681170106, 33.902004294 ], [ -87.681362301, 33.901775099 ], [ -87.682103701, 33.901247896 ], [ -87.683174707, 33.900880799 ], [ -87.683559, 33.900307998 ], [ -87.683613203, 33.899414599 ], [ -87.683475703, 33.8992313 ], [ -87.6829537, 33.899117097 ], [ -87.681910105, 33.899484098 ], [ -87.681552902, 33.899484299 ], [ -87.681388006, 33.899301097 ] ] } },
{ "type": "Feature", "properties": { "site_no": "02445245", "nhdplus_comid": "18614506", "navigation_mode": "DM", "requested_distance_km": 12.0, "start_source": "nwissite", "start_id": "USGS-02445245", "geometry_length_km": 0.42263321860067982 }, "geometry": { "type": "LineString", "coordinates": [ [ -87.681388006, 33.899301097 ], [ -87.681387804, 33.899117894 ], [ -87.681909107, 33.898040995 ], [ -87.682485707, 33.897651196 ], [ -87.6830348, 33.897398993 ], [ -87.684270903, 33.897123493 ], [ -87.684490502, 33.896940097 ] ] } },
{ "type": "Feature", "properties": { "site_no": "02445245", "nhdplus_comid": "18614514", "navigation_mode": "DM", "requested_distance_km": 12.0, "start_source": "nwissite", "start_id": "USGS-02445245", "geometry_length_km": 2.9899058107551624 }, "geometry": { "type": "LineString", "coordinates": [ [ -87.684490502, 33.896940097 ], [ -87.684847303, 33.896550395 ], [ -87.684819601, 33.896183893 ], [ -87.684407406, 33.896000795 ], [ -87.683720402, 33.895817995 ], [ -87.683280505, 33.895405799 ], [ -87.683307506, 33.894626997 ], [ -87.6841304, 33.893068895 ], [ -87.684212103, 33.891992196 ], [ -87.684431702, 33.891831793 ], [ -87.685887307, 33.891441494 ], [ -87.687397607, 33.890913799 ], [ -87.688249104, 33.890867598 ], [ -87.688798405, 33.890683994 ], [ -87.688963003, 33.890477799 ], [ -87.688990206, 33.890225798 ], [ -87.688687705, 33.889721997 ], [ -87.6886876, 33.889538698 ], [ -87.688879602, 33.889263697 ], [ -87.689291403, 33.888942793 ], [ -87.690801501, 33.888163194 ], [ -87.690966003, 33.887865193 ], [ -87.690854907, 33.8863305 ], [ -87.690937102, 33.886055596 ], [ -87.691266306, 33.885665797 ], [ -87.691788107, 33.885505199 ], [ -87.692529701, 33.885436095 ], [ -87.693106703, 33.885687694 ], [ -87.693408705, 33.8856875 ], [ -87.693380706, 33.8848629 ], [ -87.693023302, 33.884473696 ], [ -87.693023004, 33.884152994 ], [ -87.693489604, 33.883740395 ], [ -87.695521206, 33.882685393 ], [ -87.696207702, 33.882501699 ], [ -87.696454704, 33.882364094 ], [ -87.696701504, 33.8818371 ], [ -87.697222807, 33.8813328 ], [ -87.697716802, 33.881034799 ], [ -87.698321201, 33.880965695 ], [ -87.698843203, 33.881194398 ], [ -87.699942105, 33.881491497 ], [ -87.700079501, 33.881560095 ] ] } }
]
}
