{
"type": "FeatureCollection",
"name": "USGS_02408150_DM_12km",
"crs": { "type": "name", "properties": { "name": "urn:ogc:def:crs:OGC:1.3:CRS84" } },
"features": [
{ "type": "Feature", "properties": { "site_no": "02408150", "nhdplus_comid": "22274808", "navigation_mode": "DM", "requested_distance_km": 12.0, "start_source": "nwissite", "start_id": "USGS-02408150", "geometry_length_km": 2.2849052304463235 }, "geometry": { "type": "LineString", "coordinates": [ [ -86.578745079, 32.891121867 ], [ -86.578408003, 32.891973697 ], [ -86.577945903, 32.892729595 ], [ -86.577266507, 32.8935313 ], [ -86.576994903, 32.893645793 ], [ -86.5761801, 32.893759996 ], [ -86.574686602, 32.893644795 ], [ -86.574306503, 32.893255197 ], [ -86.5743066, 32.893048994 ], [ -86.574442603, 32.892842799 ], [ -86.574524604, 32.891926393 ], [ -86.574416503, 32.891101494 ], [ -86.574145004, 32.890734799 ], [ -86.573765002, 32.8905285 ], [ -86.573221907, 32.890551098 ], [ -86.572760105, 32.890779994 ], [ -86.572271101, 32.891169295 ], [ -86.570558704, 32.893505596 ], [ -86.569635101, 32.893940493 ], [ -86.568087004, 32.8941231 ], [ -86.566892102, 32.894099593 ], [ -86.565996006, 32.893961698 ], [ -86.563687503, 32.8940522 ], [ -86.563144207, 32.894303896 ], [ -86.562084407, 32.895265698 ], [ -86.5620571, 32.895425998 ] ] } },
{ "type": "Feature", "properties": { "site_no": "02408150", "nhdplus_comid": "22274774", "navigation_mode": "DM", "requested_distance_km": 12.0, "start_source": "nwissite", "start_id": "USGS-02408150", "geometry_length_km": 6.0395413944072143 }, "geometry": { "type": "LineString", "coordinates": [ [ -86.5620571, 32.895425998 ], [ -86.561948501, 32.895425998 ], [ -86.561377704, 32.896090195 ], [ -86.560318001, 32.896868594 ], [ -86.559774801, 32.896959998 ], [ -86.559367605, 32.896638997 ], [ -86.559177801, 32.896111898 ], [ -86.558743805, 32.895424299 ], [ -86.558445804, 32.894645199 ], [ -86.557930902, 32.892949395 ], [ -86.5579044, 32.892147496 ], [ -86.557741903, 32.891574696 ], [ -86.557063505, 32.890955493 ], [ -86.556493305, 32.890817694 ], [ -86.556031503, 32.890954897 ], [ -86.555216305, 32.891595997 ], [ -86.554808602, 32.892099895 ], [ -86.554753907, 32.892558098 ], [ -86.555052206, 32.8931311 ], [ -86.556463204, 32.894575395 ], [ -86.557494201, 32.895927697 ], [ -86.557683803, 32.896683894 ], [ -86.557601906, 32.897187896 ], [ -86.557465903, 32.8974628 ], [ -86.5570582, 32.897874996 ], [ -86.556053005, 32.898355499 ], [ -86.554966502, 32.898400798 ], [ -86.554722205, 32.898309 ], [ -86.553039506, 32.896956198 ], [ -86.551628202, 32.895718195 ], [ -86.550841004, 32.895282298 ], [ -86.550135002, 32.895098597 ], [ -86.549211703, 32.895120993 ], [ -86.548858404, 32.895372696 ], [ -86.5486679, 32.895853795 ], [ -86.548477605, 32.896082796 ], [ -86.548477203, 32.896609798 ], [ -86.549018905, 32.898328498 ], [ -86.549262203, 32.899588794 ], [ -86.549152702, 32.900550999 ], [ -86.548853606, 32.900963195 ], [ -86.5485548, 32.901123397 ], [ -86.547142304, 32.901214197 ], [ -86.546680801, 32.901053496 ], [ -86.543151803, 32.899034895 ], [ -86.542256303, 32.898301199 ], [ -86.542039402, 32.897957399 ], [ -86.5416594, 32.897636399 ], [ -86.541442506, 32.897338398 ], [ -86.541416004, 32.896559298 ], [ -86.542042404, 32.894864194 ], [ -86.542124502, 32.894085295 ], [ -86.541799501, 32.893076897 ], [ -86.541773006, 32.892458297 ], [ -86.541204602, 32.890533298 ], [ -86.5404182, 32.889341295 ], [ -86.540120907, 32.887828998 ], [ -86.539497003, 32.887095399 ], [ -86.538682804, 32.886567794 ], [ -86.538194202, 32.886384197 ], [ -86.5374882, 32.886383697 ], [ -86.536754601, 32.886749797 ], [ -86.535940006, 32.886726297 ] ] } },
{ "type": "Feature", "properties": { "site_no": "02408150", "nhdplus_comid": "22274814", "navigation_mode": "DM", "requested_distance_km": 12.0, "start_source": "nwissite", "start_id": "USGS-02408150", "geometry_length_km": 2.670413811329432 }, "geometry": { "type": "LineString", "coordinates": [ [ -86.535940006, 32.886726297 ], [ -86.535668604, 32.886657394 ], [ -86.535125703, 32.886359096 ], [ -86.533498004, 32.884891599 ], [ -86.532982402, 32.884547494 ], [ -86.5321953, 32.884226099 ], [ -86.531218, 32.883996293 ], [ -86.530756101, 32.884202197 ], [ -86.530402705, 32.884591393 ], [ -86.529858105, 32.885965593 ], [ -86.528960302, 32.887499996 ], [ -86.528851204, 32.887981094 ], [ -86.528143302, 32.889675997 ], [ -86.527844302, 32.889973596 ], [ -86.527654007, 32.890065096 ], [ -86.527138002, 32.8901105 ], [ -86.526649304, 32.890018493 ], [ -86.526106402, 32.889811799 ], [ -86.525428303, 32.889146894 ], [ -86.524940401, 32.888344593 ], [ -86.524317704, 32.886648595 ], [ -86.524290904, 32.886373699 ], [ -86.523449801, 32.885823093 ], [ -86.523260206, 32.885410495 ], [ -86.523288101, 32.884723194 ], [ -86.523533307, 32.884035997 ], [ -86.523426905, 32.882134296 ], [ -86.523048103, 32.880896695 ], [ -86.522885405, 32.8806675 ], [ -86.522641905, 32.879956998 ] ] } }
]
}
