{
"type": "FeatureCollection",
"name": "USGS_02450000_UM_12km",
"crs": { "type": "name", "properties": { "name": "urn:ogc:def:crs:OGC:1.3:CRS84" } },
"features": [
{ "type": "Feature", "properties": { "site_no": "02450000", "nhdplus_comid": "18589030", "navigation_mode": "UM", "requested_distance_km": 12.0, "start_source": "nwissite", "start_id": "USGS-02450000", "geometry_length_km": 0.28284829149714696 }, "geometry": { "type": "LineString", "coordinates": [ [ -86.734012403, 34.013323799 ], [ -86.734094702, 34.013209097 ], [ -86.736650653, 34.012045868 ] ] } },
{ "type": "Feature", "properties": { "site_no": "02450000", "nhdplus_comid": "18589016", "navigation_mode": "UM", "requested_distance_km": 12.0, "start_source": "nwissite", "start_id": "USGS-02450000", "geometry_length_km": 0.28628730804112512 }, "geometry": { "type": "LineString", "coordinates": [ [ -86.731428206, 34.014677599 ], [ -86.732307903, 34.014218695 ], [ -86.732582606, 34.013920598 ], [ -86.7335997, 34.013392799 ], [ -86.734012403, 34.013323799 ] ] } },
{ "type": "Feature", "properties": { "site_no": "02450000", "nhdplus_comid": "18589012", "navigation_mode": "UM", "requested_distance_km": 12.0, "start_source": "nwissite", "start_id": "USGS-02450000", "geometry_length_km": 4.1884204828863965 }, "geometry": { "type": "LineString", "coordinates": [ [ -86.705777504, 34.031259499 ], [ -86.705860101, 34.031282395 ], [ -86.706932001, 34.030182093 ], [ -86.708472006, 34.029287696 ], [ -86.709462203, 34.029080793 ], [ -86.7107279, 34.028988294 ], [ -86.712021403, 34.029422693 ], [ -86.714113906, 34.030681193 ], [ -86.715463303, 34.031802699 ], [ -86.716702104, 34.032374494 ], [ -86.717445202, 34.032625899 ], [ -86.718353406, 34.032762699 ], [ -86.719426304, 34.032532796 ], [ -86.720196404, 34.032211497 ], [ -86.7205538, 34.031959198 ], [ -86.720993407, 34.031386197 ], [ -86.722064406, 34.029552698 ], [ -86.722585902, 34.028452694 ], [ -86.723327301, 34.027192198 ], [ -86.7247549, 34.024510793 ], [ -86.7249742, 34.023846194 ], [ -86.725001104, 34.023365095 ], [ -86.724724807, 34.022311598 ], [ -86.724449202, 34.021876596 ], [ -86.723650403, 34.021166995 ], [ -86.723236904, 34.020342596 ], [ -86.7229608, 34.019563898 ], [ -86.722959705, 34.018601798 ], [ -86.723124206, 34.018120699 ], [ -86.7236185, 34.0174101 ], [ -86.724003404, 34.017134897 ], [ -86.724691004, 34.017019793 ], [ -86.726781905, 34.017018095 ], [ -86.727771901, 34.016765296 ], [ -86.729449004, 34.015916295 ], [ -86.731373206, 34.014769197 ], [ -86.731428206, 34.014677599 ] ] } },
{ "type": "Feature", "properties": { "site_no": "02450000", "nhdplus_comid": "18588988", "navigation_mode": "UM", "requested_distance_km": 12.0, "start_source": "nwissite", "start_id": "USGS-02450000", "geometry_length_km": 1.2228676354588155 }, "geometry": { "type": "LineString", "coordinates": [ [ -86.702346504, 34.040562496 ], [ -86.702016003, 34.040219098 ], [ -86.701354802, 34.039348893 ], [ -86.7012996, 34.039096996 ], [ -86.701134302, 34.038890898 ], [ -86.700941101, 34.038226597 ], [ -86.700912401, 34.037058398 ], [ -86.701351702, 34.035889797 ], [ -86.701791301, 34.035316795 ], [ -86.703633502, 34.033712097 ], [ -86.7049805, 34.032290898 ], [ -86.705777504, 34.031259499 ] ] } },
{ "type": "Feature", "properties": { "site_no": "02450000", "nhdplus_comid": "18588968", "navigation_mode": "UM", "requested_distance_km": 12.0, "start_source": "nwissite", "start_id": "USGS-02450000", "geometry_length_km": 0.96560030965498322 }, "geometry": { "type": "LineString", "coordinates": [ [ -86.709287107, 34.046697393 ], [ -86.7087356, 34.045643896 ], [ -86.707853705, 34.0442013 ], [ -86.707027406, 34.043468796 ], [ -86.705870807, 34.042782299 ], [ -86.704494506, 34.042279199 ], [ -86.703751102, 34.041844398 ], [ -86.7032829, 34.041340694 ], [ -86.702346504, 34.040562496 ] ] } },
{ "type": "Feature", "properties": { "site_no": "02450000", "nhdplus_comid": "18588950", "navigation_mode": "UM", "requested_distance_km": 12.0, "start_source": "nwissite", "start_id": "USGS-02450000", "geometry_length_km": 0.25096747208251508 }, "geometry": { "type": "LineString", "coordinates": [ [ -86.708904006, 34.048896797 ], [ -86.709288307, 34.047842793 ], [ -86.709287107, 34.046697393 ] ] } },
{ "type": "Feature", "properties": { "site_no": "02450000", "nhdplus_comid": "18588938", "navigation_mode": "UM", "requested_distance_km": 12.0, "start_source": "nwissite", "start_id": "USGS-02450000", "geometry_length_km": 2.0152797160186018 }, "geometry": { "type": "LineString", "coordinates": [ [ -86.695979603, 34.061320998 ], [ -86.697659001, 34.061594896 ], [ -86.6985396, 34.061502799 ], [ -86.700080603, 34.060997896 ], [ -86.7021714, 34.059896998 ], [ -86.702996604, 34.059277996 ], [ -86.704371504, 34.0579485 ], [ -86.704673901, 34.057513095 ], [ -86.705277607, 34.055588298 ], [ -86.706459001, 34.053411298 ], [ -86.706843406, 34.052494697 ], [ -86.708684005, 34.049034297 ], [ -86.708904006, 34.048896797 ] ] } },
{ "type": "Feature", "properties": { "site_no": "02450000", "nhdplus_comid": "18588930", "navigation_mode": "UM", "requested_distance_km": 12.0, "start_source": "nwissite", "start_id": "USGS-02450000", "geometry_length_km": 1.4727911033218473 }, "geometry": { "type": "LineString", "coordinates": [ [ -86.686917402, 34.052185394 ], [ -86.687633, 34.052184999 ], [ -86.688541301, 34.052322097 ], [ -86.6892571, 34.052619398 ], [ -86.689807802, 34.053008698 ], [ -86.690193504, 34.053512499 ], [ -86.691543005, 34.054634199 ], [ -86.692893006, 34.056351595 ], [ -86.693388805, 34.056878299 ], [ -86.693967104, 34.057267398 ], [ -86.695564002, 34.057862096 ], [ -86.695922002, 34.058159694 ], [ -86.696114905, 34.058526099 ], [ -86.696143202, 34.059419498 ], [ -86.695978701, 34.060198493 ], [ -86.695869103, 34.0608171 ], [ -86.695896901, 34.061206497 ], [ -86.695979603, 34.061320998 ] ] } },
{ "type": "Feature", "properties": { "site_no": "02450000", "nhdplus_comid": "18588928", "navigation_mode": "UM", "requested_distance_km": 12.0, "start_source": "nwissite", "start_id": "USGS-02450000", "geometry_length_km": 0.9102531947340563 }, "geometry": { "type": "LineString", "coordinates": [ [ -86.685381107, 34.059150293 ], [ -86.685353503, 34.058944099 ], [ -86.684692301, 34.058096699 ], [ -86.684444301, 34.057592995 ], [ -86.684250906, 34.056630895 ], [ -86.684222504, 34.055370994 ], [ -86.684634402, 34.054019094 ], [ -86.685101606, 34.053148493 ], [ -86.685871705, 34.052529596 ], [ -86.686917402, 34.052185394 ] ] } }
]
}
