{
"type": "FeatureCollection",
"name": "USGS_02361500_UM_12km",
"crs": { "type": "name", "properties": { "name": "urn:ogc:def:crs:OGC:1.3:CRS84" } },
"features": [
{ "type": "Feature", "properties": { "site_no": "02361500", "nhdplus_comid": "2189757", "navigation_mode": "UM", "requested_distance_km": 12.0, "start_source": "nwissite", "start_id": "USGS-02361500", "geometry_length_km": 0.093137978936024518 }, "geometry": { "type": "LineString", "coordinates": [ [ -85.783351004, 31.160973594 ], [ -85.78402895, 31.160368935 ] ] } },
{ "type": "Feature", "properties": { "site_no": "02361500", "nhdplus_comid": "2189889", "navigation_mode": "UM", "requested_distance_km": 12.0, "start_source": "nwissite", "start_id": "USGS-02361500", "geometry_length_km": 1.9576563406774286 }, "geometry": { "type": "LineString", "coordinates": [ [ -85.764088206, 31.164597496 ], [ -85.766479403, 31.164438494 ], [ -85.766804002, 31.164215393 ], [ -85.768933907, 31.163779095 ], [ -85.769959405, 31.163873695 ], [ -85.771618105, 31.163647093 ], [ -85.774563506, 31.163792297 ], [ -85.7770022, 31.1632578 ], [ -85.779199407, 31.163460493 ], [ -85.7810321, 31.1618573 ], [ -85.782402806, 31.161117896 ], [ -85.783351004, 31.160973594 ] ] } },
{ "type": "Feature", "properties": { "site_no": "02361500", "nhdplus_comid": "2189749", "navigation_mode": "UM", "requested_distance_km": 12.0, "start_source": "nwissite", "start_id": "USGS-02361500", "geometry_length_km": 4.0192441381780633 }, "geometry": { "type": "LineString", "coordinates": [ [ -85.734587707, 31.1772587 ], [ -85.7352781, 31.176743299 ], [ -85.736217104, 31.175184697 ], [ -85.736230806, 31.174744099 ], [ -85.736175306, 31.174317293 ], [ -85.736356102, 31.173865497 ], [ -85.736505903, 31.173117995 ], [ -85.736544102, 31.172330797 ], [ -85.736437201, 31.171479493 ], [ -85.736626506, 31.170792095 ], [ -85.737868905, 31.169654094 ], [ -85.7384426, 31.169508398 ], [ -85.739142604, 31.1694967 ], [ -85.739809901, 31.169741996 ], [ -85.741211705, 31.169697598 ], [ -85.742851101, 31.168456897 ], [ -85.743223503, 31.167858399 ], [ -85.743452601, 31.167004496 ], [ -85.743722707, 31.166258998 ], [ -85.744209804, 31.1659244 ], [ -85.745381601, 31.166032799 ], [ -85.747257903, 31.167598799 ], [ -85.747843802, 31.167652994 ], [ -85.748671405, 31.166970097 ], [ -85.750298604, 31.166993998 ], [ -85.750623301, 31.166770793 ], [ -85.750960104, 31.165282995 ], [ -85.752761602, 31.163930498 ], [ -85.754567005, 31.163717695 ], [ -85.7569106, 31.163934298 ], [ -85.759630404, 31.164692 ], [ -85.762267001, 31.164935596 ], [ -85.764088206, 31.164597496 ] ] } },
{ "type": "Feature", "properties": { "site_no": "02361500", "nhdplus_comid": "2189883", "navigation_mode": "UM", "requested_distance_km": 12.0, "start_source": "nwissite", "start_id": "USGS-02361500", "geometry_length_km": 0.3906432465681986 }, "geometry": { "type": "LineString", "coordinates": [ [ -85.7307702, 31.176642194 ], [ -85.731322601, 31.176376998 ], [ -85.732077301, 31.176371999 ], [ -85.732641101, 31.176499099 ], [ -85.733778305, 31.176942699 ], [ -85.734587707, 31.1772587 ] ] } },
{ "type": "Feature", "properties": { "site_no": "02361500", "nhdplus_comid": "2189745", "navigation_mode": "UM", "requested_distance_km": 12.0, "start_source": "nwissite", "start_id": "USGS-02361500", "geometry_length_km": 0.57279457823770397 }, "geometry": { "type": "LineString", "coordinates": [ [ -85.728747107, 31.180315599 ], [ -85.729170702, 31.180481493 ], [ -85.729495503, 31.180258393 ], [ -85.730573304, 31.178927496 ], [ -85.731078804, 31.178434797 ], [ -85.731246606, 31.178142093 ], [ -85.731242202, 31.177891798 ], [ -85.730940901, 31.1776345 ], [ -85.730653703, 31.177322596 ], [ -85.730494805, 31.177059799 ], [ -85.730568603, 31.176849596 ], [ -85.7307702, 31.176642194 ] ] } },
{ "type": "Feature", "properties": { "site_no": "02361500", "nhdplus_comid": "2189741", "navigation_mode": "UM", "requested_distance_km": 12.0, "start_source": "nwissite", "start_id": "USGS-02361500", "geometry_length_km": 2.8539990297211499 }, "geometry": { "type": "LineString", "coordinates": [ [ -85.711424403, 31.194162093 ], [ -85.711522207, 31.1941467 ], [ -85.711625405, 31.194112696 ], [ -85.711728506, 31.194078699 ], [ -85.711831607, 31.194044694 ], [ -85.711934701, 31.194010697 ], [ -85.712037802, 31.193976693 ], [ -85.712141, 31.1939428 ], [ -85.712244101, 31.193908796 ], [ -85.712347202, 31.193874799 ], [ -85.712450303, 31.193840794 ], [ -85.712553501, 31.193806797 ], [ -85.712656602, 31.1937728 ], [ -85.712759703, 31.193738796 ], [ -85.712862805, 31.193704799 ], [ -85.712966003, 31.193670794 ], [ -85.713069104, 31.193636797 ], [ -85.713172205, 31.193602793 ], [ -85.713275306, 31.193568796 ], [ -85.713378504, 31.193534896 ], [ -85.713481605, 31.193500899 ], [ -85.713584706, 31.193466894 ], [ -85.713627905, 31.193474695 ], [ -85.713736102, 31.193494096 ], [ -85.713844307, 31.193513595 ], [ -85.7139524, 31.1935331 ], [ -85.714060605, 31.193552598 ], [ -85.714168705, 31.193572097 ], [ -85.714276902, 31.193591498 ], [ -85.714385107, 31.193610996 ], [ -85.7144932, 31.193630494 ], [ -85.714601405, 31.19365 ], [ -85.714709602, 31.193669498 ], [ -85.714817703, 31.193688996 ], [ -85.7149259, 31.193708397 ], [ -85.715034001, 31.193727896 ], [ -85.715090603, 31.193689093 ], [ -85.715176806, 31.193629898 ], [ -85.715262905, 31.1935708 ], [ -85.715349101, 31.193511598 ], [ -85.715435207, 31.1934525 ], [ -85.715521403, 31.193393394 ], [ -85.715524204, 31.193381697 ], [ -85.715546504, 31.193289198 ], [ -85.715568803, 31.193196796 ], [ -85.715591103, 31.193104297 ], [ -85.715613402, 31.193011895 ], [ -85.715635702, 31.1929195 ], [ -85.715658002, 31.192826994 ], [ -85.715680301, 31.192734599 ], [ -85.715702601, 31.1926421 ], [ -85.7157249, 31.192549698 ], [ -85.7157472, 31.192457296 ], [ -85.715769507, 31.192364797 ], [ -85.715791807, 31.192272395 ], [ -85.715814203, 31.192179896 ], [ -85.715836503, 31.192087494 ], [ -85.715858802, 31.191995099 ], [ -85.715881102, 31.1919026 ], [ -85.715903401, 31.191810198 ], [ -85.715925701, 31.191717699 ], [ -85.715948001, 31.191625297 ], [ -85.7159703, 31.191532798 ], [ -85.715992607, 31.191440396 ], [ -85.716014907, 31.191347994 ], [ -85.716037206, 31.191255495 ], [ -85.716059506, 31.191163093 ], [ -85.716081806, 31.191070594 ], [ -85.716104105, 31.190978199 ], [ -85.716126405, 31.190885797 ], [ -85.716148704, 31.190793298 ], [ -85.716195405, 31.190761194 ], [ -85.7162816, 31.190702096 ], [ -85.716367707, 31.190642998 ], [ -85.716453902, 31.190583795 ], [ -85.716540001, 31.190524697 ], [ -85.716626205, 31.190465495 ], [ -85.716712303, 31.190406397 ], [ -85.716798507, 31.190347299 ], [ -85.716879107, 31.190363593 ], [ -85.716986701, 31.190385297 ], [ -85.717094205, 31.190407097 ], [ -85.717201807, 31.190428793 ], [ -85.717309304, 31.190450594 ], [ -85.717416905, 31.190472297 ], [ -85.717524506, 31.190494098 ], [ -85.717632003, 31.190515794 ], [ -85.717739604, 31.190537594 ], [ -85.717847101, 31.190559298 ], [ -85.717954703, 31.190581098 ], [ -85.718032002, 31.190522 ], [ -85.718114406, 31.190459095 ], [ -85.718196802, 31.190396197 ], [ -85.718279205, 31.190333299 ], [ -85.718361504, 31.190270297 ], [ -85.7184439, 31.190207399 ], [ -85.718526304, 31.190144494 ], [ -85.7186087, 31.190081596 ], [ -85.718691103, 31.190018594 ], [ -85.718773507, 31.189955696 ], [ -85.718855806, 31.189892799 ], [ -85.718938202, 31.189829893 ], [ -85.719020605, 31.189766899 ], [ -85.719103001, 31.189703993 ], [ -85.719185404, 31.189641096 ], [ -85.7192678, 31.189578198 ], [ -85.719350107, 31.189515196 ], [ -85.719432503, 31.189452298 ], [ -85.719505802, 31.189459093 ], [ -85.719615705, 31.1894693 ], [ -85.719725601, 31.1894795 ], [ -85.719772302, 31.189447396 ], [ -85.719858401, 31.189388193 ], [ -85.719944604, 31.189329095 ], [ -85.720030703, 31.189269997 ], [ -85.720116906, 31.189210795 ], [ -85.720203005, 31.189151697 ], [ -85.720289104, 31.189092495 ], [ -85.720375307, 31.189033397 ], [ -85.720393002, 31.1890058 ], [ -85.720446303, 31.188923098 ], [ -85.720499605, 31.188840397 ], [ -85.720552906, 31.188757695 ], [ -85.7206062, 31.188674994 ], [ -85.720659405, 31.188592397 ], [ -85.720712706, 31.188509695 ], [ -85.720766, 31.188426994 ], [ -85.720819302, 31.1883443 ], [ -85.720872603, 31.188261598 ], [ -85.720925801, 31.188178897 ], [ -85.720979102, 31.188096195 ], [ -85.721032403, 31.188013494 ], [ -85.721085705, 31.1879308 ], [ -85.721139006, 31.187848099 ], [ -85.721192203, 31.187765397 ], [ -85.721245505, 31.187682696 ], [ -85.721298806, 31.187599994 ], [ -85.721306704, 31.187537499 ], [ -85.721318707, 31.187443599 ], [ -85.721330605, 31.187349796 ], [ -85.721342504, 31.187255993 ], [ -85.721354507, 31.187162094 ], [ -85.721366405, 31.187068298 ], [ -85.721378304, 31.186974496 ], [ -85.721390307, 31.186880596 ], [ -85.721402206, 31.186786793 ], [ -85.721414104, 31.186692998 ], [ -85.721426107, 31.186599195 ], [ -85.721438006, 31.186505295 ], [ -85.721449904, 31.1864115 ], [ -85.721461907, 31.186317697 ], [ -85.721473806, 31.186223798 ], [ -85.721538402, 31.1861865 ], [ -85.721630007, 31.186133698 ], [ -85.721721604, 31.186080895 ], [ -85.721813202, 31.186027996 ], [ -85.721904807, 31.185975194 ], [ -85.721996404, 31.185922399 ], [ -85.722088002, 31.1858695 ], [ -85.722179607, 31.185816698 ], [ -85.722271204, 31.185763896 ], [ -85.722362801, 31.185710996 ], [ -85.722454406, 31.185658194 ], [ -85.722545907, 31.185605399 ], [ -85.722637504, 31.1855525 ], [ -85.722729102, 31.185499698 ], [ -85.722820707, 31.185446896 ], [ -85.722912304, 31.185393997 ], [ -85.723003902, 31.185341194 ], [ -85.723095506, 31.185288399 ], [ -85.723187104, 31.185235493 ], [ -85.723278701, 31.185182698 ], [ -85.723370306, 31.185129896 ], [ -85.723461807, 31.185076997 ], [ -85.723553404, 31.185024194 ], [ -85.723558605, 31.185016893 ], [ -85.723615505, 31.184935994 ], [ -85.723672301, 31.184854999 ], [ -85.723729201, 31.184774093 ], [ -85.723786101, 31.184693195 ], [ -85.723843001, 31.184612297 ], [ -85.723899804, 31.184531294 ], [ -85.723956704, 31.184450395 ], [ -85.724013604, 31.184369497 ], [ -85.724070504, 31.184288494 ], [ -85.724127404, 31.184207596 ], [ -85.7241842, 31.184126697 ], [ -85.7242411, 31.184045799 ], [ -85.724298, 31.183964796 ], [ -85.7243549, 31.183883898 ], [ -85.724411704, 31.183803 ], [ -85.724468604, 31.183722094 ], [ -85.724525504, 31.183641098 ], [ -85.724582404, 31.1835602 ], [ -85.724639207, 31.183479294 ], [ -85.724676102, 31.183453895 ], [ -85.724762306, 31.183394797 ], [ -85.724848405, 31.183335699 ], [ -85.724934503, 31.183276497 ], [ -85.725020602, 31.183217399 ], [ -85.725106806, 31.183158197 ], [ -85.725192904, 31.183099099 ], [ -85.725279003, 31.183039896 ], [ -85.725365207, 31.182980798 ], [ -85.725451306, 31.182921596 ], [ -85.725495502, 31.182921894 ], [ -85.725606002, 31.182922699 ], [ -85.725716501, 31.182923496 ], [ -85.725827105, 31.182924293 ], [ -85.725937605, 31.182925098 ], [ -85.726048104, 31.182925895 ], [ -85.726158604, 31.1829267 ], [ -85.7262692, 31.182927497 ], [ -85.7263797, 31.182928294 ], [ -85.726490207, 31.182929099 ], [ -85.726600707, 31.182929896 ], [ -85.726711206, 31.182930693 ], [ -85.726821803, 31.182931498 ], [ -85.726932302, 31.182932295 ], [ -85.726974405, 31.182968095 ], [ -85.7270528, 31.183034599 ], [ -85.727131106, 31.1831012 ], [ -85.727209501, 31.183167793 ], [ -85.727287807, 31.183234297 ], [ -85.727366202, 31.183300897 ], [ -85.727444507, 31.183367498 ], [ -85.727522902, 31.183433995 ], [ -85.7276012, 31.183500595 ], [ -85.727637902, 31.183503993 ], [ -85.727747805, 31.1835142 ], [ -85.727857605, 31.1835244 ], [ -85.727967501, 31.1835346 ], [ -85.728077404, 31.183544695 ], [ -85.7281873, 31.183554895 ], [ -85.728234001, 31.183522798 ], [ -85.728320107, 31.1834637 ], [ -85.728406303, 31.183404498 ], [ -85.728492402, 31.1833454 ], [ -85.7285785, 31.183286197 ], [ -85.728664704, 31.183227099 ], [ -85.728750803, 31.183167897 ], [ -85.728836901, 31.183108799 ], [ -85.728840902, 31.183077499 ], [ -85.728852801, 31.182983696 ], [ -85.728864707, 31.182889797 ], [ -85.728876702, 31.182795994 ], [ -85.728888601, 31.182702199 ], [ -85.728900507, 31.182608299 ], [ -85.728833303, 31.182536997 ], [ -85.728764005, 31.1824634 ], [ -85.728694707, 31.1823899 ], [ -85.728625506, 31.182316296 ], [ -85.728556201, 31.182242796 ], [ -85.728486903, 31.182169199 ], [ -85.728417702, 31.182095699 ], [ -85.728348404, 31.182022095 ], [ -85.728279106, 31.181948595 ], [ -85.728209905, 31.181874998 ], [ -85.7281406, 31.181801498 ], [ -85.728071302, 31.181727894 ], [ -85.728002101, 31.181654394 ], [ -85.727932803, 31.181580797 ], [ -85.727863505, 31.181507297 ], [ -85.727794304, 31.1814337 ], [ -85.727725007, 31.1813602 ], [ -85.727736905, 31.181266293 ], [ -85.727748901, 31.181172498 ], [ -85.727760807, 31.181078695 ], [ -85.727772705, 31.180984795 ], [ -85.727784604, 31.180891 ], [ -85.727796502, 31.180797197 ], [ -85.727808505, 31.180703297 ], [ -85.727820404, 31.180609494 ], [ -85.7279182, 31.1805785 ], [ -85.728021801, 31.180545598 ], [ -85.728125505, 31.180512793 ], [ -85.728229105, 31.180479899 ], [ -85.728332706, 31.180446997 ], [ -85.728436306, 31.1804142 ], [ -85.728539906, 31.180381298 ], [ -85.728643507, 31.180348493 ], [ -85.728747107, 31.180315599 ] ] } },
{ "type": "Feature", "properties": { "site_no": "02361500", "nhdplus_comid": "2189633", "navigation_mode": "UM", "requested_distance_km": 12.0, "start_source": "nwissite", "start_id": "USGS-02361500", "geometry_length_km": 3.1527988457257665 }, "geometry": { "type": "LineString", "coordinates": [ [ -85.696664706, 31.204710796 ], [ -85.6970376, 31.204275295 ], [ -85.697890602, 31.204022795 ], [ -85.698343806, 31.204160094 ], [ -85.698823906, 31.204526499 ], [ -85.699037403, 31.204892993 ], [ -85.699464105, 31.205259398 ], [ -85.7001305, 31.205144495 ], [ -85.700450204, 31.204938099 ], [ -85.700903103, 31.204387896 ], [ -85.701062702, 31.2038837 ], [ -85.701115303, 31.202921294 ], [ -85.700501703, 31.202211298 ], [ -85.700554505, 31.201523796 ], [ -85.701034203, 31.201248594 ], [ -85.701620601, 31.201271199 ], [ -85.703007005, 31.20166 ], [ -85.703460105, 31.201682694 ], [ -85.704179801, 31.201544799 ], [ -85.704499803, 31.201659195 ], [ -85.7046865, 31.201796494 ], [ -85.704820007, 31.2021631 ], [ -85.705300003, 31.202391997 ], [ -85.705540001, 31.202414699 ], [ -85.705806501, 31.202299997 ], [ -85.706179403, 31.201910295 ], [ -85.706205703, 31.2013833 ], [ -85.705964901, 31.200283498 ], [ -85.706043802, 31.198954396 ], [ -85.706122905, 31.197739899 ], [ -85.706735402, 31.197143696 ], [ -85.707135104, 31.197006099 ], [ -85.707588404, 31.197211996 ], [ -85.708042301, 31.198082499 ], [ -85.708335802, 31.198380195 ], [ -85.708735704, 31.198494494 ], [ -85.709295504, 31.198448397 ], [ -85.709881805, 31.198264696 ], [ -85.7107611, 31.197805896 ], [ -85.712093301, 31.197255097 ], [ -85.712439604, 31.196888298 ], [ -85.712359101, 31.196246795 ], [ -85.712252207, 31.195948996 ], [ -85.711985402, 31.195674099 ], [ -85.711078905, 31.195491396 ], [ -85.710918806, 31.195262298 ], [ -85.710758701, 31.195033297 ], [ -85.7107585, 31.194781199 ], [ -85.710918106, 31.194414496 ], [ -85.711424403, 31.194162093 ] ] } }
]
}
