{
"type": "FeatureCollection",
"name": "USGS_02445000_UM_12km",
"crs": { "type": "name", "properties": { "name": "urn:ogc:def:crs:OGC:1.3:CRS84" } },
"features": [
{ "type": "Feature", "properties": { "site_no": "02445000", "nhdplus_comid": "18630026", "navigation_mode": "UM", "requested_distance_km": 12.0, "start_source": "nwissite", "start_id": "USGS-02445000", "geometry_length_km": 0.0 }, "geometry": { "type": "Point", "coordinates": [ -88.081522003, 33.246732995 ] } },
{ "type": "Feature", "properties": { "site_no": "02445000", "nhdplus_comid": "18630822", "navigation_mode": "UM", "requested_distance_km": 12.0, "start_source": "nwissite", "start_id": "USGS-02445000", "geometry_length_km": 1.1842647292465824 }, "geometry": { "type": "LineString", "coordinates": [ [ -88.080034904, 33.2553204 ], [ -88.080089606, 33.255159996 ], [ -88.080307804, 33.254885294 ], [ -88.081208006, 33.254152499 ], [ -88.081453606, 33.253808998 ], [ -88.081454106, 33.2529843 ], [ -88.081317805, 33.252617694 ], [ -88.081100002, 33.251884498 ], [ -88.081209406, 33.251403496 ], [ -88.081618607, 33.251014195 ], [ -88.081755102, 33.250830993 ], [ -88.081809707, 33.250579 ], [ -88.081782505, 33.250487395 ], [ -88.081537105, 33.250212297 ], [ -88.081057101, 33.250123195 ], [ -88.080702804, 33.249802299 ], [ -88.080702901, 33.249390095 ], [ -88.080784701, 33.249321394 ], [ -88.0817663, 33.249207094 ], [ -88.081930004, 33.249000899 ], [ -88.0819574, 33.248519897 ], [ -88.081875704, 33.248382397 ], [ -88.081848502, 33.248221993 ], [ -88.081576005, 33.247809693 ], [ -88.0815216, 33.247511797 ], [ -88.081630707, 33.247213997 ], [ -88.081522003, 33.246732995 ] ] } },
{ "type": "Feature", "properties": { "site_no": "02445000", "nhdplus_comid": "18630004", "navigation_mode": "UM", "requested_distance_km": 12.0, "start_source": "nwissite", "start_id": "USGS-02445000", "geometry_length_km": 1.1688988179760933 }, "geometry": { "type": "LineString", "coordinates": [ [ -88.080221802, 33.263338394 ], [ -88.080794804, 33.2628804 ], [ -88.080876604, 33.262651399 ], [ -88.081367701, 33.262239195 ], [ -88.081449606, 33.261895597 ], [ -88.081095301, 33.261414394 ], [ -88.081068203, 33.261139497 ], [ -88.081150107, 33.261024997 ], [ -88.081232004, 33.260933399 ], [ -88.081750005, 33.261071093 ], [ -88.0820226, 33.261093996 ], [ -88.0820501, 33.260704599 ], [ -88.081804805, 33.260315098 ], [ -88.081750602, 33.259925596 ], [ -88.082050703, 33.259421796 ], [ -88.0821326, 33.259353094 ], [ -88.082160801, 33.2574974 ], [ -88.081942901, 33.2567643 ], [ -88.081534103, 33.256397694 ], [ -88.081507005, 33.255985297 ], [ -88.081261806, 33.255687393 ], [ -88.080880202, 33.255503997 ], [ -88.080198504, 33.255434997 ], [ -88.080034904, 33.2553204 ] ] } },
{ "type": "Feature", "properties": { "site_no": "02445000", "nhdplus_comid": "18629972", "navigation_mode": "UM", "requested_distance_km": 12.0, "start_source": "nwissite", "start_id": "USGS-02445000", "geometry_length_km": 1.7961636247730077 }, "geometry": { "type": "LineString", "coordinates": [ [ -88.072689503, 33.273667097 ], [ -88.072798707, 33.273369297 ], [ -88.072907902, 33.273300596 ], [ -88.072989903, 33.272979796 ], [ -88.073426805, 33.272155397 ], [ -88.073563501, 33.271582693 ], [ -88.073672801, 33.271284997 ], [ -88.073891103, 33.271010093 ], [ -88.074300304, 33.270597897 ], [ -88.074928001, 33.270048395 ], [ -88.076264307, 33.269659497 ], [ -88.076646306, 33.269407697 ], [ -88.076891907, 33.268995397 ], [ -88.077164702, 33.2687435 ], [ -88.077792101, 33.268537596 ], [ -88.079483107, 33.268194698 ], [ -88.080410302, 33.2681721 ], [ -88.0810102, 33.2682181 ], [ -88.081501104, 33.268149599 ], [ -88.081882901, 33.2680123 ], [ -88.082346603, 33.267691694 ], [ -88.082455903, 33.2673252 ], [ -88.082129203, 33.2664776 ], [ -88.081883803, 33.266110897 ], [ -88.081147902, 33.265537895 ], [ -88.081011705, 33.265239999 ], [ -88.081039406, 33.264392398 ], [ -88.080903105, 33.264300793 ], [ -88.080903105, 33.264209099 ], [ -88.080412507, 33.263819493 ], [ -88.080221802, 33.2635445 ], [ -88.080221802, 33.263338394 ] ] } },
{ "type": "Feature", "properties": { "site_no": "02445000", "nhdplus_comid": "18629906", "navigation_mode": "UM", "requested_distance_km": 12.0, "start_source": "nwissite", "start_id": "USGS-02445000", "geometry_length_km": 0.76598174137798536 }, "geometry": { "type": "LineString", "coordinates": [ [ -88.067559704, 33.277902797 ], [ -88.06786, 33.277376093 ], [ -88.067915, 33.276894897 ], [ -88.067751504, 33.276551194 ], [ -88.067833506, 33.276184797 ], [ -88.067997403, 33.275955699 ], [ -88.068297505, 33.275589295 ], [ -88.068761401, 33.275245897 ], [ -88.069088906, 33.274765 ], [ -88.069634601, 33.274352893 ], [ -88.070125706, 33.2741699 ], [ -88.071271203, 33.2741016 ], [ -88.071544006, 33.273941398 ], [ -88.072689503, 33.273667097 ] ] } },
{ "type": "Feature", "properties": { "site_no": "02445000", "nhdplus_comid": "18629890", "navigation_mode": "UM", "requested_distance_km": 12.0, "start_source": "nwissite", "start_id": "USGS-02445000", "geometry_length_km": 0.87574849233860674 }, "geometry": { "type": "LineString", "coordinates": [ [ -88.063383304, 33.283123799 ], [ -88.063492507, 33.282986395 ], [ -88.063683704, 33.282574199 ], [ -88.063793607, 33.281406 ], [ -88.063930303, 33.280947894 ], [ -88.064503506, 33.280169196 ], [ -88.064749204, 33.279802799 ], [ -88.065022007, 33.279757194 ], [ -88.0651583, 33.279848799 ], [ -88.065158203, 33.2799863 ], [ -88.065212704, 33.280032195 ], [ -88.065267101, 33.280261293 ], [ -88.065430701, 33.280352898 ], [ -88.065621607, 33.280307196 ], [ -88.0658672, 33.280124098 ], [ -88.066058405, 33.279780596 ], [ -88.065949604, 33.279253595 ], [ -88.066058904, 33.279047497 ], [ -88.066768304, 33.278497994 ], [ -88.067286901, 33.277994297 ], [ -88.067559704, 33.277902797 ] ] } },
{ "type": "Feature", "properties": { "site_no": "02445000", "nhdplus_comid": "18629874", "navigation_mode": "UM", "requested_distance_km": 12.0, "start_source": "nwissite", "start_id": "USGS-02445000", "geometry_length_km": 0.38200426748099903 }, "geometry": { "type": "LineString", "coordinates": [ [ -88.062399402, 33.285963893 ], [ -88.062508605, 33.285803594 ], [ -88.062509, 33.285368398 ], [ -88.062263906, 33.284635194 ], [ -88.062318705, 33.284291595 ], [ -88.062346406, 33.2836731 ], [ -88.062455602, 33.283535697 ], [ -88.0627013, 33.283283897 ], [ -88.063383304, 33.283123799 ] ] } },
{ "type": "Feature", "properties": { "site_no": "02445000", "nhdplus_comid": "18629868", "navigation_mode": "UM", "requested_distance_km": 12.0, "start_source": "nwissite", "start_id": "USGS-02445000", "geometry_length_km": 1.26374661968446 }, "geometry": { "type": "LineString", "coordinates": [ [ -88.057129502, 33.293429397 ], [ -88.057211503, 33.293246098 ], [ -88.057320602, 33.293131597 ], [ -88.058002703, 33.292948797 ], [ -88.058003105, 33.292444795 ], [ -88.0583307, 33.291986793 ], [ -88.058385603, 33.291528694 ], [ -88.058713101, 33.291414298 ], [ -88.059040502, 33.291276999 ], [ -88.059067905, 33.2910937 ], [ -88.058877103, 33.291001998 ], [ -88.058386005, 33.2910017 ], [ -88.058058701, 33.2909327 ], [ -88.057977006, 33.290841095 ], [ -88.057977401, 33.290428698 ], [ -88.058086507, 33.2902456 ], [ -88.058086805, 33.289947793 ], [ -88.057787001, 33.289649799 ], [ -88.05776, 33.289374799 ], [ -88.058169305, 33.2890772 ], [ -88.058224104, 33.2888024 ], [ -88.0580879, 33.288527496 ], [ -88.058169901, 33.288298398 ], [ -88.058988705, 33.287634499 ], [ -88.059397906, 33.287451498 ], [ -88.059916407, 33.287085198 ], [ -88.060462102, 33.286787696 ], [ -88.061580807, 33.286444597 ], [ -88.061962903, 33.286124095 ], [ -88.062399402, 33.285963893 ] ] } },
{ "type": "Feature", "properties": { "site_no": "02445000", "nhdplus_comid": "18629828", "navigation_mode": "UM", "requested_distance_km": 12.0, "start_source": "nwissite", "start_id": "USGS-02445000", "geometry_length_km": 0.18564792187989032 }, "geometry": { "type": "LineString", "coordinates": [ [ -88.057510205, 33.2949185 ], [ -88.057510406, 33.2946207 ], [ -88.057592504, 33.294391699 ], [ -88.057647303, 33.293979399 ], [ -88.057456501, 33.293795995 ], [ -88.057211205, 33.293612696 ], [ -88.057129502, 33.293429397 ] ] } },
{ "type": "Feature", "properties": { "site_no": "02445000", "nhdplus_comid": "18629816", "navigation_mode": "UM", "requested_distance_km": 12.0, "start_source": "nwissite", "start_id": "USGS-02445000", "geometry_length_km": 0.85060485751764148 }, "geometry": { "type": "LineString", "coordinates": [ [ -88.053276904, 33.301238798 ], [ -88.053358905, 33.300986893 ], [ -88.053741202, 33.300597697 ], [ -88.053796105, 33.300254099 ], [ -88.054315105, 33.299292296 ], [ -88.054424703, 33.298742495 ], [ -88.054834306, 33.298353299 ], [ -88.054889306, 33.297597393 ], [ -88.055407904, 33.297368594 ], [ -88.055571705, 33.297185399 ], [ -88.055654004, 33.296704397 ], [ -88.055872403, 33.296337999 ], [ -88.056118101, 33.296108998 ], [ -88.056609504, 33.295719795 ], [ -88.057209805, 33.295376599 ], [ -88.057428204, 33.295170493 ], [ -88.057455704, 33.294987299 ], [ -88.057510205, 33.2949185 ] ] } },
{ "type": "Feature", "properties": { "site_no": "02445000", "nhdplus_comid": "18629776", "navigation_mode": "UM", "requested_distance_km": 12.0, "start_source": "nwissite", "start_id": "USGS-02445000", "geometry_length_km": 0.63059674602228477 }, "geometry": { "type": "LineString", "coordinates": [ [ -88.048773207, 33.303962193 ], [ -88.049046203, 33.303733394 ], [ -88.049428605, 33.303504497 ], [ -88.049565107, 33.303344198 ], [ -88.049647406, 33.302725799 ], [ -88.049757004, 33.302221894 ], [ -88.049866207, 33.302107394 ], [ -88.050111905, 33.301878497 ], [ -88.050521202, 33.3016496 ], [ -88.051722206, 33.300917298 ], [ -88.052431606, 33.300780199 ], [ -88.052513301, 33.300871894 ], [ -88.052731305, 33.301146895 ], [ -88.053276904, 33.301238798 ] ] } },
{ "type": "Feature", "properties": { "site_no": "02445000", "nhdplus_comid": "18629764", "navigation_mode": "UM", "requested_distance_km": 12.0, "start_source": "nwissite", "start_id": "USGS-02445000", "geometry_length_km": 0.64098065999737841 }, "geometry": { "type": "LineString", "coordinates": [ [ -88.047213607, 33.309299 ], [ -88.047213905, 33.308909595 ], [ -88.047078006, 33.308428399 ], [ -88.047051206, 33.307764098 ], [ -88.047133401, 33.3073975 ], [ -88.047597706, 33.3068939 ], [ -88.047734402, 33.306504495 ], [ -88.0477622, 33.305954695 ], [ -88.047926404, 33.3053592 ], [ -88.048199505, 33.304969795 ], [ -88.048472501, 33.304763898 ], [ -88.048718303, 33.3044433 ], [ -88.048773207, 33.303962193 ] ] } },
{ "type": "Feature", "properties": { "site_no": "02445000", "nhdplus_comid": "18629742", "navigation_mode": "UM", "requested_distance_km": 12.0, "start_source": "nwissite", "start_id": "USGS-02445000", "geometry_length_km": 0.33327860359979705 }, "geometry": { "type": "LineString", "coordinates": [ [ -88.043993205, 33.310511097 ], [ -88.044265904, 33.310511194 ], [ -88.044511601, 33.310419798 ], [ -88.044811904, 33.310190894 ], [ -88.045494206, 33.309962295 ], [ -88.045931004, 33.309687696 ], [ -88.046940707, 33.309413396 ], [ -88.047213607, 33.309299 ] ] } },
{ "type": "Feature", "properties": { "site_no": "02445000", "nhdplus_comid": "18629738", "navigation_mode": "UM", "requested_distance_km": 12.0, "start_source": "nwissite", "start_id": "USGS-02445000", "geometry_length_km": 0.56203920970956056 }, "geometry": { "type": "LineString", "coordinates": [ [ -88.039952606, 33.313188598 ], [ -88.040716402, 33.313395396 ], [ -88.041316606, 33.313395798 ], [ -88.041972004, 33.3128464 ], [ -88.0426815, 33.312640697 ], [ -88.043036304, 33.3124348 ], [ -88.043255001, 33.312091298 ], [ -88.043337002, 33.3120455 ], [ -88.043473706, 33.311656095 ], [ -88.0435559, 33.3113584 ], [ -88.043938302, 33.3108088 ], [ -88.043993205, 33.310511097 ] ] } },
{ "type": "Feature", "properties": { "site_no": "02445000", "nhdplus_comid": "18629720", "navigation_mode": "UM", "requested_distance_km": 12.0, "start_source": "nwissite", "start_id": "USGS-02445000", "geometry_length_km": 1.4723979711685402 }, "geometry": { "type": "LineString", "coordinates": [ [ -88.034104504, 33.322210394 ], [ -88.0345411, 33.322210796 ], [ -88.034704901, 33.322142199 ], [ -88.0347054, 33.321752697 ], [ -88.034487404, 33.321477599 ], [ -88.034597605, 33.320378095 ], [ -88.034488603, 33.320217699 ], [ -88.034516804, 33.319324195 ], [ -88.034435205, 33.319140896 ], [ -88.034353405, 33.3189805 ], [ -88.034299202, 33.318636894 ], [ -88.034408502, 33.318476595 ], [ -88.034572303, 33.318407997 ], [ -88.035390802, 33.318500198 ], [ -88.0359639, 33.3183861 ], [ -88.036646307, 33.318065897 ], [ -88.038093306, 33.317333795 ], [ -88.038366303, 33.317150697 ], [ -88.039512403, 33.317013994 ], [ -88.039758004, 33.316945493 ], [ -88.039840005, 33.316785097 ], [ -88.040058807, 33.316281296 ], [ -88.040140904, 33.315983593 ], [ -88.040496305, 33.3153653 ], [ -88.040524103, 33.314838499 ], [ -88.040442407, 33.314609297 ], [ -88.040142603, 33.314242594 ], [ -88.039870106, 33.3138301 ], [ -88.039870501, 33.313440599 ], [ -88.039952606, 33.313188598 ] ] } }
]
}
