{
"type": "FeatureCollection",
"name": "USGS_02423555_DM_12km",
"crs": { "type": "name", "properties": { "name": "urn:ogc:def:crs:OGC:1.3:CRS84" } },
"features": [
{ "type": "Feature", "properties": { "site_no": "02423555", "nhdplus_comid": "21655896", "navigation_mode": "DM", "requested_distance_km": 12.0, "start_source": "nwissite", "start_id": "USGS-02423555", "geometry_length_km": 0.62262120679528521 }, "geometry": { "type": "LineString", "coordinates": [ [ -86.882711954, 33.284296469 ], [ -86.880800307, 33.283028297 ], [ -86.8800366, 33.282318093 ], [ -86.879818305, 33.2818828 ], [ -86.879791006, 33.281355895 ], [ -86.880091101, 33.280553997 ], [ -86.880036503, 33.279797897 ] ] } },
{ "type": "Feature", "properties": { "site_no": "02423555", "nhdplus_comid": "21655910", "navigation_mode": "DM", "requested_distance_km": 12.0, "start_source": "nwissite", "start_id": "USGS-02423555", "geometry_length_km": 1.2316171516751564 }, "geometry": { "type": "LineString", "coordinates": [ [ -86.880036503, 33.279797897 ], [ -86.8799273, 33.278995998 ], [ -86.8800091, 33.278698198 ], [ -86.880772807, 33.277392298 ], [ -86.881836504, 33.276659094 ], [ -86.882327504, 33.276475795 ], [ -86.883527502, 33.276452698 ], [ -86.8856005, 33.276842095 ], [ -86.890210405, 33.278376698 ] ] } },
{ "type": "Feature", "properties": { "site_no": "02423555", "nhdplus_comid": "21655924", "navigation_mode": "DM", "requested_distance_km": 12.0, "start_source": "nwissite", "start_id": "USGS-02423555", "geometry_length_km": 3.9947700614349753 }, "geometry": { "type": "LineString", "coordinates": [ [ -86.890210405, 33.278376698 ], [ -86.890401304, 33.278262198 ], [ -86.890564904, 33.277964294 ], [ -86.8906193, 33.276933298 ], [ -86.890946306, 33.275146194 ], [ -86.891382501, 33.274550498 ], [ -86.892882407, 33.273335993 ], [ -86.893782303, 33.272442296 ], [ -86.894000404, 33.272007093 ], [ -86.894027606, 33.271686196 ], [ -86.893945806, 33.271434195 ], [ -86.893509306, 33.271044798 ], [ -86.892199904, 33.270220295 ], [ -86.890781507, 33.269578896 ], [ -86.890345104, 33.269281097 ], [ -86.890126802, 33.268960394 ], [ -86.890154004, 33.268547997 ], [ -86.890563205, 33.268410496 ], [ -86.894708507, 33.267653897 ], [ -86.895990305, 33.267653599 ], [ -86.896781206, 33.267859697 ], [ -86.899863504, 33.269439995 ], [ -86.902182102, 33.270355895 ], [ -86.903191403, 33.270653494 ], [ -86.903409407, 33.270561896 ], [ -86.903763905, 33.270218097 ], [ -86.904118203, 33.269324496 ], [ -86.904390402, 33.267835297 ], [ -86.90439, 33.266529299 ], [ -86.904117003, 33.265864998 ], [ -86.903135002, 33.265154995 ], [ -86.902016707, 33.264674097 ], [ -86.898770802, 33.262796 ], [ -86.897925302, 33.262406796 ], [ -86.897570804, 33.262315199 ] ] } },
{ "type": "Feature", "properties": { "site_no": "02423555", "nhdplus_comid": "21655942", "navigation_mode": "DM", "requested_distance_km": 12.0, "start_source": "nwissite", "start_id": "USGS-02423555", "geometry_length_km": 3.1043028616729944 }, "geometry": { "type": "LineString", "coordinates": [ [ -86.897570804, 33.262315199 ], [ -86.896998003, 33.261925794 ], [ -86.896916106, 33.261788294 ], [ -86.896888703, 33.261330098 ], [ -86.897433907, 33.260413595 ], [ -86.897870205, 33.260046899 ], [ -86.8990971, 33.259405196 ], [ -86.899942406, 33.259061299 ], [ -86.900705807, 33.258557297 ], [ -86.902641803, 33.257686198 ], [ -86.903132603, 33.257663198 ], [ -86.903650902, 33.258006796 ], [ -86.904578306, 33.2588313 ], [ -86.905014902, 33.259518594 ], [ -86.905205905, 33.2599997 ], [ -86.905424505, 33.2614429 ], [ -86.9057521, 33.262198895 ], [ -86.906434201, 33.2628861 ], [ -86.906788707, 33.2630006 ], [ -86.907115906, 33.263000399 ], [ -86.907770403, 33.262656599 ], [ -86.908888005, 33.2615567 ], [ -86.909651004, 33.259861 ], [ -86.909705304, 33.259265296 ], [ -86.909432404, 33.258807093 ], [ -86.908204906, 33.257913999 ], [ -86.907332003, 33.257455997 ], [ -86.906513602, 33.256837599 ], [ -86.906322703, 33.256562695 ], [ -86.906295307, 33.256173193 ], [ -86.906704001, 33.255302593 ], [ -86.907140203, 33.254821293 ], [ -86.907930702, 33.254248299 ], [ -86.909484707, 33.253468998 ], [ -86.910166405, 33.253377095 ] ] } }
]
}
