{
"type": "FeatureCollection",
"name": "USGS_02418760_DM_12km",
"crs": { "type": "name", "properties": { "name": "urn:ogc:def:crs:OGC:1.3:CRS84" } },
"features": [
{ "type": "Feature", "properties": { "site_no": "02418760", "nhdplus_comid": "21712732", "navigation_mode": "DM", "requested_distance_km": 12.0, "start_source": "nwissite", "start_id": "USGS-02418760", "geometry_length_km": 0.56043916876092725 }, "geometry": { "type": "LineString", "coordinates": [ [ -85.480218867, 32.548207173 ], [ -85.4802678, 32.548187993 ], [ -85.480592102, 32.547844097 ], [ -85.481862403, 32.547155894 ], [ -85.483457506, 32.546627693 ], [ -85.483862907, 32.5464212 ], [ -85.484754607, 32.545710295 ], [ -85.485160001, 32.545480795 ] ] } },
{ "type": "Feature", "properties": { "site_no": "02418760", "nhdplus_comid": "21713172", "navigation_mode": "DM", "requested_distance_km": 12.0, "start_source": "nwissite", "start_id": "USGS-02418760", "geometry_length_km": 1.0126378976878714 }, "geometry": { "type": "LineString", "coordinates": [ [ -85.485160001, 32.545480795 ], [ -85.485159904, 32.545343295 ], [ -85.485673502, 32.545090899 ], [ -85.486214302, 32.544998899 ], [ -85.487106301, 32.544608697 ], [ -85.489376903, 32.543575794 ], [ -85.489890605, 32.543483697 ], [ -85.490350403, 32.543483198 ], [ -85.490891002, 32.543207794 ], [ -85.492592804, 32.541671395 ], [ -85.493376605, 32.541258395 ], [ -85.493916705, 32.540662199 ] ] } },
{ "type": "Feature", "properties": { "site_no": "02418760", "nhdplus_comid": "21712836", "navigation_mode": "DM", "requested_distance_km": 12.0, "start_source": "nwissite", "start_id": "USGS-02418760", "geometry_length_km": 1.3954820140914974 }, "geometry": { "type": "LineString", "coordinates": [ [ -85.493916705, 32.540662199 ], [ -85.493889101, 32.540249899 ], [ -85.493834004, 32.539402395 ], [ -85.493941903, 32.539287798 ], [ -85.495429002, 32.538942695 ], [ -85.496023402, 32.538552798 ], [ -85.496482402, 32.538071297 ], [ -85.496833302, 32.537521094 ], [ -85.496778801, 32.537223399 ], [ -85.496670507, 32.537108995 ], [ -85.495832205, 32.537155598 ], [ -85.495642602, 32.536880799 ], [ -85.495642006, 32.536468498 ], [ -85.4964258, 32.5361242 ], [ -85.4969116, 32.535367697 ], [ -85.497613706, 32.534633994 ], [ -85.497882403, 32.5333279 ], [ -85.498799406, 32.531517394 ], [ -85.499015503, 32.5313797 ] ] } },
{ "type": "Feature", "properties": { "site_no": "02418760", "nhdplus_comid": "21712864", "navigation_mode": "DM", "requested_distance_km": 12.0, "start_source": "nwissite", "start_id": "USGS-02418760", "geometry_length_km": 0.57110535744691471 }, "geometry": { "type": "LineString", "coordinates": [ [ -85.499015503, 32.5313797 ], [ -85.499014802, 32.530898698 ], [ -85.499526806, 32.529546596 ], [ -85.499471605, 32.528744899 ], [ -85.499308601, 32.528309695 ], [ -85.498794302, 32.5278292 ], [ -85.4985772, 32.527302496 ], [ -85.498414807, 32.5272111 ], [ -85.497711703, 32.527120098 ] ] } },
{ "type": "Feature", "properties": { "site_no": "02418760", "nhdplus_comid": "21712946", "navigation_mode": "DM", "requested_distance_km": 12.0, "start_source": "nwissite", "start_id": "USGS-02418760", "geometry_length_km": 1.7579700226824868 }, "geometry": { "type": "LineString", "coordinates": [ [ -85.497711703, 32.527120098 ], [ -85.497495204, 32.526982799 ], [ -85.497440606, 32.526639298 ], [ -85.497575305, 32.526318498 ], [ -85.497385107, 32.525562696 ], [ -85.496653602, 32.524463795 ], [ -85.496680103, 32.524074294 ], [ -85.496977203, 32.523822099 ], [ -85.497652806, 32.523546495 ], [ -85.498030804, 32.523133799 ], [ -85.498408005, 32.522217095 ], [ -85.498894304, 32.521895997 ], [ -85.499541901, 32.520956099 ], [ -85.499568701, 32.5207498 ], [ -85.499514401, 32.520589493 ], [ -85.499027602, 32.520452596 ], [ -85.498783804, 32.520200796 ], [ -85.498594001, 32.519765794 ], [ -85.498593204, 32.519193098 ], [ -85.498889804, 32.518620096 ], [ -85.498158902, 32.5179106 ], [ -85.497969307, 32.5176818 ], [ -85.497914203, 32.516902894 ], [ -85.497778505, 32.516536497 ], [ -85.4972369, 32.515895598 ], [ -85.4969116, 32.515300393 ], [ -85.496884204, 32.5150484 ], [ -85.496504605, 32.514224097 ], [ -85.496368706, 32.513628595 ] ] } },
{ "type": "Feature", "properties": { "site_no": "02418760", "nhdplus_comid": "21713176", "navigation_mode": "DM", "requested_distance_km": 12.0, "start_source": "nwissite", "start_id": "USGS-02418760", "geometry_length_km": 1.8853828905039876 }, "geometry": { "type": "LineString", "coordinates": [ [ -85.496368706, 32.513628595 ], [ -85.496233001, 32.513285093 ], [ -85.496257104, 32.511131793 ], [ -85.495661102, 32.510193095 ], [ -85.495172903, 32.509025194 ], [ -85.495199203, 32.508475393 ], [ -85.496629506, 32.5066185 ], [ -85.496980906, 32.506572396 ], [ -85.497197405, 32.506732494 ], [ -85.497684203, 32.506846599 ], [ -85.497656703, 32.506571695 ], [ -85.497548506, 32.506480195 ], [ -85.497521102, 32.506159499 ], [ -85.497602001, 32.506067798 ], [ -85.497465305, 32.504991196 ], [ -85.497384205, 32.504968397 ], [ -85.497247905, 32.504052199 ], [ -85.497355506, 32.503754295 ], [ -85.496787906, 32.503777795 ], [ -85.496436104, 32.503503196 ], [ -85.496435702, 32.503205396 ], [ -85.496759705, 32.502907299 ], [ -85.497273304, 32.502837993 ], [ -85.497489303, 32.502700299 ], [ -85.497597203, 32.502516896 ], [ -85.497840002, 32.502127297 ], [ -85.498406701, 32.5014624 ], [ -85.498730205, 32.500774898 ], [ -85.499059603, 32.500137895 ] ] } },
{ "type": "Feature", "properties": { "site_no": "02418760", "nhdplus_comid": "21717224", "navigation_mode": "DM", "requested_distance_km": 12.0, "start_source": "nwissite", "start_id": "USGS-02418760", "geometry_length_km": 0.38087853871096533 }, "geometry": { "type": "LineString", "coordinates": [ [ -85.499059603, 32.500137895 ], [ -85.498952806, 32.499655396 ], [ -85.498792201, 32.499426395 ], [ -85.498928703, 32.499265999 ], [ -85.499199204, 32.499219894 ], [ -85.499793202, 32.499288097 ], [ -85.4999291, 32.499104694 ], [ -85.500081003, 32.498636499 ], [ -85.500324607, 32.498453498 ], [ -85.501216404, 32.498545997 ] ] } },
{ "type": "Feature", "properties": { "site_no": "02418760", "nhdplus_comid": "21714504", "navigation_mode": "DM", "requested_distance_km": 12.0, "start_source": "nwissite", "start_id": "USGS-02418760", "geometry_length_km": 0.5346299859000192 }, "geometry": { "type": "LineString", "coordinates": [ [ -85.501216404, 32.498545997 ], [ -85.501325101, 32.498225495 ], [ -85.501731306, 32.497721896 ], [ -85.501731604, 32.497538596 ], [ -85.501353607, 32.497240394 ], [ -85.5013275, 32.496598996 ], [ -85.501517504, 32.496026494 ], [ -85.5019233, 32.495797798 ], [ -85.5022754, 32.495340094 ], [ -85.502708502, 32.494951196 ], [ -85.503033005, 32.494768299 ], [ -85.503060304, 32.494585 ] ] } },
{ "type": "Feature", "properties": { "site_no": "02418760", "nhdplus_comid": "21714530", "navigation_mode": "DM", "requested_distance_km": 12.0, "start_source": "nwissite", "start_id": "USGS-02418760", "geometry_length_km": 0.69639815385622028 }, "geometry": { "type": "LineString", "coordinates": [ [ -85.503060304, 32.494585 ], [ -85.503276601, 32.494562298 ], [ -85.503466204, 32.494241796 ], [ -85.5039801, 32.494013295 ], [ -85.505035706, 32.493120894 ], [ -85.506171204, 32.492938794 ], [ -85.506657504, 32.4930766 ], [ -85.5070085, 32.493374899 ], [ -85.507440902, 32.493375294 ], [ -85.507684402, 32.493238099 ], [ -85.508036003, 32.4931468 ], [ -85.508441202, 32.493307494 ], [ -85.508711502, 32.493261993 ], [ -85.509009302, 32.492964499 ], [ -85.508982502, 32.492735393 ] ] } },
{ "type": "Feature", "properties": { "site_no": "02418760", "nhdplus_comid": "21714550", "navigation_mode": "DM", "requested_distance_km": 12.0, "start_source": "nwissite", "start_id": "USGS-02418760", "geometry_length_km": 0.55147969558729781 }, "geometry": { "type": "LineString", "coordinates": [ [ -85.508982502, 32.492735393 ], [ -85.509361602, 32.492346399 ], [ -85.509524204, 32.491957098 ], [ -85.509659402, 32.491888396 ], [ -85.510200106, 32.491820194 ], [ -85.51066, 32.491591595 ], [ -85.510741405, 32.491362698 ], [ -85.510390207, 32.4912019 ], [ -85.510310106, 32.490514696 ], [ -85.510418504, 32.490331598 ], [ -85.510661706, 32.490308799 ], [ -85.5108504, 32.490675494 ], [ -85.511039406, 32.490813099 ], [ -85.511877507, 32.490722395 ] ] } },
{ "type": "Feature", "properties": { "site_no": "02418760", "nhdplus_comid": "21714570", "navigation_mode": "DM", "requested_distance_km": 12.0, "start_source": "nwissite", "start_id": "USGS-02418760", "geometry_length_km": 0.48442777298266021 }, "geometry": { "type": "LineString", "coordinates": [ [ -85.511877507, 32.490722395 ], [ -85.512175307, 32.490378998 ], [ -85.513095006, 32.489898793 ], [ -85.513284504, 32.489601098 ], [ -85.513095602, 32.489371896 ], [ -85.513123304, 32.488868095 ], [ -85.513745502, 32.488524996 ], [ -85.514232501, 32.488158993 ], [ -85.514503106, 32.487861395 ], [ -85.5144765, 32.4875177 ] ] } },
{ "type": "Feature", "properties": { "site_no": "02418760", "nhdplus_comid": "21714642", "navigation_mode": "DM", "requested_distance_km": 12.0, "start_source": "nwissite", "start_id": "USGS-02418760", "geometry_length_km": 1.5496204969630469 }, "geometry": { "type": "LineString", "coordinates": [ [ -85.5144765, 32.4875177 ], [ -85.514504105, 32.487174094 ], [ -85.514909901, 32.486922599 ], [ -85.515072905, 32.486258395 ], [ -85.515640907, 32.485938199 ], [ -85.515776306, 32.485732198 ], [ -85.515588, 32.484975994 ], [ -85.515723601, 32.4846325 ], [ -85.5160482, 32.484357893 ], [ -85.516778007, 32.484312698 ], [ -85.517183803, 32.484106995 ], [ -85.517427504, 32.483694896 ], [ -85.517509602, 32.482916094 ], [ -85.517078005, 32.4822971 ], [ -85.5169705, 32.481815994 ], [ -85.516945004, 32.480647594 ], [ -85.517107807, 32.480097897 ], [ -85.517514005, 32.479525596 ], [ -85.517487504, 32.479136094 ], [ -85.517325707, 32.478815295 ], [ -85.517326407, 32.478311293 ], [ -85.517569602, 32.478288598 ], [ -85.518325806, 32.478701696 ], [ -85.518677004, 32.4787478 ], [ -85.519055605, 32.478633597 ], [ -85.519353703, 32.477946594 ], [ -85.519273505, 32.477259293 ] ] } },
{ "type": "Feature", "properties": { "site_no": "02418760", "nhdplus_comid": "21714658", "navigation_mode": "DM", "requested_distance_km": 12.0, "start_source": "nwissite", "start_id": "USGS-02418760", "geometry_length_km": 0.17071820149368386 }, "geometry": { "type": "LineString", "coordinates": [ [ -85.519273505, 32.477259293 ], [ -85.519165404, 32.477282099 ], [ -85.518895805, 32.476663396 ], [ -85.5189775, 32.476251096 ], [ -85.519221, 32.475953497 ] ] } },
{ "type": "Feature", "properties": { "site_no": "02418760", "nhdplus_comid": "21714660", "navigation_mode": "DM", "requested_distance_km": 12.0, "start_source": "nwissite", "start_id": "USGS-02418760", "geometry_length_km": 0.03372489065129846 }, "geometry": { "type": "LineString", "coordinates": [ [ -85.519221, 32.475953497 ], [ -85.519572407, 32.475885093 ] ] } },
{ "type": "Feature", "properties": { "site_no": "02418760", "nhdplus_comid": "21714714", "navigation_mode": "DM", "requested_distance_km": 12.0, "start_source": "nwissite", "start_id": "USGS-02418760", "geometry_length_km": 1.9503548739187522 }, "geometry": { "type": "LineString", "coordinates": [ [ -85.519572407, 32.475885093 ], [ -85.519412003, 32.4745792 ], [ -85.519655503, 32.474327497 ], [ -85.520331204, 32.474259295 ], [ -85.520304605, 32.473892793 ], [ -85.520007804, 32.473525897 ], [ -85.519981503, 32.472930297 ], [ -85.520144105, 32.472563997 ], [ -85.520685107, 32.472174995 ], [ -85.520685405, 32.471900098 ], [ -85.520442806, 32.4714875 ], [ -85.519902803, 32.471074596 ], [ -85.519794904, 32.470868394 ], [ -85.519795403, 32.470547698 ], [ -85.519957803, 32.470341593 ], [ -85.519958206, 32.469975099 ], [ -85.519796304, 32.469814599 ], [ -85.519309804, 32.469814293 ], [ -85.5194185, 32.469424896 ], [ -85.520067304, 32.469150595 ], [ -85.520121701, 32.468875699 ], [ -85.520311102, 32.468761295 ], [ -85.520500205, 32.468761593 ], [ -85.520689003, 32.469059497 ], [ -85.5210132, 32.469151296 ], [ -85.521337606, 32.469082899 ], [ -85.5216351, 32.468808293 ], [ -85.521743506, 32.4685793 ], [ -85.521500602, 32.468304299 ], [ -85.521474101, 32.467846096 ], [ -85.521744303, 32.467800498 ], [ -85.522068501, 32.467915393 ], [ -85.522446901, 32.467823893 ], [ -85.522852704, 32.467412099 ], [ -85.522772007, 32.4672058 ], [ -85.522259101, 32.4666785 ], [ -85.522232704, 32.466197394 ], [ -85.522097901, 32.465968095 ], [ -85.521908902, 32.465830497 ], [ -85.5206393, 32.465462893 ], [ -85.520072505, 32.464935496 ], [ -85.519722104, 32.464270793 ] ] } }
]
}
