{
"type": "FeatureCollection",
"name": "USGS_02479945_UM_12km",
"crs": { "type": "name", "properties": { "name": "urn:ogc:def:crs:OGC:1.3:CRS84" } },
"features": [
{ "type": "Feature", "properties": { "site_no": "02479945", "nhdplus_comid": "18094191", "navigation_mode": "UM", "requested_distance_km": 12.0, "start_source": "nwissite", "start_id": "USGS-02479945", "geometry_length_km": 0.13950078392654741 }, "geometry": { "type": "LineString", "coordinates": [ [ -88.333918802, 30.857208095 ], [ -88.3340251, 30.8568874 ], [ -88.334078506, 30.8564291 ], [ -88.333836841, 30.856017592 ] ] } },
{ "type": "Feature", "properties": { "site_no": "02479945", "nhdplus_comid": "18094161", "navigation_mode": "UM", "requested_distance_km": 12.0, "start_source": "nwissite", "start_id": "USGS-02479945", "geometry_length_km": 3.3232898216715534 }, "geometry": { "type": "LineString", "coordinates": [ [ -88.327638201, 30.884200193 ], [ -88.327346303, 30.883100197 ], [ -88.327319801, 30.882825196 ], [ -88.327213705, 30.882550195 ], [ -88.326975003, 30.881656498 ], [ -88.326921903, 30.881587699 ], [ -88.326895304, 30.881518893 ], [ -88.326868802, 30.881450094 ], [ -88.326815806, 30.881243899 ], [ -88.326603405, 30.8809231 ], [ -88.326231606, 30.880441695 ], [ -88.325860001, 30.879754096 ], [ -88.325806901, 30.8795937 ], [ -88.325727202, 30.879524894 ], [ -88.325621203, 30.8791124 ], [ -88.325621702, 30.877966598 ], [ -88.325994201, 30.876889698 ], [ -88.326685704, 30.875194296 ], [ -88.326872006, 30.874346398 ], [ -88.326792605, 30.873590194 ], [ -88.326660104, 30.872971497 ], [ -88.326580606, 30.872421496 ], [ -88.326368406, 30.871665195 ], [ -88.326236002, 30.870908998 ], [ -88.326316103, 30.870015293 ], [ -88.326396003, 30.8694425 ], [ -88.326529004, 30.869052999 ], [ -88.326741807, 30.868411295 ], [ -88.327326804, 30.867334597 ], [ -88.327752203, 30.866440997 ], [ -88.328151204, 30.865157895 ], [ -88.328204602, 30.864516295 ], [ -88.328417502, 30.863576896 ], [ -88.3288697, 30.862293795 ], [ -88.328949504, 30.862224996 ], [ -88.329109006, 30.861835495 ], [ -88.329507604, 30.861377299 ], [ -88.329799905, 30.86124 ], [ -88.330729604, 30.861056894 ], [ -88.331207901, 30.860782094 ], [ -88.331579901, 30.8604156 ], [ -88.331925407, 30.8599803 ], [ -88.332403801, 30.859224297 ], [ -88.332536906, 30.858720198 ], [ -88.332696505, 30.858261898 ], [ -88.333015405, 30.857849598 ], [ -88.333706304, 30.857253894 ], [ -88.333918802, 30.857208095 ] ] } },
{ "type": "Feature", "properties": { "site_no": "02479945", "nhdplus_comid": "18094095", "navigation_mode": "UM", "requested_distance_km": 12.0, "start_source": "nwissite", "start_id": "USGS-02479945", "geometry_length_km": 1.3731550337659437 }, "geometry": { "type": "LineString", "coordinates": [ [ -88.328403503, 30.896414295 ], [ -88.328297302, 30.896299697 ], [ -88.328138106, 30.895657897 ], [ -88.328111805, 30.895176798 ], [ -88.328005604, 30.894741394 ], [ -88.327952705, 30.894260094 ], [ -88.327846706, 30.893595494 ], [ -88.327820301, 30.893205896 ], [ -88.327714205, 30.892770499 ], [ -88.327608302, 30.891968399 ], [ -88.327396102, 30.890914299 ], [ -88.327369906, 30.890203997 ], [ -88.327290401, 30.889837198 ], [ -88.327370301, 30.889378995 ], [ -88.327397205, 30.888508193 ], [ -88.327503704, 30.887912497 ], [ -88.327504203, 30.886858396 ], [ -88.327690504, 30.886193894 ], [ -88.327691302, 30.884521097 ], [ -88.327638201, 30.884200193 ] ] } },
{ "type": "Feature", "properties": { "site_no": "02479945", "nhdplus_comid": "18094063", "navigation_mode": "UM", "requested_distance_km": 12.0, "start_source": "nwissite", "start_id": "USGS-02479945", "geometry_length_km": 1.0128624498380772 }, "geometry": { "type": "LineString", "coordinates": [ [ -88.3293299, 30.905305594 ], [ -88.329383105, 30.905076399 ], [ -88.329516105, 30.904755697 ], [ -88.329542905, 30.904274493 ], [ -88.329489902, 30.904022396 ], [ -88.329357103, 30.903884895 ], [ -88.329304002, 30.903701499 ], [ -88.329011805, 30.903243095 ], [ -88.328772902, 30.902738996 ], [ -88.3286933, 30.902280696 ], [ -88.3286146, 30.9000578 ], [ -88.328561604, 30.8995995 ], [ -88.328562006, 30.898705795 ], [ -88.328641802, 30.898384996 ], [ -88.328562602, 30.897170499 ], [ -88.328483, 30.896849699 ], [ -88.3284299, 30.896780893 ], [ -88.328403503, 30.896414295 ] ] } },
{ "type": "Feature", "properties": { "site_no": "02479945", "nhdplus_comid": "18094031", "navigation_mode": "UM", "requested_distance_km": 12.0, "start_source": "nwissite", "start_id": "USGS-02479945", "geometry_length_km": 1.8772072113711353 }, "geometry": { "type": "LineString", "coordinates": [ [ -88.323343001, 30.921046197 ], [ -88.323343702, 30.919671297 ], [ -88.323983006, 30.916646793 ], [ -88.324222401, 30.915959395 ], [ -88.324302405, 30.915569894 ], [ -88.324382305, 30.915226199 ], [ -88.324568503, 30.914882496 ], [ -88.326164, 30.913324796 ], [ -88.326669306, 30.912339598 ], [ -88.326722704, 30.911720894 ], [ -88.326855905, 30.911216795 ], [ -88.327095404, 30.9103003 ], [ -88.327308305, 30.909727499 ], [ -88.328079507, 30.9083758 ], [ -88.328372106, 30.907780096 ], [ -88.329090506, 30.905695096 ], [ -88.3293299, 30.905305594 ] ] } },
{ "type": "Feature", "properties": { "site_no": "02479945", "nhdplus_comid": "18093987", "navigation_mode": "UM", "requested_distance_km": 12.0, "start_source": "nwissite", "start_id": "USGS-02479945", "geometry_length_km": 0.39003534047204125 }, "geometry": { "type": "LineString", "coordinates": [ [ -88.324723706, 30.924254797 ], [ -88.324511401, 30.923727699 ], [ -88.324458204, 30.923658997 ], [ -88.324458301, 30.923544399 ], [ -88.324378505, 30.923475496 ], [ -88.324352004, 30.923292197 ], [ -88.324272305, 30.923246294 ], [ -88.324245803, 30.923085898 ], [ -88.324139602, 30.922948398 ], [ -88.324139707, 30.922650494 ], [ -88.323980406, 30.9223755 ], [ -88.323927306, 30.922077596 ], [ -88.323688306, 30.921596296 ], [ -88.323528901, 30.9214129 ], [ -88.323449306, 30.921183698 ], [ -88.323343001, 30.921046197 ] ] } },
{ "type": "Feature", "properties": { "site_no": "02479945", "nhdplus_comid": "18093965", "navigation_mode": "UM", "requested_distance_km": 12.0, "start_source": "nwissite", "start_id": "USGS-02479945", "geometry_length_km": 0.19087844660911218 }, "geometry": { "type": "LineString", "coordinates": [ [ -88.324031904, 30.925835699 ], [ -88.324324705, 30.924873397 ], [ -88.324511006, 30.924438097 ], [ -88.324723706, 30.924254797 ] ] } },
{ "type": "Feature", "properties": { "site_no": "02479945", "nhdplus_comid": "18093959", "navigation_mode": "UM", "requested_distance_km": 12.0, "start_source": "nwissite", "start_id": "USGS-02479945", "geometry_length_km": 4.1558137387918022 }, "geometry": { "type": "LineString", "coordinates": [ [ -88.323803701, 30.960506 ], [ -88.323883705, 30.9600477 ], [ -88.324336, 30.959291697 ], [ -88.324815102, 30.958191797 ], [ -88.324868403, 30.958123095 ], [ -88.325054802, 30.957321197 ], [ -88.325320803, 30.957000397 ], [ -88.326065406, 30.956634 ], [ -88.326225102, 30.956267498 ], [ -88.326438501, 30.954915598 ], [ -88.326731205, 30.954205297 ], [ -88.327024102, 30.9533576 ], [ -88.327263601, 30.952807598 ], [ -88.327396706, 30.9525785 ], [ -88.327503301, 30.952120297 ], [ -88.327503905, 30.950745396 ], [ -88.327716902, 30.949783094 ], [ -88.328116104, 30.948729098 ], [ -88.328355804, 30.947812594 ], [ -88.328382701, 30.946987696 ], [ -88.328329705, 30.946552299 ], [ -88.328250006, 30.946506396 ], [ -88.327904806, 30.945452094 ], [ -88.3279851, 30.944100298 ], [ -88.328038305, 30.943871096 ], [ -88.328091703, 30.943298295 ], [ -88.328198403, 30.942610897 ], [ -88.328199103, 30.940960996 ], [ -88.328119405, 30.940846398 ], [ -88.328092903, 30.940685995 ], [ -88.327827103, 30.940204695 ], [ -88.327322304, 30.939585797 ], [ -88.3263124, 30.938668899 ], [ -88.325967103, 30.938233294 ], [ -88.325860806, 30.938004099 ], [ -88.325170003, 30.937087394 ], [ -88.325063705, 30.936835296 ], [ -88.324957505, 30.936651893 ], [ -88.3249311, 30.936353996 ], [ -88.324851304, 30.936308093 ], [ -88.324585803, 30.935414396 ], [ -88.324479707, 30.935047694 ], [ -88.324426606, 30.934910193 ], [ -88.324373506, 30.934566393 ], [ -88.324240707, 30.934314296 ], [ -88.324214302, 30.933924794 ], [ -88.324134603, 30.933878899 ], [ -88.324028604, 30.933099799 ], [ -88.323948905, 30.933008097 ], [ -88.323816404, 30.932160094 ], [ -88.323843606, 30.930854 ], [ -88.323950104, 30.9304187 ], [ -88.324216202, 30.929845899 ], [ -88.324615002, 30.929479398 ], [ -88.325093903, 30.928860798 ], [ -88.3252801, 30.928608797 ], [ -88.325094305, 30.927829698 ], [ -88.325067803, 30.927623399 ], [ -88.324961506, 30.927531794 ], [ -88.324828707, 30.927142099 ], [ -88.324749202, 30.9267525 ], [ -88.324510105, 30.926362999 ], [ -88.324031904, 30.925835699 ] ] } }
]
}
