{
"type": "FeatureCollection",
"name": "USGS_03571850_UM_12km",
"crs": { "type": "name", "properties": { "name": "urn:ogc:def:crs:OGC:1.3:CRS84" } },
"features": [
{ "type": "Feature", "properties": { "site_no": "03571850", "nhdplus_comid": "19643650", "navigation_mode": "UM", "requested_distance_km": 12.0, "start_source": "nwissite", "start_id": "USGS-03571850", "geometry_length_km": 0.70421727977984105 }, "geometry": { "type": "LineString", "coordinates": [ [ -85.692809701, 35.016883597 ], [ -85.695321806, 35.011845395 ], [ -85.695536923, 35.011001674 ] ] } },
{ "type": "Feature", "properties": { "site_no": "03571850", "nhdplus_comid": "19643646", "navigation_mode": "UM", "requested_distance_km": 12.0, "start_source": "nwissite", "start_id": "USGS-03571850", "geometry_length_km": 3.6960473440039383 }, "geometry": { "type": "LineString", "coordinates": [ [ -85.660418004, 35.035738699 ], [ -85.660674304, 35.035693899 ], [ -85.665979907, 35.034072094 ], [ -85.671008207, 35.031414196 ], [ -85.677971706, 35.026768997 ], [ -85.681977503, 35.025503896 ], [ -85.685177304, 35.024032794 ], [ -85.6891976, 35.021420196 ], [ -85.691114604, 35.019566298 ], [ -85.6925373, 35.017668694 ], [ -85.692809701, 35.016883597 ] ] } },
{ "type": "Feature", "properties": { "site_no": "03571850", "nhdplus_comid": "19643642", "navigation_mode": "UM", "requested_distance_km": 12.0, "start_source": "nwissite", "start_id": "USGS-03571850", "geometry_length_km": 2.6682879909309638 }, "geometry": { "type": "LineString", "coordinates": [ [ -85.637732305, 35.025910698 ], [ -85.638025805, 35.026206397 ], [ -85.638174906, 35.027568199 ], [ -85.638911203, 35.029521495 ], [ -85.639608905, 35.030527294 ], [ -85.641975105, 35.032759599 ], [ -85.644174203, 35.033763297 ], [ -85.645309806, 35.033998698 ], [ -85.647107206, 35.035506196 ], [ -85.648224801, 35.035874799 ], [ -85.652839504, 35.0362828 ], [ -85.660418004, 35.035738699 ] ] } },
{ "type": "Feature", "properties": { "site_no": "03571850", "nhdplus_comid": "19643644", "navigation_mode": "UM", "requested_distance_km": 12.0, "start_source": "nwissite", "start_id": "USGS-03571850", "geometry_length_km": 0.056747388901403392 }, "geometry": { "type": "LineString", "coordinates": [ [ -85.637339704, 35.025515199 ], [ -85.637732305, 35.025910698 ] ] } },
{ "type": "Feature", "properties": { "site_no": "03571850", "nhdplus_comid": "19696757", "navigation_mode": "UM", "requested_distance_km": 12.0, "start_source": "nwissite", "start_id": "USGS-03571850", "geometry_length_km": 1.2050440288375197 }, "geometry": { "type": "LineString", "coordinates": [ [ -85.636938103, 35.014870994 ], [ -85.6378363, 35.017081298 ], [ -85.637339704, 35.025515199 ] ] } },
{ "type": "Feature", "properties": { "site_no": "03571850", "nhdplus_comid": "19696759", "navigation_mode": "UM", "requested_distance_km": 12.0, "start_source": "nwissite", "start_id": "USGS-03571850", "geometry_length_km": 0.6161580779391238 }, "geometry": { "type": "LineString", "coordinates": [ [ -85.632961504, 35.010576099 ], [ -85.636237003, 35.013145797 ], [ -85.636938103, 35.014870994 ] ] } },
{ "type": "Feature", "properties": { "site_no": "03571850", "nhdplus_comid": "19696763", "navigation_mode": "UM", "requested_distance_km": 12.0, "start_source": "nwissite", "start_id": "USGS-03571850", "geometry_length_km": 0.80807968301631483 }, "geometry": { "type": "LineString", "coordinates": [ [ -85.626294807, 35.005785994 ], [ -85.629299104, 35.0077025 ], [ -85.632961504, 35.010576099 ] ] } },
{ "type": "Feature", "properties": { "site_no": "03571850", "nhdplus_comid": "19696765", "navigation_mode": "UM", "requested_distance_km": 12.0, "start_source": "nwissite", "start_id": "USGS-03571850", "geometry_length_km": 0.67045325985413684 }, "geometry": { "type": "LineString", "coordinates": [ [ -85.619857207, 35.003140494 ], [ -85.623020105, 35.003696799 ], [ -85.626294807, 35.005785994 ] ] } },
{ "type": "Feature", "properties": { "site_no": "03571850", "nhdplus_comid": "936020019", "navigation_mode": "UM", "requested_distance_km": 12.0, "start_source": "nwissite", "start_id": "USGS-03571850", "geometry_length_km": 0.30048070381276609 }, "geometry": { "type": "LineString", "coordinates": [ [ -85.616613306, 35.002569795 ], [ -85.619857207, 35.003140494 ] ] } },
{ "type": "Feature", "properties": { "site_no": "03571850", "nhdplus_comid": "936020018", "navigation_mode": "UM", "requested_distance_km": 12.0, "start_source": "nwissite", "start_id": "USGS-03571850", "geometry_length_km": 1.3475152742431382 }, "geometry": { "type": "LineString", "coordinates": [ [ -85.601913206, 35.001553297 ], [ -85.606248401, 35.001123793 ], [ -85.615108207, 35.002304994 ], [ -85.616613306, 35.002569795 ] ] } }
]
}
