{
"type": "FeatureCollection",
"name": "USGS_02471001_UM_12km",
"crs": { "type": "name", "properties": { "name": "urn:ogc:def:crs:OGC:1.3:CRS84" } },
"features": [
{ "type": "Feature", "properties": { "site_no": "02471001", "nhdplus_comid": "18523647", "navigation_mode": "UM", "requested_distance_km": 12.0, "start_source": "nwissite", "start_id": "USGS-02471001", "geometry_length_km": 2.3203356267147202 }, "geometry": { "type": "LineString", "coordinates": [ [ -88.149480104, 30.816692099 ], [ -88.149559706, 30.816508599 ], [ -88.149825104, 30.816187799 ], [ -88.149824806, 30.815248199 ], [ -88.149718605, 30.815133594 ], [ -88.149134502, 30.815019198 ], [ -88.149081402, 30.814950399 ], [ -88.1490812, 30.814560793 ], [ -88.149134301, 30.814469196 ], [ -88.149187401, 30.814194195 ], [ -88.148868605, 30.813919194 ], [ -88.148523405, 30.813758895 ], [ -88.148072004, 30.813483998 ], [ -88.147939101, 30.813231893 ], [ -88.147886001, 30.813048594 ], [ -88.1478329, 30.813025698 ], [ -88.147753105, 30.812521599 ], [ -88.147620201, 30.812040299 ], [ -88.147540607, 30.811971694 ], [ -88.147514001, 30.81188 ], [ -88.147354506, 30.811444499 ], [ -88.147168703, 30.811307095 ], [ -88.1464516, 30.810963497 ], [ -88.145548806, 30.810413599 ], [ -88.144885004, 30.809817895 ], [ -88.144672506, 30.809405498 ], [ -88.144672401, 30.809130393 ], [ -88.144566201, 30.809061699 ], [ -88.144566104, 30.808855496 ], [ -88.144725405, 30.808557495 ], [ -88.145442106, 30.808373995 ], [ -88.145866901, 30.808213599 ], [ -88.145866804, 30.807892695 ], [ -88.145335704, 30.807457499 ], [ -88.145362206, 30.807205297 ], [ -88.145468406, 30.806999095 ], [ -88.145468302, 30.806563698 ], [ -88.145309001, 30.806472093 ], [ -88.1450966, 30.806426197 ], [ -88.144432902, 30.806678399 ], [ -88.144167401, 30.806655593 ], [ -88.143424004, 30.806311995 ], [ -88.143291205, 30.806105696 ], [ -88.143370807, 30.805853598 ], [ -88.143715903, 30.805624396 ], [ -88.1439813, 30.805578597 ], [ -88.144379601, 30.805670097 ], [ -88.144592002, 30.805692993 ], [ -88.144830905, 30.805395 ], [ -88.144936904, 30.804776296 ], [ -88.144936703, 30.804249197 ], [ -88.144724302, 30.804042995 ], [ -88.144458905, 30.804042995 ], [ -88.143821701, 30.804226495 ], [ -88.143556304, 30.804249398 ], [ -88.143370405, 30.803768195 ], [ -88.1432641, 30.8034245 ], [ -88.143184401, 30.803286999 ], [ -88.14319536, 30.803206612 ] ] } },
{ "type": "Feature", "properties": { "site_no": "02471001", "nhdplus_comid": "18523615", "navigation_mode": "UM", "requested_distance_km": 12.0, "start_source": "nwissite", "start_id": "USGS-02471001", "geometry_length_km": 0.21888590297864663 }, "geometry": { "type": "LineString", "coordinates": [ [ -88.150993705, 30.817379199 ], [ -88.151020102, 30.816897899 ], [ -88.150913902, 30.816760398 ], [ -88.150568701, 30.816577196 ], [ -88.149612904, 30.816760696 ], [ -88.149480104, 30.816692099 ] ] } },
{ "type": "Feature", "properties": { "site_no": "02471001", "nhdplus_comid": "18523609", "navigation_mode": "UM", "requested_distance_km": 12.0, "start_source": "nwissite", "start_id": "USGS-02471001", "geometry_length_km": 0.80239274415695649 }, "geometry": { "type": "LineString", "coordinates": [ [ -88.156199202, 30.821250796 ], [ -88.155907206, 30.821273796 ], [ -88.155641705, 30.8214572 ], [ -88.155031003, 30.821526095 ], [ -88.154632702, 30.821457498 ], [ -88.154473305, 30.821251199 ], [ -88.1544201, 30.820953399 ], [ -88.154181004, 30.820586696 ], [ -88.152640507, 30.819235094 ], [ -88.1525077, 30.819120497 ], [ -88.152295403, 30.819212198 ], [ -88.151870504, 30.819281094 ], [ -88.151684605, 30.819166496 ], [ -88.151711002, 30.818822794 ], [ -88.151790604, 30.818547696 ], [ -88.151710905, 30.818387397 ], [ -88.151232906, 30.817906193 ], [ -88.151099905, 30.817539595 ], [ -88.150993705, 30.817379199 ] ] } },
{ "type": "Feature", "properties": { "site_no": "02471001", "nhdplus_comid": "18523977", "navigation_mode": "UM", "requested_distance_km": 12.0, "start_source": "nwissite", "start_id": "USGS-02471001", "geometry_length_km": 2.3088292564240582 }, "geometry": { "type": "LineString", "coordinates": [ [ -88.166110203, 30.835478999 ], [ -88.166083306, 30.834814399 ], [ -88.165870607, 30.834630996 ], [ -88.165233202, 30.834562495 ], [ -88.165073901, 30.834447995 ], [ -88.1650737, 30.8342188 ], [ -88.165339105, 30.833577096 ], [ -88.165922806, 30.832522795 ], [ -88.165975802, 30.832156099 ], [ -88.165869303, 30.8318353 ], [ -88.165683404, 30.831697799 ], [ -88.165471002, 30.831652097 ], [ -88.165258706, 30.831995897 ], [ -88.1651261, 30.832408398 ], [ -88.164860502, 30.832408495 ], [ -88.164727606, 30.832156494 ], [ -88.164594807, 30.831973195 ], [ -88.164329104, 30.831767 ], [ -88.164063506, 30.831515096 ], [ -88.1639302, 30.830621295 ], [ -88.163850501, 30.8304381 ], [ -88.163664602, 30.830323495 ], [ -88.162841305, 30.8300488 ], [ -88.162841007, 30.829636298 ], [ -88.163132802, 30.828925796 ], [ -88.163159303, 30.828536198 ], [ -88.163053006, 30.828329995 ], [ -88.162707604, 30.828146793 ], [ -88.162495203, 30.827917695 ], [ -88.1620434, 30.8271387 ], [ -88.160237007, 30.825535096 ], [ -88.160130307, 30.824114293 ], [ -88.160023905, 30.823793493 ], [ -88.159784906, 30.823518597 ], [ -88.159439601, 30.823381193 ], [ -88.1589351, 30.823358394 ], [ -88.1586961, 30.8232897 ], [ -88.158244506, 30.8228544 ], [ -88.1576868, 30.822648294 ], [ -88.1575009, 30.822602496 ], [ -88.1571557, 30.822487995 ], [ -88.156544805, 30.821915299 ], [ -88.156225801, 30.8214112 ], [ -88.156199202, 30.821250796 ] ] } },
{ "type": "Feature", "properties": { "site_no": "02471001", "nhdplus_comid": "18523969", "navigation_mode": "UM", "requested_distance_km": 12.0, "start_source": "nwissite", "start_id": "USGS-02471001", "geometry_length_km": 2.0309927759665927 }, "geometry": { "type": "LineString", "coordinates": [ [ -88.175439507, 30.849683397 ], [ -88.174907804, 30.848835796 ], [ -88.174137004, 30.847896494 ], [ -88.173552401, 30.847392596 ], [ -88.173552401, 30.847278096 ], [ -88.173446007, 30.847186394 ], [ -88.173339702, 30.846911393 ], [ -88.173313007, 30.846705295 ], [ -88.1731802, 30.846590698 ], [ -88.1731534, 30.846292794 ], [ -88.173233002, 30.846224099 ], [ -88.173312306, 30.845467694 ], [ -88.173206002, 30.845307298 ], [ -88.173206002, 30.845238596 ], [ -88.172860406, 30.844665796 ], [ -88.172621205, 30.844413795 ], [ -88.171479002, 30.844001696 ], [ -88.171293005, 30.843749799 ], [ -88.1713458, 30.843268499 ], [ -88.171611205, 30.842901796 ], [ -88.171637401, 30.842305996 ], [ -88.171584204, 30.842076793 ], [ -88.171265401, 30.841756098 ], [ -88.170681, 30.84155 ], [ -88.170282401, 30.841160595 ], [ -88.170229204, 30.840931498 ], [ -88.170308605, 30.840541899 ], [ -88.170308404, 30.840060599 ], [ -88.170016102, 30.839648195 ], [ -88.169962801, 30.839419194 ], [ -88.1700157, 30.839052498 ], [ -88.170068607, 30.838364899 ], [ -88.169829205, 30.837792195 ], [ -88.169271201, 30.837265298 ], [ -88.168740004, 30.836921796 ], [ -88.168394506, 30.836463593 ], [ -88.168288305, 30.836440593 ], [ -88.168261603, 30.8363261 ], [ -88.167703904, 30.836188696 ], [ -88.167146102, 30.8359598 ], [ -88.166349202, 30.835639298 ], [ -88.166110203, 30.835478999 ] ] } },
{ "type": "Feature", "properties": { "site_no": "02471001", "nhdplus_comid": "18523567", "navigation_mode": "UM", "requested_distance_km": 12.0, "start_source": "nwissite", "start_id": "USGS-02471001", "geometry_length_km": 0.52334503733806881 }, "geometry": { "type": "LineString", "coordinates": [ [ -88.178283207, 30.852546796 ], [ -88.178017601, 30.852478094 ], [ -88.1773533, 30.851997197 ], [ -88.177087501, 30.8517223 ], [ -88.176981002, 30.851332694 ], [ -88.177299403, 30.850851394 ], [ -88.177352503, 30.850667998 ], [ -88.177246206, 30.850576393 ], [ -88.176715001, 30.850645393 ], [ -88.176582105, 30.850507997 ], [ -88.176475607, 30.850049697 ], [ -88.176289603, 30.849912293 ], [ -88.175678603, 30.8496833 ], [ -88.175439507, 30.849683397 ] ] } },
{ "type": "Feature", "properties": { "site_no": "02471001", "nhdplus_comid": "18523563", "navigation_mode": "UM", "requested_distance_km": 12.0, "start_source": "nwissite", "start_id": "USGS-02471001", "geometry_length_km": 0.42152996607029425 }, "geometry": { "type": "LineString", "coordinates": [ [ -88.178975306, 30.854975596 ], [ -88.178762704, 30.854860999 ], [ -88.178470306, 30.854540296 ], [ -88.1784968, 30.854356997 ], [ -88.179373302, 30.854356594 ], [ -88.179479405, 30.854219094 ], [ -88.179532602, 30.854081593 ], [ -88.179452807, 30.854012795 ], [ -88.179452702, 30.853875294 ], [ -88.179293305, 30.853714995 ], [ -88.179027505, 30.853348494 ], [ -88.178336501, 30.852730095 ], [ -88.178283207, 30.852546796 ] ] } },
{ "type": "Feature", "properties": { "site_no": "02471001", "nhdplus_comid": "18523553", "navigation_mode": "UM", "requested_distance_km": 12.0, "start_source": "nwissite", "start_id": "USGS-02471001", "geometry_length_km": 1.1615032076040028 }, "geometry": { "type": "LineString", "coordinates": [ [ -88.176164106, 30.862836994 ], [ -88.176084206, 30.862355798 ], [ -88.176269904, 30.861989096 ], [ -88.176429205, 30.8618057 ], [ -88.176588401, 30.861576498 ], [ -88.176641501, 30.861393094 ], [ -88.176721103, 30.861324295 ], [ -88.177172706, 30.861209594 ], [ -88.177411504, 30.860934496 ], [ -88.177490905, 30.860384397 ], [ -88.177570507, 30.860155299 ], [ -88.177729703, 30.859926 ], [ -88.178473204, 30.859398596 ], [ -88.179083802, 30.858940095 ], [ -88.180146202, 30.858572893 ], [ -88.180438302, 30.858320698 ], [ -88.1805178, 30.858183198 ], [ -88.180597506, 30.858137295 ], [ -88.180596404, 30.856304094 ], [ -88.180277407, 30.8558916 ], [ -88.180117704, 30.855547898 ], [ -88.179692507, 30.855181396 ], [ -88.179267503, 30.854998395 ], [ -88.178975306, 30.854975596 ] ] } },
{ "type": "Feature", "properties": { "site_no": "02471001", "nhdplus_comid": "18523535", "navigation_mode": "UM", "requested_distance_km": 12.0, "start_source": "nwissite", "start_id": "USGS-02471001", "geometry_length_km": 0.040728077909469376 }, "geometry": { "type": "LineString", "coordinates": [ [ -88.175925203, 30.863134995 ], [ -88.176031306, 30.862951599 ], [ -88.176164106, 30.862836994 ] ] } },
{ "type": "Feature", "properties": { "site_no": "02471001", "nhdplus_comid": "18523531", "navigation_mode": "UM", "requested_distance_km": 12.0, "start_source": "nwissite", "start_id": "USGS-02471001", "geometry_length_km": 1.3879935490610071 }, "geometry": { "type": "LineString", "coordinates": [ [ -88.179331101, 30.872506194 ], [ -88.179118507, 30.8722772 ], [ -88.178905606, 30.871750198 ], [ -88.178905301, 30.871131495 ], [ -88.178533003, 30.870558798 ], [ -88.178399801, 30.870077498 ], [ -88.178373106, 30.869756795 ], [ -88.178532302, 30.869504698 ], [ -88.179116704, 30.869366899 ], [ -88.179169506, 30.868931398 ], [ -88.178691, 30.868358694 ], [ -88.178664304, 30.868152499 ], [ -88.178929903, 30.8679462 ], [ -88.178903304, 30.8677627 ], [ -88.178664006, 30.867625296 ], [ -88.178265505, 30.867579699 ], [ -88.178132705, 30.867510997 ], [ -88.178132601, 30.867396399 ], [ -88.178079404, 30.867350593 ], [ -88.178025506, 30.866021499 ], [ -88.177998804, 30.865723699 ], [ -88.177892506, 30.865654893 ], [ -88.177865602, 30.865104996 ], [ -88.177759305, 30.8649446 ], [ -88.177307606, 30.864876099 ], [ -88.1770152, 30.864509493 ], [ -88.176377602, 30.864395194 ], [ -88.176191606, 30.864303596 ], [ -88.176164903, 30.864097394 ], [ -88.176217906, 30.863936998 ], [ -88.176722601, 30.863845095 ], [ -88.176695801, 30.863570094 ], [ -88.176005103, 30.863318399 ], [ -88.175925203, 30.863134995 ] ] } }
]
}
