{
"type": "FeatureCollection",
"name": "USGS_02418500_DM_12km",
"crs": { "type": "name", "properties": { "name": "urn:ogc:def:crs:OGC:1.3:CRS84" } },
"features": [
{ "type": "Feature", "properties": { "site_no": "02418500", "nhdplus_comid": "21713328", "navigation_mode": "DM", "requested_distance_km": 12.0, "start_source": "nwissite", "start_id": "USGS-02418500", "geometry_length_km": 1.433631425509005 }, "geometry": { "type": "LineString", "coordinates": [ [ -85.889713918, 32.512714202 ], [ -85.8897181, 32.512681395 ], [ -85.890536703, 32.510986999 ], [ -85.891183101, 32.504731998 ], [ -85.890932806, 32.504330799 ], [ -85.890857607, 32.502556495 ], [ -85.890132703, 32.500143297 ] ] } },
{ "type": "Feature", "properties": { "site_no": "02418500", "nhdplus_comid": "21717734", "navigation_mode": "DM", "requested_distance_km": 12.0, "start_source": "nwissite", "start_id": "USGS-02418500", "geometry_length_km": 3.8665461685710723 }, "geometry": { "type": "LineString", "coordinates": [ [ -85.890132703, 32.500143297 ], [ -85.890117101, 32.500091299 ], [ -85.890180707, 32.499591894 ], [ -85.8898293, 32.498802893 ], [ -85.889589205, 32.497140095 ], [ -85.888471402, 32.495272398 ], [ -85.886342801, 32.493061699 ], [ -85.883475401, 32.491921 ], [ -85.879059605, 32.488747694 ], [ -85.877729505, 32.487365894 ], [ -85.876596205, 32.485622898 ], [ -85.875665203, 32.484655499 ], [ -85.8724152, 32.4829752 ], [ -85.871053405, 32.481842995 ], [ -85.8676228, 32.480398893 ], [ -85.864261501, 32.479592197 ], [ -85.861581102, 32.479351595 ], [ -85.860506803, 32.4795077 ] ] } },
{ "type": "Feature", "properties": { "site_no": "02418500", "nhdplus_comid": "21717736", "navigation_mode": "DM", "requested_distance_km": 12.0, "start_source": "nwissite", "start_id": "USGS-02418500", "geometry_length_km": 1.0999854936692546 }, "geometry": { "type": "LineString", "coordinates": [ [ -85.860506803, 32.4795077 ], [ -85.857549801, 32.480252296 ], [ -85.856161706, 32.480506398 ], [ -85.855417207, 32.480439499 ], [ -85.854571603, 32.479984798 ], [ -85.853242002, 32.478602596 ], [ -85.852689005, 32.477037698 ], [ -85.852617301, 32.475831695 ] ] } },
{ "type": "Feature", "properties": { "site_no": "02418500", "nhdplus_comid": "21717740", "navigation_mode": "DM", "requested_distance_km": 12.0, "start_source": "nwissite", "start_id": "USGS-02418500", "geometry_length_km": 0.15869507198689214 }, "geometry": { "type": "LineString", "coordinates": [ [ -85.852617301, 32.475831695 ], [ -85.853869706, 32.474870995 ] ] } },
{ "type": "Feature", "properties": { "site_no": "02418500", "nhdplus_comid": "21717742", "navigation_mode": "DM", "requested_distance_km": 12.0, "start_source": "nwissite", "start_id": "USGS-02418500", "geometry_length_km": 0.19649873768307605 }, "geometry": { "type": "LineString", "coordinates": [ [ -85.853869706, 32.474870995 ], [ -85.855970301, 32.474933393 ] ] } },
{ "type": "Feature", "properties": { "site_no": "02418500", "nhdplus_comid": "21717756", "navigation_mode": "DM", "requested_distance_km": 12.0, "start_source": "nwissite", "start_id": "USGS-02418500", "geometry_length_km": 3.653976281319701 }, "geometry": { "type": "LineString", "coordinates": [ [ -85.855970301, 32.474933393 ], [ -85.856236205, 32.475209795 ], [ -85.856831804, 32.475263298 ], [ -85.859549403, 32.476391293 ], [ -85.861336306, 32.476551697 ], [ -85.862575404, 32.476284094 ], [ -85.864505701, 32.475320995 ], [ -85.866207503, 32.474968694 ], [ -85.868324004, 32.474905998 ], [ -85.8711318, 32.474147797 ], [ -85.872354902, 32.474004894 ], [ -85.873296104, 32.473710597 ], [ -85.874614701, 32.472818695 ], [ -85.874938801, 32.4714588 ], [ -85.874385402, 32.469893999 ], [ -85.874496907, 32.469020098 ], [ -85.8752039, 32.468199596 ], [ -85.877559103, 32.466264196 ], [ -85.878361605, 32.464694694 ], [ -85.878695905, 32.462072998 ], [ -85.878551602, 32.459660999 ], [ -85.878958002, 32.4582453 ] ] } },
{ "type": "Feature", "properties": { "site_no": "02418500", "nhdplus_comid": "21717776", "navigation_mode": "DM", "requested_distance_km": 12.0, "start_source": "nwissite", "start_id": "USGS-02418500", "geometry_length_km": 4.104822049765164 }, "geometry": { "type": "LineString", "coordinates": [ [ -85.878958002, 32.4582453 ], [ -85.8815758, 32.456017695 ], [ -85.882117905, 32.455308698 ], [ -85.882261105, 32.454185098 ], [ -85.882011101, 32.453783795 ], [ -85.881064504, 32.452941395 ], [ -85.879192904, 32.452268496 ], [ -85.878528103, 32.451577596 ], [ -85.8786714, 32.450453997 ], [ -85.879032701, 32.449981295 ], [ -85.879691802, 32.449535295 ], [ -85.88126, 32.449044496 ], [ -85.8847633, 32.448727094 ], [ -85.888824403, 32.447575696 ], [ -85.892476507, 32.447271399 ], [ -85.894544601, 32.447582893 ], [ -85.897597201, 32.449623898 ], [ -85.898889303, 32.450118296 ], [ -85.901568905, 32.450357996 ], [ -85.905667603, 32.450093299 ], [ -85.908182502, 32.450444393 ] ] } }
]
}
