{
"type": "FeatureCollection",
"name": "USGS_02470072_DM_12km",
"crs": { "type": "name", "properties": { "name": "urn:ogc:def:crs:OGC:1.3:CRS84" } },
"features": [
{ "type": "Feature", "properties": { "site_no": "02470072", "nhdplus_comid": "21638314", "navigation_mode": "DM", "requested_distance_km": 12.0, "start_source": "nwissite", "start_id": "USGS-02470072", "geometry_length_km": 2.2286096826522299 }, "geometry": { "type": "LineString", "coordinates": [ [ -87.74728682, 31.864224977 ], [ -87.746952206, 31.863949895 ], [ -87.746333204, 31.862896495 ], [ -87.7462788, 31.862392396 ], [ -87.746519707, 31.861796394 ], [ -87.746517703, 31.860352799 ], [ -87.746275306, 31.859825894 ], [ -87.746085003, 31.857992895 ], [ -87.745493606, 31.8574894 ], [ -87.745412506, 31.857076898 ], [ -87.745492406, 31.856549896 ], [ -87.745813206, 31.855587095 ], [ -87.745678604, 31.855380997 ], [ -87.745410003, 31.855197996 ], [ -87.744872905, 31.855175495 ], [ -87.744738601, 31.855083898 ], [ -87.744738005, 31.854671493 ], [ -87.745140001, 31.854098193 ], [ -87.7461325, 31.853432797 ], [ -87.7465882, 31.852973998 ], [ -87.7467755, 31.852515496 ], [ -87.746667206, 31.851782396 ], [ -87.746102206, 31.850935094 ], [ -87.744677804, 31.8498137 ], [ -87.742205903, 31.848165996 ], [ -87.741749205, 31.848028995 ] ] } },
{ "type": "Feature", "properties": { "site_no": "02470072", "nhdplus_comid": "21638326", "navigation_mode": "DM", "requested_distance_km": 12.0, "start_source": "nwissite", "start_id": "USGS-02470072", "geometry_length_km": 0.7700913044260187 }, "geometry": { "type": "LineString", "coordinates": [ [ -87.741749205, 31.848028995 ], [ -87.741827905, 31.846516594 ], [ -87.742013805, 31.844935298 ], [ -87.741771504, 31.844500095 ], [ -87.741529204, 31.843904398 ], [ -87.741526604, 31.841887996 ], [ -87.741713703, 31.8412233 ] ] } },
{ "type": "Feature", "properties": { "site_no": "02470072", "nhdplus_comid": "21638370", "navigation_mode": "DM", "requested_distance_km": 12.0, "start_source": "nwissite", "start_id": "USGS-02470072", "geometry_length_km": 1.4453463890549825 }, "geometry": { "type": "LineString", "coordinates": [ [ -87.741713703, 31.8412233 ], [ -87.741792001, 31.839596294 ], [ -87.741360903, 31.838267595 ], [ -87.741440102, 31.837282099 ], [ -87.741975702, 31.836319193 ], [ -87.742028706, 31.835837893 ], [ -87.741920903, 31.835540198 ], [ -87.741436906, 31.834807396 ], [ -87.741382703, 31.834440798 ], [ -87.7417043, 31.834005095 ], [ -87.741757207, 31.833477996 ], [ -87.741676204, 31.833065599 ], [ -87.741836905, 31.832767598 ], [ -87.741916001, 31.831782095 ], [ -87.742049903, 31.831506997 ], [ -87.7420488, 31.830682099 ], [ -87.7424509, 31.830292195 ], [ -87.742477506, 31.830085896 ], [ -87.742155001, 31.829765394 ], [ -87.742154405, 31.829284199 ], [ -87.742368706, 31.828940295 ] ] } },
{ "type": "Feature", "properties": { "site_no": "02470072", "nhdplus_comid": "21638462", "navigation_mode": "DM", "requested_distance_km": 12.0, "start_source": "nwissite", "start_id": "USGS-02470072", "geometry_length_km": 3.5070495037015919 }, "geometry": { "type": "LineString", "coordinates": [ [ -87.742368706, 31.828940295 ], [ -87.742635801, 31.828023396 ], [ -87.743008703, 31.825823195 ], [ -87.742981702, 31.825639993 ], [ -87.742820404, 31.825479597 ], [ -87.742819905, 31.8250442 ], [ -87.743114501, 31.824654393 ], [ -87.743301801, 31.824218795 ], [ -87.743221, 31.823943995 ], [ -87.742979206, 31.823829599 ], [ -87.742066607, 31.823761694 ], [ -87.741744302, 31.823578693 ], [ -87.7414487, 31.823258199 ], [ -87.7414748, 31.822685197 ], [ -87.741662405, 31.822478898 ], [ -87.741688907, 31.8222268 ], [ -87.741285704, 31.821722999 ], [ -87.740694001, 31.820692293 ], [ -87.740612306, 31.819798693 ], [ -87.740986802, 31.818813093 ], [ -87.741092704, 31.817781799 ], [ -87.740823805, 31.8173237 ], [ -87.740850002, 31.816796698 ], [ -87.741358407, 31.815696299 ], [ -87.741572201, 31.815008596 ], [ -87.741571605, 31.814573295 ], [ -87.740819506, 31.813955195 ], [ -87.740577601, 31.813611694 ], [ -87.740523003, 31.8129014 ], [ -87.741350904, 31.809875898 ], [ -87.739470504, 31.808319293 ], [ -87.739148006, 31.807907097 ], [ -87.738690302, 31.806693099 ], [ -87.738180004, 31.806303896 ], [ -87.738152802, 31.806028999 ], [ -87.738313407, 31.805708095 ], [ -87.738312602, 31.805043593 ], [ -87.738205001, 31.804837398 ], [ -87.737748705, 31.804746099 ], [ -87.736754902, 31.804013595 ], [ -87.736057103, 31.803899698 ], [ -87.735869206, 31.803808197 ], [ -87.735600501, 31.803510599 ], [ -87.735519603, 31.803143993 ], [ -87.734660506, 31.802755199 ], [ -87.734311603, 31.802732594 ] ] } },
{ "type": "Feature", "properties": { "site_no": "02470072", "nhdplus_comid": "21638472", "navigation_mode": "DM", "requested_distance_km": 12.0, "start_source": "nwissite", "start_id": "USGS-02470072", "geometry_length_km": 0.3758344774026437 }, "geometry": { "type": "LineString", "coordinates": [ [ -87.734311603, 31.802732594 ], [ -87.734043501, 31.802847393 ], [ -87.733641006, 31.8029164 ], [ -87.733211003, 31.802320994 ], [ -87.733049907, 31.802206598 ], [ -87.732995905, 31.801931597 ], [ -87.732888505, 31.801886 ], [ -87.732888401, 31.801771395 ], [ -87.732780904, 31.801702693 ], [ -87.732619107, 31.801015295 ], [ -87.732377, 31.800465599 ] ] } },
{ "type": "Feature", "properties": { "site_no": "02470072", "nhdplus_comid": "21638498", "navigation_mode": "DM", "requested_distance_km": 12.0, "start_source": "nwissite", "start_id": "USGS-02470072", "geometry_length_km": 1.2392047276957507 }, "geometry": { "type": "LineString", "coordinates": [ [ -87.732377, 31.800465599 ], [ -87.731892504, 31.799182698 ], [ -87.731731206, 31.798861995 ], [ -87.731300406, 31.797670797 ], [ -87.729228601, 31.792608298 ], [ -87.728878707, 31.791668996 ], [ -87.728556305, 31.791188098 ], [ -87.728314005, 31.790432096 ], [ -87.728366904, 31.7899279 ] ] } },
{ "type": "Feature", "properties": { "site_no": "02470072", "nhdplus_comid": "21638552", "navigation_mode": "DM", "requested_distance_km": 12.0, "start_source": "nwissite", "start_id": "USGS-02470072", "geometry_length_km": 1.9015898833028828 }, "geometry": { "type": "LineString", "coordinates": [ [ -87.728366904, 31.7899279 ], [ -87.728688203, 31.789331794 ], [ -87.728768207, 31.788873494 ], [ -87.728659503, 31.787681997 ], [ -87.728444606, 31.787452996 ], [ -87.728417605, 31.787269697 ], [ -87.728337102, 31.787223995 ], [ -87.728283204, 31.786994897 ], [ -87.728281707, 31.785780296 ], [ -87.728442304, 31.785390593 ], [ -87.728468306, 31.784748897 ], [ -87.728387505, 31.784382395 ], [ -87.727742702, 31.783603795 ], [ -87.726990804, 31.782916896 ], [ -87.726560704, 31.782229893 ], [ -87.726210907, 31.781267695 ], [ -87.725217402, 31.780420594 ], [ -87.725109801, 31.780076995 ], [ -87.724921905, 31.779939599 ], [ -87.724224105, 31.779733896 ], [ -87.723848306, 31.779482096 ], [ -87.7236332, 31.779046893 ], [ -87.723604605, 31.777419999 ], [ -87.723496601, 31.776778497 ], [ -87.723120004, 31.775793396 ], [ -87.722797804, 31.775426894 ], [ -87.722770706, 31.7752437 ], [ -87.722448401, 31.774900094 ] ] } },
{ "type": "Feature", "properties": { "site_no": "02470072", "nhdplus_comid": "21639386", "navigation_mode": "DM", "requested_distance_km": 12.0, "start_source": "nwissite", "start_id": "USGS-02470072", "geometry_length_km": 3.6814752804710174 }, "geometry": { "type": "LineString", "coordinates": [ [ -87.722448401, 31.774900094 ], [ -87.722259805, 31.7740753 ], [ -87.722044602, 31.773525596 ], [ -87.721775204, 31.772379994 ], [ -87.721237801, 31.771555394 ], [ -87.721049406, 31.771028496 ], [ -87.720995106, 31.7704098 ], [ -87.720887601, 31.770180695 ], [ -87.720805407, 31.768553793 ], [ -87.720617302, 31.768256098 ], [ -87.719059803, 31.766561493 ], [ -87.719112806, 31.765851095 ], [ -87.718951501, 31.7655304 ], [ -87.718146503, 31.765141495 ], [ -87.717126906, 31.764867194 ], [ -87.715034105, 31.764112495 ], [ -87.714363001, 31.763562895 ], [ -87.713638, 31.762669697 ], [ -87.713423401, 31.762646899 ], [ -87.712994501, 31.7628306 ], [ -87.712538503, 31.762830898 ], [ -87.712243102, 31.762441494 ], [ -87.712215707, 31.761822894 ], [ -87.712536603, 31.760814399 ], [ -87.7125092, 31.7602873 ], [ -87.712213904, 31.7600355 ], [ -87.711087205, 31.759646595 ], [ -87.710416302, 31.759326294 ], [ -87.709745407, 31.758845493 ], [ -87.709637903, 31.758639298 ], [ -87.709690705, 31.757699698 ], [ -87.70961, 31.757424794 ], [ -87.709127001, 31.757218897 ], [ -87.708858602, 31.757012799 ], [ -87.708617002, 31.756669298 ], [ -87.708589405, 31.755890198 ], [ -87.709097005, 31.753758699 ], [ -87.709096007, 31.752750397 ], [ -87.709176406, 31.752612896 ], [ -87.709953606, 31.752177 ], [ -87.709953405, 31.751901999 ], [ -87.709711701, 31.751535498 ], [ -87.709631003, 31.751237698 ], [ -87.709281802, 31.750642098 ], [ -87.707645707, 31.750391096 ], [ -87.707195602, 31.750173993 ] ] } }
]
}
