{
"type": "FeatureCollection",
"name": "USGS_02374000_DM_12km",
"crs": { "type": "name", "properties": { "name": "urn:ogc:def:crs:OGC:1.3:CRS84" } },
"features": [
{ "type": "Feature", "properties": { "site_no": "02374000", "nhdplus_comid": "2411086", "navigation_mode": "DM", "requested_distance_km": 12.0, "start_source": "nwissite", "start_id": "USGS-02374000", "geometry_length_km": 3.5217201551976141 }, "geometry": { "type": "LineString", "coordinates": [ [ -86.799390979, 31.163729882 ], [ -86.800623201, 31.1617525 ], [ -86.801262505, 31.160035297 ], [ -86.801404804, 31.158782698 ], [ -86.801239707, 31.157630995 ], [ -86.800871007, 31.156968199 ], [ -86.799679503, 31.155731395 ], [ -86.796095006, 31.153410897 ], [ -86.794638902, 31.151899099 ], [ -86.793915905, 31.150448196 ], [ -86.793869004, 31.1495592 ], [ -86.793486103, 31.149021596 ], [ -86.793557405, 31.1483953 ], [ -86.793203004, 31.1476072 ], [ -86.7929627, 31.145816997 ], [ -86.793143801, 31.142923698 ], [ -86.792936102, 31.142147794 ], [ -86.793624006, 31.137399897 ], [ -86.794249006, 31.135807894 ], [ -86.794731505, 31.135468595 ] ] } },
{ "type": "Feature", "properties": { "site_no": "02374000", "nhdplus_comid": "2411096", "navigation_mode": "DM", "requested_distance_km": 12.0, "start_source": "nwissite", "start_id": "USGS-02374000", "geometry_length_km": 0.074013557051380949 }, "geometry": { "type": "LineString", "coordinates": [ [ -86.794731505, 31.135468595 ], [ -86.795450203, 31.1352126 ] ] } },
{ "type": "Feature", "properties": { "site_no": "02374000", "nhdplus_comid": "2411098", "navigation_mode": "DM", "requested_distance_km": 12.0, "start_source": "nwissite", "start_id": "USGS-02374000", "geometry_length_km": 0.29156304723857135 }, "geometry": { "type": "LineString", "coordinates": [ [ -86.795450203, 31.1352126 ], [ -86.797393605, 31.135517895 ], [ -86.798464507, 31.135697499 ] ] } },
{ "type": "Feature", "properties": { "site_no": "02374000", "nhdplus_comid": "2411092", "navigation_mode": "DM", "requested_distance_km": 12.0, "start_source": "nwissite", "start_id": "USGS-02374000", "geometry_length_km": 1.9893971624444098 }, "geometry": { "type": "LineString", "coordinates": [ [ -86.798464507, 31.135697499 ], [ -86.799116001, 31.135831393 ], [ -86.800420202, 31.1361937 ], [ -86.801536001, 31.136792094 ], [ -86.805445805, 31.140151195 ], [ -86.807573803, 31.140959799 ], [ -86.810051806, 31.141291693 ], [ -86.817240402, 31.1411919 ] ] } },
{ "type": "Feature", "properties": { "site_no": "02374000", "nhdplus_comid": "2411108", "navigation_mode": "DM", "requested_distance_km": 12.0, "start_source": "nwissite", "start_id": "USGS-02374000", "geometry_length_km": 0.86264642453232532 }, "geometry": { "type": "LineString", "coordinates": [ [ -86.817240402, 31.1411919 ], [ -86.818299904, 31.140331298 ], [ -86.8184136, 31.139329098 ], [ -86.816995405, 31.136176996 ], [ -86.817109004, 31.135174796 ], [ -86.817596301, 31.134140395 ] ] } },
{ "type": "Feature", "properties": { "site_no": "02374000", "nhdplus_comid": "2411118", "navigation_mode": "DM", "requested_distance_km": 12.0, "start_source": "nwissite", "start_id": "USGS-02374000", "geometry_length_km": 0.70500090286454797 }, "geometry": { "type": "LineString", "coordinates": [ [ -86.817596301, 31.134140395 ], [ -86.818741001, 31.132528096 ], [ -86.819559105, 31.131837197 ], [ -86.821772203, 31.131894 ], [ -86.823299505, 31.132779099 ] ] } },
{ "type": "Feature", "properties": { "site_no": "02374000", "nhdplus_comid": "2411114", "navigation_mode": "DM", "requested_distance_km": 12.0, "start_source": "nwissite", "start_id": "USGS-02374000", "geometry_length_km": 1.0111892572684833 }, "geometry": { "type": "LineString", "coordinates": [ [ -86.823299505, 31.132779099 ], [ -86.823814906, 31.133453995 ], [ -86.823701307, 31.134456195 ], [ -86.824145705, 31.135757394 ], [ -86.8249401, 31.136581793 ], [ -86.825909503, 31.137167796 ], [ -86.827479504, 31.137677096 ], [ -86.830236606, 31.138157994 ] ] } },
{ "type": "Feature", "properties": { "site_no": "02374000", "nhdplus_comid": "2411112", "navigation_mode": "DM", "requested_distance_km": 12.0, "start_source": "nwissite", "start_id": "USGS-02374000", "geometry_length_km": 2.0304906466536683 }, "geometry": { "type": "LineString", "coordinates": [ [ -86.830236606, 31.138157994 ], [ -86.8326957, 31.137349799 ], [ -86.835977703, 31.137115397 ], [ -86.837424703, 31.136096999 ], [ -86.838975705, 31.135466494 ], [ -86.840001903, 31.135551296 ], [ -86.841572002, 31.136060297 ], [ -86.844802201, 31.137591496 ], [ -86.848188207, 31.137744598 ], [ -86.849848405, 31.138766795 ] ] } },
{ "type": "Feature", "properties": { "site_no": "02374000", "nhdplus_comid": "2411104", "navigation_mode": "DM", "requested_distance_km": 12.0, "start_source": "nwissite", "start_id": "USGS-02374000", "geometry_length_km": 0.23571600669143983 }, "geometry": { "type": "LineString", "coordinates": [ [ -86.849848405, 31.138766795 ], [ -86.851489305, 31.1386493 ], [ -86.852132402, 31.138196595 ] ] } },
{ "type": "Feature", "properties": { "site_no": "02374000", "nhdplus_comid": "2411122", "navigation_mode": "DM", "requested_distance_km": 12.0, "start_source": "nwissite", "start_id": "USGS-02374000", "geometry_length_km": 1.7002209410256943 }, "geometry": { "type": "LineString", "coordinates": [ [ -86.852132402, 31.138196595 ], [ -86.852936201, 31.137630694 ], [ -86.854335502, 31.135723099 ], [ -86.854722701, 31.133605495 ], [ -86.853809707, 31.132518597 ], [ -86.851946406, 31.131985597 ], [ -86.850489601, 31.130474493 ], [ -86.850030705, 31.129298598 ], [ -86.849633403, 31.128886499 ], [ -86.848942906, 31.1284502 ], [ -86.847372904, 31.127941199 ], [ -86.846417606, 31.127230093 ] ] } }
]
}
