{
"type": "FeatureCollection",
"name": "USGS_03592200_DM_12km",
"crs": { "type": "name", "properties": { "name": "urn:ogc:def:crs:OGC:1.3:CRS84" } },
"features": [
{ "type": "Feature", "properties": { "site_no": "03592200", "nhdplus_comid": "19567666", "navigation_mode": "DM", "requested_distance_km": 12.0, "start_source": "nwissite", "start_id": "USGS-03592200", "geometry_length_km": 2.6787434253589497 }, "geometry": { "type": "LineString", "coordinates": [ [ -88.018807295, 34.548907763 ], [ -88.0187442, 34.5488462 ], [ -88.017997503, 34.5483189 ], [ -88.017804101, 34.547997996 ], [ -88.016976304, 34.545867294 ], [ -88.016865805, 34.545729697 ], [ -88.016700402, 34.545202799 ], [ -88.016646206, 34.544263698 ], [ -88.016536504, 34.543553598 ], [ -88.016343005, 34.543301493 ], [ -88.016343705, 34.5427747 ], [ -88.016454801, 34.542477094 ], [ -88.016704507, 34.542087898 ], [ -88.017092407, 34.541698895 ], [ -88.017480202, 34.541493095 ], [ -88.018532105, 34.5414024 ], [ -88.0190024, 34.541563198 ], [ -88.0195003, 34.541884199 ], [ -88.019804306, 34.542205095 ], [ -88.019914702, 34.542479999 ], [ -88.020163305, 34.542823896 ], [ -88.020440005, 34.542961493 ], [ -88.021463804, 34.543260098 ], [ -88.024231106, 34.543720394 ], [ -88.025338002, 34.544041999 ], [ -88.028631404, 34.544342399 ], [ -88.031787001, 34.544344895 ], [ -88.0331707, 34.544437498 ], [ -88.034305401, 34.544690296 ], [ -88.035218507, 34.544988699 ], [ -88.035384402, 34.5451492 ] ] } },
{ "type": "Feature", "properties": { "site_no": "03592200", "nhdplus_comid": "19567648", "navigation_mode": "DM", "requested_distance_km": 12.0, "start_source": "nwissite", "start_id": "USGS-03592200", "geometry_length_km": 0.55286445215295688 }, "geometry": { "type": "LineString", "coordinates": [ [ -88.035384402, 34.5451492 ], [ -88.035550505, 34.545149297 ], [ -88.037016705, 34.545883194 ], [ -88.037708603, 34.546043999 ], [ -88.038123704, 34.546090193 ], [ -88.040754303, 34.54513 ], [ -88.040837504, 34.545015499 ] ] } },
{ "type": "Feature", "properties": { "site_no": "03592200", "nhdplus_comid": "19567654", "navigation_mode": "DM", "requested_distance_km": 12.0, "start_source": "nwissite", "start_id": "USGS-03592200", "geometry_length_km": 0.84306056852922528 }, "geometry": { "type": "LineString", "coordinates": [ [ -88.040837504, 34.545015499 ], [ -88.0411973, 34.544992894 ], [ -88.044547707, 34.543849997 ], [ -88.045655206, 34.543415599 ], [ -88.046734907, 34.543210097 ], [ -88.047952905, 34.543027699 ], [ -88.048534006, 34.543188296 ], [ -88.049198002, 34.543600999 ], [ -88.049280904, 34.543784298 ] ] } },
{ "type": "Feature", "properties": { "site_no": "03592200", "nhdplus_comid": "19567652", "navigation_mode": "DM", "requested_distance_km": 12.0, "start_source": "nwissite", "start_id": "USGS-03592200", "geometry_length_km": 0.2227442274716111 }, "geometry": { "type": "LineString", "coordinates": [ [ -88.049280904, 34.543784298 ], [ -88.049585201, 34.543876097 ], [ -88.050027803, 34.544174097 ], [ -88.050276801, 34.544242896 ], [ -88.051550306, 34.544106297 ] ] } },
{ "type": "Feature", "properties": { "site_no": "03592200", "nhdplus_comid": "19567694", "navigation_mode": "DM", "requested_distance_km": 12.0, "start_source": "nwissite", "start_id": "USGS-03592200", "geometry_length_km": 2.4938413772945069 }, "geometry": { "type": "LineString", "coordinates": [ [ -88.051550306, 34.544106297 ], [ -88.051993206, 34.544129394 ], [ -88.053377301, 34.543901198 ], [ -88.055204503, 34.543467097 ], [ -88.056118101, 34.543169893 ], [ -88.056699604, 34.542918295 ], [ -88.057004303, 34.542666495 ], [ -88.057281405, 34.542231396 ], [ -88.057364702, 34.541933797 ], [ -88.0574755, 34.541704796 ], [ -88.058279507, 34.540124893 ], [ -88.058473602, 34.539643995 ], [ -88.058585003, 34.5386592 ], [ -88.058668204, 34.538430199 ], [ -88.058807604, 34.537308097 ], [ -88.059057601, 34.536071397 ], [ -88.059140906, 34.535705 ], [ -88.059252903, 34.534055993 ], [ -88.059363902, 34.533597998 ], [ -88.0594474, 34.533071294 ], [ -88.059530601, 34.532910995 ], [ -88.059531704, 34.531445093 ], [ -88.059421204, 34.531101495 ], [ -88.059338301, 34.531032793 ], [ -88.059283204, 34.530689195 ], [ -88.059145004, 34.530505896 ], [ -88.059145704, 34.529543996 ], [ -88.059312105, 34.529108897 ], [ -88.059395403, 34.528650895 ], [ -88.059672907, 34.527734898 ], [ -88.059840202, 34.526085898 ], [ -88.060034402, 34.525582097 ] ] } },
{ "type": "Feature", "properties": { "site_no": "03592200", "nhdplus_comid": "19567704", "navigation_mode": "DM", "requested_distance_km": 12.0, "start_source": "nwissite", "start_id": "USGS-03592200", "geometry_length_km": 1.5944954638873752 }, "geometry": { "type": "LineString", "coordinates": [ [ -88.060034402, 34.525582097 ], [ -88.060698703, 34.5252847 ], [ -88.061113901, 34.525170393 ], [ -88.061695002, 34.525170796 ], [ -88.062276103, 34.525262699 ], [ -88.062829405, 34.525468998 ], [ -88.063133605, 34.525743999 ], [ -88.063327007, 34.526248097 ], [ -88.063409403, 34.526980996 ], [ -88.063519806, 34.527393296 ], [ -88.063685603, 34.527759798 ], [ -88.064155802, 34.528149396 ], [ -88.064847402, 34.528401695 ], [ -88.066065006, 34.528654195 ], [ -88.066673502, 34.528906494 ], [ -88.067116201, 34.529135697 ], [ -88.067337401, 34.529341996 ], [ -88.067586303, 34.529616997 ], [ -88.067586303, 34.529731393 ], [ -88.067696907, 34.529868998 ], [ -88.067724302, 34.530258298 ], [ -88.0674472, 34.530784994 ], [ -88.066533007, 34.532227397 ], [ -88.066532306, 34.533166498 ], [ -88.066891603, 34.533945397 ], [ -88.067333907, 34.534632698 ], [ -88.067389101, 34.5348159 ] ] } },
{ "type": "Feature", "properties": { "site_no": "03592200", "nhdplus_comid": "19567678", "navigation_mode": "DM", "requested_distance_km": 12.0, "start_source": "nwissite", "start_id": "USGS-03592200", "geometry_length_km": 0.97736793286184143 }, "geometry": { "type": "LineString", "coordinates": [ [ -88.067389101, 34.5348159 ], [ -88.068080604, 34.535480499 ], [ -88.0689383, 34.535938896 ], [ -88.069491602, 34.536076598 ], [ -88.070211306, 34.536077 ], [ -88.071373902, 34.535710998 ], [ -88.073118001, 34.5349788 ], [ -88.073948406, 34.534727193 ], [ -88.075692005, 34.534636296 ], [ -88.077186607, 34.534568198 ] ] } },
{ "type": "Feature", "properties": { "site_no": "03592200", "nhdplus_comid": "19567680", "navigation_mode": "DM", "requested_distance_km": 12.0, "start_source": "nwissite", "start_id": "USGS-03592200", "geometry_length_km": 2.1361195809651132 }, "geometry": { "type": "LineString", "coordinates": [ [ -88.077186607, 34.534568198 ], [ -88.077823207, 34.534591399 ], [ -88.078459606, 34.534774795 ], [ -88.078902304, 34.534981094 ], [ -88.079566203, 34.535645597 ], [ -88.079787403, 34.535943396 ], [ -88.079842605, 34.536218293 ], [ -88.079953201, 34.536470294 ], [ -88.080063105, 34.537752897 ], [ -88.080007702, 34.537936099 ], [ -88.079868503, 34.539470494 ], [ -88.079951502, 34.5395393 ], [ -88.079979002, 34.539768293 ], [ -88.080145001, 34.5399516 ], [ -88.080144905, 34.540088996 ], [ -88.080559805, 34.540593095 ], [ -88.0808364, 34.540822193 ], [ -88.082247801, 34.541280799 ], [ -88.083160907, 34.542059794 ], [ -88.083852701, 34.542311899 ], [ -88.085209005, 34.542197898 ], [ -88.086316302, 34.541900493 ], [ -88.087285005, 34.541877896 ], [ -88.088226005, 34.542084396 ], [ -88.088917807, 34.5423823 ], [ -88.089194506, 34.542588495 ], [ -88.089554407, 34.542657293 ], [ -88.090163305, 34.5425888 ], [ -88.090800002, 34.542199597 ], [ -88.091159903, 34.5419477 ], [ -88.093263805, 34.541169599 ] ] } }
]
}
