{
"type": "FeatureCollection",
"name": "USGS_02447025_DM_12km",
"crs": { "type": "name", "properties": { "name": "urn:ogc:def:crs:OGC:1.3:CRS84" } },
"features": [
{ "type": "Feature", "properties": { "site_no": "02447025", "nhdplus_comid": "18634038", "navigation_mode": "DM", "requested_distance_km": 12.0, "start_source": "nwissite", "start_id": "USGS-02447025", "geometry_length_km": 2.3693962849555543 }, "geometry": { "type": "LineString", "coordinates": [ [ -88.156846558, 32.84854854 ], [ -88.157374807, 32.847559996 ], [ -88.158772804, 32.845641993 ], [ -88.162406206, 32.842493095 ], [ -88.163641602, 32.840689696 ], [ -88.165988505, 32.838333294 ], [ -88.167112306, 32.837655395 ], [ -88.168511301, 32.837248094 ], [ -88.171846904, 32.837100096 ], [ -88.175545603, 32.837858394 ], [ -88.175571002, 32.837896094 ] ] } },
{ "type": "Feature", "properties": { "site_no": "02447025", "nhdplus_comid": "18634248", "navigation_mode": "DM", "requested_distance_km": 12.0, "start_source": "nwissite", "start_id": "USGS-02447025", "geometry_length_km": 1.5625807042532989 }, "geometry": { "type": "LineString", "coordinates": [ [ -88.175571002, 32.837896094 ], [ -88.175989404, 32.837984599 ], [ -88.178360805, 32.838147797 ], [ -88.179401502, 32.837714098 ], [ -88.180271007, 32.837209195 ], [ -88.181125604, 32.836495198 ], [ -88.181711607, 32.835614197 ], [ -88.181837402, 32.834701493 ], [ -88.181352004, 32.833122596 ], [ -88.180663601, 32.831797197 ], [ -88.180075802, 32.830894798 ], [ -88.179180801, 32.829495795 ], [ -88.1784347, 32.828488499 ] ] } },
{ "type": "Feature", "properties": { "site_no": "02447025", "nhdplus_comid": "18634046", "navigation_mode": "DM", "requested_distance_km": 12.0, "start_source": "nwissite", "start_id": "USGS-02447025", "geometry_length_km": 0.53177052476586084 }, "geometry": { "type": "LineString", "coordinates": [ [ -88.1784347, 32.828488499 ], [ -88.177535206, 32.8284266 ], [ -88.176085606, 32.827823199 ], [ -88.172974505, 32.827231295 ] ] } },
{ "type": "Feature", "properties": { "site_no": "02447025", "nhdplus_comid": "18634054", "navigation_mode": "DM", "requested_distance_km": 12.0, "start_source": "nwissite", "start_id": "USGS-02447025", "geometry_length_km": 2.7511914085336895 }, "geometry": { "type": "LineString", "coordinates": [ [ -88.172974505, 32.827231295 ], [ -88.171163201, 32.827232495 ], [ -88.169477001, 32.827493995 ], [ -88.167766102, 32.828005694 ], [ -88.163033307, 32.830071695 ], [ -88.161234304, 32.829947598 ], [ -88.159721605, 32.828458294 ], [ -88.158145905, 32.826083295 ], [ -88.157320805, 32.825270899 ], [ -88.156321101, 32.824698299 ], [ -88.154272005, 32.824053295 ], [ -88.150524504, 32.823794499 ], [ -88.148688406, 32.824045397 ], [ -88.147726901, 32.824608497 ] ] } },
{ "type": "Feature", "properties": { "site_no": "02447025", "nhdplus_comid": "18634050", "navigation_mode": "DM", "requested_distance_km": 12.0, "start_source": "nwissite", "start_id": "USGS-02447025", "geometry_length_km": 0.58824153642107024 }, "geometry": { "type": "LineString", "coordinates": [ [ -88.147726901, 32.824608497 ], [ -88.147402301, 32.824837893 ], [ -88.146466501, 32.8266619 ], [ -88.145606101, 32.829246499 ], [ -88.145581305, 32.8294966 ] ] } },
{ "type": "Feature", "properties": { "site_no": "02447025", "nhdplus_comid": "18634042", "navigation_mode": "DM", "requested_distance_km": 12.0, "start_source": "nwissite", "start_id": "USGS-02447025", "geometry_length_km": 1.3426090758583136 }, "geometry": { "type": "LineString", "coordinates": [ [ -88.145581305, 32.8294966 ], [ -88.144520402, 32.831060097 ], [ -88.140024506, 32.833771199 ], [ -88.1380134, 32.834261596 ], [ -88.136214405, 32.834137194 ], [ -88.134615004, 32.833522893 ], [ -88.133553103, 32.833575293 ] ] } },
{ "type": "Feature", "properties": { "site_no": "02447025", "nhdplus_comid": "18634060", "navigation_mode": "DM", "requested_distance_km": 12.0, "start_source": "nwissite", "start_id": "USGS-02447025", "geometry_length_km": 1.9840844982460044 }, "geometry": { "type": "LineString", "coordinates": [ [ -88.133553103, 32.833575293 ], [ -88.129691407, 32.829908498 ], [ -88.126067102, 32.825376496 ], [ -88.123992406, 32.821958996 ], [ -88.123567201, 32.820166796 ], [ -88.122829705, 32.818478793 ] ] } },
{ "type": "Feature", "properties": { "site_no": "02447025", "nhdplus_comid": "18634066", "navigation_mode": "DM", "requested_distance_km": 12.0, "start_source": "nwissite", "start_id": "USGS-02447025", "geometry_length_km": 2.8698907386336869 }, "geometry": { "type": "LineString", "coordinates": [ [ -88.122829705, 32.818478793 ], [ -88.121555001, 32.816124 ], [ -88.117744602, 32.811956398 ], [ -88.115508601, 32.810164399 ], [ -88.110949606, 32.807455599 ], [ -88.109151103, 32.805819698 ], [ -88.107065104, 32.802526794 ], [ -88.105322704, 32.798061594 ] ] } }
]
}
