{
"type": "FeatureCollection",
"name": "USGS_02401895_UM_12km",
"crs": { "type": "name", "properties": { "name": "urn:ogc:def:crs:OGC:1.3:CRS84" } },
"features": [
{ "type": "Feature", "properties": { "site_no": "02401895", "nhdplus_comid": "22201495", "navigation_mode": "UM", "requested_distance_km": 12.0, "start_source": "nwissite", "start_id": "USGS-02401895", "geometry_length_km": 0.099016361901760691 }, "geometry": { "type": "LineString", "coordinates": [ [ -85.997532606, 33.780317098 ], [ -85.998609002, 33.780292078 ] ] } },
{ "type": "Feature", "properties": { "site_no": "02401895", "nhdplus_comid": "22201489", "navigation_mode": "UM", "requested_distance_km": 12.0, "start_source": "nwissite", "start_id": "USGS-02401895", "geometry_length_km": 1.0974683152496976 }, "geometry": { "type": "LineString", "coordinates": [ [ -85.999970302, 33.788607799 ], [ -85.999876305, 33.788606994 ], [ -85.999601401, 33.788263693 ], [ -85.999601305, 33.788126297 ], [ -85.998667002, 33.787050597 ], [ -85.998473607, 33.786111593 ], [ -85.998033404, 33.785264499 ], [ -85.996550202, 33.7838917 ], [ -85.996330202, 33.783525296 ], [ -85.996384203, 33.782952495 ], [ -85.996877603, 33.782745898 ], [ -85.996931702, 33.782173194 ], [ -85.996821605, 33.781944193 ], [ -85.996710703, 33.781119697 ], [ -85.996929601, 33.780730098 ], [ -85.997532606, 33.780317098 ] ] } },
{ "type": "Feature", "properties": { "site_no": "02401895", "nhdplus_comid": "22202491", "navigation_mode": "UM", "requested_distance_km": 12.0, "start_source": "nwissite", "start_id": "USGS-02401895", "geometry_length_km": 0.038311284395928256 }, "geometry": { "type": "LineString", "coordinates": [ [ -85.999970302, 33.788950697 ], [ -85.999970302, 33.788607799 ] ] } },
{ "type": "Feature", "properties": { "site_no": "02401895", "nhdplus_comid": "22201445", "navigation_mode": "UM", "requested_distance_km": 12.0, "start_source": "nwissite", "start_id": "USGS-02401895", "geometry_length_km": 0.45381352280853926 }, "geometry": { "type": "LineString", "coordinates": [ [ -85.999970302, 33.792429194 ], [ -85.999552101, 33.792040199 ], [ -85.9989198, 33.791171193 ], [ -85.999001004, 33.790484995 ], [ -85.9998779, 33.789774895 ], [ -85.999970302, 33.788950697 ] ] } },
{ "type": "Feature", "properties": { "site_no": "02401895", "nhdplus_comid": "22203549", "navigation_mode": "UM", "requested_distance_km": 12.0, "start_source": "nwissite", "start_id": "USGS-02401895", "geometry_length_km": 0.11730435636938216 }, "geometry": { "type": "LineString", "coordinates": [ [ -86.001075506, 33.792953797 ], [ -85.999970302, 33.792429194 ] ] } },
{ "type": "Feature", "properties": { "site_no": "02401895", "nhdplus_comid": "22203545", "navigation_mode": "UM", "requested_distance_km": 12.0, "start_source": "nwissite", "start_id": "USGS-02401895", "geometry_length_km": 0.48160891286381546 }, "geometry": { "type": "LineString", "coordinates": [ [ -85.999970302, 33.7960485 ], [ -86.000906907, 33.795659594 ], [ -86.001511104, 33.795247093 ], [ -86.002116002, 33.794443898 ], [ -86.002144106, 33.793939598 ], [ -86.002034701, 33.793664597 ], [ -86.001075506, 33.792953797 ] ] } },
{ "type": "Feature", "properties": { "site_no": "02401895", "nhdplus_comid": "22201431", "navigation_mode": "UM", "requested_distance_km": 12.0, "start_source": "nwissite", "start_id": "USGS-02401895", "geometry_length_km": 0.85186850752108301 }, "geometry": { "type": "LineString", "coordinates": [ [ -85.992501207, 33.792073295 ], [ -85.992857903, 33.792095795 ], [ -85.993928805, 33.7927358 ], [ -85.995465904, 33.793329097 ], [ -85.996975504, 33.793693095 ], [ -85.999365702, 33.7960262 ], [ -85.999970302, 33.7960485 ] ] } },
{ "type": "Feature", "properties": { "site_no": "02401895", "nhdplus_comid": "22201433", "navigation_mode": "UM", "requested_distance_km": 12.0, "start_source": "nwissite", "start_id": "USGS-02401895", "geometry_length_km": 4.7274523645126898 }, "geometry": { "type": "LineString", "coordinates": [ [ -85.964511104, 33.8125984 ], [ -85.964703202, 33.812621094 ], [ -85.965389006, 33.812368594 ], [ -85.965717204, 33.811406396 ], [ -85.9660739, 33.811291598 ], [ -85.966650806, 33.811840899 ], [ -85.967144802, 33.811909199 ], [ -85.967227004, 33.8118634 ], [ -85.967309006, 33.811473899 ], [ -85.96621, 33.810283497 ], [ -85.966182202, 33.809848294 ], [ -85.966868006, 33.809733294 ], [ -85.967032202, 33.8093208 ], [ -85.966866806, 33.808633797 ], [ -85.9671131, 33.807900496 ], [ -85.967688806, 33.807419196 ], [ -85.967990704, 33.807418898 ], [ -85.968567103, 33.807578795 ], [ -85.968978502, 33.807372294 ], [ -85.969609104, 33.806867898 ], [ -85.970211104, 33.805470094 ], [ -85.970483705, 33.803728998 ], [ -85.970949702, 33.8034079 ], [ -85.971223705, 33.803018294 ], [ -85.9713879, 33.802582994 ], [ -85.971881405, 33.802238993 ], [ -85.972814202, 33.8021008 ], [ -85.974048503, 33.8017333 ], [ -85.974377006, 33.801137395 ], [ -85.974788301, 33.800862193 ], [ -85.975364402, 33.800793 ], [ -85.975912802, 33.800471894 ], [ -85.976570301, 33.799692594 ], [ -85.977091305, 33.799485996 ], [ -85.978160605, 33.798797898 ], [ -85.9788462, 33.7985911 ], [ -85.979696304, 33.798109397 ], [ -85.981068105, 33.798108198 ], [ -85.983619206, 33.797739498 ], [ -85.9836464, 33.797418699 ], [ -85.983234502, 33.797258697 ], [ -85.982027203, 33.7971453 ], [ -85.980490506, 33.796871699 ], [ -85.980325706, 33.796757296 ], [ -85.980270304, 33.7963451 ], [ -85.980379701, 33.796070099 ], [ -85.981311604, 33.795244597 ], [ -85.9823808, 33.794648096 ], [ -85.983423002, 33.794372298 ], [ -85.985397905, 33.794026896 ], [ -85.987399906, 33.7933608 ], [ -85.988085702, 33.793291494 ], [ -85.988415003, 33.793382898 ], [ -85.989210702, 33.793427899 ], [ -85.990527302, 33.793174699 ], [ -85.9911028, 33.7927159 ], [ -85.991486207, 33.792142995 ], [ -85.991787702, 33.791982397 ], [ -85.9923364, 33.791981794 ], [ -85.992501207, 33.792073295 ] ] } },
{ "type": "Feature", "properties": { "site_no": "02401895", "nhdplus_comid": "22201351", "navigation_mode": "UM", "requested_distance_km": 12.0, "start_source": "nwissite", "start_id": "USGS-02401895", "geometry_length_km": 0.79298194695216018 }, "geometry": { "type": "LineString", "coordinates": [ [ -85.9617441, 33.817158796 ], [ -85.961633004, 33.815922 ], [ -85.961330801, 33.8156472 ], [ -85.960644603, 33.815441594 ], [ -85.960671902, 33.815258294 ], [ -85.961713605, 33.814158 ], [ -85.962124906, 33.813905694 ], [ -85.9623162, 33.813058093 ], [ -85.963632807, 33.812392794 ], [ -85.964511104, 33.8125984 ] ] } },
{ "type": "Feature", "properties": { "site_no": "02401895", "nhdplus_comid": "22201329", "navigation_mode": "UM", "requested_distance_km": 12.0, "start_source": "nwissite", "start_id": "USGS-02401895", "geometry_length_km": 1.139182169637647 }, "geometry": { "type": "LineString", "coordinates": [ [ -85.957029901, 33.823552899 ], [ -85.957331501, 33.823231995 ], [ -85.957358703, 33.822934195 ], [ -85.957221307, 33.822796896 ], [ -85.956315704, 33.822866194 ], [ -85.956095904, 33.822728895 ], [ -85.956123203, 33.822408199 ], [ -85.956232801, 33.8222019 ], [ -85.9566442, 33.821972594 ], [ -85.957165502, 33.821880594 ], [ -85.957632206, 33.822063595 ], [ -85.958483003, 33.822085999 ], [ -85.959059104, 33.8217877 ], [ -85.959141202, 33.821512796 ], [ -85.959936507, 33.820939593 ], [ -85.960813604, 33.819862396 ], [ -85.9617441, 33.817158796 ] ] } },
{ "type": "Feature", "properties": { "site_no": "02401895", "nhdplus_comid": "22201291", "navigation_mode": "UM", "requested_distance_km": 12.0, "start_source": "nwissite", "start_id": "USGS-02401895", "geometry_length_km": 4.8223490110089342 }, "geometry": { "type": "LineString", "coordinates": [ [ -85.937944703, 33.846859895 ], [ -85.938383803, 33.846790999 ], [ -85.938603304, 33.846584797 ], [ -85.939344406, 33.846309498 ], [ -85.940112703, 33.845850997 ], [ -85.941759802, 33.845895797 ], [ -85.942089006, 33.845597893 ], [ -85.942060106, 33.843536399 ], [ -85.942224406, 33.843009494 ], [ -85.9426907, 33.842642695 ], [ -85.943569005, 33.842435993 ], [ -85.944145307, 33.842206694 ], [ -85.944584101, 33.841587998 ], [ -85.9445289, 33.841290198 ], [ -85.944226801, 33.841038398 ], [ -85.944226407, 33.840671897 ], [ -85.944665305, 33.840190597 ], [ -85.944774806, 33.839801095 ], [ -85.945323505, 33.839388393 ], [ -85.9452684, 33.839067794 ], [ -85.944609001, 33.838381 ], [ -85.944581203, 33.8379687 ], [ -85.944690801, 33.837739594 ], [ -85.945733503, 33.837212197 ], [ -85.946172401, 33.836799599 ], [ -85.946501702, 33.836707793 ], [ -85.946639106, 33.8368681 ], [ -85.946776904, 33.837578095 ], [ -85.947353601, 33.837852597 ], [ -85.947655402, 33.837806694 ], [ -85.94782, 33.837554596 ], [ -85.947764605, 33.836936094 ], [ -85.9474895, 33.836248994 ], [ -85.947516501, 33.835745096 ], [ -85.947681002, 33.835584596 ], [ -85.950343505, 33.8355373 ], [ -85.950453304, 33.835468598 ], [ -85.950453006, 33.835124999 ], [ -85.950343102, 33.8349647 ], [ -85.949958704, 33.834735796 ], [ -85.949546807, 33.834690295 ], [ -85.948173806, 33.834049694 ], [ -85.947706901, 33.833683498 ], [ -85.947816506, 33.833385594 ], [ -85.948722206, 33.833316296 ], [ -85.948722005, 33.8330414 ], [ -85.947348505, 33.831759393 ], [ -85.947293304, 33.831415899 ], [ -85.947512701, 33.831140898 ], [ -85.948664807, 33.830384299 ], [ -85.949378505, 33.830360994 ], [ -85.950504102, 33.830772698 ], [ -85.951821901, 33.831046797 ], [ -85.952068701, 33.8308862 ], [ -85.952452302, 33.830107093 ], [ -85.952699102, 33.829877898 ], [ -85.953440003, 33.829694197 ], [ -85.9536594, 33.829556599 ], [ -85.953714103, 33.829235896 ], [ -85.953081906, 33.828205496 ], [ -85.9526968, 33.827243693 ], [ -85.952585705, 33.825731896 ], [ -85.952832304, 33.8252507 ], [ -85.953792706, 33.825020999 ], [ -85.955630407, 33.823782794 ], [ -85.957029901, 33.823552899 ] ] } }
]
}
