{
"type": "FeatureCollection",
"name": "USGS_02401470_DM_12km",
"crs": { "type": "name", "properties": { "name": "urn:ogc:def:crs:OGC:1.3:CRS84" } },
"features": [
{ "type": "Feature", "properties": { "site_no": "02401470", "nhdplus_comid": "22203003", "navigation_mode": "DM", "requested_distance_km": 12.0, "start_source": "nwissite", "start_id": "USGS-02401470", "geometry_length_km": 0.8865957013316742 }, "geometry": { "type": "LineString", "coordinates": [ [ -86.177818261, 33.968720396 ], [ -86.177481905, 33.968179196 ], [ -86.177206606, 33.967469193 ], [ -86.176766403, 33.966850899 ], [ -86.176271304, 33.966438696 ], [ -86.175886303, 33.966278493 ], [ -86.174539104, 33.966072895 ], [ -86.1740444, 33.966256298 ], [ -86.173852004, 33.966439694 ], [ -86.173494704, 33.966531396 ], [ -86.173219703, 33.966348194 ], [ -86.172889404, 33.965684094 ], [ -86.172641903, 33.965500899 ], [ -86.172284506, 33.965500996 ], [ -86.171542503, 33.965982296 ], [ -86.170992702, 33.966074094 ] ] } },
{ "type": "Feature", "properties": { "site_no": "02401470", "nhdplus_comid": "22203093", "navigation_mode": "DM", "requested_distance_km": 12.0, "start_source": "nwissite", "start_id": "USGS-02401470", "geometry_length_km": 5.4000095458627833 }, "geometry": { "type": "LineString", "coordinates": [ [ -86.170992702, 33.966074094 ], [ -86.170690104, 33.9656161 ], [ -86.170661904, 33.964150093 ], [ -86.170551807, 33.9638981 ], [ -86.170304306, 33.963760793 ], [ -86.169919401, 33.963715099 ], [ -86.169342302, 33.964287996 ], [ -86.168710306, 33.964860894 ], [ -86.168243006, 33.9649297 ], [ -86.168215007, 33.963830195 ], [ -86.167967305, 33.963394895 ], [ -86.167609803, 33.963074297 ], [ -86.167279802, 33.962501794 ], [ -86.1672794, 33.961906299 ], [ -86.167553805, 33.960646294 ], [ -86.167635605, 33.959271893 ], [ -86.167442702, 33.958492994 ], [ -86.166232705, 33.957393795 ], [ -86.166150205, 33.957141899 ], [ -86.1662599, 33.956569195 ], [ -86.166479707, 33.956156798 ], [ -86.1672488, 33.955056995 ], [ -86.167248607, 33.954415597 ], [ -86.167110905, 33.954003394 ], [ -86.167110607, 33.953224495 ], [ -86.167247906, 33.9530183 ], [ -86.167247601, 33.952216499 ], [ -86.167137504, 33.9518959 ], [ -86.166862503, 33.951621093 ], [ -86.166284904, 33.950682193 ], [ -86.166146703, 33.949009895 ], [ -86.165569104, 33.947956398 ], [ -86.165431201, 33.946788199 ], [ -86.166117802, 33.945528097 ], [ -86.166172504, 33.945001096 ], [ -86.165869907, 33.944359794 ], [ -86.165979706, 33.9439933 ], [ -86.166199505, 33.943718396 ], [ -86.167326003, 33.9430537 ], [ -86.167628005, 33.942412198 ], [ -86.167655103, 33.941404298 ], [ -86.167407505, 33.940946296 ], [ -86.167352304, 33.940442197 ], [ -86.167599507, 33.9400528 ], [ -86.167516902, 33.9396405 ], [ -86.167324506, 33.939480193 ], [ -86.165510103, 33.938793495 ], [ -86.165180206, 33.938518696 ], [ -86.165070102, 33.9381065 ], [ -86.165124901, 33.937716998 ], [ -86.165893905, 33.936342299 ], [ -86.166031003, 33.935838297 ], [ -86.165975802, 33.935219899 ], [ -86.165343307, 33.934097596 ], [ -86.165343001, 33.933501996 ], [ -86.165452905, 33.933387496 ], [ -86.166607104, 33.933409996 ], [ -86.167074107, 33.9332496 ], [ -86.167074107, 33.932814397 ], [ -86.166799001, 33.932425 ], [ -86.166716404, 33.9321502 ], [ -86.166194007, 33.931577496 ], [ -86.166138902, 33.931279793 ], [ -86.166331202, 33.930913299 ], [ -86.1662485, 33.930546694 ], [ -86.166111104, 33.930271894 ], [ -86.166110806, 33.929722093 ], [ -86.166797504, 33.928920195 ], [ -86.166797206, 33.928301699 ], [ -86.165120803, 33.927912794 ], [ -86.164845802, 33.927660897 ] ] } },
{ "type": "Feature", "properties": { "site_no": "02401470", "nhdplus_comid": "22203099", "navigation_mode": "DM", "requested_distance_km": 12.0, "start_source": "nwissite", "start_id": "USGS-02401470", "geometry_length_km": 0.11820962422587758 }, "geometry": { "type": "LineString", "coordinates": [ [ -86.164845802, 33.927660897 ], [ -86.164845705, 33.927362993 ], [ -86.165175207, 33.926652893 ] ] } },
{ "type": "Feature", "properties": { "site_no": "02401470", "nhdplus_comid": "22203153", "navigation_mode": "DM", "requested_distance_km": 12.0, "start_source": "nwissite", "start_id": "USGS-02401470", "geometry_length_km": 3.8945591498972418 }, "geometry": { "type": "LineString", "coordinates": [ [ -86.165175207, 33.926652893 ], [ -86.163581006, 33.925599597 ], [ -86.1605298, 33.923011899 ], [ -86.1598427, 33.922622599 ], [ -86.157699101, 33.921844296 ], [ -86.156544901, 33.921180293 ], [ -86.156242602, 33.921134494 ], [ -86.155308403, 33.921317898 ], [ -86.154511303, 33.920333095 ], [ -86.154016703, 33.920127094 ], [ -86.153549604, 33.920127198 ], [ -86.1513789, 33.920562893 ], [ -86.150279902, 33.920654699 ], [ -86.149730407, 33.920563094 ], [ -86.149125807, 33.920196794 ], [ -86.1481914, 33.919280596 ], [ -86.146212406, 33.916142598 ], [ -86.146074906, 33.915684499 ], [ -86.146047302, 33.9147911 ], [ -86.146129407, 33.914035194 ], [ -86.146019503, 33.913577095 ], [ -86.1455523, 33.912981495 ], [ -86.144205801, 33.911905095 ], [ -86.143958405, 33.911469795 ], [ -86.1435735, 33.909614496 ], [ -86.143381104, 33.9090188 ], [ -86.142968804, 33.908125497 ], [ -86.1428314, 33.907529898 ], [ -86.142803706, 33.906659499 ], [ -86.143105701, 33.905720294 ], [ -86.143023103, 33.904277094 ], [ -86.142803304, 33.904070996 ], [ -86.142006606, 33.903612897 ], [ -86.141896605, 33.903177693 ] ] } }
]
}
