{
"type": "FeatureCollection",
"name": "USGS_02445000_DM_12km",
"crs": { "type": "name", "properties": { "name": "urn:ogc:def:crs:OGC:1.3:CRS84" } },
"features": [
{ "type": "Feature", "properties": { "site_no": "02445000", "nhdplus_comid": "18630026", "navigation_mode": "DM", "requested_distance_km": 12.0, "start_source": "nwissite", "start_id": "USGS-02445000", "geometry_length_km": 0.28784266101182576 }, "geometry": { "type": "LineString", "coordinates": [ [ -88.081522003, 33.246732995 ], [ -88.081740201, 33.246389396 ], [ -88.082285501, 33.246252097 ], [ -88.082530901, 33.246091798 ], [ -88.082612805, 33.245839797 ], [ -88.0824221, 33.245564893 ], [ -88.082149506, 33.245358594 ], [ -88.081604302, 33.245289795 ], [ -88.0815771, 33.245175198 ] ] } },
{ "type": "Feature", "properties": { "site_no": "02445000", "nhdplus_comid": "18630032", "navigation_mode": "DM", "requested_distance_km": 12.0, "start_source": "nwissite", "start_id": "USGS-02445000", "geometry_length_km": 0.52758479421045068 }, "geometry": { "type": "LineString", "coordinates": [ [ -88.0815771, 33.245175198 ], [ -88.0815771, 33.245014794 ], [ -88.082586005, 33.244694397 ], [ -88.083049603, 33.244373798 ], [ -88.083540507, 33.244076096 ], [ -88.083622307, 33.243915893 ], [ -88.083458804, 33.243824095 ], [ -88.082668103, 33.243846893 ], [ -88.082450107, 33.243800998 ], [ -88.082395606, 33.243526094 ], [ -88.082559302, 33.2432741 ], [ -88.082614005, 33.242793098 ], [ -88.083077505, 33.242587 ] ] } },
{ "type": "Feature", "properties": { "site_no": "02445000", "nhdplus_comid": "18630064", "navigation_mode": "DM", "requested_distance_km": 12.0, "start_source": "nwissite", "start_id": "USGS-02445000", "geometry_length_km": 1.4111641471365257 }, "geometry": { "type": "LineString", "coordinates": [ [ -88.083077505, 33.242587 ], [ -88.083050504, 33.242151797 ], [ -88.083405003, 33.2418999 ], [ -88.0834051, 33.241670795 ], [ -88.083105303, 33.241395898 ], [ -88.082751103, 33.240960397 ], [ -88.082696706, 33.240548 ], [ -88.082914904, 33.240364797 ], [ -88.083705403, 33.2403192 ], [ -88.0844144, 33.239907198 ], [ -88.084632501, 33.239723995 ], [ -88.084660001, 33.239013694 ], [ -88.084769405, 33.238280699 ], [ -88.084797107, 33.237249896 ], [ -88.084715404, 33.236974999 ], [ -88.084579207, 33.2367687 ], [ -88.084415704, 33.236379199 ], [ -88.084388606, 33.236081496 ], [ -88.084525101, 33.235783599 ], [ -88.084770404, 33.235531695 ], [ -88.084852301, 33.235348493 ], [ -88.0844163, 33.234935999 ], [ -88.084416404, 33.234592393 ], [ -88.084825307, 33.234569594 ], [ -88.0851795, 33.235027894 ], [ -88.085397601, 33.235096693 ], [ -88.085533805, 33.235096693 ], [ -88.0855067, 33.234821796 ], [ -88.085397802, 33.234569795 ], [ -88.085179806, 33.234248899 ], [ -88.085043706, 33.233813696 ], [ -88.084962003, 33.233424194 ] ] } },
{ "type": "Feature", "properties": { "site_no": "02445000", "nhdplus_comid": "18630082", "navigation_mode": "DM", "requested_distance_km": 12.0, "start_source": "nwissite", "start_id": "USGS-02445000", "geometry_length_km": 0.96966724863292864 }, "geometry": { "type": "LineString", "coordinates": [ [ -88.084962003, 33.233424194 ], [ -88.084771402, 33.233126394 ], [ -88.084253602, 33.232805498 ], [ -88.083844706, 33.232690893 ], [ -88.083435707, 33.232851095 ], [ -88.082999505, 33.232919693 ], [ -88.0826452, 33.232736394 ], [ -88.082618102, 33.232484393 ], [ -88.082645401, 33.232186593 ], [ -88.082863607, 33.232003398 ], [ -88.082945406, 33.231865898 ], [ -88.082945503, 33.231682695 ], [ -88.082482301, 33.231338799 ], [ -88.082482301, 33.231109694 ], [ -88.082945801, 33.230857894 ], [ -88.083136804, 33.230560094 ], [ -88.0831642, 33.230239399 ], [ -88.083109602, 33.230056196 ], [ -88.082810007, 33.229895696 ], [ -88.082155801, 33.229689397 ], [ -88.082128607, 33.229506098 ], [ -88.082046904, 33.229391493 ], [ -88.082456201, 33.228452399 ], [ -88.082565203, 33.228337899 ], [ -88.083219506, 33.228223599 ], [ -88.083464801, 33.228040293 ] ] } },
{ "type": "Feature", "properties": { "site_no": "02445000", "nhdplus_comid": "18630110", "navigation_mode": "DM", "requested_distance_km": 12.0, "start_source": "nwissite", "start_id": "USGS-02445000", "geometry_length_km": 1.3021082719817791 }, "geometry": { "type": "LineString", "coordinates": [ [ -88.083464801, 33.228040293 ], [ -88.083465002, 33.227559194 ], [ -88.083574206, 33.227169797 ], [ -88.084092401, 33.226368293 ], [ -88.084692203, 33.225910299 ], [ -88.084855907, 33.225520797 ], [ -88.084992304, 33.225039795 ], [ -88.085319504, 33.2247421 ], [ -88.0854287, 33.224535994 ], [ -88.085837707, 33.224055 ], [ -88.085864902, 33.223940499 ], [ -88.086301103, 33.223573998 ], [ -88.0863287, 33.222978398 ], [ -88.086219706, 33.222886793 ], [ -88.086219907, 33.222451493 ], [ -88.086383402, 33.222314097 ], [ -88.087174006, 33.221856095 ], [ -88.087528601, 33.221077293 ], [ -88.087855704, 33.220779598 ], [ -88.087883003, 33.220619299 ], [ -88.087392606, 33.220138095 ], [ -88.087147504, 33.219817296 ], [ -88.0870931, 33.219656996 ], [ -88.087174803, 33.219611198 ], [ -88.087338306, 33.219565399 ], [ -88.087747, 33.219886199 ], [ -88.088346504, 33.220458999 ], [ -88.088646203, 33.220550798 ] ] } },
{ "type": "Feature", "properties": { "site_no": "02445000", "nhdplus_comid": "18630142", "navigation_mode": "DM", "requested_distance_km": 12.0, "start_source": "nwissite", "start_id": "USGS-02445000", "geometry_length_km": 1.457263608089773 }, "geometry": { "type": "LineString", "coordinates": [ [ -88.088646203, 33.220550798 ], [ -88.088809706, 33.220436193 ], [ -88.088837102, 33.220161296 ], [ -88.088564806, 33.219794698 ], [ -88.087965302, 33.219221897 ], [ -88.087883703, 33.219038695 ], [ -88.087992705, 33.218763798 ], [ -88.088510804, 33.218030795 ], [ -88.088783503, 33.217503995 ], [ -88.088783704, 33.216725096 ], [ -88.089001901, 33.216518998 ], [ -88.089056402, 33.216335699 ], [ -88.088920206, 33.216244094 ], [ -88.0881299, 33.216243893 ], [ -88.088075303, 33.216197997 ], [ -88.0880481, 33.216037698 ], [ -88.088211805, 33.215923198 ], [ -88.088947706, 33.215785995 ], [ -88.089165702, 33.215671398 ], [ -88.089165702, 33.215556897 ], [ -88.088974901, 33.215442397 ], [ -88.088266402, 33.215373397 ], [ -88.088130206, 33.215190098 ], [ -88.088239305, 33.215006799 ], [ -88.089166, 33.214755096 ], [ -88.089275107, 33.214594796 ], [ -88.089220703, 33.214411497 ], [ -88.089002706, 33.214251094 ], [ -88.089030005, 33.2139991 ], [ -88.089275405, 33.213701293 ], [ -88.089384407, 33.213517994 ], [ -88.089384504, 33.213266097 ], [ -88.089221001, 33.213013999 ], [ -88.089166701, 33.212372497 ], [ -88.089112304, 33.212212197 ], [ -88.088294901, 33.2116393 ], [ -88.088267706, 33.211387299 ], [ -88.088376805, 33.211249895 ] ] } },
{ "type": "Feature", "properties": { "site_no": "02445000", "nhdplus_comid": "18630192", "navigation_mode": "DM", "requested_distance_km": 12.0, "start_source": "nwissite", "start_id": "USGS-02445000", "geometry_length_km": 2.6063710671492282 }, "geometry": { "type": "LineString", "coordinates": [ [ -88.088376805, 33.211249895 ], [ -88.088240601, 33.210974999 ], [ -88.087450303, 33.210814394 ], [ -88.087041803, 33.210356198 ], [ -88.086905502, 33.2102874 ], [ -88.086115204, 33.210264198 ], [ -88.085951701, 33.2102184 ], [ -88.085897505, 33.209439494 ], [ -88.085979305, 33.209256195 ], [ -88.086251907, 33.209004395 ], [ -88.086688004, 33.208844095 ], [ -88.0870151, 33.208637998 ], [ -88.087124206, 33.208454795 ], [ -88.087151602, 33.207767494 ], [ -88.086961001, 33.207538396 ], [ -88.0862526, 33.207332097 ], [ -88.085925505, 33.207217298 ], [ -88.085925601, 33.207056999 ], [ -88.0860347, 33.206942499 ], [ -88.086579703, 33.206828199 ], [ -88.086634301, 33.206598997 ], [ -88.086225607, 33.206346899 ], [ -88.086225703, 33.206163697 ], [ -88.086334802, 33.205957495 ], [ -88.087152407, 33.205705695 ], [ -88.0872887, 33.205476694 ], [ -88.087234303, 33.205224693 ], [ -88.086662106, 33.205041297 ], [ -88.0866348, 33.204835095 ], [ -88.086880304, 33.204606093 ], [ -88.087752305, 33.204560496 ], [ -88.087834105, 33.204445899 ], [ -88.087943204, 33.204262696 ], [ -88.088024907, 33.204216897 ], [ -88.088052206, 33.204079494 ], [ -88.088542901, 33.203804694 ], [ -88.088542901, 33.2033007 ], [ -88.0887338, 33.203071699 ], [ -88.088924706, 33.202796899 ], [ -88.089279003, 33.202544898 ], [ -88.089497104, 33.202201299 ], [ -88.089715205, 33.201995194 ], [ -88.089878701, 33.201812096 ], [ -88.089824304, 33.201491296 ], [ -88.089933403, 33.201307997 ], [ -88.090178601, 33.2012394 ], [ -88.090532906, 33.201079093 ], [ -88.090505704, 33.200918794 ], [ -88.090151504, 33.200758293 ], [ -88.089116104, 33.200918399 ], [ -88.0886802, 33.200505994 ], [ -88.088653006, 33.200368494 ], [ -88.088707507, 33.200162396 ], [ -88.089225501, 33.199704297 ], [ -88.089525305, 33.199498199 ], [ -88.089525305, 33.199200399 ], [ -88.088816904, 33.198627599 ], [ -88.088762507, 33.198512994 ], [ -88.0885721, 33.197482094 ], [ -88.088599503, 33.197069697 ], [ -88.088763103, 33.196909398 ], [ -88.089199103, 33.196817897 ], [ -88.090125501, 33.1968868 ], [ -88.090289004, 33.1968868 ] ] } },
{ "type": "Feature", "properties": { "site_no": "02445000", "nhdplus_comid": "18630878", "navigation_mode": "DM", "requested_distance_km": 12.0, "start_source": "nwissite", "start_id": "USGS-02445000", "geometry_length_km": 1.2724517370827673 }, "geometry": { "type": "LineString", "coordinates": [ [ -88.090289004, 33.1968868 ], [ -88.090316504, 33.196451597 ], [ -88.090452805, 33.195993498 ], [ -88.090480201, 33.195558198 ], [ -88.090371206, 33.195466496 ], [ -88.090180404, 33.195443593 ], [ -88.089744404, 33.195649698 ], [ -88.089308403, 33.195718296 ], [ -88.089199401, 33.195649497 ], [ -88.089199603, 33.195443295 ], [ -88.089335904, 33.195282996 ], [ -88.089390405, 33.194985293 ], [ -88.089145206, 33.194756098 ], [ -88.089172602, 33.194572799 ], [ -88.089390606, 33.1944125 ], [ -88.090317003, 33.194229499 ], [ -88.090344407, 33.193954594 ], [ -88.090181001, 33.193633795 ], [ -88.090044804, 33.193473496 ], [ -88.090044901, 33.193404794 ], [ -88.089936003, 33.193152696 ], [ -88.089908801, 33.192854896 ], [ -88.090263203, 33.192557193 ], [ -88.090263203, 33.192259297 ], [ -88.090045303, 33.192121796 ], [ -88.089500405, 33.1920987 ], [ -88.089119002, 33.191938296 ], [ -88.089146301, 33.191732094 ], [ -88.089255303, 33.191525996 ], [ -88.089528002, 33.191228293 ], [ -88.089555301, 33.190907598 ], [ -88.089092202, 33.190701298 ], [ -88.088901505, 33.190472193 ], [ -88.088874407, 33.190242998 ], [ -88.088683702, 33.190105498 ], [ -88.088384107, 33.190059595 ], [ -88.088193305, 33.1901512 ], [ -88.0873757, 33.190380193 ] ] } },
{ "type": "Feature", "properties": { "site_no": "02445000", "nhdplus_comid": "18630876", "navigation_mode": "DM", "requested_distance_km": 12.0, "start_source": "nwissite", "start_id": "USGS-02445000", "geometry_length_km": 1.2829983824509117 }, "geometry": { "type": "LineString", "coordinates": [ [ -88.0873757, 33.190380193 ], [ -88.087348506, 33.190196894 ], [ -88.086585604, 33.190127894 ], [ -88.086558506, 33.190013394 ], [ -88.086476803, 33.189830095 ], [ -88.086258903, 33.189807199 ], [ -88.0859318, 33.189990297 ], [ -88.085550301, 33.190081894 ], [ -88.085223503, 33.189875595 ], [ -88.0852236, 33.189646497 ], [ -88.085632503, 33.189028099 ], [ -88.085741505, 33.188936397 ], [ -88.085741706, 33.188661598 ], [ -88.085305803, 33.188432395 ], [ -88.084379606, 33.188134193 ], [ -88.083507806, 33.187629998 ], [ -88.083181001, 33.187584095 ], [ -88.083017506, 33.187652797 ], [ -88.082908206, 33.188294098 ], [ -88.082799204, 33.188385695 ], [ -88.082581207, 33.188408598 ], [ -88.082445003, 33.1883398 ], [ -88.082390703, 33.187904596 ], [ -88.082309, 33.187835798 ], [ -88.082281902, 33.187629595 ], [ -88.082091205, 33.187469199 ], [ -88.081791602, 33.187377498 ], [ -88.081164904, 33.187377296 ], [ -88.081001505, 33.187262699 ], [ -88.080947101, 33.187125199 ], [ -88.081029005, 33.186712898 ], [ -88.081138104, 33.1863693 ], [ -88.081002004, 33.186140299 ], [ -88.080538906, 33.185956798 ], [ -88.079748705, 33.186025299 ] ] } },
{ "type": "Feature", "properties": { "site_no": "02445000", "nhdplus_comid": "18630242", "navigation_mode": "DM", "requested_distance_km": 12.0, "start_source": "nwissite", "start_id": "USGS-02445000", "geometry_length_km": 0.80451826973904539 }, "geometry": { "type": "LineString", "coordinates": [ [ -88.079748705, 33.186025299 ], [ -88.079367504, 33.185635693 ], [ -88.079367705, 33.185246296 ], [ -88.080076002, 33.185131997 ], [ -88.080266804, 33.184994593 ], [ -88.080321401, 33.184536494 ], [ -88.080948204, 33.184215896 ], [ -88.081057303, 33.184101395 ], [ -88.081166305, 33.183895193 ], [ -88.081166506, 33.183528699 ], [ -88.081112102, 33.183459997 ], [ -88.081057601, 33.183276698 ], [ -88.080867, 33.183162093 ], [ -88.080349401, 33.183047295 ], [ -88.080267705, 33.182955593 ], [ -88.0801588, 33.182749398 ], [ -88.080295101, 33.1824288 ], [ -88.0808402, 33.181970797 ], [ -88.081058301, 33.181856297 ], [ -88.081249103, 33.181673095 ], [ -88.081467107, 33.181466997 ], [ -88.081494607, 33.180733994 ] ] } },
{ "type": "Feature", "properties": { "site_no": "02445000", "nhdplus_comid": "18630244", "navigation_mode": "DM", "requested_distance_km": 12.0, "start_source": "nwissite", "start_id": "USGS-02445000", "geometry_length_km": 0.40106089828210711 }, "geometry": { "type": "LineString", "coordinates": [ [ -88.081494607, 33.180733994 ], [ -88.081876002, 33.180756994 ], [ -88.082175702, 33.1808258 ], [ -88.082584202, 33.181238294 ], [ -88.082774803, 33.181536198 ], [ -88.082938105, 33.181719497 ], [ -88.082992606, 33.181811094 ], [ -88.083210506, 33.181811199 ], [ -88.083428502, 33.181742594 ], [ -88.083619304, 33.181444794 ], [ -88.083673902, 33.181238696 ], [ -88.083837405, 33.181147099 ], [ -88.084028102, 33.181192897 ], [ -88.084246002, 33.181284696 ], [ -88.084681906, 33.181284696 ] ] } }
]
}
