{
"type": "FeatureCollection",
"name": "USGS_02424000_UM_12km",
"crs": { "type": "name", "properties": { "name": "urn:ogc:def:crs:OGC:1.3:CRS84" } },
"features": [
{ "type": "Feature", "properties": { "site_no": "02424000", "nhdplus_comid": "21661814", "navigation_mode": "UM", "requested_distance_km": 12.0, "start_source": "nwissite", "start_id": "USGS-02424000", "geometry_length_km": 1.4949088556514025 }, "geometry": { "type": "LineString", "coordinates": [ [ -87.139638506, 32.957992896 ], [ -87.140683107, 32.955428198 ], [ -87.1410252, 32.955076799 ], [ -87.141553901, 32.951715894 ], [ -87.140840404, 32.948636293 ], [ -87.140568502, 32.9483632 ], [ -87.140056901, 32.946181297 ], [ -87.139990823, 32.945051035 ] ] } },
{ "type": "Feature", "properties": { "site_no": "02424000", "nhdplus_comid": "21661812", "navigation_mode": "UM", "requested_distance_km": 12.0, "start_source": "nwissite", "start_id": "USGS-02424000", "geometry_length_km": 0.88603368968927931 }, "geometry": { "type": "LineString", "coordinates": [ [ -87.141497307, 32.965697594 ], [ -87.141525403, 32.965447798 ], [ -87.1411594, 32.964663297 ], [ -87.140830107, 32.960857697 ], [ -87.139638506, 32.957992896 ] ] } },
{ "type": "Feature", "properties": { "site_no": "02424000", "nhdplus_comid": "21661806", "navigation_mode": "UM", "requested_distance_km": 12.0, "start_source": "nwissite", "start_id": "USGS-02424000", "geometry_length_km": 1.838208555906292 }, "geometry": { "type": "LineString", "coordinates": [ [ -87.1390016, 32.981500998 ], [ -87.139429606, 32.981412396 ], [ -87.139541902, 32.980413198 ], [ -87.139870003, 32.980186693 ], [ -87.1402025, 32.978574596 ], [ -87.141205303, 32.976384699 ], [ -87.141359605, 32.975010797 ], [ -87.140861906, 32.972704098 ], [ -87.141587004, 32.967594594 ], [ -87.141497307, 32.965697594 ] ] } },
{ "type": "Feature", "properties": { "site_no": "02424000", "nhdplus_comid": "21662104", "navigation_mode": "UM", "requested_distance_km": 12.0, "start_source": "nwissite", "start_id": "USGS-02424000", "geometry_length_km": 0.010565497567499743 }, "geometry": { "type": "LineString", "coordinates": [ [ -87.138914503, 32.981546499 ], [ -87.138996005, 32.981523596 ], [ -87.1390016, 32.981500998 ] ] } },
{ "type": "Feature", "properties": { "site_no": "02424000", "nhdplus_comid": "21662102", "navigation_mode": "UM", "requested_distance_km": 12.0, "start_source": "nwissite", "start_id": "USGS-02424000", "geometry_length_km": 0.0013656086950508239 }, "geometry": { "type": "LineString", "coordinates": [ [ -87.138913304, 32.981558695 ], [ -87.138914503, 32.981546499 ] ] } },
{ "type": "Feature", "properties": { "site_no": "02424000", "nhdplus_comid": "21661800", "navigation_mode": "UM", "requested_distance_km": 12.0, "start_source": "nwissite", "start_id": "USGS-02424000", "geometry_length_km": 1.2857782547739718 }, "geometry": { "type": "LineString", "coordinates": [ [ -87.133134104, 32.991631895 ], [ -87.133288503, 32.990257993 ], [ -87.134835802, 32.988614596 ], [ -87.137892306, 32.984316699 ], [ -87.139195405, 32.982150197 ], [ -87.138913304, 32.981558695 ] ] } },
{ "type": "Feature", "properties": { "site_no": "02424000", "nhdplus_comid": "21661796", "navigation_mode": "UM", "requested_distance_km": 12.0, "start_source": "nwissite", "start_id": "USGS-02424000", "geometry_length_km": 1.335310039238937 }, "geometry": { "type": "LineString", "coordinates": [ [ -87.123302802, 33.0001233 ], [ -87.1234174, 32.999946497 ], [ -87.1251432, 32.998065099 ], [ -87.127291106, 32.996468596 ], [ -87.128726207, 32.995824397 ], [ -87.131352402, 32.994013093 ], [ -87.133134104, 32.991631895 ] ] } },
{ "type": "Feature", "properties": { "site_no": "02424000", "nhdplus_comid": "21658298", "navigation_mode": "UM", "requested_distance_km": 12.0, "start_source": "nwissite", "start_id": "USGS-02424000", "geometry_length_km": 2.0687229223508745 }, "geometry": { "type": "LineString", "coordinates": [ [ -87.106259905, 33.009698793 ], [ -87.106409505, 33.009579495 ], [ -87.106570505, 33.009547696 ], [ -87.106704302, 33.009472795 ], [ -87.107947506, 33.009575196 ], [ -87.108426005, 33.0093605 ], [ -87.109941207, 33.009352796 ], [ -87.112713501, 33.008939199 ], [ -87.116006501, 33.007936195 ], [ -87.117127605, 33.007393695 ], [ -87.118441001, 33.006488197 ], [ -87.119332202, 33.005297795 ], [ -87.120852001, 33.003904298 ], [ -87.123302802, 33.0001233 ] ] } },
{ "type": "Feature", "properties": { "site_no": "02424000", "nhdplus_comid": "21658296", "navigation_mode": "UM", "requested_distance_km": 12.0, "start_source": "nwissite", "start_id": "USGS-02424000", "geometry_length_km": 1.3878988824620484 }, "geometry": { "type": "LineString", "coordinates": [ [ -87.102682404, 33.019999497 ], [ -87.103672706, 33.017934993 ], [ -87.104020104, 33.016198196 ], [ -87.103762202, 33.015799999 ], [ -87.103710704, 33.014914095 ], [ -87.103438705, 33.014640793 ], [ -87.103387207, 33.0137548 ], [ -87.1027494, 33.012697093 ], [ -87.102862105, 33.011697896 ], [ -87.103232801, 33.011096895 ], [ -87.104382306, 33.010304697 ], [ -87.105339304, 33.009875499 ], [ -87.105789602, 33.009910598 ], [ -87.105879404, 33.009767994 ], [ -87.105977602, 33.009741195 ], [ -87.106084205, 33.009718396 ], [ -87.106259905, 33.009698793 ] ] } }
]
}
