{
"type": "FeatureCollection",
"name": "USGS_02464146_UM_12km",
"crs": { "type": "name", "properties": { "name": "urn:ogc:def:crs:OGC:1.3:CRS84" } },
"features": [
{ "type": "Feature", "properties": { "site_no": "02464146", "nhdplus_comid": "18227533", "navigation_mode": "UM", "requested_distance_km": 12.0, "start_source": "nwissite", "start_id": "USGS-02464146", "geometry_length_km": 1.1812122278362924 }, "geometry": { "type": "LineString", "coordinates": [ [ -87.506020702, 33.407542296 ], [ -87.506976105, 33.408070095 ], [ -87.508122303, 33.408850096 ], [ -87.508093901, 33.409651898 ], [ -87.507902302, 33.409972399 ], [ -87.507874407, 33.410384797 ], [ -87.507983603, 33.410453595 ], [ -87.5108255, 33.409791797 ], [ -87.511180505, 33.409815095 ], [ -87.511426106, 33.409998499 ], [ -87.511398301, 33.410433799 ], [ -87.511096805, 33.4112354 ], [ -87.510713607, 33.411739096 ], [ -87.510412104, 33.412609495 ], [ -87.510411106, 33.413365498 ], [ -87.510490979, 33.41352236 ] ] } },
{ "type": "Feature", "properties": { "site_no": "02464146", "nhdplus_comid": "18227551", "navigation_mode": "UM", "requested_distance_km": 12.0, "start_source": "nwissite", "start_id": "USGS-02464146", "geometry_length_km": 0.54610980134028619 }, "geometry": { "type": "LineString", "coordinates": [ [ -87.501105405, 33.4062775 ], [ -87.501296505, 33.406437993 ], [ -87.501295805, 33.406919099 ], [ -87.501814306, 33.407286197 ], [ -87.502688207, 33.407447495 ], [ -87.502961203, 33.407562293 ], [ -87.503808402, 33.407242395 ], [ -87.506020702, 33.407542296 ] ] } },
{ "type": "Feature", "properties": { "site_no": "02464146", "nhdplus_comid": "18229167", "navigation_mode": "UM", "requested_distance_km": 12.0, "start_source": "nwissite", "start_id": "USGS-02464146", "geometry_length_km": 0.70315549050815995 }, "geometry": { "type": "LineString", "coordinates": [ [ -87.495080903, 33.406140499 ], [ -87.495790802, 33.405887797 ], [ -87.496527202, 33.405131094 ], [ -87.497100607, 33.405038796 ], [ -87.497483507, 33.405359194 ], [ -87.497702904, 33.405908793 ], [ -87.498277307, 33.406503893 ], [ -87.498659901, 33.406640999 ], [ -87.499069601, 33.4066405 ], [ -87.499998003, 33.406410493 ], [ -87.501105405, 33.4062775 ] ] } },
{ "type": "Feature", "properties": { "site_no": "02464146", "nhdplus_comid": "18227553", "navigation_mode": "UM", "requested_distance_km": 12.0, "start_source": "nwissite", "start_id": "USGS-02464146", "geometry_length_km": 1.5608114345130191 }, "geometry": { "type": "LineString", "coordinates": [ [ -87.493160106, 33.419705093 ], [ -87.493132703, 33.419636399 ], [ -87.493378207, 33.419406995 ], [ -87.493677303, 33.418375798 ], [ -87.494303502, 33.416771397 ], [ -87.4943818, 33.414182596 ], [ -87.494598307, 33.412647493 ], [ -87.4947889, 33.412303597 ], [ -87.495006405, 33.4115244 ], [ -87.494814605, 33.411066398 ], [ -87.494813606, 33.410402 ], [ -87.495493606, 33.408316493 ], [ -87.495492101, 33.407193899 ], [ -87.495080903, 33.406140499 ] ] } },
{ "type": "Feature", "properties": { "site_no": "02464146", "nhdplus_comid": "18227451", "navigation_mode": "UM", "requested_distance_km": 12.0, "start_source": "nwissite", "start_id": "USGS-02464146", "geometry_length_km": 2.0441255915167456 }, "geometry": { "type": "LineString", "coordinates": [ [ -87.474564105, 33.427235998 ], [ -87.475794002, 33.427578598 ], [ -87.476231106, 33.427578196 ], [ -87.476668, 33.427279994 ], [ -87.4775967, 33.427118897 ], [ -87.4779789, 33.426866598 ], [ -87.478661001, 33.426064193 ], [ -87.479152404, 33.425720096 ], [ -87.480052806, 33.424779996 ], [ -87.481854402, 33.423426695 ], [ -87.483519703, 33.422486 ], [ -87.483847007, 33.422050394 ], [ -87.484174706, 33.421843998 ], [ -87.485650003, 33.421865493 ], [ -87.486578405, 33.421566896 ], [ -87.486824103, 33.421360396 ], [ -87.489117406, 33.420235798 ], [ -87.4906196, 33.419822 ], [ -87.4923134, 33.419843398 ], [ -87.493160106, 33.419705093 ] ] } }
]
}
