{
"type": "FeatureCollection",
"name": "USGS_02374970_UM_12km",
"crs": { "type": "name", "properties": { "name": "urn:ogc:def:crs:OGC:1.3:CRS84" } },
"features": [
{ "type": "Feature", "properties": { "site_no": "02374970", "nhdplus_comid": "445908", "navigation_mode": "UM", "requested_distance_km": 12.0, "start_source": "nwissite", "start_id": "USGS-02374970", "geometry_length_km": 0.26364804393741165 }, "geometry": { "type": "LineString", "coordinates": [ [ -87.394661203, 31.099179 ], [ -87.392850101, 31.099385597 ], [ -87.391904858, 31.09938579 ] ] } },
{ "type": "Feature", "properties": { "site_no": "02374970", "nhdplus_comid": "445904", "navigation_mode": "UM", "requested_distance_km": 12.0, "start_source": "nwissite", "start_id": "USGS-02374970", "geometry_length_km": 1.4244741056944583 }, "geometry": { "type": "LineString", "coordinates": [ [ -87.408856302, 31.097571693 ], [ -87.407737806, 31.097778298 ], [ -87.405846804, 31.097755797 ], [ -87.405447401, 31.0978247 ], [ -87.404169001, 31.097847894 ], [ -87.403396703, 31.098008499 ], [ -87.402571201, 31.098696299 ], [ -87.402198501, 31.098879695 ], [ -87.401798904, 31.098833896 ], [ -87.401026502, 31.098490298 ], [ -87.399002306, 31.098467797 ], [ -87.397883706, 31.098765999 ], [ -87.396711804, 31.098536998 ], [ -87.395832904, 31.0988122 ], [ -87.395380303, 31.099064395 ], [ -87.394661203, 31.099179 ] ] } },
{ "type": "Feature", "properties": { "site_no": "02374970", "nhdplus_comid": "445918", "navigation_mode": "UM", "requested_distance_km": 12.0, "start_source": "nwissite", "start_id": "USGS-02374970", "geometry_length_km": 2.5453513040499143 }, "geometry": { "type": "LineString", "coordinates": [ [ -87.432500802, 31.088281393 ], [ -87.4323145, 31.088373095 ], [ -87.431862101, 31.088831693 ], [ -87.428347602, 31.090231195 ], [ -87.424113907, 31.091332994 ], [ -87.4224362, 31.0915628 ], [ -87.419880003, 31.092342995 ], [ -87.417323604, 31.092733398 ], [ -87.413968205, 31.0934221 ], [ -87.413329102, 31.093811899 ], [ -87.411731802, 31.095347896 ], [ -87.410720102, 31.096173294 ], [ -87.408909507, 31.097457096 ], [ -87.408856302, 31.097571693 ] ] } },
{ "type": "Feature", "properties": { "site_no": "02374970", "nhdplus_comid": "445926", "navigation_mode": "UM", "requested_distance_km": 12.0, "start_source": "nwissite", "start_id": "USGS-02374970", "geometry_length_km": 0.21605700922402418 }, "geometry": { "type": "LineString", "coordinates": [ [ -87.434231102, 31.087180398 ], [ -87.433458902, 31.0873871 ], [ -87.432873301, 31.087708294 ], [ -87.432500802, 31.088281393 ] ] } },
{ "type": "Feature", "properties": { "site_no": "02374970", "nhdplus_comid": "445936", "navigation_mode": "UM", "requested_distance_km": 12.0, "start_source": "nwissite", "start_id": "USGS-02374970", "geometry_length_km": 1.685490206567174 }, "geometry": { "type": "LineString", "coordinates": [ [ -87.449805103, 31.081190698 ], [ -87.449432105, 31.081053399 ], [ -87.446476802, 31.081513397 ], [ -87.445358701, 31.081880696 ], [ -87.444453605, 31.082316697 ], [ -87.442617305, 31.083876096 ], [ -87.441765502, 31.084403694 ], [ -87.439449206, 31.085023694 ], [ -87.438677303, 31.085367799 ], [ -87.437586002, 31.086262196 ], [ -87.435829006, 31.087110996 ], [ -87.435482703, 31.087179899 ], [ -87.434231102, 31.087180398 ] ] } },
{ "type": "Feature", "properties": { "site_no": "02374970", "nhdplus_comid": "445944", "navigation_mode": "UM", "requested_distance_km": 12.0, "start_source": "nwissite", "start_id": "USGS-02374970", "geometry_length_km": 1.4446334784014159 }, "geometry": { "type": "LineString", "coordinates": [ [ -87.464449003, 31.079393595 ], [ -87.463490702, 31.079669394 ], [ -87.463198103, 31.079944499 ], [ -87.462878704, 31.080128096 ], [ -87.4621865, 31.080311999 ], [ -87.460562207, 31.0803359 ], [ -87.458911806, 31.080909997 ], [ -87.455876701, 31.081484996 ], [ -87.451562807, 31.081533395 ], [ -87.449805103, 31.081190698 ] ] } },
{ "type": "Feature", "properties": { "site_no": "02374970", "nhdplus_comid": "445948", "navigation_mode": "UM", "requested_distance_km": 12.0, "start_source": "nwissite", "start_id": "USGS-02374970", "geometry_length_km": 0.22647995658730638 }, "geometry": { "type": "LineString", "coordinates": [ [ -87.466498606, 31.078498393 ], [ -87.465833001, 31.078636393 ], [ -87.465167806, 31.079163998 ], [ -87.464688703, 31.079393499 ], [ -87.464449003, 31.079393595 ] ] } },
{ "type": "Feature", "properties": { "site_no": "02374970", "nhdplus_comid": "445952", "navigation_mode": "UM", "requested_distance_km": 12.0, "start_source": "nwissite", "start_id": "USGS-02374970", "geometry_length_km": 0.93338388892674284 }, "geometry": { "type": "LineString", "coordinates": [ [ -87.475818701, 31.078880996 ], [ -87.473183304, 31.079593495 ], [ -87.4710529, 31.079434693 ], [ -87.470413305, 31.078907996 ], [ -87.4691348, 31.078496493 ], [ -87.466818005, 31.078406498 ], [ -87.466498606, 31.078498393 ] ] } },
{ "type": "Feature", "properties": { "site_no": "02374970", "nhdplus_comid": "445946", "navigation_mode": "UM", "requested_distance_km": 12.0, "start_source": "nwissite", "start_id": "USGS-02374970", "geometry_length_km": 0.81014213835244187 }, "geometry": { "type": "LineString", "coordinates": [ [ -87.483782701, 31.080753796 ], [ -87.481758304, 31.080274194 ], [ -87.481172107, 31.0799767 ], [ -87.480585903, 31.079518795 ], [ -87.479227304, 31.079038695 ], [ -87.477948904, 31.078764699 ], [ -87.477016807, 31.078696698 ], [ -87.475818701, 31.078880996 ] ] } },
{ "type": "Feature", "properties": { "site_no": "02374970", "nhdplus_comid": "445938", "navigation_mode": "UM", "requested_distance_km": 12.0, "start_source": "nwissite", "start_id": "USGS-02374970", "geometry_length_km": 0.82904445355048306 }, "geometry": { "type": "LineString", "coordinates": [ [ -87.490337901, 31.084506497 ], [ -87.489964806, 31.084185995 ], [ -87.489351206, 31.083361596 ], [ -87.489190906, 31.082926296 ], [ -87.489004306, 31.082743093 ], [ -87.4887373, 31.0821933 ], [ -87.488124304, 31.081758395 ], [ -87.487271801, 31.081438296 ], [ -87.485860206, 31.081187397 ], [ -87.485327803, 31.081325397 ], [ -87.484688804, 31.081325896 ], [ -87.483809501, 31.080868296 ], [ -87.483782701, 31.080753796 ] ] } },
{ "type": "Feature", "properties": { "site_no": "02374970", "nhdplus_comid": "446380", "navigation_mode": "UM", "requested_distance_km": 12.0, "start_source": "nwissite", "start_id": "USGS-02374970", "geometry_length_km": 3.4216027049954807 }, "geometry": { "type": "LineString", "coordinates": [ [ -87.517096803, 31.097946197 ], [ -87.516803905, 31.097854398 ], [ -87.516138501, 31.097487099 ], [ -87.515632905, 31.097074196 ], [ -87.515234202, 31.096386299 ], [ -87.515155107, 31.095744498 ], [ -87.515288606, 31.095423795 ], [ -87.515289202, 31.094873793 ], [ -87.514757507, 31.094094098 ], [ -87.514838003, 31.093429595 ], [ -87.514599301, 31.092581399 ], [ -87.5136948, 31.091640994 ], [ -87.513376005, 31.091044798 ], [ -87.513270102, 31.090471797 ], [ -87.511806205, 31.089737199 ], [ -87.510848306, 31.088979997 ], [ -87.510183506, 31.088177294 ], [ -87.509545006, 31.087649599 ], [ -87.508773305, 31.0872593 ], [ -87.507388704, 31.087028898 ], [ -87.506829806, 31.086753398 ], [ -87.506057903, 31.086523496 ], [ -87.505392604, 31.086156197 ], [ -87.504806906, 31.085972294 ], [ -87.504567206, 31.085972093 ], [ -87.504140802, 31.086246699 ], [ -87.503927507, 31.086521596 ], [ -87.503687605, 31.086658798 ], [ -87.5029952, 31.086703993 ], [ -87.502143405, 31.086359397 ], [ -87.501664102, 31.086358994 ], [ -87.500625201, 31.086610094 ], [ -87.499980405, 31.086537197 ], [ -87.499314703, 31.086469099 ], [ -87.498409502, 31.086653396 ], [ -87.497504003, 31.086654298 ], [ -87.494707502, 31.086313099 ], [ -87.493401505, 31.085512199 ], [ -87.492842004, 31.0852606 ], [ -87.491803207, 31.085032396 ], [ -87.490337901, 31.084506497 ] ] } }
]
}
