{
"type": "FeatureCollection",
"name": "USGS_02429595_UM_12km",
"crs": { "type": "name", "properties": { "name": "urn:ogc:def:crs:OGC:1.3:CRS84" } },
"features": [
{ "type": "Feature", "properties": { "site_no": "02429595", "nhdplus_comid": "18242277", "navigation_mode": "UM", "requested_distance_km": 12.0, "start_source": "nwissite", "start_id": "USGS-02429595", "geometry_length_km": 1.3969983693003007 }, "geometry": { "type": "LineString", "coordinates": [ [ -87.602135107, 31.241313398 ], [ -87.6024817, 31.241611399 ], [ -87.602348201, 31.2420239 ], [ -87.602428302, 31.242161393 ], [ -87.602748305, 31.242230199 ], [ -87.602855004, 31.242321894 ], [ -87.602908202, 31.242780298 ], [ -87.604001805, 31.242917895 ], [ -87.604802102, 31.242734693 ], [ -87.605308801, 31.242711797 ], [ -87.606162503, 31.242230698 ], [ -87.6071494, 31.242001593 ], [ -87.608483203, 31.240993395 ], [ -87.608723201, 31.240993395 ], [ -87.608749807, 31.2417496 ], [ -87.609550007, 31.241795599 ], [ -87.609950103, 31.241520599 ], [ -87.610376805, 31.241428897 ], [ -87.610856906, 31.241749793 ], [ -87.611230306, 31.241864495 ], [ -87.6125108, 31.241933294 ], [ -87.612644106, 31.242070898 ], [ -87.612724103, 31.242391698 ], [ -87.613177501, 31.242391698 ], [ -87.613199753, 31.242412011 ] ] } },
{ "type": "Feature", "properties": { "site_no": "02429595", "nhdplus_comid": "18241457", "navigation_mode": "UM", "requested_distance_km": 12.0, "start_source": "nwissite", "start_id": "USGS-02429595", "geometry_length_km": 0.53016362129410177 }, "geometry": { "type": "LineString", "coordinates": [ [ -87.597654305, 31.240327299 ], [ -87.597947605, 31.240441896 ], [ -87.599441305, 31.240442097 ], [ -87.599921301, 31.240694299 ], [ -87.600134604, 31.240923494 ], [ -87.600134604, 31.241381899 ], [ -87.600241303, 31.241542295 ], [ -87.600881301, 31.241565295 ], [ -87.601414703, 31.241702996 ], [ -87.601868302, 31.241313398 ], [ -87.602135107, 31.241313398 ] ] } },
{ "type": "Feature", "properties": { "site_no": "02429595", "nhdplus_comid": "18241461", "navigation_mode": "UM", "requested_distance_km": 12.0, "start_source": "nwissite", "start_id": "USGS-02429595", "geometry_length_km": 0.89057697864956165 }, "geometry": { "type": "LineString", "coordinates": [ [ -87.588959306, 31.239065096 ], [ -87.589199401, 31.239133894 ], [ -87.589786001, 31.239523597 ], [ -87.591839604, 31.240005299 ], [ -87.592586502, 31.239982598 ], [ -87.592986502, 31.240120098 ], [ -87.5945336, 31.23996 ], [ -87.5950936, 31.240487196 ], [ -87.595520303, 31.2404873 ], [ -87.596213907, 31.2402125 ], [ -87.596533902, 31.240235396 ], [ -87.596774101, 31.240372993 ], [ -87.597654305, 31.240327299 ] ] } },
{ "type": "Feature", "properties": { "site_no": "02429595", "nhdplus_comid": "18241483", "navigation_mode": "UM", "requested_distance_km": 12.0, "start_source": "nwissite", "start_id": "USGS-02429595", "geometry_length_km": 1.3429341785054341 }, "geometry": { "type": "LineString", "coordinates": [ [ -87.579573102, 31.233470596 ], [ -87.5799997, 31.233722799 ], [ -87.580506407, 31.2337 ], [ -87.580852807, 31.234387696 ], [ -87.580879301, 31.234868996 ], [ -87.581225902, 31.235189997 ], [ -87.581332505, 31.235419095 ], [ -87.581252307, 31.235854499 ], [ -87.581305504, 31.236106694 ], [ -87.581758901, 31.236312993 ], [ -87.582425706, 31.236221597 ], [ -87.582639106, 31.236336194 ], [ -87.5826388, 31.236794598 ], [ -87.583865702, 31.236794896 ], [ -87.584025703, 31.236909494 ], [ -87.584052205, 31.237276196 ], [ -87.5850657, 31.237413995 ], [ -87.585705705, 31.2380559 ], [ -87.586079001, 31.2382164 ], [ -87.586238906, 31.238720596 ], [ -87.586505607, 31.238926999 ], [ -87.587359101, 31.238697998 ], [ -87.5877591, 31.239087693 ], [ -87.588159204, 31.239087798 ], [ -87.588399306, 31.238927498 ], [ -87.588772602, 31.238950498 ], [ -87.588959306, 31.239065096 ] ] } },
{ "type": "Feature", "properties": { "site_no": "02429595", "nhdplus_comid": "18241485", "navigation_mode": "UM", "requested_distance_km": 12.0, "start_source": "nwissite", "start_id": "USGS-02429595", "geometry_length_km": 0.4546039174061493 }, "geometry": { "type": "LineString", "coordinates": [ [ -87.575786106, 31.232644297 ], [ -87.5758662, 31.232575595 ], [ -87.576586306, 31.232575893 ], [ -87.577039905, 31.232255094 ], [ -87.577439904, 31.2323469 ], [ -87.577893101, 31.232782595 ], [ -87.578559801, 31.232828595 ], [ -87.578826405, 31.233011998 ], [ -87.579012901, 31.233539097 ], [ -87.579146303, 31.233607896 ], [ -87.579573102, 31.233470596 ] ] } },
{ "type": "Feature", "properties": { "site_no": "02429595", "nhdplus_comid": "18241487", "navigation_mode": "UM", "requested_distance_km": 12.0, "start_source": "nwissite", "start_id": "USGS-02429595", "geometry_length_km": 0.28557022271719729 }, "geometry": { "type": "LineString", "coordinates": [ [ -87.572959304, 31.232184999 ], [ -87.573866002, 31.232368596 ], [ -87.574399203, 31.2327355 ], [ -87.575786106, 31.232644297 ] ] } },
{ "type": "Feature", "properties": { "site_no": "02429595", "nhdplus_comid": "18241491", "navigation_mode": "UM", "requested_distance_km": 12.0, "start_source": "nwissite", "start_id": "USGS-02429595", "geometry_length_km": 1.6271494311237173 }, "geometry": { "type": "LineString", "coordinates": [ [ -87.561119504, 31.229040295 ], [ -87.561626203, 31.229292795 ], [ -87.561972901, 31.229224093 ], [ -87.562693305, 31.228651494 ], [ -87.5631468, 31.228468396 ], [ -87.563520201, 31.2284685 ], [ -87.563653506, 31.228560299 ], [ -87.563653305, 31.228903994 ], [ -87.563546404, 31.229133099 ], [ -87.5635463, 31.2294311 ], [ -87.563732803, 31.229568593 ], [ -87.564319506, 31.229614697 ], [ -87.565039806, 31.229477495 ], [ -87.565466605, 31.229271397 ], [ -87.5657598, 31.229477793 ], [ -87.565786205, 31.229867399 ], [ -87.5663196, 31.230005197 ], [ -87.566452906, 31.230119795 ], [ -87.566425905, 31.2306927 ], [ -87.567278802, 31.231632695 ], [ -87.567785606, 31.231587097 ], [ -87.568265401, 31.232068494 ], [ -87.568772204, 31.231954195 ], [ -87.569412403, 31.231610596 ], [ -87.570026301, 31.230900399 ], [ -87.570506506, 31.230602697 ], [ -87.570853204, 31.230602793 ], [ -87.571386404, 31.230900995 ], [ -87.571466304, 31.231084295 ], [ -87.5722396, 31.2314284 ], [ -87.572266206, 31.2315659 ], [ -87.572959304, 31.232184999 ] ] } },
{ "type": "Feature", "properties": { "site_no": "02429595", "nhdplus_comid": "18241499", "navigation_mode": "UM", "requested_distance_km": 12.0, "start_source": "nwissite", "start_id": "USGS-02429595", "geometry_length_km": 0.34842695300351145 }, "geometry": { "type": "LineString", "coordinates": [ [ -87.558960401, 31.227228895 ], [ -87.559253804, 31.227251999 ], [ -87.559600405, 31.227595799 ], [ -87.559626602, 31.228260495 ], [ -87.559759803, 31.228466794 ], [ -87.560666606, 31.228444293 ], [ -87.561013103, 31.228673697 ], [ -87.561119504, 31.229040295 ] ] } },
{ "type": "Feature", "properties": { "site_no": "02429595", "nhdplus_comid": "18242321", "navigation_mode": "UM", "requested_distance_km": 12.0, "start_source": "nwissite", "start_id": "USGS-02429595", "geometry_length_km": 2.9135596226216576 }, "geometry": { "type": "LineString", "coordinates": [ [ -87.535989605, 31.237253599 ], [ -87.537110001, 31.237093896 ], [ -87.537457101, 31.236727394 ], [ -87.537830606, 31.236590199 ], [ -87.538284004, 31.236544698 ], [ -87.5390044, 31.236315899 ], [ -87.539244607, 31.236132793 ], [ -87.539245002, 31.235651493 ], [ -87.539592206, 31.2351017 ], [ -87.539805606, 31.234987199 ], [ -87.5403658, 31.234872997 ], [ -87.541512705, 31.234896697 ], [ -87.5423133, 31.234415896 ], [ -87.542927407, 31.233499594 ], [ -87.543594204, 31.233454093 ], [ -87.543941304, 31.233064696 ], [ -87.544234701, 31.232996196 ], [ -87.544767804, 31.233340196 ], [ -87.545807905, 31.233478397 ], [ -87.545595102, 31.232653193 ], [ -87.546155401, 31.232424296 ], [ -87.546715505, 31.232309997 ], [ -87.547222607, 31.231966697 ], [ -87.547276102, 31.231668696 ], [ -87.547062904, 31.231347695 ], [ -87.547249801, 31.231095798 ], [ -87.547623307, 31.230958499 ], [ -87.548450105, 31.2308902 ], [ -87.5485835, 31.230798498 ], [ -87.548583902, 31.230317399 ], [ -87.5489842, 31.230019599 ], [ -87.5503444, 31.229859993 ], [ -87.551197805, 31.229997896 ], [ -87.551438004, 31.229654297 ], [ -87.552878402, 31.229448795 ], [ -87.554025203, 31.229518197 ], [ -87.554665603, 31.229128897 ], [ -87.554985806, 31.228739396 ], [ -87.555599302, 31.228579298 ], [ -87.556506, 31.228717297 ], [ -87.556692801, 31.228579894 ], [ -87.556719601, 31.228190295 ], [ -87.557039805, 31.227915399 ], [ -87.557466701, 31.227755196 ], [ -87.557733305, 31.2279616 ], [ -87.5580533, 31.227961794 ], [ -87.558933705, 31.227366395 ], [ -87.558960401, 31.227228895 ] ] } },
{ "type": "Feature", "properties": { "site_no": "02429595", "nhdplus_comid": "18241471", "navigation_mode": "UM", "requested_distance_km": 12.0, "start_source": "nwissite", "start_id": "USGS-02429595", "geometry_length_km": 0.38334704158497213 }, "geometry": { "type": "LineString", "coordinates": [ [ -87.534600101, 31.240117297 ], [ -87.534547001, 31.239842199 ], [ -87.534760803, 31.2393841 ], [ -87.535481207, 31.239178397 ], [ -87.536015503, 31.238193199 ], [ -87.535989605, 31.237253599 ] ] } },
{ "type": "Feature", "properties": { "site_no": "02429595", "nhdplus_comid": "18241459", "navigation_mode": "UM", "requested_distance_km": 12.0, "start_source": "nwissite", "start_id": "USGS-02429595", "geometry_length_km": 0.18486783207255572 }, "geometry": { "type": "LineString", "coordinates": [ [ -87.533718802, 31.241468795 ], [ -87.533906005, 31.240781397 ], [ -87.534573205, 31.240369394 ], [ -87.534600101, 31.240117297 ] ] } },
{ "type": "Feature", "properties": { "site_no": "02429595", "nhdplus_comid": "18241455", "navigation_mode": "UM", "requested_distance_km": 12.0, "start_source": "nwissite", "start_id": "USGS-02429595", "geometry_length_km": 1.1105865767705958 }, "geometry": { "type": "LineString", "coordinates": [ [ -87.525898002, 31.247055195 ], [ -87.525845103, 31.246688396 ], [ -87.526006006, 31.245840594 ], [ -87.526192807, 31.245703295 ], [ -87.526939802, 31.2456121 ], [ -87.5275001, 31.2454063 ], [ -87.527820602, 31.245016895 ], [ -87.527874507, 31.244443998 ], [ -87.528434902, 31.244192295 ], [ -87.528622001, 31.243802898 ], [ -87.528995603, 31.243573993 ], [ -87.529129304, 31.243207298 ], [ -87.529690005, 31.242703594 ], [ -87.529956803, 31.242612094 ], [ -87.531130403, 31.242658697 ], [ -87.531824507, 31.242017597 ], [ -87.532038003, 31.241926 ], [ -87.532784805, 31.241926499 ], [ -87.533398405, 31.241720699 ], [ -87.533718802, 31.241468795 ] ] } }
]
}
