{
"type": "FeatureCollection",
"name": "USGS_02371200_UM_12km",
"crs": { "type": "name", "properties": { "name": "urn:ogc:def:crs:OGC:1.3:CRS84" } },
"features": [
{ "type": "Feature", "properties": { "site_no": "02371200", "nhdplus_comid": "2376701", "navigation_mode": "UM", "requested_distance_km": 12.0, "start_source": "nwissite", "start_id": "USGS-02371200", "geometry_length_km": 0.050345202869141521 }, "geometry": { "type": "LineString", "coordinates": [ [ -86.121148102, 31.814401396 ], [ -86.12107724, 31.813953383 ] ] } },
{ "type": "Feature", "properties": { "site_no": "02371200", "nhdplus_comid": "2376695", "navigation_mode": "UM", "requested_distance_km": 12.0, "start_source": "nwissite", "start_id": "USGS-02371200", "geometry_length_km": 4.9351119196697715 }, "geometry": { "type": "LineString", "coordinates": [ [ -86.127347805, 31.856930397 ], [ -86.126972005, 31.855761796 ], [ -86.126945101, 31.8542495 ], [ -86.127159901, 31.853355899 ], [ -86.127240404, 31.852737196 ], [ -86.127079301, 31.851912394 ], [ -86.126569301, 31.850949898 ], [ -86.1265155, 31.847398199 ], [ -86.1264081, 31.846321099 ], [ -86.126542404, 31.845885798 ], [ -86.127025604, 31.844969295 ], [ -86.127293907, 31.843708999 ], [ -86.127186604, 31.843296498 ], [ -86.1271597, 31.843090296 ], [ -86.1268913, 31.842540398 ], [ -86.1268645, 31.842036195 ], [ -86.127052404, 31.841027893 ], [ -86.127132803, 31.839744799 ], [ -86.126247101, 31.837682493 ], [ -86.1258981, 31.837040797 ], [ -86.125710204, 31.836147197 ], [ -86.125871301, 31.835780598 ], [ -86.125737101, 31.835345194 ], [ -86.125495404, 31.8349557 ], [ -86.124958605, 31.834451593 ], [ -86.124609701, 31.834130697 ], [ -86.124475606, 31.833878696 ], [ -86.124368206, 31.832985096 ], [ -86.124234006, 31.832778797 ], [ -86.124073006, 31.831885196 ], [ -86.123348303, 31.830578998 ], [ -86.1228652, 31.829868697 ], [ -86.122033201, 31.827806398 ], [ -86.121496506, 31.827187695 ], [ -86.121308707, 31.826866895 ], [ -86.121255003, 31.825950295 ], [ -86.121603906, 31.8243462 ], [ -86.121496804, 31.821206994 ], [ -86.121631004, 31.820130095 ], [ -86.121443205, 31.8189843 ], [ -86.121523805, 31.8180677 ], [ -86.121711604, 31.817563593 ], [ -86.1218189, 31.816876195 ], [ -86.121819004, 31.815867998 ], [ -86.121228606, 31.814905494 ], [ -86.121148102, 31.814401396 ] ] } },
{ "type": "Feature", "properties": { "site_no": "02371200", "nhdplus_comid": "2376649", "navigation_mode": "UM", "requested_distance_km": 12.0, "start_source": "nwissite", "start_id": "USGS-02371200", "geometry_length_km": 2.8635093726394647 }, "geometry": { "type": "LineString", "coordinates": [ [ -86.1265423, 31.877896994 ], [ -86.127536006, 31.876063898 ], [ -86.128448904, 31.875147298 ], [ -86.128798001, 31.874299496 ], [ -86.129361801, 31.873428695 ], [ -86.130597003, 31.873062 ], [ -86.131402604, 31.872512095 ], [ -86.1337118, 31.870060198 ], [ -86.134302303, 31.869143493 ], [ -86.134490304, 31.868524894 ], [ -86.134490207, 31.867218696 ], [ -86.134597503, 31.866508394 ], [ -86.134463303, 31.866210498 ], [ -86.133765101, 31.865454398 ], [ -86.133550301, 31.865018994 ], [ -86.132153906, 31.863827594 ], [ -86.131885506, 31.863437995 ], [ -86.131616801, 31.862154797 ], [ -86.131348401, 31.861261196 ], [ -86.131187305, 31.861100793 ], [ -86.130892001, 31.860459194 ], [ -86.130784504, 31.860023797 ], [ -86.130596504, 31.859771796 ], [ -86.130542904, 31.859542698 ], [ -86.130193703, 31.859175995 ], [ -86.128824405, 31.858305395 ], [ -86.127482101, 31.856953397 ], [ -86.127347805, 31.856930397 ] ] } }
]
}
