{
"type": "FeatureCollection",
"name": "USGS_03584500_UM_12km",
"crs": { "type": "name", "properties": { "name": "urn:ogc:def:crs:OGC:1.3:CRS84" } },
"features": [
{ "type": "Feature", "properties": { "site_no": "03584500", "nhdplus_comid": "19594720", "navigation_mode": "UM", "requested_distance_km": 12.0, "start_source": "nwissite", "start_id": "USGS-03584500", "geometry_length_km": 0.23832950741153028 }, "geometry": { "type": "LineString", "coordinates": [ [ -86.945312701, 35.028699994 ], [ -86.945674703, 35.028699793 ], [ -86.946621306, 35.028424397 ], [ -86.947400406, 35.027897194 ], [ -86.947483671, 35.027706495 ] ] } },
{ "type": "Feature", "properties": { "site_no": "03584500", "nhdplus_comid": "19594702", "navigation_mode": "UM", "requested_distance_km": 12.0, "start_source": "nwissite", "start_id": "USGS-03584500", "geometry_length_km": 1.5238873459028874 }, "geometry": { "type": "LineString", "coordinates": [ [ -86.929050401, 35.027494498 ], [ -86.929858103, 35.027585797 ], [ -86.9354541, 35.026666895 ], [ -86.9372361, 35.026643097 ], [ -86.938767701, 35.026871294 ], [ -86.940076806, 35.027214199 ], [ -86.943084903, 35.028334893 ], [ -86.9445609, 35.028677598 ], [ -86.945312701, 35.028699994 ] ] } },
{ "type": "Feature", "properties": { "site_no": "03584500", "nhdplus_comid": "19594706", "navigation_mode": "UM", "requested_distance_km": 12.0, "start_source": "nwissite", "start_id": "USGS-03584500", "geometry_length_km": 2.4844072788891962 }, "geometry": { "type": "LineString", "coordinates": [ [ -86.908357203, 35.015912399 ], [ -86.908496402, 35.015981093 ], [ -86.911336102, 35.015774094 ], [ -86.912282705, 35.015636399 ], [ -86.9145099, 35.015566997 ], [ -86.915400803, 35.015772894 ], [ -86.915985607, 35.016024597 ], [ -86.917517401, 35.017169297 ], [ -86.919077404, 35.018909499 ], [ -86.919662707, 35.0200774 ], [ -86.920108505, 35.020741396 ], [ -86.921362303, 35.022115193 ], [ -86.923145004, 35.023397096 ], [ -86.924732901, 35.024701998 ], [ -86.926014505, 35.0260529 ], [ -86.926516004, 35.026441999 ], [ -86.927852906, 35.0271286 ], [ -86.929050401, 35.027494498 ] ] } },
{ "type": "Feature", "properties": { "site_no": "03584500", "nhdplus_comid": "19594708", "navigation_mode": "UM", "requested_distance_km": 12.0, "start_source": "nwissite", "start_id": "USGS-03584500", "geometry_length_km": 1.4883633317396101 }, "geometry": { "type": "LineString", "coordinates": [ [ -86.892822504, 35.017633699 ], [ -86.893100902, 35.017633595 ], [ -86.893824607, 35.0170151 ], [ -86.894659705, 35.016488098 ], [ -86.895884506, 35.0159382 ], [ -86.896775402, 35.0157777 ], [ -86.898417905, 35.0157087 ], [ -86.898835607, 35.015777297 ], [ -86.8998935, 35.015708394 ], [ -86.901647404, 35.015478998 ], [ -86.9038468, 35.015363999 ], [ -86.904347904, 35.015409693 ], [ -86.906297006, 35.015890196 ], [ -86.908218004, 35.015981197 ], [ -86.908357203, 35.015912399 ] ] } },
{ "type": "Feature", "properties": { "site_no": "03584500", "nhdplus_comid": "19607679", "navigation_mode": "UM", "requested_distance_km": 12.0, "start_source": "nwissite", "start_id": "USGS-03584500", "geometry_length_km": 1.0742154598919527 }, "geometry": { "type": "LineString", "coordinates": [ [ -86.885027707, 35.024116598 ], [ -86.885027602, 35.023864597 ], [ -86.884944104, 35.023773 ], [ -86.884916104, 35.0230629 ], [ -86.885305904, 35.022398598 ], [ -86.887031905, 35.021001399 ], [ -86.888980702, 35.019947499 ], [ -86.891291402, 35.018847793 ], [ -86.892655402, 35.017885596 ], [ -86.892822504, 35.017633699 ] ] } },
{ "type": "Feature", "properties": { "site_no": "03584500", "nhdplus_comid": "19607659", "navigation_mode": "UM", "requested_distance_km": 12.0, "start_source": "nwissite", "start_id": "USGS-03584500", "geometry_length_km": 1.7654347740793372 }, "geometry": { "type": "LineString", "coordinates": [ [ -86.900538303, 35.030252598 ], [ -86.900454603, 35.029382199 ], [ -86.900203601, 35.028168298 ], [ -86.899841502, 35.027549997 ], [ -86.899507105, 35.027160697 ], [ -86.898866601, 35.026702799 ], [ -86.898114704, 35.026382193 ], [ -86.897530004, 35.026244894 ], [ -86.894383505, 35.026107997 ], [ -86.891710304, 35.025810599 ], [ -86.888731003, 35.025650695 ], [ -86.887144007, 35.025398895 ], [ -86.886169307, 35.025078297 ], [ -86.885473102, 35.024597496 ], [ -86.885027707, 35.024116598 ] ] } },
{ "type": "Feature", "properties": { "site_no": "03584500", "nhdplus_comid": "19607643", "navigation_mode": "UM", "requested_distance_km": 12.0, "start_source": "nwissite", "start_id": "USGS-03584500", "geometry_length_km": 0.5844916317953186 }, "geometry": { "type": "LineString", "coordinates": [ [ -86.901960105, 35.035222396 ], [ -86.901793003, 35.035107896 ], [ -86.901319303, 35.034191899 ], [ -86.900566801, 35.032290995 ], [ -86.900482707, 35.030298397 ], [ -86.900538303, 35.030252598 ] ] } },
{ "type": "Feature", "properties": { "site_no": "03584500", "nhdplus_comid": "19607625", "navigation_mode": "UM", "requested_distance_km": 12.0, "start_source": "nwissite", "start_id": "USGS-03584500", "geometry_length_km": 0.44176247893133369 }, "geometry": { "type": "LineString", "coordinates": [ [ -86.901543707, 35.039093293 ], [ -86.901988901, 35.038085498 ], [ -86.902155504, 35.036734097 ], [ -86.901960105, 35.035222396 ] ] } },
{ "type": "Feature", "properties": { "site_no": "03584500", "nhdplus_comid": "19607601", "navigation_mode": "UM", "requested_distance_km": 12.0, "start_source": "nwissite", "start_id": "USGS-03584500", "geometry_length_km": 0.28386471062826668 }, "geometry": { "type": "LineString", "coordinates": [ [ -86.899622604, 35.041040696 ], [ -86.899622604, 35.040949099 ], [ -86.900931202, 35.039688997 ], [ -86.901376501, 35.039139196 ], [ -86.901543707, 35.039093293 ] ] } },
{ "type": "Feature", "properties": { "site_no": "03584500", "nhdplus_comid": "19607595", "navigation_mode": "UM", "requested_distance_km": 12.0, "start_source": "nwissite", "start_id": "USGS-03584500", "geometry_length_km": 2.3243000834474596 }, "geometry": { "type": "LineString", "coordinates": [ [ -86.877371304, 35.050731696 ], [ -86.877928302, 35.050617196 ], [ -86.880463004, 35.050479695 ], [ -86.882078402, 35.050136 ], [ -86.883108802, 35.049746595 ], [ -86.884557106, 35.049059294 ], [ -86.885866001, 35.048211798 ], [ -86.887397707, 35.047409996 ], [ -86.888929501, 35.046745494 ], [ -86.896754704, 35.042965196 ], [ -86.898035504, 35.042140394 ], [ -86.899399802, 35.041132398 ], [ -86.899622604, 35.041040696 ] ] } }
]
}
