{
"type": "FeatureCollection",
"name": "USGS_02437900_UM_12km",
"crs": { "type": "name", "properties": { "name": "urn:ogc:def:crs:OGC:1.3:CRS84" } },
"features": [
{ "type": "Feature", "properties": { "site_no": "02437900", "nhdplus_comid": "18670160", "navigation_mode": "UM", "requested_distance_km": 12.0, "start_source": "nwissite", "start_id": "USGS-02437900", "geometry_length_km": 1.1301234068434507 }, "geometry": { "type": "LineString", "coordinates": [ [ -87.897970304, 34.119527996 ], [ -87.898273401, 34.119917497 ], [ -87.898273602, 34.120581694 ], [ -87.898438901, 34.120696194 ], [ -87.899320304, 34.120741799 ], [ -87.899568103, 34.120833397 ], [ -87.899843603, 34.121199794 ], [ -87.900146805, 34.121955596 ], [ -87.900752805, 34.122115798 ], [ -87.900973201, 34.122253194 ], [ -87.901083507, 34.122528099 ], [ -87.901111305, 34.123283997 ], [ -87.901497006, 34.123719096 ], [ -87.901965201, 34.123764798 ], [ -87.902075402, 34.123879299 ], [ -87.902020901, 34.124818496 ], [ -87.902103506, 34.125093296 ], [ -87.9021862, 34.1252537 ], [ -87.902654603, 34.125551298 ], [ -87.902874902, 34.125757396 ], [ -87.903783806, 34.125482298 ], [ -87.904197, 34.125527993 ], [ -87.904690965, 34.125785776 ] ] } },
{ "type": "Feature", "properties": { "site_no": "02437900", "nhdplus_comid": "18670204", "navigation_mode": "UM", "requested_distance_km": 12.0, "start_source": "nwissite", "start_id": "USGS-02437900", "geometry_length_km": 1.7835130653696754 }, "geometry": { "type": "LineString", "coordinates": [ [ -87.887172006, 34.108832598 ], [ -87.8872547, 34.109038696 ], [ -87.8875852, 34.109336495 ], [ -87.887695402, 34.109542698 ], [ -87.887916006, 34.111008599 ], [ -87.888384305, 34.111306399 ], [ -87.889238104, 34.112268299 ], [ -87.889596201, 34.112359896 ], [ -87.890642606, 34.112359799 ], [ -87.891000606, 34.112474196 ], [ -87.891496405, 34.112840593 ], [ -87.8923501, 34.112932093 ], [ -87.892598003, 34.113206893 ], [ -87.8926256, 34.113458894 ], [ -87.892846003, 34.113733798 ], [ -87.8928461, 34.114168994 ], [ -87.893149205, 34.114443697 ], [ -87.893920504, 34.114855997 ], [ -87.894388802, 34.115359895 ], [ -87.894416407, 34.115588896 ], [ -87.894554101, 34.115749195 ], [ -87.8954354, 34.115840696 ], [ -87.895435601, 34.116275899 ], [ -87.895683505, 34.1165049 ], [ -87.896482103, 34.116573498 ], [ -87.897060603, 34.116985597 ], [ -87.897253506, 34.117352098 ], [ -87.897198603, 34.117810294 ], [ -87.896950804, 34.118222594 ], [ -87.897116207, 34.118749395 ], [ -87.897804901, 34.119482197 ], [ -87.897970304, 34.119527996 ] ] } },
{ "type": "Feature", "properties": { "site_no": "02437900", "nhdplus_comid": "18670208", "navigation_mode": "UM", "requested_distance_km": 12.0, "start_source": "nwissite", "start_id": "USGS-02437900", "geometry_length_km": 0.15084745515275771 }, "geometry": { "type": "LineString", "coordinates": [ [ -87.886015303, 34.108145595 ], [ -87.8866762, 34.108191296 ], [ -87.887144402, 34.108557798 ], [ -87.887172006, 34.108832598 ] ] } },
{ "type": "Feature", "properties": { "site_no": "02437900", "nhdplus_comid": "18670236", "navigation_mode": "UM", "requested_distance_km": 12.0, "start_source": "nwissite", "start_id": "USGS-02437900", "geometry_length_km": 1.2446898936536162 }, "geometry": { "type": "LineString", "coordinates": [ [ -87.880782202, 34.099854 ], [ -87.881222807, 34.100083098 ], [ -87.881333105, 34.1002663 ], [ -87.881333105, 34.101022199 ], [ -87.880975202, 34.101549 ], [ -87.880975306, 34.102488197 ], [ -87.8810855, 34.102900498 ], [ -87.881691307, 34.103450194 ], [ -87.881856605, 34.103473097 ], [ -87.8827103, 34.104320496 ], [ -87.883453906, 34.105122097 ], [ -87.883591704, 34.105419897 ], [ -87.883564204, 34.105580397 ], [ -87.883013405, 34.105763495 ], [ -87.883013502, 34.106107198 ], [ -87.884225301, 34.1072753 ], [ -87.885051407, 34.107481398 ], [ -87.885657303, 34.107481293 ], [ -87.885822505, 34.107641697 ], [ -87.885877602, 34.107985198 ], [ -87.886015303, 34.108145595 ] ] } },
{ "type": "Feature", "properties": { "site_no": "02437900", "nhdplus_comid": "18670252", "navigation_mode": "UM", "requested_distance_km": 12.0, "start_source": "nwissite", "start_id": "USGS-02437900", "geometry_length_km": 1.2613936160824355 }, "geometry": { "type": "LineString", "coordinates": [ [ -87.871145003, 34.0955019 ], [ -87.871723205, 34.095616497 ], [ -87.872907102, 34.0956394 ], [ -87.873154901, 34.095753998 ], [ -87.873127401, 34.095960096 ], [ -87.872934707, 34.096166298 ], [ -87.872466706, 34.096418194 ], [ -87.872411601, 34.0966703 ], [ -87.8725769, 34.096968099 ], [ -87.872879706, 34.097197093 ], [ -87.873347804, 34.0973574 ], [ -87.873815805, 34.0977927 ], [ -87.874283902, 34.097930096 ], [ -87.874697, 34.098319493 ], [ -87.875027403, 34.098411098 ], [ -87.875853501, 34.098731793 ], [ -87.876707107, 34.099487595 ], [ -87.8771201, 34.099991493 ], [ -87.8774781, 34.100243494 ], [ -87.879020005, 34.100243397 ], [ -87.880286604, 34.099877 ], [ -87.880782202, 34.099854 ] ] } },
{ "type": "Feature", "properties": { "site_no": "02437900", "nhdplus_comid": "18670288", "navigation_mode": "UM", "requested_distance_km": 12.0, "start_source": "nwissite", "start_id": "USGS-02437900", "geometry_length_km": 1.4589232248361119 }, "geometry": { "type": "LineString", "coordinates": [ [ -87.864537805, 34.084712796 ], [ -87.864620402, 34.085079297 ], [ -87.865033306, 34.0857438 ], [ -87.8655838, 34.086407997 ], [ -87.865721501, 34.086797394 ], [ -87.866409801, 34.087163895 ], [ -87.8667126, 34.087530494 ], [ -87.867125504, 34.087690897 ], [ -87.867153004, 34.088080294 ], [ -87.867731102, 34.088423796 ], [ -87.868006505, 34.088790394 ], [ -87.868033901, 34.090187594 ], [ -87.868144006, 34.090599999 ], [ -87.868859902, 34.091493398 ], [ -87.868914902, 34.091791198 ], [ -87.869080104, 34.091997296 ], [ -87.869052604, 34.092524193 ], [ -87.868859805, 34.092844799 ], [ -87.868914902, 34.093302898 ], [ -87.869630702, 34.093600795 ], [ -87.869713306, 34.094173394 ], [ -87.869878404, 34.094539896 ], [ -87.870346501, 34.0949523 ], [ -87.870676905, 34.095112599 ], [ -87.871145003, 34.0955019 ] ] } },
{ "type": "Feature", "properties": { "site_no": "02437900", "nhdplus_comid": "18670312", "navigation_mode": "UM", "requested_distance_km": 12.0, "start_source": "nwissite", "start_id": "USGS-02437900", "geometry_length_km": 1.6065439169243827 }, "geometry": { "type": "LineString", "coordinates": [ [ -87.8542438, 34.0735792 ], [ -87.8565282, 34.075457893 ], [ -87.856886007, 34.075663999 ], [ -87.857161202, 34.0760535 ], [ -87.857436307, 34.077015594 ], [ -87.858041905, 34.077565499 ], [ -87.859886102, 34.078367397 ], [ -87.861345001, 34.079719 ], [ -87.863024004, 34.081849493 ], [ -87.864014804, 34.0835675 ], [ -87.864290006, 34.084369197 ], [ -87.864537805, 34.084712796 ] ] } }
]
}
