{
"type": "FeatureCollection",
"name": "USGS_02427500_UM_12km",
"crs": { "type": "name", "properties": { "name": "urn:ogc:def:crs:OGC:1.3:CRS84" } },
"features": [
{ "type": "Feature", "properties": { "site_no": "02427500", "nhdplus_comid": "21456714", "navigation_mode": "UM", "requested_distance_km": 12.0, "start_source": "nwissite", "start_id": "USGS-02427500", "geometry_length_km": 0.28507137690289197 }, "geometry": { "type": "LineString", "coordinates": [ [ -87.397275105, 32.116815694 ], [ -87.397607615, 32.114273027 ] ] } },
{ "type": "Feature", "properties": { "site_no": "02427500", "nhdplus_comid": "21456708", "navigation_mode": "UM", "requested_distance_km": 12.0, "start_source": "nwissite", "start_id": "USGS-02427500", "geometry_length_km": 0.049499655192277121 }, "geometry": { "type": "LineString", "coordinates": [ [ -87.397612602, 32.117156893 ], [ -87.397275105, 32.116815694 ] ] } },
{ "type": "Feature", "properties": { "site_no": "02427500", "nhdplus_comid": "21456702", "navigation_mode": "UM", "requested_distance_km": 12.0, "start_source": "nwissite", "start_id": "USGS-02427500", "geometry_length_km": 2.046707456208551 }, "geometry": { "type": "LineString", "coordinates": [ [ -87.399046704, 32.135115497 ], [ -87.399558805, 32.130361393 ], [ -87.3990454, 32.128177695 ], [ -87.397789605, 32.125937298 ], [ -87.397654302, 32.124413297 ], [ -87.397060201, 32.122980297 ], [ -87.397612602, 32.117156893 ] ] } },
{ "type": "Feature", "properties": { "site_no": "02427500", "nhdplus_comid": "21456692", "navigation_mode": "UM", "requested_distance_km": 12.0, "start_source": "nwissite", "start_id": "USGS-02427500", "geometry_length_km": 2.3626492922623092 }, "geometry": { "type": "LineString", "coordinates": [ [ -87.384141907, 32.149742499 ], [ -87.384330906, 32.149378493 ], [ -87.387571603, 32.147103898 ], [ -87.3880307, 32.147012897 ], [ -87.3890028, 32.146330394 ], [ -87.390663601, 32.146205194 ], [ -87.392513402, 32.145716093 ], [ -87.393310003, 32.145272493 ], [ -87.393917605, 32.145192795 ], [ -87.395699807, 32.143941596 ], [ -87.397576004, 32.140427098 ], [ -87.3980074, 32.136423595 ], [ -87.398668803, 32.135843493 ], [ -87.399046704, 32.135115497 ] ] } },
{ "type": "Feature", "properties": { "site_no": "02427500", "nhdplus_comid": "21456740", "navigation_mode": "UM", "requested_distance_km": 12.0, "start_source": "nwissite", "start_id": "USGS-02427500", "geometry_length_km": 13.071644282010334 }, "geometry": { "type": "LineString", "coordinates": [ [ -87.332919002, 32.073901497 ], [ -87.333700806, 32.074970998 ], [ -87.333753303, 32.077245995 ], [ -87.333348006, 32.078223996 ], [ -87.332052201, 32.079133295 ], [ -87.331631504, 32.083011799 ], [ -87.331036903, 32.084353693 ], [ -87.330724701, 32.087231293 ], [ -87.331344604, 32.088414498 ], [ -87.331032306, 32.091292098 ], [ -87.329653904, 32.094339699 ], [ -87.3294231, 32.096466497 ], [ -87.3299217, 32.097388096 ], [ -87.329704404, 32.099389799 ], [ -87.326302104, 32.101776697 ], [ -87.325612202, 32.103994198 ], [ -87.325058207, 32.104960695 ], [ -87.323823504, 32.113570094 ], [ -87.323404305, 32.114673093 ], [ -87.322874203, 32.119552195 ], [ -87.323371805, 32.121861294 ], [ -87.3231951, 32.123487599 ], [ -87.324353702, 32.126604594 ], [ -87.324554503, 32.128890797 ], [ -87.3283851, 32.133601397 ], [ -87.328546204, 32.134875298 ], [ -87.328802407, 32.135273494 ], [ -87.331230901, 32.137731299 ], [ -87.331594907, 32.138516195 ], [ -87.333362602, 32.140166096 ], [ -87.335293204, 32.140314795 ], [ -87.335765906, 32.1400989 ], [ -87.338587604, 32.140316196 ], [ -87.340396106, 32.1415907 ], [ -87.341705605, 32.141943797 ], [ -87.344985805, 32.143457599 ], [ -87.347348504, 32.143765494 ], [ -87.348779507, 32.1443801 ], [ -87.350683101, 32.144778796 ], [ -87.351533607, 32.145222597 ], [ -87.353153802, 32.145473197 ], [ -87.3569206, 32.146645695 ], [ -87.3607281, 32.147442594 ], [ -87.362456307, 32.148079894 ], [ -87.3676548, 32.148478799 ], [ -87.3696125, 32.149764299 ], [ -87.370625205, 32.150094196 ], [ -87.375229701, 32.150447197 ], [ -87.375850901, 32.150242597 ], [ -87.382548504, 32.150629498 ], [ -87.384141907, 32.149742499 ] ] } }
]
}
