{
"type": "FeatureCollection",
"name": "USGS_03577225_DM_12km",
"crs": { "type": "name", "properties": { "name": "urn:ogc:def:crs:OGC:1.3:CRS84" } },
"features": [
{ "type": "Feature", "properties": { "site_no": "03577225", "nhdplus_comid": "19619792", "navigation_mode": "DM", "requested_distance_km": 12.0, "start_source": "nwissite", "start_id": "USGS-03577225", "geometry_length_km": 1.4313393950249749 }, "geometry": { "type": "LineString", "coordinates": [ [ -86.946679222, 34.763442291 ], [ -86.946614206, 34.763308398 ], [ -86.946196802, 34.761980094 ], [ -86.945751905, 34.761087097 ], [ -86.944307305, 34.759415895 ], [ -86.943334803, 34.758110799 ], [ -86.942607902, 34.751514494 ], [ -86.942496702, 34.751422897 ] ] } },
{ "type": "Feature", "properties": { "site_no": "03577225", "nhdplus_comid": "19621364", "navigation_mode": "DM", "requested_distance_km": 12.0, "start_source": "nwissite", "start_id": "USGS-03577225", "geometry_length_km": 0.80747310510390524 }, "geometry": { "type": "LineString", "coordinates": [ [ -86.942496702, 34.751422897 ], [ -86.942495801, 34.7503234 ], [ -86.942328006, 34.750089496 ], [ -86.942300104, 34.750020795 ], [ -86.942604907, 34.749379195 ], [ -86.942742601, 34.748142295 ], [ -86.942936502, 34.747684099 ], [ -86.9441282, 34.745805196 ], [ -86.944488101, 34.744590998 ] ] } },
{ "type": "Feature", "properties": { "site_no": "03577225", "nhdplus_comid": "19619862", "navigation_mode": "DM", "requested_distance_km": 12.0, "start_source": "nwissite", "start_id": "USGS-03577225", "geometry_length_km": 1.3557259665448576 }, "geometry": { "type": "LineString", "coordinates": [ [ -86.944488101, 34.744590998 ], [ -86.944347605, 34.742506593 ], [ -86.944430605, 34.742140099 ], [ -86.945150606, 34.740467593 ], [ -86.944871202, 34.738108493 ], [ -86.943869106, 34.734146394 ], [ -86.943785802, 34.734077699 ], [ -86.9436737, 34.732703395 ] ] } },
{ "type": "Feature", "properties": { "site_no": "03577225", "nhdplus_comid": "19619882", "navigation_mode": "DM", "requested_distance_km": 12.0, "start_source": "nwissite", "start_id": "USGS-03577225", "geometry_length_km": 0.67129971122380472 }, "geometry": { "type": "LineString", "coordinates": [ [ -86.9436737, 34.732703395 ], [ -86.943867005, 34.731649697 ], [ -86.944114104, 34.728580199 ], [ -86.943946205, 34.726724997 ] ] } },
{ "type": "Feature", "properties": { "site_no": "03577225", "nhdplus_comid": "19619948", "navigation_mode": "DM", "requested_distance_km": 12.0, "start_source": "nwissite", "start_id": "USGS-03577225", "geometry_length_km": 1.2093731721128416 }, "geometry": { "type": "LineString", "coordinates": [ [ -86.943946205, 34.726724997 ], [ -86.943555802, 34.7242513 ], [ -86.943137504, 34.721640393 ], [ -86.942941204, 34.718960494 ], [ -86.9429387, 34.715959795 ] ] } },
{ "type": "Feature", "properties": { "site_no": "03577225", "nhdplus_comid": "19619974", "navigation_mode": "DM", "requested_distance_km": 12.0, "start_source": "nwissite", "start_id": "USGS-03577225", "geometry_length_km": 0.28954730918405308 }, "geometry": { "type": "LineString", "coordinates": [ [ -86.9429387, 34.715959795 ], [ -86.942992106, 34.713371493 ] ] } },
{ "type": "Feature", "properties": { "site_no": "03577225", "nhdplus_comid": "19620080", "navigation_mode": "DM", "requested_distance_km": 12.0, "start_source": "nwissite", "start_id": "USGS-03577225", "geometry_length_km": 1.7814069093622982 }, "geometry": { "type": "LineString", "coordinates": [ [ -86.942992106, 34.713371493 ], [ -86.943591006, 34.699490294 ], [ -86.944227405, 34.6975201 ] ] } },
{ "type": "Feature", "properties": { "site_no": "03577225", "nhdplus_comid": "19620098", "navigation_mode": "DM", "requested_distance_km": 12.0, "start_source": "nwissite", "start_id": "USGS-03577225", "geometry_length_km": 0.76217895381840806 }, "geometry": { "type": "LineString", "coordinates": [ [ -86.944227405, 34.6975201 ], [ -86.944836706, 34.696580596 ], [ -86.948743202, 34.692157499 ], [ -86.949048102, 34.691973999 ] ] } },
{ "type": "Feature", "properties": { "site_no": "03577225", "nhdplus_comid": "19620180", "navigation_mode": "DM", "requested_distance_km": 12.0, "start_source": "nwissite", "start_id": "USGS-03577225", "geometry_length_km": 3.3895846810071353 }, "geometry": { "type": "LineString", "coordinates": [ [ -86.949048102, 34.691973999 ], [ -86.949075706, 34.6918137 ], [ -86.950959601, 34.689682297 ], [ -86.951929502, 34.6890174 ], [ -86.954147302, 34.6882829 ], [ -86.956171006, 34.687456995 ], [ -86.962157406, 34.684200399 ], [ -86.963183105, 34.683947697 ], [ -86.964735806, 34.683786094 ], [ -86.966233104, 34.683784999 ], [ -86.967758201, 34.683646396 ], [ -86.971501507, 34.683574796 ], [ -86.971917301, 34.683505796 ], [ -86.972305305, 34.683253497 ], [ -86.973163903, 34.682359494 ], [ -86.973579802, 34.682290398 ], [ -86.973857202, 34.682358898 ], [ -86.974078804, 34.682244293 ], [ -86.974328004, 34.681969196 ], [ -86.975270703, 34.681899697 ], [ -86.975852504, 34.6815098 ], [ -86.976656504, 34.681325898 ], [ -86.976961106, 34.6810508 ], [ -86.977210604, 34.680958897 ], [ -86.977931403, 34.680935398 ], [ -86.978291705, 34.680774793 ], [ -86.979067504, 34.680178598 ], [ -86.979594201, 34.680086493 ], [ -86.980121203, 34.680223495 ], [ -86.981091201, 34.679901995 ] ] } }
]
}
