{
"type": "FeatureCollection",
"name": "USGS_02361500_DM_12km",
"crs": { "type": "name", "properties": { "name": "urn:ogc:def:crs:OGC:1.3:CRS84" } },
"features": [
{ "type": "Feature", "properties": { "site_no": "02361500", "nhdplus_comid": "2189757", "navigation_mode": "DM", "requested_distance_km": 12.0, "start_source": "nwissite", "start_id": "USGS-02361500", "geometry_length_km": 1.5031409466956716 }, "geometry": { "type": "LineString", "coordinates": [ [ -85.78402895, 31.160368935 ], [ -85.784036502, 31.160362199 ], [ -85.785346307, 31.158204496 ], [ -85.786320001, 31.157534696 ], [ -85.786759406, 31.157575198 ], [ -85.787020802, 31.157852493 ], [ -85.787009202, 31.159117199 ], [ -85.7876468, 31.159935497 ], [ -85.788949303, 31.160181999 ], [ -85.789713301, 31.159999296 ], [ -85.790362403, 31.159552798 ], [ -85.790425606, 31.159052297 ], [ -85.792436004, 31.157212198 ], [ -85.792970203, 31.156501897 ], [ -85.793049105, 31.155876294 ] ] } },
{ "type": "Feature", "properties": { "site_no": "02361500", "nhdplus_comid": "2189767", "navigation_mode": "DM", "requested_distance_km": 12.0, "start_source": "nwissite", "start_id": "USGS-02361500", "geometry_length_km": 2.8739336601352705 }, "geometry": { "type": "LineString", "coordinates": [ [ -85.793049105, 31.155876294 ], [ -85.793080702, 31.155625999 ], [ -85.792427301, 31.154932894 ], [ -85.791695006, 31.154865496 ], [ -85.790396906, 31.1557585 ], [ -85.789664507, 31.155690998 ], [ -85.788603306, 31.154707193 ], [ -85.787479006, 31.1542238 ], [ -85.786825702, 31.153530695 ], [ -85.787141703, 31.151028194 ], [ -85.786871903, 31.148471594 ], [ -85.787073001, 31.145705298 ], [ -85.788319305, 31.144047998 ], [ -85.790104002, 31.142820098 ], [ -85.791192301, 31.142413996 ], [ -85.792668201, 31.141284198 ], [ -85.792747207, 31.140658498 ], [ -85.792093903, 31.1399654 ], [ -85.791524, 31.139786296 ], [ -85.791132003, 31.139370397 ], [ -85.791226804, 31.138619594 ], [ -85.792037904, 31.138061494 ] ] } },
{ "type": "Feature", "properties": { "site_no": "02361500", "nhdplus_comid": "2189773", "navigation_mode": "DM", "requested_distance_km": 12.0, "start_source": "nwissite", "start_id": "USGS-02361500", "geometry_length_km": 1.9167082687612018 }, "geometry": { "type": "LineString", "coordinates": [ [ -85.792037904, 31.138061494 ], [ -85.792995505, 31.137516797 ], [ -85.794653706, 31.1372898 ], [ -85.796794102, 31.135588095 ], [ -85.798598707, 31.135374598 ], [ -85.800723203, 31.133797996 ], [ -85.800781906, 31.132157795 ], [ -85.801268503, 31.131822795 ], [ -85.803156301, 31.132123195 ], [ -85.804113701, 31.131578393 ], [ -85.804699406, 31.131632298 ], [ -85.805792004, 31.132365793 ], [ -85.807402804, 31.132514 ], [ -85.807938904, 31.1323734 ] ] } },
{ "type": "Feature", "properties": { "site_no": "02361500", "nhdplus_comid": "2189777", "navigation_mode": "DM", "requested_distance_km": 12.0, "start_source": "nwissite", "start_id": "USGS-02361500", "geometry_length_km": 0.40700736845024743 }, "geometry": { "type": "LineString", "coordinates": [ [ -85.807938904, 31.1323734 ], [ -85.808344401, 31.132094294 ], [ -85.808355607, 31.130829394 ], [ -85.808680005, 31.1306061 ], [ -85.809119307, 31.130646497 ], [ -85.809641905, 31.131200999 ], [ -85.810227707, 31.1312548 ] ] } },
{ "type": "Feature", "properties": { "site_no": "02361500", "nhdplus_comid": "2189779", "navigation_mode": "DM", "requested_distance_km": 12.0, "start_source": "nwissite", "start_id": "USGS-02361500", "geometry_length_km": 0.47527026737651223 }, "geometry": { "type": "LineString", "coordinates": [ [ -85.810227707, 31.1312548 ], [ -85.810552001, 31.131031498 ], [ -85.810646601, 31.130280696 ], [ -85.810123906, 31.129726298 ], [ -85.810056306, 31.129087098 ], [ -85.810380705, 31.128863797 ], [ -85.8115521, 31.128971495 ], [ -85.811957605, 31.128692396 ] ] } },
{ "type": "Feature", "properties": { "site_no": "02361500", "nhdplus_comid": "2189785", "navigation_mode": "DM", "requested_distance_km": 12.0, "start_source": "nwissite", "start_id": "USGS-02361500", "geometry_length_km": 1.542494013862409 }, "geometry": { "type": "LineString", "coordinates": [ [ -85.811957605, 31.128692396 ], [ -85.811772704, 31.127219595 ], [ -85.812097102, 31.126996294 ], [ -85.812536307, 31.127036698 ], [ -85.813205406, 31.127604596 ], [ -85.8136447, 31.127644993 ], [ -85.813969001, 31.127421595 ], [ -85.813849501, 31.126018196 ], [ -85.814173907, 31.125794798 ], [ -85.815491602, 31.125915997 ], [ -85.815816, 31.125692695 ], [ -85.815827101, 31.124427795 ], [ -85.816151403, 31.124204494 ], [ -85.816721305, 31.124383494 ], [ -85.818043806, 31.125644296 ], [ -85.819832303, 31.125555493 ], [ -85.820224404, 31.125971295 ], [ -85.820325904, 31.126929998 ] ] } },
{ "type": "Feature", "properties": { "site_no": "02361500", "nhdplus_comid": "2189891", "navigation_mode": "DM", "requested_distance_km": 12.0, "start_source": "nwissite", "start_id": "USGS-02361500", "geometry_length_km": 2.5669609452086468 }, "geometry": { "type": "LineString", "coordinates": [ [ -85.820325904, 31.126929998 ], [ -85.8218555, 31.127133898 ], [ -85.822504103, 31.126687095 ], [ -85.822567105, 31.126186594 ], [ -85.821668103, 31.125091299 ], [ -85.821731105, 31.124590695 ], [ -85.822264805, 31.123880297 ], [ -85.8230756, 31.123321794 ], [ -85.824377604, 31.123567998 ], [ -85.824864, 31.123232998 ], [ -85.825309403, 31.120868795 ], [ -85.8247867, 31.120314397 ], [ -85.823924005, 31.120108597 ], [ -85.823401302, 31.119554199 ], [ -85.823480003, 31.1189285 ], [ -85.824892104, 31.118298694 ], [ -85.825217806, 31.1145311 ], [ -85.825542003, 31.114307694 ], [ -85.826127604, 31.114361495 ], [ -85.826958902, 31.114817597 ], [ -85.828396305, 31.116342098 ], [ -85.829637207, 31.117049396 ] ] } },
{ "type": "Feature", "properties": { "site_no": "02361500", "nhdplus_comid": "2189789", "navigation_mode": "DM", "requested_distance_km": 12.0, "start_source": "nwissite", "start_id": "USGS-02361500", "geometry_length_km": 1.8703588078408269 }, "geometry": { "type": "LineString", "coordinates": [ [ -85.829637207, 31.117049396 ], [ -85.830252402, 31.116892293 ], [ -85.831403002, 31.1159852 ], [ -85.831654601, 31.113982998 ], [ -85.832674503, 31.112937294 ], [ -85.832653902, 31.111922696 ], [ -85.830866806, 31.1084674 ], [ -85.829053201, 31.106401995 ], [ -85.826131605, 31.103728496 ], [ -85.826048203, 31.103214398 ] ] } }
]
}
