{
"type": "FeatureCollection",
"name": "USGS_02423555_UM_12km",
"crs": { "type": "name", "properties": { "name": "urn:ogc:def:crs:OGC:1.3:CRS84" } },
"features": [
{ "type": "Feature", "properties": { "site_no": "02423555", "nhdplus_comid": "21655896", "navigation_mode": "UM", "requested_distance_km": 12.0, "start_source": "nwissite", "start_id": "USGS-02423555", "geometry_length_km": 4.3463885902748611 }, "geometry": { "type": "LineString", "coordinates": [ [ -86.870597102, 33.312903695 ], [ -86.871142901, 33.3122852 ], [ -86.871115707, 33.311437495 ], [ -86.870733701, 33.310543999 ], [ -86.8703245, 33.309764996 ], [ -86.870188102, 33.308756895 ], [ -86.870570205, 33.307863399 ], [ -86.871143207, 33.306947097 ], [ -86.872043706, 33.305916093 ], [ -86.873599, 33.3044727 ], [ -86.874990501, 33.303556293 ], [ -86.875918105, 33.302914798 ], [ -86.877473205, 33.300715394 ], [ -86.877827905, 33.300096795 ], [ -86.878264204, 33.299523994 ], [ -86.879137203, 33.297416195 ], [ -86.879491806, 33.296156093 ], [ -86.879573703, 33.296087399 ], [ -86.879600905, 33.295743793 ], [ -86.880228303, 33.293567196 ], [ -86.880664505, 33.289855696 ], [ -86.881019205, 33.289145395 ], [ -86.8815374, 33.288755998 ], [ -86.8819739, 33.288641393 ], [ -86.8826285, 33.288687199 ], [ -86.885356605, 33.2894888 ], [ -86.886093207, 33.289534599 ], [ -86.886529602, 33.289419994 ], [ -86.887047902, 33.289122097 ], [ -86.887320705, 33.288801298 ], [ -86.887566105, 33.287861899 ], [ -86.8874842, 33.287655696 ], [ -86.887074903, 33.287083097 ], [ -86.8864474, 33.286533296 ], [ -86.883528404, 33.284838095 ], [ -86.882711954, 33.284296469 ] ] } },
{ "type": "Feature", "properties": { "site_no": "02423555", "nhdplus_comid": "21655798", "navigation_mode": "UM", "requested_distance_km": 12.0, "start_source": "nwissite", "start_id": "USGS-02423555", "geometry_length_km": 1.479618304693386 }, "geometry": { "type": "LineString", "coordinates": [ [ -86.860065304, 33.308045797 ], [ -86.860365406, 33.3079542 ], [ -86.861811601, 33.307862699 ], [ -86.864240006, 33.307496399 ], [ -86.865577005, 33.307427794 ], [ -86.866613805, 33.307656899 ], [ -86.866968505, 33.307909094 ], [ -86.867104903, 33.308115296 ], [ -86.867077604, 33.308710895 ], [ -86.866831906, 33.309191994 ], [ -86.866668202, 33.309925094 ], [ -86.866777301, 33.310497798 ], [ -86.867050007, 33.311230995 ], [ -86.868032306, 33.312697299 ], [ -86.868605301, 33.312995195 ], [ -86.869041905, 33.313063994 ], [ -86.869751304, 33.313041098 ], [ -86.870597102, 33.312903695 ] ] } },
{ "type": "Feature", "properties": { "site_no": "02423555", "nhdplus_comid": "21655796", "navigation_mode": "UM", "requested_distance_km": 12.0, "start_source": "nwissite", "start_id": "USGS-02423555", "geometry_length_km": 2.1770265429315638 }, "geometry": { "type": "LineString", "coordinates": [ [ -86.855942503, 33.320370995 ], [ -86.8585352, 33.319867395 ], [ -86.859053701, 33.319500893 ], [ -86.860309407, 33.317118399 ], [ -86.860609703, 33.316041693 ], [ -86.860664405, 33.3154689 ], [ -86.860582702, 33.315102294 ], [ -86.860391602, 33.314873196 ], [ -86.859927706, 33.314644098 ], [ -86.857744806, 33.3148041 ], [ -86.856680602, 33.314689398 ], [ -86.855943806, 33.314483099 ], [ -86.85548, 33.314116396 ], [ -86.855371006, 33.313910194 ], [ -86.855343804, 33.313337497 ], [ -86.855562203, 33.312879294 ], [ -86.856653906, 33.311710998 ], [ -86.857199602, 33.3113904 ], [ -86.857800007, 33.310863495 ], [ -86.858973704, 33.309145294 ], [ -86.859410301, 33.3086643 ], [ -86.859983407, 33.308251999 ], [ -86.860065304, 33.308045797 ] ] } },
{ "type": "Feature", "properties": { "site_no": "02423555", "nhdplus_comid": "21655746", "navigation_mode": "UM", "requested_distance_km": 12.0, "start_source": "nwissite", "start_id": "USGS-02423555", "geometry_length_km": 0.56858542285686564 }, "geometry": { "type": "LineString", "coordinates": [ [ -86.8502113, 33.3221341 ], [ -86.852176301, 33.321286798 ], [ -86.8541141, 33.320714399 ], [ -86.855942503, 33.320370995 ] ] } },
{ "type": "Feature", "properties": { "site_no": "02423555", "nhdplus_comid": "21655734", "navigation_mode": "UM", "requested_distance_km": 12.0, "start_source": "nwissite", "start_id": "USGS-02423555", "geometry_length_km": 3.0704599638990517 }, "geometry": { "type": "LineString", "coordinates": [ [ -86.832108006, 33.343183793 ], [ -86.833200105, 33.342313595 ], [ -86.834702, 33.341099799 ], [ -86.835029803, 33.340527199 ], [ -86.8349481, 33.340137698 ], [ -86.834184706, 33.338350497 ], [ -86.834075704, 33.337731794 ], [ -86.834130704, 33.337136097 ], [ -86.834321804, 33.336861297 ], [ -86.8359055, 33.335532993 ], [ -86.837762304, 33.333586194 ], [ -86.838526905, 33.332921997 ], [ -86.839154705, 33.3325556 ], [ -86.840710901, 33.3313189 ], [ -86.843222402, 33.329784594 ], [ -86.844696403, 33.329028897 ], [ -86.845733903, 33.328181498 ], [ -86.846825801, 33.326921694 ], [ -86.847290002, 33.326074198 ], [ -86.848163702, 33.3249975 ], [ -86.848764405, 33.323874995 ], [ -86.8495287, 33.323096298 ], [ -86.8502113, 33.3221341 ] ] } }
]
}
