{
"type": "FeatureCollection",
"name": "USGS_03587200_UM_12km",
"crs": { "type": "name", "properties": { "name": "urn:ogc:def:crs:OGC:1.3:CRS84" } },
"features": [
{ "type": "Feature", "properties": { "site_no": "03587200", "nhdplus_comid": "19577115", "navigation_mode": "UM", "requested_distance_km": 12.0, "start_source": "nwissite", "start_id": "USGS-03587200", "geometry_length_km": 1.6389855447003314 }, "geometry": { "type": "LineString", "coordinates": [ [ -87.368883401, 35.155265294 ], [ -87.369245902, 35.154097296 ], [ -87.369413301, 35.153868295 ], [ -87.369608603, 35.152722999 ], [ -87.369664505, 35.1514633 ], [ -87.369580805, 35.1511885 ], [ -87.368995205, 35.150249399 ], [ -87.368939504, 35.149562299 ], [ -87.369302101, 35.148783594 ], [ -87.369330004, 35.148417093 ], [ -87.369190603, 35.148119293 ], [ -87.369274303, 35.1480048 ], [ -87.369302206, 35.147569694 ], [ -87.369079106, 35.146768093 ], [ -87.367963903, 35.145187594 ], [ -87.367573604, 35.1448211 ], [ -87.366653502, 35.144202694 ], [ -87.366681501, 35.143492699 ], [ -87.366095901, 35.142805494 ], [ -87.3664864, 35.142141297 ], [ -87.366509077, 35.141861151 ] ] } }
]
}
