{
"type": "FeatureCollection",
"name": "USGS_02429000_UM_12km",
"crs": { "type": "name", "properties": { "name": "urn:ogc:def:crs:OGC:1.3:CRS84" } },
"features": [
{ "type": "Feature", "properties": { "site_no": "02429000", "nhdplus_comid": "166745596", "navigation_mode": "UM", "requested_distance_km": 12.0, "start_source": "nwissite", "start_id": "USGS-02429000", "geometry_length_km": 0.64237372812259541 }, "geometry": { "type": "LineString", "coordinates": [ [ -87.345518604, 31.563113898 ], [ -87.346044004, 31.563033298 ], [ -87.346296206, 31.562989198 ], [ -87.346883602, 31.562953696 ], [ -87.350041702, 31.563252196 ], [ -87.350202307, 31.563091896 ], [ -87.350470304, 31.562289797 ], [ -87.350630902, 31.562129498 ], [ -87.35133438, 31.561888697 ] ] } },
{ "type": "Feature", "properties": { "site_no": "02429000", "nhdplus_comid": "166745597", "navigation_mode": "UM", "requested_distance_km": 12.0, "start_source": "nwissite", "start_id": "USGS-02429000", "geometry_length_km": 2.9858491292911551 }, "geometry": { "type": "LineString", "coordinates": [ [ -87.317494705, 31.565144099 ], [ -87.317976505, 31.565213099 ], [ -87.318886101, 31.565855093 ], [ -87.3193679, 31.5658096 ], [ -87.319903404, 31.565420195 ], [ -87.322018206, 31.564871095 ], [ -87.322981901, 31.564481899 ], [ -87.323624402, 31.5643446 ], [ -87.324828804, 31.564390898 ], [ -87.325337604, 31.563841194 ], [ -87.325712301, 31.563864194 ], [ -87.325819202, 31.564230897 ], [ -87.326033205, 31.564437196 ], [ -87.326942906, 31.564850099 ], [ -87.327558301, 31.565377399 ], [ -87.327879503, 31.565354593 ], [ -87.328067005, 31.565125495 ], [ -87.328335002, 31.564369299 ], [ -87.328576006, 31.564231895 ], [ -87.328950703, 31.564186193 ], [ -87.329325303, 31.564277999 ], [ -87.330770604, 31.564186797 ], [ -87.331627004, 31.564530894 ], [ -87.332884803, 31.564897999 ], [ -87.333446905, 31.564921096 ], [ -87.3342501, 31.564302593 ], [ -87.334919304, 31.564142399 ], [ -87.336953506, 31.563867994 ], [ -87.337622806, 31.563570194 ], [ -87.339791, 31.562860399 ], [ -87.340647504, 31.562654398 ], [ -87.342788607, 31.562631898 ], [ -87.343779005, 31.562884293 ], [ -87.344555102, 31.562861495 ], [ -87.345518604, 31.563113898 ] ] } },
{ "type": "Feature", "properties": { "site_no": "02429000", "nhdplus_comid": "18238985", "navigation_mode": "UM", "requested_distance_km": 12.0, "start_source": "nwissite", "start_id": "USGS-02429000", "geometry_length_km": 0.39712724559133733 }, "geometry": { "type": "LineString", "coordinates": [ [ -87.313373104, 31.564821497 ], [ -87.315085806, 31.565234698 ], [ -87.315621205, 31.565143295 ], [ -87.317494705, 31.565144099 ] ] } },
{ "type": "Feature", "properties": { "site_no": "02429000", "nhdplus_comid": "18238989", "navigation_mode": "UM", "requested_distance_km": 12.0, "start_source": "nwissite", "start_id": "USGS-02429000", "geometry_length_km": 0.48866579809898009 }, "geometry": { "type": "LineString", "coordinates": [ [ -87.3088772, 31.563742094 ], [ -87.309198201, 31.563948594 ], [ -87.310937501, 31.564545296 ], [ -87.311339103, 31.564476699 ], [ -87.311928205, 31.564087398 ], [ -87.312276103, 31.564110599 ], [ -87.312757604, 31.564362794 ], [ -87.313373104, 31.564821497 ] ] } },
{ "type": "Feature", "properties": { "site_no": "02429000", "nhdplus_comid": "18239659", "navigation_mode": "UM", "requested_distance_km": 12.0, "start_source": "nwissite", "start_id": "USGS-02429000", "geometry_length_km": 0.25653068748181063 }, "geometry": { "type": "LineString", "coordinates": [ [ -87.306488201, 31.562933296 ], [ -87.307238907, 31.562865496 ], [ -87.308350906, 31.563583598 ], [ -87.308542006, 31.563617297 ], [ -87.3088772, 31.563742094 ] ] } },
{ "type": "Feature", "properties": { "site_no": "02429000", "nhdplus_comid": "18239661", "navigation_mode": "UM", "requested_distance_km": 12.0, "start_source": "nwissite", "start_id": "USGS-02429000", "geometry_length_km": 0.1557280214388824 }, "geometry": { "type": "LineString", "coordinates": [ [ -87.305399105, 31.561884098 ], [ -87.305505402, 31.561980799 ], [ -87.306488201, 31.562933296 ] ] } },
{ "type": "Feature", "properties": { "site_no": "02429000", "nhdplus_comid": "18239005", "navigation_mode": "UM", "requested_distance_km": 12.0, "start_source": "nwissite", "start_id": "USGS-02429000", "geometry_length_km": 0.25191139339764529 }, "geometry": { "type": "LineString", "coordinates": [ [ -87.303258702, 31.560851693 ], [ -87.304436304, 31.561058499 ], [ -87.304864302, 31.561242096 ], [ -87.305238701, 31.561654799 ], [ -87.305399202, 31.561723694 ], [ -87.305399105, 31.561884098 ] ] } },
{ "type": "Feature", "properties": { "site_no": "02429000", "nhdplus_comid": "18239007", "navigation_mode": "UM", "requested_distance_km": 12.0, "start_source": "nwissite", "start_id": "USGS-02429000", "geometry_length_km": 1.1269491241757941 }, "geometry": { "type": "LineString", "coordinates": [ [ -87.2923657, 31.560845196 ], [ -87.292552903, 31.560936995 ], [ -87.2929812, 31.560868494 ], [ -87.293704502, 31.560158499 ], [ -87.294240005, 31.559952497 ], [ -87.2960601, 31.559587099 ], [ -87.296729401, 31.559381194 ], [ -87.297853604, 31.559244394 ], [ -87.298335403, 31.559290498 ], [ -87.298843704, 31.559497096 ], [ -87.299405403, 31.559863999 ], [ -87.3005559, 31.560345896 ], [ -87.301813804, 31.560392499 ], [ -87.303071402, 31.560851596 ], [ -87.303258702, 31.560851693 ] ] } },
{ "type": "Feature", "properties": { "site_no": "02429000", "nhdplus_comid": "18239481", "navigation_mode": "UM", "requested_distance_km": 12.0, "start_source": "nwissite", "start_id": "USGS-02429000", "geometry_length_km": 0.44146143453814829 }, "geometry": { "type": "LineString", "coordinates": [ [ -87.289021701, 31.559238896 ], [ -87.289262302, 31.559445299 ], [ -87.289503105, 31.559537098 ], [ -87.2900379, 31.560018696 ], [ -87.290519804, 31.559973098 ], [ -87.291536801, 31.559882097 ], [ -87.291911505, 31.559905298 ], [ -87.292419806, 31.560157597 ], [ -87.2923657, 31.560845196 ] ] } },
{ "type": "Feature", "properties": { "site_no": "02429000", "nhdplus_comid": "18239503", "navigation_mode": "UM", "requested_distance_km": 12.0, "start_source": "nwissite", "start_id": "USGS-02429000", "geometry_length_km": 1.9302698051570277 }, "geometry": { "type": "LineString", "coordinates": [ [ -87.280013807, 31.547636598 ], [ -87.280067004, 31.547888793 ], [ -87.279369801, 31.549309097 ], [ -87.279235907, 31.549446493 ], [ -87.279235005, 31.550408997 ], [ -87.279475406, 31.550798699 ], [ -87.279796205, 31.551073998 ], [ -87.280438207, 31.551349498 ], [ -87.280491501, 31.551647395 ], [ -87.2802497, 31.552472197 ], [ -87.279981703, 31.552953295 ], [ -87.280008204, 31.553251296 ], [ -87.280703202, 31.554030895 ], [ -87.281826504, 31.5548568 ], [ -87.282147601, 31.554856993 ], [ -87.283004202, 31.554674298 ], [ -87.283753604, 31.554651894 ], [ -87.284369104, 31.554675199 ], [ -87.285680205, 31.554996997 ], [ -87.286108203, 31.555180594 ], [ -87.286348805, 31.555432796 ], [ -87.286428407, 31.556143299 ], [ -87.286508605, 31.556189299 ], [ -87.286455005, 31.556280896 ], [ -87.287364401, 31.556854397 ], [ -87.287792303, 31.557267196 ], [ -87.2888081, 31.558619998 ], [ -87.288995102, 31.558986694 ], [ -87.289021701, 31.559238896 ] ] } },
{ "type": "Feature", "properties": { "site_no": "02429000", "nhdplus_comid": "18239103", "navigation_mode": "UM", "requested_distance_km": 12.0, "start_source": "nwissite", "start_id": "USGS-02429000", "geometry_length_km": 1.9812073218490844 }, "geometry": { "type": "LineString", "coordinates": [ [ -87.270391107, 31.537408195 ], [ -87.270417705, 31.537568599 ], [ -87.270685107, 31.537843794 ], [ -87.270978801, 31.538371198 ], [ -87.271112002, 31.538921297 ], [ -87.2710049, 31.539035797 ], [ -87.271003306, 31.540479496 ], [ -87.271297105, 31.5408694 ], [ -87.271457702, 31.540938199 ], [ -87.272581503, 31.540984996 ], [ -87.272848904, 31.541099794 ], [ -87.273089305, 31.541489594 ], [ -87.273383401, 31.541696094 ], [ -87.274613701, 31.542247094 ], [ -87.275603503, 31.5424999 ], [ -87.276647203, 31.542500697 ], [ -87.276861206, 31.5425926 ], [ -87.276941203, 31.542890497 ], [ -87.2766461, 31.543577798 ], [ -87.276297905, 31.543875396 ], [ -87.276270904, 31.544081599 ], [ -87.276351206, 31.544150494 ], [ -87.276351005, 31.544333793 ], [ -87.276885301, 31.5451134 ], [ -87.276911907, 31.545296699 ], [ -87.277099103, 31.545503095 ], [ -87.2774202, 31.545434698 ], [ -87.277875401, 31.545205794 ], [ -87.278223306, 31.5452061 ], [ -87.279239401, 31.545917295 ], [ -87.279292405, 31.546375595 ], [ -87.278944306, 31.546558693 ], [ -87.278837003, 31.546948195 ], [ -87.278381705, 31.547245793 ], [ -87.278381504, 31.547406197 ], [ -87.278515205, 31.547612496 ], [ -87.280013807, 31.547636598 ] ] } },
{ "type": "Feature", "properties": { "site_no": "02429000", "nhdplus_comid": "18239153", "navigation_mode": "UM", "requested_distance_km": 12.0, "start_source": "nwissite", "start_id": "USGS-02429000", "geometry_length_km": 1.9198123837534091 }, "geometry": { "type": "LineString", "coordinates": [ [ -87.266768105, 31.523311295 ], [ -87.266472705, 31.524319395 ], [ -87.266499102, 31.524571493 ], [ -87.2672472, 31.525465995 ], [ -87.267647304, 31.526657999 ], [ -87.2676998, 31.527505897 ], [ -87.268233404, 31.528835595 ], [ -87.268527307, 31.529248297 ], [ -87.268553406, 31.529775396 ], [ -87.267696306, 31.530576795 ], [ -87.267695807, 31.530943498 ], [ -87.268471003, 31.531631596 ], [ -87.268577807, 31.531815097 ], [ -87.268523306, 31.532800399 ], [ -87.269351706, 31.533763498 ], [ -87.270875603, 31.534796 ], [ -87.270955704, 31.534933597 ], [ -87.2709288, 31.535185695 ], [ -87.270794801, 31.535368897 ], [ -87.269563206, 31.536009595 ], [ -87.269241504, 31.536536396 ], [ -87.269294605, 31.536948897 ], [ -87.269535206, 31.537132494 ], [ -87.270391107, 31.537408195 ] ] } }
]
}
