{
"type": "FeatureCollection",
"name": "USGS_02465493_UM_12km",
"crs": { "type": "name", "properties": { "name": "urn:ogc:def:crs:OGC:1.3:CRS84" } },
"features": [
{ "type": "Feature", "properties": { "site_no": "02465493", "nhdplus_comid": "18208346", "navigation_mode": "UM", "requested_distance_km": 12.0, "start_source": "nwissite", "start_id": "USGS-02465493", "geometry_length_km": 0.51325124047728499 }, "geometry": { "type": "LineString", "coordinates": [ [ -87.6171268, 32.993343793 ], [ -87.617371507, 32.993412599 ], [ -87.617996804, 32.993824996 ], [ -87.618839607, 32.994649798 ], [ -87.619465001, 32.994833097 ], [ -87.621969786, 32.994899102 ] ] } },
{ "type": "Feature", "properties": { "site_no": "02465493", "nhdplus_comid": "18210566", "navigation_mode": "UM", "requested_distance_km": 12.0, "start_source": "nwissite", "start_id": "USGS-02465493", "geometry_length_km": 1.2726998221000385 }, "geometry": { "type": "LineString", "coordinates": [ [ -87.6120167, 32.982941896 ], [ -87.612179801, 32.983033597 ], [ -87.612832002, 32.984224997 ], [ -87.612913601, 32.984431297 ], [ -87.612967901, 32.985393494 ], [ -87.613348402, 32.985989198 ], [ -87.614055, 32.988303296 ], [ -87.614761703, 32.989952996 ], [ -87.6158491, 32.991648398 ], [ -87.6170725, 32.993137695 ], [ -87.6171268, 32.993343793 ] ] } },
{ "type": "Feature", "properties": { "site_no": "02465493", "nhdplus_comid": "18208342", "navigation_mode": "UM", "requested_distance_km": 12.0, "start_source": "nwissite", "start_id": "USGS-02465493", "geometry_length_km": 3.8409374160555827 }, "geometry": { "type": "LineString", "coordinates": [ [ -87.575752802, 32.983483799 ], [ -87.576133706, 32.9827279 ], [ -87.576541804, 32.982338496 ], [ -87.577112801, 32.9820638 ], [ -87.578825407, 32.981949799 ], [ -87.579477906, 32.981697999 ], [ -87.580837503, 32.980667494 ], [ -87.581571601, 32.980347 ], [ -87.582903802, 32.980095394 ], [ -87.583284207, 32.980255894 ], [ -87.5836647, 32.980278894 ], [ -87.583855003, 32.980187297 ], [ -87.584453404, 32.9795231 ], [ -87.5848068, 32.979408696 ], [ -87.586737007, 32.979111299 ], [ -87.587933101, 32.978653394 ], [ -87.589129306, 32.978424594 ], [ -87.592228107, 32.978402495 ], [ -87.594321206, 32.978150897 ], [ -87.596957907, 32.977991097 ], [ -87.597202606, 32.977899499 ], [ -87.597746402, 32.977487199 ], [ -87.598235704, 32.977303997 ], [ -87.599459, 32.977327093 ], [ -87.6022586, 32.977854498 ], [ -87.603944004, 32.977740198 ], [ -87.605873905, 32.978152998 ], [ -87.606417507, 32.978473693 ], [ -87.608075306, 32.980146497 ], [ -87.611065403, 32.981910899 ], [ -87.611826405, 32.982552394 ], [ -87.6120167, 32.982941896 ] ] } },
{ "type": "Feature", "properties": { "site_no": "02465493", "nhdplus_comid": "18208320", "navigation_mode": "UM", "requested_distance_km": 12.0, "start_source": "nwissite", "start_id": "USGS-02465493", "geometry_length_km": 1.5126947434857207 }, "geometry": { "type": "LineString", "coordinates": [ [ -87.560854003, 32.986203894 ], [ -87.562757507, 32.985402897 ], [ -87.565069005, 32.984075099 ], [ -87.5657489, 32.983617194 ], [ -87.566238306, 32.983456999 ], [ -87.566945106, 32.983388595 ], [ -87.567407206, 32.983526297 ], [ -87.568168402, 32.983480796 ], [ -87.568793803, 32.983137295 ], [ -87.569310404, 32.982954293 ], [ -87.5700716, 32.982954599 ], [ -87.571321905, 32.983115494 ], [ -87.572355002, 32.983092993 ], [ -87.5727899, 32.9831618 ], [ -87.573659502, 32.983574696 ], [ -87.574801207, 32.983712599 ], [ -87.575426504, 32.983644098 ], [ -87.575752802, 32.983483799 ] ] } },
{ "type": "Feature", "properties": { "site_no": "02465493", "nhdplus_comid": "18208308", "navigation_mode": "UM", "requested_distance_km": 12.0, "start_source": "nwissite", "start_id": "USGS-02465493", "geometry_length_km": 0.38005317165552494 }, "geometry": { "type": "LineString", "coordinates": [ [ -87.557020001, 32.987393297 ], [ -87.560854003, 32.986203894 ] ] } },
{ "type": "Feature", "properties": { "site_no": "02465493", "nhdplus_comid": "18208312", "navigation_mode": "UM", "requested_distance_km": 12.0, "start_source": "nwissite", "start_id": "USGS-02465493", "geometry_length_km": 1.509580948672024 }, "geometry": { "type": "LineString", "coordinates": [ [ -87.542180203, 32.983512796 ], [ -87.543213107, 32.9835364 ], [ -87.544219002, 32.983445294 ], [ -87.545061603, 32.9836291 ], [ -87.546420403, 32.984110996 ], [ -87.547888204, 32.984295197 ], [ -87.548323102, 32.984432995 ], [ -87.548947901, 32.984914593 ], [ -87.549952902, 32.985946096 ], [ -87.551012702, 32.986519493 ], [ -87.552589305, 32.986589096 ], [ -87.555878103, 32.987507299 ], [ -87.557020001, 32.987393297 ] ] } },
{ "type": "Feature", "properties": { "site_no": "02465493", "nhdplus_comid": "18208338", "navigation_mode": "UM", "requested_distance_km": 12.0, "start_source": "nwissite", "start_id": "USGS-02465493", "geometry_length_km": 1.8345504185813766 }, "geometry": { "type": "LineString", "coordinates": [ [ -87.525031202, 32.979262099 ], [ -87.525547504, 32.979468696 ], [ -87.527177103, 32.980798796 ], [ -87.527502701, 32.981348895 ], [ -87.528208904, 32.981945097 ], [ -87.528398901, 32.982265994 ], [ -87.529431, 32.983022995 ], [ -87.5295664, 32.983504198 ], [ -87.529675007, 32.9835959 ], [ -87.531741306, 32.983414099 ], [ -87.533562504, 32.983484097 ], [ -87.535736904, 32.983897999 ], [ -87.539842106, 32.983534195 ], [ -87.542180203, 32.983512796 ] ] } }
]
}
