{
"type": "FeatureCollection",
"name": "USGS_02365310_UM_12km",
"crs": { "type": "name", "properties": { "name": "urn:ogc:def:crs:OGC:1.3:CRS84" } },
"features": [
{ "type": "Feature", "properties": { "site_no": "02365310", "nhdplus_comid": "2238713", "navigation_mode": "UM", "requested_distance_km": 12.0, "start_source": "nwissite", "start_id": "USGS-02365310", "geometry_length_km": 2.3783940046997865 }, "geometry": { "type": "LineString", "coordinates": [ [ -85.593636803, 31.056171998 ], [ -85.593237802, 31.055644996 ], [ -85.593025103, 31.0550263 ], [ -85.592972003, 31.054545 ], [ -85.5931319, 31.054063894 ], [ -85.5933716, 31.053605698 ], [ -85.594356507, 31.053193495 ], [ -85.594516203, 31.053010195 ], [ -85.594702803, 31.052460298 ], [ -85.594649605, 31.052047797 ], [ -85.594384007, 31.050581299 ], [ -85.593878701, 31.049618796 ], [ -85.593559407, 31.049389496 ], [ -85.592096306, 31.047693498 ], [ -85.591378003, 31.046593495 ], [ -85.591245204, 31.045883097 ], [ -85.591192804, 31.043591797 ], [ -85.591006801, 31.043064594 ], [ -85.591007203, 31.041941799 ], [ -85.590874307, 31.041391894 ], [ -85.590794601, 31.041323096 ], [ -85.590768106, 31.041025199 ], [ -85.590369001, 31.040566795 ], [ -85.588373601, 31.039649695 ], [ -85.586537503, 31.039420098 ], [ -85.586017963, 31.039270847 ] ] } }
]
}
