{
"type": "FeatureCollection",
"name": "USGS_03591570_DM_12km",
"crs": { "type": "name", "properties": { "name": "urn:ogc:def:crs:OGC:1.3:CRS84" } },
"features": [
{ "type": "Feature", "properties": { "site_no": "03591570", "nhdplus_comid": "19569114", "navigation_mode": "DM", "requested_distance_km": 12.0, "start_source": "nwissite", "start_id": "USGS-03591570", "geometry_length_km": 3.1999411990425539 }, "geometry": { "type": "LineString", "coordinates": [ [ -87.579478936, 34.326997364 ], [ -87.579523407, 34.3269822 ], [ -87.581152402, 34.326845296 ], [ -87.582726404, 34.3265251 ], [ -87.583416805, 34.326227494 ], [ -87.583831102, 34.325769499 ], [ -87.583997004, 34.325357296 ], [ -87.584080502, 34.323937096 ], [ -87.584329203, 34.323456198 ], [ -87.5851302, 34.322654694 ], [ -87.585738003, 34.321601197 ], [ -87.586290702, 34.320387296 ], [ -87.587561406, 34.318669699 ], [ -87.588638507, 34.317684993 ], [ -87.589135505, 34.317341596 ], [ -87.5897706, 34.317272998 ], [ -87.590239905, 34.317318998 ], [ -87.591537304, 34.317319393 ], [ -87.593276806, 34.316747099 ], [ -87.593746506, 34.315739296 ], [ -87.594492801, 34.312922098 ], [ -87.595515005, 34.310402595 ], [ -87.595901906, 34.309142798 ], [ -87.597172804, 34.30573 ] ] } },
{ "type": "Feature", "properties": { "site_no": "03591570", "nhdplus_comid": "19569116", "navigation_mode": "DM", "requested_distance_km": 12.0, "start_source": "nwissite", "start_id": "USGS-03591570", "geometry_length_km": 0.89013145192921195 }, "geometry": { "type": "LineString", "coordinates": [ [ -87.597172804, 34.30573 ], [ -87.598525301, 34.305684596 ], [ -87.599132404, 34.306074098 ], [ -87.599573903, 34.3069904 ], [ -87.599738806, 34.309326895 ], [ -87.599876702, 34.310013995 ], [ -87.600842506, 34.311274096 ], [ -87.601173505, 34.311938398 ] ] } },
{ "type": "Feature", "properties": { "site_no": "03591570", "nhdplus_comid": "19569136", "navigation_mode": "DM", "requested_distance_km": 12.0, "start_source": "nwissite", "start_id": "USGS-03591570", "geometry_length_km": 1.8001282626763229 }, "geometry": { "type": "LineString", "coordinates": [ [ -87.601173505, 34.311938398 ], [ -87.602222607, 34.311984397 ], [ -87.602802306, 34.311847098 ], [ -87.603989705, 34.310381293 ], [ -87.604404002, 34.309419297 ], [ -87.604625203, 34.308022097 ], [ -87.605453506, 34.306281194 ], [ -87.605729803, 34.305204697 ], [ -87.6061441, 34.303944893 ], [ -87.606475607, 34.302662194 ], [ -87.606696501, 34.302295797 ], [ -87.607138105, 34.302181296 ], [ -87.609318703, 34.3021129 ], [ -87.609815501, 34.302273296 ], [ -87.610726401, 34.302410796 ], [ -87.6122168, 34.302410893 ] ] } },
{ "type": "Feature", "properties": { "site_no": "03591570", "nhdplus_comid": "19569154", "navigation_mode": "DM", "requested_distance_km": 12.0, "start_source": "nwissite", "start_id": "USGS-03591570", "geometry_length_km": 0.69703212973533368 }, "geometry": { "type": "LineString", "coordinates": [ [ -87.6122168, 34.302410893 ], [ -87.6124928, 34.302250497 ], [ -87.614231803, 34.302204899 ], [ -87.615225501, 34.302021697 ], [ -87.615667202, 34.301678196 ], [ -87.615860403, 34.301403299 ], [ -87.615915701, 34.300784796 ], [ -87.615501702, 34.299525 ], [ -87.615419105, 34.298562899 ] ] } },
{ "type": "Feature", "properties": { "site_no": "03591570", "nhdplus_comid": "19569164", "navigation_mode": "DM", "requested_distance_km": 12.0, "start_source": "nwissite", "start_id": "USGS-03591570", "geometry_length_km": 0.14527807923283451 }, "geometry": { "type": "LineString", "coordinates": [ [ -87.615419105, 34.298562899 ], [ -87.615225807, 34.298265196 ], [ -87.615198404, 34.297302999 ] ] } },
{ "type": "Feature", "properties": { "site_no": "03591570", "nhdplus_comid": "19569174", "navigation_mode": "DM", "requested_distance_km": 12.0, "start_source": "nwissite", "start_id": "USGS-03591570", "geometry_length_km": 0.49105532071285402 }, "geometry": { "type": "LineString", "coordinates": [ [ -87.615198404, 34.297302999 ], [ -87.615391701, 34.296776094 ], [ -87.615640104, 34.296409696 ], [ -87.616385303, 34.295814097 ], [ -87.617903404, 34.295081198 ], [ -87.6188417, 34.294508696 ], [ -87.618924603, 34.2943483 ] ] } },
{ "type": "Feature", "properties": { "site_no": "03591570", "nhdplus_comid": "19569194", "navigation_mode": "DM", "requested_distance_km": 12.0, "start_source": "nwissite", "start_id": "USGS-03591570", "geometry_length_km": 0.56081324654145004 }, "geometry": { "type": "LineString", "coordinates": [ [ -87.618924603, 34.2943483 ], [ -87.619062506, 34.294302493 ], [ -87.620497704, 34.293134198 ], [ -87.6220432, 34.291210197 ], [ -87.622595206, 34.290774994 ], [ -87.622705601, 34.290477194 ] ] } },
{ "type": "Feature", "properties": { "site_no": "03591570", "nhdplus_comid": "19569198", "navigation_mode": "DM", "requested_distance_km": 12.0, "start_source": "nwissite", "start_id": "USGS-03591570", "geometry_length_km": 2.6170130982360891 }, "geometry": { "type": "LineString", "coordinates": [ [ -87.622705601, 34.290477194 ], [ -87.622871302, 34.290454298 ], [ -87.623312801, 34.2901107 ], [ -87.625023901, 34.2891258 ], [ -87.625934601, 34.288804896 ], [ -87.628363207, 34.288782097 ], [ -87.6288599, 34.2889653 ], [ -87.6293291, 34.2893546 ], [ -87.629439704, 34.289606594 ], [ -87.6294396, 34.290431194 ], [ -87.628556602, 34.292011894 ], [ -87.628418706, 34.292515799 ], [ -87.628335804, 34.2937527 ], [ -87.627894305, 34.295356199 ], [ -87.627232, 34.297211699 ], [ -87.6265698, 34.298333995 ], [ -87.626459301, 34.298677593 ], [ -87.626569904, 34.299410596 ], [ -87.626818202, 34.299822897 ], [ -87.627149403, 34.300074898 ], [ -87.633911803, 34.301013693 ], [ -87.634325802, 34.300967894 ] ] } },
{ "type": "Feature", "properties": { "site_no": "03591570", "nhdplus_comid": "19569144", "navigation_mode": "DM", "requested_distance_km": 12.0, "start_source": "nwissite", "start_id": "USGS-03591570", "geometry_length_km": 0.1316650142315974 }, "geometry": { "type": "LineString", "coordinates": [ [ -87.634325802, 34.300967894 ], [ -87.634877905, 34.300853297 ], [ -87.635567904, 34.3004179 ] ] } },
{ "type": "Feature", "properties": { "site_no": "03591570", "nhdplus_comid": "19569538", "navigation_mode": "DM", "requested_distance_km": 12.0, "start_source": "nwissite", "start_id": "USGS-03591570", "geometry_length_km": 2.0428414107416875 }, "geometry": { "type": "LineString", "coordinates": [ [ -87.635567904, 34.3004179 ], [ -87.635706104, 34.300303593 ], [ -87.6361579, 34.300067194 ], [ -87.636956505, 34.298777893 ], [ -87.637148902, 34.293942899 ], [ -87.637538604, 34.290334299 ], [ -87.638024405, 34.288887799 ], [ -87.638736404, 34.2884003 ], [ -87.640044905, 34.288494594 ], [ -87.641550705, 34.289815299 ], [ -87.644482903, 34.290902093 ] ] } }
]
}
