{
"type": "FeatureCollection",
"name": "USGS_02468500_DM_12km",
"crs": { "type": "name", "properties": { "name": "urn:ogc:def:crs:OGC:1.3:CRS84" } },
"features": [
{ "type": "Feature", "properties": { "site_no": "02468500", "nhdplus_comid": "18542556", "navigation_mode": "DM", "requested_distance_km": 12.0, "start_source": "nwissite", "start_id": "USGS-02468500", "geometry_length_km": 2.6970231908359814 }, "geometry": { "type": "LineString", "coordinates": [ [ -87.791801431, 32.328577719 ], [ -87.791921802, 32.328756899 ], [ -87.792838402, 32.329673998 ], [ -87.793188803, 32.330269895 ], [ -87.7935386, 32.331392795 ], [ -87.793862201, 32.331622198 ], [ -87.794536702, 32.331828795 ], [ -87.795562305, 32.331989795 ], [ -87.796641402, 32.332288399 ], [ -87.797100104, 32.332517795 ], [ -87.797693305, 32.333045095 ], [ -87.798933305, 32.334741399 ], [ -87.799014203, 32.334878899 ], [ -87.7989868, 32.335360095 ], [ -87.798608102, 32.336390898 ], [ -87.798904903, 32.336551398 ], [ -87.799984105, 32.336849995 ], [ -87.800604604, 32.337262698 ], [ -87.801171206, 32.337400593 ], [ -87.801765002, 32.337377898 ], [ -87.803357601, 32.337058 ], [ -87.804005302, 32.3370355 ], [ -87.805300504, 32.337356895 ], [ -87.806190401, 32.338205196 ], [ -87.806217104, 32.338686399 ], [ -87.805083007, 32.339441895 ], [ -87.804975003, 32.339602299 ], [ -87.805217706, 32.3398773 ], [ -87.806836806, 32.340336397 ], [ -87.808537006, 32.340566494 ], [ -87.8089687, 32.340749994 ], [ -87.809346303, 32.341162495 ], [ -87.809400104, 32.341322996 ] ] } },
{ "type": "Feature", "properties": { "site_no": "02468500", "nhdplus_comid": "18542420", "navigation_mode": "DM", "requested_distance_km": 12.0, "start_source": "nwissite", "start_id": "USGS-02468500", "geometry_length_km": 0.30189091841625787 }, "geometry": { "type": "LineString", "coordinates": [ [ -87.809400104, 32.341322996 ], [ -87.809508003, 32.341345996 ], [ -87.810506001, 32.342217095 ], [ -87.811774001, 32.343134195 ] ] } },
{ "type": "Feature", "properties": { "site_no": "02468500", "nhdplus_comid": "18542404", "navigation_mode": "DM", "requested_distance_km": 12.0, "start_source": "nwissite", "start_id": "USGS-02468500", "geometry_length_km": 0.54990076608529292 }, "geometry": { "type": "LineString", "coordinates": [ [ -87.811774001, 32.343134195 ], [ -87.813042305, 32.343409799 ], [ -87.813393302, 32.343318298 ], [ -87.814122707, 32.342218794 ], [ -87.814608701, 32.341921195 ], [ -87.815175503, 32.341875598 ], [ -87.815715201, 32.342127994 ], [ -87.816281602, 32.342723899 ] ] } },
{ "type": "Feature", "properties": { "site_no": "02468500", "nhdplus_comid": "18542398", "navigation_mode": "DM", "requested_distance_km": 12.0, "start_source": "nwissite", "start_id": "USGS-02468500", "geometry_length_km": 0.62428287193474608 }, "geometry": { "type": "LineString", "coordinates": [ [ -87.816281602, 32.342723899 ], [ -87.816848204, 32.342976198 ], [ -87.818251804, 32.342839293 ], [ -87.819520205, 32.343114793 ], [ -87.819952004, 32.343000397 ], [ -87.820519105, 32.342496596 ], [ -87.820843004, 32.342565499 ], [ -87.821517602, 32.342863597 ], [ -87.8224352, 32.342978597 ] ] } },
{ "type": "Feature", "properties": { "site_no": "02468500", "nhdplus_comid": "18542444", "navigation_mode": "DM", "requested_distance_km": 12.0, "start_source": "nwissite", "start_id": "USGS-02468500", "geometry_length_km": 1.3704904918829188 }, "geometry": { "type": "LineString", "coordinates": [ [ -87.8224352, 32.342978597 ], [ -87.822570205, 32.342978597 ], [ -87.823299102, 32.342566498 ], [ -87.823650204, 32.342245795 ], [ -87.823650502, 32.341764599 ], [ -87.823353805, 32.341191798 ], [ -87.823327005, 32.340710595 ], [ -87.823543102, 32.340435699 ], [ -87.823975101, 32.340344295 ], [ -87.824217901, 32.3404359 ], [ -87.824946307, 32.341192394 ], [ -87.8254859, 32.341329999 ], [ -87.825836904, 32.341146797 ], [ -87.826242104, 32.340482496 ], [ -87.826728001, 32.340299398 ], [ -87.828239501, 32.340139598 ], [ -87.828428507, 32.339887597 ], [ -87.828455701, 32.339566894 ], [ -87.828213006, 32.339085594 ], [ -87.8275657, 32.338397995 ], [ -87.827026404, 32.337458394 ], [ -87.826891802, 32.336541899 ], [ -87.826972805, 32.336312793 ] ] } },
{ "type": "Feature", "properties": { "site_no": "02468500", "nhdplus_comid": "18542456", "navigation_mode": "DM", "requested_distance_km": 12.0, "start_source": "nwissite", "start_id": "USGS-02468500", "geometry_length_km": 0.9460550585174976 }, "geometry": { "type": "LineString", "coordinates": [ [ -87.826972805, 32.336312793 ], [ -87.827270001, 32.335648395 ], [ -87.827567004, 32.335281894 ], [ -87.828835905, 32.334434599 ], [ -87.829267904, 32.334320098 ], [ -87.830293402, 32.334274694 ], [ -87.830779105, 32.334435195 ], [ -87.831588306, 32.335351996 ], [ -87.832101002, 32.335581295 ], [ -87.832613803, 32.335604399 ], [ -87.833072603, 32.335398294 ], [ -87.8335317, 32.334917299 ], [ -87.833774701, 32.334504895 ], [ -87.8339369, 32.3338864 ], [ -87.834017903, 32.333840594 ] ] } },
{ "type": "Feature", "properties": { "site_no": "02468500", "nhdplus_comid": "18542478", "navigation_mode": "DM", "requested_distance_km": 12.0, "start_source": "nwissite", "start_id": "USGS-02468500", "geometry_length_km": 0.77856953840742438 }, "geometry": { "type": "LineString", "coordinates": [ [ -87.834017903, 32.333840594 ], [ -87.833964005, 32.3335656 ], [ -87.833344005, 32.331984498 ], [ -87.833452001, 32.331686594 ], [ -87.833776005, 32.331503399 ], [ -87.835287303, 32.331389293 ], [ -87.8367716, 32.331206396 ], [ -87.8377432, 32.330977596 ], [ -87.838175103, 32.330679893 ], [ -87.838768907, 32.3304509 ] ] } },
{ "type": "Feature", "properties": { "site_no": "02468500", "nhdplus_comid": "18542480", "navigation_mode": "DM", "requested_distance_km": 12.0, "start_source": "nwissite", "start_id": "USGS-02468500", "geometry_length_km": 0.11670741382741795 }, "geometry": { "type": "LineString", "coordinates": [ [ -87.838768907, 32.3304509 ], [ -87.8400103, 32.330359593 ] ] } },
{ "type": "Feature", "properties": { "site_no": "02468500", "nhdplus_comid": "18542504", "navigation_mode": "DM", "requested_distance_km": 12.0, "start_source": "nwissite", "start_id": "USGS-02468500", "geometry_length_km": 1.0972971842114905 }, "geometry": { "type": "LineString", "coordinates": [ [ -87.8400103, 32.330359593 ], [ -87.840118304, 32.330176294 ], [ -87.840199202, 32.330153398 ], [ -87.840307303, 32.329924293 ], [ -87.840307407, 32.329534799 ], [ -87.840145603, 32.329236895 ], [ -87.839066505, 32.328457594 ], [ -87.839039706, 32.327953495 ], [ -87.839120701, 32.327793099 ], [ -87.839498706, 32.327472396 ], [ -87.8399304, 32.327289298 ], [ -87.840335205, 32.327289395 ], [ -87.8409288, 32.327449895 ], [ -87.841981106, 32.3279543 ], [ -87.842655607, 32.328389697 ], [ -87.843087204, 32.328779399 ], [ -87.843033105, 32.329237595 ], [ -87.842898101, 32.329558298 ], [ -87.842304103, 32.330199793 ], [ -87.841305405, 32.330955595 ] ] } },
{ "type": "Feature", "properties": { "site_no": "02468500", "nhdplus_comid": "18542472", "navigation_mode": "DM", "requested_distance_km": 12.0, "start_source": "nwissite", "start_id": "USGS-02468500", "geometry_length_km": 0.87526258690519509 }, "geometry": { "type": "LineString", "coordinates": [ [ -87.841305405, 32.330955595 ], [ -87.841413304, 32.331184797 ], [ -87.842303507, 32.3321473 ], [ -87.842951104, 32.332582898 ], [ -87.844003506, 32.332857996 ], [ -87.844867103, 32.332697794 ], [ -87.8451102, 32.332124993 ], [ -87.845326103, 32.331896 ], [ -87.845865801, 32.331873193 ], [ -87.846594505, 32.332033694 ], [ -87.8472692, 32.331965096 ], [ -87.847943805, 32.331781998 ], [ -87.848132707, 32.331598699 ], [ -87.848483801, 32.331048794 ] ] } },
{ "type": "Feature", "properties": { "site_no": "02468500", "nhdplus_comid": "18542492", "navigation_mode": "DM", "requested_distance_km": 12.0, "start_source": "nwissite", "start_id": "USGS-02468500", "geometry_length_km": 0.69108266058419454 }, "geometry": { "type": "LineString", "coordinates": [ [ -87.848483801, 32.331048794 ], [ -87.848510802, 32.3306823 ], [ -87.8486728, 32.330384396 ], [ -87.849077605, 32.330178298 ], [ -87.850022301, 32.330040999 ], [ -87.851290606, 32.329651698 ], [ -87.854421407, 32.328139998 ], [ -87.854502402, 32.328025497 ] ] } },
{ "type": "Feature", "properties": { "site_no": "02468500", "nhdplus_comid": "18542594", "navigation_mode": "DM", "requested_distance_km": 12.0, "start_source": "nwissite", "start_id": "USGS-02468500", "geometry_length_km": 1.2093669702874974 }, "geometry": { "type": "LineString", "coordinates": [ [ -87.854502402, 32.328025497 ], [ -87.854610302, 32.328025497 ], [ -87.857822105, 32.325161897 ], [ -87.8583619, 32.324543297 ], [ -87.858631901, 32.323832996 ], [ -87.858578205, 32.321541794 ], [ -87.858740106, 32.3211293 ], [ -87.859468803, 32.320212997 ], [ -87.859469101, 32.318998598 ], [ -87.859361105, 32.318746597 ] ] } }
]
}
