{
"type": "FeatureCollection",
"name": "USGS_02413400_DM_12km",
"crs": { "type": "name", "properties": { "name": "urn:ogc:def:crs:OGC:1.3:CRS84" } },
"features": [
{ "type": "Feature", "properties": { "site_no": "02413400", "nhdplus_comid": "15812011", "navigation_mode": "DM", "requested_distance_km": 12.0, "start_source": "nwissite", "start_id": "USGS-02413400", "geometry_length_km": 3.3261841739416727 }, "geometry": { "type": "LineString", "coordinates": [ [ -85.342445758, 33.323736498 ], [ -85.342541501, 33.3237767 ], [ -85.342868902, 33.323731095 ], [ -85.343196601, 33.323158495 ], [ -85.343251206, 33.3228608 ], [ -85.343060404, 33.3224485 ], [ -85.342651404, 33.322104894 ], [ -85.342651404, 33.321784198 ], [ -85.343524806, 33.321120195 ], [ -85.343524806, 33.320868298 ], [ -85.342652202, 33.319745697 ], [ -85.341834001, 33.318943799 ], [ -85.3411524, 33.318004593 ], [ -85.340552501, 33.317340195 ], [ -85.338834502, 33.315873794 ], [ -85.3381529, 33.315186493 ], [ -85.337934807, 33.314819999 ], [ -85.337744705, 33.3128502 ], [ -85.336627007, 33.311154895 ], [ -85.336518206, 33.310513593 ], [ -85.336818807, 33.309368499 ], [ -85.336983003, 33.308108799 ], [ -85.337092102, 33.307971396 ], [ -85.337774202, 33.307902999 ], [ -85.338374205, 33.308086395 ], [ -85.339165002, 33.308544599 ], [ -85.339437701, 33.308842495 ], [ -85.339901306, 33.309071697 ], [ -85.341155902, 33.3094844 ], [ -85.342574507, 33.309438899 ], [ -85.342847303, 33.309324495 ], [ -85.343065701, 33.309003897 ], [ -85.343147501, 33.308637396 ], [ -85.3423841, 33.307606496 ], [ -85.341647901, 33.307102494 ], [ -85.341238804, 33.306758799 ], [ -85.340503104, 33.3051553 ], [ -85.340339802, 33.3041704 ] ] } },
{ "type": "Feature", "properties": { "site_no": "02413400", "nhdplus_comid": "15812017", "navigation_mode": "DM", "requested_distance_km": 12.0, "start_source": "nwissite", "start_id": "USGS-02413400", "geometry_length_km": 2.7446198224994767 }, "geometry": { "type": "LineString", "coordinates": [ [ -85.340339802, 33.3041704 ], [ -85.3402308, 33.303987093 ], [ -85.340531006, 33.303551994 ], [ -85.3409402, 33.303483397 ], [ -85.342331007, 33.304056399 ], [ -85.344704002, 33.3042631 ], [ -85.348386005, 33.305615395 ], [ -85.348931402, 33.30573 ], [ -85.349886104, 33.305707395 ], [ -85.3516865, 33.305409998 ], [ -85.354495801, 33.306051895 ], [ -85.354932301, 33.306051895 ], [ -85.355068706, 33.305983298 ], [ -85.355068706, 33.305662595 ], [ -85.354577906, 33.305227295 ], [ -85.353296205, 33.304242194 ], [ -85.351223305, 33.303325593 ], [ -85.350978002, 33.303027794 ], [ -85.350869, 33.3026613 ], [ -85.351196304, 33.3023865 ], [ -85.353051104, 33.302180797 ], [ -85.354578607, 33.302478798 ], [ -85.357960604, 33.303418398 ] ] } },
{ "type": "Feature", "properties": { "site_no": "02413400", "nhdplus_comid": "15812015", "navigation_mode": "DM", "requested_distance_km": 12.0, "start_source": "nwissite", "start_id": "USGS-02413400", "geometry_length_km": 7.714579101641621 }, "geometry": { "type": "LineString", "coordinates": [ [ -85.357960604, 33.303418398 ], [ -85.358015202, 33.303555898 ], [ -85.361697301, 33.304312199 ], [ -85.3636612, 33.304907896 ], [ -85.365870506, 33.306007497 ], [ -85.366061404, 33.306282394 ], [ -85.366306804, 33.306946598 ], [ -85.366606601, 33.3092141 ], [ -85.367070302, 33.310084596 ], [ -85.369197704, 33.312077396 ], [ -85.369743302, 33.312375195 ], [ -85.370452501, 33.312924899 ], [ -85.371325403, 33.313314393 ], [ -85.371952802, 33.3131999 ], [ -85.372062005, 33.3130624 ], [ -85.372062005, 33.312764697 ], [ -85.370780006, 33.311069697 ], [ -85.3706709, 33.310726196 ], [ -85.370780103, 33.3099932 ], [ -85.371025607, 33.309260294 ], [ -85.371462107, 33.308985397 ], [ -85.371844001, 33.308985494 ], [ -85.372607701, 33.309214495 ], [ -85.373862602, 33.309832998 ], [ -85.374953605, 33.310382694 ], [ -85.375226505, 33.310542993 ], [ -85.376426905, 33.310886696 ], [ -85.377081506, 33.311207294 ], [ -85.378009006, 33.311459295 ], [ -85.379236504, 33.311527893 ], [ -85.379973002, 33.311940096 ], [ -85.3804368, 33.311917193 ], [ -85.382373601, 33.311642297 ], [ -85.3834102, 33.311642297 ], [ -85.384064905, 33.311390296 ], [ -85.384283103, 33.311229996 ], [ -85.384201206, 33.310703099 ], [ -85.383110106, 33.310130596 ], [ -85.381991602, 33.309237398 ], [ -85.3818551, 33.309076995 ], [ -85.381145902, 33.3083442 ], [ -85.379972801, 33.307748698 ], [ -85.379863702, 33.307427995 ], [ -85.380109206, 33.307176098 ], [ -85.3803275, 33.307015695 ], [ -85.382864401, 33.307427898 ], [ -85.383055307, 33.307336293 ], [ -85.383055307, 33.307015598 ], [ -85.382291406, 33.306236893 ], [ -85.380845703, 33.305664398 ], [ -85.380545601, 33.305481195 ], [ -85.3807365, 33.304839797 ], [ -85.380927503, 33.304702297 ], [ -85.381718501, 33.304725297 ], [ -85.382645905, 33.304885499 ], [ -85.3852375, 33.305916093 ], [ -85.386846706, 33.306030497 ], [ -85.387555905, 33.305457793 ], [ -85.3884288, 33.305389099 ], [ -85.390147306, 33.3058699 ], [ -85.390556507, 33.306236297 ], [ -85.390693001, 33.306625694 ], [ -85.390583903, 33.306923397 ], [ -85.390202105, 33.307015099 ], [ -85.389956504, 33.307221197 ], [ -85.389929302, 33.3073816 ], [ -85.3900657, 33.307496093 ], [ -85.391211405, 33.307976998 ], [ -85.392739207, 33.309076197 ], [ -85.393503107, 33.309350997 ], [ -85.393912204, 33.309350893 ], [ -85.394621402, 33.308823898 ], [ -85.3953031, 33.308182493 ], [ -85.395712301, 33.307953395 ], [ -85.396257907, 33.307884596 ], [ -85.397731006, 33.308044694 ], [ -85.398003802, 33.307953 ], [ -85.398058303, 33.307769798 ], [ -85.398112707, 33.307426199 ], [ -85.397949003, 33.307220094 ], [ -85.396475807, 33.306762293 ], [ -85.396312103, 33.306533299 ], [ -85.396121107, 33.306075193 ], [ -85.395602703, 33.305479698 ], [ -85.395684503, 33.305365197 ], [ -85.395602606, 33.305296496 ], [ -85.395547904, 33.304426096 ], [ -85.395738803, 33.3041742 ], [ -85.396557003, 33.303830497 ] ] } }
]
}
