{
"type": "FeatureCollection",
"name": "USGS_02367500_DM_12km",
"crs": { "type": "name", "properties": { "name": "urn:ogc:def:crs:OGC:1.3:CRS84" } },
"features": [
{ "type": "Feature", "properties": { "site_no": "02367500", "nhdplus_comid": "894903", "navigation_mode": "DM", "requested_distance_km": 12.0, "start_source": "nwissite", "start_id": "USGS-02367500", "geometry_length_km": 1.6751462144211551 }, "geometry": { "type": "LineString", "coordinates": [ [ -86.313379146, 31.27071342 ], [ -86.314284004, 31.270048 ], [ -86.314577706, 31.269773096 ], [ -86.314764701, 31.269268997 ], [ -86.314951606, 31.269131593 ], [ -86.3155118, 31.269200593 ], [ -86.315778807, 31.268925697 ], [ -86.315778904, 31.268650696 ], [ -86.315432206, 31.268490098 ], [ -86.315432407, 31.268260993 ], [ -86.315992802, 31.267917499 ], [ -86.316847801, 31.265924096 ], [ -86.317222103, 31.264732599 ], [ -86.317462407, 31.2644348 ], [ -86.317996003, 31.264274597 ], [ -86.318182901, 31.264137194 ], [ -86.3181298, 31.263816394 ], [ -86.3182633, 31.263495594 ], [ -86.318717003, 31.263060294 ], [ -86.319410905, 31.262716897 ], [ -86.319651105, 31.262419097 ], [ -86.320211604, 31.262144297 ], [ -86.320452005, 31.261571497 ], [ -86.320745505, 31.261388294 ], [ -86.321492501, 31.261480294 ], [ -86.321999401, 31.261342995 ], [ -86.322880201, 31.260701597 ], [ -86.323307, 31.260541394 ] ] } },
{ "type": "Feature", "properties": { "site_no": "02367500", "nhdplus_comid": "894915", "navigation_mode": "DM", "requested_distance_km": 12.0, "start_source": "nwissite", "start_id": "USGS-02367500", "geometry_length_km": 2.0964111947994706 }, "geometry": { "type": "LineString", "coordinates": [ [ -86.323307, 31.260541394 ], [ -86.3233345, 31.259212196 ], [ -86.3236816, 31.258731097 ], [ -86.323868304, 31.258685298 ], [ -86.324401803, 31.258983493 ], [ -86.324588403, 31.2590065 ], [ -86.324748605, 31.258892 ], [ -86.324775301, 31.258708693 ], [ -86.324535407, 31.258433595 ], [ -86.324535504, 31.258227296 ], [ -86.324668907, 31.258089796 ], [ -86.324989103, 31.258021198 ], [ -86.325762704, 31.258113094 ], [ -86.326376401, 31.257861294 ], [ -86.326536603, 31.257700995 ], [ -86.326563604, 31.257059298 ], [ -86.326670304, 31.256944798 ], [ -86.327417307, 31.256945096 ], [ -86.328111202, 31.256303594 ], [ -86.328404702, 31.255891196 ], [ -86.328671902, 31.255249597 ], [ -86.328698702, 31.2548372 ], [ -86.328565404, 31.254653797 ], [ -86.328538902, 31.254332997 ], [ -86.329312801, 31.253760293 ], [ -86.329339504, 31.253508195 ], [ -86.329046302, 31.253233097 ], [ -86.3295267, 31.252683297 ], [ -86.329633601, 31.2523854 ], [ -86.329687305, 31.251514494 ], [ -86.3290205, 31.2513768 ], [ -86.328860603, 31.251124695 ], [ -86.328914002, 31.250780895 ], [ -86.329341002, 31.250597693 ], [ -86.330301307, 31.250575095 ], [ -86.330808006, 31.250735797 ], [ -86.331128106, 31.250690095 ], [ -86.331368305, 31.250483893 ], [ -86.331469201, 31.250172898 ], [ -86.331256203, 31.249279097 ], [ -86.331283301, 31.248522796 ] ] } },
{ "type": "Feature", "properties": { "site_no": "02367500", "nhdplus_comid": "894937", "navigation_mode": "DM", "requested_distance_km": 12.0, "start_source": "nwissite", "start_id": "USGS-02367500", "geometry_length_km": 2.231631620238407 }, "geometry": { "type": "LineString", "coordinates": [ [ -86.331283301, 31.248522796 ], [ -86.331283405, 31.248133197 ], [ -86.331097007, 31.247674897 ], [ -86.331097201, 31.247193597 ], [ -86.331844002, 31.247171 ], [ -86.331870906, 31.246918894 ], [ -86.3317644, 31.246643797 ], [ -86.331897803, 31.246414699 ], [ -86.332431406, 31.246277399 ], [ -86.332991406, 31.246369295 ], [ -86.333178401, 31.246117197 ], [ -86.333231807, 31.245636098 ], [ -86.333925903, 31.2445134 ], [ -86.333685905, 31.244284093 ], [ -86.3336327, 31.244077899 ], [ -86.333873004, 31.243596695 ], [ -86.334193401, 31.242771797 ], [ -86.334540404, 31.242290594 ], [ -86.3352606, 31.241992995 ], [ -86.336114407, 31.241237 ], [ -86.336141206, 31.241007894 ], [ -86.336488307, 31.240366295 ], [ -86.336755, 31.240343496 ], [ -86.337154903, 31.240504093 ], [ -86.337395102, 31.240366593 ], [ -86.337875403, 31.239747994 ], [ -86.338435702, 31.239473194 ], [ -86.339209303, 31.2392672 ], [ -86.340303101, 31.238625996 ], [ -86.340516604, 31.238259293 ], [ -86.340730205, 31.237617694 ], [ -86.341290601, 31.237021998 ], [ -86.342304103, 31.2370224 ], [ -86.342651002, 31.236793198 ], [ -86.343317904, 31.235876799 ], [ -86.343638204, 31.235212296 ], [ -86.343825005, 31.235006094 ] ] } },
{ "type": "Feature", "properties": { "site_no": "02367500", "nhdplus_comid": "893859", "navigation_mode": "DM", "requested_distance_km": 12.0, "start_source": "nwissite", "start_id": "USGS-02367500", "geometry_length_km": 0.17421911631145157 }, "geometry": { "type": "LineString", "coordinates": [ [ -86.343825005, 31.235006094 ], [ -86.344091706, 31.234960295 ], [ -86.344438501, 31.234754093 ], [ -86.345505506, 31.2344108 ] ] } },
{ "type": "Feature", "properties": { "site_no": "02367500", "nhdplus_comid": "893875", "navigation_mode": "DM", "requested_distance_km": 12.0, "start_source": "nwissite", "start_id": "USGS-02367500", "geometry_length_km": 1.0786650345961553 }, "geometry": { "type": "LineString", "coordinates": [ [ -86.345505506, 31.2344108 ], [ -86.345879003, 31.233906694 ], [ -86.345932506, 31.233608693 ], [ -86.345745906, 31.233196199 ], [ -86.345772803, 31.232760794 ], [ -86.345906101, 31.232669197 ], [ -86.346839607, 31.232600696 ], [ -86.347533204, 31.231982097 ], [ -86.348306902, 31.230950996 ], [ -86.348307006, 31.230675995 ], [ -86.347827002, 31.230492495 ], [ -86.347853802, 31.229896694 ], [ -86.347960606, 31.229736298 ], [ -86.3485208, 31.229438499 ], [ -86.348494403, 31.228475995 ], [ -86.348574504, 31.228178099 ], [ -86.348868005, 31.227834396 ], [ -86.3500681, 31.227353498 ] ] } },
{ "type": "Feature", "properties": { "site_no": "02367500", "nhdplus_comid": "893897", "navigation_mode": "DM", "requested_distance_km": 12.0, "start_source": "nwissite", "start_id": "USGS-02367500", "geometry_length_km": 0.56052794528609007 }, "geometry": { "type": "LineString", "coordinates": [ [ -86.3500681, 31.227353498 ], [ -86.350281604, 31.2269869 ], [ -86.351108506, 31.2265516 ], [ -86.351242006, 31.225566193 ], [ -86.351802401, 31.224420495 ], [ -86.351802602, 31.223893397 ], [ -86.351509407, 31.222884998 ] ] } },
{ "type": "Feature", "properties": { "site_no": "02367500", "nhdplus_comid": "893955", "navigation_mode": "DM", "requested_distance_km": 12.0, "start_source": "nwissite", "start_id": "USGS-02367500", "geometry_length_km": 3.2520941474829574 }, "geometry": { "type": "LineString", "coordinates": [ [ -86.351509407, 31.222884998 ], [ -86.351242706, 31.222793199 ], [ -86.351136103, 31.222655699 ], [ -86.351162903, 31.2221286 ], [ -86.351296403, 31.221945293 ], [ -86.351323105, 31.221739098 ], [ -86.350923106, 31.221326396 ], [ -86.350763306, 31.220913894 ], [ -86.350736804, 31.220547199 ], [ -86.350816801, 31.220455594 ], [ -86.351776704, 31.220478699 ], [ -86.352070205, 31.220387094 ], [ -86.3520969, 31.220180899 ], [ -86.351883605, 31.219928697 ], [ -86.351883605, 31.219791196 ], [ -86.352497101, 31.218966298 ], [ -86.353270605, 31.218370594 ], [ -86.353377201, 31.218187399 ], [ -86.353404105, 31.2175228 ], [ -86.3535375, 31.217293695 ], [ -86.355564401, 31.215827398 ], [ -86.356391206, 31.215506695 ], [ -86.3566579, 31.215071194 ], [ -86.356738001, 31.214589998 ], [ -86.356871307, 31.214429595 ], [ -86.357297905, 31.214246295 ], [ -86.357458003, 31.2139256 ], [ -86.357645102, 31.212069295 ], [ -86.357485205, 31.211450495 ], [ -86.357485406, 31.210854694 ], [ -86.357832007, 31.2102817 ], [ -86.357965402, 31.209685996 ], [ -86.358418904, 31.209227793 ], [ -86.358365603, 31.208929799 ], [ -86.358099006, 31.208654799 ], [ -86.357512407, 31.208723493 ], [ -86.357432604, 31.207967199 ], [ -86.357059404, 31.207210794 ], [ -86.356126301, 31.206889696 ], [ -86.355726503, 31.206637599 ], [ -86.355699703, 31.206339598 ], [ -86.355993107, 31.206248 ], [ -86.357113004, 31.206431597 ], [ -86.357592903, 31.206408799 ], [ -86.357992902, 31.205537997 ], [ -86.357966304, 31.205285899 ], [ -86.358446606, 31.203681797 ], [ -86.358473405, 31.203108899 ], [ -86.358313404, 31.202879697 ], [ -86.358260304, 31.202512994 ], [ -86.358340204, 31.202375494 ], [ -86.359326705, 31.2023298 ], [ -86.359620005, 31.202238195 ], [ -86.359806605, 31.202054895 ], [ -86.3598333, 31.201825693 ] ] } },
{ "type": "Feature", "properties": { "site_no": "02367500", "nhdplus_comid": "893997", "navigation_mode": "DM", "requested_distance_km": 12.0, "start_source": "nwissite", "start_id": "USGS-02367500", "geometry_length_km": 1.2446384557403043 }, "geometry": { "type": "LineString", "coordinates": [ [ -86.3598333, 31.201825693 ], [ -86.359273501, 31.201504797 ], [ -86.359220207, 31.201000594 ], [ -86.359833807, 31.199533999 ], [ -86.360420406, 31.199144498 ], [ -86.360473804, 31.198525697 ], [ -86.360607207, 31.1980903 ], [ -86.360580504, 31.197769396 ], [ -86.360473901, 31.197609 ], [ -86.3599407, 31.197609 ], [ -86.359700806, 31.1974255 ], [ -86.359701201, 31.195294298 ], [ -86.359861307, 31.194698393 ], [ -86.360847704, 31.193759099 ], [ -86.3615411, 31.192269593 ] ] } }
]
}
