{
"type": "FeatureCollection",
"name": "USGS_03574700_DM_12km",
"crs": { "type": "name", "properties": { "name": "urn:ogc:def:crs:OGC:1.3:CRS84" } },
"features": [
{ "type": "Feature", "properties": { "site_no": "03574700", "nhdplus_comid": "19616700", "navigation_mode": "DM", "requested_distance_km": 12.0, "start_source": "nwissite", "start_id": "USGS-03574700", "geometry_length_km": 0.9662124821461251 }, "geometry": { "type": "LineString", "coordinates": [ [ -86.357796876, 35.066750152 ], [ -86.357915707, 35.066378996 ], [ -86.358472906, 35.0662416 ], [ -86.3584451, 35.066058397 ], [ -86.358138703, 35.065920994 ], [ -86.358083002, 35.065600298 ], [ -86.358389504, 35.065371297 ], [ -86.358445406, 35.064363495 ], [ -86.358334102, 35.064294897 ], [ -86.358306207, 35.064065799 ], [ -86.3587799, 35.063447498 ], [ -86.358807802, 35.063149795 ], [ -86.358222902, 35.062943496 ], [ -86.358195104, 35.062485494 ], [ -86.358334504, 35.062119 ], [ -86.358334601, 35.061775498 ], [ -86.3582232, 35.061523594 ], [ -86.358195506, 35.060927995 ], [ -86.358501904, 35.060515895 ], [ -86.358641401, 35.059714295 ], [ -86.358390607, 35.059347793 ] ] } },
{ "type": "Feature", "properties": { "site_no": "03574700", "nhdplus_comid": "19616710", "navigation_mode": "DM", "requested_distance_km": 12.0, "start_source": "nwissite", "start_id": "USGS-03574700", "geometry_length_km": 0.68958657864830331 }, "geometry": { "type": "LineString", "coordinates": [ [ -86.358390607, 35.059347793 ], [ -86.358307205, 35.059049994 ], [ -86.3583351, 35.058775194 ], [ -86.358892202, 35.058454596 ], [ -86.358948104, 35.057882093 ], [ -86.359171003, 35.057652995 ], [ -86.359338105, 35.057355396 ], [ -86.360201605, 35.056874499 ], [ -86.360368803, 35.056737095 ], [ -86.360842407, 35.056508094 ], [ -86.361065306, 35.056118794 ], [ -86.361483105, 35.055637896 ], [ -86.361733906, 35.0555005 ], [ -86.361900903, 35.055592097 ], [ -86.362179503, 35.055592097 ], [ -86.362374507, 35.055317298 ], [ -86.3625139, 35.054950893 ] ] } },
{ "type": "Feature", "properties": { "site_no": "03574700", "nhdplus_comid": "19616714", "navigation_mode": "DM", "requested_distance_km": 12.0, "start_source": "nwissite", "start_id": "USGS-03574700", "geometry_length_km": 0.21116277473553166 }, "geometry": { "type": "LineString", "coordinates": [ [ -86.3625139, 35.054950893 ], [ -86.362513803, 35.054744698 ], [ -86.362625301, 35.054584496 ], [ -86.363043107, 35.054469995 ], [ -86.363321602, 35.054309696 ], [ -86.363767304, 35.054218099 ], [ -86.364352204, 35.054355599 ] ] } },
{ "type": "Feature", "properties": { "site_no": "03574700", "nhdplus_comid": "19616736", "navigation_mode": "DM", "requested_distance_km": 12.0, "start_source": "nwissite", "start_id": "USGS-03574700", "geometry_length_km": 2.0565979658103664 }, "geometry": { "type": "LineString", "coordinates": [ [ -86.364352204, 35.054355599 ], [ -86.364602804, 35.054332696 ], [ -86.364797801, 35.054218195 ], [ -86.3650207, 35.053828895 ], [ -86.365689106, 35.0536457 ], [ -86.365995504, 35.0539435 ], [ -86.366357602, 35.0539435 ], [ -86.367137507, 35.053714596 ], [ -86.367638901, 35.053256497 ], [ -86.368808702, 35.053279497 ], [ -86.369198605, 35.052752696 ], [ -86.369699903, 35.052775696 ], [ -86.370145604, 35.052569494 ], [ -86.370452002, 35.052226 ], [ -86.370897606, 35.052042797 ], [ -86.372011706, 35.051882595 ], [ -86.373070106, 35.051584795 ], [ -86.373877801, 35.051538996 ], [ -86.374991804, 35.051126793 ], [ -86.375966601, 35.050554194 ], [ -86.375994407, 35.050233595 ], [ -86.376746401, 35.0499129 ], [ -86.376774207, 35.049523599 ], [ -86.377303407, 35.049157098 ], [ -86.377609804, 35.049065493 ], [ -86.378250301, 35.049202897 ], [ -86.378640205, 35.048882194 ], [ -86.379141502, 35.048698999 ], [ -86.379837707, 35.048630297 ], [ -86.380756803, 35.048882097 ], [ -86.3810075, 35.0487905 ], [ -86.381648004, 35.0481034 ], [ -86.381954402, 35.047920197 ], [ -86.383068301, 35.047553696 ] ] } },
{ "type": "Feature", "properties": { "site_no": "03574700", "nhdplus_comid": "19616792", "navigation_mode": "DM", "requested_distance_km": 12.0, "start_source": "nwissite", "start_id": "USGS-03574700", "geometry_length_km": 0.95743698825883117 }, "geometry": { "type": "LineString", "coordinates": [ [ -86.383068301, 35.047553696 ], [ -86.383430302, 35.046729095 ], [ -86.383708701, 35.046408296 ], [ -86.383820206, 35.045950294 ], [ -86.384405002, 35.045721196 ], [ -86.384794801, 35.045331895 ], [ -86.384850502, 35.045079894 ], [ -86.384655505, 35.044827998 ], [ -86.3846277, 35.0445989 ], [ -86.384794705, 35.044461496 ], [ -86.385101005, 35.044026293 ], [ -86.3849895, 35.043659896 ], [ -86.384933703, 35.042995699 ], [ -86.385212302, 35.0428124 ], [ -86.385880604, 35.042789496 ], [ -86.386270501, 35.042583294 ], [ -86.386521101, 35.042079493 ], [ -86.387078002, 35.041621298 ], [ -86.387217201, 35.041392297 ], [ -86.387356304, 35.040773794 ] ] } },
{ "type": "Feature", "properties": { "site_no": "03574700", "nhdplus_comid": "19616798", "navigation_mode": "DM", "requested_distance_km": 12.0, "start_source": "nwissite", "start_id": "USGS-03574700", "geometry_length_km": 1.0511458146344426 }, "geometry": { "type": "LineString", "coordinates": [ [ -86.387356304, 35.040773794 ], [ -86.388971403, 35.040521696 ], [ -86.388999306, 35.040361494 ], [ -86.388748601, 35.040086597 ], [ -86.388776407, 35.039765894 ], [ -86.389416605, 35.039170399 ], [ -86.3896394, 35.039124496 ], [ -86.389862306, 35.039353594 ], [ -86.390057206, 35.039307699 ], [ -86.390279904, 35.038941294 ], [ -86.390502602, 35.038780898 ], [ -86.390920304, 35.038620494 ], [ -86.391421504, 35.038322799 ], [ -86.391922802, 35.038322695 ], [ -86.392618805, 35.038070597 ], [ -86.393482104, 35.037978895 ], [ -86.394568101, 35.0376352 ], [ -86.394791007, 35.0380475 ], [ -86.395125106, 35.038115993 ], [ -86.395375706, 35.037932798 ], [ -86.3959883, 35.037932694 ], [ -86.396016106, 35.037818193 ] ] } },
{ "type": "Feature", "properties": { "site_no": "03574700", "nhdplus_comid": "19616804", "navigation_mode": "DM", "requested_distance_km": 12.0, "start_source": "nwissite", "start_id": "USGS-03574700", "geometry_length_km": 0.2482424293103673 }, "geometry": { "type": "LineString", "coordinates": [ [ -86.396016106, 35.037818193 ], [ -86.395960405, 35.037451699 ], [ -86.3962944, 35.037062295 ], [ -86.396656401, 35.036993496 ], [ -86.396907106, 35.037153795 ], [ -86.397547603, 35.037268199 ], [ -86.397714801, 35.0375202 ] ] } },
{ "type": "Feature", "properties": { "site_no": "03574700", "nhdplus_comid": "19616832", "navigation_mode": "DM", "requested_distance_km": 12.0, "start_source": "nwissite", "start_id": "USGS-03574700", "geometry_length_km": 2.7041220386373324 }, "geometry": { "type": "LineString", "coordinates": [ [ -86.397714801, 35.0375202 ], [ -86.398438804, 35.037542894 ], [ -86.398550004, 35.037290893 ], [ -86.3986893, 35.037176393 ], [ -86.399162702, 35.037359498 ], [ -86.399552606, 35.0373137 ], [ -86.400109306, 35.036649294 ], [ -86.400582701, 35.036374398 ], [ -86.401139304, 35.035618499 ], [ -86.402280904, 35.035183094 ], [ -86.402754106, 35.034518793 ], [ -86.403227307, 35.034175098 ], [ -86.403812103, 35.034381099 ], [ -86.404564001, 35.034472495 ], [ -86.405427106, 35.034082994 ], [ -86.405789107, 35.034220397 ], [ -86.4062903, 35.034174398 ], [ -86.407236807, 35.033647396 ], [ -86.407849401, 35.033532694 ], [ -86.408406205, 35.033188894 ], [ -86.408935204, 35.033142999 ], [ -86.409241602, 35.033326194 ], [ -86.409130402, 35.033761397 ], [ -86.409214102, 35.034104899 ], [ -86.411164202, 35.036142699 ], [ -86.412863307, 35.037035398 ], [ -86.412863307, 35.037287399 ], [ -86.412696302, 35.037470698 ], [ -86.412668705, 35.037768394 ], [ -86.4130309, 35.038295098 ], [ -86.413615905, 35.0387301 ], [ -86.414646305, 35.039096199 ], [ -86.415816501, 35.040080599 ], [ -86.416568704, 35.040813297 ], [ -86.417042203, 35.040927693 ], [ -86.418211907, 35.041064695 ], [ -86.4187968, 35.041201897 ], [ -86.418908201, 35.041316397 ], [ -86.418908402, 35.041614197 ] ] } },
{ "type": "Feature", "properties": { "site_no": "03574700", "nhdplus_comid": "19616782", "navigation_mode": "DM", "requested_distance_km": 12.0, "start_source": "nwissite", "start_id": "USGS-03574700", "geometry_length_km": 0.55278542375884954 }, "geometry": { "type": "LineString", "coordinates": [ [ -86.418908402, 35.041614197 ], [ -86.419326201, 35.041705593 ], [ -86.419855505, 35.0420947 ], [ -86.4206075, 35.042254798 ], [ -86.420886002, 35.042392194 ], [ -86.420886107, 35.042575397 ], [ -86.421081305, 35.042758495 ], [ -86.422167204, 35.042666495 ], [ -86.422919303, 35.042895198 ], [ -86.4230588, 35.0430784 ], [ -86.423086703, 35.043330297 ], [ -86.423477001, 35.043948494 ] ] } },
{ "type": "Feature", "properties": { "site_no": "03574700", "nhdplus_comid": "19616770", "navigation_mode": "DM", "requested_distance_km": 12.0, "start_source": "nwissite", "start_id": "USGS-03574700", "geometry_length_km": 0.59513692399216056 }, "geometry": { "type": "LineString", "coordinates": [ [ -86.423477001, 35.043948494 ], [ -86.4250089, 35.044405997 ], [ -86.426513202, 35.045069598 ], [ -86.4273213, 35.045664795 ], [ -86.427544303, 35.045939498 ], [ -86.4282405, 35.0460537 ], [ -86.429243006, 35.045892894 ] ] } },
{ "type": "Feature", "properties": { "site_no": "03574700", "nhdplus_comid": "19616768", "navigation_mode": "DM", "requested_distance_km": 12.0, "start_source": "nwissite", "start_id": "USGS-03574700", "geometry_length_km": 1.2118680982941041 }, "geometry": { "type": "LineString", "coordinates": [ [ -86.429243006, 35.045892894 ], [ -86.429465704, 35.045778297 ], [ -86.429939106, 35.045663595 ], [ -86.431081101, 35.045983694 ], [ -86.431610204, 35.045914799 ], [ -86.433670707, 35.045249693 ], [ -86.434617504, 35.045134693 ], [ -86.436929502, 35.045683093 ], [ -86.437625602, 35.045614094 ], [ -86.438154601, 35.045430698 ], [ -86.439268, 35.044788696 ], [ -86.440270007, 35.044124 ], [ -86.441634603, 35.044054598 ] ] } }
]
}
