{
"type": "FeatureCollection",
"name": "USGS_02470100_DM_12km",
"crs": { "type": "name", "properties": { "name": "urn:ogc:def:crs:OGC:1.3:CRS84" } },
"features": [
{ "type": "Feature", "properties": { "site_no": "02470100", "nhdplus_comid": "21639322", "navigation_mode": "DM", "requested_distance_km": 12.0, "start_source": "nwissite", "start_id": "USGS-02470100", "geometry_length_km": 0.35635489306895785 }, "geometry": { "type": "LineString", "coordinates": [ [ -87.790054592, 31.537915133 ], [ -87.790769406, 31.537864596 ], [ -87.792563103, 31.53672 ], [ -87.7929115, 31.536101498 ] ] } },
{ "type": "Feature", "properties": { "site_no": "02470100", "nhdplus_comid": "21639074", "navigation_mode": "DM", "requested_distance_km": 12.0, "start_source": "nwissite", "start_id": "USGS-02470100", "geometry_length_km": 0.53080163215633236 }, "geometry": { "type": "LineString", "coordinates": [ [ -87.7929115, 31.536101498 ], [ -87.793580703, 31.535483293 ], [ -87.794062302, 31.535483494 ], [ -87.794490404, 31.535667196 ], [ -87.7951326, 31.535667494 ], [ -87.795774803, 31.535553299 ], [ -87.796202704, 31.535691097 ], [ -87.796523705, 31.535714194 ], [ -87.796658002, 31.535164297 ], [ -87.797407404, 31.534706496 ] ] } },
{ "type": "Feature", "properties": { "site_no": "02470100", "nhdplus_comid": "21639094", "navigation_mode": "DM", "requested_distance_km": 12.0, "start_source": "nwissite", "start_id": "USGS-02470100", "geometry_length_km": 1.5524431985566141 }, "geometry": { "type": "LineString", "coordinates": [ [ -87.797407404, 31.534706496 ], [ -87.797354102, 31.534477293 ], [ -87.796524905, 31.534270495 ], [ -87.796471603, 31.533926696 ], [ -87.796659105, 31.533789299 ], [ -87.797488406, 31.533744 ], [ -87.797863103, 31.533606797 ], [ -87.798131004, 31.533240296 ], [ -87.798987404, 31.532942899 ], [ -87.799575604, 31.533378594 ], [ -87.7997628, 31.533447497 ], [ -87.8000037, 31.533378899 ], [ -87.800057404, 31.533035196 ], [ -87.800298706, 31.532462396 ], [ -87.800512806, 31.532370895 ], [ -87.801502705, 31.532486096 ], [ -87.801663302, 31.532302797 ], [ -87.8019851, 31.531363495 ], [ -87.802467301, 31.530607499 ], [ -87.803029306, 31.530332893 ], [ -87.80319, 31.530080795 ], [ -87.803163402, 31.529851697 ], [ -87.802842803, 31.529278599 ], [ -87.802816406, 31.528888993 ], [ -87.8029503, 31.528705798 ], [ -87.803458601, 31.528660297 ], [ -87.805277005, 31.5297153 ], [ -87.805758603, 31.529738493 ] ] } },
{ "type": "Feature", "properties": { "site_no": "02470100", "nhdplus_comid": "21639096", "navigation_mode": "DM", "requested_distance_km": 12.0, "start_source": "nwissite", "start_id": "USGS-02470100", "geometry_length_km": 1.2319764422585435 }, "geometry": { "type": "LineString", "coordinates": [ [ -87.805758603, 31.529738493 ], [ -87.806080006, 31.529096998 ], [ -87.805973306, 31.528776199 ], [ -87.805652507, 31.528409399 ], [ -87.805652805, 31.528042696 ], [ -87.806134403, 31.5279743 ], [ -87.806428507, 31.528157696 ], [ -87.8067495, 31.528203696 ], [ -87.807017207, 31.528020598 ], [ -87.807311803, 31.527562395 ], [ -87.807981007, 31.527058594 ], [ -87.808356106, 31.526325494 ], [ -87.808383204, 31.525638096 ], [ -87.8081697, 31.524858795 ], [ -87.807982706, 31.5244921 ], [ -87.807528302, 31.524033599 ], [ -87.807180502, 31.523918696 ], [ -87.806645505, 31.523895599 ], [ -87.806431405, 31.524009995 ], [ -87.806083605, 31.524055697 ], [ -87.805789605, 31.523780495 ], [ -87.805388801, 31.523138694 ], [ -87.805362307, 31.522726193 ], [ -87.805630207, 31.522222199 ] ] } },
{ "type": "Feature", "properties": { "site_no": "02470100", "nhdplus_comid": "21639102", "navigation_mode": "DM", "requested_distance_km": 12.0, "start_source": "nwissite", "start_id": "USGS-02470100", "geometry_length_km": 1.7385225969389095 }, "geometry": { "type": "LineString", "coordinates": [ [ -87.805630207, 31.522222199 ], [ -87.805951402, 31.522016093 ], [ -87.806165703, 31.521580793 ], [ -87.806085907, 31.520870395 ], [ -87.806219704, 31.520778798 ], [ -87.806594305, 31.520801999 ], [ -87.807129204, 31.521008395 ], [ -87.807744406, 31.521008797 ], [ -87.8080386, 31.521123499 ], [ -87.808092006, 31.521329798 ], [ -87.807824306, 31.521581694 ], [ -87.807824105, 31.521765098 ], [ -87.808118306, 31.521925598 ], [ -87.810097903, 31.521926597 ], [ -87.810365506, 31.521812096 ], [ -87.810874, 31.5214229 ], [ -87.811409101, 31.521377295 ], [ -87.811810106, 31.521675393 ], [ -87.812612504, 31.521836095 ], [ -87.812853403, 31.521721795 ], [ -87.812827103, 31.520965494 ], [ -87.8129877, 31.520828098 ], [ -87.813282005, 31.520759396 ], [ -87.813576207, 31.520920098 ], [ -87.813843101, 31.521836899 ], [ -87.814083606, 31.522226594 ], [ -87.814672306, 31.521951795 ], [ -87.815100707, 31.521379098 ], [ -87.815528907, 31.5210815 ], [ -87.816037506, 31.520623296 ], [ -87.816920504, 31.520188294 ], [ -87.816921003, 31.5193635 ] ] } },
{ "type": "Feature", "properties": { "site_no": "02470100", "nhdplus_comid": "21639108", "navigation_mode": "DM", "requested_distance_km": 12.0, "start_source": "nwissite", "start_id": "USGS-02470100", "geometry_length_km": 2.3949144895567844 }, "geometry": { "type": "LineString", "coordinates": [ [ -87.816921003, 31.5193635 ], [ -87.817188703, 31.519157298 ], [ -87.818312302, 31.518951498 ], [ -87.819542103, 31.520143695 ], [ -87.8202371, 31.521083497 ], [ -87.821039304, 31.521702595 ], [ -87.822082303, 31.522046797 ], [ -87.823072203, 31.522070199 ], [ -87.823286206, 31.521978594 ], [ -87.824142702, 31.521222696 ], [ -87.824517302, 31.521085396 ], [ -87.824891604, 31.521200098 ], [ -87.825159103, 31.521452196 ], [ -87.825346105, 31.522116899 ], [ -87.825372607, 31.522529393 ], [ -87.825559601, 31.522987694 ], [ -87.825773604, 31.523194 ], [ -87.8261213, 31.523171298 ], [ -87.826469205, 31.522919297 ], [ -87.827245601, 31.521819696 ], [ -87.827459902, 31.521063596 ], [ -87.827700801, 31.520605296 ], [ -87.828289703, 31.519872293 ], [ -87.828958802, 31.519207999 ], [ -87.829253204, 31.5190247 ], [ -87.829681203, 31.518956095 ], [ -87.829975307, 31.519024998 ], [ -87.830109, 31.519185498 ], [ -87.830697507, 31.519483499 ], [ -87.831553504, 31.519392096 ], [ -87.831794403, 31.519140199 ], [ -87.832757503, 31.518888496 ], [ -87.833293006, 31.517788596 ], [ -87.833427101, 31.516940795 ] ] } },
{ "type": "Feature", "properties": { "site_no": "02470100", "nhdplus_comid": "21639112", "navigation_mode": "DM", "requested_distance_km": 12.0, "start_source": "nwissite", "start_id": "USGS-02470100", "geometry_length_km": 0.64616231784978928 }, "geometry": { "type": "LineString", "coordinates": [ [ -87.833427101, 31.516940795 ], [ -87.833908804, 31.516459793 ], [ -87.834015906, 31.516253598 ], [ -87.834310204, 31.516116194 ], [ -87.834978901, 31.516139299 ], [ -87.835727803, 31.516574897 ], [ -87.835995004, 31.516918696 ], [ -87.836182207, 31.517445996 ], [ -87.836422704, 31.517720997 ], [ -87.836449407, 31.517881393 ], [ -87.836930603, 31.518637799 ], [ -87.837090902, 31.519623198 ] ] } },
{ "type": "Feature", "properties": { "site_no": "02470100", "nhdplus_comid": "21639124", "navigation_mode": "DM", "requested_distance_km": 12.0, "start_source": "nwissite", "start_id": "USGS-02470100", "geometry_length_km": 1.6556077358381234 }, "geometry": { "type": "LineString", "coordinates": [ [ -87.837090902, 31.519623198 ], [ -87.838107303, 31.519737996 ], [ -87.838615604, 31.519646496 ], [ -87.840033703, 31.518913597 ], [ -87.840595603, 31.518432595 ], [ -87.841317803, 31.517951496 ], [ -87.842200905, 31.517218493 ], [ -87.842709206, 31.517012298 ], [ -87.843913004, 31.516875096 ], [ -87.844367802, 31.516600199 ], [ -87.844608605, 31.516302399 ], [ -87.844608806, 31.5159586 ], [ -87.844074003, 31.5154773 ], [ -87.843138106, 31.514422894 ], [ -87.843111403, 31.5141939 ], [ -87.842978105, 31.512658499 ], [ -87.843085401, 31.5119939 ], [ -87.843754403, 31.510756597 ], [ -87.844075501, 31.5103672 ], [ -87.844369806, 31.510183893 ], [ -87.844797805, 31.510069497 ] ] } },
{ "type": "Feature", "properties": { "site_no": "02470100", "nhdplus_comid": "21639330", "navigation_mode": "DM", "requested_distance_km": 12.0, "start_source": "nwissite", "start_id": "USGS-02470100", "geometry_length_km": 0.80296763567893725 }, "geometry": { "type": "LineString", "coordinates": [ [ -87.844797805, 31.510069497 ], [ -87.845225804, 31.510046594 ], [ -87.845814101, 31.510184295 ], [ -87.846322306, 31.510505199 ], [ -87.8469375, 31.510505393 ], [ -87.8472853, 31.510299198 ], [ -87.847579606, 31.5099096 ], [ -87.847740106, 31.509840995 ], [ -87.848168001, 31.5099556 ], [ -87.848596007, 31.510184795 ], [ -87.849050701, 31.510093294 ], [ -87.8491043, 31.509612098 ], [ -87.849264801, 31.509520397 ], [ -87.849986903, 31.5100706 ], [ -87.8506556, 31.510506094 ], [ -87.850762405, 31.510826893 ], [ -87.851243906, 31.511010394 ], [ -87.851243801, 31.511124998 ] ] } }
]
}
