{
"type": "FeatureCollection",
"name": "USGS_02414715_UM_12km",
"crs": { "type": "name", "properties": { "name": "urn:ogc:def:crs:OGC:1.3:CRS84" } },
"features": [
{ "type": "Feature", "properties": { "site_no": "02414715", "nhdplus_comid": "22038591", "navigation_mode": "UM", "requested_distance_km": 12.0, "start_source": "nwissite", "start_id": "USGS-02414715", "geometry_length_km": 1.3166690313233966 }, "geometry": { "type": "LineString", "coordinates": [ [ -85.742647402, 32.966989599 ], [ -85.743598603, 32.967832498 ], [ -85.743833303, 32.968358397 ], [ -85.744035602, 32.969133794 ], [ -85.743905701, 32.970131598 ], [ -85.743160404, 32.971199997 ], [ -85.7408031, 32.973006293 ], [ -85.740478404, 32.975500695 ], [ -85.740729302, 32.975901894 ], [ -85.740700506, 32.977287397 ], [ -85.740726165, 32.977313947 ] ] } },
{ "type": "Feature", "properties": { "site_no": "02414715", "nhdplus_comid": "22038599", "navigation_mode": "UM", "requested_distance_km": 12.0, "start_source": "nwissite", "start_id": "USGS-02414715", "geometry_length_km": 4.5374667431207731 }, "geometry": { "type": "LineString", "coordinates": [ [ -85.705676906, 32.986614995 ], [ -85.707211107, 32.987637095 ], [ -85.708677001, 32.988022193 ], [ -85.710191704, 32.988032997 ], [ -85.714165807, 32.986625895 ], [ -85.717393905, 32.986286797 ], [ -85.719621904, 32.985478796 ], [ -85.720950805, 32.984589398 ], [ -85.723240301, 32.982146397 ], [ -85.725116201, 32.980549298 ], [ -85.731460005, 32.9760748 ], [ -85.732505202, 32.975033499 ], [ -85.734045006, 32.972522594 ], [ -85.734110005, 32.972023696 ], [ -85.735102803, 32.970220499 ], [ -85.736711003, 32.9683467 ], [ -85.738703601, 32.967012294 ], [ -85.739335306, 32.966816999 ], [ -85.741481304, 32.966631994 ], [ -85.742647402, 32.966989599 ] ] } },
{ "type": "Feature", "properties": { "site_no": "02414715", "nhdplus_comid": "22038493", "navigation_mode": "UM", "requested_distance_km": 12.0, "start_source": "nwissite", "start_id": "USGS-02414715", "geometry_length_km": 0.57794571214703372 }, "geometry": { "type": "LineString", "coordinates": [ [ -85.702365004, 32.982296593 ], [ -85.702638105, 32.983185194 ], [ -85.705676906, 32.986614995 ] ] } },
{ "type": "Feature", "properties": { "site_no": "02414715", "nhdplus_comid": "22038513", "navigation_mode": "UM", "requested_distance_km": 12.0, "start_source": "nwissite", "start_id": "USGS-02414715", "geometry_length_km": 0.44290278366125341 }, "geometry": { "type": "LineString", "coordinates": [ [ -85.702046901, 32.978361495 ], [ -85.702277005, 32.978988193 ], [ -85.702319004, 32.9821468 ], [ -85.702365004, 32.982296593 ] ] } },
{ "type": "Feature", "properties": { "site_no": "02414715", "nhdplus_comid": "22038531", "navigation_mode": "UM", "requested_distance_km": 12.0, "start_source": "nwissite", "start_id": "USGS-02414715", "geometry_length_km": 0.39352616855892097 }, "geometry": { "type": "LineString", "coordinates": [ [ -85.701542705, 32.974977896 ], [ -85.701902702, 32.976051897 ], [ -85.701739706, 32.977299094 ], [ -85.702006802, 32.977575697 ], [ -85.701941602, 32.978074498 ], [ -85.702046901, 32.978361495 ] ] } },
{ "type": "Feature", "properties": { "site_no": "02414715", "nhdplus_comid": "22038539", "navigation_mode": "UM", "requested_distance_km": 12.0, "start_source": "nwissite", "start_id": "USGS-02414715", "geometry_length_km": 0.10554084740221865 }, "geometry": { "type": "LineString", "coordinates": [ [ -85.700932406, 32.974197395 ], [ -85.701466501, 32.974750496 ], [ -85.701542705, 32.974977896 ] ] } },
{ "type": "Feature", "properties": { "site_no": "02414715", "nhdplus_comid": "22038549", "navigation_mode": "UM", "requested_distance_km": 12.0, "start_source": "nwissite", "start_id": "USGS-02414715", "geometry_length_km": 0.039598450824233376 }, "geometry": { "type": "LineString", "coordinates": [ [ -85.700665407, 32.9739208 ], [ -85.700932406, 32.974197395 ] ] } },
{ "type": "Feature", "properties": { "site_no": "02414715", "nhdplus_comid": "22038569", "navigation_mode": "UM", "requested_distance_km": 12.0, "start_source": "nwissite", "start_id": "USGS-02414715", "geometry_length_km": 0.32308790268687537 }, "geometry": { "type": "LineString", "coordinates": [ [ -85.699013405, 32.971396297 ], [ -85.699561507, 32.971927993 ], [ -85.700665407, 32.9739208 ] ] } },
{ "type": "Feature", "properties": { "site_no": "02414715", "nhdplus_comid": "22038587", "navigation_mode": "UM", "requested_distance_km": 12.0, "start_source": "nwissite", "start_id": "USGS-02414715", "geometry_length_km": 0.85699237833310826 }, "geometry": { "type": "LineString", "coordinates": [ [ -85.697679706, 32.964292094 ], [ -85.697660804, 32.964436598 ], [ -85.697895207, 32.964962594 ], [ -85.697256304, 32.9686905 ], [ -85.697409101, 32.969840094 ], [ -85.699013405, 32.971396297 ] ] } },
{ "type": "Feature", "properties": { "site_no": "02414715", "nhdplus_comid": "22038589", "navigation_mode": "UM", "requested_distance_km": 12.0, "start_source": "nwissite", "start_id": "USGS-02414715", "geometry_length_km": 0.071494056306053599 }, "geometry": { "type": "LineString", "coordinates": [ [ -85.697762907, 32.963655196 ], [ -85.697679706, 32.964292094 ] ] } },
{ "type": "Feature", "properties": { "site_no": "02414715", "nhdplus_comid": "22038635", "navigation_mode": "UM", "requested_distance_km": 12.0, "start_source": "nwissite", "start_id": "USGS-02414715", "geometry_length_km": 1.1002402112509115 }, "geometry": { "type": "LineString", "coordinates": [ [ -85.697903201, 32.955624998 ], [ -85.699518204, 32.956023693 ], [ -85.700586103, 32.95713 ], [ -85.700175501, 32.959111899 ], [ -85.699081205, 32.9605271 ], [ -85.698553406, 32.962245993 ], [ -85.697791204, 32.963438898 ], [ -85.697762907, 32.963655196 ] ] } },
{ "type": "Feature", "properties": { "site_no": "02414715", "nhdplus_comid": "22038633", "navigation_mode": "UM", "requested_distance_km": 12.0, "start_source": "nwissite", "start_id": "USGS-02414715", "geometry_length_km": 0.79808121743447868 }, "geometry": { "type": "LineString", "coordinates": [ [ -85.690123506, 32.958326995 ], [ -85.691452302, 32.957437895 ], [ -85.692898206, 32.956811897 ], [ -85.696206704, 32.955849797 ], [ -85.696805805, 32.955904096 ], [ -85.697903201, 32.955624998 ] ] } },
{ "type": "Feature", "properties": { "site_no": "02414715", "nhdplus_comid": "22038609", "navigation_mode": "UM", "requested_distance_km": 12.0, "start_source": "nwissite", "start_id": "USGS-02414715", "geometry_length_km": 0.81039171359390227 }, "geometry": { "type": "LineString", "coordinates": [ [ -85.682427801, 32.9615409 ], [ -85.683590606, 32.960763097 ], [ -85.687830806, 32.959633395 ], [ -85.690123506, 32.958326995 ] ] } },
{ "type": "Feature", "properties": { "site_no": "02414715", "nhdplus_comid": "22038593", "navigation_mode": "UM", "requested_distance_km": 12.0, "start_source": "nwissite", "start_id": "USGS-02414715", "geometry_length_km": 2.5610223593366745 }, "geometry": { "type": "LineString", "coordinates": [ [ -85.661600403, 32.971259095 ], [ -85.664313205, 32.971379593 ], [ -85.664879702, 32.971683398 ], [ -85.666827202, 32.971860394 ], [ -85.669158705, 32.972577095 ], [ -85.670806602, 32.9727268 ], [ -85.6714385, 32.972531796 ], [ -85.675940901, 32.969407193 ], [ -85.676638104, 32.968713298 ], [ -85.679671906, 32.964067094 ], [ -85.682427801, 32.9615409 ] ] } }
]
}
