{
"type": "FeatureCollection",
"name": "USGS_02342500_DM_12km",
"crs": { "type": "name", "properties": { "name": "urn:ogc:def:crs:OGC:1.3:CRS84" } },
"features": [
{ "type": "Feature", "properties": { "site_no": "02342500", "nhdplus_comid": "3435970", "navigation_mode": "DM", "requested_distance_km": 12.0, "start_source": "nwissite", "start_id": "USGS-02342500", "geometry_length_km": 2.4577415937370986 }, "geometry": { "type": "LineString", "coordinates": [ [ -85.015200739, 32.316368654 ], [ -85.014698505, 32.3166117 ], [ -85.014212705, 32.316840395 ], [ -85.013430506, 32.316816799 ], [ -85.012999304, 32.316518597 ], [ -85.012352601, 32.315968394 ], [ -85.012111105, 32.315051898 ], [ -85.011788204, 32.314433195 ], [ -85.0113573, 32.313928895 ], [ -85.010791302, 32.3136077 ], [ -85.009793803, 32.3132862 ], [ -85.0092813, 32.313262895 ], [ -85.008254901, 32.314429894 ], [ -85.0076074, 32.314521 ], [ -85.007041305, 32.314222597 ], [ -85.006206103, 32.313534699 ], [ -85.0051561, 32.312159397 ], [ -85.004591405, 32.310899198 ], [ -85.004564807, 32.310578495 ], [ -85.004484102, 32.310486794 ], [ -85.004269704, 32.309478797 ], [ -85.004297704, 32.3087001 ], [ -85.0052725, 32.305746295 ], [ -85.005489804, 32.304624297 ], [ -85.005411707, 32.3025399 ] ] } },
{ "type": "Feature", "properties": { "site_no": "02342500", "nhdplus_comid": "3436012", "navigation_mode": "DM", "requested_distance_km": 12.0, "start_source": "nwissite", "start_id": "USGS-02342500", "geometry_length_km": 1.1652277271843254 }, "geometry": { "type": "LineString", "coordinates": [ [ -85.005411707, 32.3025399 ], [ -85.005175605, 32.297641493 ], [ -85.004987404, 32.297160797 ], [ -85.004556507, 32.296657398 ], [ -85.003532805, 32.295924596 ], [ -85.002993904, 32.295626596 ], [ -85.001915604, 32.295328096 ], [ -85.001052603, 32.295396097 ], [ -84.9999303, 32.295898996 ] ] } },
{ "type": "Feature", "properties": { "site_no": "02342500", "nhdplus_comid": "3432874", "navigation_mode": "DM", "requested_distance_km": 12.0, "start_source": "nwissite", "start_id": "USGS-02342500", "geometry_length_km": 0.32909270047243244 }, "geometry": { "type": "LineString", "coordinates": [ [ -84.9999303, 32.295898996 ], [ -84.998974904, 32.296061598 ], [ -84.997437507, 32.2958152 ], [ -84.996466704, 32.295863397 ] ] } },
{ "type": "Feature", "properties": { "site_no": "02342500", "nhdplus_comid": "3432882", "navigation_mode": "DM", "requested_distance_km": 12.0, "start_source": "nwissite", "start_id": "USGS-02342500", "geometry_length_km": 1.0025566901893141 }, "geometry": { "type": "LineString", "coordinates": [ [ -84.996466704, 32.295863397 ], [ -84.995684803, 32.295978695 ], [ -84.995118901, 32.296254098 ], [ -84.993906602, 32.297194198 ], [ -84.993259706, 32.297378093 ], [ -84.992369905, 32.297516294 ], [ -84.991911106, 32.297196098 ], [ -84.991559707, 32.296532199 ], [ -84.991343006, 32.295776494 ], [ -84.991100006, 32.295501798 ], [ -84.989481203, 32.294861995 ], [ -84.988536507, 32.294221498 ], [ -84.988509305, 32.294038296 ] ] } },
{ "type": "Feature", "properties": { "site_no": "02342500", "nhdplus_comid": "3434166", "navigation_mode": "DM", "requested_distance_km": 12.0, "start_source": "nwissite", "start_id": "USGS-02342500", "geometry_length_km": 2.0627793853186267 }, "geometry": { "type": "LineString", "coordinates": [ [ -84.988509305, 32.294038296 ], [ -84.987861902, 32.293809898 ], [ -84.987187803, 32.293901995 ], [ -84.986810602, 32.294108495 ], [ -84.986676104, 32.294406295 ], [ -84.986515507, 32.295322694 ], [ -84.986003801, 32.2958728 ], [ -84.985491805, 32.296125196 ], [ -84.985383801, 32.296033695 ], [ -84.985033005, 32.295804895 ], [ -84.983494401, 32.2945695 ], [ -84.983035803, 32.294409499 ], [ -84.981552705, 32.294456594 ], [ -84.981202006, 32.2942736 ], [ -84.980473101, 32.293587096 ], [ -84.9797718, 32.293473199 ], [ -84.979178905, 32.293725595 ], [ -84.978370003, 32.2937949 ], [ -84.977966003, 32.2941617 ], [ -84.977832101, 32.295055099 ], [ -84.977239504, 32.295605294 ], [ -84.976996802, 32.295628399 ], [ -84.976403601, 32.295674697 ], [ -84.976079904, 32.295514598 ], [ -84.975890905, 32.295354396 ], [ -84.975782506, 32.294896394 ], [ -84.975404806, 32.294690594 ], [ -84.9748656, 32.2948284 ], [ -84.974569403, 32.295217998 ], [ -84.974381104, 32.295584597 ], [ -84.974355705, 32.297096297 ], [ -84.974275306, 32.297462799 ] ] } },
{ "type": "Feature", "properties": { "site_no": "02342500", "nhdplus_comid": "3432872", "navigation_mode": "DM", "requested_distance_km": 12.0, "start_source": "nwissite", "start_id": "USGS-02342500", "geometry_length_km": 1.8120079024429649 }, "geometry": { "type": "LineString", "coordinates": [ [ -84.974275306, 32.297462799 ], [ -84.973951906, 32.297623396 ], [ -84.973520406, 32.297600798 ], [ -84.973061703, 32.297417894 ], [ -84.972036004, 32.296525396 ], [ -84.9711731, 32.296571895 ], [ -84.9693387, 32.295863293 ], [ -84.968556605, 32.295703493 ], [ -84.967666604, 32.295681193 ], [ -84.9670467, 32.295933597 ], [ -84.966966003, 32.296162598 ], [ -84.966966204, 32.2963688 ], [ -84.967479005, 32.296757899 ], [ -84.968234301, 32.297054999 ], [ -84.968801104, 32.297558494 ], [ -84.968936302, 32.297856197 ], [ -84.968963802, 32.298405796 ], [ -84.968694605, 32.298795395 ], [ -84.968074806, 32.299231097 ], [ -84.967266105, 32.299552299 ], [ -84.965082206, 32.300011896 ], [ -84.964570001, 32.300241195 ], [ -84.963842504, 32.300837293 ], [ -84.963357203, 32.300929196 ], [ -84.9625751, 32.300883897 ] ] } },
{ "type": "Feature", "properties": { "site_no": "02342500", "nhdplus_comid": "3432844", "navigation_mode": "DM", "requested_distance_km": 12.0, "start_source": "nwissite", "start_id": "USGS-02342500", "geometry_length_km": 0.03293948968051439 }, "geometry": { "type": "LineString", "coordinates": [ [ -84.9625751, 32.300883897 ], [ -84.962224603, 32.300907098 ] ] } },
{ "type": "Feature", "properties": { "site_no": "02342500", "nhdplus_comid": "3432840", "navigation_mode": "DM", "requested_distance_km": 12.0, "start_source": "nwissite", "start_id": "USGS-02342500", "geometry_length_km": 0.30461658502713973 }, "geometry": { "type": "LineString", "coordinates": [ [ -84.962224603, 32.300907098 ], [ -84.959716603, 32.300954595 ], [ -84.959015705, 32.301161095 ] ] } },
{ "type": "Feature", "properties": { "site_no": "02342500", "nhdplus_comid": "3434366", "navigation_mode": "DM", "requested_distance_km": 12.0, "start_source": "nwissite", "start_id": "USGS-02342500", "geometry_length_km": 0.64613517945250432 }, "geometry": { "type": "LineString", "coordinates": [ [ -84.959015705, 32.301161095 ], [ -84.958839707, 32.301208794 ], [ -84.958736502, 32.301279895 ], [ -84.958633207, 32.301350899 ], [ -84.958530001, 32.301421896 ], [ -84.958426706, 32.301492997 ], [ -84.958323501, 32.301563993 ], [ -84.958220303, 32.301634997 ], [ -84.958117001, 32.301706098 ], [ -84.958013803, 32.301777095 ], [ -84.9579105, 32.301848099 ], [ -84.957807302, 32.301919095 ], [ -84.957704104, 32.301990196 ], [ -84.957600802, 32.3020612 ], [ -84.957497604, 32.302132197 ], [ -84.957394302, 32.302203193 ], [ -84.957291104, 32.302274294 ], [ -84.957187906, 32.302345298 ], [ -84.957084604, 32.302416295 ], [ -84.956981406, 32.302487396 ], [ -84.956878103, 32.3025584 ], [ -84.956774905, 32.302629396 ], [ -84.956671603, 32.302700393 ], [ -84.956568405, 32.302771494 ], [ -84.956465207, 32.302842498 ], [ -84.956361905, 32.302913494 ], [ -84.956328906, 32.303018697 ], [ -84.956294805, 32.303127199 ], [ -84.9562608, 32.303235598 ], [ -84.956226707, 32.303343996 ], [ -84.956192605, 32.303452395 ], [ -84.956158601, 32.303560793 ], [ -84.956124507, 32.303669199 ], [ -84.956090502, 32.303777695 ], [ -84.956056401, 32.303886093 ], [ -84.956022404, 32.303994499 ], [ -84.955988303, 32.304102898 ], [ -84.955954202, 32.304211296 ], [ -84.955920205, 32.304319695 ], [ -84.955886103, 32.304428197 ], [ -84.955852106, 32.304536596 ], [ -84.955818005, 32.304644994 ], [ -84.955784, 32.304753393 ], [ -84.955749005, 32.304776594 ], [ -84.955644406, 32.304846197 ], [ -84.955539703, 32.304915696 ], [ -84.955435105, 32.3049853 ], [ -84.955330402, 32.305054896 ], [ -84.955225803, 32.305124395 ], [ -84.9551211, 32.305193998 ], [ -84.955016501, 32.305263497 ], [ -84.954911806, 32.3053331 ], [ -84.954807207, 32.305402696 ] ] } }
]
}
