{
"type": "FeatureCollection",
"name": "USGS_02412065_DM_12km",
"crs": { "type": "name", "properties": { "name": "urn:ogc:def:crs:OGC:1.3:CRS84" } },
"features": [
{ "type": "Feature", "properties": { "site_no": "02412065", "nhdplus_comid": "15809777", "navigation_mode": "DM", "requested_distance_km": 12.0, "start_source": "nwissite", "start_id": "USGS-02412065", "geometry_length_km": 1.1618606935472471 }, "geometry": { "type": "LineString", "coordinates": [ [ -85.53135665, 33.653266143 ], [ -85.531291306, 33.6531673 ], [ -85.530881003, 33.652777493 ], [ -85.530360706, 33.652662493 ], [ -85.529895507, 33.6523415 ], [ -85.529566906, 33.652318299 ], [ -85.529210605, 33.652569994 ], [ -85.528854504, 33.652569793 ], [ -85.528580807, 33.652386196 ], [ -85.528471604, 33.652042598 ], [ -85.529074706, 33.651516296 ], [ -85.529129803, 33.651218593 ], [ -85.528719507, 33.6508976 ], [ -85.528747201, 33.650554098 ], [ -85.528967105, 33.649912998 ], [ -85.5293779, 33.649844497 ], [ -85.530472405, 33.650738694 ], [ -85.5307189, 33.650693096 ], [ -85.530910805, 33.650487095 ], [ -85.5314041, 33.650281399 ], [ -85.531815402, 33.649823599 ], [ -85.532089904, 33.6492742 ], [ -85.533075906, 33.649229094 ], [ -85.533267707, 33.649091795 ] ] } },
{ "type": "Feature", "properties": { "site_no": "02412065", "nhdplus_comid": "15809837", "navigation_mode": "DM", "requested_distance_km": 12.0, "start_source": "nwissite", "start_id": "USGS-02412065", "geometry_length_km": 1.7986499428869598 }, "geometry": { "type": "LineString", "coordinates": [ [ -85.533267707, 33.649091795 ], [ -85.532857701, 33.648335598 ], [ -85.532857902, 33.648175299 ], [ -85.5325571, 33.647739895 ], [ -85.532722101, 33.6471674 ], [ -85.533050902, 33.647007398 ], [ -85.5340643, 33.646916598 ], [ -85.534448102, 33.646550395 ], [ -85.534475707, 33.6463672 ], [ -85.534366503, 33.646092199 ], [ -85.533409402, 33.644831695 ], [ -85.533382401, 33.644533999 ], [ -85.533629201, 33.644236393 ], [ -85.533383101, 33.643823996 ], [ -85.533383407, 33.643571995 ], [ -85.533055402, 33.642999195 ], [ -85.532809302, 33.642747 ], [ -85.531823605, 33.642585896 ], [ -85.530099906, 33.6411874 ], [ -85.529744804, 33.640454099 ], [ -85.529309101, 33.638346598 ], [ -85.529777303, 33.636033595 ] ] } },
{ "type": "Feature", "properties": { "site_no": "02412065", "nhdplus_comid": "15809873", "navigation_mode": "DM", "requested_distance_km": 12.0, "start_source": "nwissite", "start_id": "USGS-02412065", "geometry_length_km": 1.4018373716377759 }, "geometry": { "type": "LineString", "coordinates": [ [ -85.529777303, 33.636033595 ], [ -85.530407406, 33.635782197 ], [ -85.531420507, 33.635783099 ], [ -85.531639703, 33.635622896 ], [ -85.532270402, 33.634890296 ], [ -85.532270804, 33.634500995 ], [ -85.532024607, 33.634294599 ], [ -85.531148605, 33.634133697 ], [ -85.530847602, 33.633904397 ], [ -85.5310397, 33.633515194 ], [ -85.531615101, 33.633171998 ], [ -85.531862006, 33.632805794 ], [ -85.532549202, 33.630378395 ], [ -85.533316106, 33.630127095 ], [ -85.534055106, 33.630356699 ], [ -85.534493305, 33.630288295 ], [ -85.535068505, 33.630036898 ], [ -85.535370201, 33.629533097 ], [ -85.535507202, 33.6294645 ], [ -85.5355075, 33.6291897 ], [ -85.5352346, 33.628296196 ], [ -85.535317004, 33.628112994 ] ] } },
{ "type": "Feature", "properties": { "site_no": "02412065", "nhdplus_comid": "15809915", "navigation_mode": "DM", "requested_distance_km": 12.0, "start_source": "nwissite", "start_id": "USGS-02412065", "geometry_length_km": 2.6976972251300619 }, "geometry": { "type": "LineString", "coordinates": [ [ -85.535317004, 33.628112994 ], [ -85.535126202, 33.627334096 ], [ -85.535592802, 33.626372494 ], [ -85.536333106, 33.625342399 ], [ -85.536607102, 33.625113599 ], [ -85.537291907, 33.624839194 ], [ -85.538935006, 33.624496795 ], [ -85.539318606, 33.624153495 ], [ -85.540635005, 33.621955596 ], [ -85.5411008, 33.621635295 ], [ -85.543538406, 33.620606296 ], [ -85.544058606, 33.620560899 ], [ -85.544167802, 33.620881595 ], [ -85.544140205, 33.621133499 ], [ -85.5439758, 33.6213395 ], [ -85.543318607, 33.621499494 ], [ -85.543373004, 33.621774293 ], [ -85.5438383, 33.621912099 ], [ -85.544550307, 33.621729299 ], [ -85.5446871, 33.621820994 ], [ -85.544632107, 33.622050099 ], [ -85.544056803, 33.622484796 ], [ -85.544001803, 33.622713894 ], [ -85.544713505, 33.622782998 ], [ -85.545863703, 33.622463197 ], [ -85.547836803, 33.620586395 ], [ -85.548357606, 33.619784899 ], [ -85.548658803, 33.619739294 ], [ -85.549534306, 33.620426998 ], [ -85.5497806, 33.620472997 ], [ -85.550219402, 33.619671598 ], [ -85.551068202, 33.619626299 ], [ -85.551424406, 33.619260095 ], [ -85.551506706, 33.619053997 ] ] } },
{ "type": "Feature", "properties": { "site_no": "02412065", "nhdplus_comid": "15809931", "navigation_mode": "DM", "requested_distance_km": 12.0, "start_source": "nwissite", "start_id": "USGS-02412065", "geometry_length_km": 0.94855200756535862 }, "geometry": { "type": "LineString", "coordinates": [ [ -85.551506706, 33.619053997 ], [ -85.551862702, 33.619031295 ], [ -85.554491706, 33.6179564 ], [ -85.554574206, 33.617612898 ], [ -85.555890404, 33.615048394 ], [ -85.5561653, 33.613559693 ], [ -85.556056701, 33.612528898 ], [ -85.555947207, 33.612483099 ] ] } },
{ "type": "Feature", "properties": { "site_no": "02412065", "nhdplus_comid": "15809955", "navigation_mode": "DM", "requested_distance_km": 12.0, "start_source": "nwissite", "start_id": "USGS-02412065", "geometry_length_km": 3.1101625786721412 }, "geometry": { "type": "LineString", "coordinates": [ [ -85.555947207, 33.612483099 ], [ -85.555975504, 33.611383595 ], [ -85.556359202, 33.610925794 ], [ -85.557098202, 33.610926196 ], [ -85.557536401, 33.610766195 ], [ -85.559262402, 33.608957693 ], [ -85.559700601, 33.608683094 ], [ -85.564053304, 33.608364694 ], [ -85.564682901, 33.608456694 ], [ -85.565804802, 33.608983994 ], [ -85.567610703, 33.610244595 ], [ -85.568486504, 33.610542797 ], [ -85.569690801, 33.610726699 ], [ -85.570621602, 33.610589698 ], [ -85.5721002, 33.610132195 ], [ -85.572867006, 33.609537095 ], [ -85.574263506, 33.608942196 ], [ -85.574948005, 33.608827993 ], [ -85.575824104, 33.608530499 ], [ -85.576782502, 33.608049899 ], [ -85.5776859, 33.607752495 ], [ -85.578726307, 33.607592694 ], [ -85.580122203, 33.607799396 ], [ -85.582147501, 33.608578898 ], [ -85.582557902, 33.608830996 ], [ -85.583707407, 33.609129198 ], [ -85.584583305, 33.609243996 ], [ -85.584610701, 33.609358497 ] ] } }
]
}
