{
"type": "FeatureCollection",
"name": "USGS_02371000_DM_12km",
"crs": { "type": "name", "properties": { "name": "urn:ogc:def:crs:OGC:1.3:CRS84" } },
"features": [
{ "type": "Feature", "properties": { "site_no": "02371000", "nhdplus_comid": "2376083", "navigation_mode": "DM", "requested_distance_km": 12.0, "start_source": "nwissite", "start_id": "USGS-02371000", "geometry_length_km": 0.49507480875111154 }, "geometry": { "type": "LineString", "coordinates": [ [ -85.995157793, 31.844641316 ], [ -85.997110501, 31.843814895 ], [ -85.997674204, 31.843744896 ], [ -85.998184606, 31.844087295 ], [ -85.998640902, 31.844063699 ], [ -85.999365404, 31.843810894 ], [ -85.999952205, 31.843947694 ] ] } },
{ "type": "Feature", "properties": { "site_no": "02371000", "nhdplus_comid": "2377153", "navigation_mode": "DM", "requested_distance_km": 12.0, "start_source": "nwissite", "start_id": "USGS-02371000", "geometry_length_km": 0.075639757568989913 }, "geometry": { "type": "LineString", "coordinates": [ [ -85.999952205, 31.843947694 ], [ -86.000270404, 31.843899697 ], [ -86.000404805, 31.843807198 ], [ -86.000700206, 31.843738794 ] ] } },
{ "type": "Feature", "properties": { "site_no": "02371000", "nhdplus_comid": "2376667", "navigation_mode": "DM", "requested_distance_km": 12.0, "start_source": "nwissite", "start_id": "USGS-02371000", "geometry_length_km": 1.1832994947142164 }, "geometry": { "type": "LineString", "coordinates": [ [ -86.000700206, 31.843738794 ], [ -86.000539705, 31.843326196 ], [ -86.0005408, 31.842363797 ], [ -86.000622004, 31.841928497 ], [ -86.000810601, 31.841470398 ], [ -86.001803704, 31.841402695 ], [ -86.002072603, 31.841105096 ], [ -86.002073504, 31.840463497 ], [ -86.001967005, 31.839867696 ], [ -86.002155207, 31.839592896 ], [ -86.002665706, 31.839203797 ], [ -86.002854705, 31.838378996 ], [ -86.003150105, 31.838241898 ], [ -86.004250705, 31.838197097 ], [ -86.004815005, 31.837716393 ], [ -86.0050565, 31.837716699 ], [ -86.005378403, 31.837923199 ], [ -86.005109504, 31.838358395 ], [ -86.005162604, 31.838770799 ], [ -86.005377106, 31.8389543 ], [ -86.005645402, 31.839023396 ], [ -86.005860403, 31.838840194 ] ] } },
{ "type": "Feature", "properties": { "site_no": "02371000", "nhdplus_comid": "2377157", "navigation_mode": "DM", "requested_distance_km": 12.0, "start_source": "nwissite", "start_id": "USGS-02371000", "geometry_length_km": 0.60623224860037428 }, "geometry": { "type": "LineString", "coordinates": [ [ -86.005860403, 31.838840194 ], [ -86.006076202, 31.837992594 ], [ -86.006103501, 31.8376031 ], [ -86.005996704, 31.837259397 ], [ -86.005648002, 31.836961098 ], [ -86.005809806, 31.836388394 ], [ -86.006240003, 31.835793093 ], [ -86.006294206, 31.835426494 ], [ -86.006590001, 31.834945694 ], [ -86.006831802, 31.834785394 ], [ -86.007314906, 31.834808894 ], [ -86.007851407, 31.8351072 ] ] } },
{ "type": "Feature", "properties": { "site_no": "02371000", "nhdplus_comid": "2376673", "navigation_mode": "DM", "requested_distance_km": 12.0, "start_source": "nwissite", "start_id": "USGS-02371000", "geometry_length_km": 0.94244094860100325 }, "geometry": { "type": "LineString", "coordinates": [ [ -86.007851407, 31.8351072 ], [ -86.008362502, 31.834168099 ], [ -86.008738607, 31.834008098 ], [ -86.010134406, 31.833826095 ], [ -86.011208102, 31.833827093 ], [ -86.011584707, 31.833139993 ], [ -86.011799507, 31.833025597 ], [ -86.013141803, 31.832820594 ], [ -86.014001206, 31.8323173 ], [ -86.014780603, 31.831538796 ], [ -86.015747301, 31.831081398 ] ] } },
{ "type": "Feature", "properties": { "site_no": "02371000", "nhdplus_comid": "2376677", "navigation_mode": "DM", "requested_distance_km": 12.0, "start_source": "nwissite", "start_id": "USGS-02371000", "geometry_length_km": 0.056524034103633145 }, "geometry": { "type": "LineString", "coordinates": [ [ -86.015747301, 31.831081398 ], [ -86.016015902, 31.8308983 ], [ -86.016150303, 31.830715097 ] ] } },
{ "type": "Feature", "properties": { "site_no": "02371000", "nhdplus_comid": "2376679", "navigation_mode": "DM", "requested_distance_km": 12.0, "start_source": "nwissite", "start_id": "USGS-02371000", "geometry_length_km": 1.2534321278417833 }, "geometry": { "type": "LineString", "coordinates": [ [ -86.016150303, 31.830715097 ], [ -86.016740806, 31.830715597 ], [ -86.018028602, 31.831174999 ], [ -86.018618703, 31.831542097 ], [ -86.018833406, 31.831519395 ], [ -86.0190752, 31.831267595 ], [ -86.019075505, 31.831084296 ], [ -86.019398004, 31.8306721 ], [ -86.019747101, 31.830534898 ], [ -86.020391107, 31.830672897 ], [ -86.021330401, 31.830627799 ], [ -86.022296406, 31.830903694 ], [ -86.023101404, 31.830995895 ], [ -86.0233161, 31.831087694 ], [ -86.023476906, 31.831294097 ], [ -86.023744501, 31.832073398 ], [ -86.023932107, 31.832233995 ], [ -86.024254203, 31.832348794 ], [ -86.024978705, 31.832440898 ], [ -86.025623001, 31.832326896 ], [ -86.026186503, 31.832395993 ], [ -86.027474806, 31.832419999 ] ] } },
{ "type": "Feature", "properties": { "site_no": "02371000", "nhdplus_comid": "2377159", "navigation_mode": "DM", "requested_distance_km": 12.0, "start_source": "nwissite", "start_id": "USGS-02371000", "geometry_length_km": 2.5431719690651882 }, "geometry": { "type": "LineString", "coordinates": [ [ -86.027474806, 31.832419999 ], [ -86.028173901, 31.831229098 ], [ -86.028738201, 31.830564998 ], [ -86.029785804, 31.829740897 ], [ -86.029974103, 31.829420194 ], [ -86.030081905, 31.828939095 ], [ -86.030243002, 31.828778699 ], [ -86.0316118, 31.828779794 ], [ -86.031880401, 31.828619599 ], [ -86.031880505, 31.828459196 ], [ -86.031451605, 31.828046493 ], [ -86.031424902, 31.827840194 ], [ -86.031532407, 31.827725694 ], [ -86.0321768, 31.827451296 ], [ -86.032875106, 31.827039294 ], [ -86.033143602, 31.826787494 ], [ -86.033117704, 31.825985499 ], [ -86.033037201, 31.825824998 ], [ -86.0325009, 31.825503796 ], [ -86.032501101, 31.8252059 ], [ -86.0326894, 31.824839495 ], [ -86.032877304, 31.824702099 ], [ -86.033092402, 31.824450195 ], [ -86.033764504, 31.823304996 ], [ -86.034650907, 31.822503597 ], [ -86.035027005, 31.822068498 ], [ -86.035376601, 31.821358398 ], [ -86.035833403, 31.820694193 ], [ -86.036612205, 31.820167795 ], [ -86.037874103, 31.819595896 ], [ -86.039700307, 31.818130493 ], [ -86.040425606, 31.817306198 ], [ -86.041311704, 31.8167568 ], [ -86.042197503, 31.816459499 ], [ -86.0422244, 31.816367894 ] ] } },
{ "type": "Feature", "properties": { "site_no": "02371000", "nhdplus_comid": "2376693", "navigation_mode": "DM", "requested_distance_km": 12.0, "start_source": "nwissite", "start_id": "USGS-02371000", "geometry_length_km": 0.64278790030571009 }, "geometry": { "type": "LineString", "coordinates": [ [ -86.0422244, 31.816367894 ], [ -86.042761102, 31.816345297 ], [ -86.043136902, 31.816230997 ], [ -86.043512903, 31.815887496 ], [ -86.043513402, 31.8154063 ], [ -86.043111406, 31.814741597 ], [ -86.043084905, 31.8144207 ], [ -86.043272801, 31.814306296 ], [ -86.043755703, 31.814443998 ], [ -86.045069806, 31.815475993 ], [ -86.045499101, 31.815545 ], [ -86.046009101, 31.815430798 ] ] } },
{ "type": "Feature", "properties": { "site_no": "02371000", "nhdplus_comid": "2377167", "navigation_mode": "DM", "requested_distance_km": 12.0, "start_source": "nwissite", "start_id": "USGS-02371000", "geometry_length_km": 2.4506210885784356 }, "geometry": { "type": "LineString", "coordinates": [ [ -86.046009101, 31.815430798 ], [ -86.0460364, 31.8148809 ], [ -86.046197504, 31.814628899 ], [ -86.046359003, 31.814101897 ], [ -86.045662805, 31.812405899 ], [ -86.045636207, 31.812039293 ], [ -86.045985103, 31.811993696 ], [ -86.0463337, 31.812245898 ], [ -86.0465753, 31.812200293 ], [ -86.046790302, 31.811742194 ], [ -86.046307907, 31.811054498 ], [ -86.046335205, 31.810573295 ], [ -86.046469606, 31.810183793 ], [ -86.046470001, 31.809725493 ], [ -86.046202205, 31.809221193 ], [ -86.0461758, 31.808671296 ], [ -86.046551906, 31.808075696 ], [ -86.046552703, 31.807227798 ], [ -86.046740703, 31.807090499 ], [ -86.0466609, 31.806196794 ], [ -86.046822205, 31.805944793 ], [ -86.047198102, 31.8055785 ], [ -86.047708102, 31.805280894 ], [ -86.047842503, 31.805120595 ], [ -86.047788903, 31.8048914 ], [ -86.047654904, 31.804776795 ], [ -86.047467306, 31.804318398 ], [ -86.047360405, 31.8039058 ], [ -86.046663001, 31.803630494 ], [ -86.045563102, 31.803538099 ], [ -86.045509703, 31.803148493 ], [ -86.045751505, 31.802782096 ], [ -86.046530202, 31.801980495 ], [ -86.047120802, 31.801705897 ], [ -86.047792003, 31.801179394 ], [ -86.048811905, 31.800813295 ], [ -86.048865601, 31.800652899 ], [ -86.0484097, 31.800423495 ], [ -86.047900006, 31.800377496 ], [ -86.047685504, 31.800262697 ], [ -86.047551505, 31.800033495 ], [ -86.047551706, 31.799735494 ], [ -86.0477129, 31.799529396 ], [ -86.047552504, 31.798933595 ] ] } },
{ "type": "Feature", "properties": { "site_no": "02371000", "nhdplus_comid": "2376719", "navigation_mode": "DM", "requested_distance_km": 12.0, "start_source": "nwissite", "start_id": "USGS-02371000", "geometry_length_km": 0.94339737976356952 }, "geometry": { "type": "LineString", "coordinates": [ [ -86.047552504, 31.798933595 ], [ -86.0477404, 31.798727497 ], [ -86.048277304, 31.798429899 ], [ -86.0486532, 31.798109293 ], [ -86.048707001, 31.797880195 ], [ -86.048331805, 31.797421694 ], [ -86.048493505, 31.796482399 ], [ -86.049057901, 31.795130797 ], [ -86.049514502, 31.794581093 ], [ -86.049917504, 31.793893993 ], [ -86.049998604, 31.793069094 ], [ -86.050454803, 31.792977594 ], [ -86.050830401, 31.7932529 ], [ -86.051366903, 31.793207295 ], [ -86.051528201, 31.792726196 ] ] } },
{ "type": "Feature", "properties": { "site_no": "02371000", "nhdplus_comid": "2377171", "navigation_mode": "DM", "requested_distance_km": 12.0, "start_source": "nwissite", "start_id": "USGS-02371000", "geometry_length_km": 1.1703008639044834 }, "geometry": { "type": "LineString", "coordinates": [ [ -86.051528201, 31.792726196 ], [ -86.051394306, 31.792428195 ], [ -86.051367603, 31.792199098 ], [ -86.051233605, 31.791992798 ], [ -86.0511804, 31.7914887 ], [ -86.050778404, 31.7909614 ], [ -86.050751805, 31.790732294 ], [ -86.051932603, 31.790205896 ], [ -86.052791201, 31.790023096 ], [ -86.054401003, 31.790023997 ], [ -86.054803506, 31.789886795 ], [ -86.055259906, 31.789543293 ], [ -86.055769905, 31.789108098 ], [ -86.056253202, 31.788558498 ], [ -86.056441307, 31.788191997 ], [ -86.0563609, 31.787939794 ], [ -86.055449106, 31.787480995 ], [ -86.055449203, 31.787228994 ], [ -86.055691004, 31.786931194 ], [ -86.056039803, 31.786702298 ], [ -86.056495905, 31.7866567 ] ] } }
]
}
