{
"type": "FeatureCollection",
"name": "USGS_03577110_DM_12km",
"crs": { "type": "name", "properties": { "name": "urn:ogc:def:crs:OGC:1.3:CRS84" } },
"features": [
{ "type": "Feature", "properties": { "site_no": "03577110", "nhdplus_comid": "19626308", "navigation_mode": "DM", "requested_distance_km": 12.0, "start_source": "nwissite", "start_id": "USGS-03577110", "geometry_length_km": 0.65500678630500531 }, "geometry": { "type": "LineString", "coordinates": [ [ -87.026126011, 34.493989152 ], [ -87.025361501, 34.493457295 ], [ -87.025223404, 34.4932281 ], [ -87.024863802, 34.493227795 ], [ -87.024780706, 34.4933194 ], [ -87.0248079, 34.493708797 ], [ -87.025028504, 34.494235799 ], [ -87.025166102, 34.4949231 ], [ -87.025027506, 34.495152093 ], [ -87.024695404, 34.495220497 ], [ -87.024197906, 34.494830698 ], [ -87.0240876, 34.494555697 ], [ -87.023866303, 34.494395196 ], [ -87.0225107, 34.4944399 ] ] } },
{ "type": "Feature", "properties": { "site_no": "03577110", "nhdplus_comid": "19626302", "navigation_mode": "DM", "requested_distance_km": 12.0, "start_source": "nwissite", "start_id": "USGS-03577110", "geometry_length_km": 0.082184881320675321 }, "geometry": { "type": "LineString", "coordinates": [ [ -87.0225107, 34.4944399 ], [ -87.022455104, 34.494531497 ], [ -87.021680601, 34.494484998 ] ] } },
{ "type": "Feature", "properties": { "site_no": "03577110", "nhdplus_comid": "19626300", "navigation_mode": "DM", "requested_distance_km": 12.0, "start_source": "nwissite", "start_id": "USGS-03577110", "geometry_length_km": 0.24995866467554895 }, "geometry": { "type": "LineString", "coordinates": [ [ -87.021680601, 34.494484998 ], [ -87.021568902, 34.495263696 ], [ -87.021292105, 34.495446794 ], [ -87.019881301, 34.495285198 ] ] } },
{ "type": "Feature", "properties": { "site_no": "03577110", "nhdplus_comid": "19626298", "navigation_mode": "DM", "requested_distance_km": 12.0, "start_source": "nwissite", "start_id": "USGS-03577110", "geometry_length_km": 0.31010486967942574 }, "geometry": { "type": "LineString", "coordinates": [ [ -87.019881301, 34.495285198 ], [ -87.019051105, 34.495444894 ], [ -87.017196603, 34.496107496 ], [ -87.016671002, 34.496106997 ] ] } },
{ "type": "Feature", "properties": { "site_no": "03577110", "nhdplus_comid": "19626334", "navigation_mode": "DM", "requested_distance_km": 12.0, "start_source": "nwissite", "start_id": "USGS-03577110", "geometry_length_km": 1.1052040864921917 }, "geometry": { "type": "LineString", "coordinates": [ [ -87.016671002, 34.496106997 ], [ -87.0163946, 34.495877698 ], [ -87.016008005, 34.495212995 ], [ -87.015179403, 34.4941357 ], [ -87.014903404, 34.493654497 ], [ -87.014434807, 34.492371194 ], [ -87.014077805, 34.490263499 ], [ -87.0139414, 34.488820396 ], [ -87.013638407, 34.487835094 ], [ -87.013334602, 34.487422496 ], [ -87.012754105, 34.487032495 ] ] } },
{ "type": "Feature", "properties": { "site_no": "03577110", "nhdplus_comid": "19626338", "navigation_mode": "DM", "requested_distance_km": 12.0, "start_source": "nwissite", "start_id": "USGS-03577110", "geometry_length_km": 0.73373580618572232 }, "geometry": { "type": "LineString", "coordinates": [ [ -87.012754105, 34.487032495 ], [ -87.011952601, 34.486550793 ], [ -87.011261404, 34.486252293 ], [ -87.0108741, 34.486274898 ], [ -87.010680206, 34.486389294 ], [ -87.009959601, 34.487419397 ], [ -87.010069802, 34.487740196 ], [ -87.010622606, 34.488084294 ], [ -87.010594405, 34.488519497 ], [ -87.010483406, 34.488748498 ], [ -87.010537505, 34.489618897 ], [ -87.0106204, 34.489664793 ], [ -87.010675207, 34.490100093 ], [ -87.010370307, 34.490466394 ] ] } },
{ "type": "Feature", "properties": { "site_no": "03577110", "nhdplus_comid": "19626320", "navigation_mode": "DM", "requested_distance_km": 12.0, "start_source": "nwissite", "start_id": "USGS-03577110", "geometry_length_km": 0.39943616422327316 }, "geometry": { "type": "LineString", "coordinates": [ [ -87.010370307, 34.490466394 ], [ -87.009706602, 34.490328297 ], [ -87.008987807, 34.489983998 ], [ -87.008545101, 34.490029395 ], [ -87.008323401, 34.490349799 ], [ -87.008323103, 34.490555994 ], [ -87.008710004, 34.490877099 ], [ -87.009843901, 34.4910843 ] ] } },
{ "type": "Feature", "properties": { "site_no": "03577110", "nhdplus_comid": "19626306", "navigation_mode": "DM", "requested_distance_km": 12.0, "start_source": "nwissite", "start_id": "USGS-03577110", "geometry_length_km": 1.6028721881432655 }, "geometry": { "type": "LineString", "coordinates": [ [ -87.009843901, 34.4910843 ], [ -87.009843402, 34.491427898 ], [ -87.009677202, 34.4916339 ], [ -87.009344906, 34.491793893 ], [ -87.009372406, 34.492000096 ], [ -87.009897806, 34.492115095 ], [ -87.009897202, 34.492550299 ], [ -87.009675607, 34.4927563 ], [ -87.008652002, 34.492778197 ], [ -87.007932901, 34.492594294 ], [ -87.006771803, 34.492066294 ], [ -87.006439701, 34.492134698 ], [ -87.006383501, 34.492684498 ], [ -87.006632105, 34.492982395 ], [ -87.006631404, 34.493532196 ], [ -87.006216303, 34.4935776 ], [ -87.005774006, 34.493325196 ], [ -87.005109906, 34.493461996 ], [ -87.004335307, 34.4933239 ], [ -87.004086003, 34.493575595 ], [ -87.0039744, 34.4942398 ], [ -87.003586106, 34.494880699 ], [ -87.003087305, 34.495452896 ], [ -87.002893105, 34.495819099 ], [ -87.002533101, 34.496047899 ], [ -87.002311803, 34.496047698 ], [ -87.002035402, 34.4957496 ], [ -87.001482107, 34.495771997 ], [ -87.001094401, 34.496092193 ], [ -87.000872605, 34.496389896 ], [ -87.000009403, 34.496824197 ] ] } },
{ "type": "Feature", "properties": { "site_no": "03577110", "nhdplus_comid": "19626238", "navigation_mode": "DM", "requested_distance_km": 12.0, "start_source": "nwissite", "start_id": "USGS-03577110", "geometry_length_km": 0.025295855316369884 }, "geometry": { "type": "LineString", "coordinates": [ [ -87.000009403, 34.496824197 ], [ -86.999755703, 34.496916093 ] ] } },
{ "type": "Feature", "properties": { "site_no": "03577110", "nhdplus_comid": "19624566", "navigation_mode": "DM", "requested_distance_km": 12.0, "start_source": "nwissite", "start_id": "USGS-03577110", "geometry_length_km": 0.81476252578239461 }, "geometry": { "type": "LineString", "coordinates": [ [ -86.999755703, 34.496916093 ], [ -86.999257207, 34.496641599 ], [ -86.998676404, 34.496733896 ], [ -86.998206407, 34.497054994 ], [ -86.997432306, 34.497353598 ], [ -86.9969896, 34.497399896 ], [ -86.996851504, 34.497560397 ], [ -86.996851906, 34.497835197 ], [ -86.997931503, 34.498200595 ], [ -86.997904107, 34.498429798 ], [ -86.997544803, 34.498613395 ], [ -86.996244706, 34.498889498 ], [ -86.995636702, 34.499302395 ], [ -86.9948631, 34.500096597 ] ] } },
{ "type": "Feature", "properties": { "site_no": "03577110", "nhdplus_comid": "19626236", "navigation_mode": "DM", "requested_distance_km": 12.0, "start_source": "nwissite", "start_id": "USGS-03577110", "geometry_length_km": 0.13097327517378951 }, "geometry": { "type": "LineString", "coordinates": [ [ -86.9948631, 34.500096597 ], [ -86.993425503, 34.500097297 ] ] } },
{ "type": "Feature", "properties": { "site_no": "03577110", "nhdplus_comid": "19621084", "navigation_mode": "DM", "requested_distance_km": 12.0, "start_source": "nwissite", "start_id": "USGS-03577110", "geometry_length_km": 0.8578847360289269 }, "geometry": { "type": "LineString", "coordinates": [ [ -86.993425503, 34.500097297 ], [ -86.993483007, 34.501658097 ], [ -86.993289404, 34.501704097 ], [ -86.993012503, 34.501566894 ], [ -86.992624506, 34.501063295 ], [ -86.992236704, 34.500811793 ], [ -86.991711207, 34.5009268 ], [ -86.991296604, 34.501201995 ], [ -86.990882404, 34.501797996 ], [ -86.991187505, 34.502370395 ], [ -86.991215706, 34.502736799 ], [ -86.990690701, 34.503241196 ], [ -86.990552701, 34.503493398 ], [ -86.9905532, 34.503882796 ], [ -86.9908856, 34.504157297 ], [ -86.991383702, 34.504248396 ] ] } },
{ "type": "Feature", "properties": { "site_no": "03577110", "nhdplus_comid": "19621030", "navigation_mode": "DM", "requested_distance_km": 12.0, "start_source": "nwissite", "start_id": "USGS-03577110", "geometry_length_km": 0.39948192598086396 }, "geometry": { "type": "LineString", "coordinates": [ [ -86.991383702, 34.504248396 ], [ -86.991356507, 34.504477598 ], [ -86.991079904, 34.504592396 ], [ -86.989170901, 34.5047087 ], [ -86.988506906, 34.5048467 ], [ -86.988119803, 34.505121894 ], [ -86.987455703, 34.505008094 ] ] } },
{ "type": "Feature", "properties": { "site_no": "03577110", "nhdplus_comid": "19621034", "navigation_mode": "DM", "requested_distance_km": 12.0, "start_source": "nwissite", "start_id": "USGS-03577110", "geometry_length_km": 0.16617217095711304 }, "geometry": { "type": "LineString", "coordinates": [ [ -86.987455703, 34.505008094 ], [ -86.986292005, 34.503863797 ] ] } },
{ "type": "Feature", "properties": { "site_no": "03577110", "nhdplus_comid": "19621046", "navigation_mode": "DM", "requested_distance_km": 12.0, "start_source": "nwissite", "start_id": "USGS-03577110", "geometry_length_km": 1.0448846989780374 }, "geometry": { "type": "LineString", "coordinates": [ [ -86.986292005, 34.503863797 ], [ -86.9841616, 34.503934398 ], [ -86.983774506, 34.504163899 ], [ -86.983112104, 34.505561695 ], [ -86.983057603, 34.5062261 ], [ -86.982974902, 34.506386496 ], [ -86.982698202, 34.506432496 ], [ -86.982834801, 34.505035095 ], [ -86.9834425, 34.504164197 ], [ -86.983441606, 34.503522798 ], [ -86.983107604, 34.501942493 ] ] } },
{ "type": "Feature", "properties": { "site_no": "03577110", "nhdplus_comid": "19621068", "navigation_mode": "DM", "requested_distance_km": 12.0, "start_source": "nwissite", "start_id": "USGS-03577110", "geometry_length_km": 0.91364479218633476 }, "geometry": { "type": "LineString", "coordinates": [ [ -86.983107604, 34.501942493 ], [ -86.981668003, 34.501393996 ], [ -86.980865002, 34.500982396 ], [ -86.980505407, 34.500959799 ], [ -86.979565404, 34.501533195 ], [ -86.9787907, 34.501511 ], [ -86.977932103, 34.500847399 ], [ -86.977239907, 34.500458598 ], [ -86.976852506, 34.500435993 ], [ -86.976548404, 34.500596695 ], [ -86.976604603, 34.501398295 ], [ -86.976245001, 34.501467295 ], [ -86.975608304, 34.501147099 ], [ -86.975497201, 34.500918195 ] ] } },
{ "type": "Feature", "properties": { "site_no": "03577110", "nhdplus_comid": "19621078", "navigation_mode": "DM", "requested_distance_km": 12.0, "start_source": "nwissite", "start_id": "USGS-03577110", "geometry_length_km": 0.15553361689702611 }, "geometry": { "type": "LineString", "coordinates": [ [ -86.975497201, 34.500918195 ], [ -86.974112302, 34.500104897 ] ] } },
{ "type": "Feature", "properties": { "site_no": "03577110", "nhdplus_comid": "19626198", "navigation_mode": "DM", "requested_distance_km": 12.0, "start_source": "nwissite", "start_id": "USGS-03577110", "geometry_length_km": 0.52510466481168949 }, "geometry": { "type": "LineString", "coordinates": [ [ -86.974112302, 34.500104897 ], [ -86.973845303, 34.500045896 ], [ -86.973364703, 34.499678999 ], [ -86.972053505, 34.499577194 ], [ -86.971757002, 34.4992847 ], [ -86.971881904, 34.498216398 ], [ -86.971585304, 34.497923896 ], [ -86.971093707, 34.497885793 ], [ -86.970696606, 34.497405499 ], [ -86.970650002, 34.497377194 ] ] } },
{ "type": "Feature", "properties": { "site_no": "03577110", "nhdplus_comid": "19624576", "navigation_mode": "DM", "requested_distance_km": 12.0, "start_source": "nwissite", "start_id": "USGS-03577110", "geometry_length_km": 0.16572267036714203 }, "geometry": { "type": "LineString", "coordinates": [ [ -86.970650002, 34.497377194 ], [ -86.970649801, 34.497239694 ], [ -86.971202403, 34.496529199 ], [ -86.971700102, 34.496230997 ] ] } },
{ "type": "Feature", "properties": { "site_no": "03577110", "nhdplus_comid": "19626200", "navigation_mode": "DM", "requested_distance_km": 12.0, "start_source": "nwissite", "start_id": "USGS-03577110", "geometry_length_km": 0.38264134378027786 }, "geometry": { "type": "LineString", "coordinates": [ [ -86.971700102, 34.496230997 ], [ -86.971734501, 34.496109195 ], [ -86.9719835, 34.495933697 ], [ -86.972030401, 34.495533094 ], [ -86.971304603, 34.494668193 ], [ -86.971398301, 34.493866995 ], [ -86.970825903, 34.493388698 ], [ -86.970756106, 34.493299797 ] ] } },
{ "type": "Feature", "properties": { "site_no": "03577110", "nhdplus_comid": "19624622", "navigation_mode": "DM", "requested_distance_km": 12.0, "start_source": "nwissite", "start_id": "USGS-03577110", "geometry_length_km": 0.55460775911884708 }, "geometry": { "type": "LineString", "coordinates": [ [ -86.970756106, 34.493299797 ], [ -86.969178304, 34.492567897 ], [ -86.967074201, 34.491263896 ], [ -86.966631204, 34.490874797 ], [ -86.966326006, 34.4901191 ] ] } }
]
}
