{
"type": "FeatureCollection",
"name": "USGS_02369800_UM_12km",
"crs": { "type": "name", "properties": { "name": "urn:ogc:def:crs:OGC:1.3:CRS84" } },
"features": [
{ "type": "Feature", "properties": { "site_no": "02369800", "nhdplus_comid": "789206", "navigation_mode": "UM", "requested_distance_km": 12.0, "start_source": "nwissite", "start_id": "USGS-02369800", "geometry_length_km": 0.1125426015182469 }, "geometry": { "type": "LineString", "coordinates": [ [ -86.709375307, 31.0285182 ], [ -86.709694505, 31.028311595 ], [ -86.709773704, 31.027646996 ], [ -86.709772612, 31.027645963 ] ] } },
{ "type": "Feature", "properties": { "site_no": "02369800", "nhdplus_comid": "788894", "navigation_mode": "UM", "requested_distance_km": 12.0, "start_source": "nwissite", "start_id": "USGS-02369800", "geometry_length_km": 0.066300310865690631 }, "geometry": { "type": "LineString", "coordinates": [ [ -86.709402502, 31.029113896 ], [ -86.709375307, 31.0285182 ] ] } },
{ "type": "Feature", "properties": { "site_no": "02369800", "nhdplus_comid": "788892", "navigation_mode": "UM", "requested_distance_km": 12.0, "start_source": "nwissite", "start_id": "USGS-02369800", "geometry_length_km": 0.30561282776068704 }, "geometry": { "type": "LineString", "coordinates": [ [ -86.709298402, 31.031772494 ], [ -86.709191404, 31.031199694 ], [ -86.709217504, 31.030557893 ], [ -86.709535606, 31.029205494 ], [ -86.709402502, 31.029113896 ] ] } },
{ "type": "Feature", "properties": { "site_no": "02369800", "nhdplus_comid": "789204", "navigation_mode": "UM", "requested_distance_km": 12.0, "start_source": "nwissite", "start_id": "USGS-02369800", "geometry_length_km": 3.0401306571007294 }, "geometry": { "type": "LineString", "coordinates": [ [ -86.722575404, 31.053650498 ], [ -86.721642606, 31.0526428 ], [ -86.721083306, 31.052345298 ], [ -86.720737003, 31.052047595 ], [ -86.720203802, 31.051245794 ], [ -86.719777405, 31.050833695 ], [ -86.717646703, 31.049826793 ], [ -86.716793202, 31.048131399 ], [ -86.716659106, 31.046985596 ], [ -86.716552302, 31.046733595 ], [ -86.716525406, 31.0463439 ], [ -86.716897503, 31.045816496 ], [ -86.716923803, 31.045541495 ], [ -86.716817103, 31.0453353 ], [ -86.716337502, 31.044946 ], [ -86.716177404, 31.044487797 ], [ -86.715884402, 31.044258796 ], [ -86.7154852, 31.044373699 ], [ -86.715192303, 31.044190496 ], [ -86.715192005, 31.043915495 ], [ -86.715324901, 31.043686196 ], [ -86.715350904, 31.043090299 ], [ -86.714844301, 31.042128094 ], [ -86.714577906, 31.041830294 ], [ -86.714178503, 31.041738898 ], [ -86.714098401, 31.0416473 ], [ -86.714071102, 31.040845096 ], [ -86.713991202, 31.040776499 ], [ -86.713537201, 31.039172493 ], [ -86.713111103, 31.038851894 ], [ -86.712419003, 31.0389212 ], [ -86.7122325, 31.038646296 ], [ -86.712257005, 31.036514796 ], [ -86.712150402, 31.0363544 ], [ -86.7116445, 31.036079794 ], [ -86.711324401, 31.035300694 ], [ -86.710791402, 31.034521796 ], [ -86.710551105, 31.033673994 ], [ -86.709885001, 31.032986797 ], [ -86.709325403, 31.032276697 ], [ -86.7092188, 31.032001793 ], [ -86.709298402, 31.031772494 ] ] } },
{ "type": "Feature", "properties": { "site_no": "02369800", "nhdplus_comid": "788852", "navigation_mode": "UM", "requested_distance_km": 12.0, "start_source": "nwissite", "start_id": "USGS-02369800", "geometry_length_km": 1.7836709184500614 }, "geometry": { "type": "LineString", "coordinates": [ [ -86.726505205, 31.068911299 ], [ -86.726264805, 31.068109296 ], [ -86.726023503, 31.066665694 ], [ -86.725808606, 31.0648553 ], [ -86.725622006, 31.064626195 ], [ -86.725515105, 31.064259596 ], [ -86.725514501, 31.063663699 ], [ -86.725301102, 31.063297197 ], [ -86.724474803, 31.062403999 ], [ -86.724341102, 31.061968595 ], [ -86.7245261, 31.060662098 ], [ -86.724152505, 31.059699796 ], [ -86.723752804, 31.059379295 ], [ -86.723512903, 31.059058599 ], [ -86.723326102, 31.058577493 ], [ -86.722871102, 31.056354694 ], [ -86.722657502, 31.055690199 ], [ -86.722682506, 31.054200396 ], [ -86.722575404, 31.053650498 ] ] } },
{ "type": "Feature", "properties": { "site_no": "02369800", "nhdplus_comid": "788832", "navigation_mode": "UM", "requested_distance_km": 12.0, "start_source": "nwissite", "start_id": "USGS-02369800", "geometry_length_km": 3.1062069665880783 }, "geometry": { "type": "LineString", "coordinates": [ [ -86.735079803, 31.092808194 ], [ -86.735451207, 31.091570295 ], [ -86.735476807, 31.0907223 ], [ -86.734649405, 31.089072794 ], [ -86.734355405, 31.088202193 ], [ -86.7340618, 31.087629497 ], [ -86.733261906, 31.086713396 ], [ -86.733128302, 31.086346895 ], [ -86.732887, 31.084834494 ], [ -86.732139707, 31.083482899 ], [ -86.731952704, 31.0829788 ], [ -86.731819302, 31.082772695 ], [ -86.731792502, 31.082566395 ], [ -86.730699107, 31.081123397 ], [ -86.7303527, 31.0809175 ], [ -86.729527302, 31.081032693 ], [ -86.728808202, 31.080941595 ], [ -86.728222206, 31.0807129 ], [ -86.727875605, 31.080415197 ], [ -86.727555603, 31.079979993 ], [ -86.727554902, 31.079361193 ], [ -86.727953903, 31.078902595 ], [ -86.7283796, 31.078673095 ], [ -86.728618801, 31.078237399 ], [ -86.728512004, 31.0779396 ], [ -86.728777707, 31.077343397 ], [ -86.728803605, 31.076770395 ], [ -86.729042903, 31.0763807 ], [ -86.729042403, 31.075991094 ], [ -86.728456005, 31.075441495 ], [ -86.728349105, 31.075166494 ], [ -86.728027306, 31.072897799 ], [ -86.727947302, 31.072829194 ], [ -86.727839805, 31.071958296 ], [ -86.727706201, 31.071545899 ], [ -86.727545805, 31.071018897 ], [ -86.727545604, 31.070766799 ], [ -86.726585202, 31.068934195 ], [ -86.726505205, 31.068911299 ] ] } },
{ "type": "Feature", "properties": { "site_no": "02369800", "nhdplus_comid": "788798", "navigation_mode": "UM", "requested_distance_km": 12.0, "start_source": "nwissite", "start_id": "USGS-02369800", "geometry_length_km": 0.2060912648493248 }, "geometry": { "type": "LineString", "coordinates": [ [ -86.733643301, 31.0941846 ], [ -86.733936101, 31.094000898 ], [ -86.735079803, 31.092808194 ] ] } },
{ "type": "Feature", "properties": { "site_no": "02369800", "nhdplus_comid": "788792", "navigation_mode": "UM", "requested_distance_km": 12.0, "start_source": "nwissite", "start_id": "USGS-02369800", "geometry_length_km": 1.3463992219601355 }, "geometry": { "type": "LineString", "coordinates": [ [ -86.721048906, 31.096921794 ], [ -86.721235201, 31.096806996 ], [ -86.722167306, 31.096668795 ], [ -86.7226464, 31.096462198 ], [ -86.723179005, 31.096324295 ], [ -86.724004507, 31.0962549 ], [ -86.726801604, 31.096825697 ], [ -86.7279469, 31.096893594 ], [ -86.728479303, 31.096732698 ], [ -86.728718802, 31.096526198 ], [ -86.729543202, 31.0953338 ], [ -86.730075501, 31.095104195 ], [ -86.730981, 31.095034696 ], [ -86.731220506, 31.094919994 ], [ -86.731699303, 31.0944153 ], [ -86.731885806, 31.094346397 ], [ -86.733643301, 31.0941846 ] ] } }
]
}
