{
"type": "FeatureCollection",
"name": "USGS_03575340_UM_12km",
"crs": { "type": "name", "properties": { "name": "urn:ogc:def:crs:OGC:1.3:CRS84" } },
"features": [
{ "type": "Feature", "properties": { "site_no": "03575340", "nhdplus_comid": "19620556", "navigation_mode": "UM", "requested_distance_km": 12.0, "start_source": "nwissite", "start_id": "USGS-03575340", "geometry_length_km": 4.0789090373103809 }, "geometry": { "type": "LineString", "coordinates": [ [ -86.384933904, 34.623413399 ], [ -86.385127805, 34.623298898 ], [ -86.3856543, 34.623207197 ], [ -86.386457801, 34.622909397 ], [ -86.387150303, 34.622519895 ], [ -86.388175406, 34.621534996 ], [ -86.3883138, 34.6210768 ], [ -86.388895601, 34.620572798 ], [ -86.389228001, 34.620022997 ], [ -86.389754303, 34.619633496 ], [ -86.3905579, 34.619541898 ], [ -86.3908903, 34.619266994 ], [ -86.391001105, 34.618969195 ], [ -86.3909178, 34.618167594 ], [ -86.391222507, 34.617617793 ], [ -86.391221903, 34.614617094 ], [ -86.391415402, 34.611456193 ], [ -86.391941704, 34.611226998 ], [ -86.392190903, 34.610837594 ], [ -86.392606504, 34.610700093 ], [ -86.392855704, 34.610219099 ], [ -86.393021606, 34.608707294 ], [ -86.393270902, 34.608455293 ], [ -86.393852606, 34.608432397 ], [ -86.395099305, 34.608752899 ], [ -86.395791903, 34.608798496 ], [ -86.396235205, 34.608706899 ], [ -86.396844506, 34.608340293 ], [ -86.397897005, 34.607859097 ], [ -86.399309702, 34.607354894 ], [ -86.400556304, 34.607286096 ], [ -86.401138, 34.607102796 ], [ -86.402356803, 34.606919296 ], [ -86.409199104, 34.606642798 ], [ -86.409642406, 34.606505297 ], [ -86.410002403, 34.606253296 ], [ -86.410694502, 34.605107799 ], [ -86.411054403, 34.604764096 ], [ -86.411414504, 34.604580797 ], [ -86.413048804, 34.604534499 ], [ -86.413575105, 34.604373999 ], [ -86.41374864, 34.604373965 ] ] } }
]
}
