{
"type": "FeatureCollection",
"name": "USGS_0357526200_DM_12km",
"crs": { "type": "name", "properties": { "name": "urn:ogc:def:crs:OGC:1.3:CRS84" } },
"features": [
{ "type": "Feature", "properties": { "site_no": "0357526200", "nhdplus_comid": "19620014", "navigation_mode": "DM", "requested_distance_km": 12.0, "start_source": "nwissite", "start_id": "USGS-0357526200", "geometry_length_km": 0.25870117085326477 }, "geometry": { "type": "LineString", "coordinates": [ [ -86.512132101, 34.707586296 ], [ -86.512299605, 34.706807494 ], [ -86.512523606, 34.705296099 ] ] } },
{ "type": "Feature", "properties": { "site_no": "0357526200", "nhdplus_comid": "19621388", "navigation_mode": "DM", "requested_distance_km": 12.0, "start_source": "nwissite", "start_id": "USGS-0357526200", "geometry_length_km": 3.3285306642819483 }, "geometry": { "type": "LineString", "coordinates": [ [ -86.512523606, 34.705296099 ], [ -86.512469202, 34.704517297 ], [ -86.512165405, 34.703623593 ], [ -86.511943802, 34.703348495 ], [ -86.511251107, 34.702889696 ], [ -86.510558203, 34.702568397 ], [ -86.509643704, 34.701994896 ], [ -86.509366803, 34.701650999 ], [ -86.508923203, 34.701536193 ], [ -86.508257501, 34.701604195 ], [ -86.508035704, 34.701535299 ], [ -86.507426202, 34.701053597 ], [ -86.506928101, 34.700297199 ], [ -86.506152503, 34.699700996 ], [ -86.505876005, 34.699105099 ], [ -86.5057941, 34.6982117 ], [ -86.505157202, 34.697546899 ], [ -86.505102202, 34.6972261 ], [ -86.504908301, 34.697088398 ], [ -86.504076205, 34.697156399 ], [ -86.503521703, 34.696972497 ], [ -86.502856202, 34.696903095 ], [ -86.502662301, 34.696765497 ], [ -86.502662502, 34.696628094 ], [ -86.503439702, 34.696216598 ], [ -86.503578804, 34.695896097 ], [ -86.503495805, 34.695735596 ], [ -86.502553001, 34.695665896 ], [ -86.502303705, 34.695505396 ], [ -86.501610503, 34.6954588 ], [ -86.501472004, 34.695275493 ], [ -86.5014726, 34.694931895 ], [ -86.501805805, 34.6946574 ], [ -86.501834102, 34.694290899 ], [ -86.501502201, 34.693649098 ], [ -86.501503803, 34.692595497 ], [ -86.501421005, 34.692366399 ], [ -86.500950307, 34.691884898 ], [ -86.499993801, 34.691222899 ], [ -86.499716304, 34.691108599 ], [ -86.499438405, 34.6906965 ], [ -86.498440206, 34.690720499 ], [ -86.498246007, 34.690651998 ], [ -86.498189807, 34.6901481 ], [ -86.497801401, 34.690033898 ], [ -86.497634806, 34.689827897 ], [ -86.497634403, 34.689598896 ], [ -86.497800507, 34.689438395 ], [ -86.497883305, 34.689117596 ], [ -86.497078404, 34.688683197 ], [ -86.495969102, 34.688592598 ], [ -86.495968901, 34.688432299 ], [ -86.496439904, 34.688157 ], [ -86.496439405, 34.687790498 ], [ -86.496272802, 34.6876304 ], [ -86.495745704, 34.687470496 ], [ -86.495080203, 34.687471099 ], [ -86.494803205, 34.687700495 ], [ -86.4943875, 34.687792398 ], [ -86.494054303, 34.687586598 ], [ -86.493777007, 34.687518097 ] ] } },
{ "type": "Feature", "properties": { "site_no": "0357526200", "nhdplus_comid": "19620168", "navigation_mode": "DM", "requested_distance_km": 12.0, "start_source": "nwissite", "start_id": "USGS-0357526200", "geometry_length_km": 1.0166785173326098 }, "geometry": { "type": "LineString", "coordinates": [ [ -86.493777007, 34.687518097 ], [ -86.493665807, 34.687311999 ], [ -86.492944501, 34.687083699 ], [ -86.492943406, 34.686259098 ], [ -86.492831901, 34.685869798 ], [ -86.492471002, 34.685549498 ], [ -86.492359802, 34.685297593 ], [ -86.492470406, 34.6850456 ], [ -86.492469907, 34.684724793 ], [ -86.492026001, 34.684564896 ], [ -86.491970204, 34.684290096 ], [ -86.492108703, 34.684175499 ], [ -86.4921358, 34.683740199 ], [ -86.491996907, 34.683579996 ], [ -86.491414405, 34.683466099 ], [ -86.4912479, 34.683282897 ], [ -86.491247706, 34.683122598 ], [ -86.491441406, 34.6828705 ], [ -86.491829202, 34.682618193 ], [ -86.491912104, 34.6823662 ], [ -86.4918833, 34.681610294 ], [ -86.491744503, 34.681495793 ], [ -86.491300903, 34.681473397 ], [ -86.490885101, 34.681542397 ], [ -86.4907462, 34.681336395 ], [ -86.490884006, 34.680786595 ] ] } },
{ "type": "Feature", "properties": { "site_no": "0357526200", "nhdplus_comid": "19620284", "navigation_mode": "DM", "requested_distance_km": 12.0, "start_source": "nwissite", "start_id": "USGS-0357526200", "geometry_length_km": 2.5618781480255439 }, "geometry": { "type": "LineString", "coordinates": [ [ -86.490884006, 34.680786595 ], [ -86.490717106, 34.680397399 ], [ -86.489884302, 34.679619297 ], [ -86.489523605, 34.679504998 ], [ -86.488969207, 34.679574296 ], [ -86.488469601, 34.679185294 ], [ -86.488496304, 34.678406596 ], [ -86.488301903, 34.678200595 ], [ -86.488273203, 34.677444696 ], [ -86.487995304, 34.676963896 ], [ -86.487994306, 34.676207997 ], [ -86.488382101, 34.676001497 ], [ -86.488630801, 34.675382897 ], [ -86.489074402, 34.675336696 ], [ -86.489518203, 34.675519496 ], [ -86.489629, 34.675427794 ], [ -86.489739306, 34.675038293 ], [ -86.489765301, 34.673686899 ], [ -86.4896814, 34.673228793 ], [ -86.489514701, 34.672954097 ], [ -86.488987707, 34.672794297 ], [ -86.488875702, 34.671878099 ], [ -86.488570504, 34.671717994 ], [ -86.487682305, 34.671008795 ], [ -86.487681903, 34.670642294 ], [ -86.487792403, 34.670413099 ], [ -86.487819605, 34.669954993 ], [ -86.487736307, 34.669886395 ], [ -86.487320401, 34.669886693 ], [ -86.4865999, 34.670070596 ], [ -86.486267105, 34.669979297 ], [ -86.4860726, 34.669658795 ], [ -86.486016706, 34.669315197 ], [ -86.485350706, 34.668857694 ], [ -86.485211603, 34.668468393 ], [ -86.484989606, 34.668308198 ], [ -86.484850705, 34.668056399 ], [ -86.4848774, 34.667277597 ], [ -86.484405503, 34.666797094 ], [ -86.483988903, 34.666201696 ], [ -86.483960405, 34.665537596 ], [ -86.484320305, 34.665239498 ], [ -86.484375603, 34.6650104 ], [ -86.483931504, 34.664667197 ], [ -86.483820401, 34.664483994 ], [ -86.482793905, 34.663797796 ] ] } },
{ "type": "Feature", "properties": { "site_no": "0357526200", "nhdplus_comid": "19620356", "navigation_mode": "DM", "requested_distance_km": 12.0, "start_source": "nwissite", "start_id": "USGS-0357526200", "geometry_length_km": 2.2536849824887155 }, "geometry": { "type": "LineString", "coordinates": [ [ -86.482793905, 34.663797796 ], [ -86.482765801, 34.663568698 ], [ -86.482349306, 34.663065098 ], [ -86.482264906, 34.6620344 ], [ -86.481959105, 34.661347598 ], [ -86.4816816, 34.661072895 ], [ -86.480156101, 34.660432793 ], [ -86.4790188, 34.659769498 ], [ -86.477853902, 34.659289397 ], [ -86.476938702, 34.658831999 ], [ -86.475995101, 34.657916598 ], [ -86.475883506, 34.657252297 ], [ -86.475494705, 34.656702898 ], [ -86.475327902, 34.656267896 ], [ -86.474773005, 34.655787297 ], [ -86.474550806, 34.655398093 ], [ -86.474467203, 34.655031696 ], [ -86.473967604, 34.654505193 ], [ -86.473773204, 34.654161796 ], [ -86.473357007, 34.653726898 ], [ -86.472662203, 34.6522156 ], [ -86.471829906, 34.651437499 ], [ -86.471275203, 34.651140198 ], [ -86.469888702, 34.650682993 ], [ -86.468918204, 34.650271498 ], [ -86.468474403, 34.649951197 ], [ -86.468002707, 34.649401799 ], [ -86.467752904, 34.649218798 ] ] } },
{ "type": "Feature", "properties": { "site_no": "0357526200", "nhdplus_comid": "19620372", "navigation_mode": "DM", "requested_distance_km": 12.0, "start_source": "nwissite", "start_id": "USGS-0357526200", "geometry_length_km": 0.67218719899626556 }, "geometry": { "type": "LineString", "coordinates": [ [ -86.467752904, 34.649218798 ], [ -86.467669502, 34.648943797 ], [ -86.465837203, 34.646150596 ], [ -86.465337105, 34.644891299 ], [ -86.465336405, 34.6442957 ], [ -86.465530105, 34.643997796 ], [ -86.465612903, 34.643699996 ] ] } },
{ "type": "Feature", "properties": { "site_no": "0357526200", "nhdplus_comid": "19620440", "navigation_mode": "DM", "requested_distance_km": 12.0, "start_source": "nwissite", "start_id": "USGS-0357526200", "geometry_length_km": 1.5471388456968838 }, "geometry": { "type": "LineString", "coordinates": [ [ -86.465612903, 34.643699996 ], [ -86.4663883, 34.643080994 ], [ -86.466831006, 34.642416395 ], [ -86.467770204, 34.639667094 ], [ -86.467769906, 34.639437996 ], [ -86.468600102, 34.638314895 ], [ -86.468932405, 34.638062693 ], [ -86.469707005, 34.636825196 ], [ -86.470066406, 34.636046194 ], [ -86.470286205, 34.634328194 ], [ -86.4704208, 34.630846396 ] ] } },
{ "type": "Feature", "properties": { "site_no": "0357526200", "nhdplus_comid": "19620484", "navigation_mode": "DM", "requested_distance_km": 12.0, "start_source": "nwissite", "start_id": "USGS-0357526200", "geometry_length_km": 1.2400715379770817 }, "geometry": { "type": "LineString", "coordinates": [ [ -86.4704208, 34.630846396 ], [ -86.470337607, 34.630754896 ], [ -86.470337003, 34.630250894 ], [ -86.470113605, 34.628762193 ], [ -86.4701114, 34.626792297 ], [ -86.469833702, 34.626219898 ], [ -86.4685302, 34.625098497 ], [ -86.468391307, 34.624800794 ], [ -86.468390606, 34.6241365 ], [ -86.468611702, 34.6236782 ], [ -86.469469607, 34.622669794 ], [ -86.471186101, 34.621523194 ], [ -86.471546203, 34.621362597 ] ] } }
]
}
