{
"type": "FeatureCollection",
"name": "USGS_02455185_UM_12km",
"crs": { "type": "name", "properties": { "name": "urn:ogc:def:crs:OGC:1.3:CRS84" } },
"features": [
{ "type": "Feature", "properties": { "site_no": "02455185", "nhdplus_comid": "18565189", "navigation_mode": "UM", "requested_distance_km": 12.0, "start_source": "nwissite", "start_id": "USGS-02455185", "geometry_length_km": 0.83425717482199868 }, "geometry": { "type": "LineString", "coordinates": [ [ -86.442920804, 33.865409493 ], [ -86.443991907, 33.865660898 ], [ -86.444651, 33.865683399 ], [ -86.444925606, 33.865591697 ], [ -86.445227407, 33.865362398 ], [ -86.445501603, 33.864812493 ], [ -86.445611, 33.864354298 ], [ -86.445691302, 33.861811496 ], [ -86.445635505, 33.8605057 ], [ -86.445717603, 33.860253595 ], [ -86.445934597, 33.860072391 ] ] } },
{ "type": "Feature", "properties": { "site_no": "02455185", "nhdplus_comid": "18565157", "navigation_mode": "UM", "requested_distance_km": 12.0, "start_source": "nwissite", "start_id": "USGS-02455185", "geometry_length_km": 0.068294199841408124 }, "geometry": { "type": "LineString", "coordinates": [ [ -86.442179404, 33.865455694 ], [ -86.442920804, 33.865409493 ] ] } },
{ "type": "Feature", "properties": { "site_no": "02455185", "nhdplus_comid": "18565155", "navigation_mode": "UM", "requested_distance_km": 12.0, "start_source": "nwissite", "start_id": "USGS-02455185", "geometry_length_km": 2.4883688975265335 }, "geometry": { "type": "LineString", "coordinates": [ [ -86.433567204, 33.881243899 ], [ -86.433539003, 33.880281694 ], [ -86.433730602, 33.879204899 ], [ -86.433592103, 33.877578497 ], [ -86.433701403, 33.876593396 ], [ -86.434277102, 33.8751041 ], [ -86.435949802, 33.871277593 ], [ -86.436416402, 33.870910898 ], [ -86.436883204, 33.870796099 ], [ -86.438009307, 33.871070497 ], [ -86.439602807, 33.871894397 ], [ -86.4405092, 33.872168794 ], [ -86.441195801, 33.872214198 ], [ -86.441388004, 33.872030795 ], [ -86.441799305, 33.871251896 ], [ -86.441826001, 33.870266698 ], [ -86.441605404, 33.869121395 ], [ -86.441192806, 33.868182398 ], [ -86.441192403, 33.867678396 ], [ -86.441575602, 33.866074696 ], [ -86.442179404, 33.865455694 ] ] } },
{ "type": "Feature", "properties": { "site_no": "02455185", "nhdplus_comid": "18566403", "navigation_mode": "UM", "requested_distance_km": 12.0, "start_source": "nwissite", "start_id": "USGS-02455185", "geometry_length_km": 0.72079337465807802 }, "geometry": { "type": "LineString", "coordinates": [ [ -86.430224404, 33.8837853 ], [ -86.4310579, 33.884484097 ], [ -86.432878107, 33.884635195 ], [ -86.433546104, 33.884186998 ], [ -86.434077702, 33.883601494 ], [ -86.434246302, 33.882230297 ], [ -86.433545806, 33.881278396 ], [ -86.433567204, 33.881243899 ] ] } },
{ "type": "Feature", "properties": { "site_no": "02455185", "nhdplus_comid": "18566399", "navigation_mode": "UM", "requested_distance_km": 12.0, "start_source": "nwissite", "start_id": "USGS-02455185", "geometry_length_km": 1.4418444262719132 }, "geometry": { "type": "LineString", "coordinates": [ [ -86.4184919, 33.888225295 ], [ -86.421118401, 33.8868066 ], [ -86.421876803, 33.886869594 ], [ -86.423606701, 33.886509694 ], [ -86.425275303, 33.886648297 ], [ -86.426306404, 33.886985794 ], [ -86.4272165, 33.887061395 ], [ -86.428005606, 33.886875093 ], [ -86.428339705, 33.886650994 ], [ -86.428327605, 33.884257399 ], [ -86.429162607, 33.8836971 ], [ -86.430224404, 33.8837853 ] ] } },
{ "type": "Feature", "properties": { "site_no": "02455185", "nhdplus_comid": "18566395", "navigation_mode": "UM", "requested_distance_km": 12.0, "start_source": "nwissite", "start_id": "USGS-02455185", "geometry_length_km": 1.7401308551430716 }, "geometry": { "type": "LineString", "coordinates": [ [ -86.416655801, 33.897652596 ], [ -86.417084001, 33.8978111 ], [ -86.417355403, 33.897863895 ], [ -86.417626701, 33.897959597 ], [ -86.417717904, 33.897982493 ], [ -86.418750502, 33.898572899 ], [ -86.419812404, 33.898661099 ], [ -86.421665303, 33.897303998 ], [ -86.4218034, 33.896182097 ], [ -86.421592101, 33.895408995 ], [ -86.419106901, 33.893187597 ], [ -86.419565506, 33.890707195 ], [ -86.417898707, 33.889309399 ], [ -86.417990804, 33.888561495 ], [ -86.4184919, 33.888225295 ] ] } },
{ "type": "Feature", "properties": { "site_no": "02455185", "nhdplus_comid": "18565055", "navigation_mode": "UM", "requested_distance_km": 12.0, "start_source": "nwissite", "start_id": "USGS-02455185", "geometry_length_km": 0.18490664598698736 }, "geometry": { "type": "LineString", "coordinates": [ [ -86.414705202, 33.8972409 ], [ -86.416655801, 33.897652596 ] ] } },
{ "type": "Feature", "properties": { "site_no": "02455185", "nhdplus_comid": "18566393", "navigation_mode": "UM", "requested_distance_km": 12.0, "start_source": "nwissite", "start_id": "USGS-02455185", "geometry_length_km": 1.2562675981485567 }, "geometry": { "type": "LineString", "coordinates": [ [ -86.404136501, 33.900253594 ], [ -86.404593602, 33.899032295 ], [ -86.405763105, 33.898248196 ], [ -86.407038204, 33.897850595 ], [ -86.4094982, 33.896544196 ], [ -86.4108347, 33.895647898 ], [ -86.412351705, 33.895774096 ], [ -86.413594201, 33.896884896 ], [ -86.414201006, 33.896935299 ], [ -86.414591104, 33.897145696 ], [ -86.414705202, 33.8972409 ] ] } },
{ "type": "Feature", "properties": { "site_no": "02455185", "nhdplus_comid": "18566389", "navigation_mode": "UM", "requested_distance_km": 12.0, "start_source": "nwissite", "start_id": "USGS-02455185", "geometry_length_km": 0.44926291979915994 }, "geometry": { "type": "LineString", "coordinates": [ [ -86.399569601, 33.900978595 ], [ -86.399650604, 33.900975496 ], [ -86.399750203, 33.901021697 ], [ -86.402344704, 33.901111796 ], [ -86.403301105, 33.900813594 ], [ -86.404136501, 33.900253594 ] ] } },
{ "type": "Feature", "properties": { "site_no": "02455185", "nhdplus_comid": "18565027", "navigation_mode": "UM", "requested_distance_km": 12.0, "start_source": "nwissite", "start_id": "USGS-02455185", "geometry_length_km": 3.3088943504080137 }, "geometry": { "type": "LineString", "coordinates": [ [ -86.382483304, 33.920864597 ], [ -86.382675603, 33.920406394 ], [ -86.384296604, 33.918940194 ], [ -86.384901106, 33.917863496 ], [ -86.385258302, 33.917428195 ], [ -86.386439703, 33.916420199 ], [ -86.386851802, 33.915916197 ], [ -86.386879206, 33.915068597 ], [ -86.386686802, 33.914885297 ], [ -86.386109702, 33.914702095 ], [ -86.385148101, 33.914770894 ], [ -86.384598605, 33.914679296 ], [ -86.384351201, 33.914564796 ], [ -86.384103902, 33.914312795 ], [ -86.384076506, 33.914152399 ], [ -86.384241305, 33.913877495 ], [ -86.385505103, 33.912961096 ], [ -86.387290902, 33.9120676 ], [ -86.387538202, 33.911792696 ], [ -86.387950301, 33.910945095 ], [ -86.3894886, 33.909616299 ], [ -86.390230402, 33.9091122 ], [ -86.393801503, 33.906431593 ], [ -86.394927606, 33.904713295 ], [ -86.394955106, 33.904277995 ], [ -86.394597605, 33.903155595 ], [ -86.394597501, 33.902743198 ], [ -86.3948448, 33.902330793 ], [ -86.395174302, 33.902055897 ], [ -86.395668805, 33.901803896 ], [ -86.3984982, 33.901139095 ], [ -86.399569601, 33.900978595 ] ] } }
]
}
