{
"type": "FeatureCollection",
"name": "USGS_03590000_DM_12km",
"crs": { "type": "name", "properties": { "name": "urn:ogc:def:crs:OGC:1.3:CRS84" } },
"features": [
{ "type": "Feature", "properties": { "site_no": "03590000", "nhdplus_comid": "19581347", "navigation_mode": "DM", "requested_distance_km": 12.0, "start_source": "nwissite", "start_id": "USGS-03590000", "geometry_length_km": 5.3374175960942516 }, "geometry": { "type": "LineString", "coordinates": [ [ -87.700848231, 34.807560442 ], [ -87.700890705, 34.807468496 ], [ -87.701112106, 34.806781195 ], [ -87.701028407, 34.806300394 ], [ -87.700778, 34.805819497 ], [ -87.7004444, 34.805430397 ], [ -87.699527703, 34.804881297 ], [ -87.694444805, 34.803280994 ], [ -87.693889104, 34.802937694 ], [ -87.693639003, 34.802685894 ], [ -87.693194106, 34.801884599 ], [ -87.6932493, 34.801426299 ], [ -87.693471201, 34.801288798 ], [ -87.694470607, 34.801013499 ], [ -87.695470206, 34.800967097 ], [ -87.695886806, 34.8010813 ], [ -87.697442301, 34.801767595 ], [ -87.698442206, 34.802087598 ], [ -87.7002756, 34.802865297 ], [ -87.702275701, 34.803871699 ], [ -87.704998203, 34.805198394 ], [ -87.706192702, 34.805678494 ], [ -87.707359202, 34.805883899 ], [ -87.7083866, 34.805906095 ], [ -87.709441505, 34.805676296 ], [ -87.709941104, 34.805446997 ], [ -87.710440502, 34.805011399 ], [ -87.710689805, 34.804438598 ], [ -87.710716806, 34.803568199 ], [ -87.710521802, 34.803064495 ], [ -87.709604301, 34.801851198 ], [ -87.708715104, 34.801164798 ], [ -87.708131604, 34.800821595 ], [ -87.706659503, 34.800227098 ], [ -87.705131806, 34.799792998 ], [ -87.701382704, 34.798993699 ], [ -87.699271701, 34.798193499 ], [ -87.697993904, 34.797529899 ], [ -87.697160304, 34.796705894 ], [ -87.696854204, 34.795927294 ], [ -87.696825206, 34.794553094 ], [ -87.696908206, 34.7941866 ], [ -87.696961805, 34.791941993 ], [ -87.697348304, 34.789468095 ] ] } }
]
}
