{
"type": "FeatureCollection",
"name": "USGS_0242354750_DM_12km",
"crs": { "type": "name", "properties": { "name": "urn:ogc:def:crs:OGC:1.3:CRS84" } },
"features": [
{ "type": "Feature", "properties": { "site_no": "0242354750", "nhdplus_comid": "21655846", "navigation_mode": "DM", "requested_distance_km": 12.0, "start_source": "nwissite", "start_id": "USGS-0242354750", "geometry_length_km": 4.3371592053749524 }, "geometry": { "type": "LineString", "coordinates": [ [ -86.80604894, 33.314112539 ], [ -86.8063085, 33.313755095 ], [ -86.806609303, 33.312999196 ], [ -86.806800403, 33.312884696 ], [ -86.807155102, 33.3129078 ], [ -86.808273301, 33.313595794 ], [ -86.8092006, 33.314329393 ], [ -86.809555307, 33.314329594 ], [ -86.809691802, 33.3142609 ], [ -86.809910506, 33.313779995 ], [ -86.809911102, 33.312978096 ], [ -86.809339106, 33.311603099 ], [ -86.809175402, 33.311488494 ], [ -86.809066907, 33.310709499 ], [ -86.809258103, 33.310365893 ], [ -86.810186304, 33.309862293 ], [ -86.810459405, 33.309450097 ], [ -86.8106784, 33.3085109 ], [ -86.811497606, 33.307572 ], [ -86.812207505, 33.307068296 ], [ -86.812398605, 33.306839295 ], [ -86.812398702, 33.306655996 ], [ -86.812071607, 33.306083098 ], [ -86.812180907, 33.305876896 ], [ -86.812836103, 33.305373296 ], [ -86.813027501, 33.304640196 ], [ -86.814009905, 33.304571994 ], [ -86.813982703, 33.304319896 ], [ -86.813546404, 33.304067694 ], [ -86.813192002, 33.303700998 ], [ -86.813165203, 33.3028761 ], [ -86.813656904, 33.302097499 ], [ -86.813793302, 33.302074596 ], [ -86.814038806, 33.302189298 ], [ -86.814502306, 33.302647695 ], [ -86.814911604, 33.302693799 ], [ -86.815239102, 33.302464895 ], [ -86.815239303, 33.302189894 ], [ -86.814803205, 33.3016399 ], [ -86.814803302, 33.3013191 ], [ -86.814939901, 33.301204599 ], [ -86.815376401, 33.301136196 ], [ -86.816385701, 33.301319897 ], [ -86.816849902, 33.300861895 ], [ -86.816986501, 33.3005412 ], [ -86.816632204, 33.3000829 ], [ -86.816632301, 33.299807899 ], [ -86.817369901, 33.298479393 ], [ -86.8177246, 33.298296295 ], [ -86.818379402, 33.298273697 ], [ -86.818515703, 33.298479997 ], [ -86.818597302, 33.298915297 ], [ -86.818706304, 33.299052894 ], [ -86.819279, 33.299488395 ], [ -86.821161002, 33.300313994 ], [ -86.822415806, 33.300749794 ], [ -86.823234104, 33.300864697 ], [ -86.824134506, 33.300887994 ], [ -86.824953102, 33.300819598 ], [ -86.825280502, 33.300705194 ], [ -86.825608104, 33.3002472 ], [ -86.825854301, 33.299216196 ], [ -86.825854503, 33.298735097 ], [ -86.825718403, 33.298322596 ], [ -86.825718805, 33.297474898 ], [ -86.826237805, 33.296467096 ] ] } },
{ "type": "Feature", "properties": { "site_no": "0242354750", "nhdplus_comid": "21655848", "navigation_mode": "DM", "requested_distance_km": 12.0, "start_source": "nwissite", "start_id": "USGS-0242354750", "geometry_length_km": 0.7543696415638208 }, "geometry": { "type": "LineString", "coordinates": [ [ -86.826237805, 33.296467096 ], [ -86.826565005, 33.296627596 ], [ -86.828911304, 33.296559796 ], [ -86.831202902, 33.296881296 ], [ -86.832866706, 33.297546498 ], [ -86.833821602, 33.297775798 ], [ -86.833957806, 33.297959194 ] ] } },
{ "type": "Feature", "properties": { "site_no": "0242354750", "nhdplus_comid": "21655832", "navigation_mode": "DM", "requested_distance_km": 12.0, "start_source": "nwissite", "start_id": "USGS-0242354750", "geometry_length_km": 0.077679784416239489 }, "geometry": { "type": "LineString", "coordinates": [ [ -86.833957806, 33.297959194 ], [ -86.834257901, 33.298050895 ], [ -86.834530503, 33.298417598 ] ] } },
{ "type": "Feature", "properties": { "site_no": "0242354750", "nhdplus_comid": "21655838", "navigation_mode": "DM", "requested_distance_km": 12.0, "start_source": "nwissite", "start_id": "USGS-0242354750", "geometry_length_km": 0.44192148287630978 }, "geometry": { "type": "LineString", "coordinates": [ [ -86.834530503, 33.298417598 ], [ -86.834803306, 33.2985093 ], [ -86.835594207, 33.299242698 ], [ -86.835812502, 33.299288593 ], [ -86.836521901, 33.299059696 ], [ -86.836685702, 33.298807696 ], [ -86.836876906, 33.298212096 ], [ -86.837477401, 33.297731198 ], [ -86.837613903, 33.297433399 ] ] } },
{ "type": "Feature", "properties": { "site_no": "0242354750", "nhdplus_comid": "21655844", "navigation_mode": "DM", "requested_distance_km": 12.0, "start_source": "nwissite", "start_id": "USGS-0242354750", "geometry_length_km": 3.2954292193549648 }, "geometry": { "type": "LineString", "coordinates": [ [ -86.837613903, 33.297433399 ], [ -86.837723002, 33.297456399 ], [ -86.838214301, 33.297021195 ], [ -86.838841803, 33.296769299 ], [ -86.839223802, 33.2967695 ], [ -86.839796707, 33.296907097 ], [ -86.841024101, 33.297640599 ], [ -86.841515101, 33.297732398 ], [ -86.841924407, 33.297640793 ], [ -86.842388302, 33.297297299 ], [ -86.842961207, 33.297159895 ], [ -86.845389202, 33.2978708 ], [ -86.846016705, 33.297779299 ], [ -86.847435504, 33.297206894 ], [ -86.848035701, 33.297069594 ], [ -86.849099703, 33.2973447 ], [ -86.849781603, 33.297803 ], [ -86.851718403, 33.2987886 ], [ -86.852836907, 33.299201198 ], [ -86.8529732, 33.299476199 ], [ -86.852945805, 33.299842693 ], [ -86.852645606, 33.300323799 ], [ -86.852345504, 33.300506994 ], [ -86.851581603, 33.300415196 ], [ -86.851090401, 33.300529696 ], [ -86.850899406, 33.3008046 ], [ -86.850871906, 33.301216893 ], [ -86.852017604, 33.302248195 ], [ -86.852181301, 33.302454397 ], [ -86.852208503, 33.302637599 ], [ -86.852972001, 33.3040125 ], [ -86.8540086, 33.305158094 ], [ -86.854035705, 33.306005895 ], [ -86.854335606, 33.306876495 ], [ -86.854690306, 33.307128593 ], [ -86.8560545, 33.307495393 ], [ -86.8570638, 33.308228597 ], [ -86.857909702, 33.3086183 ], [ -86.858346201, 33.308549598 ], [ -86.858755603, 33.308091499 ], [ -86.859274, 33.307976998 ], [ -86.860065304, 33.308045797 ] ] } }
]
}
