{
"type": "FeatureCollection",
"name": "USGS_02465205_UM_12km",
"crs": { "type": "name", "properties": { "name": "urn:ogc:def:crs:OGC:1.3:CRS84" } },
"features": [
{ "type": "Feature", "properties": { "site_no": "02465205", "nhdplus_comid": "18206384", "navigation_mode": "UM", "requested_distance_km": 12.0, "start_source": "nwissite", "start_id": "USGS-02465205", "geometry_length_km": 0.7927985869149512 }, "geometry": { "type": "LineString", "coordinates": [ [ -87.705152005, 33.225435093 ], [ -87.703380302, 33.225550793 ], [ -87.702507704, 33.225230694 ], [ -87.7014447, 33.225300096 ], [ -87.700681604, 33.225529693 ], [ -87.700245507, 33.225529894 ], [ -87.699073106, 33.225232899 ], [ -87.698255703, 33.225485295 ], [ -87.697956003, 33.2257834 ], [ -87.697792806, 33.226035498 ], [ -87.697356902, 33.226356499 ], [ -87.697336267, 33.226362457 ] ] } },
{ "type": "Feature", "properties": { "site_no": "02465205", "nhdplus_comid": "18205074", "navigation_mode": "UM", "requested_distance_km": 12.0, "start_source": "nwissite", "start_id": "USGS-02465205", "geometry_length_km": 1.0027565116714858 }, "geometry": { "type": "LineString", "coordinates": [ [ -87.713626005, 33.222290494 ], [ -87.713245004, 33.222771898 ], [ -87.712781802, 33.222955398 ], [ -87.712400101, 33.222978696 ], [ -87.712072901, 33.222841397 ], [ -87.711691506, 33.2229563 ], [ -87.711500801, 33.223116696 ], [ -87.711337604, 33.223414697 ], [ -87.710820004, 33.223804496 ], [ -87.710465707, 33.223850593 ], [ -87.710247703, 33.2237821 ], [ -87.709920205, 33.223530196 ], [ -87.709675007, 33.223622099 ], [ -87.7093485, 33.224149294 ], [ -87.708939902, 33.224378593 ], [ -87.707931407, 33.224470995 ], [ -87.706977107, 33.224173799 ], [ -87.706404805, 33.224265896 ], [ -87.705424003, 33.224839196 ], [ -87.705152005, 33.225435093 ] ] } },
{ "type": "Feature", "properties": { "site_no": "02465205", "nhdplus_comid": "18205104", "navigation_mode": "UM", "requested_distance_km": 12.0, "start_source": "nwissite", "start_id": "USGS-02465205", "geometry_length_km": 1.5049438467008307 }, "geometry": { "type": "LineString", "coordinates": [ [ -87.719474107, 33.211357996 ], [ -87.719502904, 33.212640993 ], [ -87.719994307, 33.213396594 ], [ -87.720267706, 33.214152396 ], [ -87.720213704, 33.214610599 ], [ -87.719832703, 33.215114899 ], [ -87.719669603, 33.215527393 ], [ -87.719697505, 33.216123097 ], [ -87.719889, 33.216718599 ], [ -87.7198622, 33.217130899 ], [ -87.719671607, 33.217337295 ], [ -87.719317503, 33.2174979 ], [ -87.718664102, 33.218208693 ], [ -87.718609802, 33.218369097 ], [ -87.716349401, 33.220088996 ], [ -87.714497, 33.221121393 ], [ -87.714061402, 33.221556999 ], [ -87.713626005, 33.222290494 ] ] } }
]
}
