{
"type": "FeatureCollection",
"name": "USGS_02375000_UM_12km",
"crs": { "type": "name", "properties": { "name": "urn:ogc:def:crs:OGC:1.3:CRS84" } },
"features": [
{ "type": "Feature", "properties": { "site_no": "02375000", "nhdplus_comid": "446386", "navigation_mode": "UM", "requested_distance_km": 12.0, "start_source": "nwissite", "start_id": "USGS-02375000", "geometry_length_km": 0.2204991274828573 }, "geometry": { "type": "LineString", "coordinates": [ [ -87.2651335, 31.010715097 ], [ -87.264814101, 31.010669097 ], [ -87.264468201, 31.010760397 ], [ -87.263004601, 31.010781996 ], [ -87.262847775, 31.010734206 ] ] } },
{ "type": "Feature", "properties": { "site_no": "02375000", "nhdplus_comid": "446104", "navigation_mode": "UM", "requested_distance_km": 12.0, "start_source": "nwissite", "start_id": "USGS-02375000", "geometry_length_km": 1.1801294544592924 }, "geometry": { "type": "LineString", "coordinates": [ [ -87.275668204, 31.013130099 ], [ -87.275668502, 31.012832195 ], [ -87.275190204, 31.012235895 ], [ -87.2739399, 31.011868194 ], [ -87.273381606, 31.011478193 ], [ -87.272849604, 31.011225693 ], [ -87.271253303, 31.011086896 ], [ -87.270588301, 31.010765493 ], [ -87.269897103, 31.010077298 ], [ -87.269445106, 31.009847797 ], [ -87.267848201, 31.010075696 ], [ -87.267235704, 31.010602295 ], [ -87.266277701, 31.010716096 ], [ -87.2651335, 31.010715097 ] ] } },
{ "type": "Feature", "properties": { "site_no": "02375000", "nhdplus_comid": "446092", "navigation_mode": "UM", "requested_distance_km": 12.0, "start_source": "nwissite", "start_id": "USGS-02375000", "geometry_length_km": 0.30598713648592318 }, "geometry": { "type": "LineString", "coordinates": [ [ -87.277635604, 31.014965095 ], [ -87.277342901, 31.014964893 ], [ -87.276943803, 31.014872894 ], [ -87.276412003, 31.014528796 ], [ -87.276172705, 31.014253497 ], [ -87.275854401, 31.0132678 ], [ -87.275668204, 31.013130099 ] ] } },
{ "type": "Feature", "properties": { "site_no": "02375000", "nhdplus_comid": "446088", "navigation_mode": "UM", "requested_distance_km": 12.0, "start_source": "nwissite", "start_id": "USGS-02375000", "geometry_length_km": 0.16487298842615769 }, "geometry": { "type": "LineString", "coordinates": [ [ -87.279338501, 31.015149795 ], [ -87.278886303, 31.015011899 ], [ -87.277635604, 31.014965095 ] ] } },
{ "type": "Feature", "properties": { "site_no": "02375000", "nhdplus_comid": "446086", "navigation_mode": "UM", "requested_distance_km": 12.0, "start_source": "nwissite", "start_id": "USGS-02375000", "geometry_length_km": 0.4620730462589917 }, "geometry": { "type": "LineString", "coordinates": [ [ -87.283168301, 31.017444395 ], [ -87.282849401, 31.016985796 ], [ -87.282104902, 31.016205996 ], [ -87.281573005, 31.015884794 ], [ -87.279684402, 31.015195794 ], [ -87.279338501, 31.015149795 ] ] } },
{ "type": "Feature", "properties": { "site_no": "02375000", "nhdplus_comid": "446076", "navigation_mode": "UM", "requested_distance_km": 12.0, "start_source": "nwissite", "start_id": "USGS-02375000", "geometry_length_km": 0.1215571636728603 }, "geometry": { "type": "LineString", "coordinates": [ [ -87.283539906, 31.018475898 ], [ -87.283513501, 31.018132098 ], [ -87.283168301, 31.017444395 ] ] } },
{ "type": "Feature", "properties": { "site_no": "02375000", "nhdplus_comid": "446074", "navigation_mode": "UM", "requested_distance_km": 12.0, "start_source": "nwissite", "start_id": "USGS-02375000", "geometry_length_km": 1.0947328725027154 }, "geometry": { "type": "LineString", "coordinates": [ [ -87.289281704, 31.0256534 ], [ -87.288536705, 31.025469594 ], [ -87.287712, 31.025056496 ], [ -87.286542006, 31.023932695 ], [ -87.286223106, 31.023474097 ], [ -87.285745002, 31.022419497 ], [ -87.285559706, 31.021410897 ], [ -87.285533801, 31.020494193 ], [ -87.2856405, 31.020196296 ], [ -87.285614602, 31.0194171 ], [ -87.285215802, 31.019141696 ], [ -87.283646002, 31.018750995 ], [ -87.283619702, 31.018498898 ], [ -87.283539906, 31.018475898 ] ] } },
{ "type": "Feature", "properties": { "site_no": "02375000", "nhdplus_comid": "446062", "navigation_mode": "UM", "requested_distance_km": 12.0, "start_source": "nwissite", "start_id": "USGS-02375000", "geometry_length_km": 0.79405385263775152 }, "geometry": { "type": "LineString", "coordinates": [ [ -87.292683803, 31.030880995 ], [ -87.291592903, 31.030559398 ], [ -87.290981106, 31.030192293 ], [ -87.289837405, 31.029229097 ], [ -87.289651304, 31.028953999 ], [ -87.289624907, 31.028701894 ], [ -87.290397301, 31.028037697 ], [ -87.290424302, 31.027602196 ], [ -87.289919704, 31.026455998 ], [ -87.289281704, 31.0256534 ] ] } },
{ "type": "Feature", "properties": { "site_no": "02375000", "nhdplus_comid": "446046", "navigation_mode": "UM", "requested_distance_km": 12.0, "start_source": "nwissite", "start_id": "USGS-02375000", "geometry_length_km": 0.27824195859896345 }, "geometry": { "type": "LineString", "coordinates": [ [ -87.294678703, 31.032348998 ], [ -87.293987602, 31.031225599 ], [ -87.293588601, 31.030950293 ], [ -87.293136306, 31.030835494 ], [ -87.292683803, 31.030880995 ] ] } },
{ "type": "Feature", "properties": { "site_no": "02375000", "nhdplus_comid": "446042", "navigation_mode": "UM", "requested_distance_km": 12.0, "start_source": "nwissite", "start_id": "USGS-02375000", "geometry_length_km": 1.6436368794205831 }, "geometry": { "type": "LineString", "coordinates": [ [ -87.308540002, 31.040309697 ], [ -87.306598306, 31.038383499 ], [ -87.305134803, 31.037649296 ], [ -87.304043703, 31.037327796 ], [ -87.302766606, 31.036731198 ], [ -87.301170304, 31.035607398 ], [ -87.299600303, 31.035147995 ], [ -87.299095005, 31.034758195 ], [ -87.298244201, 31.033611797 ], [ -87.297579303, 31.0330384 ], [ -87.296514906, 31.032739796 ], [ -87.2953704, 31.032670297 ], [ -87.294678703, 31.032348998 ] ] } },
{ "type": "Feature", "properties": { "site_no": "02375000", "nhdplus_comid": "446026", "navigation_mode": "UM", "requested_distance_km": 12.0, "start_source": "nwissite", "start_id": "USGS-02375000", "geometry_length_km": 0.34026051294613024 }, "geometry": { "type": "LineString", "coordinates": [ [ -87.311120704, 31.042167298 ], [ -87.3107749, 31.041685894 ], [ -87.310615502, 31.0412504 ], [ -87.309737504, 31.040676899 ], [ -87.309045605, 31.040516198 ], [ -87.308540002, 31.040309697 ] ] } },
{ "type": "Feature", "properties": { "site_no": "02375000", "nhdplus_comid": "446022", "navigation_mode": "UM", "requested_distance_km": 12.0, "start_source": "nwissite", "start_id": "USGS-02375000", "geometry_length_km": 0.3298739773970179 }, "geometry": { "type": "LineString", "coordinates": [ [ -87.313275404, 31.044345595 ], [ -87.313248806, 31.044230998 ], [ -87.312344104, 31.043726295 ], [ -87.311705701, 31.043198898 ], [ -87.311519504, 31.042855099 ], [ -87.311359905, 31.042740397 ], [ -87.311120704, 31.042167298 ] ] } },
{ "type": "Feature", "properties": { "site_no": "02375000", "nhdplus_comid": "446020", "navigation_mode": "UM", "requested_distance_km": 12.0, "start_source": "nwissite", "start_id": "USGS-02375000", "geometry_length_km": 0.92678039392536238 }, "geometry": { "type": "LineString", "coordinates": [ [ -87.321232304, 31.048382796 ], [ -87.320593506, 31.048222199 ], [ -87.318330906, 31.047877394 ], [ -87.317612402, 31.047510393 ], [ -87.316149004, 31.046363793 ], [ -87.314791806, 31.045950599 ], [ -87.314312704, 31.045721196 ], [ -87.3140468, 31.045102298 ], [ -87.313701004, 31.044620797 ], [ -87.313275404, 31.044345595 ] ] } },
{ "type": "Feature", "properties": { "site_no": "02375000", "nhdplus_comid": "446014", "navigation_mode": "UM", "requested_distance_km": 12.0, "start_source": "nwissite", "start_id": "USGS-02375000", "geometry_length_km": 0.33555269408230159 }, "geometry": { "type": "LineString", "coordinates": [ [ -87.324293002, 31.049369499 ], [ -87.3238407, 31.048796393 ], [ -87.323361702, 31.048544094 ], [ -87.322829403, 31.048429295 ], [ -87.321578205, 31.048451699 ], [ -87.321232304, 31.048382796 ] ] } },
{ "type": "Feature", "properties": { "site_no": "02375000", "nhdplus_comid": "446010", "navigation_mode": "UM", "requested_distance_km": 12.0, "start_source": "nwissite", "start_id": "USGS-02375000", "geometry_length_km": 2.1017559102987131 }, "geometry": { "type": "LineString", "coordinates": [ [ -87.336002007, 31.059113897 ], [ -87.335895501, 31.059113793 ], [ -87.335203901, 31.0578302 ], [ -87.335151106, 31.056569695 ], [ -87.334938206, 31.056203 ], [ -87.334139802, 31.055560999 ], [ -87.333687603, 31.0549879 ], [ -87.333421506, 31.054437794 ], [ -87.333129205, 31.053314693 ], [ -87.3328631, 31.053016596 ], [ -87.332384102, 31.0528102 ], [ -87.3319581, 31.052855894 ], [ -87.331425503, 31.053153694 ], [ -87.330466703, 31.054115899 ], [ -87.329774603, 31.054230295 ], [ -87.328763105, 31.053863198 ], [ -87.328337304, 31.053519294 ], [ -87.328337505, 31.053198397 ], [ -87.329243004, 31.052236199 ], [ -87.329323001, 31.051938295 ], [ -87.329243205, 31.051686198 ], [ -87.329083607, 31.0515486 ], [ -87.328577802, 31.051387899 ], [ -87.327992201, 31.051456496 ], [ -87.327912301, 31.051387697 ], [ -87.326794401, 31.051272698 ], [ -87.3252507, 31.050515793 ], [ -87.324612103, 31.049942598 ], [ -87.324293002, 31.049369499 ] ] } }
]
}
