{
"type": "FeatureCollection",
"name": "USGS_02429650_DM_12km",
"crs": { "type": "name", "properties": { "name": "urn:ogc:def:crs:OGC:1.3:CRS84" } },
"features": [
{ "type": "Feature", "properties": { "site_no": "02429650", "nhdplus_comid": "18241891", "navigation_mode": "DM", "requested_distance_km": 12.0, "start_source": "nwissite", "start_id": "USGS-02429650", "geometry_length_km": 1.563551336069787 }, "geometry": { "type": "LineString", "coordinates": [ [ -87.818207941, 31.128776826 ], [ -87.819210805, 31.128710896 ], [ -87.819610305, 31.128940299 ], [ -87.820302606, 31.129719697 ], [ -87.820435606, 31.129994698 ], [ -87.820328802, 31.130452998 ], [ -87.820355102, 31.131071799 ], [ -87.820568003, 31.131484397 ], [ -87.820887603, 31.131667897 ], [ -87.821686804, 31.131713994 ], [ -87.821926601, 31.1318058 ], [ -87.822139502, 31.132172599 ], [ -87.822192505, 31.132699594 ], [ -87.822432205, 31.132951796 ], [ -87.822698504, 31.133043498 ], [ -87.823045, 31.132883199 ], [ -87.823045, 31.132791497 ], [ -87.8233115, 31.132608294 ], [ -87.8238708, 31.132814698 ], [ -87.825229205, 31.1336632 ], [ -87.825788707, 31.133663394 ], [ -87.8264018, 31.133113593 ], [ -87.826721504, 31.1331366 ], [ -87.827067502, 31.133709699 ], [ -87.827706605, 31.134236999 ], [ -87.828052707, 31.134741195 ], [ -87.829198502, 31.134374894 ] ] } },
{ "type": "Feature", "properties": { "site_no": "02429650", "nhdplus_comid": "18241851", "navigation_mode": "DM", "requested_distance_km": 12.0, "start_source": "nwissite", "start_id": "USGS-02429650", "geometry_length_km": 2.3069813076960894 }, "geometry": { "type": "LineString", "coordinates": [ [ -87.829198502, 31.134374894 ], [ -87.829651304, 31.134650096 ], [ -87.830583706, 31.134833694 ], [ -87.830663502, 31.135177493 ], [ -87.831009805, 31.1354068 ], [ -87.831888907, 31.135407098 ], [ -87.832235307, 31.135269694 ], [ -87.832688205, 31.135246895 ], [ -87.833007902, 31.135430396 ], [ -87.833274104, 31.135842994 ], [ -87.833327204, 31.136369996 ], [ -87.833646804, 31.1366909 ], [ -87.833939806, 31.136828497 ], [ -87.834206, 31.137424394 ], [ -87.834498905, 31.137791194 ], [ -87.834738605, 31.137928799 ], [ -87.8351916, 31.137837298 ], [ -87.835111804, 31.137653895 ], [ -87.835165203, 31.137310095 ], [ -87.835431702, 31.137080997 ], [ -87.836097807, 31.136874996 ], [ -87.836390801, 31.136897996 ], [ -87.836417302, 31.137447998 ], [ -87.836523801, 31.137585498 ], [ -87.836763605, 31.137585595 ], [ -87.837536402, 31.137012899 ], [ -87.838442303, 31.136921495 ], [ -87.8385223, 31.136806898 ], [ -87.838309303, 31.136554696 ], [ -87.838336006, 31.136371396 ], [ -87.8384692, 31.136279799 ], [ -87.838788904, 31.136417396 ], [ -87.839774504, 31.136509299 ], [ -87.840254001, 31.1368073 ], [ -87.840946704, 31.136807494 ], [ -87.842705302, 31.136120394 ], [ -87.8429984, 31.135937095 ], [ -87.844383903, 31.135822795 ], [ -87.845422901, 31.136143796 ], [ -87.846435204, 31.136969 ], [ -87.847420804, 31.137221299 ] ] } },
{ "type": "Feature", "properties": { "site_no": "02429650", "nhdplus_comid": "18241833", "navigation_mode": "DM", "requested_distance_km": 12.0, "start_source": "nwissite", "start_id": "USGS-02429650", "geometry_length_km": 0.11567428829109218 }, "geometry": { "type": "LineString", "coordinates": [ [ -87.847420804, 31.137221299 ], [ -87.848113507, 31.137198493 ], [ -87.848619804, 31.137084 ] ] } },
{ "type": "Feature", "properties": { "site_no": "02429650", "nhdplus_comid": "18241835", "navigation_mode": "DM", "requested_distance_km": 12.0, "start_source": "nwissite", "start_id": "USGS-02429650", "geometry_length_km": 0.25112556242812317 }, "geometry": { "type": "LineString", "coordinates": [ [ -87.848619804, 31.137084 ], [ -87.849658705, 31.137794599 ], [ -87.849658601, 31.138046697 ], [ -87.848779306, 31.138481997 ] ] } },
{ "type": "Feature", "properties": { "site_no": "02429650", "nhdplus_comid": "18241819", "navigation_mode": "DM", "requested_distance_km": 12.0, "start_source": "nwissite", "start_id": "USGS-02429650", "geometry_length_km": 0.75917442505047095 }, "geometry": { "type": "LineString", "coordinates": [ [ -87.848779306, 31.138481997 ], [ -87.848859102, 31.1388257 ], [ -87.849551804, 31.13933 ], [ -87.849525101, 31.139536195 ], [ -87.849072002, 31.139971599 ], [ -87.849045202, 31.140796594 ], [ -87.848911807, 31.141346596 ], [ -87.849284701, 31.141919494 ], [ -87.849284604, 31.142079897 ], [ -87.849098101, 31.142125696 ], [ -87.848938301, 31.142033994 ], [ -87.848352104, 31.142079696 ], [ -87.848352, 31.142308898 ], [ -87.849337704, 31.143065393 ], [ -87.849923901, 31.142973796 ] ] } },
{ "type": "Feature", "properties": { "site_no": "02429650", "nhdplus_comid": "18241787", "navigation_mode": "DM", "requested_distance_km": 12.0, "start_source": "nwissite", "start_id": "USGS-02429650", "geometry_length_km": 1.9706970705039182 }, "geometry": { "type": "LineString", "coordinates": [ [ -87.849923901, 31.142973796 ], [ -87.850030504, 31.142996699 ], [ -87.850163601, 31.143569693 ], [ -87.850483201, 31.143982299 ], [ -87.851762004, 31.1447386 ], [ -87.852507904, 31.145632498 ], [ -87.853147402, 31.146090999 ], [ -87.854719304, 31.146893099 ], [ -87.855438702, 31.146984898 ], [ -87.856664203, 31.147878796 ], [ -87.856904, 31.148360096 ], [ -87.857170403, 31.148543499 ], [ -87.8584226, 31.148841493 ], [ -87.860101402, 31.148818694 ], [ -87.861060701, 31.148658395 ], [ -87.861540206, 31.148795895 ], [ -87.861886606, 31.148750097 ], [ -87.862339601, 31.148291796 ], [ -87.863778502, 31.148154393 ], [ -87.863831803, 31.147902295 ], [ -87.864071704, 31.147741899 ], [ -87.864418104, 31.147741899 ], [ -87.8650041, 31.148223199 ], [ -87.8653505, 31.148223199 ], [ -87.865324005, 31.147421099 ], [ -87.865670405, 31.147054493 ] ] } },
{ "type": "Feature", "properties": { "site_no": "02429650", "nhdplus_comid": "18241771", "navigation_mode": "DM", "requested_distance_km": 12.0, "start_source": "nwissite", "start_id": "USGS-02429650", "geometry_length_km": 0.23986696982730399 }, "geometry": { "type": "LineString", "coordinates": [ [ -87.865670405, 31.147054493 ], [ -87.866869405, 31.147421196 ], [ -87.866976, 31.147512898 ], [ -87.868041806, 31.1477421 ] ] } },
{ "type": "Feature", "properties": { "site_no": "02429650", "nhdplus_comid": "18246529", "navigation_mode": "DM", "requested_distance_km": 12.0, "start_source": "nwissite", "start_id": "USGS-02429650", "geometry_length_km": 0.087481892354429047 }, "geometry": { "type": "LineString", "coordinates": [ [ -87.868041806, 31.1477421 ], [ -87.868062504, 31.147681199 ], [ -87.868376106, 31.147711597 ], [ -87.868782006, 31.147419594 ] ] } },
{ "type": "Feature", "properties": { "site_no": "02429650", "nhdplus_comid": "18242755", "navigation_mode": "DM", "requested_distance_km": 12.0, "start_source": "nwissite", "start_id": "USGS-02429650", "geometry_length_km": 0.51921131829473521 }, "geometry": { "type": "LineString", "coordinates": [ [ -87.868782006, 31.147419594 ], [ -87.868854202, 31.147367693 ], [ -87.869680405, 31.145028196 ], [ -87.871458404, 31.143516399 ] ] } },
{ "type": "Feature", "properties": { "site_no": "02429650", "nhdplus_comid": "18242761", "navigation_mode": "DM", "requested_distance_km": 12.0, "start_source": "nwissite", "start_id": "USGS-02429650", "geometry_length_km": 0.22245692371690506 }, "geometry": { "type": "LineString", "coordinates": [ [ -87.871458404, 31.143516399 ], [ -87.873668104, 31.142857194 ] ] } },
{ "type": "Feature", "properties": { "site_no": "02429650", "nhdplus_comid": "18242763", "navigation_mode": "DM", "requested_distance_km": 12.0, "start_source": "nwissite", "start_id": "USGS-02429650", "geometry_length_km": 0.43681543098450554 }, "geometry": { "type": "LineString", "coordinates": [ [ -87.873668104, 31.142857194 ], [ -87.874909304, 31.143011197 ], [ -87.876045607, 31.143473394 ], [ -87.877387501, 31.144834794 ] ] } },
{ "type": "Feature", "properties": { "site_no": "02429650", "nhdplus_comid": "18242747", "navigation_mode": "DM", "requested_distance_km": 12.0, "start_source": "nwissite", "start_id": "USGS-02429650", "geometry_length_km": 1.1995237655421067 }, "geometry": { "type": "LineString", "coordinates": [ [ -87.877387501, 31.144834794 ], [ -87.878117204, 31.146403998 ], [ -87.8783186, 31.148818694 ], [ -87.879132204, 31.151025593 ], [ -87.880608507, 31.152523093 ], [ -87.8828815, 31.153447196 ], [ -87.883175001, 31.153468698 ] ] } },
{ "type": "Feature", "properties": { "site_no": "02429650", "nhdplus_comid": "18242731", "navigation_mode": "DM", "requested_distance_km": 12.0, "start_source": "nwissite", "start_id": "USGS-02429650", "geometry_length_km": 2.0857432827077953 }, "geometry": { "type": "LineString", "coordinates": [ [ -87.883175001, 31.153468698 ], [ -87.884701706, 31.154464498 ], [ -87.886689804, 31.156757198 ], [ -87.888149805, 31.159895398 ], [ -87.889010206, 31.163115993 ], [ -87.890533105, 31.165627196 ], [ -87.891741306, 31.166852199 ], [ -87.895084605, 31.168169998 ] ] } }
]
}
