{
"type": "FeatureCollection",
"name": "USGS_02408500_UM_12km",
"crs": { "type": "name", "properties": { "name": "urn:ogc:def:crs:OGC:1.3:CRS84" } },
"features": [
{ "type": "Feature", "properties": { "site_no": "02408500", "nhdplus_comid": "22274410", "navigation_mode": "UM", "requested_distance_km": 12.0, "start_source": "nwissite", "start_id": "USGS-02408500", "geometry_length_km": 0.40206225211997981 }, "geometry": { "type": "LineString", "coordinates": [ [ -86.2137646, 32.946158499 ], [ -86.2137914, 32.945860595 ], [ -86.214062706, 32.945425093 ], [ -86.214687303, 32.944943599 ], [ -86.215502203, 32.944782697 ], [ -86.216317207, 32.944507197 ], [ -86.216974828, 32.944112953 ] ] } },
{ "type": "Feature", "properties": { "site_no": "02408500", "nhdplus_comid": "22274350", "navigation_mode": "UM", "requested_distance_km": 12.0, "start_source": "nwissite", "start_id": "USGS-02408500", "geometry_length_km": 0.88588319454508879 }, "geometry": { "type": "LineString", "coordinates": [ [ -86.206019305, 32.944788896 ], [ -86.206535801, 32.945063494 ], [ -86.207052104, 32.945177697 ], [ -86.2083029, 32.946139194 ], [ -86.208983101, 32.947192594 ], [ -86.209309503, 32.947398596 ], [ -86.209581204, 32.947467193 ], [ -86.211048402, 32.947328798 ], [ -86.213248603, 32.946410894 ], [ -86.213655904, 32.946158595 ], [ -86.2137646, 32.946158499 ] ] } },
{ "type": "Feature", "properties": { "site_no": "02408500", "nhdplus_comid": "22274372", "navigation_mode": "UM", "requested_distance_km": 12.0, "start_source": "nwissite", "start_id": "USGS-02408500", "geometry_length_km": 0.52808978748798296 }, "geometry": { "type": "LineString", "coordinates": [ [ -86.2009909, 32.942729898 ], [ -86.201018102, 32.942844495 ], [ -86.201996706, 32.9433937 ], [ -86.203654803, 32.944057196 ], [ -86.206019305, 32.944788896 ] ] } },
{ "type": "Feature", "properties": { "site_no": "02408500", "nhdplus_comid": "22274376", "navigation_mode": "UM", "requested_distance_km": 12.0, "start_source": "nwissite", "start_id": "USGS-02408500", "geometry_length_km": 0.57804670726991148 }, "geometry": { "type": "LineString", "coordinates": [ [ -86.1958839, 32.944313593 ], [ -86.195938103, 32.944198996 ], [ -86.1967801, 32.943717495 ], [ -86.197567604, 32.943121299 ], [ -86.198273607, 32.942456499 ], [ -86.198789604, 32.942249998 ], [ -86.199930906, 32.942249395 ], [ -86.2009909, 32.942729898 ] ] } },
{ "type": "Feature", "properties": { "site_no": "02408500", "nhdplus_comid": "22274362", "navigation_mode": "UM", "requested_distance_km": 12.0, "start_source": "nwissite", "start_id": "USGS-02408500", "geometry_length_km": 0.75594676358500601 }, "geometry": { "type": "LineString", "coordinates": [ [ -86.189474203, 32.948394895 ], [ -86.189582907, 32.948394798 ], [ -86.190777905, 32.947546594 ], [ -86.192787804, 32.946262598 ], [ -86.194064103, 32.945230998 ], [ -86.1955036, 32.944405496 ], [ -86.1958839, 32.944313593 ] ] } },
{ "type": "Feature", "properties": { "site_no": "02408500", "nhdplus_comid": "22274318", "navigation_mode": "UM", "requested_distance_km": 12.0, "start_source": "nwissite", "start_id": "USGS-02408500", "geometry_length_km": 7.0898992362840456 }, "geometry": { "type": "LineString", "coordinates": [ [ -86.173351504, 32.984256297 ], [ -86.174031004, 32.984072797 ], [ -86.174818702, 32.982789494 ], [ -86.175144404, 32.981964596 ], [ -86.1758506, 32.980910495 ], [ -86.1764208, 32.979741894 ], [ -86.176420607, 32.9793524 ], [ -86.176284604, 32.978962995 ], [ -86.176012501, 32.978550799 ], [ -86.1747346, 32.978001297 ], [ -86.174326703, 32.977611996 ], [ -86.174326405, 32.976924695 ], [ -86.174652107, 32.976191394 ], [ -86.175032601, 32.976007998 ], [ -86.175549001, 32.975961998 ], [ -86.177669503, 32.976877496 ], [ -86.178158902, 32.976923198 ], [ -86.178756602, 32.976487599 ], [ -86.179136902, 32.975937694 ], [ -86.179544501, 32.975639693 ], [ -86.180849105, 32.975570396 ], [ -86.181474403, 32.975661799 ], [ -86.182643205, 32.975707196 ], [ -86.183268204, 32.975431897 ], [ -86.183594003, 32.974950694 ], [ -86.183647804, 32.974171698 ], [ -86.183539003, 32.973873995 ], [ -86.182995103, 32.973438896 ], [ -86.182288207, 32.973141395 ], [ -86.180548504, 32.972867094 ], [ -86.179651402, 32.9725696 ], [ -86.178917207, 32.971882597 ], [ -86.178808406, 32.971676499 ], [ -86.178808302, 32.971538998 ], [ -86.178726703, 32.971493199 ], [ -86.178454503, 32.970668495 ], [ -86.178535104, 32.9689961 ], [ -86.178643703, 32.968652397 ], [ -86.179132603, 32.968239799 ], [ -86.179513, 32.968079299 ], [ -86.180246703, 32.9679645 ], [ -86.181986101, 32.967849195 ], [ -86.183100604, 32.967963293 ], [ -86.183752604, 32.967733897 ], [ -86.184350304, 32.967298299 ], [ -86.184676304, 32.966954499 ], [ -86.185056105, 32.965808898 ], [ -86.184974, 32.964938298 ], [ -86.184973404, 32.964021899 ], [ -86.184646703, 32.963013999 ], [ -86.184320301, 32.962670498 ], [ -86.1836408, 32.9625104 ], [ -86.181575604, 32.962831996 ], [ -86.180950202, 32.962694794 ], [ -86.180596806, 32.962282598 ], [ -86.180623606, 32.961641096 ], [ -86.180813506, 32.961113997 ], [ -86.181519501, 32.960105695 ], [ -86.182524607, 32.959463798 ], [ -86.183230802, 32.958799094 ], [ -86.183529504, 32.958294898 ], [ -86.1837193, 32.957744993 ], [ -86.183746003, 32.956851497 ], [ -86.183501005, 32.956187196 ], [ -86.183202006, 32.956026897 ], [ -86.182740003, 32.956004195 ], [ -86.181164004, 32.956256993 ], [ -86.180810705, 32.956188299 ], [ -86.180348605, 32.955936499 ], [ -86.179668605, 32.954837099 ], [ -86.179505005, 32.9539437 ], [ -86.180048101, 32.953164496 ], [ -86.181840703, 32.951720297 ], [ -86.183552004, 32.950688593 ], [ -86.184203804, 32.950023897 ], [ -86.1853173, 32.949084096 ], [ -86.185942002, 32.948763095 ], [ -86.186621301, 32.948671199 ], [ -86.188197501, 32.9489225 ], [ -86.1888768, 32.948876299 ], [ -86.189284302, 32.948647 ], [ -86.189474203, 32.948394895 ] ] } },
{ "type": "Feature", "properties": { "site_no": "02408500", "nhdplus_comid": "22274072", "navigation_mode": "UM", "requested_distance_km": 12.0, "start_source": "nwissite", "start_id": "USGS-02408500", "geometry_length_km": 1.027659142463436 }, "geometry": { "type": "LineString", "coordinates": [ [ -86.165140606, 32.980753593 ], [ -86.166227907, 32.980753295 ], [ -86.166581206, 32.980661497 ], [ -86.166988902, 32.9806844 ], [ -86.167559907, 32.980936095 ], [ -86.168022104, 32.9813255 ], [ -86.168239802, 32.981737897 ], [ -86.168213405, 32.983227 ], [ -86.168403804, 32.983524695 ], [ -86.168784402, 32.983845398 ], [ -86.170035005, 32.9841199 ], [ -86.172128201, 32.9842567 ], [ -86.173351504, 32.984256297 ] ] } }
]
}
