{
"type": "FeatureCollection",
"name": "USGS_02409400_DM_12km",
"crs": { "type": "name", "properties": { "name": "urn:ogc:def:crs:OGC:1.3:CRS84" } },
"features": [
{ "type": "Feature", "properties": { "site_no": "02409400", "nhdplus_comid": "22276502", "navigation_mode": "DM", "requested_distance_km": 12.0, "start_source": "nwissite", "start_id": "USGS-02409400", "geometry_length_km": 0.028997111840691835 }, "geometry": { "type": "LineString", "coordinates": [ [ -86.445037934, 32.805970789 ], [ -86.444840901, 32.805769496 ] ] } },
{ "type": "Feature", "properties": { "site_no": "02409400", "nhdplus_comid": "22276508", "navigation_mode": "DM", "requested_distance_km": 12.0, "start_source": "nwissite", "start_id": "USGS-02409400", "geometry_length_km": 1.3746025088885241 }, "geometry": { "type": "LineString", "coordinates": [ [ -86.444840901, 32.805769496 ], [ -86.443675406, 32.804578699 ], [ -86.441328205, 32.802741393 ], [ -86.438771002, 32.801390998 ], [ -86.433777906, 32.797690995 ] ] } },
{ "type": "Feature", "properties": { "site_no": "02409400", "nhdplus_comid": "22276512", "navigation_mode": "DM", "requested_distance_km": 12.0, "start_source": "nwissite", "start_id": "USGS-02409400", "geometry_length_km": 1.8464478473375221 }, "geometry": { "type": "LineString", "coordinates": [ [ -86.433777906, 32.797690995 ], [ -86.4331946, 32.797515698 ], [ -86.431446306, 32.795728698 ], [ -86.430669606, 32.794654198 ], [ -86.430461101, 32.793879896 ], [ -86.429116301, 32.792505294 ], [ -86.4278455, 32.791767396 ], [ -86.426050402, 32.791616 ], [ -86.423880503, 32.792063594 ], [ -86.4210383, 32.7918237 ], [ -86.418286905, 32.790834598 ], [ -86.418018006, 32.790559694 ] ] } },
{ "type": "Feature", "properties": { "site_no": "02409400", "nhdplus_comid": "22276516", "navigation_mode": "DM", "requested_distance_km": 12.0, "start_source": "nwissite", "start_id": "USGS-02409400", "geometry_length_km": 2.4616172870378503 }, "geometry": { "type": "LineString", "coordinates": [ [ -86.418018006, 32.790559694 ], [ -86.416821301, 32.790458597 ], [ -86.415984407, 32.789883398 ], [ -86.414533906, 32.789382495 ], [ -86.413055003, 32.787870198 ], [ -86.412369505, 32.786046498 ], [ -86.411718003, 32.781450793 ], [ -86.4103605, 32.778939597 ], [ -86.410032906, 32.777902797 ], [ -86.409137405, 32.776565798 ], [ -86.406314805, 32.7736784 ], [ -86.405298203, 32.773340195 ], [ -86.405029401, 32.773065194 ] ] } },
{ "type": "Feature", "properties": { "site_no": "02409400", "nhdplus_comid": "22276524", "navigation_mode": "DM", "requested_distance_km": 12.0, "start_source": "nwissite", "start_id": "USGS-02409400", "geometry_length_km": 0.7307774967307884 }, "geometry": { "type": "LineString", "coordinates": [ [ -86.405029401, 32.773065194 ], [ -86.402729504, 32.770852499 ], [ -86.400757, 32.769676596 ], [ -86.399547502, 32.768438995 ] ] } },
{ "type": "Feature", "properties": { "site_no": "02409400", "nhdplus_comid": "22276526", "navigation_mode": "DM", "requested_distance_km": 12.0, "start_source": "nwissite", "start_id": "USGS-02409400", "geometry_length_km": 0.50920927238693947 }, "geometry": { "type": "LineString", "coordinates": [ [ -86.399547502, 32.768438995 ], [ -86.398652405, 32.767101899 ], [ -86.397490606, 32.764228597 ] ] } },
{ "type": "Feature", "properties": { "site_no": "02409400", "nhdplus_comid": "22276530", "navigation_mode": "DM", "requested_distance_km": 12.0, "start_source": "nwissite", "start_id": "USGS-02409400", "geometry_length_km": 1.7384531711557263 }, "geometry": { "type": "LineString", "coordinates": [ [ -86.397490606, 32.764228597 ], [ -86.3975209, 32.763978899 ], [ -86.395505302, 32.761916198 ], [ -86.393847503, 32.760640599 ], [ -86.390755102, 32.758738898 ], [ -86.390306406, 32.7587009 ], [ -86.390037805, 32.758425899 ], [ -86.389589302, 32.758387893 ], [ -86.389320605, 32.758112796 ], [ -86.386869706, 32.757148296 ], [ -86.3859725, 32.7570723 ], [ -86.383805707, 32.756257899 ], [ -86.383537106, 32.755982794 ], [ -86.382655106, 32.755781896 ] ] } },
{ "type": "Feature", "properties": { "site_no": "02409400", "nhdplus_comid": "22276534", "navigation_mode": "DM", "requested_distance_km": 12.0, "start_source": "nwissite", "start_id": "USGS-02409400", "geometry_length_km": 0.45523909844071841 }, "geometry": { "type": "LineString", "coordinates": [ [ -86.382655106, 32.755781896 ], [ -86.381593302, 32.755817994 ], [ -86.381025605, 32.755517595 ], [ -86.378813304, 32.755077593 ], [ -86.378395103, 32.754789896 ], [ -86.378080904, 32.754889399 ] ] } },
{ "type": "Feature", "properties": { "site_no": "02409400", "nhdplus_comid": "22276748", "navigation_mode": "DM", "requested_distance_km": 12.0, "start_source": "nwissite", "start_id": "USGS-02409400", "geometry_length_km": 0.93248106181487289 }, "geometry": { "type": "LineString", "coordinates": [ [ -86.378080904, 32.754889399 ], [ -86.377543606, 32.754339196 ], [ -86.375974901, 32.7535754 ], [ -86.375437707, 32.753025293 ], [ -86.372688204, 32.752035096 ], [ -86.370630704, 32.749671593 ] ] } }
]
}
