{
"type": "FeatureCollection",
"name": "USGS_02339225_DM_12km",
"crs": { "type": "name", "properties": { "name": "urn:ogc:def:crs:OGC:1.3:CRS84" } },
"features": [
{ "type": "Feature", "properties": { "site_no": "02339225", "nhdplus_comid": "3291602", "navigation_mode": "DM", "requested_distance_km": 12.0, "start_source": "nwissite", "start_id": "USGS-02339225", "geometry_length_km": 1.8438119946452305 }, "geometry": { "type": "LineString", "coordinates": [ [ -85.248566123, 33.121568251 ], [ -85.248513505, 33.121533893 ], [ -85.248295702, 33.121511295 ], [ -85.2476971, 33.121649198 ], [ -85.247206606, 33.121374793 ], [ -85.246335506, 33.121215299 ], [ -85.245926805, 33.120895095 ], [ -85.244864903, 33.120666996 ], [ -85.244428903, 33.120232195 ], [ -85.243775301, 33.119980894 ], [ -85.243203402, 33.119660795 ], [ -85.243175901, 33.119500399 ], [ -85.243012503, 33.119363196 ], [ -85.242685705, 33.119203098 ], [ -85.2425493, 33.119042896 ], [ -85.242358305, 33.118562095 ], [ -85.241786301, 33.118333496 ], [ -85.2415407, 33.117806993 ], [ -85.240914501, 33.117578596 ], [ -85.240342304, 33.117097996 ], [ -85.240096107, 33.116113394 ], [ -85.239687204, 33.115609899 ], [ -85.239360601, 33.115518495 ], [ -85.238271601, 33.115336299 ], [ -85.238053501, 33.114969894 ], [ -85.237536103, 33.114810094 ], [ -85.237155102, 33.114764594 ], [ -85.236365907, 33.114879794 ], [ -85.235875703, 33.114628196 ], [ -85.2352226, 33.114720494 ], [ -85.235004604, 33.114537396 ], [ -85.2346505, 33.114194095 ], [ -85.234378107, 33.1140569 ], [ -85.233806603, 33.114034593 ], [ -85.233153507, 33.1141496 ] ] } },
{ "type": "Feature", "properties": { "site_no": "02339225", "nhdplus_comid": "3291606", "navigation_mode": "DM", "requested_distance_km": 12.0, "start_source": "nwissite", "start_id": "USGS-02339225", "geometry_length_km": 0.69863480928102406 }, "geometry": { "type": "LineString", "coordinates": [ [ -85.233153507, 33.1141496 ], [ -85.233071901, 33.1141726 ], [ -85.232990101, 33.113989294 ], [ -85.2330961, 33.111721799 ], [ -85.233585201, 33.110988498 ], [ -85.233612001, 33.110599093 ], [ -85.233012401, 33.1099125 ], [ -85.232793801, 33.109133996 ], [ -85.232929707, 33.1089506 ], [ -85.233664304, 33.108789593 ] ] } },
{ "type": "Feature", "properties": { "site_no": "02339225", "nhdplus_comid": "3292274", "navigation_mode": "DM", "requested_distance_km": 12.0, "start_source": "nwissite", "start_id": "USGS-02339225", "geometry_length_km": 0.65814238230044952 }, "geometry": { "type": "LineString", "coordinates": [ [ -85.233664304, 33.108789593 ], [ -85.233795904, 33.108756498 ], [ -85.233951807, 33.108792394 ], [ -85.234107606, 33.108828299 ], [ -85.234263502, 33.108864196 ], [ -85.234419204, 33.108900197 ], [ -85.234450504, 33.108876593 ], [ -85.234570101, 33.108786099 ], [ -85.234689601, 33.108695596 ], [ -85.234809205, 33.108605199 ], [ -85.234928802, 33.108514696 ], [ -85.235048406, 33.108424194 ], [ -85.235168003, 33.108333699 ], [ -85.235287502, 33.108243197 ], [ -85.235407107, 33.108152695 ], [ -85.235526703, 33.1080622 ], [ -85.235646404, 33.107971795 ], [ -85.235765904, 33.1078813 ], [ -85.235885501, 33.107790798 ], [ -85.236005001, 33.107700296 ], [ -85.236124501, 33.107609794 ], [ -85.236244202, 33.107519299 ], [ -85.236363806, 33.107428893 ], [ -85.236483403, 33.107338399 ], [ -85.236603007, 33.107247896 ], [ -85.236722507, 33.107157394 ], [ -85.236842103, 33.1070669 ], [ -85.2369617, 33.106976397 ], [ -85.237025902, 33.106968194 ], [ -85.237185702, 33.106947698 ], [ -85.237345606, 33.106927194 ], [ -85.237505406, 33.106906794 ], [ -85.2376654, 33.106886297 ], [ -85.237825103, 33.106865793 ], [ -85.237985, 33.106845297 ], [ -85.2381448, 33.106824793 ], [ -85.238304704, 33.106804393 ], [ -85.238464504, 33.106783897 ], [ -85.238624401, 33.1067634 ], [ -85.238784105, 33.106742896 ], [ -85.238830306, 33.106712393 ], [ -85.238956802, 33.106628798 ], [ -85.239083402, 33.106545098 ], [ -85.239209905, 33.106461398 ], [ -85.239336506, 33.106377698 ], [ -85.239463001, 33.106294096 ], [ -85.239589602, 33.106210396 ] ] } },
{ "type": "Feature", "properties": { "site_no": "02339225", "nhdplus_comid": "3292290", "navigation_mode": "DM", "requested_distance_km": 12.0, "start_source": "nwissite", "start_id": "USGS-02339225", "geometry_length_km": 0.86724443252862171 }, "geometry": { "type": "LineString", "coordinates": [ [ -85.239589602, 33.106210396 ], [ -85.240150407, 33.103896499 ], [ -85.239084102, 33.102172695 ], [ -85.238664404, 33.0992928 ], [ -85.238237202, 33.098846599 ] ] } },
{ "type": "Feature", "properties": { "site_no": "02339225", "nhdplus_comid": "3292326", "navigation_mode": "DM", "requested_distance_km": 12.0, "start_source": "nwissite", "start_id": "USGS-02339225", "geometry_length_km": 2.8132404752327003 }, "geometry": { "type": "LineString", "coordinates": [ [ -85.238237202, 33.098846599 ], [ -85.237810001, 33.098400496 ], [ -85.236740001, 33.097893596 ], [ -85.236028001, 33.097149998 ], [ -85.236082904, 33.096749499 ], [ -85.235301606, 33.095323093 ], [ -85.233877607, 33.093835898 ], [ -85.232398905, 33.092749298 ], [ -85.230157301, 33.090102695 ], [ -85.229532905, 33.089908399 ], [ -85.228251606, 33.088569894 ], [ -85.227897607, 33.087589599 ], [ -85.226616301, 33.086250998 ], [ -85.226032503, 33.084572695 ], [ -85.225178406, 33.083680294 ], [ -85.224952504, 33.081765398 ], [ -85.2228579, 33.078050397 ] ] } },
{ "type": "Feature", "properties": { "site_no": "02339225", "nhdplus_comid": "3292374", "navigation_mode": "DM", "requested_distance_km": 12.0, "start_source": "nwissite", "start_id": "USGS-02339225", "geometry_length_km": 1.2319793219586717 }, "geometry": { "type": "LineString", "coordinates": [ [ -85.2228579, 33.078050397 ], [ -85.222894505, 33.077783294 ], [ -85.221186407, 33.0759985 ], [ -85.219813906, 33.075327493 ], [ -85.218105905, 33.073542595 ], [ -85.217916906, 33.071360499 ], [ -85.216209106, 33.069575593 ], [ -85.216167204, 33.069161497 ] ] } },
{ "type": "Feature", "properties": { "site_no": "02339225", "nhdplus_comid": "3292378", "navigation_mode": "DM", "requested_distance_km": 12.0, "start_source": "nwissite", "start_id": "USGS-02339225", "geometry_length_km": 0.39285859520822547 }, "geometry": { "type": "LineString", "coordinates": [ [ -85.216167204, 33.069161497 ], [ -85.216140002, 33.068892695 ], [ -85.214859203, 33.067553997 ], [ -85.213844702, 33.0666463 ], [ -85.213505201, 33.066749394 ] ] } },
{ "type": "Feature", "properties": { "site_no": "02339225", "nhdplus_comid": "3292412", "navigation_mode": "DM", "requested_distance_km": 12.0, "start_source": "nwissite", "start_id": "USGS-02339225", "geometry_length_km": 3.8994217543268328 }, "geometry": { "type": "LineString", "coordinates": [ [ -85.213505201, 33.066749394 ], [ -85.211370707, 33.064518094 ], [ -85.2124651, 33.057723396 ], [ -85.210757703, 33.055938393 ], [ -85.209991306, 33.055595197 ], [ -85.208995402, 33.054553896 ], [ -85.209357403, 33.053100295 ], [ -85.2107886, 33.052153796 ], [ -85.211242102, 33.050032593 ], [ -85.212136604, 33.049440995 ], [ -85.214545302, 33.0496694 ], [ -85.217425607, 33.047642797 ], [ -85.218214303, 33.046635397 ], [ -85.218378901, 33.045433596 ], [ -85.218112707, 33.045002595 ], [ -85.217116803, 33.043961398 ], [ -85.215690002, 33.043690898 ], [ -85.214267306, 33.0422033 ], [ -85.214739002, 33.039948493 ] ] } }
]
}
