{
"type": "FeatureCollection",
"name": "USGS_03592500_DM_12km",
"crs": { "type": "name", "properties": { "name": "urn:ogc:def:crs:OGC:1.3:CRS84" } },
"features": [
{ "type": "Feature", "properties": { "site_no": "03592500", "nhdplus_comid": "19567882", "navigation_mode": "DM", "requested_distance_km": 12.0, "start_source": "nwissite", "start_id": "USGS-03592500", "geometry_length_km": 2.8440126528028764 }, "geometry": { "type": "LineString", "coordinates": [ [ -88.121858454, 34.655518849 ], [ -88.120717801, 34.655848697 ], [ -88.119775504, 34.655986093 ], [ -88.118278801, 34.656398296 ], [ -88.117003903, 34.656925097 ], [ -88.115423903, 34.657428794 ], [ -88.114703201, 34.657932594 ], [ -88.114010401, 34.6584135 ], [ -88.112652205, 34.659237996 ], [ -88.111183003, 34.659970693 ], [ -88.110711806, 34.660085194 ], [ -88.1086329, 34.660245396 ], [ -88.107302502, 34.660657495 ], [ -88.106498607, 34.6607261 ], [ -88.105583906, 34.660680197 ], [ -88.103865601, 34.660473794 ], [ -88.102784507, 34.660542294 ], [ -88.100373, 34.660931297 ], [ -88.098682106, 34.661320299 ], [ -88.098349504, 34.661320299 ], [ -88.096631207, 34.660541296 ], [ -88.094524905, 34.660036899 ], [ -88.094081402, 34.659899399 ], [ -88.093360707, 34.659990899 ], [ -88.092778504, 34.660242699 ] ] } },
{ "type": "Feature", "properties": { "site_no": "03592500", "nhdplus_comid": "19567880", "navigation_mode": "DM", "requested_distance_km": 12.0, "start_source": "nwissite", "start_id": "USGS-03592500", "geometry_length_km": 1.0566973659362902 }, "geometry": { "type": "LineString", "coordinates": [ [ -88.092778504, 34.660242699 ], [ -88.092667602, 34.6604717 ], [ -88.092334807, 34.660883896 ], [ -88.090865001, 34.662967697 ], [ -88.090532206, 34.663677596 ], [ -88.0903657, 34.664089799 ], [ -88.090199105, 34.664982997 ], [ -88.090198703, 34.665693 ], [ -88.090115502, 34.665853195 ], [ -88.090059906, 34.666105196 ], [ -88.089865707, 34.666563198 ], [ -88.089754805, 34.666723497 ], [ -88.0887288, 34.6676623 ], [ -88.088507004, 34.667982794 ], [ -88.088396005, 34.668280594 ], [ -88.088506602, 34.668738693 ] ] } },
{ "type": "Feature", "properties": { "site_no": "03592500", "nhdplus_comid": "19567878", "navigation_mode": "DM", "requested_distance_km": 12.0, "start_source": "nwissite", "start_id": "USGS-03592500", "geometry_length_km": 0.53899380562854116 }, "geometry": { "type": "LineString", "coordinates": [ [ -88.088506602, 34.668738693 ], [ -88.0888668, 34.669334196 ], [ -88.089033, 34.669631995 ], [ -88.089116007, 34.670067199 ], [ -88.089032806, 34.670364797 ], [ -88.088977002, 34.671120599 ], [ -88.088976406, 34.672655098 ], [ -88.089087203, 34.672975793 ], [ -88.089087002, 34.6734339 ] ] } },
{ "type": "Feature", "properties": { "site_no": "03592500", "nhdplus_comid": "19567372", "navigation_mode": "DM", "requested_distance_km": 12.0, "start_source": "nwissite", "start_id": "USGS-03592500", "geometry_length_km": 1.7805595434846859 }, "geometry": { "type": "LineString", "coordinates": [ [ -88.089087002, 34.6734339 ], [ -88.088726401, 34.673983395 ], [ -88.086008802, 34.676204197 ], [ -88.085592702, 34.676685095 ], [ -88.084982403, 34.677623898 ], [ -88.084704801, 34.678402498 ], [ -88.084510103, 34.679913998 ], [ -88.0846764, 34.680143096 ], [ -88.084981203, 34.680486798 ], [ -88.085951306, 34.681059696 ], [ -88.086200707, 34.681265794 ], [ -88.086172804, 34.682067394 ], [ -88.086089507, 34.682158999 ], [ -88.085756205, 34.683464296 ], [ -88.085312203, 34.6846781 ], [ -88.085117906, 34.685136095 ], [ -88.084674001, 34.685617 ], [ -88.084036201, 34.685983099 ], [ -88.083148502, 34.686669894 ] ] } },
{ "type": "Feature", "properties": { "site_no": "03592500", "nhdplus_comid": "19567348", "navigation_mode": "DM", "requested_distance_km": 12.0, "start_source": "nwissite", "start_id": "USGS-03592500", "geometry_length_km": 1.0491151247668673 }, "geometry": { "type": "LineString", "coordinates": [ [ -88.083148502, 34.686669894 ], [ -88.082954206, 34.687173799 ], [ -88.082981706, 34.687883794 ], [ -88.083230905, 34.688479394 ], [ -88.083258703, 34.688548096 ], [ -88.083591104, 34.689051993 ], [ -88.084395006, 34.689624794 ], [ -88.084672205, 34.689968497 ], [ -88.085032403, 34.690632693 ], [ -88.085004501, 34.690724298 ], [ -88.085087702, 34.690793 ], [ -88.085170805, 34.691067994 ], [ -88.085142806, 34.6914116 ], [ -88.085059606, 34.6915031 ], [ -88.084948704, 34.691823795 ], [ -88.084726803, 34.691938199 ], [ -88.084088802, 34.692556396 ], [ -88.084005401, 34.692762494 ], [ -88.084005207, 34.693426698 ], [ -88.084171407, 34.693678595 ], [ -88.084642604, 34.694113895 ], [ -88.085529804, 34.694526397 ] ] } },
{ "type": "Feature", "properties": { "site_no": "03592500", "nhdplus_comid": "19567334", "navigation_mode": "DM", "requested_distance_km": 12.0, "start_source": "nwissite", "start_id": "USGS-03592500", "geometry_length_km": 0.98137893099583817 }, "geometry": { "type": "LineString", "coordinates": [ [ -88.085529804, 34.694526397 ], [ -88.085945502, 34.695099093 ], [ -88.086028606, 34.695442595 ], [ -88.0858621, 34.695671596 ], [ -88.084780306, 34.696450099 ], [ -88.084336303, 34.697182797 ], [ -88.084336102, 34.697732493 ], [ -88.084446907, 34.698007293 ], [ -88.084918104, 34.698442593 ], [ -88.085639104, 34.6986489 ], [ -88.085944004, 34.6987864 ], [ -88.0860826, 34.699015498 ], [ -88.086082406, 34.699610896 ], [ -88.0859714, 34.699862897 ], [ -88.085582905, 34.700366594 ], [ -88.085083604, 34.700755797 ], [ -88.084140502, 34.701236494 ] ] } },
{ "type": "Feature", "properties": { "site_no": "03592500", "nhdplus_comid": "19567302", "navigation_mode": "DM", "requested_distance_km": 12.0, "start_source": "nwissite", "start_id": "USGS-03592500", "geometry_length_km": 1.0060230197115763 }, "geometry": { "type": "LineString", "coordinates": [ [ -88.084140502, 34.701236494 ], [ -88.083835304, 34.701602794 ], [ -88.083807305, 34.702312797 ], [ -88.083918102, 34.7026335 ], [ -88.084029004, 34.702679299 ], [ -88.084139802, 34.703022897 ], [ -88.084444605, 34.703549795 ], [ -88.0851098, 34.704305694 ], [ -88.087743603, 34.706344798 ], [ -88.0879931, 34.706665494 ], [ -88.087992907, 34.707054794 ], [ -88.087382406, 34.708131097 ], [ -88.087188102, 34.708657794 ], [ -88.087104902, 34.7087036 ] ] } },
{ "type": "Feature", "properties": { "site_no": "03592500", "nhdplus_comid": "19567282", "navigation_mode": "DM", "requested_distance_km": 12.0, "start_source": "nwissite", "start_id": "USGS-03592500", "geometry_length_km": 1.3943599222700238 }, "geometry": { "type": "LineString", "coordinates": [ [ -88.087104902, 34.7087036 ], [ -88.087049201, 34.7089784 ], [ -88.086938106, 34.709413499 ], [ -88.0866879, 34.710879199 ], [ -88.086549006, 34.711406 ], [ -88.086410001, 34.712390795 ], [ -88.086132303, 34.713283896 ], [ -88.0857713, 34.714199893 ], [ -88.085438207, 34.714955598 ], [ -88.085132502, 34.7163755 ], [ -88.085021101, 34.717543498 ], [ -88.084216006, 34.719283894 ], [ -88.083910704, 34.719879299 ], [ -88.0833278, 34.720680699 ] ] } },
{ "type": "Feature", "properties": { "site_no": "03592500", "nhdplus_comid": "19567258", "navigation_mode": "DM", "requested_distance_km": 12.0, "start_source": "nwissite", "start_id": "USGS-03592500", "geometry_length_km": 0.20690048073724943 }, "geometry": { "type": "LineString", "coordinates": [ [ -88.0833278, 34.720680699 ], [ -88.083383001, 34.721482299 ], [ -88.083687901, 34.721917599 ], [ -88.084159307, 34.722306997 ] ] } },
{ "type": "Feature", "properties": { "site_no": "03592500", "nhdplus_comid": "19567254", "navigation_mode": "DM", "requested_distance_km": 12.0, "start_source": "nwissite", "start_id": "USGS-03592500", "geometry_length_km": 0.51482905476313323 }, "geometry": { "type": "LineString", "coordinates": [ [ -88.084159307, 34.722306997 ], [ -88.084603101, 34.722375795 ], [ -88.085241102, 34.722330198 ], [ -88.0854908, 34.722238697 ], [ -88.086073302, 34.722261697 ], [ -88.086877607, 34.722605497 ], [ -88.087210305, 34.722811699 ], [ -88.087210201, 34.723269694 ], [ -88.086793907, 34.723888099 ], [ -88.086793602, 34.7246667 ] ] } }
]
}
