{
"type": "FeatureCollection",
"name": "USGS_03576400_UM_12km",
"crs": { "type": "name", "properties": { "name": "urn:ogc:def:crs:OGC:1.3:CRS84" } },
"features": [
{ "type": "Feature", "properties": { "site_no": "03576400", "nhdplus_comid": "19621286", "navigation_mode": "UM", "requested_distance_km": 12.0, "start_source": "nwissite", "start_id": "USGS-03576400", "geometry_length_km": 0.9395956764134421 }, "geometry": { "type": "LineString", "coordinates": [ [ -86.886084706, 34.8090939 ], [ -86.885973506, 34.808887698 ], [ -86.885973506, 34.808521293 ], [ -86.886167802, 34.8082693 ], [ -86.8868898, 34.807902798 ], [ -86.887250707, 34.806642994 ], [ -86.887278304, 34.805978797 ], [ -86.887444906, 34.805497698 ], [ -86.887389302, 34.8050396 ], [ -86.887167104, 34.8047648 ], [ -86.8865005, 34.8043525 ], [ -86.885334201, 34.8042152 ], [ -86.884862103, 34.803963296 ], [ -86.8840845, 34.803184599 ], [ -86.883816897, 34.802760257 ] ] } },
{ "type": "Feature", "properties": { "site_no": "03576400", "nhdplus_comid": "19619430", "navigation_mode": "UM", "requested_distance_km": 12.0, "start_source": "nwissite", "start_id": "USGS-03576400", "geometry_length_km": 1.630458162634929 }, "geometry": { "type": "LineString", "coordinates": [ [ -86.887780704, 34.822676495 ], [ -86.887225106, 34.822035193 ], [ -86.886752807, 34.820935898 ], [ -86.886752605, 34.819630295 ], [ -86.886835903, 34.819172196 ], [ -86.886835501, 34.8165152 ], [ -86.887085304, 34.815713495 ], [ -86.887224101, 34.814842999 ], [ -86.887307301, 34.814728394 ], [ -86.887140602, 34.813880995 ], [ -86.886973903, 34.813422896 ], [ -86.886946104, 34.813102193 ], [ -86.886640504, 34.812277697 ], [ -86.886612602, 34.811750799 ], [ -86.887251206, 34.810811698 ], [ -86.887362301, 34.810422294 ], [ -86.887362204, 34.809941299 ], [ -86.886390202, 34.809162594 ], [ -86.886084706, 34.8090939 ] ] } },
{ "type": "Feature", "properties": { "site_no": "03576400", "nhdplus_comid": "19619354", "navigation_mode": "UM", "requested_distance_km": 12.0, "start_source": "nwissite", "start_id": "USGS-03576400", "geometry_length_km": 2.7003172922055718 }, "geometry": { "type": "LineString", "coordinates": [ [ -86.909089103, 34.8333003 ], [ -86.9085887, 34.832521699 ], [ -86.907949604, 34.832017899 ], [ -86.907421701, 34.8317203 ], [ -86.906727202, 34.831491396 ], [ -86.904421307, 34.831171297 ], [ -86.903754607, 34.831171498 ], [ -86.903421506, 34.831492193 ], [ -86.903171502, 34.831583895 ], [ -86.902643502, 34.831034295 ], [ -86.901893504, 34.830919996 ], [ -86.9009213, 34.831080496 ], [ -86.899976805, 34.8309891 ], [ -86.899560206, 34.831264094 ], [ -86.899004705, 34.8313559 ], [ -86.897893406, 34.831035398 ], [ -86.895504102, 34.830004998 ], [ -86.895143002, 34.829592794 ], [ -86.894920602, 34.8291348 ], [ -86.894809306, 34.828241497 ], [ -86.893475801, 34.827371299 ], [ -86.893364601, 34.826981999 ], [ -86.893475607, 34.826752797 ], [ -86.893475607, 34.826432198 ], [ -86.892169803, 34.825309999 ], [ -86.892058805, 34.825103894 ], [ -86.892058603, 34.824531294 ], [ -86.892169602, 34.824004494 ], [ -86.891308405, 34.823202893 ], [ -86.890002802, 34.822515994 ], [ -86.889752902, 34.822493099 ], [ -86.889391802, 34.822767995 ], [ -86.8888641, 34.822859697 ], [ -86.887780704, 34.822676495 ] ] } },
{ "type": "Feature", "properties": { "site_no": "03576400", "nhdplus_comid": "19619294", "navigation_mode": "UM", "requested_distance_km": 12.0, "start_source": "nwissite", "start_id": "USGS-03576400", "geometry_length_km": 1.9689154671177529 }, "geometry": { "type": "LineString", "coordinates": [ [ -86.910679802, 34.850272395 ], [ -86.910957202, 34.849493593 ], [ -86.910873301, 34.848050594 ], [ -86.910734206, 34.847661294 ], [ -86.910067007, 34.846813999 ], [ -86.9101777, 34.845714495 ], [ -86.910344206, 34.845256396 ], [ -86.910288505, 34.844752498 ], [ -86.910066001, 34.844386093 ], [ -86.910065703, 34.843652993 ], [ -86.910260104, 34.843355194 ], [ -86.910259806, 34.842828393 ], [ -86.910009503, 34.842072599 ], [ -86.910009205, 34.841499999 ], [ -86.910147905, 34.841018893 ], [ -86.910119802, 34.8401943 ], [ -86.909814, 34.839782193 ], [ -86.909813605, 34.838705696 ], [ -86.909507602, 34.837674998 ], [ -86.909424305, 34.837629199 ], [ -86.908895902, 34.836461194 ], [ -86.9087568, 34.8358199 ], [ -86.908756204, 34.834651798 ], [ -86.909089401, 34.834010296 ], [ -86.909089103, 34.8333003 ] ] } },
{ "type": "Feature", "properties": { "site_no": "03576400", "nhdplus_comid": "19619172", "navigation_mode": "UM", "requested_distance_km": 12.0, "start_source": "nwissite", "start_id": "USGS-03576400", "geometry_length_km": 3.3484598176282696 }, "geometry": { "type": "LineString", "coordinates": [ [ -86.904437102, 34.875881895 ], [ -86.904715002, 34.875744395 ], [ -86.905159406, 34.8751029 ], [ -86.905548304, 34.874461494 ], [ -86.905603401, 34.873132899 ], [ -86.906992406, 34.871620797 ], [ -86.9080761, 34.870795995 ], [ -86.908215001, 34.8704983 ], [ -86.908131406, 34.869971499 ], [ -86.907992303, 34.869696595 ], [ -86.907964401, 34.869284295 ], [ -86.907853104, 34.869055398 ], [ -86.906991102, 34.868070595 ], [ -86.906851806, 34.8670858 ], [ -86.906962506, 34.8661009 ], [ -86.906100802, 34.8654598 ], [ -86.9059892, 34.864131294 ], [ -86.906211302, 34.8636273 ], [ -86.906544603, 34.863169096 ], [ -86.906905405, 34.861794695 ], [ -86.906960502, 34.860901497 ], [ -86.907182604, 34.859824799 ], [ -86.907098904, 34.859160498 ], [ -86.906737402, 34.858633794 ], [ -86.906514801, 34.857855096 ], [ -86.9052919, 34.857076697 ], [ -86.905041605, 34.856618598 ], [ -86.905041404, 34.8560002 ], [ -86.905541301, 34.855381697 ], [ -86.906624801, 34.854579695 ], [ -86.9067358, 34.854190297 ], [ -86.906874605, 34.854007095 ], [ -86.9070969, 34.853892393 ], [ -86.908041604, 34.853685997 ], [ -86.909263507, 34.852082297 ], [ -86.909485504, 34.851463899 ], [ -86.910179906, 34.850845195 ], [ -86.910679802, 34.850272395 ] ] } },
{ "type": "Feature", "properties": { "site_no": "03576400", "nhdplus_comid": "19619034", "navigation_mode": "UM", "requested_distance_km": 12.0, "start_source": "nwissite", "start_id": "USGS-03576400", "geometry_length_km": 3.1714270100614725 }, "geometry": { "type": "LineString", "coordinates": [ [ -86.884288602, 34.892445393 ], [ -86.884761102, 34.892216295 ], [ -86.885150306, 34.891918495 ], [ -86.885400407, 34.891391695 ], [ -86.886290006, 34.891322896 ], [ -86.886901505, 34.890979193 ], [ -86.887373902, 34.890108794 ], [ -86.888068803, 34.889879599 ], [ -86.8883745, 34.889558896 ], [ -86.888430104, 34.889329895 ], [ -86.888318807, 34.888963394 ], [ -86.888513505, 34.888780199 ], [ -86.888846904, 34.888688497 ], [ -86.889541902, 34.888825797 ], [ -86.889847703, 34.888711296 ], [ -86.889903203, 34.888436399 ], [ -86.890125602, 34.888207294 ], [ -86.891376503, 34.887634493 ], [ -86.893377803, 34.887450993 ], [ -86.894350506, 34.886946999 ], [ -86.8948787, 34.886992693 ], [ -86.895045504, 34.886923999 ], [ -86.895323403, 34.886626095 ], [ -86.895323403, 34.886374198 ], [ -86.894961901, 34.886122294 ], [ -86.894878507, 34.885961995 ], [ -86.895184107, 34.885641299 ], [ -86.895823501, 34.885664098 ], [ -86.896518305, 34.885412 ], [ -86.896963, 34.884793498 ], [ -86.897463307, 34.884747498 ], [ -86.897991307, 34.884472594 ], [ -86.898019001, 34.884083197 ], [ -86.897907704, 34.883602194 ], [ -86.898157805, 34.883189894 ], [ -86.899491601, 34.8819528 ], [ -86.899825104, 34.881883994 ], [ -86.900131002, 34.881998494 ], [ -86.900520101, 34.881998293 ], [ -86.900798, 34.881700493 ], [ -86.900797904, 34.881242394 ], [ -86.899991706, 34.880784497 ], [ -86.900047205, 34.880509697 ], [ -86.900547206, 34.879593395 ], [ -86.901241705, 34.878676996 ], [ -86.902297705, 34.877943799 ], [ -86.902770005, 34.877096295 ], [ -86.902853101, 34.876431994 ], [ -86.903269805, 34.875859298 ], [ -86.903769903, 34.875630096 ], [ -86.904270202, 34.875629999 ], [ -86.904437102, 34.875881895 ] ] } }
]
}
