{
"type": "FeatureCollection",
"name": "USGS_02465200_UM_12km",
"crs": { "type": "name", "properties": { "name": "urn:ogc:def:crs:OGC:1.3:CRS84" } },
"features": [
{ "type": "Feature", "properties": { "site_no": "02465200", "nhdplus_comid": "18204994", "navigation_mode": "UM", "requested_distance_km": 12.0, "start_source": "nwissite", "start_id": "USGS-02465200", "geometry_length_km": 0.11810480385820611 }, "geometry": { "type": "LineString", "coordinates": [ [ -87.684963502, 33.286640994 ], [ -87.684472106, 33.286205895 ], [ -87.684206024, 33.285800084 ] ] } },
{ "type": "Feature", "properties": { "site_no": "02465200", "nhdplus_comid": "18206520", "navigation_mode": "UM", "requested_distance_km": 12.0, "start_source": "nwissite", "start_id": "USGS-02465200", "geometry_length_km": 2.8044217238358184 }, "geometry": { "type": "LineString", "coordinates": [ [ -87.686478503, 33.3074653 ], [ -87.686352104, 33.307361998 ], [ -87.685103402, 33.3061966 ], [ -87.685182706, 33.305447198 ], [ -87.684685506, 33.304404095 ], [ -87.683310203, 33.303045399 ], [ -87.681704901, 33.302425198 ], [ -87.679917201, 33.300658897 ], [ -87.680075906, 33.299159996 ], [ -87.679277301, 33.298094898 ], [ -87.679068506, 33.297198594 ], [ -87.679293402, 33.295075096 ], [ -87.679917604, 33.293484196 ], [ -87.680573501, 33.293028399 ], [ -87.681152701, 33.290427193 ], [ -87.684090607, 33.288500994 ], [ -87.684307501, 33.287887394 ], [ -87.684635304, 33.287659496 ], [ -87.684875302, 33.286743097 ], [ -87.684963502, 33.286640994 ] ] } },
{ "type": "Feature", "properties": { "site_no": "02465200", "nhdplus_comid": "18204956", "navigation_mode": "UM", "requested_distance_km": 12.0, "start_source": "nwissite", "start_id": "USGS-02465200", "geometry_length_km": 2.1346548010087183 }, "geometry": { "type": "LineString", "coordinates": [ [ -87.682696201, 33.322610497 ], [ -87.682805106, 33.322198093 ], [ -87.684114002, 33.320799999 ], [ -87.686269201, 33.320065796 ], [ -87.687087506, 33.3195384 ], [ -87.688123606, 33.318461195 ], [ -87.689868405, 33.316306695 ], [ -87.690659501, 33.315893896 ], [ -87.690877505, 33.315458499 ], [ -87.690795302, 33.315046199 ], [ -87.690467402, 33.314496599 ], [ -87.690439902, 33.314175799 ], [ -87.690193906, 33.313557394 ], [ -87.690112002, 33.313511595 ], [ -87.689975105, 33.313076496 ], [ -87.689428702, 33.312297799 ], [ -87.689209901, 33.311587699 ], [ -87.688690901, 33.310648598 ], [ -87.6875984, 33.309205793 ], [ -87.687025003, 33.308587596 ], [ -87.687024802, 33.308312595 ], [ -87.686478503, 33.3074653 ] ] } }
]
}
