{
"type": "FeatureCollection",
"name": "USGS_0357591500_DM_12km",
"crs": { "type": "name", "properties": { "name": "urn:ogc:def:crs:OGC:1.3:CRS84" } },
"features": [
{ "type": "Feature", "properties": { "site_no": "0357591500", "nhdplus_comid": "19621338", "navigation_mode": "DM", "requested_distance_km": 12.0, "start_source": "nwissite", "start_id": "USGS-0357591500", "geometry_length_km": 0.28700498424964482 }, "geometry": { "type": "LineString", "coordinates": [ [ -86.625555051, 34.749561377 ], [ -86.6249917, 34.749007799 ], [ -86.624880701, 34.748916194 ], [ -86.624658704, 34.7482519 ], [ -86.624631003, 34.747221194 ] ] } },
{ "type": "Feature", "properties": { "site_no": "0357591500", "nhdplus_comid": "19619834", "navigation_mode": "DM", "requested_distance_km": 12.0, "start_source": "nwissite", "start_id": "USGS-0357591500", "geometry_length_km": 1.2131353778172009 }, "geometry": { "type": "LineString", "coordinates": [ [ -86.624631003, 34.747221194 ], [ -86.624103703, 34.746556997 ], [ -86.623632103, 34.746075898 ], [ -86.622965902, 34.7457323 ], [ -86.622438803, 34.74532 ], [ -86.622078106, 34.744838893 ], [ -86.620080307, 34.742937595 ], [ -86.619137004, 34.741494596 ], [ -86.618027307, 34.740280494 ], [ -86.618027307, 34.7401888 ], [ -86.617860705, 34.740051396 ], [ -86.617056303, 34.738745697 ], [ -86.617028505, 34.7384938 ] ] } },
{ "type": "Feature", "properties": { "site_no": "0357591500", "nhdplus_comid": "19619928", "navigation_mode": "DM", "requested_distance_km": 12.0, "start_source": "nwissite", "start_id": "USGS-0357591500", "geometry_length_km": 3.0891361247659068 }, "geometry": { "type": "LineString", "coordinates": [ [ -86.617028505, 34.7384938 ], [ -86.616889805, 34.738447994 ], [ -86.616224006, 34.737485893 ], [ -86.616196305, 34.737325497 ], [ -86.615169704, 34.736386299 ], [ -86.614587106, 34.736042596 ], [ -86.613782503, 34.735401198 ], [ -86.612256907, 34.733591497 ], [ -86.611230604, 34.732148297 ], [ -86.610648103, 34.731094599 ], [ -86.610148907, 34.730476096 ], [ -86.608318105, 34.728918299 ], [ -86.607347302, 34.727795698 ], [ -86.605516605, 34.726283699 ], [ -86.604573704, 34.725184098 ], [ -86.601910904, 34.723442599 ], [ -86.601051003, 34.723007195 ], [ -86.598193906, 34.722090393 ], [ -86.5968071, 34.721425794 ], [ -86.596280202, 34.721059196 ], [ -86.5954483, 34.720051095 ], [ -86.595254302, 34.719615795 ], [ -86.595032804, 34.718653798 ], [ -86.594921805, 34.718585096 ] ] } },
{ "type": "Feature", "properties": { "site_no": "0357591500", "nhdplus_comid": "19620058", "navigation_mode": "DM", "requested_distance_km": 12.0, "start_source": "nwissite", "start_id": "USGS-0357591500", "geometry_length_km": 2.3137057217824815 }, "geometry": { "type": "LineString", "coordinates": [ [ -86.594921805, 34.718585096 ], [ -86.594811305, 34.717462599 ], [ -86.594395801, 34.715904996 ], [ -86.594230004, 34.714164093 ], [ -86.594509102, 34.709766194 ], [ -86.594787203, 34.7080255 ], [ -86.594815306, 34.707040593 ], [ -86.595205106, 34.703238398 ], [ -86.595621705, 34.7016121 ], [ -86.595871605, 34.701016694 ], [ -86.596455, 34.698084898 ] ] } },
{ "type": "Feature", "properties": { "site_no": "0357591500", "nhdplus_comid": "19620296", "navigation_mode": "DM", "requested_distance_km": 12.0, "start_source": "nwissite", "start_id": "USGS-0357591500", "geometry_length_km": 4.1527322318547446 }, "geometry": { "type": "LineString", "coordinates": [ [ -86.596455, 34.698084898 ], [ -86.5962888, 34.697649695 ], [ -86.596345402, 34.694053493 ], [ -86.596428804, 34.693709895 ], [ -86.596568801, 34.689861797 ], [ -86.59668, 34.689151794 ], [ -86.597512707, 34.687090397 ], [ -86.598067604, 34.686197199 ], [ -86.598788902, 34.685326993 ], [ -86.599482603, 34.683815397 ], [ -86.599843502, 34.682761796 ], [ -86.5998713, 34.682372399 ], [ -86.600482106, 34.679967396 ], [ -86.601342507, 34.677127294 ], [ -86.601814903, 34.673508398 ], [ -86.601871006, 34.6714468 ], [ -86.602232106, 34.669018894 ], [ -86.602232501, 34.667896494 ], [ -86.602426805, 34.667094797 ], [ -86.603092603, 34.665262498 ], [ -86.603702903, 34.663888194 ], [ -86.604590401, 34.662262097 ], [ -86.604812205, 34.662124798 ] ] } }
]
}
