{
"type": "FeatureCollection",
"name": "USGS_02362610_DM_12km",
"crs": { "type": "name", "properties": { "name": "urn:ogc:def:crs:OGC:1.3:CRS84" } },
"features": [
{ "type": "Feature", "properties": { "site_no": "02362610", "nhdplus_comid": "2207878", "navigation_mode": "DM", "requested_distance_km": 12.0, "start_source": "nwissite", "start_id": "USGS-02362610", "geometry_length_km": 2.0588178389318141 }, "geometry": { "type": "LineString", "coordinates": [ [ -85.570373627, 32.050478211 ], [ -85.570262507, 32.050307594 ], [ -85.568810105, 32.049848698 ], [ -85.568729505, 32.049642399 ], [ -85.568675905, 32.049344599 ], [ -85.568972006, 32.048978195 ], [ -85.568945505, 32.048245095 ], [ -85.569026306, 32.048153393 ], [ -85.569107302, 32.047649495 ], [ -85.568946302, 32.047122598 ], [ -85.5687849, 32.046893299 ], [ -85.568677604, 32.046595499 ], [ -85.568785302, 32.046389394 ], [ -85.568731703, 32.046205997 ], [ -85.568516605, 32.046022594 ], [ -85.567548305, 32.046022199 ], [ -85.567252405, 32.045884594 ], [ -85.566956706, 32.045540795 ], [ -85.566607602, 32.044738799 ], [ -85.566419601, 32.044349298 ], [ -85.565936305, 32.043020196 ], [ -85.5658556, 32.042974398 ], [ -85.565909602, 32.042676598 ], [ -85.564539902, 32.039537199 ], [ -85.563304007, 32.037497699 ], [ -85.562040903, 32.036076695 ], [ -85.561718605, 32.035434999 ], [ -85.5615573, 32.035320297 ] ] } },
{ "type": "Feature", "properties": { "site_no": "02362610", "nhdplus_comid": "2207906", "navigation_mode": "DM", "requested_distance_km": 12.0, "start_source": "nwissite", "start_id": "USGS-02362610", "geometry_length_km": 2.23824901477342 }, "geometry": { "type": "LineString", "coordinates": [ [ -85.5615573, 32.035320297 ], [ -85.561288901, 32.034495398 ], [ -85.5612901, 32.032754295 ], [ -85.561424807, 32.032364897 ], [ -85.561452605, 32.0310819 ], [ -85.5615604, 32.030738294 ], [ -85.561750501, 32.028149597 ], [ -85.561535902, 32.027324699 ], [ -85.561348006, 32.026843496 ], [ -85.560434602, 32.025628798 ], [ -85.560166001, 32.024941497 ], [ -85.559951402, 32.024162397 ], [ -85.5600335, 32.022169195 ], [ -85.560168505, 32.021367498 ], [ -85.5605461, 32.019970194 ], [ -85.561327301, 32.017862797 ], [ -85.562242903, 32.015915893 ] ] } },
{ "type": "Feature", "properties": { "site_no": "02362610", "nhdplus_comid": "2208154", "navigation_mode": "DM", "requested_distance_km": 12.0, "start_source": "nwissite", "start_id": "USGS-02362610", "geometry_length_km": 0.74057319592729476 }, "geometry": { "type": "LineString", "coordinates": [ [ -85.562242903, 32.015915893 ], [ -85.562243603, 32.014839098 ], [ -85.561599106, 32.013624497 ], [ -85.561438702, 32.0121582 ], [ -85.561681204, 32.0114481 ], [ -85.562327206, 32.010394596 ], [ -85.562704206, 32.009615794 ] ] } },
{ "type": "Feature", "properties": { "site_no": "02362610", "nhdplus_comid": "2208162", "navigation_mode": "DM", "requested_distance_km": 12.0, "start_source": "nwissite", "start_id": "USGS-02362610", "geometry_length_km": 0.38871109345447857 }, "geometry": { "type": "LineString", "coordinates": [ [ -85.562704206, 32.009615794 ], [ -85.563376501, 32.009387098 ], [ -85.563753106, 32.009135194 ], [ -85.563860901, 32.008654095 ], [ -85.564479604, 32.008310795 ], [ -85.564533606, 32.007990099 ], [ -85.565098904, 32.007073894 ] ] } },
{ "type": "Feature", "properties": { "site_no": "02362610", "nhdplus_comid": "2207940", "navigation_mode": "DM", "requested_distance_km": 12.0, "start_source": "nwissite", "start_id": "USGS-02362610", "geometry_length_km": 0.69503593449835399 }, "geometry": { "type": "LineString", "coordinates": [ [ -85.565098904, 32.007073894 ], [ -85.565367803, 32.006913699 ], [ -85.567895405, 32.006479599 ], [ -85.5689978, 32.006434098 ], [ -85.569804206, 32.006709397 ], [ -85.571282901, 32.006916195 ], [ -85.571498103, 32.006847598 ], [ -85.572277807, 32.006870896 ] ] } },
{ "type": "Feature", "properties": { "site_no": "02362610", "nhdplus_comid": "2207954", "navigation_mode": "DM", "requested_distance_km": 12.0, "start_source": "nwissite", "start_id": "USGS-02362610", "geometry_length_km": 0.83326301112684187 }, "geometry": { "type": "LineString", "coordinates": [ [ -85.572277807, 32.006870896 ], [ -85.572546907, 32.006481498 ], [ -85.572601102, 32.005679697 ], [ -85.572977901, 32.005175799 ], [ -85.5737039, 32.004901096 ], [ -85.574268803, 32.004374497 ], [ -85.574725904, 32.0041226 ], [ -85.575747706, 32.003848098 ], [ -85.576097406, 32.003596194 ], [ -85.577146403, 32.002680197 ], [ -85.577630803, 32.001970194 ], [ -85.577738501, 32.001580693 ] ] } },
{ "type": "Feature", "properties": { "site_no": "02362610", "nhdplus_comid": "2207962", "navigation_mode": "DM", "requested_distance_km": 12.0, "start_source": "nwissite", "start_id": "USGS-02362610", "geometry_length_km": 0.25813895163794504 }, "geometry": { "type": "LineString", "coordinates": [ [ -85.577738501, 32.001580693 ], [ -85.5784126, 32.001099899 ], [ -85.579195403, 32.000733599 ], [ -85.579897001, 32.000171497 ] ] } },
{ "type": "Feature", "properties": { "site_no": "02362610", "nhdplus_comid": "2208474", "navigation_mode": "DM", "requested_distance_km": 12.0, "start_source": "nwissite", "start_id": "USGS-02362610", "geometry_length_km": 0.30557181777538461 }, "geometry": { "type": "LineString", "coordinates": [ [ -85.579897001, 32.000171497 ], [ -85.580058403, 32.000098296 ], [ -85.5800853, 32.000006594 ], [ -85.581163503, 31.999525897 ], [ -85.582055204, 31.9989077 ], [ -85.582620002, 31.998793393 ] ] } },
{ "type": "Feature", "properties": { "site_no": "02362610", "nhdplus_comid": "2210590", "navigation_mode": "DM", "requested_distance_km": 12.0, "start_source": "nwissite", "start_id": "USGS-02362610", "geometry_length_km": 0.76504964471753401 }, "geometry": { "type": "LineString", "coordinates": [ [ -85.582620002, 31.998793393 ], [ -85.583507203, 31.998702094 ], [ -85.583829902, 31.998496093 ], [ -85.584125705, 31.998450294 ], [ -85.584690101, 31.998656794 ], [ -85.585200906, 31.998702794 ], [ -85.585658006, 31.998519599 ], [ -85.587244704, 31.997557998 ], [ -85.587863304, 31.997122996 ], [ -85.588804603, 31.996367194 ], [ -85.589557603, 31.9960467 ] ] } },
{ "type": "Feature", "properties": { "site_no": "02362610", "nhdplus_comid": "2208524", "navigation_mode": "DM", "requested_distance_km": 12.0, "start_source": "nwissite", "start_id": "USGS-02362610", "geometry_length_km": 3.1642748466933619 }, "geometry": { "type": "LineString", "coordinates": [ [ -85.589557603, 31.9960467 ], [ -85.590310402, 31.995771997 ], [ -85.590660006, 31.995588794 ], [ -85.591655202, 31.9945582 ], [ -85.592569403, 31.994260699 ], [ -85.592892103, 31.9939171 ], [ -85.593053602, 31.993458994 ], [ -85.593591705, 31.992703095 ], [ -85.593538202, 31.991763696 ], [ -85.593162104, 31.991099194 ], [ -85.593028001, 31.9903889 ], [ -85.592759401, 31.989907794 ], [ -85.592706203, 31.988876693 ], [ -85.592410803, 31.988028996 ], [ -85.592411205, 31.987066694 ], [ -85.592465401, 31.986241899 ], [ -85.5926807, 31.985783793 ], [ -85.5942403, 31.984409697 ], [ -85.594240606, 31.983859897 ], [ -85.593918301, 31.983241193 ], [ -85.593864806, 31.982485093 ], [ -85.594079904, 31.982141495 ], [ -85.594994001, 31.981637798 ], [ -85.595048003, 31.9812712 ], [ -85.595156007, 31.980079897 ], [ -85.595290601, 31.979621693 ], [ -85.596770003, 31.977101997 ], [ -85.597334601, 31.976643994 ], [ -85.597791702, 31.976392098 ], [ -85.598840006, 31.976048693 ], [ -85.599485204, 31.975567594 ], [ -85.600990906, 31.973964296 ], [ -85.601636201, 31.9734146 ], [ -85.602335006, 31.973231494 ] ] } },
{ "type": "Feature", "properties": { "site_no": "02362610", "nhdplus_comid": "2208588", "navigation_mode": "DM", "requested_distance_km": 12.0, "start_source": "nwissite", "start_id": "USGS-02362610", "geometry_length_km": 2.5848442427667724 }, "geometry": { "type": "LineString", "coordinates": [ [ -85.602335006, 31.973231494 ], [ -85.602577001, 31.972979598 ], [ -85.603679501, 31.971238695 ], [ -85.603733405, 31.970803395 ], [ -85.604056105, 31.970253497 ], [ -85.604110107, 31.969589196 ], [ -85.603922106, 31.969130799 ], [ -85.6039223, 31.968466498 ], [ -85.604137607, 31.967252195 ], [ -85.604406603, 31.966794096 ], [ -85.604675405, 31.966496296 ], [ -85.604836807, 31.965992294 ], [ -85.604836904, 31.9654883 ], [ -85.604434006, 31.964800894 ], [ -85.604380503, 31.9639761 ], [ -85.604434304, 31.963678196 ], [ -85.604972102, 31.963013999 ], [ -85.605026007, 31.962487094 ], [ -85.604757406, 31.961891294 ], [ -85.6048114, 31.960860394 ], [ -85.605537407, 31.9596233 ], [ -85.605913706, 31.959165193 ], [ -85.606451206, 31.958798699 ], [ -85.607230805, 31.957951196 ], [ -85.608843803, 31.955820695 ], [ -85.609193407, 31.9548814 ], [ -85.609381504, 31.954675294 ], [ -85.610537104, 31.954469293 ], [ -85.611047603, 31.954308994 ], [ -85.611370206, 31.954102896 ], [ -85.611961506, 31.953438595 ] ] } }
]
}
