{
"type": "FeatureCollection",
"name": "USGS_02454500_UM_12km",
"crs": { "type": "name", "properties": { "name": "urn:ogc:def:crs:OGC:1.3:CRS84" } },
"features": [
{ "type": "Feature", "properties": { "site_no": "02454500", "nhdplus_comid": "18563449", "navigation_mode": "UM", "requested_distance_km": 12.0, "start_source": "nwissite", "start_id": "USGS-02454500", "geometry_length_km": 0.49283868117588359 }, "geometry": { "type": "LineString", "coordinates": [ [ -86.381154403, 34.1346443 ], [ -86.382504106, 34.1347588 ], [ -86.385754704, 34.134529494 ], [ -86.386512072, 34.134443585 ] ] } },
{ "type": "Feature", "properties": { "site_no": "02454500", "nhdplus_comid": "18562711", "navigation_mode": "UM", "requested_distance_km": 12.0, "start_source": "nwissite", "start_id": "USGS-02454500", "geometry_length_km": 1.3244386118552902 }, "geometry": { "type": "LineString", "coordinates": [ [ -86.383578002, 34.127107695 ], [ -86.384652205, 34.127084799 ], [ -86.385175504, 34.127153397 ], [ -86.385533601, 34.127313696 ], [ -86.385864206, 34.1276346 ], [ -86.386167206, 34.1283217 ], [ -86.386139803, 34.128985994 ], [ -86.385644004, 34.129650399 ], [ -86.385120705, 34.129787795 ], [ -86.383715801, 34.129856594 ], [ -86.383137405, 34.130039893 ], [ -86.382641606, 34.130291894 ], [ -86.382366203, 34.130566798 ], [ -86.381953001, 34.131299794 ], [ -86.380823702, 34.132261895 ], [ -86.380575702, 34.1327888 ], [ -86.380575806, 34.1335219 ], [ -86.380741104, 34.133980095 ], [ -86.381154403, 34.1346443 ] ] } },
{ "type": "Feature", "properties": { "site_no": "02454500", "nhdplus_comid": "18562761", "navigation_mode": "UM", "requested_distance_km": 12.0, "start_source": "nwissite", "start_id": "USGS-02454500", "geometry_length_km": 4.8827208320105884 }, "geometry": { "type": "LineString", "coordinates": [ [ -86.3675199, 34.118952595 ], [ -86.367409602, 34.120097995 ], [ -86.367822707, 34.120693594 ], [ -86.368125707, 34.120853998 ], [ -86.368841805, 34.1210372 ], [ -86.369310103, 34.1210602 ], [ -86.370962702, 34.120693795 ], [ -86.371678807, 34.120487697 ], [ -86.372092001, 34.120121196 ], [ -86.373248801, 34.118517697 ], [ -86.374984004, 34.116433196 ], [ -86.375782706, 34.115608595 ], [ -86.3777382, 34.114005096 ], [ -86.379252903, 34.113340795 ], [ -86.380629905, 34.113065898 ], [ -86.381208204, 34.113111593 ], [ -86.381704003, 34.113294899 ], [ -86.381979406, 34.113501094 ], [ -86.382227302, 34.114027895 ], [ -86.382254906, 34.114944093 ], [ -86.3820621, 34.115241997 ], [ -86.381566405, 34.115585499 ], [ -86.378894903, 34.116387397 ], [ -86.377848402, 34.116891295 ], [ -86.377352707, 34.117280699 ], [ -86.377022207, 34.117738895 ], [ -86.376774304, 34.118494794 ], [ -86.376856901, 34.119250797 ], [ -86.377132304, 34.119502798 ], [ -86.378922604, 34.120006695 ], [ -86.379473403, 34.120281495 ], [ -86.380051807, 34.1211062 ], [ -86.380327307, 34.1218163 ], [ -86.380437501, 34.122320294 ], [ -86.380437605, 34.123465694 ], [ -86.379859202, 34.124381997 ], [ -86.379556201, 34.124610998 ], [ -86.378592104, 34.125115 ], [ -86.377352603, 34.125435695 ], [ -86.376856901, 34.125710599 ], [ -86.376416102, 34.126306094 ], [ -86.3762509, 34.1269475 ], [ -86.376306005, 34.127497293 ], [ -86.376416206, 34.1277951 ], [ -86.376664005, 34.1280929 ], [ -86.376994602, 34.128321894 ], [ -86.377738304, 34.128482297 ], [ -86.378840104, 34.128482297 ], [ -86.380107306, 34.128253296 ], [ -86.383578002, 34.127107695 ] ] } },
{ "type": "Feature", "properties": { "site_no": "02454500", "nhdplus_comid": "18562785", "navigation_mode": "UM", "requested_distance_km": 12.0, "start_source": "nwissite", "start_id": "USGS-02454500", "geometry_length_km": 1.7169724605479475 }, "geometry": { "type": "LineString", "coordinates": [ [ -86.363638304, 34.106903099 ], [ -86.363941103, 34.1071551 ], [ -86.364106305, 34.107681997 ], [ -86.363913305, 34.108666994 ], [ -86.362673804, 34.110682696 ], [ -86.362260304, 34.113133699 ], [ -86.362728104, 34.115172498 ], [ -86.362865902, 34.115470298 ], [ -86.363444202, 34.115951397 ], [ -86.3645733, 34.116249293 ], [ -86.366280802, 34.116318196 ], [ -86.3667491, 34.116409898 ], [ -86.367355004, 34.116707698 ], [ -86.367575206, 34.116936795 ], [ -86.367602602, 34.118792199 ], [ -86.3675199, 34.118952595 ] ] } },
{ "type": "Feature", "properties": { "site_no": "02454500", "nhdplus_comid": "18562783", "navigation_mode": "UM", "requested_distance_km": 12.0, "start_source": "nwissite", "start_id": "USGS-02454500", "geometry_length_km": 0.72860622403606656 }, "geometry": { "type": "LineString", "coordinates": [ [ -86.356973402, 34.109192893 ], [ -86.357138902, 34.1086431 ], [ -86.357855104, 34.107704096 ], [ -86.358956702, 34.107406497 ], [ -86.360746704, 34.107383795 ], [ -86.362536706, 34.106971696 ], [ -86.363638304, 34.106903099 ] ] } }
]
}
