{
"type": "FeatureCollection",
"name": "USGS_03577000_DM_12km",
"crs": { "type": "name", "properties": { "name": "urn:ogc:def:crs:OGC:1.3:CRS84" } },
"features": [
{ "type": "Feature", "properties": { "site_no": "03577000", "nhdplus_comid": "19626424", "navigation_mode": "DM", "requested_distance_km": 12.0, "start_source": "nwissite", "start_id": "USGS-03577000", "geometry_length_km": 0.89743174244094459 }, "geometry": { "type": "LineString", "coordinates": [ [ -87.141575105, 34.476072414 ], [ -87.141555503, 34.476087399 ], [ -87.141168505, 34.476866297 ], [ -87.141168505, 34.477347396 ], [ -87.141611204, 34.477874197 ], [ -87.142137006, 34.478859097 ], [ -87.1422479, 34.479477495 ], [ -87.1423309, 34.479546197 ], [ -87.142414004, 34.479958497 ], [ -87.142607704, 34.480439499 ], [ -87.142082401, 34.481287099 ], [ -87.141418606, 34.482043095 ], [ -87.140948504, 34.482844897 ], [ -87.140561305, 34.4833031 ] ] } },
{ "type": "Feature", "properties": { "site_no": "03577000", "nhdplus_comid": "19626356", "navigation_mode": "DM", "requested_distance_km": 12.0, "start_source": "nwissite", "start_id": "USGS-03577000", "geometry_length_km": 0.46060521841251073 }, "geometry": { "type": "LineString", "coordinates": [ [ -87.140561305, 34.4833031 ], [ -87.140146405, 34.483234398 ], [ -87.1399251, 34.483051196 ], [ -87.139897302, 34.482936695 ], [ -87.139676102, 34.482753396 ], [ -87.138680004, 34.482318394 ], [ -87.138126805, 34.482364297 ], [ -87.137739502, 34.482547499 ], [ -87.137214005, 34.482936896 ], [ -87.136633106, 34.483234793 ], [ -87.136467203, 34.483463898 ] ] } },
{ "type": "Feature", "properties": { "site_no": "03577000", "nhdplus_comid": "19626360", "navigation_mode": "DM", "requested_distance_km": 12.0, "start_source": "nwissite", "start_id": "USGS-03577000", "geometry_length_km": 1.6642789191611969 }, "geometry": { "type": "LineString", "coordinates": [ [ -87.136467203, 34.483463898 ], [ -87.135416001, 34.483532697 ], [ -87.134143606, 34.483784795 ], [ -87.133341402, 34.483739093 ], [ -87.132981703, 34.483532898 ], [ -87.132456101, 34.482891597 ], [ -87.131681301, 34.482318997 ], [ -87.1303536, 34.481631897 ], [ -87.129413001, 34.481288299 ], [ -87.128389604, 34.481334195 ], [ -87.1278916, 34.481654793 ], [ -87.127808705, 34.481815197 ], [ -87.127864003, 34.4822504 ], [ -87.128113002, 34.482571095 ], [ -87.1285557, 34.482891798 ], [ -87.129496105, 34.483281098 ], [ -87.129855804, 34.483624697 ], [ -87.129855804, 34.483762093 ], [ -87.129938804, 34.483807899 ], [ -87.129855901, 34.4843577 ], [ -87.129606903, 34.484563895 ], [ -87.128970601, 34.484815799 ], [ -87.1285557, 34.484815896 ], [ -87.127449207, 34.484609798 ], [ -87.126730002, 34.484357797 ], [ -87.126093701, 34.484403595 ] ] } },
{ "type": "Feature", "properties": { "site_no": "03577000", "nhdplus_comid": "19626362", "navigation_mode": "DM", "requested_distance_km": 12.0, "start_source": "nwissite", "start_id": "USGS-03577000", "geometry_length_km": 0.78228940225075971 }, "geometry": { "type": "LineString", "coordinates": [ [ -87.126093701, 34.484403595 ], [ -87.125734106, 34.484311998 ], [ -87.125319205, 34.484357797 ], [ -87.125014804, 34.484541096 ], [ -87.124544606, 34.484793097 ], [ -87.123880707, 34.484838895 ], [ -87.1233273, 34.484541096 ], [ -87.121584706, 34.483029194 ], [ -87.121529303, 34.482846096 ], [ -87.120644204, 34.4818611 ], [ -87.119897306, 34.481265396 ], [ -87.119869702, 34.481105097 ] ] } },
{ "type": "Feature", "properties": { "site_no": "03577000", "nhdplus_comid": "19626364", "navigation_mode": "DM", "requested_distance_km": 12.0, "start_source": "nwissite", "start_id": "USGS-03577000", "geometry_length_km": 1.8410486602935014 }, "geometry": { "type": "LineString", "coordinates": [ [ -87.119869702, 34.481105097 ], [ -87.118929103, 34.480601095 ], [ -87.118375905, 34.480211698 ], [ -87.118016303, 34.4800971 ], [ -87.117407702, 34.480211593 ], [ -87.1160798, 34.481425598 ], [ -87.115969203, 34.481654599 ], [ -87.115969203, 34.482135698 ], [ -87.116522305, 34.483235195 ], [ -87.116577603, 34.483899496 ], [ -87.116439201, 34.484243095 ], [ -87.116217904, 34.484472096 ], [ -87.114779405, 34.484930098 ], [ -87.113091901, 34.485021599 ], [ -87.112704605, 34.485113196 ], [ -87.111902401, 34.4855024 ], [ -87.111487307, 34.486372896 ], [ -87.111487105, 34.487632699 ], [ -87.111680701, 34.487861894 ], [ -87.112510502, 34.488411695 ], [ -87.112482704, 34.488984399 ], [ -87.112344407, 34.489236295 ], [ -87.1112931, 34.490083694 ], [ -87.111127101, 34.490129493 ] ] } },
{ "type": "Feature", "properties": { "site_no": "03577000", "nhdplus_comid": "19626318", "navigation_mode": "DM", "requested_distance_km": 12.0, "start_source": "nwissite", "start_id": "USGS-03577000", "geometry_length_km": 0.77425877970018964 }, "geometry": { "type": "LineString", "coordinates": [ [ -87.111127101, 34.490129493 ], [ -87.1107397, 34.490564696 ], [ -87.110601306, 34.490885295 ], [ -87.110628806, 34.4914122 ], [ -87.1110439, 34.492351398 ], [ -87.111403301, 34.492878295 ], [ -87.111928903, 34.494252697 ], [ -87.112011805, 34.4942756 ], [ -87.112454303, 34.495489694 ], [ -87.112703204, 34.496612094 ] ] } },
{ "type": "Feature", "properties": { "site_no": "03577000", "nhdplus_comid": "19626288", "navigation_mode": "DM", "requested_distance_km": 12.0, "start_source": "nwissite", "start_id": "USGS-03577000", "geometry_length_km": 0.81624513177089109 }, "geometry": { "type": "LineString", "coordinates": [ [ -87.112703204, 34.496612094 ], [ -87.112647705, 34.496932894 ], [ -87.1124264, 34.497138895 ], [ -87.111817703, 34.497253396 ], [ -87.109798104, 34.496955499 ], [ -87.108857401, 34.497046895 ], [ -87.108553, 34.497207195 ], [ -87.106366806, 34.499818295 ], [ -87.106283702, 34.500102796 ] ] } },
{ "type": "Feature", "properties": { "site_no": "03577000", "nhdplus_comid": "19627010", "navigation_mode": "DM", "requested_distance_km": 12.0, "start_source": "nwissite", "start_id": "USGS-03577000", "geometry_length_km": 0.063136296430622851 }, "geometry": { "type": "LineString", "coordinates": [ [ -87.106283702, 34.500102796 ], [ -87.105590701, 34.500102997 ] ] } },
{ "type": "Feature", "properties": { "site_no": "03577000", "nhdplus_comid": "19622992", "navigation_mode": "DM", "requested_distance_km": 12.0, "start_source": "nwissite", "start_id": "USGS-03577000", "geometry_length_km": 1.6112540237152577 }, "geometry": { "type": "LineString", "coordinates": [ [ -87.105590701, 34.500102997 ], [ -87.105563, 34.500225298 ], [ -87.104677603, 34.500797793 ], [ -87.103764206, 34.501553498 ], [ -87.102795601, 34.502538398 ], [ -87.101300903, 34.504645497 ], [ -87.100664407, 34.505149193 ], [ -87.100166202, 34.505355299 ], [ -87.099529803, 34.505423993 ], [ -87.098589003, 34.505125895 ], [ -87.098091006, 34.505171597 ], [ -87.098007903, 34.505331896 ], [ -87.098201506, 34.505744293 ], [ -87.0981737, 34.506019197 ], [ -87.097869202, 34.5062024 ], [ -87.096347407, 34.506133296 ], [ -87.0952131, 34.505789496 ], [ -87.094355404, 34.505651794 ], [ -87.093636006, 34.505720295 ], [ -87.092833303, 34.506269895 ], [ -87.092833303, 34.506361499 ] ] } }
]
}
