{
"type": "FeatureCollection",
"name": "USGS_02456000_UM_12km",
"crs": { "type": "name", "properties": { "name": "urn:ogc:def:crs:OGC:1.3:CRS84" } },
"features": [
{ "type": "Feature", "properties": { "site_no": "02456000", "nhdplus_comid": "18566313", "navigation_mode": "UM", "requested_distance_km": 12.0, "start_source": "nwissite", "start_id": "USGS-02456000", "geometry_length_km": 1.1424983893327156 }, "geometry": { "type": "LineString", "coordinates": [ [ -86.803539403, 33.733669594 ], [ -86.804005407, 33.733761497 ], [ -86.804745302, 33.734311797 ], [ -86.806691103, 33.735435493 ], [ -86.8081441, 33.735802896 ], [ -86.808747105, 33.736100994 ], [ -86.809678905, 33.736788794 ], [ -86.810144804, 33.737338997 ], [ -86.811020903, 33.739080496 ], [ -86.811349504, 33.739630498 ], [ -86.811845498, 33.740568938 ] ] } },
{ "type": "Feature", "properties": { "site_no": "02456000", "nhdplus_comid": "18565629", "navigation_mode": "UM", "requested_distance_km": 12.0, "start_source": "nwissite", "start_id": "USGS-02456000", "geometry_length_km": 2.3287625347769012 }, "geometry": { "type": "LineString", "coordinates": [ [ -86.783184201, 33.743071496 ], [ -86.784062907, 33.741972595 ], [ -86.784831606, 33.741171293 ], [ -86.785105802, 33.741056994 ], [ -86.785928704, 33.740943097 ], [ -86.788259402, 33.741082199 ], [ -86.788890302, 33.740922295 ], [ -86.790015005, 33.740441993 ], [ -86.791222401, 33.739549398 ], [ -86.791963801, 33.738541797 ], [ -86.793226406, 33.737145193 ], [ -86.794022202, 33.736412697 ], [ -86.795723602, 33.735016398 ], [ -86.796272203, 33.734787598 ], [ -86.796930306, 33.734696396 ], [ -86.7980268, 33.735086694 ], [ -86.798657402, 33.73511 ], [ -86.802305102, 33.734127097 ], [ -86.803347304, 33.733783998 ], [ -86.803539403, 33.733669594 ] ] } },
{ "type": "Feature", "properties": { "site_no": "02456000", "nhdplus_comid": "18565603", "navigation_mode": "UM", "requested_distance_km": 12.0, "start_source": "nwissite", "start_id": "USGS-02456000", "geometry_length_km": 0.39594893431691958 }, "geometry": { "type": "LineString", "coordinates": [ [ -86.778933406, 33.743503593 ], [ -86.780606404, 33.743161194 ], [ -86.783184201, 33.743071496 ] ] } },
{ "type": "Feature", "properties": { "site_no": "02456000", "nhdplus_comid": "18565607", "navigation_mode": "UM", "requested_distance_km": 12.0, "start_source": "nwissite", "start_id": "USGS-02456000", "geometry_length_km": 1.5149962883186112 }, "geometry": { "type": "LineString", "coordinates": [ [ -86.763634302, 33.741382696 ], [ -86.766020201, 33.741201594 ], [ -86.769037001, 33.740837798 ], [ -86.769996405, 33.741113499 ], [ -86.770434804, 33.741411798 ], [ -86.771420605, 33.742580898 ], [ -86.771886505, 33.742810398 ], [ -86.773970306, 33.743109994 ], [ -86.775121704, 33.743454598 ], [ -86.776712306, 33.743341394 ], [ -86.778933406, 33.743503593 ] ] } },
{ "type": "Feature", "properties": { "site_no": "02456000", "nhdplus_comid": "18565621", "navigation_mode": "UM", "requested_distance_km": 12.0, "start_source": "nwissite", "start_id": "USGS-02456000", "geometry_length_km": 1.0232163431289465 }, "geometry": { "type": "LineString", "coordinates": [ [ -86.757964902, 33.736360297 ], [ -86.758047007, 33.736497894 ], [ -86.759088203, 33.737002797 ], [ -86.759664103, 33.736934699 ], [ -86.760075703, 33.736705899 ], [ -86.760707103, 33.736156695 ], [ -86.7611733, 33.736157097 ], [ -86.761337601, 33.736248896 ], [ -86.761528306, 33.737257093 ], [ -86.761663906, 33.738356799 ], [ -86.761746101, 33.738448597 ], [ -86.761909403, 33.739319399 ], [ -86.761991702, 33.739365295 ], [ -86.762346506, 33.740579799 ], [ -86.762757301, 33.740992494 ], [ -86.763250403, 33.741290793 ], [ -86.763634302, 33.741382696 ] ] } },
{ "type": "Feature", "properties": { "site_no": "02456000", "nhdplus_comid": "18565623", "navigation_mode": "UM", "requested_distance_km": 12.0, "start_source": "nwissite", "start_id": "USGS-02456000", "geometry_length_km": 0.29602915559252807 }, "geometry": { "type": "LineString", "coordinates": [ [ -86.754894704, 33.735624194 ], [ -86.755799003, 33.735968694 ], [ -86.757306904, 33.736290894 ], [ -86.757964902, 33.736360297 ] ] } },
{ "type": "Feature", "properties": { "site_no": "02456000", "nhdplus_comid": "18566315", "navigation_mode": "UM", "requested_distance_km": 12.0, "start_source": "nwissite", "start_id": "USGS-02456000", "geometry_length_km": 1.6317387216757475 }, "geometry": { "type": "LineString", "coordinates": [ [ -86.747296706, 33.728361197 ], [ -86.747351803, 33.728521496 ], [ -86.748751305, 33.7293678 ], [ -86.749684103, 33.7297564 ], [ -86.749985807, 33.729801893 ], [ -86.750790201, 33.729755297 ], [ -86.752901703, 33.729528293 ], [ -86.754465006, 33.7291862 ], [ -86.755287603, 33.7292329 ], [ -86.755588904, 33.729370594 ], [ -86.755780503, 33.729622796 ], [ -86.755752601, 33.729966395 ], [ -86.754297502, 33.731362395 ], [ -86.753912702, 33.732026398 ], [ -86.753554605, 33.733171597 ], [ -86.753608607, 33.733721398 ], [ -86.753854603, 33.734340295 ], [ -86.754922204, 33.735509694 ], [ -86.754894704, 33.735624194 ] ] } },
{ "type": "Feature", "properties": { "site_no": "02456000", "nhdplus_comid": "18565649", "navigation_mode": "UM", "requested_distance_km": 12.0, "start_source": "nwissite", "start_id": "USGS-02456000", "geometry_length_km": 1.5835528197268955 }, "geometry": { "type": "LineString", "coordinates": [ [ -86.739902906, 33.735034794 ], [ -86.740066901, 33.734782599 ], [ -86.740065902, 33.733934999 ], [ -86.739817701, 33.732858397 ], [ -86.739622705, 33.730544798 ], [ -86.739429407, 33.729582794 ], [ -86.739455201, 33.728299893 ], [ -86.739728503, 33.727612294 ], [ -86.740002304, 33.7273601 ], [ -86.740522906, 33.727107696 ], [ -86.741482407, 33.726969294 ], [ -86.744855501, 33.727561794 ], [ -86.746693306, 33.728201397 ], [ -86.747296706, 33.728361197 ] ] } }
]
}
