{
"type": "FeatureCollection",
"name": "USGS_02373000_DM_12km",
"crs": { "type": "name", "properties": { "name": "urn:ogc:def:crs:OGC:1.3:CRS84" } },
"features": [
{ "type": "Feature", "properties": { "site_no": "02373000", "nhdplus_comid": "2402121", "navigation_mode": "DM", "requested_distance_km": 12.0, "start_source": "nwissite", "start_id": "USGS-02373000", "geometry_length_km": 0.44364704708079905 }, "geometry": { "type": "LineString", "coordinates": [ [ -86.786909955, 31.454066756 ], [ -86.786910705, 31.453278594 ], [ -86.786723904, 31.452728398 ], [ -86.786670901, 31.452292897 ], [ -86.786377504, 31.451605193 ], [ -86.785870403, 31.450779796 ], [ -86.785629906, 31.4505734 ], [ -86.785576701, 31.450344197 ] ] } },
{ "type": "Feature", "properties": { "site_no": "02373000", "nhdplus_comid": "2402137", "navigation_mode": "DM", "requested_distance_km": 12.0, "start_source": "nwissite", "start_id": "USGS-02373000", "geometry_length_km": 0.38946344346146028 }, "geometry": { "type": "LineString", "coordinates": [ [ -86.785576701, 31.450344197 ], [ -86.785416305, 31.450275399 ], [ -86.784481704, 31.449128799 ], [ -86.784295306, 31.448372394 ], [ -86.784402706, 31.4479829 ], [ -86.784991302, 31.447387397 ] ] } },
{ "type": "Feature", "properties": { "site_no": "02373000", "nhdplus_comid": "2402175", "navigation_mode": "DM", "requested_distance_km": 12.0, "start_source": "nwissite", "start_id": "USGS-02373000", "geometry_length_km": 0.67354818015921725 }, "geometry": { "type": "LineString", "coordinates": [ [ -86.784991302, 31.447387397 ], [ -86.785072006, 31.4468375 ], [ -86.784859203, 31.445737295 ], [ -86.784592301, 31.445187099 ], [ -86.7845129, 31.444430694 ], [ -86.784192607, 31.444017999 ], [ -86.783765003, 31.443880193 ], [ -86.783096805, 31.443833895 ], [ -86.781840004, 31.444268398 ], [ -86.781358704, 31.444359697 ] ] } },
{ "type": "Feature", "properties": { "site_no": "02373000", "nhdplus_comid": "2402165", "navigation_mode": "DM", "requested_distance_km": 12.0, "start_source": "nwissite", "start_id": "USGS-02373000", "geometry_length_km": 0.47306276555984739 }, "geometry": { "type": "LineString", "coordinates": [ [ -86.781358704, 31.444359697 ], [ -86.779914707, 31.444862895 ], [ -86.779085904, 31.445022695 ], [ -86.778738402, 31.444999397 ], [ -86.777642801, 31.444723599 ], [ -86.776787706, 31.444356196 ], [ -86.776654005, 31.444379099 ] ] } },
{ "type": "Feature", "properties": { "site_no": "02373000", "nhdplus_comid": "2402193", "navigation_mode": "DM", "requested_distance_km": 12.0, "start_source": "nwissite", "start_id": "USGS-02373000", "geometry_length_km": 0.7028662372707194 }, "geometry": { "type": "LineString", "coordinates": [ [ -86.776654005, 31.444379099 ], [ -86.776093304, 31.443782799 ], [ -86.775986902, 31.443255596 ], [ -86.776201904, 31.4421786 ], [ -86.776229605, 31.441170193 ], [ -86.776123703, 31.440207697 ], [ -86.775990702, 31.439634599 ], [ -86.775778204, 31.438282296 ] ] } },
{ "type": "Feature", "properties": { "site_no": "02373000", "nhdplus_comid": "2402211", "navigation_mode": "DM", "requested_distance_km": 12.0, "start_source": "nwissite", "start_id": "USGS-02373000", "geometry_length_km": 3.5475546238528115 }, "geometry": { "type": "LineString", "coordinates": [ [ -86.775778204, 31.438282296 ], [ -86.775725402, 31.437663496 ], [ -86.775618806, 31.437365495 ], [ -86.775567107, 31.435784094 ], [ -86.7753269, 31.435394399 ], [ -86.774846204, 31.435004398 ], [ -86.773136601, 31.4339718 ], [ -86.7718281, 31.432870694 ], [ -86.770706207, 31.432296798 ], [ -86.7693168, 31.431974895 ], [ -86.768621802, 31.432042994 ], [ -86.768193804, 31.432271793 ], [ -86.768166706, 31.432569697 ], [ -86.768406704, 31.433096997 ], [ -86.768940702, 31.433532894 ], [ -86.769982606, 31.4339922 ], [ -86.7713456, 31.434199497 ], [ -86.772013403, 31.434497997 ], [ -86.772600904, 31.4349797 ], [ -86.772680007, 31.436056897 ], [ -86.772171803, 31.436446093 ], [ -86.7714765, 31.436743394 ], [ -86.770754606, 31.436880298 ], [ -86.7694185, 31.436672993 ], [ -86.768563502, 31.436305597 ], [ -86.767441705, 31.435594194 ], [ -86.7664003, 31.434676595 ], [ -86.765707001, 31.433323994 ], [ -86.765253201, 31.432796396 ], [ -86.764585502, 31.4323375 ], [ -86.764051303, 31.432130799 ], [ -86.762768403, 31.431992099 ], [ -86.760175705, 31.432127297 ], [ -86.759053305, 31.431920096 ], [ -86.757690907, 31.431437597 ], [ -86.757289901, 31.431437194 ] ] } },
{ "type": "Feature", "properties": { "site_no": "02373000", "nhdplus_comid": "2402223", "navigation_mode": "DM", "requested_distance_km": 12.0, "start_source": "nwissite", "start_id": "USGS-02373000", "geometry_length_km": 0.60040250455928212 }, "geometry": { "type": "LineString", "coordinates": [ [ -86.757289901, 31.431437194 ], [ -86.755846903, 31.431275398 ], [ -86.755553104, 31.431091793 ], [ -86.755340204, 31.430449799 ], [ -86.755233303, 31.430358097 ], [ -86.7550207, 31.429441094 ], [ -86.754727401, 31.428822197 ], [ -86.7542466, 31.428592496 ], [ -86.753792301, 31.428569198 ], [ -86.753177203, 31.428843595 ] ] } },
{ "type": "Feature", "properties": { "site_no": "02373000", "nhdplus_comid": "2402871", "navigation_mode": "DM", "requested_distance_km": 12.0, "start_source": "nwissite", "start_id": "USGS-02373000", "geometry_length_km": 1.918914989855165 }, "geometry": { "type": "LineString", "coordinates": [ [ -86.753177203, 31.428843595 ], [ -86.753016204, 31.429324694 ], [ -86.752721801, 31.429713994 ], [ -86.752347201, 31.430080295 ], [ -86.751999505, 31.430286199 ], [ -86.751518302, 31.430377394 ], [ -86.751117505, 31.4301937 ], [ -86.750770606, 31.429895394 ], [ -86.750504106, 31.429253496 ], [ -86.750130303, 31.428909399 ], [ -86.750077106, 31.428725995 ], [ -86.749963604, 31.428681798 ], [ -86.749214403, 31.428109497 ], [ -86.748358205, 31.427331194 ], [ -86.747929707, 31.426666997 ], [ -86.747875802, 31.426323295 ], [ -86.747554302, 31.4257048 ], [ -86.746377304, 31.424903795 ], [ -86.745040305, 31.424332097 ], [ -86.7437298, 31.423462398 ], [ -86.743274704, 31.422889896 ], [ -86.741803005, 31.421539195 ], [ -86.740198001, 31.4202343 ], [ -86.739903405, 31.419730499 ], [ -86.739796504, 31.419684693 ] ] } }
]
}
