{
"type": "FeatureCollection",
"name": "USGS_02370200_UM_12km",
"crs": { "type": "name", "properties": { "name": "urn:ogc:def:crs:OGC:1.3:CRS84" } },
"features": [
{ "type": "Feature", "properties": { "site_no": "02370200", "nhdplus_comid": "791420", "navigation_mode": "UM", "requested_distance_km": 12.0, "start_source": "nwissite", "start_id": "USGS-02370200", "geometry_length_km": 0.096590104328161092 }, "geometry": { "type": "LineString", "coordinates": [ [ -86.905010901, 30.865548395 ], [ -86.905010805, 30.865273394 ], [ -86.9046387, 30.864792198 ], [ -86.904622228, 30.864783973 ] ] } },
{ "type": "Feature", "properties": { "site_no": "02370200", "nhdplus_comid": "791414", "navigation_mode": "UM", "requested_distance_km": 12.0, "start_source": "nwissite", "start_id": "USGS-02370200", "geometry_length_km": 0.85288856282147385 }, "geometry": { "type": "LineString", "coordinates": [ [ -86.904587902, 30.872538894 ], [ -86.905039504, 30.872103393 ], [ -86.905065902, 30.871507399 ], [ -86.904826701, 30.871232495 ], [ -86.904826403, 30.870269895 ], [ -86.904720001, 30.870017797 ], [ -86.904294804, 30.869536594 ], [ -86.904214904, 30.869146898 ], [ -86.904453807, 30.868528098 ], [ -86.904134803, 30.868046798 ], [ -86.904134803, 30.867680095 ], [ -86.904294103, 30.867473796 ], [ -86.904347003, 30.866717495 ], [ -86.904586002, 30.866213098 ], [ -86.905010901, 30.865777597 ], [ -86.905010901, 30.865548395 ] ] } },
{ "type": "Feature", "properties": { "site_no": "02370200", "nhdplus_comid": "791404", "navigation_mode": "UM", "requested_distance_km": 12.0, "start_source": "nwissite", "start_id": "USGS-02370200", "geometry_length_km": 2.1371926161863573 }, "geometry": { "type": "LineString", "coordinates": [ [ -86.896088801, 30.889111295 ], [ -86.8964075, 30.888400793 ], [ -86.896885604, 30.8876215 ], [ -86.897496805, 30.886933699 ], [ -86.898240507, 30.885787599 ], [ -86.898479402, 30.884549998 ], [ -86.898824804, 30.884045698 ], [ -86.899781205, 30.8831058 ], [ -86.9001531, 30.882555693 ], [ -86.900339, 30.882074296 ], [ -86.900418401, 30.880744994 ], [ -86.900923006, 30.879759394 ], [ -86.901666805, 30.878979996 ], [ -86.901746407, 30.878636099 ], [ -86.901533805, 30.878338195 ], [ -86.901507102, 30.878063194 ], [ -86.901692905, 30.877192199 ], [ -86.901426606, 30.875175297 ], [ -86.901612602, 30.874991998 ], [ -86.902223706, 30.874716796 ], [ -86.9028081, 30.874166593 ], [ -86.903233103, 30.873501897 ], [ -86.903737701, 30.872974694 ], [ -86.904587902, 30.872538894 ] ] } },
{ "type": "Feature", "properties": { "site_no": "02370200", "nhdplus_comid": "791350", "navigation_mode": "UM", "requested_distance_km": 12.0, "start_source": "nwissite", "start_id": "USGS-02370200", "geometry_length_km": 0.75276467369934419 }, "geometry": { "type": "LineString", "coordinates": [ [ -86.892422304, 30.894956395 ], [ -86.893432006, 30.8935811 ], [ -86.894175902, 30.892045394 ], [ -86.894733801, 30.891449399 ], [ -86.895052403, 30.890051194 ], [ -86.896088801, 30.889111295 ] ] } },
{ "type": "Feature", "properties": { "site_no": "02370200", "nhdplus_comid": "791328", "navigation_mode": "UM", "requested_distance_km": 12.0, "start_source": "nwissite", "start_id": "USGS-02370200", "geometry_length_km": 2.028314470068207 }, "geometry": { "type": "LineString", "coordinates": [ [ -86.877884701, 30.907219395 ], [ -86.878118202, 30.907043599 ], [ -86.879559301, 30.905958697 ], [ -86.882429801, 30.904331297 ], [ -86.883094303, 30.904170893 ], [ -86.8842372, 30.903758295 ], [ -86.8846092, 30.903437398 ], [ -86.885007903, 30.902772695 ], [ -86.885858305, 30.901695393 ], [ -86.886416301, 30.900365993 ], [ -86.886602305, 30.899380498 ], [ -86.886788204, 30.898990899 ], [ -86.887240104, 30.898532398 ], [ -86.888409607, 30.897867598 ], [ -86.889233306, 30.896859095 ], [ -86.890057102, 30.896285996 ], [ -86.891890906, 30.895437799 ], [ -86.892422304, 30.894956395 ] ] } },
{ "type": "Feature", "properties": { "site_no": "02370200", "nhdplus_comid": "792246", "navigation_mode": "UM", "requested_distance_km": 12.0, "start_source": "nwissite", "start_id": "USGS-02370200", "geometry_length_km": 0.36334050674710683 }, "geometry": { "type": "LineString", "coordinates": [ [ -86.876192503, 30.910109699 ], [ -86.876751907, 30.908957995 ], [ -86.877099507, 30.908095896 ], [ -86.877558403, 30.907519497 ], [ -86.877884701, 30.907219395 ] ] } },
{ "type": "Feature", "properties": { "site_no": "02370200", "nhdplus_comid": "792242", "navigation_mode": "UM", "requested_distance_km": 12.0, "start_source": "nwissite", "start_id": "USGS-02370200", "geometry_length_km": 0.83662403574961364 }, "geometry": { "type": "LineString", "coordinates": [ [ -86.872196004, 30.916684896 ], [ -86.872375503, 30.916337095 ], [ -86.872594103, 30.915986493 ], [ -86.872691005, 30.915441699 ], [ -86.872974701, 30.914512895 ], [ -86.873301901, 30.913833395 ], [ -86.873713702, 30.913038097 ], [ -86.874558404, 30.912217095 ], [ -86.875377901, 30.911301799 ], [ -86.876192503, 30.910109699 ] ] } },
{ "type": "Feature", "properties": { "site_no": "02370200", "nhdplus_comid": "792058", "navigation_mode": "UM", "requested_distance_km": 12.0, "start_source": "nwissite", "start_id": "USGS-02370200", "geometry_length_km": 0.74060495170688845 }, "geometry": { "type": "LineString", "coordinates": [ [ -86.8708665, 30.923102394 ], [ -86.870866604, 30.922758594 ], [ -86.871026106, 30.922437698 ], [ -86.870973006, 30.921773098 ], [ -86.871052705, 30.921658494 ], [ -86.871052705, 30.921452194 ], [ -86.870973006, 30.919549897 ], [ -86.871531405, 30.917922594 ], [ -86.872196004, 30.916684896 ] ] } },
{ "type": "Feature", "properties": { "site_no": "02370200", "nhdplus_comid": "791234", "navigation_mode": "UM", "requested_distance_km": 12.0, "start_source": "nwissite", "start_id": "USGS-02370200", "geometry_length_km": 0.38100323155602672 }, "geometry": { "type": "LineString", "coordinates": [ [ -86.869590305, 30.926127598 ], [ -86.869882703, 30.925921299 ], [ -86.870547406, 30.925119199 ], [ -86.870733507, 30.924477495 ], [ -86.870786801, 30.9236295 ], [ -86.870707005, 30.923583597 ], [ -86.870680504, 30.923377395 ], [ -86.8708665, 30.923102394 ] ] } },
{ "type": "Feature", "properties": { "site_no": "02370200", "nhdplus_comid": "791226", "navigation_mode": "UM", "requested_distance_km": 12.0, "start_source": "nwissite", "start_id": "USGS-02370200", "geometry_length_km": 0.97611698074871922 }, "geometry": { "type": "LineString", "coordinates": [ [ -86.868872002, 30.934355699 ], [ -86.870573804, 30.931949295 ], [ -86.870653607, 30.931009598 ], [ -86.870175101, 30.928992599 ], [ -86.869457304, 30.926975697 ], [ -86.869590305, 30.926127598 ] ] } },
{ "type": "Feature", "properties": { "site_no": "02370200", "nhdplus_comid": "791186", "navigation_mode": "UM", "requested_distance_km": 12.0, "start_source": "nwissite", "start_id": "USGS-02370200", "geometry_length_km": 0.17179097618156766 }, "geometry": { "type": "LineString", "coordinates": [ [ -86.868047602, 30.935684994 ], [ -86.868180603, 30.935112 ], [ -86.868872002, 30.934355699 ] ] } },
{ "type": "Feature", "properties": { "site_no": "02370200", "nhdplus_comid": "791176", "navigation_mode": "UM", "requested_distance_km": 12.0, "start_source": "nwissite", "start_id": "USGS-02370200", "geometry_length_km": 1.0407361734332197 }, "geometry": { "type": "LineString", "coordinates": [ [ -86.862622604, 30.942353994 ], [ -86.862250507, 30.941735193 ], [ -86.862091005, 30.941253893 ], [ -86.862170801, 30.9404746 ], [ -86.862383604, 30.940061994 ], [ -86.863234505, 30.939603694 ], [ -86.8647236, 30.939397596 ], [ -86.865308605, 30.939030997 ], [ -86.8659999, 30.938480996 ], [ -86.866505302, 30.937380798 ], [ -86.866877504, 30.936784998 ], [ -86.868047602, 30.935684994 ] ] } },
{ "type": "Feature", "properties": { "site_no": "02370200", "nhdplus_comid": "791154", "navigation_mode": "UM", "requested_distance_km": 12.0, "start_source": "nwissite", "start_id": "USGS-02370200", "geometry_length_km": 1.1888234297296589 }, "geometry": { "type": "LineString", "coordinates": [ [ -86.865147606, 30.952644899 ], [ -86.865094505, 30.952186599 ], [ -86.864429705, 30.9510177 ], [ -86.8634727, 30.948633999 ], [ -86.863180205, 30.948106796 ], [ -86.8630208, 30.947442099 ], [ -86.862994306, 30.946227394 ], [ -86.862835005, 30.945218995 ], [ -86.862861603, 30.944462597 ], [ -86.862755306, 30.944164693 ], [ -86.8628086, 30.942697793 ], [ -86.862622604, 30.942353994 ] ] } }
]
}
