{
"type": "FeatureCollection",
"name": "USGS_02454200_UM_12km",
"crs": { "type": "name", "properties": { "name": "urn:ogc:def:crs:OGC:1.3:CRS84" } },
"features": [
{ "type": "Feature", "properties": { "site_no": "02454200", "nhdplus_comid": "18591830", "navigation_mode": "UM", "requested_distance_km": 12.0, "start_source": "nwissite", "start_id": "USGS-02454200", "geometry_length_km": 2.4451398899436381 }, "geometry": { "type": "LineString", "coordinates": [ [ -87.406157002, 33.671471 ], [ -87.405526504, 33.670417398 ], [ -87.405170105, 33.670096695 ], [ -87.404677004, 33.670050994 ], [ -87.404074304, 33.670165695 ], [ -87.403444201, 33.670532398 ], [ -87.403170504, 33.671242699 ], [ -87.402869701, 33.673075393 ], [ -87.402267501, 33.674266793 ], [ -87.401555203, 33.675023094 ], [ -87.399884105, 33.676077299 ], [ -87.398815706, 33.676512599 ], [ -87.397445701, 33.676902495 ], [ -87.396514103, 33.677085795 ], [ -87.395390704, 33.677040294 ], [ -87.394020602, 33.676857196 ], [ -87.390841804, 33.675528899 ], [ -87.390047006, 33.674795896 ], [ -87.3884027, 33.673169494 ], [ -87.387827307, 33.672848895 ], [ -87.3873889, 33.672734395 ], [ -87.387245758, 33.672755777 ] ] } },
{ "type": "Feature", "properties": { "site_no": "02454200", "nhdplus_comid": "18591828", "navigation_mode": "UM", "requested_distance_km": 12.0, "start_source": "nwissite", "start_id": "USGS-02454200", "geometry_length_km": 3.0981259575189162 }, "geometry": { "type": "LineString", "coordinates": [ [ -87.408413507, 33.694333993 ], [ -87.407481506, 33.693852998 ], [ -87.407179907, 33.6935324 ], [ -87.407152407, 33.693211697 ], [ -87.407261804, 33.692890897 ], [ -87.407946602, 33.691997297 ], [ -87.4079739, 33.691699497 ], [ -87.407206401, 33.691264398 ], [ -87.406822406, 33.690943897 ], [ -87.406795003, 33.690691896 ], [ -87.406931907, 33.690554298 ], [ -87.407671705, 33.690416694 ], [ -87.4079732, 33.690210395 ], [ -87.408000506, 33.689981297 ], [ -87.407589301, 33.689683497 ], [ -87.406218901, 33.689294495 ], [ -87.405972205, 33.689019598 ], [ -87.405889802, 33.688721895 ], [ -87.405971907, 33.688286498 ], [ -87.406410106, 33.687713698 ], [ -87.4064373, 33.687278397 ], [ -87.406245306, 33.686522499 ], [ -87.4063548, 33.686384998 ], [ -87.406902902, 33.686247393 ], [ -87.4071768, 33.686086997 ], [ -87.4073411, 33.6858349 ], [ -87.407395504, 33.684597693 ], [ -87.407450102, 33.684116594 ], [ -87.407806106, 33.683566697 ], [ -87.408874303, 33.6823752 ], [ -87.408874005, 33.682054393 ], [ -87.407475702, 33.679969996 ], [ -87.406982303, 33.679466195 ], [ -87.4066258, 33.678916499 ], [ -87.4066258, 33.678778999 ], [ -87.407666802, 33.678022698 ], [ -87.407666504, 33.677564599 ], [ -87.407227702, 33.6763734 ], [ -87.406266905, 33.672158293 ], [ -87.406157002, 33.671471 ] ] } },
{ "type": "Feature", "properties": { "site_no": "02454200", "nhdplus_comid": "18591798", "navigation_mode": "UM", "requested_distance_km": 12.0, "start_source": "nwissite", "start_id": "USGS-02454200", "geometry_length_km": 0.33249365096868772 }, "geometry": { "type": "LineString", "coordinates": [ [ -87.409290805, 33.695089698 ], [ -87.410057902, 33.694470994 ], [ -87.410167404, 33.694287598 ], [ -87.410194702, 33.693989798 ], [ -87.4101125, 33.693944097 ], [ -87.409591801, 33.693898298 ], [ -87.409016304, 33.694196396 ], [ -87.408413507, 33.694333993 ] ] } },
{ "type": "Feature", "properties": { "site_no": "02454200", "nhdplus_comid": "18591808", "navigation_mode": "UM", "requested_distance_km": 12.0, "start_source": "nwissite", "start_id": "USGS-02454200", "geometry_length_km": 4.4155947995833627 }, "geometry": { "type": "LineString", "coordinates": [ [ -87.435627207, 33.693361297 ], [ -87.435325705, 33.693269797 ], [ -87.435243301, 33.6930179 ], [ -87.435270302, 33.692605495 ], [ -87.435927406, 33.691711694 ], [ -87.435899802, 33.691367999 ], [ -87.4353787, 33.690887198 ], [ -87.434693307, 33.690520994 ], [ -87.434117906, 33.690567099 ], [ -87.433323301, 33.690865293 ], [ -87.432227105, 33.690888695 ], [ -87.431377307, 33.690683 ], [ -87.430472806, 33.690316796 ], [ -87.428828403, 33.690248698 ], [ -87.4268272, 33.6892417 ], [ -87.426141806, 33.688760899 ], [ -87.425785206, 33.6881653 ], [ -87.425127201, 33.687592894 ], [ -87.424798302, 33.687615894 ], [ -87.424743704, 33.6879825 ], [ -87.425018206, 33.688761398 ], [ -87.425621606, 33.689585797 ], [ -87.425950706, 33.689997993 ], [ -87.4259784, 33.690387495 ], [ -87.425759301, 33.690547995 ], [ -87.424142607, 33.690777697 ], [ -87.4229367, 33.690801099 ], [ -87.421923004, 33.691259697 ], [ -87.421265602, 33.691947199 ], [ -87.421238601, 33.692634493 ], [ -87.421540402, 33.693229996 ], [ -87.421376303, 33.693756998 ], [ -87.420664005, 33.694329999 ], [ -87.420170903, 33.694513395 ], [ -87.419842005, 33.694490597 ], [ -87.419046901, 33.693964094 ], [ -87.418690607, 33.694009997 ], [ -87.418334506, 33.694307894 ], [ -87.417841606, 33.695041195 ], [ -87.417650007, 33.695522398 ], [ -87.4174316, 33.696942694 ], [ -87.417185105, 33.697309397 ], [ -87.416883603, 33.6973553 ], [ -87.4148551, 33.696714595 ], [ -87.414334305, 33.696416996 ], [ -87.414197102, 33.696096197 ], [ -87.414087005, 33.695134096 ], [ -87.413812801, 33.694882095 ], [ -87.413511306, 33.694813497 ], [ -87.412908301, 33.694905296 ], [ -87.412716605, 33.695065796 ], [ -87.412689604, 33.695821799 ], [ -87.412826702, 33.696165398 ], [ -87.412827, 33.696760997 ], [ -87.412580505, 33.697058998 ], [ -87.412361301, 33.6971507 ], [ -87.412032306, 33.697127894 ], [ -87.411456704, 33.696898796 ], [ -87.4097021, 33.695685193 ], [ -87.409373105, 33.695318796 ], [ -87.409290805, 33.695089698 ] ] } },
{ "type": "Feature", "properties": { "site_no": "02454200", "nhdplus_comid": "18591804", "navigation_mode": "UM", "requested_distance_km": 12.0, "start_source": "nwissite", "start_id": "USGS-02454200", "geometry_length_km": 2.1585374883601385 }, "geometry": { "type": "LineString", "coordinates": [ [ -87.451308906, 33.699400499 ], [ -87.450021505, 33.700134397 ], [ -87.449007504, 33.700295396 ], [ -87.448267505, 33.700227097 ], [ -87.447801307, 33.699998394 ], [ -87.447444707, 33.699631996 ], [ -87.447389603, 33.699219696 ], [ -87.447498702, 33.698738493 ], [ -87.447443604, 33.698440693 ], [ -87.447032101, 33.698074393 ], [ -87.446209803, 33.697868697 ], [ -87.4448395, 33.697915293 ], [ -87.443112604, 33.697664298 ], [ -87.442071103, 33.697687797 ], [ -87.440700904, 33.697825894 ], [ -87.4404542, 33.697757296 ], [ -87.440097503, 33.697207697 ], [ -87.440097101, 33.696703695 ], [ -87.440288603, 33.696314193 ], [ -87.440315604, 33.695947699 ], [ -87.440233201, 33.695787296 ], [ -87.439191505, 33.695375495 ], [ -87.439054206, 33.695100598 ], [ -87.439053804, 33.694619499 ], [ -87.439190701, 33.694298796 ], [ -87.439217806, 33.693932094 ], [ -87.439080507, 33.693588495 ], [ -87.438641705, 33.693245195 ], [ -87.437682204, 33.692764595 ], [ -87.436969407, 33.692512996 ], [ -87.436558403, 33.692513198 ], [ -87.436229706, 33.692719497 ], [ -87.435873702, 33.693200797 ], [ -87.435627207, 33.693361297 ] ] } }
]
}
