{
"type": "FeatureCollection",
"name": "USGS_02339780_DM_12km",
"crs": { "type": "name", "properties": { "name": "urn:ogc:def:crs:OGC:1.3:CRS84" } },
"features": [
{ "type": "Feature", "properties": { "site_no": "02339780", "nhdplus_comid": "3298636", "navigation_mode": "DM", "requested_distance_km": 12.0, "start_source": "nwissite", "start_id": "USGS-02339780", "geometry_length_km": 0.41342053473019053 }, "geometry": { "type": "LineString", "coordinates": [ [ -85.165088319, 32.814551028 ], [ -85.164085202, 32.812430695 ], [ -85.1640376, 32.811005294 ] ] } },
{ "type": "Feature", "properties": { "site_no": "02339780", "nhdplus_comid": "3298642", "navigation_mode": "DM", "requested_distance_km": 12.0, "start_source": "nwissite", "start_id": "USGS-02339780", "geometry_length_km": 0.92974249672206799 }, "geometry": { "type": "LineString", "coordinates": [ [ -85.1640376, 32.811005294 ], [ -85.162851006, 32.809606299 ], [ -85.161808707, 32.807747498 ], [ -85.158585407, 32.804056197 ] ] } },
{ "type": "Feature", "properties": { "site_no": "02339780", "nhdplus_comid": "3298646", "navigation_mode": "DM", "requested_distance_km": 12.0, "start_source": "nwissite", "start_id": "USGS-02339780", "geometry_length_km": 0.69057913510819235 }, "geometry": { "type": "LineString", "coordinates": [ [ -85.158585407, 32.804056197 ], [ -85.157254905, 32.803117 ], [ -85.155549206, 32.802547894 ], [ -85.154698804, 32.8016546 ], [ -85.152751103, 32.800386094 ] ] } },
{ "type": "Feature", "properties": { "site_no": "02339780", "nhdplus_comid": "3298650", "navigation_mode": "DM", "requested_distance_km": 12.0, "start_source": "nwissite", "start_id": "USGS-02339780", "geometry_length_km": 1.4614454867814457 }, "geometry": { "type": "LineString", "coordinates": [ [ -85.152751103, 32.800386094 ], [ -85.152019501, 32.799909696 ], [ -85.149458602, 32.799664699 ], [ -85.147642806, 32.799896896 ], [ -85.145580404, 32.799564093 ], [ -85.144927002, 32.798418894 ], [ -85.1424632, 32.796288393 ], [ -85.141988203, 32.795024894 ], [ -85.141085707, 32.793923497 ] ] } },
{ "type": "Feature", "properties": { "site_no": "02339780", "nhdplus_comid": "3298656", "navigation_mode": "DM", "requested_distance_km": 12.0, "start_source": "nwissite", "start_id": "USGS-02339780", "geometry_length_km": 0.063642728404664228 }, "geometry": { "type": "LineString", "coordinates": [ [ -85.141085707, 32.793923497 ], [ -85.140660606, 32.793476798 ] ] } },
{ "type": "Feature", "properties": { "site_no": "02339780", "nhdplus_comid": "3298664", "navigation_mode": "DM", "requested_distance_km": 12.0, "start_source": "nwissite", "start_id": "USGS-02339780", "geometry_length_km": 4.7675065585240466 }, "geometry": { "type": "LineString", "coordinates": [ [ -85.140660606, 32.793476798 ], [ -85.139474802, 32.792077497 ], [ -85.1389632, 32.791081198 ], [ -85.138826802, 32.789714798 ], [ -85.138561904, 32.789283395 ], [ -85.139126003, 32.7863601 ], [ -85.138417706, 32.785615593 ], [ -85.137334302, 32.785241097 ], [ -85.134755403, 32.785129294 ], [ -85.133992001, 32.784785494 ], [ -85.1322923, 32.782998495 ], [ -85.132205807, 32.782448895 ], [ -85.130327702, 32.780780099 ], [ -85.126665704, 32.780293494 ], [ -85.124979101, 32.779590398 ], [ -85.123138003, 32.777654298 ], [ -85.121124201, 32.774618998 ], [ -85.121523306, 32.772897899 ], [ -85.123325706, 32.771582097 ], [ -85.125264101, 32.771632798 ], [ -85.126691103, 32.770686999 ], [ -85.127687901, 32.770511895 ], [ -85.129631706, 32.769344993 ], [ -85.131323501, 32.768830597 ], [ -85.134515807, 32.766835898 ] ] } },
{ "type": "Feature", "properties": { "site_no": "02339780", "nhdplus_comid": "3298668", "navigation_mode": "DM", "requested_distance_km": 12.0, "start_source": "nwissite", "start_id": "USGS-02339780", "geometry_length_km": 0.26601503912853264 }, "geometry": { "type": "LineString", "coordinates": [ [ -85.134515807, 32.766835898 ], [ -85.1372751, 32.766220696 ] ] } },
{ "type": "Feature", "properties": { "site_no": "02339780", "nhdplus_comid": "3298674", "navigation_mode": "DM", "requested_distance_km": 12.0, "start_source": "nwissite", "start_id": "USGS-02339780", "geometry_length_km": 3.3446472749263805 }, "geometry": { "type": "LineString", "coordinates": [ [ -85.1372751, 32.766220696 ], [ -85.139541201, 32.764475495 ], [ -85.140684806, 32.763231695 ], [ -85.1412303, 32.760441899 ], [ -85.141044207, 32.758258596 ], [ -85.140249602, 32.756964393 ], [ -85.140218101, 32.756013997 ], [ -85.139405206, 32.754853398 ], [ -85.138739206, 32.752624094 ], [ -85.135728903, 32.749763995 ], [ -85.135377601, 32.748783 ], [ -85.133395404, 32.746698096 ], [ -85.132349305, 32.746056296 ], [ -85.130367205, 32.7439714 ], [ -85.1280232, 32.743340395 ], [ -85.126263805, 32.743171595 ] ] } },
{ "type": "Feature", "properties": { "site_no": "02339780", "nhdplus_comid": "3298680", "navigation_mode": "DM", "requested_distance_km": 12.0, "start_source": "nwissite", "start_id": "USGS-02339780", "geometry_length_km": 1.347067756140756 }, "geometry": { "type": "LineString", "coordinates": [ [ -85.126263805, 32.743171595 ], [ -85.1235632, 32.742776997 ], [ -85.121895805, 32.741940193 ], [ -85.120776206, 32.741832696 ], [ -85.117651001, 32.740991093 ], [ -85.115983702, 32.740154199 ], [ -85.113860801, 32.737919994 ] ] } }
]
}
