{
"type": "FeatureCollection",
"name": "USGS_02450180_DM_12km",
"crs": { "type": "name", "properties": { "name": "urn:ogc:def:crs:OGC:1.3:CRS84" } },
"features": [
{ "type": "Feature", "properties": { "site_no": "02450180", "nhdplus_comid": "18590656", "navigation_mode": "DM", "requested_distance_km": 12.0, "start_source": "nwissite", "start_id": "USGS-02450180", "geometry_length_km": 0.99449254042200597 }, "geometry": { "type": "LineString", "coordinates": [ [ -86.92227112, 33.872549174 ], [ -86.923444003, 33.872477196 ], [ -86.924267806, 33.8722708 ], [ -86.925173804, 33.871903896 ], [ -86.931048505, 33.868167296 ], [ -86.9311582, 33.867892094 ] ] } },
{ "type": "Feature", "properties": { "site_no": "02450180", "nhdplus_comid": "18590660", "navigation_mode": "DM", "requested_distance_km": 12.0, "start_source": "nwissite", "start_id": "USGS-02450180", "geometry_length_km": 1.1282240714064162 }, "geometry": { "type": "LineString", "coordinates": [ [ -86.9311582, 33.867892094 ], [ -86.931460306, 33.867823295 ], [ -86.931954406, 33.867548198 ], [ -86.932558507, 33.867387697 ], [ -86.934535705, 33.867363796 ], [ -86.938764602, 33.866972193 ], [ -86.943268307, 33.866878293 ] ] } },
{ "type": "Feature", "properties": { "site_no": "02450180", "nhdplus_comid": "18590670", "navigation_mode": "DM", "requested_distance_km": 12.0, "start_source": "nwissite", "start_id": "USGS-02450180", "geometry_length_km": 3.8761369691706817 }, "geometry": { "type": "LineString", "coordinates": [ [ -86.943268307, 33.866878293 ], [ -86.944916204, 33.867129393 ], [ -86.946179904, 33.867678493 ], [ -86.946674503, 33.867975995 ], [ -86.950412504, 33.871410295 ], [ -86.951099403, 33.871799298 ], [ -86.951703504, 33.871730193 ], [ -86.952142507, 33.871225893 ], [ -86.952306606, 33.870538495 ], [ -86.952389002, 33.8704926 ], [ -86.952635303, 33.869530395 ], [ -86.952442005, 33.868407898 ], [ -86.952221803, 33.867881097 ], [ -86.951176703, 33.8661865 ], [ -86.950406902, 33.865178898 ], [ -86.949912205, 33.864721097 ], [ -86.948263407, 33.8635078 ], [ -86.947246306, 33.862248398 ], [ -86.947301, 33.861950599 ], [ -86.947547905, 33.8617213 ], [ -86.948399, 33.861491799 ], [ -86.949717104, 33.861490995 ], [ -86.950458705, 33.861696795 ], [ -86.951255403, 33.862200297 ], [ -86.953866601, 33.864672899 ], [ -86.954443701, 33.865061894 ], [ -86.955679901, 33.865565099 ], [ -86.957630202, 33.866113797 ], [ -86.959031202, 33.866593897 ], [ -86.960679606, 33.867279999 ], [ -86.962190606, 33.867805898 ] ] } },
{ "type": "Feature", "properties": { "site_no": "02450180", "nhdplus_comid": "18590686", "navigation_mode": "DM", "requested_distance_km": 12.0, "start_source": "nwissite", "start_id": "USGS-02450180", "geometry_length_km": 2.1926870728204739 }, "geometry": { "type": "LineString", "coordinates": [ [ -86.962190606, 33.867805898 ], [ -86.962602504, 33.867805697 ], [ -86.962932006, 33.867713794 ], [ -86.963124007, 33.867507495 ], [ -86.963178404, 33.867072098 ], [ -86.962985806, 33.866659895 ], [ -86.9614188, 33.864988595 ], [ -86.960511103, 33.863614693 ], [ -86.9598222, 33.861209795 ], [ -86.959739804, 33.861163996 ], [ -86.959436603, 33.859972797 ], [ -86.959354103, 33.859927095 ], [ -86.959326401, 33.859629296 ], [ -86.959161207, 33.859285794 ], [ -86.959133402, 33.8587818 ], [ -86.959352307, 33.858185999 ], [ -86.959764101, 33.858048297 ], [ -86.9654212, 33.8585255 ], [ -86.966410004, 33.858730897 ], [ -86.969211705, 33.859553695 ], [ -86.969349302, 33.8597368 ] ] } },
{ "type": "Feature", "properties": { "site_no": "02450180", "nhdplus_comid": "18590674", "navigation_mode": "DM", "requested_distance_km": 12.0, "start_source": "nwissite", "start_id": "USGS-02450180", "geometry_length_km": 0.36839111907624916 }, "geometry": { "type": "LineString", "coordinates": [ [ -86.969349302, 33.8597368 ], [ -86.969623901, 33.859759495 ], [ -86.971738905, 33.860353395 ], [ -86.973221906, 33.860535599 ] ] } },
{ "type": "Feature", "properties": { "site_no": "02450180", "nhdplus_comid": "18590678", "navigation_mode": "DM", "requested_distance_km": 12.0, "start_source": "nwissite", "start_id": "USGS-02450180", "geometry_length_km": 1.5797189057277878 }, "geometry": { "type": "LineString", "coordinates": [ [ -86.973221906, 33.860535599 ], [ -86.974952005, 33.860557199 ], [ -86.978246003, 33.859638095 ], [ -86.979289204, 33.8594082 ], [ -86.982282706, 33.859703399 ], [ -86.985138707, 33.859838493 ], [ -86.988296703, 33.859858498 ], [ -86.990163706, 33.8597195 ] ] } },
{ "type": "Feature", "properties": { "site_no": "02450180", "nhdplus_comid": "18590676", "navigation_mode": "DM", "requested_distance_km": 12.0, "start_source": "nwissite", "start_id": "USGS-02450180", "geometry_length_km": 1.4702027789368746 }, "geometry": { "type": "LineString", "coordinates": [ [ -86.990163706, 33.8597195 ], [ -86.991976202, 33.859809294 ], [ -86.992772907, 33.860106394 ], [ -86.9932677, 33.860495396 ], [ -86.993625402, 33.860998996 ], [ -86.994122006, 33.862647995 ], [ -86.994565107, 33.865327895 ], [ -86.995337404, 33.8675723 ], [ -86.995942906, 33.868602596 ], [ -86.996382907, 33.869014598 ], [ -86.997757107, 33.869792193 ] ] } },
{ "type": "Feature", "properties": { "site_no": "02450180", "nhdplus_comid": "18590654", "navigation_mode": "DM", "requested_distance_km": 12.0, "start_source": "nwissite", "start_id": "USGS-02450180", "geometry_length_km": 0.2130232432736763 }, "geometry": { "type": "LineString", "coordinates": [ [ -86.997757107, 33.869792193 ], [ -86.998059303, 33.869814798 ], [ -86.998553902, 33.869997598 ], [ -86.999487907, 33.870179899 ], [ -87.000000805, 33.870202295 ] ] } }
]
}
