{
"type": "FeatureCollection",
"name": "USGS_03587200_DM_12km",
"crs": { "type": "name", "properties": { "name": "urn:ogc:def:crs:OGC:1.3:CRS84" } },
"features": [
{ "type": "Feature", "properties": { "site_no": "03587200", "nhdplus_comid": "19577115", "navigation_mode": "DM", "requested_distance_km": 12.0, "start_source": "nwissite", "start_id": "USGS-03587200", "geometry_length_km": 0.64716006058552478 }, "geometry": { "type": "LineString", "coordinates": [ [ -87.366509077, 35.141861151 ], [ -87.366514206, 35.141797796 ], [ -87.366179802, 35.140904598 ], [ -87.366402902, 35.139713496 ], [ -87.366291501, 35.138934799 ], [ -87.365315907, 35.137308493 ], [ -87.365065001, 35.136621393 ], [ -87.365065001, 35.136346593 ] ] } },
{ "type": "Feature", "properties": { "site_no": "03587200", "nhdplus_comid": "19577147", "navigation_mode": "DM", "requested_distance_km": 12.0, "start_source": "nwissite", "start_id": "USGS-03587200", "geometry_length_km": 0.77143339062976135 }, "geometry": { "type": "LineString", "coordinates": [ [ -87.365065001, 35.136346593 ], [ -87.364842102, 35.135705195 ], [ -87.364702806, 35.134582996 ], [ -87.364563406, 35.134170696 ], [ -87.364173204, 35.133735493 ], [ -87.363448404, 35.132635996 ], [ -87.363002405, 35.1324986 ], [ -87.362695701, 35.132269494 ], [ -87.362640105, 35.131467797 ], [ -87.362054802, 35.130414195 ], [ -87.361859605, 35.130276799 ] ] } },
{ "type": "Feature", "properties": { "site_no": "03587200", "nhdplus_comid": "19577233", "navigation_mode": "DM", "requested_distance_km": 12.0, "start_source": "nwissite", "start_id": "USGS-03587200", "geometry_length_km": 2.1228694834965731 }, "geometry": { "type": "LineString", "coordinates": [ [ -87.361859605, 35.130276799 ], [ -87.361831807, 35.130093597 ], [ -87.361608803, 35.1298187 ], [ -87.361581102, 35.129543796 ], [ -87.361720607, 35.128971294 ], [ -87.361581206, 35.128513195 ], [ -87.361497603, 35.128467299 ], [ -87.3614977, 35.127734393 ], [ -87.362111107, 35.126955695 ], [ -87.362557203, 35.1262687 ], [ -87.362947702, 35.125077695 ], [ -87.363589205, 35.123130895 ], [ -87.364815801, 35.121481895 ], [ -87.365680106, 35.120519996 ], [ -87.366126202, 35.11981 ], [ -87.366154104, 35.119512297 ], [ -87.365931302, 35.118847996 ], [ -87.366572507, 35.117679998 ], [ -87.367046505, 35.116007999 ], [ -87.367604107, 35.115023196 ], [ -87.368412502, 35.114473499 ], [ -87.368886404, 35.114336096 ], [ -87.369109303, 35.1141987 ], [ -87.369583204, 35.113580294 ], [ -87.369778305, 35.113488697 ] ] } },
{ "type": "Feature", "properties": { "site_no": "03587200", "nhdplus_comid": "19577249", "navigation_mode": "DM", "requested_distance_km": 12.0, "start_source": "nwissite", "start_id": "USGS-03587200", "geometry_length_km": 0.2289803189779305 }, "geometry": { "type": "LineString", "coordinates": [ [ -87.369778305, 35.113488697 ], [ -87.369555503, 35.1114503 ] ] } },
{ "type": "Feature", "properties": { "site_no": "03587200", "nhdplus_comid": "19577261", "navigation_mode": "DM", "requested_distance_km": 12.0, "start_source": "nwissite", "start_id": "USGS-03587200", "geometry_length_km": 0.13309431389653867 }, "geometry": { "type": "LineString", "coordinates": [ [ -87.369555503, 35.1114503 ], [ -87.369862102, 35.111427397 ], [ -87.370252207, 35.111267097 ], [ -87.370976903, 35.111221194 ] ] } },
{ "type": "Feature", "properties": { "site_no": "03587200", "nhdplus_comid": "19577335", "navigation_mode": "DM", "requested_distance_km": 12.0, "start_source": "nwissite", "start_id": "USGS-03587200", "geometry_length_km": 2.312629873130402 }, "geometry": { "type": "LineString", "coordinates": [ [ -87.370976903, 35.111221194 ], [ -87.3710884, 35.110717297 ], [ -87.371311501, 35.1104654 ], [ -87.372259103, 35.109846994 ], [ -87.372649305, 35.109159894 ], [ -87.372983806, 35.108129196 ], [ -87.373875804, 35.107190199 ], [ -87.3739594, 35.105701394 ], [ -87.374405302, 35.104327098 ], [ -87.375046402, 35.103754498 ], [ -87.375492305, 35.103342295 ], [ -87.376105405, 35.103158996 ], [ -87.376969405, 35.102678098 ], [ -87.377025105, 35.101303793 ], [ -87.377498806, 35.100341797 ], [ -87.378529906, 35.099975199 ], [ -87.379143007, 35.099356793 ], [ -87.379811905, 35.099288099 ], [ -87.380843006, 35.099562898 ], [ -87.381010205, 35.099402495 ], [ -87.381483905, 35.0985322 ], [ -87.381706804, 35.0978451 ], [ -87.382236205, 35.0974328 ], [ -87.382431202, 35.097157896 ], [ -87.382542804, 35.096585296 ], [ -87.382403404, 35.096012697 ], [ -87.381873906, 35.095371395 ] ] } },
{ "type": "Feature", "properties": { "site_no": "03587200", "nhdplus_comid": "19577439", "navigation_mode": "DM", "requested_distance_km": 12.0, "start_source": "nwissite", "start_id": "USGS-03587200", "geometry_length_km": 2.020476649105778 }, "geometry": { "type": "LineString", "coordinates": [ [ -87.381873906, 35.095371395 ], [ -87.381873801, 35.0950507 ], [ -87.381455801, 35.0943866 ], [ -87.381344207, 35.093859799 ], [ -87.381009705, 35.093333095 ], [ -87.380786806, 35.0927146 ], [ -87.380758904, 35.092073299 ], [ -87.380842403, 35.091569394 ], [ -87.381037407, 35.091180094 ], [ -87.381037407, 35.089943193 ], [ -87.380507901, 35.089072898 ], [ -87.380535707, 35.088339999 ], [ -87.381204307, 35.0860954 ], [ -87.381761305, 35.083529994 ], [ -87.381928504, 35.083300993 ], [ -87.382235005, 35.083186395 ], [ -87.382625103, 35.083323896 ], [ -87.383043103, 35.083690293 ], [ -87.383293904, 35.083781794 ], [ -87.383656003, 35.0835528 ], [ -87.384352602, 35.082682393 ], [ -87.384352401, 35.081857897 ], [ -87.384129502, 35.081285298 ], [ -87.384017907, 35.080575295 ], [ -87.383599907, 35.080025598 ] ] } },
{ "type": "Feature", "properties": { "site_no": "03587200", "nhdplus_comid": "19577489", "navigation_mode": "DM", "requested_distance_km": 12.0, "start_source": "nwissite", "start_id": "USGS-03587200", "geometry_length_km": 1.3925001749427988 }, "geometry": { "type": "LineString", "coordinates": [ [ -87.383599907, 35.080025598 ], [ -87.383377105, 35.079269893 ], [ -87.383627705, 35.078445196 ], [ -87.384240605, 35.077964097 ], [ -87.384797804, 35.077849597 ], [ -87.385605901, 35.0782618 ], [ -87.388002001, 35.078261599 ], [ -87.388726205, 35.077711798 ], [ -87.3898964, 35.077322297 ], [ -87.390871301, 35.0766121 ], [ -87.391344801, 35.076062299 ], [ -87.3920689, 35.074710898 ], [ -87.391957, 35.072786994 ] ] } },
{ "type": "Feature", "properties": { "site_no": "03587200", "nhdplus_comid": "19577511", "navigation_mode": "DM", "requested_distance_km": 12.0, "start_source": "nwissite", "start_id": "USGS-03587200", "geometry_length_km": 0.18457844839273568 }, "geometry": { "type": "LineString", "coordinates": [ [ -87.391957, 35.072786994 ], [ -87.391929001, 35.072191499 ], [ -87.391733907, 35.071710497 ], [ -87.391288102, 35.071298294 ] ] } },
{ "type": "Feature", "properties": { "site_no": "03587200", "nhdplus_comid": "19577551", "navigation_mode": "DM", "requested_distance_km": 12.0, "start_source": "nwissite", "start_id": "USGS-03587200", "geometry_length_km": 3.076402212774612 }, "geometry": { "type": "LineString", "coordinates": [ [ -87.391288102, 35.071298294 ], [ -87.391427204, 35.070130199 ], [ -87.391566403, 35.069855295 ], [ -87.392179407, 35.069488697 ], [ -87.394240707, 35.069373898 ], [ -87.394937105, 35.069465496 ], [ -87.395578004, 35.069717295 ], [ -87.397333503, 35.071343094 ], [ -87.397779204, 35.071503393 ], [ -87.398308605, 35.0715032 ], [ -87.398726404, 35.071388595 ], [ -87.398754202, 35.071090899 ], [ -87.398392007, 35.070678696 ], [ -87.398391902, 35.070449695 ], [ -87.398781903, 35.070312098 ], [ -87.399227604, 35.070266299 ], [ -87.399617605, 35.0704723 ], [ -87.399896204, 35.070472196 ], [ -87.400035106, 35.068983398 ], [ -87.400508307, 35.067334294 ], [ -87.400758803, 35.067013495 ], [ -87.401761703, 35.066944599 ], [ -87.402486004, 35.067058899 ], [ -87.404686704, 35.066852294 ], [ -87.408530906, 35.066713795 ], [ -87.409422301, 35.066850998 ], [ -87.409979403, 35.066736296 ], [ -87.411650702, 35.066094398 ], [ -87.414352201, 35.064604893 ], [ -87.415298805, 35.063779995 ], [ -87.415995203, 35.063665196 ] ] } }
]
}
