{
"type": "FeatureCollection",
"name": "USGS_03576500_DM_12km",
"crs": { "type": "name", "properties": { "name": "urn:ogc:def:crs:OGC:1.3:CRS84" } },
"features": [
{ "type": "Feature", "properties": { "site_no": "03576500", "nhdplus_comid": "19626108", "navigation_mode": "DM", "requested_distance_km": 12.0, "start_source": "nwissite", "start_id": "USGS-03576500", "geometry_length_km": 4.1382276007679009 }, "geometry": { "type": "LineString", "coordinates": [ [ -86.933975879, 34.373023244 ], [ -86.933544502, 34.373291895 ], [ -86.933103003, 34.374185398 ], [ -86.932717003, 34.375101894 ], [ -86.932551406, 34.375422694 ], [ -86.932524204, 34.376109995 ], [ -86.932856105, 34.376659594 ], [ -86.933906503, 34.377369195 ], [ -86.934487104, 34.377941594 ], [ -86.9346532, 34.378262199 ], [ -86.934598006, 34.378537193 ], [ -86.933907405, 34.378743693 ], [ -86.933824703, 34.379110098 ], [ -86.933963105, 34.379224598 ], [ -86.934819706, 34.379476197 ], [ -86.935040906, 34.379682295 ], [ -86.935096703, 34.380438097 ], [ -86.935843103, 34.381056294 ], [ -86.936147004, 34.380987398 ], [ -86.936478302, 34.3805978 ], [ -86.936533406, 34.380414493 ], [ -86.936947607, 34.3801165 ], [ -86.937334403, 34.380139299 ], [ -86.937445, 34.380276695 ], [ -86.937279806, 34.381101295 ], [ -86.937335305, 34.381284595 ], [ -86.937611602, 34.381444797 ], [ -86.938081302, 34.381352894 ], [ -86.938246906, 34.381146699 ], [ -86.938219003, 34.380757295 ], [ -86.937997706, 34.380482495 ], [ -86.937914707, 34.380230494 ], [ -86.937997401, 34.379955597 ], [ -86.938273504, 34.379749298 ], [ -86.938632704, 34.379795 ], [ -86.938992105, 34.380115494 ], [ -86.939545602, 34.381375194 ], [ -86.939988904, 34.382817999 ], [ -86.940099701, 34.383298993 ], [ -86.940156206, 34.384787895 ], [ -86.940018304, 34.385131598 ], [ -86.939300306, 34.385590099 ], [ -86.938664906, 34.385819495 ], [ -86.936951905, 34.386095196 ], [ -86.935432404, 34.386187598 ], [ -86.934354402, 34.385730095 ], [ -86.933995306, 34.385775998 ], [ -86.9337468, 34.386005193 ], [ -86.932615303, 34.388021499 ], [ -86.930600002, 34.390610896 ], [ -86.930489704, 34.390977398 ], [ -86.930655606, 34.391206399 ], [ -86.931291305, 34.391412295 ], [ -86.931263804, 34.391641393 ], [ -86.930462904, 34.392351896 ], [ -86.930408403, 34.393588796 ], [ -86.930242807, 34.393680498 ], [ -86.930049203, 34.393657699 ], [ -86.929385804, 34.393291496 ] ] } },
{ "type": "Feature", "properties": { "site_no": "03576500", "nhdplus_comid": "19625370", "navigation_mode": "DM", "requested_distance_km": 12.0, "start_source": "nwissite", "start_id": "USGS-03576500", "geometry_length_km": 0.15329648205275651 }, "geometry": { "type": "LineString", "coordinates": [ [ -86.929385804, 34.393291496 ], [ -86.928750202, 34.393383399 ], [ -86.928335905, 34.393635593 ], [ -86.928197801, 34.3938189 ], [ -86.928170301, 34.394025095 ] ] } },
{ "type": "Feature", "properties": { "site_no": "03576500", "nhdplus_comid": "19625354", "navigation_mode": "DM", "requested_distance_km": 12.0, "start_source": "nwissite", "start_id": "USGS-03576500", "geometry_length_km": 1.1703684082773138 }, "geometry": { "type": "LineString", "coordinates": [ [ -86.928170301, 34.394025095 ], [ -86.929773703, 34.394894794 ], [ -86.929829203, 34.395077996 ], [ -86.929083504, 34.395788394 ], [ -86.929083504, 34.395948797 ], [ -86.929415405, 34.396315195 ], [ -86.929388002, 34.3965443 ], [ -86.929084301, 34.397025399 ], [ -86.929637901, 34.398399599 ], [ -86.929997601, 34.399246998 ], [ -86.9302743, 34.399727896 ], [ -86.930854805, 34.400048397 ], [ -86.931739107, 34.400047995 ], [ -86.933424704, 34.399772294 ], [ -86.934364207, 34.399496995 ] ] } },
{ "type": "Feature", "properties": { "site_no": "03576500", "nhdplus_comid": "19625396", "navigation_mode": "DM", "requested_distance_km": 12.0, "start_source": "nwissite", "start_id": "USGS-03576500", "geometry_length_km": 1.9547174186926501 }, "geometry": { "type": "LineString", "coordinates": [ [ -86.934364207, 34.399496995 ], [ -86.935551904, 34.398648798 ], [ -86.936049201, 34.398488298 ], [ -86.936850503, 34.398419194 ], [ -86.937873401, 34.398807995 ], [ -86.938343406, 34.399197198 ], [ -86.9386198, 34.399288699 ], [ -86.938979, 34.399288595 ], [ -86.939393505, 34.399105094 ], [ -86.939973302, 34.398531996 ], [ -86.940166406, 34.398142494 ], [ -86.940854706, 34.394706197 ], [ -86.9412129, 34.3934232 ], [ -86.941516705, 34.393239796 ], [ -86.941875905, 34.393216699 ], [ -86.942207702, 34.393468499 ], [ -86.942705102, 34.393582799 ], [ -86.942843206, 34.393376596 ], [ -86.942870602, 34.393010095 ], [ -86.942649007, 34.392460398 ], [ -86.942925006, 34.392093696 ], [ -86.943449907, 34.391933098 ], [ -86.943781503, 34.391703799 ], [ -86.944002107, 34.391268499 ], [ -86.944333702, 34.391176693 ], [ -86.945439607, 34.392023593 ], [ -86.946296707, 34.392504193 ], [ -86.946296707, 34.392595798 ] ] } },
{ "type": "Feature", "properties": { "site_no": "03576500", "nhdplus_comid": "19625384", "navigation_mode": "DM", "requested_distance_km": 12.0, "start_source": "nwissite", "start_id": "USGS-03576500", "geometry_length_km": 0.52315169729624755 }, "geometry": { "type": "LineString", "coordinates": [ [ -86.946296707, 34.392595798 ], [ -86.9466561, 34.392733 ], [ -86.947457902, 34.393328093 ], [ -86.948010802, 34.393511094 ], [ -86.948618807, 34.393602297 ], [ -86.949199401, 34.393991396 ], [ -86.949393101, 34.394311994 ], [ -86.949448705, 34.394609697 ], [ -86.950306207, 34.395594299 ] ] } },
{ "type": "Feature", "properties": { "site_no": "03576500", "nhdplus_comid": "19625402", "navigation_mode": "DM", "requested_distance_km": 12.0, "start_source": "nwissite", "start_id": "USGS-03576500", "geometry_length_km": 2.3680693195769549 }, "geometry": { "type": "LineString", "coordinates": [ [ -86.950306207, 34.395594299 ], [ -86.951163203, 34.396051794 ], [ -86.952213503, 34.396234393 ], [ -86.954701103, 34.396828398 ], [ -86.955309004, 34.396736398 ], [ -86.955778606, 34.396552898 ], [ -86.956165001, 34.396117397 ], [ -86.956164703, 34.395728 ], [ -86.956053905, 34.395521894 ], [ -86.9548648, 34.3946293 ], [ -86.953260906, 34.3932788 ], [ -86.952458702, 34.3923859 ], [ -86.952458307, 34.391927794 ], [ -86.952762, 34.391629897 ], [ -86.953342207, 34.391560696 ], [ -86.960168004, 34.3921289 ], [ -86.960831001, 34.3920139 ], [ -86.961438701, 34.391669899 ], [ -86.961687103, 34.3914406 ], [ -86.962929703, 34.390660897 ], [ -86.964283004, 34.389972895 ] ] } }
]
}
