{
"type": "FeatureCollection",
"name": "USGS_02338523_DM_12km",
"crs": { "type": "name", "properties": { "name": "urn:ogc:def:crs:OGC:1.3:CRS84" } },
"features": [
{ "type": "Feature", "properties": { "site_no": "02338523", "nhdplus_comid": "3291248", "navigation_mode": "DM", "requested_distance_km": 12.0, "start_source": "nwissite", "start_id": "USGS-02338523", "geometry_length_km": 0.92806664893615498 }, "geometry": { "type": "LineString", "coordinates": [ [ -85.22647146, 33.340586789 ], [ -85.226477601, 33.340513594 ], [ -85.225685306, 33.339529395 ], [ -85.225084506, 33.339140497 ], [ -85.223392002, 33.338385999 ], [ -85.218859404, 33.335343294 ] ] } },
{ "type": "Feature", "properties": { "site_no": "02338523", "nhdplus_comid": "3291252", "navigation_mode": "DM", "requested_distance_km": 12.0, "start_source": "nwissite", "start_id": "USGS-02338523", "geometry_length_km": 2.3546389239525123 }, "geometry": { "type": "LineString", "coordinates": [ [ -85.218859404, 33.335343294 ], [ -85.218832001, 33.335182995 ], [ -85.217603005, 33.334130295 ], [ -85.2175209, 33.333855495 ], [ -85.2175752, 33.333626494 ], [ -85.217711404, 33.333420299 ], [ -85.219184004, 33.332732096 ], [ -85.219074003, 33.3318161 ], [ -85.218855403, 33.3315643 ], [ -85.218500607, 33.331404299 ], [ -85.217600003, 33.331129998 ], [ -85.217054404, 33.331176296 ], [ -85.2166728, 33.331588797 ], [ -85.216891907, 33.332367294 ], [ -85.217001006, 33.332435898 ], [ -85.216947004, 33.332939893 ], [ -85.216592804, 33.333375193 ], [ -85.2156111, 33.333879799 ], [ -85.214520402, 33.334659196 ], [ -85.214575306, 33.335025698 ], [ -85.214657404, 33.335185997 ], [ -85.216022804, 33.336307198 ], [ -85.215995803, 33.336536296 ], [ -85.215750501, 33.3368112 ], [ -85.215341501, 33.337109298 ], [ -85.214768402, 33.337086797 ], [ -85.211794004, 33.336699493 ], [ -85.211139202, 33.336745694 ], [ -85.2087925, 33.336609796 ], [ -85.208164506, 33.336152196 ], [ -85.207482405, 33.3362213 ] ] } },
{ "type": "Feature", "properties": { "site_no": "02338523", "nhdplus_comid": "3291288", "navigation_mode": "DM", "requested_distance_km": 12.0, "start_source": "nwissite", "start_id": "USGS-02338523", "geometry_length_km": 5.3898769806818549 }, "geometry": { "type": "LineString", "coordinates": [ [ -85.207482405, 33.3362213 ], [ -85.206827506, 33.336061396 ], [ -85.204507306, 33.335055195 ], [ -85.201586403, 33.333224699 ], [ -85.199784406, 33.331622496 ], [ -85.198119007, 33.330363899 ], [ -85.195634604, 33.328281097 ], [ -85.193942405, 33.327297099 ], [ -85.193178102, 33.326770797 ], [ -85.1929323, 33.326473199 ], [ -85.192986704, 33.326129593 ], [ -85.193477705, 33.326037697 ], [ -85.194050804, 33.326312296 ], [ -85.194951504, 33.326975897 ], [ -85.195661001, 33.327181697 ], [ -85.197653301, 33.328027993 ], [ -85.198089905, 33.328096494 ], [ -85.198308103, 33.327958994 ], [ -85.198335104, 33.327729896 ], [ -85.198253006, 33.327409297 ], [ -85.197461307, 33.326676793 ], [ -85.197488107, 33.326127194 ], [ -85.196778007, 33.325051099 ], [ -85.195549205, 33.323631898 ], [ -85.193692304, 33.321159296 ], [ -85.191808701, 33.319625899 ], [ -85.189733706, 33.317130499 ], [ -85.189815402, 33.3167869 ], [ -85.190279007, 33.316695094 ], [ -85.191452205, 33.316946499 ], [ -85.191915907, 33.316923298 ], [ -85.192052104, 33.316740096 ], [ -85.192079201, 33.316350698 ], [ -85.191860601, 33.315915599 ], [ -85.191832602, 33.314930797 ], [ -85.1916961, 33.314724699 ], [ -85.190959305, 33.314473197 ], [ -85.189895004, 33.313694999 ], [ -85.186564706, 33.310261197 ], [ -85.185473204, 33.309528895 ], [ -85.185118407, 33.309345797 ], [ -85.184899807, 33.308681794 ], [ -85.184326701, 33.308201097 ], [ -85.183753803, 33.308040999 ] ] } },
{ "type": "Feature", "properties": { "site_no": "02338523", "nhdplus_comid": "3291290", "navigation_mode": "DM", "requested_distance_km": 12.0, "start_source": "nwissite", "start_id": "USGS-02338523", "geometry_length_km": 0.94600040635225457 }, "geometry": { "type": "LineString", "coordinates": [ [ -85.183753803, 33.308040999 ], [ -85.183780901, 33.307651699 ], [ -85.184244305, 33.307307899 ], [ -85.184734702, 33.306414396 ], [ -85.185279906, 33.305979095 ], [ -85.1857979, 33.305749699 ], [ -85.186970606, 33.305520095 ], [ -85.187461406, 33.305199295 ], [ -85.188142501, 33.3041225 ], [ -85.188687906, 33.303893194 ], [ -85.189014904, 33.303549498 ], [ -85.189614706, 33.303228594 ], [ -85.189723507, 33.302884899 ], [ -85.189968802, 33.302609995 ], [ -85.190514006, 33.302380696 ] ] } },
{ "type": "Feature", "properties": { "site_no": "02338523", "nhdplus_comid": "3291300", "navigation_mode": "DM", "requested_distance_km": 12.0, "start_source": "nwissite", "start_id": "USGS-02338523", "geometry_length_km": 0.46134399106819574 }, "geometry": { "type": "LineString", "coordinates": [ [ -85.190514006, 33.302380696 ], [ -85.190950103, 33.301853694 ], [ -85.191195503, 33.301693298 ], [ -85.192258902, 33.3015095 ], [ -85.193022504, 33.301302999 ], [ -85.193676606, 33.300730094 ], [ -85.193703406, 33.300111696 ], [ -85.193621404, 33.299859799 ] ] } },
{ "type": "Feature", "properties": { "site_no": "02338523", "nhdplus_comid": "3291332", "navigation_mode": "DM", "requested_distance_km": 12.0, "start_source": "nwissite", "start_id": "USGS-02338523", "geometry_length_km": 3.5344194683181027 }, "geometry": { "type": "LineString", "coordinates": [ [ -85.193621404, 33.299859799 ], [ -85.193348706, 33.299837098 ], [ -85.192966707, 33.299654096 ], [ -85.191602401, 33.2986928 ], [ -85.189064205, 33.296220697 ], [ -85.189036705, 33.295968793 ], [ -85.189145602, 33.295739695 ], [ -85.189636402, 33.295510396 ], [ -85.190318204, 33.2955558 ], [ -85.191709802, 33.296402499 ], [ -85.192637101, 33.296539493 ], [ -85.1930461, 33.296447694 ], [ -85.193727501, 33.2958747 ], [ -85.193836205, 33.295347795 ], [ -85.193316907, 33.293790795 ], [ -85.193452306, 33.292645499 ], [ -85.193288505, 33.292508297 ], [ -85.193178706, 33.2915693 ], [ -85.192768805, 33.290493093 ], [ -85.192305006, 33.290172696 ], [ -85.190341607, 33.290311098 ], [ -85.188623302, 33.289968498 ], [ -85.1881596, 33.289670996 ], [ -85.188077703, 33.289487794 ], [ -85.187613606, 33.288961194 ], [ -85.186658703, 33.2883204 ], [ -85.186413005, 33.287747994 ], [ -85.1858401, 33.2874505 ], [ -85.184885405, 33.287084498 ], [ -85.184448905, 33.286832795 ], [ -85.1839035, 33.286718495 ], [ -85.182512805, 33.286696196 ], [ -85.182185404, 33.286513098 ], [ -85.182021201, 33.285917796 ], [ -85.182075307, 33.2850703 ], [ -85.181202404, 33.284681395 ], [ -85.1805472, 33.283490695 ], [ -85.180028804, 33.2829642 ], [ -85.179428801, 33.282620899 ], [ -85.178746901, 33.282369196 ] ] } }
]
}
