{
"type": "FeatureCollection",
"name": "USGS_02342881_UM_12km",
"crs": { "type": "name", "properties": { "name": "urn:ogc:def:crs:OGC:1.3:CRS84" } },
"features": [
{ "type": "Feature", "properties": { "site_no": "02342881", "nhdplus_comid": "3438596", "navigation_mode": "UM", "requested_distance_km": 12.0, "start_source": "nwissite", "start_id": "USGS-02342881", "geometry_length_km": 2.6738346783713816 }, "geometry": { "type": "LineString", "coordinates": [ [ -85.032199003, 32.158596396 ], [ -85.033268802, 32.156668395 ], [ -85.0380769, 32.152124494 ], [ -85.038523205, 32.151219599 ], [ -85.039445601, 32.150361098 ], [ -85.040478401, 32.148700498 ], [ -85.043227106, 32.146258794 ], [ -85.0442781, 32.144464396 ], [ -85.046739206, 32.142942995 ], [ -85.047362402, 32.141919799 ], [ -85.0487791, 32.140974 ], [ -85.049927004, 32.140814997 ], [ -85.050090191, 32.140706045 ] ] } },
{ "type": "Feature", "properties": { "site_no": "02342881", "nhdplus_comid": "3438562", "navigation_mode": "UM", "requested_distance_km": 12.0, "start_source": "nwissite", "start_id": "USGS-02342881", "geometry_length_km": 1.1025701766417837 }, "geometry": { "type": "LineString", "coordinates": [ [ -85.025183305, 32.166311696 ], [ -85.026778005, 32.165248096 ], [ -85.028269105, 32.1637678 ], [ -85.0300477, 32.161367096 ], [ -85.030549303, 32.160061195 ], [ -85.031435102, 32.159470193 ], [ -85.032199003, 32.158596396 ] ] } },
{ "type": "Feature", "properties": { "site_no": "02342881", "nhdplus_comid": "3438556", "navigation_mode": "UM", "requested_distance_km": 12.0, "start_source": "nwissite", "start_id": "USGS-02342881", "geometry_length_km": 1.8242875418844013 }, "geometry": { "type": "LineString", "coordinates": [ [ -85.013019703, 32.178672098 ], [ -85.0136436, 32.1776492 ], [ -85.013735801, 32.176980793 ], [ -85.015851207, 32.174477696 ], [ -85.018424407, 32.172154896 ], [ -85.0234413, 32.168444894 ], [ -85.023991302, 32.167956695 ], [ -85.024474606, 32.166784495 ], [ -85.025183305, 32.166311696 ] ] } },
{ "type": "Feature", "properties": { "site_no": "02342881", "nhdplus_comid": "3438552", "navigation_mode": "UM", "requested_distance_km": 12.0, "start_source": "nwissite", "start_id": "USGS-02342881", "geometry_length_km": 0.57275233149461513 }, "geometry": { "type": "LineString", "coordinates": [ [ -85.008234307, 32.181862399 ], [ -85.013019703, 32.178672098 ] ] } },
{ "type": "Feature", "properties": { "site_no": "02342881", "nhdplus_comid": "3438544", "navigation_mode": "UM", "requested_distance_km": 12.0, "start_source": "nwissite", "start_id": "USGS-02342881", "geometry_length_km": 0.55443982759790533 }, "geometry": { "type": "LineString", "coordinates": [ [ -85.002423905, 32.182666898 ], [ -85.002986707, 32.182568394 ], [ -85.005582802, 32.182415999 ], [ -85.008234307, 32.181862399 ] ] } },
{ "type": "Feature", "properties": { "site_no": "02342881", "nhdplus_comid": "3438542", "navigation_mode": "UM", "requested_distance_km": 12.0, "start_source": "nwissite", "start_id": "USGS-02342881", "geometry_length_km": 0.23947022133332854 }, "geometry": { "type": "LineString", "coordinates": [ [ -84.999929406, 32.183117695 ], [ -85.000017606, 32.183090799 ], [ -85.000087105, 32.183078498 ], [ -85.000233203, 32.183052793 ], [ -85.000379205, 32.183027096 ], [ -85.000525303, 32.183001399 ], [ -85.000671305, 32.182975598 ], [ -85.000817403, 32.182949893 ], [ -85.000963405, 32.182924196 ], [ -85.001109503, 32.182898499 ], [ -85.001255505, 32.182872698 ], [ -85.001401603, 32.182846993 ], [ -85.001547605, 32.182821296 ], [ -85.001693703, 32.182795599 ], [ -85.001839705, 32.182769798 ], [ -85.001985706, 32.182744093 ], [ -85.002131805, 32.182718396 ], [ -85.002277806, 32.182692595 ], [ -85.002423905, 32.182666898 ] ] } },
{ "type": "Feature", "properties": { "site_no": "02342881", "nhdplus_comid": "3434454", "navigation_mode": "UM", "requested_distance_km": 12.0, "start_source": "nwissite", "start_id": "USGS-02342881", "geometry_length_km": 0.21909973348520115 }, "geometry": { "type": "LineString", "coordinates": [ [ -84.9979458, 32.184107393 ], [ -84.997964904, 32.184094697 ], [ -84.998069301, 32.184025094 ], [ -84.998173803, 32.183955498 ], [ -84.998278201, 32.183885895 ], [ -84.998382702, 32.183816299 ], [ -84.9984871, 32.183746696 ], [ -84.998591602, 32.183676995 ], [ -84.998696007, 32.183607399 ], [ -84.998800501, 32.183537796 ], [ -84.998905003, 32.1834682 ], [ -84.999009401, 32.183398597 ], [ -84.999015607, 32.183396697 ], [ -84.999140903, 32.183358394 ], [ -84.999266103, 32.183320194 ], [ -84.999391407, 32.183281995 ], [ -84.999516606, 32.183243699 ], [ -84.999641903, 32.1832055 ], [ -84.999767102, 32.183167294 ], [ -84.999892302, 32.183128998 ], [ -84.999929406, 32.183117695 ] ] } },
{ "type": "Feature", "properties": { "site_no": "02342881", "nhdplus_comid": "3434450", "navigation_mode": "UM", "requested_distance_km": 12.0, "start_source": "nwissite", "start_id": "USGS-02342881", "geometry_length_km": 2.5364294993771628 }, "geometry": { "type": "LineString", "coordinates": [ [ -84.972701505, 32.192066297 ], [ -84.9742603, 32.191270694 ], [ -84.980927207, 32.189621195 ], [ -84.990692504, 32.186513394 ], [ -84.996461205, 32.184368499 ], [ -84.9979458, 32.184107393 ] ] } },
{ "type": "Feature", "properties": { "site_no": "02342881", "nhdplus_comid": "3434446", "navigation_mode": "UM", "requested_distance_km": 12.0, "start_source": "nwissite", "start_id": "USGS-02342881", "geometry_length_km": 1.467918473005565 }, "geometry": { "type": "LineString", "coordinates": [ [ -84.963165104, 32.200479299 ], [ -84.962836802, 32.199363098 ], [ -84.963133305, 32.197224297 ], [ -84.964504406, 32.195461996 ], [ -84.966613904, 32.194178693 ], [ -84.9684349, 32.1938155 ], [ -84.972701505, 32.192066297 ] ] } },
{ "type": "Feature", "properties": { "site_no": "02342881", "nhdplus_comid": "3434444", "navigation_mode": "UM", "requested_distance_km": 12.0, "start_source": "nwissite", "start_id": "USGS-02342881", "geometry_length_km": 2.4176803010064587 }, "geometry": { "type": "LineString", "coordinates": [ [ -84.979665704, 32.211225897 ], [ -84.979751304, 32.210913397 ], [ -84.980161503, 32.210276194 ], [ -84.980439, 32.208271094 ], [ -84.976949103, 32.204406194 ], [ -84.974267505, 32.2040077 ], [ -84.97112, 32.204647399 ], [ -84.966794401, 32.204493895 ], [ -84.966196202, 32.2041642 ], [ -84.965073705, 32.202970095 ], [ -84.964568101, 32.201971993 ], [ -84.963165104, 32.200479299 ] ] } }
]
}
