{
"type": "FeatureCollection",
"name": "USGS_02469761_UM_12km",
"crs": { "type": "name", "properties": { "name": "urn:ogc:def:crs:OGC:1.3:CRS84" } },
"features": [
{ "type": "Feature", "properties": { "site_no": "02469761", "nhdplus_comid": "18548516", "navigation_mode": "UM", "requested_distance_km": 12.0, "start_source": "nwissite", "start_id": "USGS-02469761", "geometry_length_km": 4.3587392171861632 }, "geometry": { "type": "LineString", "coordinates": [ [ -88.161750302, 31.769809298 ], [ -88.159702502, 31.767900094 ], [ -88.159060702, 31.766846098 ], [ -88.155952007, 31.763601094 ], [ -88.150636002, 31.758561395 ], [ -88.143718205, 31.753156699 ], [ -88.141610004, 31.751873493 ], [ -88.1403156, 31.751404196 ], [ -88.137936905, 31.7513633 ], [ -88.137320802, 31.751572296 ], [ -88.135879301, 31.752606295 ], [ -88.135387205, 31.754589997 ], [ -88.134869806, 31.755310498 ], [ -88.133107901, 31.756574199 ], [ -88.1312593, 31.757201098 ], [ -88.130051404, 31.757368498 ], [ -88.12872417, 31.758110034 ] ] } },
{ "type": "Feature", "properties": { "site_no": "02469761", "nhdplus_comid": "18548512", "navigation_mode": "UM", "requested_distance_km": 12.0, "start_source": "nwissite", "start_id": "USGS-02469761", "geometry_length_km": 0.55038682554680263 }, "geometry": { "type": "LineString", "coordinates": [ [ -88.163245603, 31.774328597 ], [ -88.163270004, 31.774078093 ], [ -88.162862904, 31.773671195 ], [ -88.162269905, 31.772116095 ], [ -88.162428901, 31.770487495 ], [ -88.161750302, 31.769809298 ] ] } },
{ "type": "Feature", "properties": { "site_no": "02469761", "nhdplus_comid": "18548510", "navigation_mode": "UM", "requested_distance_km": 12.0, "start_source": "nwissite", "start_id": "USGS-02469761", "geometry_length_km": 1.7049155595387024 }, "geometry": { "type": "LineString", "coordinates": [ [ -88.165957905, 31.789275698 ], [ -88.165550701, 31.7888688 ], [ -88.164834, 31.7870529 ], [ -88.164287403, 31.781969398 ], [ -88.164309405, 31.778691597 ], [ -88.163504802, 31.774725199 ], [ -88.163245603, 31.774328597 ] ] } },
{ "type": "Feature", "properties": { "site_no": "02469761", "nhdplus_comid": "18548500", "navigation_mode": "UM", "requested_distance_km": 12.0, "start_source": "nwissite", "start_id": "USGS-02469761", "geometry_length_km": 3.4016745285434582 }, "geometry": { "type": "LineString", "coordinates": [ [ -88.180720806, 31.816667199 ], [ -88.180745207, 31.816416599 ], [ -88.1804858, 31.816020094 ], [ -88.180324003, 31.814621493 ], [ -88.179100201, 31.8118876 ], [ -88.178802602, 31.810353294 ], [ -88.173811905, 31.801932894 ], [ -88.1710217, 31.798458599 ], [ -88.169218704, 31.795557797 ], [ -88.167107604, 31.792761497 ], [ -88.165983602, 31.790538795 ], [ -88.165785506, 31.789515898 ], [ -88.165957905, 31.789275698 ] ] } },
{ "type": "Feature", "properties": { "site_no": "02469761", "nhdplus_comid": "18548484", "navigation_mode": "UM", "requested_distance_km": 12.0, "start_source": "nwissite", "start_id": "USGS-02469761", "geometry_length_km": 0.53043287567053143 }, "geometry": { "type": "LineString", "coordinates": [ [ -88.179689206, 31.821135499 ], [ -88.180723906, 31.819694296 ], [ -88.180968001, 31.817188896 ], [ -88.180720806, 31.816667199 ] ] } },
{ "type": "Feature", "properties": { "site_no": "02469761", "nhdplus_comid": "18548474", "navigation_mode": "UM", "requested_distance_km": 12.0, "start_source": "nwissite", "start_id": "USGS-02469761", "geometry_length_km": 3.4088795091868813 }, "geometry": { "type": "LineString", "coordinates": [ [ -88.1609089, 31.845551498 ], [ -88.161879502, 31.840196393 ], [ -88.162248902, 31.839465499 ], [ -88.164024606, 31.838076197 ], [ -88.164875001, 31.837000594 ], [ -88.1661928, 31.834191993 ], [ -88.167696603, 31.832531497 ], [ -88.168263003, 31.8313099 ], [ -88.169113301, 31.8302342 ], [ -88.169679806, 31.829012595 ], [ -88.169753104, 31.828260995 ], [ -88.170824803, 31.826444097 ], [ -88.172920406, 31.824824795 ], [ -88.176508605, 31.823183596 ], [ -88.179689206, 31.821135499 ] ] } }
]
}
