{
"type": "FeatureCollection",
"name": "USGS_02479600_DM_12km",
"crs": { "type": "name", "properties": { "name": "urn:ogc:def:crs:OGC:1.3:CRS84" } },
"features": [
{ "type": "Feature", "properties": { "site_no": "02479600", "nhdplus_comid": "18095099", "navigation_mode": "DM", "requested_distance_km": 12.0, "start_source": "nwissite", "start_id": "USGS-02479600", "geometry_length_km": 9.8094240351544606 }, "geometry": { "type": "LineString", "coordinates": [ [ -88.433699216, 30.62907833 ], [ -88.4341553, 30.627782695 ], [ -88.434208103, 30.627416 ], [ -88.434022404, 30.627072394 ], [ -88.433253907, 30.626889497 ], [ -88.433121301, 30.626660295 ], [ -88.433041506, 30.626201995 ], [ -88.433199801, 30.625193797 ], [ -88.433199406, 30.624643795 ], [ -88.433093205, 30.624368899 ], [ -88.433066502, 30.624002196 ], [ -88.4331723, 30.623795994 ], [ -88.433331303, 30.623658299 ], [ -88.433596201, 30.623589493 ], [ -88.434179202, 30.623612195 ], [ -88.434762202, 30.623863898 ], [ -88.435504206, 30.623955198 ], [ -88.4357161, 30.623886399 ], [ -88.435954504, 30.623702899 ], [ -88.436113104, 30.623221599 ], [ -88.436059602, 30.622579999 ], [ -88.4357941, 30.621686496 ], [ -88.435741104, 30.6216636 ], [ -88.435661405, 30.621434495 ], [ -88.435608305, 30.621182494 ], [ -88.435820103, 30.620998994 ], [ -88.436376505, 30.6209528 ], [ -88.436535604, 30.621113196 ], [ -88.436721206, 30.621319294 ], [ -88.436721407, 30.621456794 ], [ -88.436827503, 30.6216859 ], [ -88.436986603, 30.621869199 ], [ -88.437437102, 30.621937595 ], [ -88.437728502, 30.621868797 ], [ -88.437940307, 30.621616699 ], [ -88.4379666, 30.621295795 ], [ -88.437807404, 30.620906398 ], [ -88.437144406, 30.620288 ], [ -88.436693802, 30.619967297 ], [ -88.436587602, 30.619646594 ], [ -88.436507404, 30.618592598 ], [ -88.436639607, 30.618202999 ], [ -88.436877906, 30.617950797 ], [ -88.437593102, 30.617675394 ], [ -88.437672302, 30.617446199 ], [ -88.437698506, 30.616964996 ], [ -88.437645502, 30.616873294 ], [ -88.437618606, 30.616185896 ], [ -88.438254103, 30.615727298 ], [ -88.439260304, 30.614855997 ], [ -88.439525001, 30.614695497 ], [ -88.440134205, 30.614236794 ], [ -88.440319404, 30.613915898 ], [ -88.440319203, 30.613503397 ], [ -88.440080404, 30.613205694 ], [ -88.439497307, 30.612862296 ], [ -88.439232104, 30.612610295 ], [ -88.4392583, 30.6121291 ], [ -88.439337701, 30.611945696 ], [ -88.439575806, 30.611464396 ], [ -88.440052107, 30.610707998 ], [ -88.440104902, 30.610524595 ], [ -88.440131202, 30.610203698 ], [ -88.439972006, 30.609837197 ], [ -88.439627506, 30.609654099 ], [ -88.438912101, 30.609516993 ], [ -88.438673407, 30.609265 ], [ -88.438434601, 30.6086694 ], [ -88.438381501, 30.608486094 ], [ -88.4382753, 30.608188197 ], [ -88.438248202, 30.607340395 ], [ -88.438539304, 30.606927693 ], [ -88.439016201, 30.606858797 ], [ -88.439705104, 30.607156299 ], [ -88.440102607, 30.607178994 ], [ -88.440234907, 30.607064299 ], [ -88.4402612, 30.606812298 ], [ -88.439598605, 30.606262699 ], [ -88.439598501, 30.606170997 ], [ -88.439492501, 30.606170997 ], [ -88.439413004, 30.606056497 ], [ -88.439439304, 30.605804496 ], [ -88.439545207, 30.605666898 ], [ -88.440392703, 30.605368495 ], [ -88.440498605, 30.605208099 ], [ -88.440498203, 30.604818493 ], [ -88.440100402, 30.604154199 ], [ -88.4401002, 30.603879198 ], [ -88.440365106, 30.603741594 ], [ -88.440974407, 30.603810094 ], [ -88.441265702, 30.603741199 ], [ -88.441556901, 30.603465997 ], [ -88.441609703, 30.603076398 ], [ -88.441609301, 30.602686897 ], [ -88.441291302, 30.602526598 ], [ -88.439860903, 30.602664895 ], [ -88.439675301, 30.602527499 ], [ -88.439701706, 30.602344096 ], [ -88.439807504, 30.602160797 ], [ -88.440151706, 30.601839796 ], [ -88.440363407, 30.601541698 ], [ -88.440416105, 30.601243898 ], [ -88.4403366, 30.601083398 ], [ -88.4401775, 30.6008773 ], [ -88.440124005, 30.600281499 ], [ -88.439832203, 30.599662997 ], [ -88.439514004, 30.599227794 ], [ -88.439433806, 30.598081999 ], [ -88.439380601, 30.597784095 ], [ -88.439274505, 30.597577997 ], [ -88.439273901, 30.596707098 ], [ -88.439352401, 30.5954239 ], [ -88.439484403, 30.594713494 ], [ -88.439722404, 30.5941175 ], [ -88.440066405, 30.593727797 ], [ -88.440887302, 30.593246199 ], [ -88.441046007, 30.593062699 ], [ -88.441072203, 30.592604399 ], [ -88.441019006, 30.592260696 ], [ -88.441310003, 30.591733493 ], [ -88.441336207, 30.591504395 ], [ -88.441283204, 30.591389798 ], [ -88.441230007, 30.591114894 ], [ -88.441441603, 30.590610594 ], [ -88.441441402, 30.590358496 ], [ -88.441229403, 30.590243995 ], [ -88.440646604, 30.590175599 ], [ -88.440487504, 30.590038195 ], [ -88.440513901, 30.589900695 ], [ -88.440619707, 30.5896945 ], [ -88.440963902, 30.589304693 ], [ -88.441122502, 30.588915095 ], [ -88.440989703, 30.588525593 ], [ -88.440777704, 30.588342294 ], [ -88.4406716, 30.588159099 ], [ -88.440618202, 30.587471597 ], [ -88.441015005, 30.586875595 ], [ -88.441438504, 30.5864859 ], [ -88.441888601, 30.586302295 ], [ -88.4423123, 30.586050093 ], [ -88.442391604, 30.5857521 ], [ -88.442497402, 30.585568696 ], [ -88.442629404, 30.585041597 ], [ -88.443184905, 30.584032997 ], [ -88.443078503, 30.583505996 ], [ -88.442866206, 30.583047897 ], [ -88.442839503, 30.5826125 ], [ -88.4429188, 30.582452096 ], [ -88.442945004, 30.582062498 ], [ -88.4423884, 30.581489898 ], [ -88.442229204, 30.581031598 ], [ -88.442176007, 30.580756694 ], [ -88.442069903, 30.580550499 ], [ -88.442043006, 30.579977699 ], [ -88.442333706, 30.579198398 ], [ -88.442386501, 30.578900494 ], [ -88.442412101, 30.577754699 ], [ -88.442623802, 30.577479593 ], [ -88.442862101, 30.577387795 ], [ -88.443285905, 30.577547997 ], [ -88.443683706, 30.578120694 ], [ -88.444028206, 30.578441299 ], [ -88.444293104, 30.578601599 ], [ -88.444716901, 30.578578398 ], [ -88.445166804, 30.578119799 ], [ -88.445643105, 30.577454999 ], [ -88.445616506, 30.5772717 ], [ -88.445483804, 30.577180095 ], [ -88.445219107, 30.577157393 ], [ -88.444530606, 30.577295199 ], [ -88.444212504, 30.577020496 ], [ -88.444212504, 30.5768601 ], [ -88.444424205, 30.576699495 ], [ -88.445165604, 30.576607399 ], [ -88.445377402, 30.576469794 ], [ -88.445403703, 30.576126099 ], [ -88.445324101, 30.576034397 ], [ -88.445085704, 30.575897098 ], [ -88.444131605, 30.575072698 ], [ -88.4441844, 30.574843496 ], [ -88.444343306, 30.574774697 ], [ -88.444820002, 30.574843094 ], [ -88.4452703, 30.574888699 ], [ -88.445429102, 30.574705295 ], [ -88.445428707, 30.574201196 ], [ -88.445269503, 30.573857598 ], [ -88.445242904, 30.573720098 ], [ -88.445295803, 30.573651299 ], [ -88.445640102, 30.573582299 ], [ -88.446196407, 30.5737653 ], [ -88.446434803, 30.573811099 ], [ -88.446964301, 30.573604494 ], [ -88.447255805, 30.573787697 ], [ -88.447335601, 30.5742459 ], [ -88.447838806, 30.574268699 ], [ -88.447944701, 30.574222699 ], [ -88.447997503, 30.574062295 ], [ -88.448049605, 30.572962195 ], [ -88.448208407, 30.572755896 ], [ -88.448632002, 30.572664097 ], [ -88.4488969, 30.572778597 ], [ -88.4492414, 30.573122099 ], [ -88.4496122, 30.573098898 ], [ -88.449850507, 30.572961293 ], [ -88.449982703, 30.572709195 ], [ -88.450115003, 30.572617397 ], [ -88.450565204, 30.572662994 ], [ -88.450989306, 30.573006399 ] ] } },
{ "type": "Feature", "properties": { "site_no": "02479600", "nhdplus_comid": "18095125", "navigation_mode": "DM", "requested_distance_km": 12.0, "start_source": "nwissite", "start_id": "USGS-02479600", "geometry_length_km": 8.3541137701664834 }, "geometry": { "type": "LineString", "coordinates": [ [ -88.450989306, 30.573006399 ], [ -88.451174706, 30.573006399 ], [ -88.451280504, 30.572914593 ], [ -88.451333307, 30.5727541 ], [ -88.451359302, 30.572158396 ], [ -88.451252803, 30.5714022 ], [ -88.451120101, 30.5711044 ], [ -88.450431101, 30.570463195 ], [ -88.450404406, 30.570302799 ], [ -88.450695403, 30.569867194 ], [ -88.451436907, 30.569775097 ], [ -88.451489501, 30.569454297 ], [ -88.451330505, 30.569293998 ], [ -88.450668201, 30.568950698 ], [ -88.450482607, 30.568767399 ], [ -88.450482406, 30.568515398 ], [ -88.450614706, 30.568331994 ], [ -88.450906001, 30.568285897 ], [ -88.451700404, 30.568216696 ], [ -88.451806307, 30.568170898 ], [ -88.452017806, 30.567826994 ], [ -88.452123605, 30.567666493 ], [ -88.452123307, 30.567254096 ], [ -88.452017203, 30.566979095 ], [ -88.451672606, 30.566543996 ], [ -88.451646, 30.566360697 ], [ -88.451751605, 30.566154398 ], [ -88.452122301, 30.566016696 ], [ -88.452333905, 30.565787293 ], [ -88.452386707, 30.565558195 ], [ -88.452333607, 30.565420695 ], [ -88.451883301, 30.565260597 ], [ -88.451459602, 30.565260895 ], [ -88.450983107, 30.565398596 ], [ -88.4501625, 30.565788597 ], [ -88.449765205, 30.565834597 ], [ -88.449632704, 30.565743096 ], [ -88.449632503, 30.565376393 ], [ -88.449844107, 30.565124199 ], [ -88.450214602, 30.564917795 ], [ -88.451247305, 30.5647339 ], [ -88.451300204, 30.564550593 ], [ -88.451220505, 30.564275697 ], [ -88.451193802, 30.564069398 ], [ -88.450717203, 30.564046696 ], [ -88.450214207, 30.564299099 ], [ -88.449869901, 30.564322196 ], [ -88.449816905, 30.564276397 ], [ -88.449816704, 30.564047299 ], [ -88.450186901, 30.5633367 ], [ -88.450239606, 30.562924094 ], [ -88.449974604, 30.562718093 ], [ -88.449127205, 30.5625811 ], [ -88.448862202, 30.562374994 ], [ -88.448464401, 30.561664894 ], [ -88.448172905, 30.561389998 ], [ -88.447696202, 30.561184093 ], [ -88.446822204, 30.561161697 ], [ -88.446689606, 30.560932599 ], [ -88.446795106, 30.560359694 ], [ -88.446874402, 30.560199298 ], [ -88.446899906, 30.558915995 ], [ -88.446767204, 30.558411896 ], [ -88.446555004, 30.558022499 ], [ -88.446237102, 30.557724699 ], [ -88.445336506, 30.557335697 ], [ -88.444515005, 30.556602895 ], [ -88.443985, 30.555915594 ], [ -88.443825804, 30.555594794 ], [ -88.443560906, 30.555297196 ], [ -88.443295904, 30.555045195 ], [ -88.442845702, 30.554907896 ], [ -88.442422003, 30.554885298 ], [ -88.4416278, 30.555114798 ], [ -88.441204101, 30.555137895 ], [ -88.441018604, 30.554931894 ], [ -88.440965503, 30.554725595 ], [ -88.441282704, 30.554083899 ], [ -88.441176705, 30.553762995 ], [ -88.440858707, 30.5536028 ], [ -88.440647006, 30.553580098 ], [ -88.440197006, 30.553832397 ], [ -88.439932302, 30.553901196 ], [ -88.439693801, 30.553672194 ], [ -88.439667001, 30.553053498 ], [ -88.439534403, 30.552801497 ], [ -88.438845702, 30.552480996 ], [ -88.438739702, 30.552320696 ], [ -88.438739404, 30.551885299 ], [ -88.439056806, 30.551495597 ], [ -88.439321406, 30.551082999 ], [ -88.439400606, 30.550807998 ], [ -88.439426705, 30.550234996 ], [ -88.439373501, 30.549822599 ], [ -88.439294003, 30.549662195 ], [ -88.439028807, 30.549364395 ], [ -88.438817002, 30.549272895 ], [ -88.438366905, 30.549410596 ], [ -88.438155204, 30.549410693 ], [ -88.437969707, 30.549250498 ], [ -88.4379692, 30.548494093 ], [ -88.438497901, 30.547302395 ], [ -88.438444704, 30.546981499 ], [ -88.438285902, 30.546866998 ], [ -88.438047506, 30.546775497 ], [ -88.437809303, 30.546867199 ], [ -88.437571101, 30.547096498 ], [ -88.437306903, 30.547807097 ], [ -88.436962903, 30.548105098 ], [ -88.436618701, 30.548128195 ], [ -88.436406806, 30.547921993 ], [ -88.436327204, 30.547784597 ], [ -88.436273806, 30.546982497 ], [ -88.436194301, 30.546936795 ], [ -88.436194301, 30.546799198 ], [ -88.436114706, 30.5465931 ], [ -88.435823202, 30.546318196 ], [ -88.435769901, 30.545882896 ], [ -88.4365905, 30.545424193 ], [ -88.436616704, 30.545080394 ], [ -88.436510503, 30.544736698 ], [ -88.436404504, 30.544553496 ], [ -88.436351307, 30.544209793 ], [ -88.436536402, 30.543957599 ], [ -88.437065504, 30.543338597 ], [ -88.437250905, 30.543292694 ], [ -88.437462807, 30.543407194 ], [ -88.437462807, 30.543498896 ], [ -88.437515907, 30.543590494 ], [ -88.437463, 30.543750897 ], [ -88.437516302, 30.544209197 ], [ -88.437675305, 30.544461198 ], [ -88.437913604, 30.544598594 ], [ -88.4382843, 30.544621296 ], [ -88.438337207, 30.544483796 ], [ -88.4382044, 30.543865196 ], [ -88.438151404, 30.543819398 ], [ -88.438018806, 30.543315299 ], [ -88.437859707, 30.542994499 ], [ -88.437435701, 30.542605199 ], [ -88.437038302, 30.542215794 ], [ -88.4370647, 30.542055398 ], [ -88.437302902, 30.541894898 ], [ -88.437567703, 30.541963495 ], [ -88.437832706, 30.542284198 ], [ -88.438150503, 30.542467393 ], [ -88.438335903, 30.542467199 ], [ -88.4384946, 30.542352594 ], [ -88.438388504, 30.542100593 ], [ -88.438361906, 30.541894294 ], [ -88.437884904, 30.541298799 ], [ -88.437858306, 30.541046694 ], [ -88.438096404, 30.540840395 ], [ -88.438890606, 30.540633693 ], [ -88.438863903, 30.540358797 ], [ -88.438599005, 30.540152594 ], [ -88.437883906, 30.539832197 ], [ -88.437513202, 30.539534494 ], [ -88.437565707, 30.539098993 ], [ -88.4377774, 30.538846895 ], [ -88.437777206, 30.538617797 ], [ -88.437671304, 30.538526095 ], [ -88.437009402, 30.538366094 ], [ -88.436903305, 30.538205698 ], [ -88.436876707, 30.538022399 ], [ -88.437141307, 30.537724398 ], [ -88.437670603, 30.537494898 ], [ -88.438094005, 30.537150994 ], [ -88.438173205, 30.536875993 ], [ -88.4381992, 30.5362802 ], [ -88.438252002, 30.536028095 ], [ -88.438251503, 30.535203099 ], [ -88.437986501, 30.534721993 ], [ -88.437959902, 30.5345845 ], [ -88.438330501, 30.534469798 ], [ -88.438648202, 30.534584194 ], [ -88.438992307, 30.534561098 ], [ -88.439151101, 30.534469396 ], [ -88.439124405, 30.534194395 ], [ -88.438912503, 30.5340112 ], [ -88.438224107, 30.533896998 ], [ -88.438118301, 30.5338054 ], [ -88.438091606, 30.5336679 ], [ -88.438435502, 30.5333011 ], [ -88.438541107, 30.532728098 ], [ -88.439017303, 30.532338299 ], [ -88.439123005, 30.532109194 ], [ -88.439255007, 30.531696595 ], [ -88.439387202, 30.531444497 ], [ -88.439519301, 30.530986093 ], [ -88.439810202, 30.530504696 ], [ -88.439968705, 30.530137993 ], [ -88.439941905, 30.5295422 ], [ -88.439782903, 30.529244393 ], [ -88.439756304, 30.529038094 ] ] } }
]
}
