{
"type": "FeatureCollection",
"name": "USGS_02401500_DM_12km",
"crs": { "type": "name", "properties": { "name": "urn:ogc:def:crs:OGC:1.3:CRS84" } },
"features": [
{ "type": "Feature", "properties": { "site_no": "02401500", "nhdplus_comid": "26132581", "navigation_mode": "DM", "requested_distance_km": 12.0, "start_source": "nwissite", "start_id": "USGS-02401500", "geometry_length_km": 2.7518331422737696 }, "geometry": { "type": "LineString", "coordinates": [ [ -86.110280563, 33.902793698 ], [ -86.109580003, 33.902396895 ], [ -86.109179504, 33.901886493 ], [ -86.1088892, 33.900530994 ], [ -86.109527804, 33.897659495 ], [ -86.110580705, 33.893945195 ], [ -86.110653505, 33.8869249 ], [ -86.109075703, 33.882599495 ], [ -86.1072696, 33.880725399 ], [ -86.106154904, 33.879825495 ] ] } },
{ "type": "Feature", "properties": { "site_no": "02401500", "nhdplus_comid": "26132591", "navigation_mode": "DM", "requested_distance_km": 12.0, "start_source": "nwissite", "start_id": "USGS-02401500", "geometry_length_km": 0.74956587970696009 }, "geometry": { "type": "LineString", "coordinates": [ [ -86.106154904, 33.879825495 ], [ -86.103146307, 33.877396598 ], [ -86.1016104, 33.874410495 ] ] } },
{ "type": "Feature", "properties": { "site_no": "02401500", "nhdplus_comid": "26132595", "navigation_mode": "DM", "requested_distance_km": 12.0, "start_source": "nwissite", "start_id": "USGS-02401500", "geometry_length_km": 1.0535937373620889 }, "geometry": { "type": "LineString", "coordinates": [ [ -86.1016104, 33.874410495 ], [ -86.100264102, 33.871792696 ], [ -86.097650506, 33.865565993 ] ] } },
{ "type": "Feature", "properties": { "site_no": "02401500", "nhdplus_comid": "26132599", "navigation_mode": "DM", "requested_distance_km": 12.0, "start_source": "nwissite", "start_id": "USGS-02401500", "geometry_length_km": 0.8226418700776037 }, "geometry": { "type": "LineString", "coordinates": [ [ -86.097650506, 33.865565993 ], [ -86.097593002, 33.865428999 ], [ -86.093358703, 33.863113999 ], [ -86.089665502, 33.863038599 ] ] } },
{ "type": "Feature", "properties": { "site_no": "02401500", "nhdplus_comid": "26132597", "navigation_mode": "DM", "requested_distance_km": 12.0, "start_source": "nwissite", "start_id": "USGS-02401500", "geometry_length_km": 1.9449004370139193 }, "geometry": { "type": "LineString", "coordinates": [ [ -86.089665502, 33.863038599 ], [ -86.0868707, 33.862981498 ], [ -86.078441806, 33.864187598 ], [ -86.070041902, 33.866003796 ], [ -86.068942301, 33.8662415 ] ] } },
{ "type": "Feature", "properties": { "site_no": "02401500", "nhdplus_comid": "26132819", "navigation_mode": "DM", "requested_distance_km": 12.0, "start_source": "nwissite", "start_id": "USGS-02401500", "geometry_length_km": 4.0968983831361285 }, "geometry": { "type": "LineString", "coordinates": [ [ -86.068942301, 33.8662415 ], [ -86.067643605, 33.865223095 ], [ -86.065432504, 33.864364393 ], [ -86.0621223, 33.862486899 ], [ -86.058822401, 33.859683096 ], [ -86.057029903, 33.857480295 ], [ -86.055369906, 33.852415599 ], [ -86.054609902, 33.848115593 ], [ -86.055139504, 33.845846198 ], [ -86.055954106, 33.845178895 ], [ -86.059189402, 33.844614193 ], [ -86.063440107, 33.843467899 ], [ -86.065471902, 33.842220195 ], [ -86.066797003, 33.840552397 ] ] } },
{ "type": "Feature", "properties": { "site_no": "02401500", "nhdplus_comid": "26132821", "navigation_mode": "DM", "requested_distance_km": 12.0, "start_source": "nwissite", "start_id": "USGS-02401500", "geometry_length_km": 4.260480269040019 }, "geometry": { "type": "LineString", "coordinates": [ [ -86.066797003, 33.840552397 ], [ -86.066801801, 33.840546295 ], [ -86.066720106, 33.838777497 ], [ -86.065317705, 33.837840699 ], [ -86.060902402, 33.835617997 ], [ -86.056384504, 33.833562694 ], [ -86.053587504, 33.831015296 ], [ -86.052007802, 33.827887699 ], [ -86.051432304, 33.825188898 ], [ -86.052159801, 33.823257893 ], [ -86.053592406, 33.821416497 ], [ -86.053696103, 33.821164697 ], [ -86.0604036, 33.8148055 ], [ -86.063492507, 33.811843298 ], [ -86.0634946, 33.811833598 ] ] } }
]
}
