{
"type": "FeatureCollection",
"name": "USGS_02419890_DM_12km",
"crs": { "type": "name", "properties": { "name": "urn:ogc:def:crs:OGC:1.3:CRS84" } },
"features": [
{ "type": "Feature", "properties": { "site_no": "02419890", "nhdplus_comid": "21719268", "navigation_mode": "DM", "requested_distance_km": 12.0, "start_source": "nwissite", "start_id": "USGS-02419890", "geometry_length_km": 0.11460863205897438 }, "geometry": { "type": "LineString", "coordinates": [ [ -86.195069733, 32.43972131 ], [ -86.194943503, 32.4407437 ] ] } },
{ "type": "Feature", "properties": { "site_no": "02419890", "nhdplus_comid": "21719252", "navigation_mode": "DM", "requested_distance_km": 12.0, "start_source": "nwissite", "start_id": "USGS-02419890", "geometry_length_km": 1.6387969793788069 }, "geometry": { "type": "LineString", "coordinates": [ [ -86.194943503, 32.4407437 ], [ -86.193495505, 32.441501595 ], [ -86.191498205, 32.441832997 ], [ -86.188366003, 32.442823097 ], [ -86.187919304, 32.442784294 ], [ -86.185423404, 32.444713295 ], [ -86.182917506, 32.445505194 ], [ -86.180976301, 32.446598694 ], [ -86.180888601, 32.447916493 ] ] } },
{ "type": "Feature", "properties": { "site_no": "02419890", "nhdplus_comid": "21719242", "navigation_mode": "DM", "requested_distance_km": 12.0, "start_source": "nwissite", "start_id": "USGS-02419890", "geometry_length_km": 1.2371457671549981 }, "geometry": { "type": "LineString", "coordinates": [ [ -86.180888601, 32.447916493 ], [ -86.181889601, 32.448950298 ], [ -86.183183506, 32.4494415 ], [ -86.183866307, 32.450005695 ], [ -86.184462003, 32.450057499 ], [ -86.1860791, 32.451586597 ], [ -86.186982706, 32.452801198 ], [ -86.187911704, 32.455027796 ], [ -86.188815303, 32.456242293 ] ] } },
{ "type": "Feature", "properties": { "site_no": "02419890", "nhdplus_comid": "21719238", "navigation_mode": "DM", "requested_distance_km": 12.0, "start_source": "nwissite", "start_id": "USGS-02419890", "geometry_length_km": 4.273556935766905 }, "geometry": { "type": "LineString", "coordinates": [ [ -86.188815303, 32.456242293 ], [ -86.189231202, 32.456530899 ], [ -86.190124705, 32.456608497 ], [ -86.191362403, 32.4563374 ], [ -86.193139404, 32.455355696 ], [ -86.196143806, 32.452965796 ], [ -86.199250706, 32.450963497 ], [ -86.200590901, 32.451079793 ], [ -86.201289304, 32.451519094 ], [ -86.201823302, 32.452070296 ], [ -86.202721901, 32.454546593 ], [ -86.204334401, 32.457337193 ], [ -86.209614106, 32.463348798 ], [ -86.210143201, 32.465161793 ], [ -86.211478703, 32.4665398 ], [ -86.211802401, 32.467577599 ], [ -86.211782001, 32.468964197 ], [ -86.212033704, 32.469364695 ], [ -86.211484402, 32.472598799 ], [ -86.212871403, 32.474170595 ] ] } },
{ "type": "Feature", "properties": { "site_no": "02419890", "nhdplus_comid": "21686982", "navigation_mode": "DM", "requested_distance_km": 12.0, "start_source": "nwissite", "start_id": "USGS-02419890", "geometry_length_km": 2.1154243223371276 }, "geometry": { "type": "LineString", "coordinates": [ [ -86.212871403, 32.474170595 ], [ -86.214576803, 32.474381395 ], [ -86.215830103, 32.473985098 ], [ -86.217997402, 32.472279496 ], [ -86.220020503, 32.469299294 ], [ -86.221335202, 32.468403295 ], [ -86.223050602, 32.467920698 ], [ -86.225418404, 32.468251899 ], [ -86.226995401, 32.468893297 ], [ -86.228048705, 32.4701204 ], [ -86.228249602, 32.472157195 ], [ -86.228766203, 32.472333796 ], [ -86.228758, 32.472371496 ] ] } },
{ "type": "Feature", "properties": { "site_no": "02419890", "nhdplus_comid": "21688516", "navigation_mode": "DM", "requested_distance_km": 12.0, "start_source": "nwissite", "start_id": "USGS-02419890", "geometry_length_km": 2.1536258922917204 }, "geometry": { "type": "LineString", "coordinates": [ [ -86.228758, 32.472371496 ], [ -86.227875903, 32.476416297 ], [ -86.227080204, 32.477988295 ], [ -86.2256165, 32.478871293 ], [ -86.222488105, 32.478600599 ], [ -86.221502006, 32.4792725 ], [ -86.221497104, 32.4805343 ], [ -86.223531805, 32.482351199 ], [ -86.224359304, 32.484189898 ], [ -86.225309901, 32.485029399 ], [ -86.226722904, 32.485782698 ] ] } },
{ "type": "Feature", "properties": { "site_no": "02419890", "nhdplus_comid": "21686950", "navigation_mode": "DM", "requested_distance_km": 12.0, "start_source": "nwissite", "start_id": "USGS-02419890", "geometry_length_km": 1.4587777605605134 }, "geometry": { "type": "LineString", "coordinates": [ [ -86.226722904, 32.485782698 ], [ -86.227169804, 32.485821396 ], [ -86.228387706, 32.486936495 ], [ -86.228757806, 32.4875995 ], [ -86.228696302, 32.488099098 ], [ -86.229184702, 32.489024796 ], [ -86.229852803, 32.489713699 ], [ -86.230834305, 32.490303397 ], [ -86.232175201, 32.490419298 ], [ -86.232637607, 32.490333095 ], [ -86.233788103, 32.489549093 ], [ -86.233967803, 32.489312194 ], [ -86.234110706, 32.486926496 ], [ -86.235723503, 32.486056194 ] ] } }
]
}
