{
"type": "FeatureCollection",
"name": "USGS_02469000_UM_12km",
"crs": { "type": "name", "properties": { "name": "urn:ogc:def:crs:OGC:1.3:CRS84" } },
"features": [
{ "type": "Feature", "properties": { "site_no": "02469000", "nhdplus_comid": "18544602", "navigation_mode": "UM", "requested_distance_km": 12.0, "start_source": "nwissite", "start_id": "USGS-02469000", "geometry_length_km": 0.21461710452272068 }, "geometry": { "type": "LineString", "coordinates": [ [ -88.184407406, 32.322697997 ], [ -88.184272401, 32.322652295 ], [ -88.1839213, 32.322194196 ], [ -88.183273405, 32.321575895 ], [ -88.182841405, 32.321392797 ], [ -88.182808672, 32.321389542 ] ] } },
{ "type": "Feature", "properties": { "site_no": "02469000", "nhdplus_comid": "18544626", "navigation_mode": "UM", "requested_distance_km": 12.0, "start_source": "nwissite", "start_id": "USGS-02469000", "geometry_length_km": 1.9608972384096517 }, "geometry": { "type": "LineString", "coordinates": [ [ -88.194387302, 32.318247899 ], [ -88.194279306, 32.318156399 ], [ -88.193712607, 32.318019196 ], [ -88.192282706, 32.318157494 ], [ -88.191769905, 32.317997396 ], [ -88.191284001, 32.317653999 ], [ -88.190582305, 32.317356594 ], [ -88.190177605, 32.317402594 ], [ -88.190069802, 32.317631796 ], [ -88.190070003, 32.317837998 ], [ -88.190501906, 32.3181585 ], [ -88.191041604, 32.318295598 ], [ -88.190960802, 32.318570696 ], [ -88.190583304, 32.318777099 ], [ -88.189908907, 32.318960696 ], [ -88.189585201, 32.318937995 ], [ -88.189099506, 32.318869494 ], [ -88.188883603, 32.3189613 ], [ -88.1885873, 32.319534197 ], [ -88.1884524, 32.319534294 ], [ -88.188344404, 32.319396794 ], [ -88.188344106, 32.319007397 ], [ -88.188290104, 32.318961598 ], [ -88.188236102, 32.318824098 ], [ -88.187804304, 32.318870194 ], [ -88.187427007, 32.319351494 ], [ -88.187265404, 32.319832794 ], [ -88.186672106, 32.3201309 ], [ -88.186564207, 32.320314199 ], [ -88.186591707, 32.320955694 ], [ -88.186727002, 32.321413897 ], [ -88.186727203, 32.321871996 ], [ -88.186538301, 32.321872197 ], [ -88.186322302, 32.321597397 ], [ -88.186241306, 32.321414098 ], [ -88.186025105, 32.321024798 ], [ -88.185701206, 32.320772894 ], [ -88.184999503, 32.320521198 ], [ -88.184405901, 32.320544399 ], [ -88.184271201, 32.320750698 ], [ -88.184244402, 32.321117297 ], [ -88.184541605, 32.321712799 ], [ -88.1845688, 32.321895994 ], [ -88.184542201, 32.3225604 ], [ -88.184407406, 32.322697997 ] ] } },
{ "type": "Feature", "properties": { "site_no": "02469000", "nhdplus_comid": "18544616", "navigation_mode": "UM", "requested_distance_km": 12.0, "start_source": "nwissite", "start_id": "USGS-02469000", "geometry_length_km": 0.13181340114810394 }, "geometry": { "type": "LineString", "coordinates": [ [ -88.195467003, 32.3189805 ], [ -88.194630206, 32.318316497 ], [ -88.194387302, 32.318247899 ] ] } },
{ "type": "Feature", "properties": { "site_no": "02469000", "nhdplus_comid": "18546420", "navigation_mode": "UM", "requested_distance_km": 12.0, "start_source": "nwissite", "start_id": "USGS-02469000", "geometry_length_km": 4.9502194193639557 }, "geometry": { "type": "LineString", "coordinates": [ [ -88.220571905, 32.330464795 ], [ -88.220356002, 32.3304649 ], [ -88.220058806, 32.330190197 ], [ -88.219950505, 32.329869494 ], [ -88.219599202, 32.329297096 ], [ -88.219598703, 32.328861795 ], [ -88.219679303, 32.328563794 ], [ -88.219517305, 32.328495197 ], [ -88.219355501, 32.328518294 ], [ -88.218600601, 32.3291374 ], [ -88.217737503, 32.329412997 ], [ -88.217333004, 32.329779893 ], [ -88.217036404, 32.329940394 ], [ -88.216739602, 32.330032296 ], [ -88.216658607, 32.329849094 ], [ -88.216820106, 32.329551093 ], [ -88.2168466, 32.329047099 ], [ -88.216927402, 32.328932494 ], [ -88.217494003, 32.328863293 ], [ -88.217466906, 32.328725897 ], [ -88.217412807, 32.328588396 ], [ -88.217250705, 32.328497 ], [ -88.216467805, 32.328176796 ], [ -88.216170602, 32.327833295 ], [ -88.216116302, 32.327466793 ], [ -88.216197103, 32.327260494 ], [ -88.216520302, 32.326756299 ], [ -88.216654904, 32.326458298 ], [ -88.216573805, 32.326275095 ], [ -88.215763904, 32.325909197 ], [ -88.215250805, 32.325474098 ], [ -88.2148185, 32.324924596 ], [ -88.214494407, 32.324626997 ], [ -88.214170605, 32.324558496 ], [ -88.212902404, 32.324536495 ], [ -88.212659501, 32.324467897 ], [ -88.212416403, 32.324261993 ], [ -88.212388605, 32.323460095 ], [ -88.212307602, 32.323391393 ], [ -88.212252602, 32.322406299 ], [ -88.212090604, 32.322314799 ], [ -88.210957304, 32.322178096 ], [ -88.210795306, 32.322132394 ], [ -88.210552305, 32.321880497 ], [ -88.210471101, 32.321674496 ], [ -88.210443303, 32.320712194 ], [ -88.210038304, 32.3205292 ], [ -88.209283002, 32.320712999 ], [ -88.209067106, 32.320644394 ], [ -88.209066905, 32.320415296 ], [ -88.209093802, 32.3202779 ], [ -88.209605902, 32.3198421 ], [ -88.209740803, 32.319773398 ], [ -88.210820101, 32.319772594 ], [ -88.2110897, 32.319703698 ], [ -88.211197503, 32.319543295 ], [ -88.211251304, 32.319268197 ], [ -88.211143002, 32.318924695 ], [ -88.210873, 32.318718597 ], [ -88.210225202, 32.318512894 ], [ -88.209901601, 32.318719298 ], [ -88.209766902, 32.318902694 ], [ -88.209659301, 32.319246396 ], [ -88.209551506, 32.319360994 ], [ -88.208904006, 32.319407299 ], [ -88.208526105, 32.319109693 ], [ -88.208552405, 32.318422399 ], [ -88.208363406, 32.318330899 ], [ -88.207905002, 32.3186519 ], [ -88.207851902, 32.319499694 ], [ -88.207636103, 32.319545597 ], [ -88.207339101, 32.3193397 ], [ -88.207122907, 32.3189274 ], [ -88.207122803, 32.318835795 ], [ -88.206960805, 32.3186526 ], [ -88.2063125, 32.317965694 ], [ -88.206015505, 32.3177827 ], [ -88.204962902, 32.317279294 ], [ -88.2045037, 32.316844299 ], [ -88.203478202, 32.316455394 ], [ -88.202776507, 32.316226795 ], [ -88.202641502, 32.316112295 ], [ -88.2024794, 32.315860398 ], [ -88.202317506, 32.315791793 ], [ -88.202020802, 32.315860696 ], [ -88.201832205, 32.316089898 ], [ -88.201724403, 32.316319093 ], [ -88.201616906, 32.316868998 ], [ -88.201374203, 32.316960797 ], [ -88.201185405, 32.316983894 ], [ -88.2005914, 32.316571794 ], [ -88.200483106, 32.316182397 ], [ -88.200240307, 32.316205494 ], [ -88.200024605, 32.316434696 ], [ -88.199889801, 32.316480599 ], [ -88.199593, 32.316480793 ], [ -88.199269004, 32.316205993 ], [ -88.198891401, 32.316297896 ], [ -88.1986489, 32.316664696 ], [ -88.198622301, 32.317168698 ], [ -88.199000604, 32.317764193 ], [ -88.199027605, 32.317947395 ], [ -88.198919803, 32.318062097 ], [ -88.198596202, 32.318199694 ], [ -88.1983805, 32.318451799 ], [ -88.197814204, 32.318772897 ], [ -88.196681306, 32.319117196 ], [ -88.196330607, 32.3191403 ], [ -88.195844904, 32.319094896 ], [ -88.195467003, 32.3189805 ] ] } },
{ "type": "Feature", "properties": { "site_no": "02469000", "nhdplus_comid": "18544548", "navigation_mode": "UM", "requested_distance_km": 12.0, "start_source": "nwissite", "start_id": "USGS-02469000", "geometry_length_km": 1.1643403927034044 }, "geometry": { "type": "LineString", "coordinates": [ [ -88.228016101, 32.327571899 ], [ -88.227503307, 32.327457793 ], [ -88.226720907, 32.327527098 ], [ -88.226370402, 32.327733696 ], [ -88.226020001, 32.328054696 ], [ -88.225696802, 32.328604899 ], [ -88.225400604, 32.329246596 ], [ -88.225212, 32.329498798 ], [ -88.225023307, 32.329636395 ], [ -88.2244839, 32.329774298 ], [ -88.223134607, 32.329821199 ], [ -88.222891904, 32.330027595 ], [ -88.222892202, 32.330302596 ], [ -88.222973503, 32.330394097 ], [ -88.223082103, 32.331035495 ], [ -88.223136105, 32.3311271 ], [ -88.223109402, 32.331379093 ], [ -88.222974502, 32.331402197 ], [ -88.222542703, 32.3313796 ], [ -88.222245701, 32.331311099 ], [ -88.222110704, 32.331219599 ], [ -88.222137503, 32.331013396 ], [ -88.222218402, 32.330944598 ], [ -88.222218305, 32.330875799 ], [ -88.222272202, 32.330806993 ], [ -88.222244702, 32.330417596 ], [ -88.222163603, 32.330211498 ], [ -88.2218666, 32.3300284 ], [ -88.221300006, 32.330120496 ], [ -88.220571905, 32.330464795 ] ] } },
{ "type": "Feature", "properties": { "site_no": "02469000", "nhdplus_comid": "18544546", "navigation_mode": "UM", "requested_distance_km": 12.0, "start_source": "nwissite", "start_id": "USGS-02469000", "geometry_length_km": 0.48758469532165699 }, "geometry": { "type": "LineString", "coordinates": [ [ -88.229905203, 32.327707797 ], [ -88.229689106, 32.327616297 ], [ -88.229311205, 32.327479199 ], [ -88.228933401, 32.327456594 ], [ -88.228556007, 32.327777594 ], [ -88.228286706, 32.3282132 ], [ -88.227882303, 32.328488395 ], [ -88.2273966, 32.328557596 ], [ -88.227099702, 32.328374498 ], [ -88.226991504, 32.328214295 ], [ -88.227099307, 32.328053795 ], [ -88.227989405, 32.3278239 ], [ -88.228016101, 32.327571899 ] ] } },
{ "type": "Feature", "properties": { "site_no": "02469000", "nhdplus_comid": "18546416", "navigation_mode": "UM", "requested_distance_km": 12.0, "start_source": "nwissite", "start_id": "USGS-02469000", "geometry_length_km": 0.71280156577239762 }, "geometry": { "type": "LineString", "coordinates": [ [ -88.231664903, 32.332517497 ], [ -88.231635801, 32.330776393 ], [ -88.231419407, 32.330295496 ], [ -88.231095105, 32.329974994 ], [ -88.231067806, 32.329699993 ], [ -88.231202401, 32.329333298 ], [ -88.231175102, 32.3291272 ], [ -88.230716206, 32.329081699 ], [ -88.230338603, 32.329265296 ], [ -88.229961, 32.329334393 ], [ -88.229825906, 32.329242796 ], [ -88.229852602, 32.328990795 ], [ -88.229825601, 32.328876294 ], [ -88.230068102, 32.328646995 ], [ -88.229905203, 32.327707797 ] ] } },
{ "type": "Feature", "properties": { "site_no": "02469000", "nhdplus_comid": "18544520", "navigation_mode": "UM", "requested_distance_km": 12.0, "start_source": "nwissite", "start_id": "USGS-02469000", "geometry_length_km": 0.4017897287240223 }, "geometry": { "type": "LineString", "coordinates": [ [ -88.234203406, 32.334141999 ], [ -88.234068006, 32.333775595 ], [ -88.233851902, 32.333546594 ], [ -88.233878605, 32.333386198 ], [ -88.233716607, 32.3332031 ], [ -88.233284704, 32.3331348 ], [ -88.232826404, 32.333547495 ], [ -88.232475705, 32.333593696 ], [ -88.2320977, 32.333341993 ], [ -88.231664903, 32.332517497 ] ] } },
{ "type": "Feature", "properties": { "site_no": "02469000", "nhdplus_comid": "18546412", "navigation_mode": "UM", "requested_distance_km": 12.0, "start_source": "nwissite", "start_id": "USGS-02469000", "geometry_length_km": 1.1087067420720023 }, "geometry": { "type": "LineString", "coordinates": [ [ -88.2405506, 32.338443398 ], [ -88.240253702, 32.338420697 ], [ -88.240037903, 32.338512599 ], [ -88.239606306, 32.338650495 ], [ -88.239363305, 32.338536099 ], [ -88.239389904, 32.338284098 ], [ -88.239605203, 32.337802798 ], [ -88.239901803, 32.337619193 ], [ -88.240009502, 32.337412894 ], [ -88.239793502, 32.337321497 ], [ -88.238525301, 32.337437198 ], [ -88.238120303, 32.337277196 ], [ -88.2379582, 32.337071098 ], [ -88.237876706, 32.336635895 ], [ -88.238038205, 32.336337894 ], [ -88.237768203, 32.336246498 ], [ -88.237525105, 32.336017594 ], [ -88.237497501, 32.335559495 ], [ -88.237362407, 32.335444994 ], [ -88.237038501, 32.335353598 ], [ -88.236714602, 32.335353896 ], [ -88.2364989, 32.335491598 ], [ -88.236391403, 32.335789494 ], [ -88.236229606, 32.335858397 ], [ -88.235959403, 32.335652493 ], [ -88.235851206, 32.335423499 ], [ -88.2352302, 32.335171998 ], [ -88.234960005, 32.334966093 ], [ -88.234662704, 32.334599793 ], [ -88.234203406, 32.334141999 ] ] } },
{ "type": "Feature", "properties": { "site_no": "02469000", "nhdplus_comid": "18544478", "navigation_mode": "UM", "requested_distance_km": 12.0, "start_source": "nwissite", "start_id": "USGS-02469000", "geometry_length_km": 0.52628959399897646 }, "geometry": { "type": "LineString", "coordinates": [ [ -88.243063904, 32.341121599 ], [ -88.2429827, 32.340915494 ], [ -88.242604703, 32.340778299 ], [ -88.241876304, 32.340916499 ], [ -88.241066806, 32.341008894 ], [ -88.240850806, 32.340940297 ], [ -88.240661703, 32.340848893 ], [ -88.240526505, 32.340597093 ], [ -88.240498506, 32.339795195 ], [ -88.2406324, 32.339084797 ], [ -88.240631603, 32.338511996 ], [ -88.2405506, 32.338443398 ] ] } }
]
}
