{
"type": "FeatureCollection",
"name": "USGS_03575933_UM_12km",
"crs": { "type": "name", "properties": { "name": "urn:ogc:def:crs:OGC:1.3:CRS84" } },
"features": [
{ "type": "Feature", "properties": { "site_no": "03575933", "nhdplus_comid": "19619928", "navigation_mode": "UM", "requested_distance_km": 12.0, "start_source": "nwissite", "start_id": "USGS-03575933", "geometry_length_km": 2.2368990538872033 }, "geometry": { "type": "LineString", "coordinates": [ [ -86.617028505, 34.7384938 ], [ -86.616889805, 34.738447994 ], [ -86.616224006, 34.737485893 ], [ -86.616196305, 34.737325497 ], [ -86.615169704, 34.736386299 ], [ -86.614587106, 34.736042596 ], [ -86.613782503, 34.735401198 ], [ -86.612256907, 34.733591497 ], [ -86.611230604, 34.732148297 ], [ -86.610648103, 34.731094599 ], [ -86.610148907, 34.730476096 ], [ -86.608318105, 34.728918299 ], [ -86.607347302, 34.727795698 ], [ -86.605516605, 34.726283699 ], [ -86.604573704, 34.725184098 ], [ -86.601910904, 34.723442599 ], [ -86.601557132, 34.72326347 ] ] } },
{ "type": "Feature", "properties": { "site_no": "03575933", "nhdplus_comid": "19619834", "navigation_mode": "UM", "requested_distance_km": 12.0, "start_source": "nwissite", "start_id": "USGS-03575933", "geometry_length_km": 1.2131353778172009 }, "geometry": { "type": "LineString", "coordinates": [ [ -86.624631003, 34.747221194 ], [ -86.624103703, 34.746556997 ], [ -86.623632103, 34.746075898 ], [ -86.622965902, 34.7457323 ], [ -86.622438803, 34.74532 ], [ -86.622078106, 34.744838893 ], [ -86.620080307, 34.742937595 ], [ -86.619137004, 34.741494596 ], [ -86.618027307, 34.740280494 ], [ -86.618027307, 34.7401888 ], [ -86.617860705, 34.740051396 ], [ -86.617056303, 34.738745697 ], [ -86.617028505, 34.7384938 ] ] } },
{ "type": "Feature", "properties": { "site_no": "03575933", "nhdplus_comid": "19621338", "navigation_mode": "UM", "requested_distance_km": 12.0, "start_source": "nwissite", "start_id": "USGS-03575933", "geometry_length_km": 2.8563516167671694 }, "geometry": { "type": "LineString", "coordinates": [ [ -86.630408205, 34.7710739 ], [ -86.630380407, 34.770730399 ], [ -86.629547603, 34.769928798 ], [ -86.629325405, 34.769126996 ], [ -86.628492802, 34.7686003 ], [ -86.628353901, 34.768279694 ], [ -86.627465606, 34.767455094 ], [ -86.627215803, 34.766447298 ], [ -86.627215803, 34.765874699 ], [ -86.627715304, 34.764339894 ], [ -86.627715304, 34.762736596 ], [ -86.627604201, 34.762255594 ], [ -86.627132401, 34.761866197 ], [ -86.626827106, 34.761339396 ], [ -86.6267993, 34.760972895 ], [ -86.626743801, 34.760927096 ], [ -86.626716003, 34.759690195 ], [ -86.626799405, 34.759506993 ], [ -86.626771502, 34.757903598 ], [ -86.626521602, 34.756552294 ], [ -86.626410604, 34.756369099 ], [ -86.626049705, 34.755223699 ], [ -86.626022004, 34.754330397 ], [ -86.6261608, 34.754009694 ], [ -86.626133002, 34.752131499 ], [ -86.626244001, 34.750917599 ], [ -86.626160704, 34.750848897 ], [ -86.626160704, 34.750596896 ], [ -86.625962906, 34.7500844 ], [ -86.625574507, 34.749580495 ], [ -86.6249917, 34.749007799 ], [ -86.624880701, 34.748916194 ], [ -86.624658704, 34.7482519 ], [ -86.624631003, 34.747221194 ] ] } }
]
}
