{
"type": "FeatureCollection",
"name": "USGS_02405800_DM_12km",
"crs": { "type": "name", "properties": { "name": "urn:ogc:def:crs:OGC:1.3:CRS84" } },
"features": [
{ "type": "Feature", "properties": { "site_no": "02405800", "nhdplus_comid": "22206389", "navigation_mode": "DM", "requested_distance_km": 12.0, "start_source": "nwissite", "start_id": "USGS-02405800", "geometry_length_km": 1.7663426459654725 }, "geometry": { "type": "LineString", "coordinates": [ [ -86.025393605, 33.375613198 ], [ -86.025803104, 33.375727996 ], [ -86.026076004, 33.375888593 ], [ -86.026594102, 33.3764847 ], [ -86.026839301, 33.376988895 ], [ -86.0276298, 33.378134795 ], [ -86.028748304, 33.379006296 ], [ -86.029321805, 33.378915094 ], [ -86.030469507, 33.378045499 ], [ -86.030934505, 33.377381496 ], [ -86.031099401, 33.376396596 ], [ -86.031263404, 33.376236394 ], [ -86.031618401, 33.376122095 ], [ -86.032218903, 33.376420394 ], [ -86.0325462, 33.376741298 ], [ -86.032655105, 33.3769705 ], [ -86.033745803, 33.378368698 ], [ -86.034782305, 33.379308797 ], [ -86.035655007, 33.380386099 ], [ -86.036172301, 33.381829597 ], [ -86.036172107, 33.382035695 ], [ -86.0362266, 33.382081598 ] ] } },
{ "type": "Feature", "properties": { "site_no": "02405800", "nhdplus_comid": "22206705", "navigation_mode": "DM", "requested_distance_km": 12.0, "start_source": "nwissite", "start_id": "USGS-02405800", "geometry_length_km": 0.006213851967064748 }, "geometry": { "type": "LineString", "coordinates": [ [ -86.0362266, 33.382081598 ], [ -86.036232404, 33.382060394 ], [ -86.0362617, 33.382084094 ] ] } },
{ "type": "Feature", "properties": { "site_no": "02405800", "nhdplus_comid": "22206735", "navigation_mode": "DM", "requested_distance_km": 12.0, "start_source": "nwissite", "start_id": "USGS-02405800", "geometry_length_km": 5.4291825352338181 }, "geometry": { "type": "LineString", "coordinates": [ [ -86.0362617, 33.382084094 ], [ -86.036352403, 33.3821574 ], [ -86.036472306, 33.382254399 ], [ -86.036592305, 33.382351398 ], [ -86.036712304, 33.382448398 ], [ -86.036832303, 33.382545397 ], [ -86.036934502, 33.3825543 ], [ -86.037101306, 33.382568799 ], [ -86.037268102, 33.382583298 ], [ -86.037434906, 33.382597893 ], [ -86.037543304, 33.382525198 ], [ -86.037673704, 33.3824379 ], [ -86.037804, 33.382350497 ], [ -86.0379344, 33.382263198 ], [ -86.037941702, 33.3822053 ], [ -86.0379593, 33.382067196 ], [ -86.037976801, 33.381929196 ], [ -86.037994407, 33.3817911 ], [ -86.038011901, 33.3816531 ], [ -86.038029507, 33.381514996 ], [ -86.038026705, 33.381511196 ], [ -86.037940703, 33.381392099 ], [ -86.037854604, 33.381272897 ], [ -86.037768602, 33.381153695 ], [ -86.0376826, 33.381034598 ], [ -86.037596501, 33.380915396 ], [ -86.037510507, 33.380796298 ], [ -86.037424505, 33.380677097 ], [ -86.037338406, 33.380557999 ], [ -86.037252404, 33.380438797 ], [ -86.037254706, 33.380420998 ], [ -86.0372722, 33.380282998 ], [ -86.037289806, 33.380144894 ], [ -86.037307307, 33.380006894 ], [ -86.037324905, 33.379868798 ], [ -86.037342407, 33.379730798 ], [ -86.037360005, 33.379592694 ], [ -86.037377506, 33.379454695 ], [ -86.037395, 33.379316695 ], [ -86.037472703, 33.379207298 ], [ -86.037557706, 33.379087694 ], [ -86.037642702, 33.378967993 ], [ -86.037727706, 33.378848299 ], [ -86.037812702, 33.378728695 ], [ -86.037897706, 33.378608994 ], [ -86.037982702, 33.378489293 ], [ -86.038067602, 33.378369696 ], [ -86.038152605, 33.378249995 ], [ -86.038237602, 33.378130294 ], [ -86.038322605, 33.378010698 ], [ -86.038394906, 33.377962194 ], [ -86.038525306, 33.377874896 ], [ -86.038655601, 33.377787493 ], [ -86.038714804, 33.377792694 ], [ -86.0388816, 33.3778072 ], [ -86.039048307, 33.377821699 ], [ -86.039215103, 33.377836294 ], [ -86.039381906, 33.377850793 ], [ -86.039548703, 33.3778653 ], [ -86.039715506, 33.377879798 ], [ -86.039882302, 33.377894394 ], [ -86.040049002, 33.377908893 ], [ -86.040215805, 33.377923399 ], [ -86.040382601, 33.377937898 ], [ -86.040549405, 33.377952397 ], [ -86.040716201, 33.377967 ], [ -86.040883005, 33.377981499 ], [ -86.041049704, 33.377995998 ], [ -86.0412165, 33.378010496 ], [ -86.041325003, 33.377937794 ], [ -86.041455306, 33.377850495 ], [ -86.041585602, 33.3777631 ], [ -86.041716002, 33.377675794 ], [ -86.041723303, 33.377617896 ], [ -86.041740902, 33.377479896 ], [ -86.041758403, 33.377341799 ], [ -86.041776001, 33.3772038 ], [ -86.041793503, 33.377065696 ], [ -86.041811004, 33.376927696 ], [ -86.041697904, 33.376828596 ], [ -86.041582704, 33.376727797 ], [ -86.041467503, 33.376626894 ], [ -86.041352302, 33.376525998 ], [ -86.041237101, 33.376425199 ], [ -86.041121803, 33.376324296 ], [ -86.041006602, 33.3762234 ], [ -86.040891401, 33.376122594 ], [ -86.040776201, 33.376021698 ], [ -86.040661007, 33.375920795 ], [ -86.040545806, 33.375819996 ], [ -86.040430605, 33.3757191 ], [ -86.040315405, 33.375618197 ], [ -86.040200107, 33.375517398 ], [ -86.040084906, 33.375416495 ], [ -86.039969705, 33.375315696 ], [ -86.039854504, 33.3752148 ], [ -86.039739303, 33.375113897 ], [ -86.039624102, 33.375013098 ], [ -86.039508902, 33.374912195 ], [ -86.039393701, 33.374811299 ], [ -86.0392785, 33.3747105 ], [ -86.039163306, 33.374609597 ], [ -86.039048105, 33.374508694 ], [ -86.0389328, 33.374407895 ], [ -86.038909502, 33.374359697 ], [ -86.038846903, 33.374230899 ], [ -86.038784407, 33.374102093 ], [ -86.038721904, 33.373973295 ], [ -86.038659401, 33.373844497 ], [ -86.038596801, 33.373715699 ], [ -86.038534306, 33.373586893 ], [ -86.038471803, 33.373458095 ], [ -86.0384093, 33.373329297 ], [ -86.0383467, 33.373200499 ], [ -86.038284205, 33.373071693 ], [ -86.038221702, 33.372942895 ], [ -86.038159207, 33.372814097 ], [ -86.038096704, 33.372685298 ], [ -86.038034104, 33.3725565 ], [ -86.037971601, 33.372427694 ], [ -86.037909105, 33.372298896 ], [ -86.037846602, 33.372170098 ], [ -86.037850507, 33.372138895 ], [ -86.037868105, 33.372000895 ], [ -86.037885606, 33.371862799 ], [ -86.037903205, 33.371724799 ], [ -86.037920706, 33.371586695 ], [ -86.037938304, 33.371448696 ], [ -86.037955806, 33.371310599 ], [ -86.037973307, 33.371172599 ], [ -86.037978701, 33.3711657 ], [ -86.038068905, 33.371048696 ], [ -86.038159207, 33.3709317 ], [ -86.0382495, 33.370814696 ], [ -86.038339801, 33.370697796 ], [ -86.038430005, 33.3705808 ], [ -86.038520306, 33.370463796 ], [ -86.038520902, 33.3704594 ], [ -86.038538404, 33.370321296 ], [ -86.038556002, 33.370183297 ], [ -86.038573503, 33.3700452 ], [ -86.038591102, 33.369907193 ], [ -86.038608603, 33.369769096 ], [ -86.038626201, 33.369631097 ], [ -86.038643703, 33.369493 ], [ -86.038661204, 33.369354993 ], [ -86.038678803, 33.369216897 ], [ -86.038634405, 33.3691554 ], [ -86.038548402, 33.369036295 ], [ -86.038462304, 33.3689171 ], [ -86.038376302, 33.368797995 ], [ -86.038290307, 33.368678793 ], [ -86.038289405, 33.3686397 ], [ -86.038286105, 33.368500896 ], [ -86.038282804, 33.368362099 ], [ -86.0382796, 33.368223295 ], [ -86.0382763, 33.368084498 ], [ -86.038273007, 33.367945693 ], [ -86.038269706, 33.367806993 ], [ -86.038266502, 33.367668197 ], [ -86.038269207, 33.367665499 ], [ -86.0383792, 33.367560796 ], [ -86.0384892, 33.367455997 ], [ -86.038599201, 33.367351197 ], [ -86.038709201, 33.367246494 ], [ -86.038819201, 33.367141694 ], [ -86.038929306, 33.367036894 ], [ -86.039039306, 33.366932198 ], [ -86.039149307, 33.366827399 ], [ -86.039259307, 33.366722599 ], [ -86.0393693, 33.366617896 ], [ -86.0394793, 33.366513096 ], [ -86.039592803, 33.366516195 ], [ -86.039760403, 33.366520897 ], [ -86.039928004, 33.366525494 ], [ -86.040095501, 33.366530195 ], [ -86.040263101, 33.366534799 ], [ -86.040430702, 33.366539493 ], [ -86.040598303, 33.366544098 ], [ -86.040765904, 33.366548799 ], [ -86.040933505, 33.366553396 ], [ -86.041101001, 33.366558097 ], [ -86.041268602, 33.366562694 ], [ -86.041436203, 33.366567396 ], [ -86.041603804, 33.366572 ], [ -86.041673906, 33.366643697 ], [ -86.041779406, 33.366751596 ], [ -86.041884907, 33.366859399 ], [ -86.041990407, 33.366967298 ], [ -86.042095907, 33.367075197 ], [ -86.042201504, 33.367183097 ], [ -86.042307004, 33.367290996 ], [ -86.042412505, 33.367398798 ], [ -86.042444102, 33.367459893 ], [ -86.042510003, 33.367587596 ], [ -86.042576, 33.367715195 ], [ -86.0426419, 33.367842793 ], [ -86.042707905, 33.3679704 ], [ -86.042773902, 33.368097998 ], [ -86.042839803, 33.368225694 ], [ -86.0429058, 33.3683533 ], [ -86.042971805, 33.368480898 ], [ -86.043037705, 33.368608497 ], [ -86.043103702, 33.368736096 ], [ -86.043169603, 33.368863799 ], [ -86.0432356, 33.368991397 ], [ -86.043301605, 33.369118996 ], [ -86.043367505, 33.369246595 ], [ -86.043433502, 33.369374193 ], [ -86.043499507, 33.369501896 ], [ -86.0435654, 33.369629495 ], [ -86.043631405, 33.369757093 ], [ -86.043697305, 33.3698847 ], [ -86.043763302, 33.370012298 ], [ -86.043829307, 33.370139994 ], [ -86.0438952, 33.3702676 ], [ -86.043961205, 33.370395198 ], [ -86.044027202, 33.370522797 ], [ -86.044093102, 33.370650396 ], [ -86.044159107, 33.370777994 ], [ -86.044225104, 33.370905697 ], [ -86.044291005, 33.371033296 ], [ -86.044357002, 33.371160895 ], [ -86.044423006, 33.371288493 ], [ -86.044488907, 33.371416099 ], [ -86.044554904, 33.371543795 ], [ -86.044620901, 33.371671394 ], [ -86.044686802, 33.371799 ], [ -86.044752806, 33.371926598 ], [ -86.044818804, 33.372054197 ], [ -86.044884704, 33.372181796 ], [ -86.044950701, 33.372309498 ], [ -86.045016706, 33.372437097 ], [ -86.045082606, 33.372564696 ], [ -86.045148604, 33.372692294 ], [ -86.045214601, 33.372819893 ], [ -86.045280606, 33.372947596 ], [ -86.045346506, 33.373075195 ], [ -86.045434304, 33.3731649 ], [ -86.045539901, 33.373272799 ], [ -86.045645401, 33.373380698 ], [ -86.045750901, 33.373488598 ], [ -86.045869306, 33.373498894 ], [ -86.046036005, 33.373513393 ], [ -86.046202801, 33.373527899 ], [ -86.046217106, 33.373518296 ], [ -86.046347402, 33.373430997 ], [ -86.046477705, 33.373343594 ], [ -86.046608105, 33.373256296 ], [ -86.046738401, 33.373168893 ], [ -86.046868704, 33.373081595 ], [ -86.046936303, 33.372975498 ], [ -86.047014505, 33.372852698 ], [ -86.047092706, 33.372729897 ], [ -86.0471709, 33.372607097 ], [ -86.047249101, 33.372484297 ], [ -86.047262102, 33.372381896 ], [ -86.047279701, 33.372243896 ], [ -86.047297202, 33.3721058 ], [ -86.047314703, 33.3719678 ], [ -86.047332302, 33.371829696 ], [ -86.047349803, 33.371691696 ], [ -86.047367305, 33.3715536 ], [ -86.047384903, 33.3714156 ], [ -86.047402404, 33.371277496 ], [ -86.047419906, 33.371139497 ], [ -86.047437407, 33.3710014 ], [ -86.047455005, 33.370863393 ], [ -86.0474087, 33.3707451 ], [ -86.047356904, 33.370612994 ], [ -86.047305204, 33.370480999 ], [ -86.047253504, 33.370348893 ], [ -86.047201805, 33.370216899 ], [ -86.047150105, 33.370084897 ], [ -86.047098406, 33.369952798 ], [ -86.047046706, 33.369820796 ], [ -86.046995007, 33.369688697 ], [ -86.047004007, 33.369617499 ], [ -86.047021501, 33.369479395 ], [ -86.047039106, 33.369341396 ], [ -86.0470566, 33.369203299 ], [ -86.047074102, 33.3690653 ], [ -86.047088407, 33.369055696 ], [ -86.047218703, 33.368968397 ], [ -86.047349006, 33.368880995 ], [ -86.047479302, 33.368793599 ], [ -86.047609605, 33.368706293 ], [ -86.047740005, 33.368618898 ], [ -86.047762506, 33.368614793 ], [ -86.047926202, 33.368584894 ], [ -86.048090003, 33.368554994 ], [ -86.0482537, 33.3685252 ], [ -86.048417501, 33.368495293 ], [ -86.048581205, 33.368465394 ], [ -86.048745006, 33.368435495 ], [ -86.048908703, 33.368405595 ], [ -86.049072504, 33.368375696 ], [ -86.049236201, 33.368345797 ], [ -86.049400002, 33.368315898 ], [ -86.049563706, 33.368285999 ], [ -86.049727507, 33.3682561 ], [ -86.049891204, 33.368226193 ], [ -86.050055005, 33.368196294 ], [ -86.050218701, 33.368166499 ], [ -86.050382502, 33.3681366 ], [ -86.050546207, 33.368106693 ], [ -86.0506915, 33.368119299 ], [ -86.050858207, 33.368133798 ], [ -86.051025003, 33.368148297 ], [ -86.051191702, 33.368162796 ], [ -86.051358506, 33.368177295 ], [ -86.051525302, 33.368191794 ], [ -86.051692002, 33.3682063 ], [ -86.051858805, 33.368220799 ], [ -86.052025601, 33.368235298 ], [ -86.052192301, 33.368249796 ], [ -86.052359104, 33.368264295 ], [ -86.0525259, 33.368278898 ], [ -86.052692607, 33.368293397 ], [ -86.052859403, 33.368307896 ], [ -86.053026207, 33.368322395 ], [ -86.053192906, 33.368336894 ], [ -86.053359702, 33.3683514 ], [ -86.053526506, 33.368365899 ], [ -86.053693205, 33.368380398 ], [ -86.053860001, 33.368394896 ], [ -86.053934403, 33.368386194 ], [ -86.054100402, 33.3683668 ], [ -86.054266505, 33.368347295 ], [ -86.054432504, 33.368327893 ], [ -86.054598503, 33.368308499 ], [ -86.054764606, 33.368289098 ], [ -86.054930605, 33.368269697 ], [ -86.055096604, 33.368250296 ], [ -86.055157103, 33.368216395 ], [ -86.055296004, 33.3681385 ], [ -86.055434801, 33.368060693 ], [ -86.055573702, 33.367982894 ], [ -86.055712506, 33.367904998 ], [ -86.055851303, 33.367827199 ], [ -86.055990204, 33.367749393 ], [ -86.056129001, 33.367671497 ], [ -86.056267902, 33.367593698 ], [ -86.056406707, 33.367515899 ], [ -86.0565456, 33.367437996 ], [ -86.056684405, 33.367360197 ], [ -86.056823201, 33.367282294 ], [ -86.056962103, 33.367204495 ], [ -86.057100907, 33.367126696 ], [ -86.057239704, 33.3670488 ], [ -86.057378605, 33.366970994 ], [ -86.057517402, 33.366893195 ], [ -86.057656303, 33.366815299 ], [ -86.0577951, 33.3667375 ], [ -86.057933904, 33.366659693 ], [ -86.058072805, 33.366581798 ], [ -86.058211602, 33.366503999 ], [ -86.058281206, 33.366491295 ], [ -86.058444902, 33.366461396 ], [ -86.058608703, 33.366431497 ], [ -86.0587724, 33.366401598 ], [ -86.058936201, 33.366371699 ], [ -86.059099905, 33.366341695 ], [ -86.059263706, 33.366311796 ], [ -86.059427403, 33.366281897 ], [ -86.059591107, 33.366251998 ], [ -86.059754901, 33.366222098 ], [ -86.059918605, 33.366192199 ], [ -86.060082406, 33.3661623 ] ] } },
{ "type": "Feature", "properties": { "site_no": "02405800", "nhdplus_comid": "22206737", "navigation_mode": "DM", "requested_distance_km": 12.0, "start_source": "nwissite", "start_id": "USGS-02405800", "geometry_length_km": 3.1601673141569862 }, "geometry": { "type": "LineString", "coordinates": [ [ -86.060082406, 33.3661623 ], [ -86.061192505, 33.367015198 ], [ -86.061636902, 33.368314497 ], [ -86.0625806, 33.369278893 ], [ -86.064190105, 33.369796894 ], [ -86.069044106, 33.374756798 ], [ -86.069940701, 33.376095198 ], [ -86.0730884, 33.376494497 ], [ -86.073358104, 33.376769997 ], [ -86.073310703, 33.377144098 ], [ -86.072296306, 33.377938494 ], [ -86.072289005, 33.379198499 ], [ -86.0735185, 33.380313694 ], [ -86.0751599, 33.380582199 ], [ -86.076079607, 33.380535893 ], [ -86.076952003, 33.380863696 ], [ -86.078824304, 33.382916994 ], [ -86.078634903, 33.384413294 ], [ -86.079158604, 33.385088995 ] ] } },
{ "type": "Feature", "properties": { "site_no": "02405800", "nhdplus_comid": "22206711", "navigation_mode": "DM", "requested_distance_km": 12.0, "start_source": "nwissite", "start_id": "USGS-02405800", "geometry_length_km": 0.47098219093498211 }, "geometry": { "type": "LineString", "coordinates": [ [ -86.079158604, 33.385088995 ], [ -86.079967901, 33.3859156 ], [ -86.080721207, 33.385980897 ], [ -86.081989706, 33.385586597 ], [ -86.082592301, 33.385638796 ], [ -86.083433203, 33.386216 ] ] } },
{ "type": "Feature", "properties": { "site_no": "02405800", "nhdplus_comid": "22206727", "navigation_mode": "DM", "requested_distance_km": 12.0, "start_source": "nwissite", "start_id": "USGS-02405800", "geometry_length_km": 2.1940494912431552 }, "geometry": { "type": "LineString", "coordinates": [ [ -86.083433203, 33.386216 ], [ -86.084083207, 33.385894097 ], [ -86.084495001, 33.385047399 ], [ -86.085160702, 33.3846009 ], [ -86.085779205, 33.384528399 ], [ -86.086777806, 33.383858599 ], [ -86.0886015, 33.383890495 ], [ -86.089267202, 33.383443899 ], [ -86.089496702, 33.382833496 ], [ -86.089829601, 33.382610194 ], [ -86.090097606, 33.3804904 ], [ -86.089612402, 33.378305398 ], [ -86.090309605, 33.377609394 ], [ -86.093107104, 33.375960797 ], [ -86.095382601, 33.376031794 ], [ -86.0959379, 33.376457997 ], [ -86.0969925, 33.376549296 ], [ -86.097325303, 33.376325995 ], [ -86.097570501, 33.375590898 ] ] } }
]
}
