{
"type": "FeatureCollection",
"name": "USGS_02423586_DM_12km",
"crs": { "type": "name", "properties": { "name": "urn:ogc:def:crs:OGC:1.3:CRS84" } },
"features": [
{ "type": "Feature", "properties": { "site_no": "02423586", "nhdplus_comid": "21655410", "navigation_mode": "DM", "requested_distance_km": 12.0, "start_source": "nwissite", "start_id": "USGS-02423586", "geometry_length_km": 2.5055020300960082 }, "geometry": { "type": "LineString", "coordinates": [ [ -86.813972308, 33.448617489 ], [ -86.815139502, 33.448357195 ], [ -86.816342704, 33.447280996 ], [ -86.818392903, 33.446525894 ], [ -86.819459103, 33.445976496 ], [ -86.820142604, 33.445404194 ], [ -86.822274201, 33.445405096 ], [ -86.822547607, 33.445244797 ], [ -86.823723301, 33.444260299 ], [ -86.824954003, 33.442817397 ], [ -86.8251184, 33.442038499 ], [ -86.8253645, 33.441626295 ], [ -86.825993203, 33.441328697 ], [ -86.827196002, 33.440481499 ], [ -86.827414803, 33.440229595 ], [ -86.828344107, 33.439748794 ], [ -86.828945503, 33.439336695 ], [ -86.830612704, 33.438833199 ], [ -86.831487402, 33.438489899 ], [ -86.8323621, 33.437963299 ], [ -86.833428003, 33.437413894 ], [ -86.834029205, 33.437368296 ], [ -86.835122205, 33.437528998 ], [ -86.835641406, 33.437414594 ] ] } },
{ "type": "Feature", "properties": { "site_no": "02423586", "nhdplus_comid": "21655482", "navigation_mode": "DM", "requested_distance_km": 12.0, "start_source": "nwissite", "start_id": "USGS-02423586", "geometry_length_km": 5.3787289934418627 }, "geometry": { "type": "LineString", "coordinates": [ [ -86.835641406, 33.437414594 ], [ -86.835668802, 33.437231399 ], [ -86.835914902, 33.436841995 ], [ -86.836571001, 33.436269395 ], [ -86.836735003, 33.435971595 ], [ -86.836626202, 33.434963495 ], [ -86.836790301, 33.434734493 ], [ -86.837528303, 33.434207797 ], [ -86.838566802, 33.433795795 ], [ -86.839577802, 33.433704399 ], [ -86.840725407, 33.433796398 ], [ -86.840971403, 33.433704793 ], [ -86.8417641, 33.433017693 ], [ -86.842119604, 33.432445094 ], [ -86.842010602, 33.431689098 ], [ -86.842229307, 33.431139298 ], [ -86.842830606, 33.430612497 ], [ -86.844743706, 33.429490395 ], [ -86.845836803, 33.429032497 ], [ -86.847203203, 33.428208098 ], [ -86.847968504, 33.427612498 ], [ -86.848433107, 33.4268566 ], [ -86.848843202, 33.426490098 ], [ -86.849826805, 33.426100798 ], [ -86.850428104, 33.4254824 ], [ -86.852368303, 33.424108297 ], [ -86.853570603, 33.423627399 ], [ -86.854199104, 33.423237994 ], [ -86.857068405, 33.420489296 ], [ -86.8582706, 33.419733398 ], [ -86.861713402, 33.416870095 ], [ -86.862505801, 33.415885098 ], [ -86.862697303, 33.414808296 ], [ -86.8628885, 33.414441794 ], [ -86.8632164, 33.414143994 ], [ -86.864391305, 33.413273498 ], [ -86.864773706, 33.4124946 ], [ -86.865292802, 33.4117615 ], [ -86.8660032, 33.411372095 ], [ -86.866331004, 33.411074296 ], [ -86.866467707, 33.410730593 ], [ -86.866358504, 33.410203695 ], [ -86.866276503, 33.410134897 ], [ -86.866303802, 33.409470595 ], [ -86.866932206, 33.408416696 ], [ -86.867068805, 33.407889798 ], [ -86.867287606, 33.405667596 ], [ -86.867123604, 33.405278198 ], [ -86.865949206, 33.404040799 ], [ -86.864583604, 33.4027806 ], [ -86.864583701, 33.402574398 ] ] } },
{ "type": "Feature", "properties": { "site_no": "02423586", "nhdplus_comid": "21655554", "navigation_mode": "DM", "requested_distance_km": 12.0, "start_source": "nwissite", "start_id": "USGS-02423586", "geometry_length_km": 5.1690525994518222 }, "geometry": { "type": "LineString", "coordinates": [ [ -86.864583701, 33.402574398 ], [ -86.864337906, 33.402207896 ], [ -86.864501901, 33.401360199 ], [ -86.864884406, 33.400787599 ], [ -86.866714604, 33.399046496 ], [ -86.866987802, 33.398679897 ], [ -86.867097005, 33.398313396 ], [ -86.8670424, 33.398176 ], [ -86.866714701, 33.397878096 ], [ -86.866305001, 33.397878096 ], [ -86.864993803, 33.398633994 ], [ -86.864393003, 33.398725599 ], [ -86.8640652, 33.398473598 ], [ -86.8638741, 33.397831999 ], [ -86.863956101, 33.397167593 ], [ -86.8645299, 33.396022096 ], [ -86.865131006, 33.394510195 ], [ -86.865130901, 33.393272996 ], [ -86.865731902, 33.392425299 ], [ -86.865759306, 33.392104596 ], [ -86.865540802, 33.391600497 ], [ -86.8655136, 33.390981898 ], [ -86.865650207, 33.390752897 ], [ -86.865650304, 33.390500896 ], [ -86.865431704, 33.390386298 ], [ -86.865076706, 33.390363298 ], [ -86.863902301, 33.390683994 ], [ -86.863574505, 33.390958898 ], [ -86.863492407, 33.391921096 ], [ -86.863219202, 33.392952099 ], [ -86.863055304, 33.393181197 ], [ -86.8627275, 33.393249795 ], [ -86.862126701, 33.392883196 ], [ -86.861744404, 33.392401993 ], [ -86.861717105, 33.3918522 ], [ -86.862318203, 33.390569299 ], [ -86.862509504, 33.389813296 ], [ -86.862509601, 33.389286399 ], [ -86.862236604, 33.388576098 ], [ -86.861417405, 33.387476295 ], [ -86.860625602, 33.386605598 ], [ -86.860379905, 33.386009999 ], [ -86.860243507, 33.385207996 ], [ -86.860052407, 33.384910196 ], [ -86.859697402, 33.384589396 ], [ -86.857158005, 33.3833519 ], [ -86.856256902, 33.382412396 ], [ -86.856038503, 33.381908394 ], [ -86.8560661, 33.380968995 ], [ -86.856885605, 33.379640296 ], [ -86.8575138, 33.379021898 ], [ -86.858005501, 33.378265895 ], [ -86.857323006, 33.377509698 ], [ -86.857322901, 33.377234794 ], [ -86.857568704, 33.377005793 ], [ -86.8583607, 33.376662299 ], [ -86.858934306, 33.376204096 ], [ -86.860572703, 33.375814795 ], [ -86.860845804, 33.375608698 ], [ -86.861228205, 33.375104696 ], [ -86.861310206, 33.374898493 ], [ -86.861637801, 33.374715194 ], [ -86.861938201, 33.374738194 ], [ -86.862375006, 33.3751048 ], [ -86.862538904, 33.375219397 ], [ -86.862784602, 33.375104994 ], [ -86.863085106, 33.374898799 ] ] } }
]
}
