{
"type": "FeatureCollection",
"name": "USGS_02408540_DM_12km",
"crs": { "type": "name", "properties": { "name": "urn:ogc:def:crs:OGC:1.3:CRS84" } },
"features": [
{ "type": "Feature", "properties": { "site_no": "02408540", "nhdplus_comid": "22274612", "navigation_mode": "DM", "requested_distance_km": 12.0, "start_source": "nwissite", "start_id": "USGS-02408540", "geometry_length_km": 1.1749943844495443 }, "geometry": { "type": "LineString", "coordinates": [ [ -86.270494822, 32.916918811 ], [ -86.271726601, 32.916520499 ], [ -86.272487305, 32.916429497 ], [ -86.273003101, 32.916590296 ], [ -86.273681901, 32.916934498 ], [ -86.274143204, 32.917324394 ], [ -86.274469003, 32.917347498 ], [ -86.275012605, 32.917141795 ], [ -86.275529206, 32.916661099 ], [ -86.277052902, 32.914462894 ], [ -86.277950101, 32.913707599 ], [ -86.279118501, 32.913296096 ], [ -86.280368201, 32.913182594 ] ] } },
{ "type": "Feature", "properties": { "site_no": "02408540", "nhdplus_comid": "22274614", "navigation_mode": "DM", "requested_distance_km": 12.0, "start_source": "nwissite", "start_id": "USGS-02408540", "geometry_length_km": 0.42970509134185492 }, "geometry": { "type": "LineString", "coordinates": [ [ -86.280368201, 32.913182594 ], [ -86.282350302, 32.913848497 ], [ -86.283001803, 32.914192595 ], [ -86.283978902, 32.914903693 ], [ -86.284032807, 32.915247396 ] ] } },
{ "type": "Feature", "properties": { "site_no": "02408540", "nhdplus_comid": "22274676", "navigation_mode": "DM", "requested_distance_km": 12.0, "start_source": "nwissite", "start_id": "USGS-02408540", "geometry_length_km": 3.0118723713292272 }, "geometry": { "type": "LineString", "coordinates": [ [ -86.284032807, 32.915247396 ], [ -86.284983106, 32.915591694 ], [ -86.285227604, 32.915614896 ], [ -86.285445005, 32.915546298 ], [ -86.285689704, 32.9153402 ], [ -86.285934806, 32.914721899 ], [ -86.285799302, 32.914355196 ], [ -86.285338104, 32.913850799 ], [ -86.284089804, 32.912772894 ], [ -86.283818603, 32.912383296 ], [ -86.283656105, 32.911924899 ], [ -86.2835747, 32.9118791 ], [ -86.283574805, 32.911741599 ], [ -86.283493407, 32.911695696 ], [ -86.283603102, 32.910618998 ], [ -86.283577405, 32.909175493 ], [ -86.283985503, 32.908511497 ], [ -86.284366004, 32.908236794 ], [ -86.2853714, 32.907893896 ], [ -86.286077507, 32.907940298 ], [ -86.286837406, 32.908628196 ], [ -86.287190504, 32.9086513 ], [ -86.287462205, 32.908559799 ], [ -86.287788406, 32.908285096 ], [ -86.288114801, 32.907827094 ], [ -86.288387001, 32.907094195 ], [ -86.288931005, 32.906269796 ], [ -86.289448202, 32.905170396 ], [ -86.289611705, 32.904597796 ], [ -86.290184103, 32.9024904 ], [ -86.290619105, 32.902032398 ], [ -86.291515701, 32.901735298 ], [ -86.293661103, 32.901805498 ], [ -86.295290105, 32.902448095 ], [ -86.2959143, 32.902883798 ], [ -86.2964302, 32.902975693 ], [ -86.297000602, 32.902861498 ], [ -86.297327004, 32.902426399 ], [ -86.297245905, 32.902059898 ], [ -86.2975723, 32.901464395 ] ] } },
{ "type": "Feature", "properties": { "site_no": "02408540", "nhdplus_comid": "22274784", "navigation_mode": "DM", "requested_distance_km": 12.0, "start_source": "nwissite", "start_id": "USGS-02408540", "geometry_length_km": 2.7823134409432853 }, "geometry": { "type": "LineString", "coordinates": [ [ -86.2975723, 32.901464395 ], [ -86.297653906, 32.901303999 ], [ -86.298360601, 32.900662899 ], [ -86.300207905, 32.900045596 ], [ -86.301648304, 32.898854993 ], [ -86.302517705, 32.898489095 ], [ -86.303713307, 32.8977108 ], [ -86.304365501, 32.897161394 ], [ -86.304855503, 32.895695195 ], [ -86.305127405, 32.895282999 ], [ -86.305507906, 32.894939497 ], [ -86.306703307, 32.894321598 ], [ -86.307491407, 32.893565997 ], [ -86.307736203, 32.893176697 ], [ -86.307899505, 32.892626897 ], [ -86.308225803, 32.892100096 ], [ -86.308714904, 32.891687997 ], [ -86.309882902, 32.8912533 ], [ -86.310208902, 32.891024396 ], [ -86.310643904, 32.890337296 ], [ -86.310807407, 32.889604196 ], [ -86.310699604, 32.8886877 ], [ -86.310455702, 32.887954496 ], [ -86.310048707, 32.887518898 ], [ -86.309940301, 32.887243897 ], [ -86.309533305, 32.886831298 ], [ -86.3088274, 32.886464298 ], [ -86.305868402, 32.8855462 ], [ -86.305325307, 32.8854772 ], [ -86.304728106, 32.885270596 ], [ -86.304348402, 32.884812199 ] ] } },
{ "type": "Feature", "properties": { "site_no": "02408540", "nhdplus_comid": "22274790", "navigation_mode": "DM", "requested_distance_km": 12.0, "start_source": "nwissite", "start_id": "USGS-02408540", "geometry_length_km": 1.4313940755898111 }, "geometry": { "type": "LineString", "coordinates": [ [ -86.304348402, 32.884812199 ], [ -86.304375805, 32.884468496 ], [ -86.3049464, 32.884056494 ], [ -86.306141302, 32.883805193 ], [ -86.309507802, 32.884471498 ], [ -86.310946904, 32.884655498 ], [ -86.311707206, 32.884610094 ], [ -86.312657706, 32.884404399 ], [ -86.313879907, 32.883878 ], [ -86.315047607, 32.883855693 ], [ -86.316025004, 32.884176999 ], [ -86.316649206, 32.884658299 ], [ -86.317599304, 32.885002494 ], [ -86.318441205, 32.884911299 ] ] } },
{ "type": "Feature", "properties": { "site_no": "02408540", "nhdplus_comid": "22276216", "navigation_mode": "DM", "requested_distance_km": 12.0, "start_source": "nwissite", "start_id": "USGS-02408540", "geometry_length_km": 3.4801540130569846 }, "geometry": { "type": "LineString", "coordinates": [ [ -86.318441205, 32.884911299 ], [ -86.318848707, 32.884590797 ], [ -86.319501102, 32.883537099 ], [ -86.319555804, 32.882666498 ], [ -86.319393404, 32.881887496 ], [ -86.319230802, 32.881543696 ], [ -86.318118006, 32.880764194 ], [ -86.317222401, 32.880007699 ], [ -86.317059703, 32.879709795 ], [ -86.317032903, 32.879274398 ], [ -86.317169003, 32.878862098 ], [ -86.317522205, 32.878472894 ], [ -86.318635903, 32.877671398 ], [ -86.318935007, 32.876892596 ], [ -86.318854004, 32.876319796 ], [ -86.318338804, 32.875425994 ], [ -86.318013102, 32.875127994 ], [ -86.316250004, 32.872721493 ], [ -86.316006102, 32.872102797 ], [ -86.315789007, 32.871850699 ], [ -86.315735206, 32.871117495 ], [ -86.316305906, 32.870407499 ], [ -86.317880906, 32.869537696 ], [ -86.319510102, 32.869309299 ], [ -86.321654506, 32.869997598 ], [ -86.322713301, 32.870135598 ], [ -86.324912503, 32.869838595 ], [ -86.325265601, 32.869655497 ], [ -86.325374506, 32.869059794 ], [ -86.325266004, 32.868830696 ], [ -86.3240721, 32.867822096 ], [ -86.323963605, 32.867547095 ], [ -86.323964104, 32.866745196 ], [ -86.324072801, 32.866561897 ], [ -86.324398607, 32.866309993 ], [ -86.324860401, 32.865989499 ], [ -86.326218002, 32.865669295 ], [ -86.326923802, 32.865623794 ] ] } }
]
}
