{
"type": "FeatureCollection",
"name": "USGS_02365200_UM_12km",
"crs": { "type": "name", "properties": { "name": "urn:ogc:def:crs:OGC:1.3:CRS84" } },
"features": [
{ "type": "Feature", "properties": { "site_no": "02365200", "nhdplus_comid": "2242015", "navigation_mode": "UM", "requested_distance_km": 12.0, "start_source": "nwissite", "start_id": "USGS-02365200", "geometry_length_km": 0.80378846029895812 }, "geometry": { "type": "LineString", "coordinates": [ [ -85.8402327, 30.956577994 ], [ -85.840470403, 30.955270298 ], [ -85.842986405, 30.951702796 ], [ -85.843150907, 30.949971634 ] ] } },
{ "type": "Feature", "properties": { "site_no": "02365200", "nhdplus_comid": "2242009", "navigation_mode": "UM", "requested_distance_km": 12.0, "start_source": "nwissite", "start_id": "USGS-02365200", "geometry_length_km": 3.1428543192267373 }, "geometry": { "type": "LineString", "coordinates": [ [ -85.8236681, 30.9772764 ], [ -85.823063001, 30.976207696 ], [ -85.822990701, 30.974428296 ], [ -85.823226303, 30.972550698 ], [ -85.824302703, 30.9698641 ], [ -85.825613104, 30.968845099 ], [ -85.827784702, 30.968031995 ], [ -85.828593902, 30.967473395 ], [ -85.829544403, 30.965788096 ], [ -85.830135003, 30.963436596 ], [ -85.830845103, 30.962488897 ], [ -85.831977807, 30.961706795 ], [ -85.835010201, 30.961099394 ], [ -85.837797403, 30.960089497 ], [ -85.838945702, 30.959182099 ], [ -85.839493901, 30.958346099 ], [ -85.839990005, 30.956745595 ], [ -85.8402327, 30.956577994 ] ] } },
{ "type": "Feature", "properties": { "site_no": "02365200", "nhdplus_comid": "2242005", "navigation_mode": "UM", "requested_distance_km": 12.0, "start_source": "nwissite", "start_id": "USGS-02365200", "geometry_length_km": 1.3950554324633557 }, "geometry": { "type": "LineString", "coordinates": [ [ -85.830727302, 30.988182195 ], [ -85.8298297, 30.987086698 ], [ -85.829631604, 30.986308694 ], [ -85.828979202, 30.985615596 ], [ -85.828045502, 30.983630396 ], [ -85.826688901, 30.981479697 ], [ -85.8236681, 30.9772764 ] ] } },
{ "type": "Feature", "properties": { "site_no": "02365200", "nhdplus_comid": "2241995", "navigation_mode": "UM", "requested_distance_km": 12.0, "start_source": "nwissite", "start_id": "USGS-02365200", "geometry_length_km": 1.3937852745335788 }, "geometry": { "type": "LineString", "coordinates": [ [ -85.829171106, 31.000196598 ], [ -85.8291656, 31.000115395 ], [ -85.829158306, 31.000007696 ], [ -85.829151005, 30.999899998 ], [ -85.829143606, 30.9997923 ], [ -85.829136305, 30.999684498 ], [ -85.829137906, 30.999679998 ], [ -85.829173505, 30.999576494 ], [ -85.829209201, 30.999472998 ], [ -85.829244904, 30.999369495 ], [ -85.829280503, 30.999265999 ], [ -85.829316206, 30.999162495 ], [ -85.829351902, 30.999058999 ], [ -85.829387501, 30.998955496 ], [ -85.829423204, 30.998852 ], [ -85.829458803, 30.998748593 ], [ -85.829494506, 30.998645097 ], [ -85.829530202, 30.998541594 ], [ -85.829565801, 30.998438098 ], [ -85.829601504, 30.998334594 ], [ -85.829630904, 30.998314299 ], [ -85.829729006, 30.998246498 ], [ -85.829827204, 30.998178795 ], [ -85.829925306, 30.998111099 ], [ -85.829941601, 30.998060897 ], [ -85.829975501, 30.997956999 ], [ -85.830009401, 30.997853093 ], [ -85.830043301, 30.997749098 ], [ -85.830077104, 30.997645199 ], [ -85.830111004, 30.997541294 ], [ -85.830144905, 30.997437298 ], [ -85.830178805, 30.9973334 ], [ -85.830212705, 30.997229494 ], [ -85.830246501, 30.997125499 ], [ -85.830280401, 30.997021593 ], [ -85.830314301, 30.996917695 ], [ -85.830348201, 30.9968137 ], [ -85.830382101, 30.996709794 ], [ -85.830415905, 30.996605799 ], [ -85.830449805, 30.9965019 ], [ -85.830483705, 30.996397994 ], [ -85.830517605, 30.996293999 ], [ -85.830551401, 30.996190093 ], [ -85.830585301, 30.996086195 ], [ -85.830619201, 30.9959822 ], [ -85.830653101, 30.995878294 ], [ -85.830686904, 30.995774396 ], [ -85.830720805, 30.995670393 ], [ -85.830754705, 30.995566495 ], [ -85.830788605, 30.995462596 ], [ -85.830822505, 30.995358594 ], [ -85.830856301, 30.995254695 ], [ -85.830890201, 30.995150797 ], [ -85.830924101, 30.995046794 ], [ -85.830958001, 30.994942896 ], [ -85.830991805, 30.994838893 ], [ -85.831025705, 30.994734995 ], [ -85.831059605, 30.994631097 ], [ -85.831093505, 30.994527094 ], [ -85.831127301, 30.994423196 ], [ -85.831131801, 30.994387396 ], [ -85.831145301, 30.994280197 ], [ -85.831158705, 30.994172893 ], [ -85.831172206, 30.994065598 ], [ -85.831185706, 30.993958294 ], [ -85.831199102, 30.993850999 ], [ -85.831212603, 30.993743695 ], [ -85.831226006, 30.9936364 ], [ -85.831239507, 30.993529096 ], [ -85.831253007, 30.993421793 ], [ -85.831253804, 30.993398994 ], [ -85.831257604, 30.993291199 ], [ -85.831261404, 30.9931833 ], [ -85.831265204, 30.993075393 ], [ -85.831269003, 30.992967598 ], [ -85.831272803, 30.992859699 ], [ -85.831276603, 30.992751896 ], [ -85.831280403, 30.992643997 ], [ -85.831284203, 30.992536195 ], [ -85.831288002, 30.992428295 ], [ -85.831291907, 30.992320396 ], [ -85.831295706, 30.992212594 ], [ -85.831299506, 30.992104694 ], [ -85.831303306, 30.991996899 ], [ -85.831307106, 30.991889 ], [ -85.831310906, 30.991781093 ], [ -85.831287205, 30.991756 ], [ -85.831208102, 30.991671897 ], [ -85.831129007, 30.9915879 ], [ -85.831049904, 30.991503894 ], [ -85.831047803, 30.991472699 ], [ -85.831040502, 30.991364993 ], [ -85.8310332, 30.991257198 ], [ -85.831025802, 30.9911495 ], [ -85.8310185, 30.991041794 ], [ -85.831011206, 30.990934096 ], [ -85.831003904, 30.990826294 ], [ -85.830996603, 30.990718596 ], [ -85.830989204, 30.990610898 ], [ -85.830981903, 30.990503199 ], [ -85.830974601, 30.990395397 ], [ -85.830967307, 30.990287699 ], [ -85.830959901, 30.990179993 ], [ -85.830952607, 30.990072295 ], [ -85.830945306, 30.9899645 ], [ -85.830938004, 30.989856794 ], [ -85.830930606, 30.989749096 ], [ -85.830923304, 30.989641398 ], [ -85.830916002, 30.989533596 ], [ -85.830908701, 30.989425898 ], [ -85.830901407, 30.989318199 ], [ -85.830894001, 30.989210494 ], [ -85.830857702, 30.989126898 ], [ -85.830813706, 30.989025794 ], [ -85.830769703, 30.988924697 ], [ -85.830725707, 30.9888236 ], [ -85.830681704, 30.988722399 ], [ -85.830637701, 30.988621294 ], [ -85.830593705, 30.988520198 ], [ -85.830549702, 30.988419093 ], [ -85.830591202, 30.988363795 ], [ -85.830659203, 30.988272995 ], [ -85.830727302, 30.988182195 ] ] } },
{ "type": "Feature", "properties": { "site_no": "02365200", "nhdplus_comid": "2238913", "navigation_mode": "UM", "requested_distance_km": 12.0, "start_source": "nwissite", "start_id": "USGS-02365200", "geometry_length_km": 0.067712578872727164 }, "geometry": { "type": "LineString", "coordinates": [ [ -85.829449303, 31.000726193 ], [ -85.829395905, 31.000669599 ], [ -85.829326704, 31.000595994 ], [ -85.829257503, 31.000522494 ], [ -85.829188302, 31.000448994 ], [ -85.829184204, 31.000389494 ], [ -85.829177804, 31.000295199 ], [ -85.829171404, 31.000200897 ], [ -85.829171106, 31.000196598 ] ] } },
{ "type": "Feature", "properties": { "site_no": "02365200", "nhdplus_comid": "2238911", "navigation_mode": "UM", "requested_distance_km": 12.0, "start_source": "nwissite", "start_id": "USGS-02365200", "geometry_length_km": 0.21563000829253268 }, "geometry": { "type": "LineString", "coordinates": [ [ -85.830709405, 31.002337299 ], [ -85.829449303, 31.000726193 ] ] } },
{ "type": "Feature", "properties": { "site_no": "02365200", "nhdplus_comid": "2238907", "navigation_mode": "UM", "requested_distance_km": 12.0, "start_source": "nwissite", "start_id": "USGS-02365200", "geometry_length_km": 1.5186762100017936 }, "geometry": { "type": "LineString", "coordinates": [ [ -85.823850006, 31.005275697 ], [ -85.824398607, 31.004439898 ], [ -85.825532004, 31.0036579 ], [ -85.826555401, 31.003751993 ], [ -85.829280101, 31.006788194 ], [ -85.830596, 31.006909199 ], [ -85.831212305, 31.006712593 ], [ -85.832021803, 31.006153993 ], [ -85.832293704, 31.005166098 ], [ -85.830952406, 31.002890296 ], [ -85.830709405, 31.002337299 ] ] } },
{ "type": "Feature", "properties": { "site_no": "02365200", "nhdplus_comid": "2238905", "navigation_mode": "UM", "requested_distance_km": 12.0, "start_source": "nwissite", "start_id": "USGS-02365200", "geometry_length_km": 0.83139369023177334 }, "geometry": { "type": "LineString", "coordinates": [ [ -85.828741506, 31.010086499 ], [ -85.828433104, 31.010002196 ], [ -85.825180203, 31.008816697 ], [ -85.824219607, 31.008221798 ], [ -85.823582806, 31.007403493 ], [ -85.823964804, 31.005539499 ], [ -85.823850006, 31.005275697 ] ] } },
{ "type": "Feature", "properties": { "site_no": "02365200", "nhdplus_comid": "2238919", "navigation_mode": "UM", "requested_distance_km": 12.0, "start_source": "nwissite", "start_id": "USGS-02365200", "geometry_length_km": 0.54366646276142749 }, "geometry": { "type": "LineString", "coordinates": [ [ -85.834225401, 31.0114308 ], [ -85.832870401, 31.011179194 ], [ -85.831408806, 31.010851599 ], [ -85.829148404, 31.0101946 ], [ -85.828969903, 31.010142095 ], [ -85.828741506, 31.010086499 ] ] } },
{ "type": "Feature", "properties": { "site_no": "02365200", "nhdplus_comid": "2238901", "navigation_mode": "UM", "requested_distance_km": 12.0, "start_source": "nwissite", "start_id": "USGS-02365200", "geometry_length_km": 1.7736632029738517 }, "geometry": { "type": "LineString", "coordinates": [ [ -85.851062901, 31.011764698 ], [ -85.848000303, 31.009647794 ], [ -85.846830606, 31.009540394 ], [ -85.845812201, 31.010586396 ], [ -85.844710201, 31.0111183 ], [ -85.842955604, 31.010957099 ], [ -85.841885, 31.011238597 ], [ -85.841007702, 31.011157997 ], [ -85.839044102, 31.011484094 ], [ -85.837712407, 31.011488296 ], [ -85.837242402, 31.011698395 ], [ -85.834225401, 31.0114308 ] ] } },
{ "type": "Feature", "properties": { "site_no": "02365200", "nhdplus_comid": "2238897", "navigation_mode": "UM", "requested_distance_km": 12.0, "start_source": "nwissite", "start_id": "USGS-02365200", "geometry_length_km": 1.4723335265190169 }, "geometry": { "type": "LineString", "coordinates": [ [ -85.857718803, 31.021807499 ], [ -85.855697505, 31.020229496 ], [ -85.853754804, 31.018025599 ], [ -85.8538488, 31.017274596 ], [ -85.855029106, 31.016116798 ], [ -85.855123103, 31.015365697 ], [ -85.8547628, 31.014699697 ], [ -85.853326701, 31.013175197 ], [ -85.851062901, 31.011764698 ] ] } }
]
}
