{
"type": "FeatureCollection",
"name": "USGS_02470000_UM_12km",
"crs": { "type": "name", "properties": { "name": "urn:ogc:def:crs:OGC:1.3:CRS84" } },
"features": [
{ "type": "Feature", "properties": { "site_no": "02470000", "nhdplus_comid": "21640756", "navigation_mode": "UM", "requested_distance_km": 12.0, "start_source": "nwissite", "start_id": "USGS-02470000", "geometry_length_km": 0.24915159645403004 }, "geometry": { "type": "LineString", "coordinates": [ [ -88.040516302, 31.572756797 ], [ -88.038852224, 31.571021481 ] ] } },
{ "type": "Feature", "properties": { "site_no": "02470000", "nhdplus_comid": "21640748", "navigation_mode": "UM", "requested_distance_km": 12.0, "start_source": "nwissite", "start_id": "USGS-02470000", "geometry_length_km": 0.75482515074220391 }, "geometry": { "type": "LineString", "coordinates": [ [ -88.0459731, 31.577688597 ], [ -88.042999007, 31.5747004 ], [ -88.040516302, 31.572756797 ] ] } },
{ "type": "Feature", "properties": { "site_no": "02470000", "nhdplus_comid": "21640744", "navigation_mode": "UM", "requested_distance_km": 12.0, "start_source": "nwissite", "start_id": "USGS-02470000", "geometry_length_km": 2.4387545479068518 }, "geometry": { "type": "LineString", "coordinates": [ [ -88.066247605, 31.590614095 ], [ -88.061882101, 31.588158697 ], [ -88.051221207, 31.583236098 ], [ -88.050545104, 31.582557 ], [ -88.050434701, 31.582170598 ], [ -88.0459731, 31.577688597 ] ] } },
{ "type": "Feature", "properties": { "site_no": "02470000", "nhdplus_comid": "21640740", "navigation_mode": "UM", "requested_distance_km": 12.0, "start_source": "nwissite", "start_id": "USGS-02470000", "geometry_length_km": 0.32652742852382799 }, "geometry": { "type": "LineString", "coordinates": [ [ -88.0690514, 31.592327394 ], [ -88.066247605, 31.590614095 ] ] } },
{ "type": "Feature", "properties": { "site_no": "02470000", "nhdplus_comid": "21640736", "navigation_mode": "UM", "requested_distance_km": 12.0, "start_source": "nwissite", "start_id": "USGS-02470000", "geometry_length_km": 1.9527293385746882 }, "geometry": { "type": "LineString", "coordinates": [ [ -88.079884805, 31.606092997 ], [ -88.080254003, 31.605362095 ], [ -88.080377303, 31.604108997 ], [ -88.079688907, 31.602041297 ], [ -88.077794902, 31.6001404 ], [ -88.076958604, 31.599576399 ], [ -88.071707703, 31.594030298 ], [ -88.0690514, 31.592327394 ] ] } },
{ "type": "Feature", "properties": { "site_no": "02470000", "nhdplus_comid": "21640730", "navigation_mode": "UM", "requested_distance_km": 12.0, "start_source": "nwissite", "start_id": "USGS-02470000", "geometry_length_km": 6.2524301471495551 }, "geometry": { "type": "LineString", "coordinates": [ [ -88.091346003, 31.657374397 ], [ -88.091272205, 31.656612098 ], [ -88.087727703, 31.650305197 ], [ -88.086669505, 31.647454597 ], [ -88.086325407, 31.644906797 ], [ -88.086560003, 31.639497995 ], [ -88.085871302, 31.635916397 ], [ -88.084432304, 31.6308937 ], [ -88.081541501, 31.625515699 ], [ -88.080360502, 31.6239179 ], [ -88.076018006, 31.619698495 ], [ -88.075107805, 31.618372194 ], [ -88.074394703, 31.616555095 ], [ -88.074481606, 31.614163794 ], [ -88.075848207, 31.610853896 ], [ -88.077054404, 31.609173 ], [ -88.079527907, 31.606698595 ], [ -88.079884805, 31.606092997 ] ] } }
]
}
