{
"type": "FeatureCollection",
"name": "USGS_02413500_UM_12km",
"crs": { "type": "name", "properties": { "name": "urn:ogc:def:crs:OGC:1.3:CRS84" } },
"features": [
{ "type": "Feature", "properties": { "site_no": "02413500", "nhdplus_comid": "15811977", "navigation_mode": "UM", "requested_distance_km": 12.0, "start_source": "nwissite", "start_id": "USGS-02413500", "geometry_length_km": 0.64313145818541151 }, "geometry": { "type": "LineString", "coordinates": [ [ -85.539614804, 33.349628597 ], [ -85.540269904, 33.349537499 ], [ -85.540924706, 33.349789895 ], [ -85.542670302, 33.350936294 ], [ -85.543543503, 33.351143099 ], [ -85.543871105, 33.350982994 ], [ -85.544882007, 33.349907197 ], [ -85.544937658, 33.349573674 ] ] } },
{ "type": "Feature", "properties": { "site_no": "02413500", "nhdplus_comid": "15811915", "navigation_mode": "UM", "requested_distance_km": 12.0, "start_source": "nwissite", "start_id": "USGS-02413500", "geometry_length_km": 1.0534020380172062 }, "geometry": { "type": "LineString", "coordinates": [ [ -85.5304932, 33.355004497 ], [ -85.531448707, 33.354844995 ], [ -85.533387601, 33.353884496 ], [ -85.5351087, 33.352328196 ], [ -85.53672, 33.351367399 ], [ -85.538222402, 33.350200295 ], [ -85.538905002, 33.349834293 ], [ -85.539614804, 33.349628597 ] ] } },
{ "type": "Feature", "properties": { "site_no": "02413500", "nhdplus_comid": "15811929", "navigation_mode": "UM", "requested_distance_km": 12.0, "start_source": "nwissite", "start_id": "USGS-02413500", "geometry_length_km": 1.936822434496557 }, "geometry": { "type": "LineString", "coordinates": [ [ -85.513855003, 33.346446693 ], [ -85.5147833, 33.346149795 ], [ -85.515820302, 33.346196599 ], [ -85.517130002, 33.346403897 ], [ -85.517839104, 33.346748099 ], [ -85.518302701, 33.347069196 ], [ -85.519147702, 33.3479404 ], [ -85.519420102, 33.348398693 ], [ -85.521900602, 33.350874595 ], [ -85.523427002, 33.352479294 ], [ -85.524708703, 33.353396595 ], [ -85.525690705, 33.353832595 ], [ -85.527355202, 33.354223393 ], [ -85.529647, 33.354935199 ], [ -85.5304932, 33.355004497 ] ] } },
{ "type": "Feature", "properties": { "site_no": "02413500", "nhdplus_comid": "15811927", "navigation_mode": "UM", "requested_distance_km": 12.0, "start_source": "nwissite", "start_id": "USGS-02413500", "geometry_length_km": 1.2497684813187528 }, "geometry": { "type": "LineString", "coordinates": [ [ -85.508961402, 33.352603696 ], [ -85.510679901, 33.353315398 ], [ -85.512017101, 33.353614494 ], [ -85.512863301, 33.353477798 ], [ -85.513436705, 33.353249297 ], [ -85.513682701, 33.352951698 ], [ -85.513793007, 33.352173097 ], [ -85.513821207, 33.3513714 ], [ -85.513658807, 33.350340493 ], [ -85.513169304, 33.349057399 ], [ -85.513116203, 33.347934894 ], [ -85.513171904, 33.347041599 ], [ -85.513363302, 33.346766993 ], [ -85.513854906, 33.346515395 ], [ -85.513855003, 33.346446693 ] ] } },
{ "type": "Feature", "properties": { "site_no": "02413500", "nhdplus_comid": "15811911", "navigation_mode": "UM", "requested_distance_km": 12.0, "start_source": "nwissite", "start_id": "USGS-02413500", "geometry_length_km": 2.1038168184685406 }, "geometry": { "type": "LineString", "coordinates": [ [ -85.506330803, 33.360159896 ], [ -85.507339604, 33.360962398 ], [ -85.508103602, 33.361237995 ], [ -85.508731201, 33.361398995 ], [ -85.509577103, 33.361491494 ], [ -85.510041602, 33.361217 ], [ -85.510424405, 33.360713497 ], [ -85.510479704, 33.360209696 ], [ -85.5103167, 33.359636799 ], [ -85.508681305, 33.357940294 ], [ -85.507808402, 33.357504293 ], [ -85.505518503, 33.355440497 ], [ -85.504401602, 33.353950597 ], [ -85.504075103, 33.353217393 ], [ -85.504103601, 33.3523928 ], [ -85.504322402, 33.352049395 ], [ -85.5049778, 33.351843998 ], [ -85.506342404, 33.351822399 ], [ -85.508961402, 33.352603696 ] ] } },
{ "type": "Feature", "properties": { "site_no": "02413500", "nhdplus_comid": "15812121", "navigation_mode": "UM", "requested_distance_km": 12.0, "start_source": "nwissite", "start_id": "USGS-02413500", "geometry_length_km": 3.0905933515019517 }, "geometry": { "type": "LineString", "coordinates": [ [ -85.498747706, 33.370242894 ], [ -85.499512106, 33.370356597 ], [ -85.499948807, 33.370241597 ], [ -85.500502601, 33.369911499 ], [ -85.500776403, 33.369384997 ], [ -85.501022801, 33.368835494 ], [ -85.500997305, 33.367621496 ], [ -85.500916503, 33.366842695 ], [ -85.500808105, 33.366338596 ], [ -85.500481002, 33.366017595 ], [ -85.499942601, 33.365706399 ], [ -85.499014005, 33.365363799 ], [ -85.497130103, 33.365136497 ], [ -85.496338405, 33.364976898 ], [ -85.4953546, 33.364199094 ], [ -85.494616002, 33.362985797 ], [ -85.494557403, 33.359985299 ], [ -85.4948017, 33.358954296 ], [ -85.495237201, 33.357969098 ], [ -85.495946005, 33.357326999 ], [ -85.496518806, 33.357097395 ], [ -85.497310102, 33.356867693 ], [ -85.498674802, 33.356820494 ], [ -85.499958105, 33.357139893 ], [ -85.502868004, 33.357522398 ], [ -85.504095703, 33.357958794 ], [ -85.504586503, 33.358302794 ], [ -85.5061948, 33.359839097 ], [ -85.506330803, 33.360159896 ] ] } }
]
}
