{
"type": "FeatureCollection",
"name": "USGS_02406930_DM_12km",
"crs": { "type": "name", "properties": { "name": "urn:ogc:def:crs:OGC:1.3:CRS84" } },
"features": [
{ "type": "Feature", "properties": { "site_no": "02406930", "nhdplus_comid": "22271988", "navigation_mode": "DM", "requested_distance_km": 12.0, "start_source": "nwissite", "start_id": "USGS-02406930", "geometry_length_km": 2.04144530944138 }, "geometry": { "type": "LineString", "coordinates": [ [ -86.273060648, 33.212022236 ], [ -86.273233406, 33.212768495 ], [ -86.273695901, 33.213433295 ], [ -86.273805, 33.2134334 ], [ -86.273913801, 33.213593796 ], [ -86.273913503, 33.213868797 ], [ -86.271541305, 33.214645699 ], [ -86.270668902, 33.214851096 ], [ -86.270287007, 33.215171598 ], [ -86.269904502, 33.2158814 ], [ -86.269575901, 33.217163995 ], [ -86.269030005, 33.217736296 ], [ -86.268374801, 33.218606293 ], [ -86.267529003, 33.2193157 ], [ -86.2668733, 33.220460594 ], [ -86.266736604, 33.220827095 ], [ -86.265344806, 33.222177394 ], [ -86.264417201, 33.2227723 ], [ -86.263816901, 33.223275796 ], [ -86.263216302, 33.224008299 ], [ -86.2625615, 33.224488795 ], [ -86.2611432, 33.225105993 ] ] } },
{ "type": "Feature", "properties": { "site_no": "02406930", "nhdplus_comid": "22271784", "navigation_mode": "DM", "requested_distance_km": 12.0, "start_source": "nwissite", "start_id": "USGS-02406930", "geometry_length_km": 1.0629890247305585 }, "geometry": { "type": "LineString", "coordinates": [ [ -86.2611432, 33.225105993 ], [ -86.260678805, 33.225930296 ], [ -86.260678403, 33.226205297 ], [ -86.260950707, 33.226411797 ], [ -86.261495702, 33.226503894 ], [ -86.261740804, 33.226641595 ], [ -86.261849605, 33.226893693 ], [ -86.261821903, 33.227214396 ], [ -86.261548601, 33.227672294 ], [ -86.260703102, 33.228083894 ], [ -86.260593802, 33.228289999 ], [ -86.260348305, 33.228450194 ], [ -86.259639502, 33.228472397 ], [ -86.259229302, 33.229388393 ], [ -86.259255506, 33.230167396 ], [ -86.259364307, 33.230373695 ], [ -86.259336807, 33.230556898 ], [ -86.258791305, 33.230739594 ], [ -86.258818306, 33.230922997 ], [ -86.259499304, 33.231358893 ], [ -86.259853207, 33.231679894 ], [ -86.2599345, 33.232023694 ] ] } },
{ "type": "Feature", "properties": { "site_no": "02406930", "nhdplus_comid": "22271750", "navigation_mode": "DM", "requested_distance_km": 12.0, "start_source": "nwissite", "start_id": "USGS-02406930", "geometry_length_km": 0.44941490858176664 }, "geometry": { "type": "LineString", "coordinates": [ [ -86.2599345, 33.232023694 ], [ -86.260506503, 33.232413694 ], [ -86.261133105, 33.232689194 ], [ -86.261432305, 33.233193398 ], [ -86.261622101, 33.233949699 ], [ -86.261593603, 33.234865993 ], [ -86.2614021, 33.2354156 ] ] } },
{ "type": "Feature", "properties": { "site_no": "02406930", "nhdplus_comid": "22271738", "navigation_mode": "DM", "requested_distance_km": 12.0, "start_source": "nwissite", "start_id": "USGS-02406930", "geometry_length_km": 0.65019335409308232 }, "geometry": { "type": "LineString", "coordinates": [ [ -86.2614021, 33.2354156 ], [ -86.261211105, 33.235552996 ], [ -86.2609924, 33.2359422 ], [ -86.260637604, 33.236239694 ], [ -86.260392107, 33.236331098 ], [ -86.2596016, 33.236307494 ], [ -86.258702107, 33.236146197 ], [ -86.257938802, 33.236214198 ], [ -86.257502206, 33.236419998 ], [ -86.2572565, 33.2367405 ], [ -86.257174104, 33.237198599 ], [ -86.257064901, 33.237290099 ], [ -86.2561379, 33.237403698 ], [ -86.255864903, 33.237632498 ] ] } },
{ "type": "Feature", "properties": { "site_no": "02406930", "nhdplus_comid": "22273290", "navigation_mode": "DM", "requested_distance_km": 12.0, "start_source": "nwissite", "start_id": "USGS-02406930", "geometry_length_km": 2.1068233891852257 }, "geometry": { "type": "LineString", "coordinates": [ [ -86.255864903, 33.237632498 ], [ -86.2558643, 33.238090694 ], [ -86.256299205, 33.2389846 ], [ -86.256298602, 33.239442796 ], [ -86.256189205, 33.239625998 ], [ -86.255343206, 33.2402438 ], [ -86.255097106, 33.240816198 ], [ -86.254714705, 33.241319798 ], [ -86.254741505, 33.241686493 ], [ -86.255531207, 33.242397398 ], [ -86.256266706, 33.242810495 ], [ -86.2565661, 33.243108593 ], [ -86.256674401, 33.243658595 ], [ -86.2564831, 33.244024999 ], [ -86.255718805, 33.244688593 ], [ -86.255582102, 33.244894594 ], [ -86.255581602, 33.245261095 ], [ -86.2556905, 33.2453987 ], [ -86.255662806, 33.245696597 ], [ -86.255308002, 33.245993994 ], [ -86.255307406, 33.246383496 ], [ -86.255579703, 33.246635698 ], [ -86.256478906, 33.247048996 ], [ -86.256505907, 33.247163594 ], [ -86.256505102, 33.247782096 ], [ -86.256641001, 33.248103 ], [ -86.257758304, 33.2485165 ], [ -86.258085005, 33.248860493 ], [ -86.258766003, 33.249296397 ], [ -86.258956403, 33.249617293 ], [ -86.2590103, 33.250121295 ], [ -86.259097703, 33.250422694 ], [ -86.259152107, 33.2504685 ], [ -86.259066701, 33.253240496 ] ] } },
{ "type": "Feature", "properties": { "site_no": "02406930", "nhdplus_comid": "22271678", "navigation_mode": "DM", "requested_distance_km": 12.0, "start_source": "nwissite", "start_id": "USGS-02406930", "geometry_length_km": 0.20604720998987452 }, "geometry": { "type": "LineString", "coordinates": [ [ -86.259066701, 33.253240496 ], [ -86.259038702, 33.253767394 ], [ -86.258874603, 33.254156694 ], [ -86.258873805, 33.254706495 ], [ -86.259146102, 33.254981697 ] ] } },
{ "type": "Feature", "properties": { "site_no": "02406930", "nhdplus_comid": "22271666", "navigation_mode": "DM", "requested_distance_km": 12.0, "start_source": "nwissite", "start_id": "USGS-02406930", "geometry_length_km": 1.4302507479425328 }, "geometry": { "type": "LineString", "coordinates": [ [ -86.259146102, 33.254981697 ], [ -86.259609401, 33.255279899 ], [ -86.260536, 33.255647399 ], [ -86.261489503, 33.2563584 ], [ -86.263424903, 33.256818399 ], [ -86.263888203, 33.257024899 ], [ -86.264514603, 33.257644095 ], [ -86.265414305, 33.257782295 ], [ -86.265741102, 33.258034699 ], [ -86.265931606, 33.2584472 ], [ -86.266120002, 33.260440499 ], [ -86.266255401, 33.261196695 ], [ -86.266527407, 33.261700794 ], [ -86.26737, 33.263969697 ], [ -86.2675061, 33.264175899 ] ] } },
{ "type": "Feature", "properties": { "site_no": "02406930", "nhdplus_comid": "22271604", "navigation_mode": "DM", "requested_distance_km": 12.0, "start_source": "nwissite", "start_id": "USGS-02406930", "geometry_length_km": 2.6365319749193077 }, "geometry": { "type": "LineString", "coordinates": [ [ -86.2675061, 33.264175899 ], [ -86.267478406, 33.264565393 ], [ -86.2669046, 33.265504099 ], [ -86.266957805, 33.266603895 ], [ -86.267175503, 33.266993493 ], [ -86.2675841, 33.267360397 ], [ -86.2680474, 33.267544098 ], [ -86.268729404, 33.267476 ], [ -86.269111402, 33.267270096 ], [ -86.269930303, 33.266629294 ], [ -86.270639904, 33.266217597 ], [ -86.271430604, 33.266241096 ], [ -86.271757707, 33.266378894 ], [ -86.272057503, 33.266654 ], [ -86.272165902, 33.267158195 ], [ -86.272056103, 33.2678454 ], [ -86.273145907, 33.268670999 ], [ -86.274589702, 33.270115398 ], [ -86.274807602, 33.2703906 ], [ -86.274970703, 33.270757295 ], [ -86.2749428, 33.271352798 ], [ -86.274532504, 33.272429295 ], [ -86.274531901, 33.272910394 ], [ -86.275077105, 33.273162797 ], [ -86.276113607, 33.2730949 ], [ -86.277558602, 33.273622997 ], [ -86.277994305, 33.274104394 ], [ -86.279030301, 33.274540499 ], [ -86.279112004, 33.274632193 ], [ -86.2787567, 33.275296293 ], [ -86.278783202, 33.275960699 ], [ -86.279000603, 33.276694 ], [ -86.2789184, 33.277129196 ], [ -86.2786723, 33.277701795 ], [ -86.278507501, 33.278686695 ] ] } }
]
}
