{
"type": "FeatureCollection",
"name": "USGS_03589260_DM_12km",
"crs": { "type": "name", "properties": { "name": "urn:ogc:def:crs:OGC:1.3:CRS84" } },
"features": [
{ "type": "Feature", "properties": { "site_no": "03589260", "nhdplus_comid": "19581349", "navigation_mode": "DM", "requested_distance_km": 12.0, "start_source": "nwissite", "start_id": "USGS-03589260", "geometry_length_km": 0.28643306699601667 }, "geometry": { "type": "LineString", "coordinates": [ [ -87.643154564, 34.78688574 ], [ -87.643182501, 34.786991693 ], [ -87.643682405, 34.788045295 ], [ -87.643877007, 34.788755298 ], [ -87.643849202, 34.7893508 ] ] } },
{ "type": "Feature", "properties": { "site_no": "03589260", "nhdplus_comid": "19623624", "navigation_mode": "DM", "requested_distance_km": 12.0, "start_source": "nwissite", "start_id": "USGS-03589260", "geometry_length_km": 0.0063864659752764221 }, "geometry": { "type": "LineString", "coordinates": [ [ -87.643849202, 34.7893508 ], [ -87.643827602, 34.789332993 ], [ -87.643828101, 34.789365098 ] ] } },
{ "type": "Feature", "properties": { "site_no": "03589260", "nhdplus_comid": "19623622", "navigation_mode": "DM", "requested_distance_km": 12.0, "start_source": "nwissite", "start_id": "USGS-03589260", "geometry_length_km": 0.38468798838099943 }, "geometry": { "type": "LineString", "coordinates": [ [ -87.643828101, 34.789365098 ], [ -87.643830806, 34.7895386 ], [ -87.645031705, 34.790701397 ], [ -87.647157304, 34.790988095 ] ] } },
{ "type": "Feature", "properties": { "site_no": "03589260", "nhdplus_comid": "19623648", "navigation_mode": "DM", "requested_distance_km": 12.0, "start_source": "nwissite", "start_id": "USGS-03589260", "geometry_length_km": 2.1244862923647783 }, "geometry": { "type": "LineString", "coordinates": [ [ -87.647157304, 34.790988095 ], [ -87.6543274, 34.787596695 ], [ -87.664130807, 34.784392893 ], [ -87.668134004, 34.7826593 ] ] } },
{ "type": "Feature", "properties": { "site_no": "03589260", "nhdplus_comid": "19623652", "navigation_mode": "DM", "requested_distance_km": 12.0, "start_source": "nwissite", "start_id": "USGS-03589260", "geometry_length_km": 0.34248917684570351 }, "geometry": { "type": "LineString", "coordinates": [ [ -87.668134004, 34.7826593 ], [ -87.6707967, 34.782579996 ], [ -87.671484105, 34.782359794 ], [ -87.6717989, 34.7825168 ] ] } },
{ "type": "Feature", "properties": { "site_no": "03589260", "nhdplus_comid": "19623678", "navigation_mode": "DM", "requested_distance_km": 12.0, "start_source": "nwissite", "start_id": "USGS-03589260", "geometry_length_km": 2.3055981509775969 }, "geometry": { "type": "LineString", "coordinates": [ [ -87.6717989, 34.7825168 ], [ -87.674476005, 34.782303795 ], [ -87.677883901, 34.7814698 ], [ -87.681335106, 34.780234896 ], [ -87.684220105, 34.779632598 ], [ -87.686983801, 34.778617896 ], [ -87.689016804, 34.778224096 ], [ -87.690584801, 34.777527995 ], [ -87.692811206, 34.7768787 ], [ -87.693813302, 34.7768154 ], [ -87.694873005, 34.776217699 ], [ -87.695696004, 34.776276194 ] ] } },
{ "type": "Feature", "properties": { "site_no": "03589260", "nhdplus_comid": "19623682", "navigation_mode": "DM", "requested_distance_km": 12.0, "start_source": "nwissite", "start_id": "USGS-03589260", "geometry_length_km": 0.88921758544041596 }, "geometry": { "type": "LineString", "coordinates": [ [ -87.695696004, 34.776276194 ], [ -87.696412101, 34.775788598 ], [ -87.700177506, 34.774710193 ], [ -87.702045806, 34.774304494 ], [ -87.703362606, 34.774397999 ], [ -87.704626903, 34.7735871 ] ] } },
{ "type": "Feature", "properties": { "site_no": "03589260", "nhdplus_comid": "19623684", "navigation_mode": "DM", "requested_distance_km": 12.0, "start_source": "nwissite", "start_id": "USGS-03589260", "geometry_length_km": 0.0041360024944809195 }, "geometry": { "type": "LineString", "coordinates": [ [ -87.704626903, 34.7735871 ], [ -87.704666205, 34.773568399 ] ] } },
{ "type": "Feature", "properties": { "site_no": "03589260", "nhdplus_comid": "19623692", "navigation_mode": "DM", "requested_distance_km": 12.0, "start_source": "nwissite", "start_id": "USGS-03589260", "geometry_length_km": 0.15955642631110747 }, "geometry": { "type": "LineString", "coordinates": [ [ -87.704666205, 34.773568399 ], [ -87.706183404, 34.772848397 ] ] } },
{ "type": "Feature", "properties": { "site_no": "03589260", "nhdplus_comid": "19623736", "navigation_mode": "DM", "requested_distance_km": 12.0, "start_source": "nwissite", "start_id": "USGS-03589260", "geometry_length_km": 3.4890275698864004 }, "geometry": { "type": "LineString", "coordinates": [ [ -87.706183404, 34.772848397 ], [ -87.707901403, 34.772297397 ], [ -87.711051203, 34.770770997 ], [ -87.715167806, 34.767967097 ], [ -87.715340406, 34.766364098 ], [ -87.7157702, 34.765452296 ], [ -87.716887206, 34.764319994 ], [ -87.717123702, 34.763663799 ], [ -87.718405105, 34.762543097 ], [ -87.719429307, 34.760731198 ], [ -87.721662901, 34.758466594 ], [ -87.722686902, 34.756654695 ], [ -87.724669501, 34.755179897 ], [ -87.726230204, 34.7530021 ], [ -87.726789102, 34.750887997 ], [ -87.727533504, 34.750132993 ], [ -87.727784202, 34.749343097 ], [ -87.728320904, 34.748977296 ] ] } },
{ "type": "Feature", "properties": { "site_no": "03589260", "nhdplus_comid": "19623798", "navigation_mode": "DM", "requested_distance_km": 12.0, "start_source": "nwissite", "start_id": "USGS-03589260", "geometry_length_km": 4.3479866743368918 }, "geometry": { "type": "LineString", "coordinates": [ [ -87.728320904, 34.748977296 ], [ -87.732986704, 34.745673299 ], [ -87.734195903, 34.745220497 ], [ -87.739761703, 34.745883599 ], [ -87.742852502, 34.744890794 ], [ -87.745535605, 34.743061393 ], [ -87.749148503, 34.741836093 ], [ -87.750908405, 34.740883596 ], [ -87.752103105, 34.740564093 ], [ -87.757904805, 34.737474099 ], [ -87.7598719, 34.736132197 ], [ -87.761960603, 34.735202797 ], [ -87.763391204, 34.734226897 ], [ -87.763999104, 34.733192898 ], [ -87.765429601, 34.732216895 ], [ -87.768562406, 34.730822593 ] ] } }
]
}
