{
"type": "FeatureCollection",
"name": "USGS_02424010_DM_12km",
"crs": { "type": "name", "properties": { "name": "urn:ogc:def:crs:OGC:1.3:CRS84" } },
"features": [
{ "type": "Feature", "properties": { "site_no": "02424010", "nhdplus_comid": "21659230", "navigation_mode": "DM", "requested_distance_km": 12.0, "start_source": "nwissite", "start_id": "USGS-02424010", "geometry_length_km": 0.95987788909115301 }, "geometry": { "type": "LineString", "coordinates": [ [ -86.998575605, 32.887478098 ], [ -86.998169206, 32.888188794 ], [ -86.997736804, 32.889701493 ], [ -86.997738704, 32.891030394 ], [ -86.998146802, 32.891625695 ], [ -86.9989352, 32.892174698 ], [ -86.999913305, 32.892540395 ], [ -86.999643005, 32.893457294 ], [ -86.999916703, 32.894992098 ] ] } },
{ "type": "Feature", "properties": { "site_no": "02424010", "nhdplus_comid": "21659222", "navigation_mode": "DM", "requested_distance_km": 12.0, "start_source": "nwissite", "start_id": "USGS-02424010", "geometry_length_km": 0.0070115316673777881 }, "geometry": { "type": "LineString", "coordinates": [ [ -86.999916703, 32.894992098 ], [ -86.999992102, 32.894992098 ] ] } },
{ "type": "Feature", "properties": { "site_no": "02424010", "nhdplus_comid": "21662112", "navigation_mode": "DM", "requested_distance_km": 12.0, "start_source": "nwissite", "start_id": "USGS-02424010", "geometry_length_km": 0.017886799567058399 }, "geometry": { "type": "LineString", "coordinates": [ [ -86.999992102, 32.894992098 ], [ -86.999992102, 32.895152397 ] ] } },
{ "type": "Feature", "properties": { "site_no": "02424010", "nhdplus_comid": "21660166", "navigation_mode": "DM", "requested_distance_km": 12.0, "start_source": "nwissite", "start_id": "USGS-02424010", "geometry_length_km": 1.119968507100771 }, "geometry": { "type": "LineString", "coordinates": [ [ -86.999992102, 32.895152397 ], [ -87.000962704, 32.895657495 ], [ -87.002020605, 32.896574996 ], [ -87.002481602, 32.897102393 ], [ -87.002617002, 32.897400394 ], [ -87.002643704, 32.897744097 ], [ -87.002725102, 32.89779 ], [ -87.002995506, 32.898660898 ], [ -87.003320903, 32.899050795 ], [ -87.004894406, 32.9003812 ], [ -87.006007105, 32.901115395 ], [ -87.006630905, 32.901665896 ], [ -87.007254601, 32.902468398 ], [ -87.007254206, 32.902743399 ] ] } },
{ "type": "Feature", "properties": { "site_no": "02424010", "nhdplus_comid": "21660132", "navigation_mode": "DM", "requested_distance_km": 12.0, "start_source": "nwissite", "start_id": "USGS-02424010", "geometry_length_km": 1.2740145427432572 }, "geometry": { "type": "LineString", "coordinates": [ [ -87.007254206, 32.902743399 ], [ -87.007498406, 32.902926899 ], [ -87.009371504, 32.903661899 ], [ -87.010023303, 32.903776996 ], [ -87.011001103, 32.903754994 ], [ -87.011788502, 32.903961897 ], [ -87.012603603, 32.903802194 ], [ -87.0133368, 32.903825797 ], [ -87.014070004, 32.9040097 ], [ -87.014721401, 32.904399894 ], [ -87.014992706, 32.904652096 ], [ -87.015834205, 32.904973596 ], [ -87.016023904, 32.905409098 ], [ -87.016050607, 32.905729897 ], [ -87.016349107, 32.906027995 ], [ -87.016729102, 32.906188697 ], [ -87.017679505, 32.906349994 ], [ -87.019173101, 32.906717896 ] ] } },
{ "type": "Feature", "properties": { "site_no": "02424010", "nhdplus_comid": "21660116", "navigation_mode": "DM", "requested_distance_km": 12.0, "start_source": "nwissite", "start_id": "USGS-02424010", "geometry_length_km": 1.2588206357001037 }, "geometry": { "type": "LineString", "coordinates": [ [ -87.019173101, 32.906717896 ], [ -87.0196345, 32.906924494 ], [ -87.019824304, 32.907222494 ], [ -87.0198237, 32.907795295 ], [ -87.020040303, 32.908276595 ], [ -87.020393103, 32.908620596 ], [ -87.022049107, 32.909378096 ], [ -87.022836603, 32.909584895 ], [ -87.024086006, 32.909654699 ], [ -87.024330303, 32.909861095 ], [ -87.024438404, 32.9102965 ], [ -87.024682701, 32.910411298 ], [ -87.024927206, 32.910388499 ], [ -87.025280505, 32.910228394 ], [ -87.025959805, 32.910091497 ], [ -87.026204102, 32.910114594 ], [ -87.026502602, 32.910481393 ], [ -87.027425803, 32.910779998 ], [ -87.027778603, 32.9110552 ], [ -87.0278311, 32.912750795 ] ] } },
{ "type": "Feature", "properties": { "site_no": "02424010", "nhdplus_comid": "21660096", "navigation_mode": "DM", "requested_distance_km": 12.0, "start_source": "nwissite", "start_id": "USGS-02424010", "geometry_length_km": 4.8295762030485214 }, "geometry": { "type": "LineString", "coordinates": [ [ -87.0278311, 32.912750795 ], [ -87.027694806, 32.913163096 ], [ -87.027450003, 32.913483597 ], [ -87.027449504, 32.913850196 ], [ -87.028400101, 32.914011396 ], [ -87.028100602, 32.914698496 ], [ -87.0281002, 32.915019296 ], [ -87.028344505, 32.915271498 ], [ -87.029430404, 32.915867999 ], [ -87.029837504, 32.916212 ], [ -87.029973, 32.916486993 ], [ -87.030353002, 32.916785195 ], [ -87.031004705, 32.917060696 ], [ -87.031439006, 32.917404599 ], [ -87.032525405, 32.917542897 ], [ -87.0328511, 32.917772293 ], [ -87.033013903, 32.918047398 ], [ -87.033583805, 32.918551795 ], [ -87.034126401, 32.919239596 ], [ -87.035266906, 32.919813298 ], [ -87.035673805, 32.920340493 ], [ -87.036135204, 32.920707494 ], [ -87.037248902, 32.920845799 ], [ -87.037357502, 32.920914598 ], [ -87.037411101, 32.921716593 ], [ -87.037899703, 32.922083497 ], [ -87.038578801, 32.922152594 ], [ -87.038904801, 32.922084093 ], [ -87.039122306, 32.921946794 ], [ -87.039557002, 32.921969995 ], [ -87.039801404, 32.922038898 ], [ -87.039936706, 32.922565997 ], [ -87.040371202, 32.922772497 ], [ -87.041430801, 32.922612794 ], [ -87.041729905, 32.922360994 ], [ -87.042680703, 32.922499098 ], [ -87.043523006, 32.922339298 ], [ -87.044446304, 32.9226835 ], [ -87.046564601, 32.923647195 ], [ -87.0481942, 32.924037695 ], [ -87.048628703, 32.924266994 ], [ -87.048981607, 32.924633898 ], [ -87.0501763, 32.925321899 ], [ -87.050393201, 32.925917797 ], [ -87.050800204, 32.926559493 ], [ -87.051587507, 32.9271328 ], [ -87.052348107, 32.927293599 ], [ -87.053325802, 32.927660793 ], [ -87.054467, 32.927501097 ], [ -87.0552551, 32.927272394 ], [ -87.056178801, 32.927295797 ], [ -87.056803502, 32.927571096 ], [ -87.057645202, 32.928236 ], [ -87.057916805, 32.928304896 ], [ -87.058596, 32.928305194 ], [ -87.059220806, 32.928488798 ], [ -87.059655301, 32.928763993 ], [ -87.059790701, 32.929291099 ], [ -87.0599536, 32.929520197 ], [ -87.060551405, 32.929383099 ], [ -87.061094604, 32.929612495 ], [ -87.061366305, 32.929498099 ], [ -87.061719805, 32.929177493 ], [ -87.062290207, 32.929292299 ], [ -87.063051105, 32.929109499 ], [ -87.0641101, 32.929888897 ], [ -87.064707704, 32.9301643 ], [ -87.064951904, 32.930622697 ], [ -87.064978607, 32.931218393 ], [ -87.0645978, 32.931882694 ], [ -87.064570501, 32.932065897 ] ] } },
{ "type": "Feature", "properties": { "site_no": "02424010", "nhdplus_comid": "21660036", "navigation_mode": "DM", "requested_distance_km": 12.0, "start_source": "nwissite", "start_id": "USGS-02424010", "geometry_length_km": 0.16170100894636885 }, "geometry": { "type": "LineString", "coordinates": [ [ -87.064570501, 32.932065897 ], [ -87.064733304, 32.932363793 ], [ -87.065032005, 32.932661898 ], [ -87.065004401, 32.933394998 ] ] } },
{ "type": "Feature", "properties": { "site_no": "02424010", "nhdplus_comid": "21660020", "navigation_mode": "DM", "requested_distance_km": 12.0, "start_source": "nwissite", "start_id": "USGS-02424010", "geometry_length_km": 0.6439015947224811 }, "geometry": { "type": "LineString", "coordinates": [ [ -87.065004401, 32.933394998 ], [ -87.065112904, 32.933601193 ], [ -87.065438703, 32.933876395 ], [ -87.065900505, 32.934105694 ], [ -87.066226304, 32.934449598 ], [ -87.066932604, 32.934770696 ], [ -87.067258507, 32.934793696 ], [ -87.0674216, 32.934633397 ], [ -87.067585006, 32.934129395 ], [ -87.067748204, 32.933991998 ], [ -87.068617702, 32.933854893 ], [ -87.0700031, 32.934222095 ], [ -87.070492007, 32.934428595 ] ] } },
{ "type": "Feature", "properties": { "site_no": "02424010", "nhdplus_comid": "21660010", "navigation_mode": "DM", "requested_distance_km": 12.0, "start_source": "nwissite", "start_id": "USGS-02424010", "geometry_length_km": 0.58722112630594814 }, "geometry": { "type": "LineString", "coordinates": [ [ -87.070492007, 32.934428595 ], [ -87.070627801, 32.934611894 ], [ -87.071143806, 32.934887096 ], [ -87.071850203, 32.934978999 ], [ -87.073262706, 32.935758598 ], [ -87.0735071, 32.935781598 ], [ -87.074241005, 32.935415298 ], [ -87.074892901, 32.935736299 ], [ -87.075571805, 32.936538495 ] ] } },
{ "type": "Feature", "properties": { "site_no": "02424010", "nhdplus_comid": "21660000", "navigation_mode": "DM", "requested_distance_km": 12.0, "start_source": "nwissite", "start_id": "USGS-02424010", "geometry_length_km": 1.2502074716180296 }, "geometry": { "type": "LineString", "coordinates": [ [ -87.075571805, 32.936538495 ], [ -87.075816207, 32.936561599 ], [ -87.076169401, 32.9367221 ], [ -87.076332301, 32.936905399 ], [ -87.076685503, 32.936951399 ], [ -87.076957107, 32.937134795 ], [ -87.077065602, 32.937570095 ], [ -87.077391706, 32.937616095 ], [ -87.077935107, 32.937478796 ], [ -87.077989303, 32.937753797 ], [ -87.077853307, 32.937959895 ], [ -87.077853203, 32.938189097 ], [ -87.078179106, 32.938395396 ], [ -87.078586705, 32.938532993 ], [ -87.079918206, 32.938281499 ], [ -87.080162704, 32.938350298 ], [ -87.080053702, 32.938854299 ], [ -87.080379806, 32.938991897 ], [ -87.081004806, 32.938900493 ], [ -87.081330806, 32.938694298 ], [ -87.081656903, 32.938625798 ], [ -87.081982903, 32.938786298 ], [ -87.082227603, 32.938763395 ], [ -87.082336307, 32.938603096 ], [ -87.082363605, 32.938282296 ], [ -87.081875004, 32.937457293 ], [ -87.081875205, 32.936815694 ], [ -87.081984103, 32.936334699 ], [ -87.082446404, 32.935624599 ] ] } }
]
}
