{
"type": "FeatureCollection",
"name": "USGS_02407514_DM_12km",
"crs": { "type": "name", "properties": { "name": "urn:ogc:def:crs:OGC:1.3:CRS84" } },
"features": [
{ "type": "Feature", "properties": { "site_no": "02407514", "nhdplus_comid": "22271288", "navigation_mode": "DM", "requested_distance_km": 12.0, "start_source": "nwissite", "start_id": "USGS-02407514", "geometry_length_km": 0.44317651958981891 }, "geometry": { "type": "LineString", "coordinates": [ [ -86.495167047, 33.320398328 ], [ -86.495131105, 33.320385799 ], [ -86.4943664, 33.319974199 ], [ -86.492918603, 33.3187842 ], [ -86.491989203, 33.317616597 ], [ -86.491880007, 33.317593798 ] ] } },
{ "type": "Feature", "properties": { "site_no": "02407514", "nhdplus_comid": "22271346", "navigation_mode": "DM", "requested_distance_km": 12.0, "start_source": "nwissite", "start_id": "USGS-02407514", "geometry_length_km": 1.7207912776061691 }, "geometry": { "type": "LineString", "coordinates": [ [ -86.491880007, 33.317593798 ], [ -86.491906807, 33.317204393 ], [ -86.492124505, 33.3167689 ], [ -86.492424406, 33.316539496 ], [ -86.493133701, 33.3164014 ], [ -86.494989701, 33.316788994 ], [ -86.495372206, 33.317132398 ], [ -86.495645903, 33.3177507 ], [ -86.4959464, 33.317933694 ], [ -86.496246405, 33.317841694 ], [ -86.496245705, 33.317360595 ], [ -86.496163704, 33.317223199 ], [ -86.495288804, 33.3160557 ], [ -86.495261304, 33.315826595 ], [ -86.495179303, 33.315780893 ], [ -86.495206401, 33.315574594 ], [ -86.495860003, 33.314634696 ], [ -86.495995402, 33.3138557 ], [ -86.495803602, 33.313351795 ], [ -86.494162403, 33.310329199 ], [ -86.494133905, 33.309504494 ], [ -86.4938052, 33.308634199 ], [ -86.493804902, 33.308290593 ] ] } },
{ "type": "Feature", "properties": { "site_no": "02407514", "nhdplus_comid": "22271366", "navigation_mode": "DM", "requested_distance_km": 12.0, "start_source": "nwissite", "start_id": "USGS-02407514", "geometry_length_km": 1.6955358418264568 }, "geometry": { "type": "LineString", "coordinates": [ [ -86.493804902, 33.308290593 ], [ -86.493613705, 33.308153294 ], [ -86.493476704, 33.307763897 ], [ -86.492683701, 33.306481794 ], [ -86.492274106, 33.306184195 ], [ -86.491646305, 33.306001499 ], [ -86.491264403, 33.306070693 ], [ -86.489628404, 33.306851096 ], [ -86.488864705, 33.307080895 ], [ -86.485427104, 33.307244398 ], [ -86.484799705, 33.307428196 ], [ -86.484527305, 33.3077721 ], [ -86.484501101, 33.308619797 ], [ -86.484011203, 33.309559494 ], [ -86.483384505, 33.310338996 ], [ -86.482403301, 33.311187595 ], [ -86.480740003, 33.312174097 ], [ -86.480712801, 33.312242895 ] ] } },
{ "type": "Feature", "properties": { "site_no": "02407514", "nhdplus_comid": "22271452", "navigation_mode": "DM", "requested_distance_km": 12.0, "start_source": "nwissite", "start_id": "USGS-02407514", "geometry_length_km": 3.5572911130557272 }, "geometry": { "type": "LineString", "coordinates": [ [ -86.480712801, 33.312242895 ], [ -86.478858106, 33.312863 ], [ -86.477930404, 33.312909499 ], [ -86.477056801, 33.312543698 ], [ -86.4761829, 33.311811298 ], [ -86.475800306, 33.311284594 ], [ -86.4753353, 33.310299896 ], [ -86.475307502, 33.3098647 ], [ -86.4755795, 33.309177198 ], [ -86.476015702, 33.308810197 ], [ -86.476451501, 33.308145493 ], [ -86.476776905, 33.306381196 ], [ -86.476773806, 33.303861097 ], [ -86.4763899, 33.302120194 ], [ -86.475897707, 33.301089697 ], [ -86.475377806, 33.299830094 ], [ -86.475022502, 33.299257599 ], [ -86.474694706, 33.298868395 ], [ -86.473984905, 33.298433699 ], [ -86.472483903, 33.297999494 ], [ -86.471146904, 33.297817297 ], [ -86.470409505, 33.297038898 ], [ -86.469208002, 33.296031795 ], [ -86.468388706, 33.295138896 ], [ -86.467323102, 33.293787993 ], [ -86.467159003, 33.293329895 ], [ -86.466994107, 33.292138696 ], [ -86.466775306, 33.291566193 ], [ -86.465955704, 33.290398397 ], [ -86.465273, 33.289711595 ], [ -86.465272807, 33.289459594 ], [ -86.465981506, 33.2889551 ] ] } },
{ "type": "Feature", "properties": { "site_no": "02407514", "nhdplus_comid": "22271458", "navigation_mode": "DM", "requested_distance_km": 12.0, "start_source": "nwissite", "start_id": "USGS-02407514", "geometry_length_km": 0.33246612769890621 }, "geometry": { "type": "LineString", "coordinates": [ [ -86.465981506, 33.2889551 ], [ -86.466062903, 33.288611293 ], [ -86.4659537, 33.288405195 ], [ -86.465735301, 33.288290799 ], [ -86.465108, 33.28836 ], [ -86.464426301, 33.288681194 ], [ -86.463554107, 33.289392099 ] ] } },
{ "type": "Feature", "properties": { "site_no": "02407514", "nhdplus_comid": "22271462", "navigation_mode": "DM", "requested_distance_km": 12.0, "start_source": "nwissite", "start_id": "USGS-02407514", "geometry_length_km": 0.24343172062893934 }, "geometry": { "type": "LineString", "coordinates": [ [ -86.463554107, 33.289392099 ], [ -86.462981306, 33.2894613 ], [ -86.462626301, 33.289117798 ], [ -86.462816805, 33.288636595 ], [ -86.462952502, 33.287903294 ] ] } },
{ "type": "Feature", "properties": { "site_no": "02407514", "nhdplus_comid": "22271504", "navigation_mode": "DM", "requested_distance_km": 12.0, "start_source": "nwissite", "start_id": "USGS-02407514", "geometry_length_km": 0.71506641398061377 }, "geometry": { "type": "LineString", "coordinates": [ [ -86.462952502, 33.287903294 ], [ -86.462652102, 33.2875828 ], [ -86.461124204, 33.287194394 ], [ -86.460578203, 33.286805294 ], [ -86.460468404, 33.286095195 ], [ -86.460959204, 33.285888694 ], [ -86.461204305, 33.285544798 ], [ -86.461203702, 33.284811698 ], [ -86.460875705, 33.284262098 ], [ -86.459838405, 33.283483796 ] ] } },
{ "type": "Feature", "properties": { "site_no": "02407514", "nhdplus_comid": "22271606", "navigation_mode": "DM", "requested_distance_km": 12.0, "start_source": "nwissite", "start_id": "USGS-02407514", "geometry_length_km": 3.3260758078918804 }, "geometry": { "type": "LineString", "coordinates": [ [ -86.459838405, 33.283483796 ], [ -86.459810503, 33.282933995 ], [ -86.459264301, 33.282224193 ], [ -86.457326904, 33.2813778 ], [ -86.456754103, 33.281332299 ], [ -86.4553634, 33.281791493 ], [ -86.454299606, 33.281792194 ], [ -86.453508504, 33.281586498 ], [ -86.453290001, 33.2813804 ], [ -86.453344204, 33.280990899 ], [ -86.453807302, 33.280326299 ], [ -86.454407007, 33.279775999 ], [ -86.455579102, 33.278996296 ], [ -86.456915006, 33.278331093 ], [ -86.4590955, 33.276794694 ], [ -86.460322306, 33.276175193 ], [ -86.462448105, 33.2745471 ], [ -86.462747701, 33.274088696 ], [ -86.463101305, 33.273126297 ], [ -86.463155106, 33.272324398 ], [ -86.463291101, 33.271980599 ], [ -86.463398904, 33.270720594 ], [ -86.463152505, 33.269850098 ], [ -86.462879106, 33.269254699 ], [ -86.462878406, 33.268613197 ], [ -86.463396206, 33.2681088 ], [ -86.463968202, 33.267398193 ], [ -86.464648701, 33.266160496 ], [ -86.464729607, 33.265312798 ], [ -86.464620307, 33.265037999 ], [ -86.464156501, 33.264854997 ], [ -86.463911101, 33.264901094 ], [ -86.463257201, 33.265542999 ], [ -86.462658204, 33.266413994 ] ] } }
]
}
