{
"type": "FeatureCollection",
"name": "USGS_02451000_DM_12km",
"crs": { "type": "name", "properties": { "name": "urn:ogc:def:crs:OGC:1.3:CRS84" } },
"features": [
{ "type": "Feature", "properties": { "site_no": "02451000", "nhdplus_comid": "18580419", "navigation_mode": "DM", "requested_distance_km": 12.0, "start_source": "comid_position_fallback", "start_id": "18580419", "geometry_length_km": 1.9472242549275378 }, "geometry": { "type": "LineString", "coordinates": [ [ -87.2889558, 34.029008098 ], [ -87.288334206, 34.027179897 ], [ -87.286019705, 34.023820996 ], [ -87.284186803, 34.020971298 ], [ -87.281665906, 34.019456893 ], [ -87.275253601, 34.016823798 ] ] } },
{ "type": "Feature", "properties": { "site_no": "02451000", "nhdplus_comid": "18580417", "navigation_mode": "DM", "requested_distance_km": 12.0, "start_source": "comid_position_fallback", "start_id": "18580419", "geometry_length_km": 3.6777605044907831 }, "geometry": { "type": "LineString", "coordinates": [ [ -87.275253601, 34.016823798 ], [ -87.274134301, 34.017587095 ], [ -87.272376902, 34.0191807 ], [ -87.271868803, 34.020581 ], [ -87.273164101, 34.021542095 ], [ -87.273335807, 34.023137599 ], [ -87.2728277, 34.024537899 ], [ -87.270012803, 34.024612896 ], [ -87.266914107, 34.024090998 ], [ -87.265541106, 34.0222608 ], [ -87.263914004, 34.021130696 ], [ -87.262033001, 34.020700693 ], [ -87.260941304, 34.021049798 ], [ -87.259311803, 34.021501996 ], [ -87.256082304, 34.023703396 ], [ -87.250449702, 34.025434993 ], [ -87.248185903, 34.0268462 ], [ -87.248037405, 34.026856899 ] ] } },
{ "type": "Feature", "properties": { "site_no": "02451000", "nhdplus_comid": "18580415", "navigation_mode": "DM", "requested_distance_km": 12.0, "start_source": "comid_position_fallback", "start_id": "18580419", "geometry_length_km": 0.25955750734219624 }, "geometry": { "type": "LineString", "coordinates": [ [ -87.248037405, 34.026856899 ], [ -87.246240504, 34.026986495 ], [ -87.245290101, 34.026665494 ] ] } },
{ "type": "Feature", "properties": { "site_no": "02451000", "nhdplus_comid": "18580413", "navigation_mode": "DM", "requested_distance_km": 12.0, "start_source": "comid_position_fallback", "start_id": "18580419", "geometry_length_km": 2.2083942448199396 }, "geometry": { "type": "LineString", "coordinates": [ [ -87.245290101, 34.026665494 ], [ -87.244043604, 34.026244596 ], [ -87.242242903, 34.025100999 ], [ -87.239053704, 34.022269599 ], [ -87.235887006, 34.016130596 ], [ -87.231079206, 34.011261597 ] ] } },
{ "type": "Feature", "properties": { "site_no": "02451000", "nhdplus_comid": "18580405", "navigation_mode": "DM", "requested_distance_km": 12.0, "start_source": "comid_position_fallback", "start_id": "18580419", "geometry_length_km": 1.465710709426896 }, "geometry": { "type": "LineString", "coordinates": [ [ -87.231079206, 34.011261597 ], [ -87.229590602, 34.009753898 ], [ -87.222695805, 34.000116594 ] ] } },
{ "type": "Feature", "properties": { "site_no": "02451000", "nhdplus_comid": "18584037", "navigation_mode": "DM", "requested_distance_km": 12.0, "start_source": "comid_position_fallback", "start_id": "18580419", "geometry_length_km": 0.97098128386573779 }, "geometry": { "type": "LineString", "coordinates": [ [ -87.222695805, 34.000116594 ], [ -87.220944501, 33.997519799 ], [ -87.218564801, 33.994464494 ], [ -87.216977201, 33.993012995 ], [ -87.216839604, 33.992923394 ] ] } },
{ "type": "Feature", "properties": { "site_no": "02451000", "nhdplus_comid": "18584039", "navigation_mode": "DM", "requested_distance_km": 12.0, "start_source": "comid_position_fallback", "start_id": "18580419", "geometry_length_km": 1.6663455778922485 }, "geometry": { "type": "LineString", "coordinates": [ [ -87.216839604, 33.992923394 ], [ -87.215587303, 33.9921088 ], [ -87.211159207, 33.989962094 ], [ -87.208424807, 33.988902196 ], [ -87.207317501, 33.987220995 ], [ -87.205876805, 33.985620797 ], [ -87.203856006, 33.984561995 ], [ -87.202628806, 33.984349996 ] ] } }
]
}
