{
"type": "FeatureCollection",
"name": "USGS_02467000_DM_12km",
"crs": { "type": "name", "properties": { "name": "urn:ogc:def:crs:OGC:1.3:CRS84" } },
"features": [
{ "type": "Feature", "properties": { "site_no": "02467000", "nhdplus_comid": "18540822", "navigation_mode": "DM", "requested_distance_km": 12.0, "start_source": "nwissite", "start_id": "USGS-02467000", "geometry_length_km": 0.076015459539839833 }, "geometry": { "type": "LineString", "coordinates": [ [ -87.878320276, 32.520481909 ], [ -87.8791309, 32.520540096 ] ] } },
{ "type": "Feature", "properties": { "site_no": "02467000", "nhdplus_comid": "18540820", "navigation_mode": "DM", "requested_distance_km": 12.0, "start_source": "nwissite", "start_id": "USGS-02467000", "geometry_length_km": 1.6444906299251218 }, "geometry": { "type": "LineString", "coordinates": [ [ -87.8791309, 32.520540096 ], [ -87.880194806, 32.520616397 ], [ -87.880617104, 32.5208987 ], [ -87.884473205, 32.521427393 ], [ -87.894476302, 32.522144295 ], [ -87.895956501, 32.522376396 ], [ -87.896378905, 32.522658594 ] ] } },
{ "type": "Feature", "properties": { "site_no": "02467000", "nhdplus_comid": "18540840", "navigation_mode": "DM", "requested_distance_km": 12.0, "start_source": "nwissite", "start_id": "USGS-02467000", "geometry_length_km": 3.9643806504743266 }, "geometry": { "type": "LineString", "coordinates": [ [ -87.896378905, 32.522658594 ], [ -87.902636804, 32.523232594 ], [ -87.903856702, 32.523067899 ], [ -87.907456405, 32.521687396 ], [ -87.912552506, 32.518901795 ], [ -87.9184108, 32.514532499 ], [ -87.921816401, 32.5106178 ], [ -87.921854503, 32.510242499 ], [ -87.925012104, 32.505805999 ], [ -87.9280167, 32.502870396 ] ] } },
{ "type": "Feature", "properties": { "site_no": "02467000", "nhdplus_comid": "18540844", "navigation_mode": "DM", "requested_distance_km": 12.0, "start_source": "nwissite", "start_id": "USGS-02467000", "geometry_length_km": 0.40469790848917375 }, "geometry": { "type": "LineString", "coordinates": [ [ -87.9280167, 32.502870396 ], [ -87.9303606, 32.500517696 ], [ -87.930875301, 32.500153996 ] ] } },
{ "type": "Feature", "properties": { "site_no": "02467000", "nhdplus_comid": "18543928", "navigation_mode": "DM", "requested_distance_km": 12.0, "start_source": "nwissite", "start_id": "USGS-02467000", "geometry_length_km": 3.2437116900134195 }, "geometry": { "type": "LineString", "coordinates": [ [ -87.930875301, 32.500153996 ], [ -87.932790101, 32.498800993 ], [ -87.942716703, 32.4928305 ], [ -87.945158407, 32.490988396 ], [ -87.947529607, 32.486873299 ], [ -87.9513584, 32.478010796 ] ] } },
{ "type": "Feature", "properties": { "site_no": "02467000", "nhdplus_comid": "18543934", "navigation_mode": "DM", "requested_distance_km": 12.0, "start_source": "nwissite", "start_id": "USGS-02467000", "geometry_length_km": 0.29433814816226544 }, "geometry": { "type": "LineString", "coordinates": [ [ -87.9513584, 32.478010796 ], [ -87.951975703, 32.477109693 ], [ -87.952507101, 32.475572497 ] ] } },
{ "type": "Feature", "properties": { "site_no": "02467000", "nhdplus_comid": "18543936", "navigation_mode": "DM", "requested_distance_km": 12.0, "start_source": "nwissite", "start_id": "USGS-02467000", "geometry_length_km": 5.470783564411267 }, "geometry": { "type": "LineString", "coordinates": [ [ -87.952507101, 32.475572497 ], [ -87.952924505, 32.475161195 ], [ -87.954247601, 32.4724833 ], [ -87.958097301, 32.468598999 ], [ -87.968928501, 32.461052693 ], [ -87.974218301, 32.4577742 ], [ -87.977166504, 32.456849396 ], [ -87.980076805, 32.456299894 ], [ -87.991541304, 32.455852598 ], [ -87.993220203, 32.455593497 ], [ -87.995546207, 32.454876199 ], [ -87.998607405, 32.452824898 ], [ -88.000017606, 32.451619998 ] ] } }
]
}
