{
"type": "FeatureCollection",
"name": "USGS_0357568650_UM_12km",
"crs": { "type": "name", "properties": { "name": "urn:ogc:def:crs:OGC:1.3:CRS84" } },
"features": [
{ "type": "Feature", "properties": { "site_no": "0357568650", "nhdplus_comid": "19620104", "navigation_mode": "UM", "requested_distance_km": 12.0, "start_source": "nwissite", "start_id": "USGS-0357568650", "geometry_length_km": 2.8148538769704325 }, "geometry": { "type": "LineString", "coordinates": [ [ -86.548598602, 34.715151094 ], [ -86.549820103, 34.714166999 ], [ -86.550125301, 34.714029796 ], [ -86.551318206, 34.713915899 ], [ -86.551928706, 34.713618398 ], [ -86.552983001, 34.713344298 ], [ -86.554480903, 34.713368095 ], [ -86.555785, 34.712842099 ], [ -86.557144403, 34.712659493 ], [ -86.557644002, 34.712201796 ], [ -86.557838507, 34.711904094 ], [ -86.557949804, 34.711423099 ], [ -86.558006205, 34.710323699 ], [ -86.558089502, 34.7101634 ], [ -86.558145605, 34.709499195 ], [ -86.557896607, 34.708674394 ], [ -86.557093002, 34.707666196 ], [ -86.556761004, 34.706818499 ], [ -86.556761704, 34.705902196 ], [ -86.556456901, 34.705649994 ], [ -86.553101003, 34.7054419 ], [ -86.552740805, 34.705052398 ], [ -86.552519806, 34.704090193 ], [ -86.552354105, 34.703059293 ], [ -86.551939406, 34.701707594 ], [ -86.551274605, 34.700699396 ], [ -86.5511088, 34.700057894 ], [ -86.551081806, 34.699301898 ], [ -86.550664723, 34.698647429 ] ] } }
]
}
