{
"type": "FeatureCollection",
"name": "USGS_02339495_UM_12km",
"crs": { "type": "name", "properties": { "name": "urn:ogc:def:crs:OGC:1.3:CRS84" } },
"features": [
{ "type": "Feature", "properties": { "site_no": "02339495", "nhdplus_comid": "3296804", "navigation_mode": "UM", "requested_distance_km": 12.0, "start_source": "nwissite", "start_id": "USGS-02339495", "geometry_length_km": 0.97485699888369592 }, "geometry": { "type": "LineString", "coordinates": [ [ -85.206717201, 32.902699694 ], [ -85.205441207, 32.902791999 ], [ -85.205142602, 32.902883895 ], [ -85.204627104, 32.903273493 ], [ -85.2043285, 32.903411098 ], [ -85.202862002, 32.903045394 ], [ -85.2010158, 32.903046496 ], [ -85.200662702, 32.902909294 ], [ -85.1999835, 32.902359895 ], [ -85.1985441, 32.901787996 ], [ -85.19700963, 32.901898249 ] ] } },
{ "type": "Feature", "properties": { "site_no": "02339495", "nhdplus_comid": "3296754", "navigation_mode": "UM", "requested_distance_km": 12.0, "start_source": "nwissite", "start_id": "USGS-02339495", "geometry_length_km": 0.83575460998024798 }, "geometry": { "type": "LineString", "coordinates": [ [ -85.214889601, 32.902419597 ], [ -85.214401305, 32.9029238 ], [ -85.213587403, 32.903496996 ], [ -85.212610103, 32.9037266 ], [ -85.212067001, 32.903704099 ], [ -85.210980602, 32.903315395 ], [ -85.210057206, 32.902949594 ], [ -85.209161006, 32.902720995 ], [ -85.206717201, 32.902699694 ] ] } },
{ "type": "Feature", "properties": { "site_no": "02339495", "nhdplus_comid": "3296766", "navigation_mode": "UM", "requested_distance_km": 12.0, "start_source": "nwissite", "start_id": "USGS-02339495", "geometry_length_km": 1.4342136460535184 }, "geometry": { "type": "LineString", "coordinates": [ [ -85.225964904, 32.900144197 ], [ -85.2255852, 32.900510997 ], [ -85.225640506, 32.901358396 ], [ -85.225423403, 32.901472993 ], [ -85.224988803, 32.901473396 ], [ -85.224309906, 32.901313595 ], [ -85.223821305, 32.9013827 ], [ -85.223522902, 32.901634797 ], [ -85.223251902, 32.902184695 ], [ -85.221976802, 32.903262295 ], [ -85.221787207, 32.903651699 ], [ -85.221054703, 32.904247798 ], [ -85.220810503, 32.904385395 ], [ -85.220213205, 32.904454499 ], [ -85.219561301, 32.904248796 ], [ -85.219126604, 32.903882697 ], [ -85.218555607, 32.903012693 ], [ -85.2179849, 32.902577899 ], [ -85.217333004, 32.902257599 ], [ -85.216301501, 32.9023958 ], [ -85.215894103, 32.902281597 ], [ -85.2150525, 32.902465299 ], [ -85.214889601, 32.902419597 ] ] } },
{ "type": "Feature", "properties": { "site_no": "02339495", "nhdplus_comid": "3296768", "navigation_mode": "UM", "requested_distance_km": 12.0, "start_source": "nwissite", "start_id": "USGS-02339495", "geometry_length_km": 0.48779878633466878 }, "geometry": { "type": "LineString", "coordinates": [ [ -85.228331104, 32.903829999 ], [ -85.228194706, 32.903349094 ], [ -85.227922805, 32.902891293 ], [ -85.227513902, 32.901356995 ], [ -85.2272963, 32.901036493 ], [ -85.226562701, 32.900487296 ], [ -85.225964904, 32.900144197 ] ] } },
{ "type": "Feature", "properties": { "site_no": "02339495", "nhdplus_comid": "3296746", "navigation_mode": "UM", "requested_distance_km": 12.0, "start_source": "nwissite", "start_id": "USGS-02339495", "geometry_length_km": 0.92973675706548675 }, "geometry": { "type": "LineString", "coordinates": [ [ -85.231108107, 32.910607599 ], [ -85.230782107, 32.910539195 ], [ -85.230293401, 32.910585396 ], [ -85.230021603, 32.910402298 ], [ -85.229967102, 32.910150394 ], [ -85.2295864, 32.909738399 ], [ -85.229206204, 32.909601294 ], [ -85.228744201, 32.909189299 ], [ -85.228254601, 32.908548497 ], [ -85.228118502, 32.908204995 ], [ -85.228090301, 32.9071972 ], [ -85.227790602, 32.9062583 ], [ -85.227653503, 32.904975794 ], [ -85.228331104, 32.903829999 ] ] } },
{ "type": "Feature", "properties": { "site_no": "02339495", "nhdplus_comid": "3296706", "navigation_mode": "UM", "requested_distance_km": 12.0, "start_source": "nwissite", "start_id": "USGS-02339495", "geometry_length_km": 1.3311735522578987 }, "geometry": { "type": "LineString", "coordinates": [ [ -85.239180304, 32.916876696 ], [ -85.238664106, 32.916671097 ], [ -85.238256305, 32.916213393 ], [ -85.238336504, 32.915159799 ], [ -85.238118902, 32.914953798 ], [ -85.237412304, 32.914496295 ], [ -85.236596704, 32.913626596 ], [ -85.236433104, 32.9130999 ], [ -85.2363775, 32.911977597 ], [ -85.236539505, 32.911129996 ], [ -85.236240305, 32.910717994 ], [ -85.235778302, 32.910351895 ], [ -85.234881803, 32.910031997 ], [ -85.233605705, 32.910101697 ], [ -85.2334157, 32.9101706 ], [ -85.233035907, 32.910514496 ], [ -85.232058503, 32.910560995 ], [ -85.231868304, 32.910469599 ], [ -85.231108107, 32.910607599 ] ] } },
{ "type": "Feature", "properties": { "site_no": "02339495", "nhdplus_comid": "3298472", "navigation_mode": "UM", "requested_distance_km": 12.0, "start_source": "nwissite", "start_id": "USGS-02339495", "geometry_length_km": 2.2222814363766639 }, "geometry": { "type": "LineString", "coordinates": [ [ -85.255808905, 32.916907199 ], [ -85.254423104, 32.917501397 ], [ -85.254123807, 32.917959094 ], [ -85.253335401, 32.918393597 ], [ -85.252466202, 32.918575898 ], [ -85.251542702, 32.918666594 ], [ -85.251352802, 32.918574698 ], [ -85.251271702, 32.918276899 ], [ -85.2513263, 32.918139495 ], [ -85.2518427, 32.917842299 ], [ -85.251788706, 32.917636096 ], [ -85.251002103, 32.916970998 ], [ -85.2505676, 32.917039298 ], [ -85.249934703, 32.917302296 ], [ -85.249690302, 32.9173484 ], [ -85.249581605, 32.917233996 ], [ -85.2497169, 32.916913196 ], [ -85.249933906, 32.916660994 ], [ -85.250270106, 32.916191496 ], [ -85.250324905, 32.9157793 ], [ -85.249932401, 32.915515795 ], [ -85.2495794, 32.915584899 ], [ -85.248846903, 32.916158095 ], [ -85.247001104, 32.916778296 ], [ -85.246675201, 32.916709796 ], [ -85.246403404, 32.916526794 ], [ -85.246185705, 32.916137695 ], [ -85.245968103, 32.915885895 ], [ -85.245805107, 32.915794499 ], [ -85.245289102, 32.915840693 ], [ -85.244311802, 32.916047797 ], [ -85.242899701, 32.916025996 ], [ -85.242356904, 32.916324295 ], [ -85.242004007, 32.916393295 ], [ -85.241189301, 32.9163711 ], [ -85.240618907, 32.916257098 ], [ -85.240238607, 32.916280299 ], [ -85.239804603, 32.916670099 ], [ -85.239180304, 32.916876696 ] ] } },
{ "type": "Feature", "properties": { "site_no": "02339495", "nhdplus_comid": "3296674", "navigation_mode": "UM", "requested_distance_km": 12.0, "start_source": "nwissite", "start_id": "USGS-02339495", "geometry_length_km": 0.31373651532160485 }, "geometry": { "type": "LineString", "coordinates": [ [ -85.258443505, 32.916589096 ], [ -85.258118004, 32.916336894 ], [ -85.257059105, 32.916198395 ], [ -85.256760605, 32.916037798 ], [ -85.256353103, 32.916128993 ], [ -85.255808905, 32.916907199 ] ] } },
{ "type": "Feature", "properties": { "site_no": "02339495", "nhdplus_comid": "3296680", "navigation_mode": "UM", "requested_distance_km": 12.0, "start_source": "nwissite", "start_id": "USGS-02339495", "geometry_length_km": 0.5566993515600891 }, "geometry": { "type": "LineString", "coordinates": [ [ -85.262463905, 32.915585294 ], [ -85.262300506, 32.915951595 ], [ -85.262326904, 32.9164555 ], [ -85.261321701, 32.916866899 ], [ -85.2612397, 32.917233199 ], [ -85.260588005, 32.917140998 ], [ -85.259963103, 32.917392299 ], [ -85.258551605, 32.916978598 ], [ -85.258470304, 32.916886896 ], [ -85.258443505, 32.916589096 ] ] } }
]
}
