{
"type": "FeatureCollection",
"name": "USGS_02449400_DM_12km",
"crs": { "type": "name", "properties": { "name": "urn:ogc:def:crs:OGC:1.3:CRS84" } },
"features": [
{ "type": "Feature", "properties": { "site_no": "02449400", "nhdplus_comid": "18633680", "navigation_mode": "DM", "requested_distance_km": 12.0, "start_source": "nwissite", "start_id": "USGS-02449400", "geometry_length_km": 0.68269207770217688 }, "geometry": { "type": "LineString", "coordinates": [ [ -88.166972487, 32.690597235 ], [ -88.166586004, 32.690529294 ], [ -88.164445102, 32.689636499 ], [ -88.163903303, 32.689705394 ], [ -88.163551204, 32.689911693 ], [ -88.163361803, 32.690347098 ], [ -88.163091101, 32.690782599 ], [ -88.162847407, 32.690965898 ], [ -88.162386902, 32.6910806 ], [ -88.161899202, 32.691080794 ], [ -88.160788201, 32.690966599 ] ] } },
{ "type": "Feature", "properties": { "site_no": "02449400", "nhdplus_comid": "18633662", "navigation_mode": "DM", "requested_distance_km": 12.0, "start_source": "nwissite", "start_id": "USGS-02449400", "geometry_length_km": 0.2130932360933456 }, "geometry": { "type": "LineString", "coordinates": [ [ -88.160788201, 32.690966599 ], [ -88.160679907, 32.691035397 ], [ -88.160652906, 32.691264495 ], [ -88.160707206, 32.691470698 ], [ -88.160680301, 32.691974699 ], [ -88.160355307, 32.692341298 ], [ -88.160165802, 32.692524694 ], [ -88.160003304, 32.692593396 ] ] } },
{ "type": "Feature", "properties": { "site_no": "02449400", "nhdplus_comid": "18633656", "navigation_mode": "DM", "requested_distance_km": 12.0, "start_source": "nwissite", "start_id": "USGS-02449400", "geometry_length_km": 1.8077000462408257 }, "geometry": { "type": "LineString", "coordinates": [ [ -88.160003304, 32.692593396 ], [ -88.159542702, 32.692662396 ], [ -88.159326106, 32.692960195 ], [ -88.159326404, 32.693418398 ], [ -88.159434803, 32.693670399 ], [ -88.159407906, 32.693922393 ], [ -88.159218207, 32.694105797 ], [ -88.158893205, 32.694105893 ], [ -88.157700904, 32.693877093 ], [ -88.156833902, 32.693602495 ], [ -88.156562902, 32.693442196 ], [ -88.155749604, 32.6927552 ], [ -88.155532904, 32.6927552 ], [ -88.155099504, 32.692915693 ], [ -88.154991306, 32.693350993 ], [ -88.155235402, 32.694084093 ], [ -88.155235603, 32.694588095 ], [ -88.154721104, 32.695206694 ], [ -88.154206507, 32.695550494 ], [ -88.153989702, 32.695550598 ], [ -88.153502002, 32.695413299 ], [ -88.1522284, 32.694909595 ], [ -88.1514154, 32.694268398 ], [ -88.151307002, 32.694199696 ], [ -88.151008904, 32.694268495 ], [ -88.150954701, 32.694428794 ], [ -88.151009105, 32.694909893 ], [ -88.151090607, 32.695047393 ], [ -88.151063405, 32.695368096 ], [ -88.150846802, 32.695597298 ], [ -88.150494605, 32.695780694 ], [ -88.149979904, 32.695986994 ], [ -88.149736106, 32.696193196 ], [ -88.149763502, 32.697017998 ], [ -88.149249002, 32.697796993 ] ] } },
{ "type": "Feature", "properties": { "site_no": "02449400", "nhdplus_comid": "18633624", "navigation_mode": "DM", "requested_distance_km": 12.0, "start_source": "nwissite", "start_id": "USGS-02449400", "geometry_length_km": 0.2400577850999677 }, "geometry": { "type": "LineString", "coordinates": [ [ -88.149249002, 32.697796993 ], [ -88.149249204, 32.698278099 ], [ -88.149411902, 32.698873699 ], [ -88.1495478, 32.699927598 ] ] } },
{ "type": "Feature", "properties": { "site_no": "02449400", "nhdplus_comid": "18633620", "navigation_mode": "DM", "requested_distance_km": 12.0, "start_source": "nwissite", "start_id": "USGS-02449400", "geometry_length_km": 1.4048997467156539 }, "geometry": { "type": "LineString", "coordinates": [ [ -88.1495478, 32.699927598 ], [ -88.149764806, 32.700591899 ], [ -88.149710603, 32.700981393 ], [ -88.149439804, 32.7011647 ], [ -88.147949703, 32.7015775 ], [ -88.147706002, 32.701944098 ], [ -88.147164606, 32.703868598 ], [ -88.147273205, 32.704212293 ], [ -88.147977702, 32.704647295 ], [ -88.147950701, 32.704922296 ], [ -88.147381902, 32.705380596 ], [ -88.147029705, 32.705747299 ], [ -88.1460272, 32.706251398 ], [ -88.145404004, 32.706457794 ], [ -88.143399, 32.706962198 ], [ -88.142721601, 32.707466394 ], [ -88.142586306, 32.707695499 ], [ -88.142586403, 32.708153695 ], [ -88.1426678, 32.708405696 ] ] } },
{ "type": "Feature", "properties": { "site_no": "02449400", "nhdplus_comid": "18633608", "navigation_mode": "DM", "requested_distance_km": 12.0, "start_source": "nwissite", "start_id": "USGS-02449400", "geometry_length_km": 3.252147611000483 }, "geometry": { "type": "LineString", "coordinates": [ [ -88.1426678, 32.708405696 ], [ -88.142640807, 32.709001295 ], [ -88.1425054, 32.709322095 ], [ -88.142532602, 32.709688693 ], [ -88.142532706, 32.710169695 ], [ -88.142072201, 32.710559398 ], [ -88.141557306, 32.7107886 ], [ -88.141394801, 32.710971795 ], [ -88.141394906, 32.711338393 ], [ -88.141747303, 32.711704895 ], [ -88.1422894, 32.712140098 ], [ -88.142452002, 32.712392099 ], [ -88.142425001, 32.712873198 ], [ -88.141991705, 32.713468894 ], [ -88.141612403, 32.713812597 ], [ -88.141205803, 32.7138815 ], [ -88.1406909, 32.713858597 ], [ -88.140257202, 32.713583797 ], [ -88.139769301, 32.713148594 ], [ -88.138983205, 32.712232299 ], [ -88.138657905, 32.7116367 ], [ -88.138603702, 32.7113389 ], [ -88.138495304, 32.711201496 ], [ -88.138468102, 32.710995294 ], [ -88.138197102, 32.710674495 ], [ -88.137817606, 32.710399695 ], [ -88.137546606, 32.710239299 ], [ -88.136977501, 32.710331097 ], [ -88.136760801, 32.710422695 ], [ -88.1366795, 32.710583098 ], [ -88.136625402, 32.711018398 ], [ -88.136706904, 32.7117057 ], [ -88.136788204, 32.711866096 ], [ -88.136815302, 32.712164 ], [ -88.136896707, 32.712461799 ], [ -88.137005106, 32.712530397 ], [ -88.137059405, 32.712713793 ], [ -88.137601405, 32.713240594 ], [ -88.138875306, 32.714019299 ], [ -88.138875306, 32.714362897 ], [ -88.138685703, 32.714637898 ], [ -88.138387702, 32.714935794 ], [ -88.138279207, 32.714958698 ], [ -88.137954101, 32.715233698 ], [ -88.137872905, 32.715393998 ], [ -88.137900107, 32.715691894 ], [ -88.138008505, 32.715920895 ], [ -88.138225302, 32.716149993 ], [ -88.138171203, 32.716379099 ], [ -88.138008602, 32.716470793 ], [ -88.137629203, 32.716516696 ], [ -88.136138506, 32.7160815 ], [ -88.135135807, 32.715738095 ], [ -88.134729207, 32.7158297 ], [ -88.134539604, 32.7161505 ], [ -88.134566806, 32.716814898 ], [ -88.134404302, 32.716906495 ], [ -88.134051904, 32.716814995 ], [ -88.133184604, 32.716081895 ], [ -88.132832207, 32.715738393 ], [ -88.132236004, 32.715348996 ], [ -88.131856605, 32.715417698 ], [ -88.131694101, 32.715600997 ], [ -88.131585605, 32.716196693 ], [ -88.131504506, 32.7178462 ] ] } },
{ "type": "Feature", "properties": { "site_no": "02449400", "nhdplus_comid": "18633598", "navigation_mode": "DM", "requested_distance_km": 12.0, "start_source": "nwissite", "start_id": "USGS-02449400", "geometry_length_km": 0.6378908059398305 }, "geometry": { "type": "LineString", "coordinates": [ [ -88.131504506, 32.7178462 ], [ -88.131206401, 32.718075395 ], [ -88.1306374, 32.718006596 ], [ -88.129715905, 32.7175714 ], [ -88.129038401, 32.7175944 ], [ -88.128848702, 32.717869394 ], [ -88.128767401, 32.718167193 ], [ -88.128821701, 32.719060697 ], [ -88.128930107, 32.719129398 ], [ -88.1290657, 32.719908297 ], [ -88.129282601, 32.720458098 ], [ -88.129363902, 32.720503896 ], [ -88.129309706, 32.720870599 ] ] } },
{ "type": "Feature", "properties": { "site_no": "02449400", "nhdplus_comid": "18633610", "navigation_mode": "DM", "requested_distance_km": 12.0, "start_source": "nwissite", "start_id": "USGS-02449400", "geometry_length_km": 2.6619786779720322 }, "geometry": { "type": "LineString", "coordinates": [ [ -88.129309706, 32.720870599 ], [ -88.128930405, 32.720870599 ], [ -88.128117301, 32.720504098 ], [ -88.126951702, 32.719839796 ], [ -88.126274206, 32.7195649 ], [ -88.125379801, 32.719633594 ], [ -88.1250275, 32.719748296 ], [ -88.124431305, 32.719931498 ], [ -88.123753704, 32.7200232 ], [ -88.123428605, 32.719839893 ], [ -88.123428605, 32.718946494 ], [ -88.123563901, 32.718304999 ], [ -88.123563901, 32.715807796 ], [ -88.123509601, 32.715395398 ], [ -88.123401202, 32.715051897 ], [ -88.122994706, 32.714731097 ], [ -88.122073203, 32.714387499 ], [ -88.121070504, 32.714456193 ], [ -88.119959407, 32.714845695 ], [ -88.119146407, 32.715555899 ], [ -88.118658602, 32.715601698 ], [ -88.118387602, 32.715418495 ], [ -88.118252203, 32.715120599 ], [ -88.118143804, 32.714685395 ], [ -88.118225001, 32.714364596 ], [ -88.118360505, 32.714089699 ], [ -88.119010903, 32.713402294 ], [ -88.119742602, 32.712875396 ], [ -88.121178702, 32.711706996 ], [ -88.121639401, 32.711271696 ], [ -88.121775001, 32.711019598 ], [ -88.121774904, 32.710423999 ], [ -88.121395506, 32.709897093 ], [ -88.121151701, 32.7096451 ], [ -88.121070303, 32.709461793 ], [ -88.120013505, 32.708499596 ], [ -88.119932204, 32.708339296 ] ] } }
]
}
