{
"type": "FeatureCollection",
"name": "USGS_02423400_UM_12km",
"crs": { "type": "name", "properties": { "name": "urn:ogc:def:crs:OGC:1.3:CRS84" } },
"features": [
{ "type": "Feature", "properties": { "site_no": "02423400", "nhdplus_comid": "21655328", "navigation_mode": "UM", "requested_distance_km": 12.0, "start_source": "nwissite", "start_id": "USGS-02423400", "geometry_length_km": 0.027609891558667603 }, "geometry": { "type": "LineString", "coordinates": [ [ -86.614045307, 33.500110395 ], [ -86.614232815, 33.499917754 ] ] } },
{ "type": "Feature", "properties": { "site_no": "02423400", "nhdplus_comid": "21656674", "navigation_mode": "UM", "requested_distance_km": 12.0, "start_source": "nwissite", "start_id": "USGS-02423400", "geometry_length_km": 0.11828747778468354 }, "geometry": { "type": "LineString", "coordinates": [ [ -86.612763502, 33.500110999 ], [ -86.614045307, 33.500110395 ] ] } },
{ "type": "Feature", "properties": { "site_no": "02423400", "nhdplus_comid": "21654362", "navigation_mode": "UM", "requested_distance_km": 12.0, "start_source": "nwissite", "start_id": "USGS-02423400", "geometry_length_km": 2.6983428992155858 }, "geometry": { "type": "LineString", "coordinates": [ [ -86.597694002, 33.508072898 ], [ -86.5981315, 33.508210495 ], [ -86.598596402, 33.508462496 ], [ -86.599525906, 33.509172998 ], [ -86.600728907, 33.5103186 ], [ -86.602178305, 33.510868795 ], [ -86.602862, 33.510891795 ], [ -86.603217505, 33.510777295 ], [ -86.603573106, 33.510502495 ], [ -86.6036826, 33.510204598 ], [ -86.603600606, 33.509929694 ], [ -86.602397501, 33.509287998 ], [ -86.602206104, 33.509081796 ], [ -86.602178805, 33.508669496 ], [ -86.602862902, 33.507363699 ], [ -86.6033279, 33.506676495 ], [ -86.603656106, 33.506607793 ], [ -86.604121007, 33.506745398 ], [ -86.604558602, 33.506768398 ], [ -86.604832001, 33.506699696 ], [ -86.605215006, 33.506378993 ], [ -86.605734803, 33.5057147 ], [ -86.606227204, 33.504569195 ], [ -86.606500603, 33.504340194 ], [ -86.607430503, 33.503950894 ], [ -86.607567206, 33.503767595 ], [ -86.607485302, 33.503400996 ], [ -86.607239202, 33.503080197 ], [ -86.607157305, 33.502782397 ], [ -86.607239403, 33.502324194 ], [ -86.607759103, 33.5013621 ], [ -86.608333506, 33.500903994 ], [ -86.609044507, 33.500881195 ], [ -86.609700702, 33.5012936 ], [ -86.610028706, 33.5018664 ], [ -86.610329606, 33.502026796 ], [ -86.610657707, 33.502026893 ], [ -86.6112867, 33.501751997 ], [ -86.612408005, 33.500675395 ], [ -86.612763502, 33.500110999 ] ] } },
{ "type": "Feature", "properties": { "site_no": "02423400", "nhdplus_comid": "21654346", "navigation_mode": "UM", "requested_distance_km": 12.0, "start_source": "nwissite", "start_id": "USGS-02423400", "geometry_length_km": 4.3518708364086693 }, "geometry": { "type": "LineString", "coordinates": [ [ -86.567516401, 33.528314598 ], [ -86.569513105, 33.528384298 ], [ -86.570361204, 33.528338894 ], [ -86.570826307, 33.528178699 ], [ -86.5715378, 33.5277666 ], [ -86.572714202, 33.527240194 ], [ -86.573754102, 33.526438795 ], [ -86.575231701, 33.525660597 ], [ -86.575368606, 33.5253627 ], [ -86.575451106, 33.524629697 ], [ -86.575697504, 33.524217397 ], [ -86.576053202, 33.524034299 ], [ -86.577284202, 33.523828596 ], [ -86.5776399, 33.523691297 ], [ -86.577913605, 33.523278996 ], [ -86.577859104, 33.522981197 ], [ -86.577312402, 33.522385299 ], [ -86.577203304, 33.521881297 ], [ -86.576984607, 33.521331199 ], [ -86.576957606, 33.520872995 ], [ -86.577094406, 33.5205753 ], [ -86.577504806, 33.520323396 ], [ -86.578653701, 33.520003095 ], [ -86.579720706, 33.519522399 ], [ -86.580760002, 33.519637398 ], [ -86.581033602, 33.5195916 ], [ -86.581225201, 33.519225098 ], [ -86.5817177, 33.518812999 ], [ -86.5825385, 33.518354997 ], [ -86.582949102, 33.5175533 ], [ -86.583633207, 33.516934998 ], [ -86.584262706, 33.515950099 ], [ -86.584700502, 33.515583798 ], [ -86.586177707, 33.514919795 ], [ -86.586725004, 33.514163993 ], [ -86.587135404, 33.513866298 ], [ -86.587600306, 33.513774797 ], [ -86.5883388, 33.513843797 ], [ -86.588967703, 33.514118895 ], [ -86.590170704, 33.5150126 ], [ -86.590416804, 33.515104398 ], [ -86.590745002, 33.515104495 ], [ -86.591100603, 33.514898397 ], [ -86.5911007, 33.514600493 ], [ -86.590581201, 33.514348395 ], [ -86.590335205, 33.514073394 ], [ -86.590307906, 33.513775595 ], [ -86.590472102, 33.513409093 ], [ -86.590937302, 33.512973897 ], [ -86.592168204, 33.512149394 ], [ -86.592879407, 33.511828899 ], [ -86.593098305, 33.5116456 ], [ -86.5935634, 33.510889798 ], [ -86.593919203, 33.510523297 ], [ -86.594493605, 33.510179795 ], [ -86.595396407, 33.509446897 ], [ -86.596189603, 33.508736894 ], [ -86.597037606, 33.508278899 ], [ -86.597694002, 33.508072898 ] ] } },
{ "type": "Feature", "properties": { "site_no": "02423400", "nhdplus_comid": "21654312", "navigation_mode": "UM", "requested_distance_km": 12.0, "start_source": "nwissite", "start_id": "USGS-02423400", "geometry_length_km": 0.91293640278954591 }, "geometry": { "type": "LineString", "coordinates": [ [ -86.562369101, 33.534864299 ], [ -86.5624789, 33.534543693 ], [ -86.562752806, 33.533948198 ], [ -86.563218102, 33.533558898 ], [ -86.564230502, 33.533169895 ], [ -86.564613804, 33.532757796 ], [ -86.565052301, 33.531704195 ], [ -86.565572403, 33.531085797 ], [ -86.5663113, 33.530650996 ], [ -86.566667207, 33.530284494 ], [ -86.567077801, 33.5295057 ], [ -86.567215301, 33.528658099 ], [ -86.567516401, 33.528314598 ] ] } },
{ "type": "Feature", "properties": { "site_no": "02423400", "nhdplus_comid": "21654428", "navigation_mode": "UM", "requested_distance_km": 12.0, "start_source": "nwissite", "start_id": "USGS-02423400", "geometry_length_km": 10.215834585392175 }, "geometry": { "type": "LineString", "coordinates": [ [ -86.487654805, 33.594350398 ], [ -86.488968, 33.5936848 ], [ -86.489597104, 33.593294799 ], [ -86.490937106, 33.592262596 ], [ -86.492605604, 33.591344595 ], [ -86.495886706, 33.588615298 ], [ -86.497034602, 33.587308399 ], [ -86.497608006, 33.586414397 ], [ -86.498428106, 33.585588895 ], [ -86.499247506, 33.584442593 ], [ -86.499985605, 33.583754495 ], [ -86.501078002, 33.582996294 ], [ -86.502037406, 33.581989199 ], [ -86.5020945, 33.580294095 ], [ -86.502259105, 33.580065094 ], [ -86.502505705, 33.579927899 ], [ -86.503244705, 33.579905696 ], [ -86.504256703, 33.580387793 ], [ -86.505268902, 33.580732398 ], [ -86.505871102, 33.580710098 ], [ -86.506665401, 33.580252796 ], [ -86.508363403, 33.579544194 ], [ -86.509102903, 33.579063796 ], [ -86.510911405, 33.577599198 ], [ -86.512335502, 33.5768217 ], [ -86.514471501, 33.575930096 ], [ -86.5149647, 33.575518295 ], [ -86.515184306, 33.575037293 ], [ -86.515622601, 33.574625395 ], [ -86.516553901, 33.574030593 ], [ -86.5172664, 33.573366798 ], [ -86.517979205, 33.572267793 ], [ -86.518609002, 33.571947597 ], [ -86.519649103, 33.571833998 ], [ -86.519922905, 33.571742594 ], [ -86.521457002, 33.570460893 ], [ -86.5225797, 33.5699578 ], [ -86.523072705, 33.569545798 ], [ -86.5234017, 33.569064997 ], [ -86.523594104, 33.568354994 ], [ -86.5243892, 33.5671186 ], [ -86.5243899, 33.566545896 ], [ -86.524773702, 33.565881796 ], [ -86.525431506, 33.565080494 ], [ -86.526362903, 33.564210698 ], [ -86.527541302, 33.562699594 ], [ -86.528638206, 33.560684495 ], [ -86.528830603, 33.5597452 ], [ -86.5292693, 33.558966696 ], [ -86.530913204, 33.5570665 ], [ -86.531570606, 33.556494296 ], [ -86.532665707, 33.555922396 ], [ -86.535731502, 33.554756194 ], [ -86.540221207, 33.552331097 ], [ -86.541535802, 33.551163599 ], [ -86.543206401, 33.549263097 ], [ -86.543480702, 33.548621893 ], [ -86.5438914, 33.548347197 ], [ -86.545095101, 33.548370898 ], [ -86.545916207, 33.548119396 ], [ -86.546710104, 33.547638893 ], [ -86.548900403, 33.545944899 ], [ -86.5507349, 33.5442966 ], [ -86.551145501, 33.544090599 ], [ -86.551802106, 33.544022299 ], [ -86.552321903, 33.544068493 ], [ -86.553799801, 33.543359093 ], [ -86.555031203, 33.543061994 ], [ -86.556727901, 33.542467296 ], [ -86.557987005, 33.541826598 ], [ -86.559027106, 33.541116893 ], [ -86.560286403, 33.539995 ], [ -86.561053105, 33.538849793 ], [ -86.561108001, 33.538551994 ], [ -86.561656006, 33.537567198 ], [ -86.562505506, 33.535551697 ], [ -86.562451206, 33.534978896 ], [ -86.562369101, 33.534864299 ] ] } }
]
}
