{
"type": "FeatureCollection",
"name": "USGS_02377500_UM_12km",
"crs": { "type": "name", "properties": { "name": "urn:ogc:def:crs:OGC:1.3:CRS84" } },
"features": [
{ "type": "Feature", "properties": { "site_no": "02377500", "nhdplus_comid": "2171397", "navigation_mode": "UM", "requested_distance_km": 12.0, "start_source": "nwissite", "start_id": "USGS-02377500", "geometry_length_km": 0.34313038832291637 }, "geometry": { "type": "LineString", "coordinates": [ [ -87.642512001, 30.663939796 ], [ -87.641584106, 30.664283797 ], [ -87.640417501, 30.6643757 ], [ -87.639084151, 30.663988913 ] ] } },
{ "type": "Feature", "properties": { "site_no": "02377500", "nhdplus_comid": "2171373", "navigation_mode": "UM", "requested_distance_km": 12.0, "start_source": "nwissite", "start_id": "USGS-02377500", "geometry_length_km": 2.7755440897540367 }, "geometry": { "type": "LineString", "coordinates": [ [ -87.668600403, 30.663680993 ], [ -87.667964406, 30.664345793 ], [ -87.667408101, 30.665308595 ], [ -87.667249106, 30.665446199 ], [ -87.666506603, 30.6653089 ], [ -87.6656579, 30.664461195 ], [ -87.664756306, 30.664117694 ], [ -87.662714601, 30.663659997 ], [ -87.661150001, 30.662995897 ], [ -87.659294203, 30.663179696 ], [ -87.658048101, 30.662928 ], [ -87.657146603, 30.662607297 ], [ -87.656377703, 30.662745096 ], [ -87.655847706, 30.663180597 ], [ -87.654866606, 30.663089193 ], [ -87.654097706, 30.662928998 ], [ -87.653063804, 30.662860498 ], [ -87.651552603, 30.6633422 ], [ -87.650465801, 30.663502797 ], [ -87.648424402, 30.6644658 ], [ -87.648159303, 30.664511696 ], [ -87.644076206, 30.664237499 ], [ -87.643837601, 30.664122894 ], [ -87.643599004, 30.663825095 ], [ -87.642512001, 30.663939796 ] ] } },
{ "type": "Feature", "properties": { "site_no": "02377500", "nhdplus_comid": "2171371", "navigation_mode": "UM", "requested_distance_km": 12.0, "start_source": "nwissite", "start_id": "USGS-02377500", "geometry_length_km": 2.8709499205194904 }, "geometry": { "type": "LineString", "coordinates": [ [ -87.692736305, 30.676481895 ], [ -87.690401405, 30.674351595 ], [ -87.688969001, 30.673527196 ], [ -87.688199602, 30.672862999 ], [ -87.687960602, 30.672404699 ], [ -87.687456407, 30.671831898 ], [ -87.685122602, 30.671008095 ], [ -87.6835576, 30.669908695 ], [ -87.680321902, 30.668557994 ], [ -87.679950602, 30.668237299 ], [ -87.679738104, 30.667756096 ], [ -87.6793667, 30.667366594 ], [ -87.678465001, 30.666931495 ], [ -87.677749105, 30.6667943 ], [ -87.677033201, 30.666771695 ], [ -87.676211506, 30.667115897 ], [ -87.675522201, 30.667230695 ], [ -87.675177507, 30.667184994 ], [ -87.673930801, 30.666177094 ], [ -87.672923401, 30.666154593 ], [ -87.672525406, 30.665902697 ], [ -87.671756402, 30.6656738 ], [ -87.671544105, 30.665330097 ], [ -87.670270905, 30.664184496 ], [ -87.669767104, 30.663978495 ], [ -87.668600403, 30.663680993 ] ] } },
{ "type": "Feature", "properties": { "site_no": "02377500", "nhdplus_comid": "2172101", "navigation_mode": "UM", "requested_distance_km": 12.0, "start_source": "nwissite", "start_id": "USGS-02377500", "geometry_length_km": 1.4050110425464388 }, "geometry": { "type": "LineString", "coordinates": [ [ -87.702209607, 30.684933394 ], [ -87.701811403, 30.6844294 ], [ -87.700590603, 30.683284193 ], [ -87.700245507, 30.6827344 ], [ -87.699449606, 30.682253495 ], [ -87.6987857, 30.681107998 ], [ -87.697910406, 30.680741794 ], [ -87.697459206, 30.680283695 ], [ -87.697273202, 30.679962896 ], [ -87.697193101, 30.679114997 ], [ -87.696980402, 30.678473398 ], [ -87.696502805, 30.678129897 ], [ -87.695733704, 30.677901097 ], [ -87.694699205, 30.677443296 ], [ -87.6937977, 30.677535594 ], [ -87.6936386, 30.677466795 ], [ -87.692736305, 30.676481895 ] ] } },
{ "type": "Feature", "properties": { "site_no": "02377500", "nhdplus_comid": "2172087", "navigation_mode": "UM", "requested_distance_km": 12.0, "start_source": "nwissite", "start_id": "USGS-02377500", "geometry_length_km": 3.0373197973256296 }, "geometry": { "type": "LineString", "coordinates": [ [ -87.715675004, 30.705872394 ], [ -87.715355903, 30.705207899 ], [ -87.7153816, 30.704268299 ], [ -87.715168901, 30.703718394 ], [ -87.714611404, 30.703237399 ], [ -87.714133807, 30.703031495 ], [ -87.713417202, 30.702527799 ], [ -87.7130455, 30.702253096 ], [ -87.712912403, 30.701703094 ], [ -87.7130704, 30.700556993 ], [ -87.712937705, 30.700419597 ], [ -87.712884106, 30.6998237 ], [ -87.713069305, 30.699388094 ], [ -87.713095002, 30.698517196 ], [ -87.712616906, 30.697738297 ], [ -87.712642305, 30.696569398 ], [ -87.712031402, 30.695561394 ], [ -87.711765304, 30.6945531 ], [ -87.711049005, 30.694324397 ], [ -87.710226402, 30.693774894 ], [ -87.709801205, 30.693018898 ], [ -87.709243804, 30.692515098 ], [ -87.706882805, 30.691645697 ], [ -87.706511401, 30.691485494 ], [ -87.705051705, 30.690248899 ], [ -87.703963906, 30.689630695 ], [ -87.701762006, 30.6886466 ], [ -87.701390304, 30.688302994 ], [ -87.701257206, 30.687730096 ], [ -87.701309703, 30.687111296 ], [ -87.702130601, 30.685643993 ], [ -87.702209607, 30.684933394 ] ] } }
]
}
