{
"type": "FeatureCollection",
"name": "USGS_02458502_DM_12km",
"crs": { "type": "name", "properties": { "name": "urn:ogc:def:crs:OGC:1.3:CRS84" } },
"features": [
{ "type": "Feature", "properties": { "site_no": "02458502", "nhdplus_comid": "18566201", "navigation_mode": "DM", "requested_distance_km": 12.0, "start_source": "nwissite", "start_id": "USGS-02458502", "geometry_length_km": 2.3426675748662378 }, "geometry": { "type": "LineString", "coordinates": [ [ -86.891222126, 33.524945114 ], [ -86.891732506, 33.525417395 ], [ -86.894358806, 33.526906297 ], [ -86.895124905, 33.527455993 ], [ -86.897122003, 33.528669998 ], [ -86.897286303, 33.528944895 ], [ -86.897231601, 33.529540598 ], [ -86.896931104, 33.530456997 ], [ -86.8969585, 33.530754797 ], [ -86.897177406, 33.530937999 ], [ -86.898217, 33.5314648 ], [ -86.900351003, 33.532380894 ], [ -86.901719004, 33.532861695 ], [ -86.903579205, 33.532975793 ], [ -86.904509403, 33.533273399 ], [ -86.906698205, 33.534235097 ], [ -86.907710701, 33.534899294 ], [ -86.908394806, 33.535563499 ], [ -86.909051605, 33.535906993 ], [ -86.909735501, 33.536112994 ], [ -86.910446905, 33.536227293 ] ] } },
{ "type": "Feature", "properties": { "site_no": "02458502", "nhdplus_comid": "18566191", "navigation_mode": "DM", "requested_distance_km": 12.0, "start_source": "nwissite", "start_id": "USGS-02458502", "geometry_length_km": 0.920080273743618 }, "geometry": { "type": "LineString", "coordinates": [ [ -86.910446905, 33.536227293 ], [ -86.913784407, 33.536134794 ], [ -86.915261805, 33.536363393 ], [ -86.915836401, 33.536615193 ], [ -86.916192107, 33.536913 ], [ -86.916520804, 33.537348099 ], [ -86.9168493, 33.538058296 ], [ -86.9168768, 33.538355999 ], [ -86.917068601, 33.538951598 ], [ -86.917150803, 33.538997397 ], [ -86.917178206, 33.539249398 ], [ -86.917506903, 33.539959595 ] ] } },
{ "type": "Feature", "properties": { "site_no": "02458502", "nhdplus_comid": "18566183", "navigation_mode": "DM", "requested_distance_km": 12.0, "start_source": "nwissite", "start_id": "USGS-02458502", "geometry_length_km": 1.3403129000789369 }, "geometry": { "type": "LineString", "coordinates": [ [ -86.917506903, 33.539959595 ], [ -86.917835705, 33.540990494 ], [ -86.918329403, 33.543395795 ], [ -86.918931402, 33.543716297 ], [ -86.921339504, 33.544379897 ], [ -86.922160506, 33.544677399 ], [ -86.922680303, 33.544677295 ], [ -86.9240207, 33.5442186 ], [ -86.924348906, 33.544264197 ], [ -86.924622707, 33.544516094 ], [ -86.924705006, 33.544813894 ], [ -86.924733706, 33.547334097 ] ] } },
{ "type": "Feature", "properties": { "site_no": "02458502", "nhdplus_comid": "18566179", "navigation_mode": "DM", "requested_distance_km": 12.0, "start_source": "nwissite", "start_id": "USGS-02458502", "geometry_length_km": 1.4481857549209103 }, "geometry": { "type": "LineString", "coordinates": [ [ -86.924733706, 33.547334097 ], [ -86.924952701, 33.547448494 ], [ -86.925199203, 33.547723293 ], [ -86.925664403, 33.547883496 ], [ -86.927141801, 33.547837093 ], [ -86.928290807, 33.547584593 ], [ -86.928919904, 33.547286496 ], [ -86.9294395, 33.546919696 ], [ -86.930396505, 33.545934096 ], [ -86.930998102, 33.545429893 ], [ -86.931545205, 33.545246296 ], [ -86.931900904, 33.545246094 ], [ -86.932557605, 33.5454062 ], [ -86.934090301, 33.546207398 ], [ -86.93524, 33.547100395 ], [ -86.936499603, 33.548565999 ], [ -86.937238604, 33.548932195 ] ] } },
{ "type": "Feature", "properties": { "site_no": "02458502", "nhdplus_comid": "18566171", "navigation_mode": "DM", "requested_distance_km": 12.0, "start_source": "nwissite", "start_id": "USGS-02458502", "geometry_length_km": 0.75307996045324221 }, "geometry": { "type": "LineString", "coordinates": [ [ -86.937238604, 33.548932195 ], [ -86.939263307, 33.548747897 ], [ -86.939755805, 33.548770599 ], [ -86.940576807, 33.549113899 ], [ -86.941535302, 33.550235897 ], [ -86.9425207, 33.5507394 ], [ -86.9434513, 33.550944999 ], [ -86.944381602, 33.5509445 ] ] } },
{ "type": "Feature", "properties": { "site_no": "02458502", "nhdplus_comid": "18566553", "navigation_mode": "DM", "requested_distance_km": 12.0, "start_source": "nwissite", "start_id": "USGS-02458502", "geometry_length_km": 3.0475798868819597 }, "geometry": { "type": "LineString", "coordinates": [ [ -86.944381602, 33.5509445 ], [ -86.944325902, 33.550883293 ], [ -86.944949307, 33.550473399 ], [ -86.945116006, 33.547716394 ], [ -86.945605904, 33.546118096 ], [ -86.946253702, 33.545791499 ], [ -86.949441403, 33.545917094 ], [ -86.950319201, 33.546238095 ], [ -86.951304801, 33.546945497 ], [ -86.9526572, 33.548437193 ], [ -86.954196505, 33.5509509 ], [ -86.956685901, 33.5531618 ], [ -86.961824201, 33.553566597 ], [ -86.962975502, 33.554160893 ], [ -86.965393603, 33.5543513 ], [ -86.965861402, 33.554262199 ], [ -86.966689102, 33.553697795 ], [ -86.967459105, 33.553632498 ] ] } }
]
}
