{
"type": "FeatureCollection",
"name": "USGS_02455980_DM_12km",
"crs": { "type": "name", "properties": { "name": "urn:ogc:def:crs:OGC:1.3:CRS84" } },
"features": [
{ "type": "Feature", "properties": { "site_no": "02455980", "nhdplus_comid": "18565735", "navigation_mode": "DM", "requested_distance_km": 12.0, "start_source": "nwissite", "start_id": "USGS-02455980", "geometry_length_km": 3.597308795595807 }, "geometry": { "type": "LineString", "coordinates": [ [ -86.695730276, 33.711125896 ], [ -86.696369603, 33.713165395 ], [ -86.696451902, 33.713211097 ], [ -86.696452007, 33.713394396 ], [ -86.696726605, 33.713966995 ], [ -86.697659403, 33.714837097 ], [ -86.698317401, 33.714859597 ], [ -86.698536605, 33.714767799 ], [ -86.700152501, 33.713025697 ], [ -86.700618401, 33.712933794 ], [ -86.701057106, 33.713048093 ], [ -86.701112002, 33.713139698 ], [ -86.701222301, 33.713781096 ], [ -86.701304607, 33.713826999 ], [ -86.701496907, 33.714468293 ], [ -86.700921707, 33.715041295 ], [ -86.6991954, 33.715821296 ], [ -86.698784605, 33.716325499 ], [ -86.6988675, 33.717035599 ], [ -86.698949806, 33.717081398 ], [ -86.6989775, 33.717356294 ], [ -86.699059807, 33.717424996 ], [ -86.699169904, 33.7179747 ], [ -86.699774206, 33.719394796 ], [ -86.700240806, 33.719967194 ], [ -86.700597301, 33.720150195 ], [ -86.701337405, 33.720058098 ], [ -86.701830603, 33.719760098 ], [ -86.702405706, 33.719026595 ], [ -86.703117006, 33.717353798 ], [ -86.703746803, 33.716643296 ], [ -86.704623602, 33.716115795 ], [ -86.705747105, 33.715565294 ], [ -86.706514604, 33.715450197 ], [ -86.706953302, 33.7156104 ], [ -86.707090504, 33.715747699 ], [ -86.707063504, 33.716182999 ], [ -86.706789903, 33.716710098 ], [ -86.705502503, 33.717879198 ], [ -86.7050917, 33.718360595 ], [ -86.704626404, 33.719208494 ], [ -86.703174606, 33.720469497 ], [ -86.702791207, 33.721065395 ], [ -86.702792101, 33.721981697 ], [ -86.702874407, 33.722073294 ], [ -86.702874601, 33.7223024 ] ] } },
{ "type": "Feature", "properties": { "site_no": "02455980", "nhdplus_comid": "18565667", "navigation_mode": "DM", "requested_distance_km": 12.0, "start_source": "nwissite", "start_id": "USGS-02455980", "geometry_length_km": 4.9171527444962955 }, "geometry": { "type": "LineString", "coordinates": [ [ -86.702874601, 33.7223024 ], [ -86.7029569, 33.722371094 ], [ -86.702984601, 33.722577199 ], [ -86.703231603, 33.722874895 ], [ -86.703999601, 33.723309696 ], [ -86.704685204, 33.723538294 ], [ -86.705590107, 33.723698094 ], [ -86.706522204, 33.723605894 ], [ -86.707783006, 33.723307297 ], [ -86.708742507, 33.723215096 ], [ -86.709427901, 33.7232375 ], [ -86.710278004, 33.7233743 ], [ -86.711978301, 33.723945998 ], [ -86.713376507, 33.723899193 ], [ -86.714747101, 33.723669194 ], [ -86.715459906, 33.723691598 ], [ -86.716035806, 33.723851494 ], [ -86.716337606, 33.724080399 ], [ -86.716694601, 33.724606998 ], [ -86.717353106, 33.725133397 ], [ -86.717929207, 33.725407995 ], [ -86.718203701, 33.725682698 ], [ -86.718286403, 33.726071998 ], [ -86.718122207, 33.726369999 ], [ -86.716313601, 33.727310598 ], [ -86.715875506, 33.727791995 ], [ -86.715766907, 33.728822999 ], [ -86.714972802, 33.729900293 ], [ -86.715028003, 33.730220996 ], [ -86.715495005, 33.731091194 ], [ -86.715522707, 33.731320195 ], [ -86.715605006, 33.731366098 ], [ -86.715660401, 33.731961697 ], [ -86.715360701, 33.733634196 ], [ -86.715470701, 33.733954795 ], [ -86.715745106, 33.734206699 ], [ -86.7163212, 33.734549895 ], [ -86.7166778, 33.734664194 ], [ -86.717308402, 33.734617896 ], [ -86.717966303, 33.734411299 ], [ -86.722159304, 33.732414998 ], [ -86.725667603, 33.731266797 ], [ -86.7264347, 33.730739295 ], [ -86.727283306, 33.729547299 ], [ -86.727529801, 33.729318097 ], [ -86.727995805, 33.729271799 ], [ -86.728407606, 33.729706794 ], [ -86.728682704, 33.730554193 ], [ -86.728793606, 33.731516294 ], [ -86.729095601, 33.731928498 ], [ -86.729342707, 33.732111499 ], [ -86.730138205, 33.732385799 ], [ -86.732935101, 33.732589595 ], [ -86.734717906, 33.733069196 ], [ -86.734800301, 33.7331836 ] ] } },
{ "type": "Feature", "properties": { "site_no": "02455980", "nhdplus_comid": "18565635", "navigation_mode": "DM", "requested_distance_km": 12.0, "start_source": "nwissite", "start_id": "USGS-02455980", "geometry_length_km": 0.51807789528896453 }, "geometry": { "type": "LineString", "coordinates": [ [ -86.734800301, 33.7331836 ], [ -86.7375983, 33.734074697 ], [ -86.738613404, 33.734463297 ], [ -86.739436604, 33.734989397 ], [ -86.739902906, 33.735034794 ] ] } },
{ "type": "Feature", "properties": { "site_no": "02455980", "nhdplus_comid": "18565649", "navigation_mode": "DM", "requested_distance_km": 12.0, "start_source": "nwissite", "start_id": "USGS-02455980", "geometry_length_km": 1.5835528197268955 }, "geometry": { "type": "LineString", "coordinates": [ [ -86.739902906, 33.735034794 ], [ -86.740066901, 33.734782599 ], [ -86.740065902, 33.733934999 ], [ -86.739817701, 33.732858397 ], [ -86.739622705, 33.730544798 ], [ -86.739429407, 33.729582794 ], [ -86.739455201, 33.728299893 ], [ -86.739728503, 33.727612294 ], [ -86.740002304, 33.7273601 ], [ -86.740522906, 33.727107696 ], [ -86.741482407, 33.726969294 ], [ -86.744855501, 33.727561794 ], [ -86.746693306, 33.728201397 ], [ -86.747296706, 33.728361197 ] ] } }
]
}
