{
"type": "FeatureCollection",
"name": "USGS_02415000_UM_12km",
"crs": { "type": "name", "properties": { "name": "urn:ogc:def:crs:OGC:1.3:CRS84" } },
"features": [
{ "type": "Feature", "properties": { "site_no": "02415000", "nhdplus_comid": "22035157", "navigation_mode": "UM", "requested_distance_km": 12.0, "start_source": "nwissite", "start_id": "USGS-02415000", "geometry_length_km": 1.0430051253096237 }, "geometry": { "type": "LineString", "coordinates": [ [ -85.875455305, 33.072217993 ], [ -85.876026802, 33.071759798 ], [ -85.876924604, 33.070614398 ], [ -85.877033502, 33.070179194 ], [ -85.877550401, 33.069743998 ], [ -85.877795301, 33.069583595 ], [ -85.878910802, 33.069445997 ], [ -85.879346207, 33.069194093 ], [ -85.879808702, 33.068392195 ], [ -85.880026206, 33.066788599 ], [ -85.879808605, 33.066009693 ], [ -85.879536502, 33.065849394 ], [ -85.878638707, 33.065528594 ], [ -85.878443109, 33.06536391 ] ] } },
{ "type": "Feature", "properties": { "site_no": "02415000", "nhdplus_comid": "22035131", "navigation_mode": "UM", "requested_distance_km": 12.0, "start_source": "nwissite", "start_id": "USGS-02415000", "geometry_length_km": 1.5260545335722635 }, "geometry": { "type": "LineString", "coordinates": [ [ -85.888734303, 33.078837894 ], [ -85.888217203, 33.0789067 ], [ -85.887074403, 33.0786319 ], [ -85.885822602, 33.078036398 ], [ -85.883944906, 33.077051498 ], [ -85.8827748, 33.075997695 ], [ -85.882747605, 33.075860299 ], [ -85.882448301, 33.075470798 ], [ -85.881985605, 33.075127199 ], [ -85.881305404, 33.074783698 ], [ -85.879944906, 33.074623398 ], [ -85.878611602, 33.074600495 ], [ -85.877958603, 33.074417293 ], [ -85.877087906, 33.074096493 ], [ -85.875455402, 33.072492898 ], [ -85.875455305, 33.072217993 ] ] } },
{ "type": "Feature", "properties": { "site_no": "02415000", "nhdplus_comid": "22035109", "navigation_mode": "UM", "requested_distance_km": 12.0, "start_source": "nwissite", "start_id": "USGS-02415000", "geometry_length_km": 1.6653294688473488 }, "geometry": { "type": "LineString", "coordinates": [ [ -85.889715202, 33.088161595 ], [ -85.889007404, 33.086512297 ], [ -85.888490304, 33.085962594 ], [ -85.887973204, 33.085802197 ], [ -85.887020707, 33.0860314 ], [ -85.886748604, 33.086008497 ], [ -85.886041, 33.085596196 ], [ -85.885224603, 33.085665099 ], [ -85.884898104, 33.085596293 ], [ -85.884653106, 33.085321493 ], [ -85.8845715, 33.0850465 ], [ -85.884598605, 33.083649099 ], [ -85.885387607, 33.081976697 ], [ -85.8856868, 33.080945797 ], [ -85.886557505, 33.080510497 ], [ -85.887373902, 33.080464594 ], [ -85.887863703, 33.080556199 ], [ -85.8886801, 33.080533199 ], [ -85.8888705, 33.080418698 ], [ -85.888734303, 33.078837894 ] ] } },
{ "type": "Feature", "properties": { "site_no": "02415000", "nhdplus_comid": "22035085", "navigation_mode": "UM", "requested_distance_km": 12.0, "start_source": "nwissite", "start_id": "USGS-02415000", "geometry_length_km": 1.4108057736045985 }, "geometry": { "type": "LineString", "coordinates": [ [ -85.888083503, 33.097622998 ], [ -85.888382904, 33.097554296 ], [ -85.888927102, 33.097187698 ], [ -85.889199205, 33.096408799 ], [ -85.889144801, 33.0957902 ], [ -85.888872504, 33.095355093 ], [ -85.888709202, 33.095217593 ], [ -85.888137601, 33.094415896 ], [ -85.888164707, 33.094072193 ], [ -85.890178703, 33.093636699 ], [ -85.891675301, 33.092811897 ], [ -85.891947404, 33.092399493 ], [ -85.8920018, 33.092078693 ], [ -85.891838506, 33.091597699 ], [ -85.890913002, 33.090589799 ], [ -85.889715202, 33.088161595 ] ] } },
{ "type": "Feature", "properties": { "site_no": "02415000", "nhdplus_comid": "22035071", "navigation_mode": "UM", "requested_distance_km": 12.0, "start_source": "nwissite", "start_id": "USGS-02415000", "geometry_length_km": 3.3766376231008297 }, "geometry": { "type": "LineString", "coordinates": [ [ -85.868052103, 33.096569397 ], [ -85.869195104, 33.096569397 ], [ -85.869657807, 33.096477896 ], [ -85.871454105, 33.095653199 ], [ -85.871889703, 33.095699094 ], [ -85.872161701, 33.095882297 ], [ -85.872515507, 33.096248895 ], [ -85.873576902, 33.097715095 ], [ -85.874556705, 33.098631494 ], [ -85.874965005, 33.098883495 ], [ -85.8761352, 33.098929293 ], [ -85.876679607, 33.098860599 ], [ -85.877550505, 33.098493993 ], [ -85.878122106, 33.098012894 ], [ -85.878231004, 33.097783796 ], [ -85.8781766, 33.097371399 ], [ -85.878176503, 33.0970736 ], [ -85.877877101, 33.096844494 ], [ -85.876706801, 33.0963405 ], [ -85.875400506, 33.0953326 ], [ -85.874992304, 33.094507895 ], [ -85.874829002, 33.094003893 ], [ -85.8749924, 33.093637295 ], [ -85.875128403, 33.093133397 ], [ -85.876053706, 33.092812695 ], [ -85.878013305, 33.092446096 ], [ -85.878884107, 33.092125498 ], [ -85.8796461, 33.091804698 ], [ -85.880108707, 33.091667295 ], [ -85.880544201, 33.091644295 ], [ -85.8811974, 33.091896296 ], [ -85.882068202, 33.092789695 ], [ -85.882558204, 33.093545698 ], [ -85.882966407, 33.093957998 ], [ -85.885661103, 33.0962945 ], [ -85.886994801, 33.097279496 ], [ -85.888083503, 33.097622998 ] ] } },
{ "type": "Feature", "properties": { "site_no": "02415000", "nhdplus_comid": "22035069", "navigation_mode": "UM", "requested_distance_km": 12.0, "start_source": "nwissite", "start_id": "USGS-02415000", "geometry_length_km": 1.0913606168748793 }, "geometry": { "type": "LineString", "coordinates": [ [ -85.857437901, 33.095422596 ], [ -85.857573904, 33.0954227 ], [ -85.858499505, 33.094666898 ], [ -85.859071001, 33.094483696 ], [ -85.859588102, 33.094552495 ], [ -85.860758401, 33.094873294 ], [ -85.861574806, 33.095308699 ], [ -85.862908304, 33.096316896 ], [ -85.864187405, 33.096591897 ], [ -85.866010904, 33.096660793 ], [ -85.868052103, 33.096569397 ] ] } },
{ "type": "Feature", "properties": { "site_no": "02415000", "nhdplus_comid": "22035065", "navigation_mode": "UM", "requested_distance_km": 12.0, "start_source": "nwissite", "start_id": "USGS-02415000", "geometry_length_km": 2.5960823467027221 }, "geometry": { "type": "LineString", "coordinates": [ [ -85.841214806, 33.101283595 ], [ -85.841187805, 33.100802593 ], [ -85.841296807, 33.100642197 ], [ -85.8416778, 33.100527793 ], [ -85.842358306, 33.100711197 ], [ -85.846032001, 33.102407299 ], [ -85.846766807, 33.102499194 ], [ -85.847202301, 33.1024305 ], [ -85.847774103, 33.101926796 ], [ -85.847719803, 33.101422697 ], [ -85.847475201, 33.100575 ], [ -85.8459519, 33.097917296 ], [ -85.845870405, 33.097436294 ], [ -85.845870502, 33.097275898 ], [ -85.846496604, 33.096932396 ], [ -85.847503603, 33.096886896 ], [ -85.8491638, 33.097093396 ], [ -85.852728702, 33.098216698 ], [ -85.854906105, 33.098239996 ], [ -85.855450407, 33.098171398 ], [ -85.855804406, 33.097896598 ], [ -85.856131002, 33.097553 ], [ -85.857437901, 33.095422596 ] ] } }
]
}
