{
"type": "FeatureCollection",
"name": "USGS_02479560_UM_12km",
"crs": { "type": "name", "properties": { "name": "urn:ogc:def:crs:OGC:1.3:CRS84" } },
"features": [
{ "type": "Feature", "properties": { "site_no": "02479560", "nhdplus_comid": "18094981", "navigation_mode": "UM", "requested_distance_km": 12.0, "start_source": "nwissite", "start_id": "USGS-02479560", "geometry_length_km": 0.26135009742661325 }, "geometry": { "type": "LineString", "coordinates": [ [ -88.457312703, 30.813877396 ], [ -88.458611906, 30.811951697 ], [ -88.458686827, 30.811843785 ] ] } },
{ "type": "Feature", "properties": { "site_no": "02479560", "nhdplus_comid": "18094979", "navigation_mode": "UM", "requested_distance_km": 12.0, "start_source": "nwissite", "start_id": "USGS-02479560", "geometry_length_km": 3.3619301551301399 }, "geometry": { "type": "LineString", "coordinates": [ [ -88.444929004, 30.8334537 ], [ -88.444902405, 30.833316296 ], [ -88.445061304, 30.832857996 ], [ -88.4451674, 30.832674496 ], [ -88.445246801, 30.832376599 ], [ -88.445458807, 30.831780694 ], [ -88.445511706, 30.8315745 ], [ -88.445617907, 30.831436895 ], [ -88.445803203, 30.8307724 ], [ -88.445962407, 30.830474295 ], [ -88.446466506, 30.830038697 ], [ -88.446970902, 30.829854995 ], [ -88.4479798, 30.829556599 ], [ -88.448404305, 30.829212599 ], [ -88.448563404, 30.828914598 ], [ -88.4487224, 30.828547895 ], [ -88.448775105, 30.827929199 ], [ -88.448907301, 30.827356294 ], [ -88.448986806, 30.827149995 ], [ -88.449464403, 30.826622695 ], [ -88.449756101, 30.826187193 ], [ -88.449755706, 30.825728893 ], [ -88.449516505, 30.825499795 ], [ -88.449012004, 30.825454295 ], [ -88.4481626, 30.825638093 ], [ -88.447764106, 30.8255466 ], [ -88.447392203, 30.825317696 ], [ -88.447285704, 30.825042799 ], [ -88.446940303, 30.824699193 ], [ -88.446302801, 30.824310094 ], [ -88.446196504, 30.824172698 ], [ -88.446143106, 30.823897794 ], [ -88.446249105, 30.823645599 ], [ -88.446408302, 30.823485099 ], [ -88.446859702, 30.823416099 ], [ -88.447736204, 30.823690593 ], [ -88.448346905, 30.823690198 ], [ -88.449620903, 30.823185399 ], [ -88.450683005, 30.8231389 ], [ -88.451081201, 30.823092796 ], [ -88.452779904, 30.822266899 ], [ -88.454000406, 30.821372494 ], [ -88.454239003, 30.820868298 ], [ -88.454477206, 30.820043094 ], [ -88.454476804, 30.819584899 ], [ -88.454556204, 30.819286898 ], [ -88.454555206, 30.8181412 ], [ -88.454448901, 30.817912094 ], [ -88.454342306, 30.817522697 ], [ -88.454289101, 30.817453995 ], [ -88.454182506, 30.817018695 ], [ -88.454023004, 30.816697896 ], [ -88.454128802, 30.816170797 ], [ -88.454367407, 30.815826893 ], [ -88.454579704, 30.815666497 ], [ -88.455588207, 30.815161698 ], [ -88.4561719, 30.814725898 ], [ -88.456384003, 30.814382099 ], [ -88.456782006, 30.814061098 ], [ -88.457312703, 30.813877396 ] ] } },
{ "type": "Feature", "properties": { "site_no": "02479560", "nhdplus_comid": "18094223", "navigation_mode": "UM", "requested_distance_km": 12.0, "start_source": "nwissite", "start_id": "USGS-02479560", "geometry_length_km": 2.4197240767254451 }, "geometry": { "type": "LineString", "coordinates": [ [ -88.430249706, 30.842489496 ], [ -88.430355802, 30.8423061 ], [ -88.430541307, 30.8418248 ], [ -88.430859804, 30.841297694 ], [ -88.431125201, 30.841114193 ], [ -88.431709506, 30.841068096 ], [ -88.4320281, 30.841136694 ], [ -88.432559505, 30.841365695 ], [ -88.432825103, 30.841388397 ], [ -88.433223307, 30.841159098 ], [ -88.433223002, 30.8407695 ], [ -88.432744503, 30.840036497 ], [ -88.432505302, 30.839761697 ], [ -88.432319202, 30.839509696 ], [ -88.432372004, 30.838959694 ], [ -88.432610907, 30.838569999 ], [ -88.432955906, 30.838317893 ], [ -88.433513604, 30.8382717 ], [ -88.433858901, 30.838386193 ], [ -88.434071504, 30.838729694 ], [ -88.4341783, 30.839531697 ], [ -88.434417501, 30.839944094 ], [ -88.434709802, 30.840264693 ], [ -88.435055107, 30.840333194 ], [ -88.435533106, 30.840378799 ], [ -88.436090805, 30.840241097 ], [ -88.436966904, 30.839736499 ], [ -88.437630706, 30.839598693 ], [ -88.437949203, 30.839415297 ], [ -88.438453302, 30.8387734 ], [ -88.438532807, 30.838567093 ], [ -88.438771605, 30.838200293 ], [ -88.438957401, 30.838039793 ], [ -88.439594403, 30.837672994 ], [ -88.4398598, 30.837466598 ], [ -88.440072104, 30.837099798 ], [ -88.440230705, 30.835976899 ], [ -88.440469407, 30.835655995 ], [ -88.441079907, 30.835243195 ], [ -88.441477902, 30.834807597 ], [ -88.442008704, 30.834417798 ], [ -88.442778505, 30.834142394 ], [ -88.443734504, 30.834027298 ], [ -88.444292106, 30.833843596 ], [ -88.444637001, 30.833568498 ], [ -88.444929004, 30.8334537 ] ] } },
{ "type": "Feature", "properties": { "site_no": "02479560", "nhdplus_comid": "18094203", "navigation_mode": "UM", "requested_distance_km": 12.0, "start_source": "nwissite", "start_id": "USGS-02479560", "geometry_length_km": 1.2299171328864555 }, "geometry": { "type": "LineString", "coordinates": [ [ -88.421433806, 30.844853297 ], [ -88.421726003, 30.844830297 ], [ -88.4220182, 30.844921798 ], [ -88.422257304, 30.845150895 ], [ -88.422283903, 30.845334195 ], [ -88.422363706, 30.845402896 ], [ -88.422496706, 30.845792398 ], [ -88.42255, 30.846181899 ], [ -88.422656305, 30.846342295 ], [ -88.423054807, 30.846479498 ], [ -88.423718601, 30.846479394 ], [ -88.424117006, 30.846341699 ], [ -88.424435504, 30.846066698 ], [ -88.424833506, 30.845310293 ], [ -88.424912803, 30.844714396 ], [ -88.425124906, 30.843958199 ], [ -88.425310701, 30.843774796 ], [ -88.425655901, 30.8436829 ], [ -88.4266387, 30.843888797 ], [ -88.427196406, 30.843980297 ], [ -88.427647807, 30.843865499 ], [ -88.428550504, 30.843475595 ], [ -88.4293207, 30.8433607 ], [ -88.429745406, 30.843108393 ], [ -88.430196702, 30.842695698 ], [ -88.430249706, 30.842489496 ] ] } },
{ "type": "Feature", "properties": { "site_no": "02479560", "nhdplus_comid": "18094195", "navigation_mode": "UM", "requested_distance_km": 12.0, "start_source": "nwissite", "start_id": "USGS-02479560", "geometry_length_km": 1.4023447319613187 }, "geometry": { "type": "LineString", "coordinates": [ [ -88.418568701, 30.851201795 ], [ -88.418781005, 30.850926697 ], [ -88.419152707, 30.850582898 ], [ -88.420719206, 30.849711597 ], [ -88.421329804, 30.849161394 ], [ -88.421568707, 30.848771699 ], [ -88.421595007, 30.848382197 ], [ -88.421488807, 30.848244697 ], [ -88.421116702, 30.848015599 ], [ -88.420532405, 30.8480158 ], [ -88.420027904, 30.848199397 ], [ -88.419895202, 30.848313995 ], [ -88.419417307, 30.8486121 ], [ -88.418912806, 30.848703794 ], [ -88.418594003, 30.8486811 ], [ -88.418354906, 30.848474897 ], [ -88.417982802, 30.847902194 ], [ -88.417903006, 30.8476502 ], [ -88.417982504, 30.847237699 ], [ -88.418115005, 30.846893899 ], [ -88.418380603, 30.846595995 ], [ -88.420265906, 30.846068293 ], [ -88.420584403, 30.845770195 ], [ -88.421062104, 30.845013894 ], [ -88.421168201, 30.8448992 ], [ -88.421433806, 30.844853297 ] ] } },
{ "type": "Feature", "properties": { "site_no": "02479560", "nhdplus_comid": "18094179", "navigation_mode": "UM", "requested_distance_km": 12.0, "start_source": "nwissite", "start_id": "USGS-02479560", "geometry_length_km": 0.75587848836600902 }, "geometry": { "type": "LineString", "coordinates": [ [ -88.4213598, 30.855554499 ], [ -88.421386302, 30.8553482 ], [ -88.421465702, 30.854958594 ], [ -88.421624906, 30.854637794 ], [ -88.421996504, 30.854087695 ], [ -88.422182202, 30.853766799 ], [ -88.4222086, 30.853331394 ], [ -88.422102205, 30.8531252 ], [ -88.421809904, 30.852896199 ], [ -88.421464503, 30.852735899 ], [ -88.421066202, 30.852690294 ], [ -88.420136601, 30.852827996 ], [ -88.419685006, 30.852828197 ], [ -88.419499107, 30.852713794 ], [ -88.418808103, 30.851980694 ], [ -88.4185955, 30.851705894 ], [ -88.418568701, 30.851201795 ] ] } },
{ "type": "Feature", "properties": { "site_no": "02479560", "nhdplus_comid": "18094165", "navigation_mode": "UM", "requested_distance_km": 12.0, "start_source": "nwissite", "start_id": "USGS-02479560", "geometry_length_km": 0.91774616808813292 }, "geometry": { "type": "LineString", "coordinates": [ [ -88.418467902, 30.8622007 ], [ -88.418839402, 30.861467399 ], [ -88.418945506, 30.861100696 ], [ -88.418945007, 30.8600237 ], [ -88.418812007, 30.859657094 ], [ -88.418679103, 30.859496795 ], [ -88.418705605, 30.859405197 ], [ -88.418599203, 30.859336399 ], [ -88.418625802, 30.859198995 ], [ -88.418227106, 30.858557396 ], [ -88.418094106, 30.858213693 ], [ -88.418173604, 30.857915796 ], [ -88.418518804, 30.857548997 ], [ -88.419315301, 30.8570446 ], [ -88.419952706, 30.856769398 ], [ -88.420510307, 30.8564713 ], [ -88.420749106, 30.856173299 ], [ -88.421147503, 30.855829395 ], [ -88.421200506, 30.855714895 ], [ -88.4213598, 30.855554499 ] ] } }
]
}
