{
"type": "FeatureCollection",
"name": "USGS_02406000_DM_12km",
"crs": { "type": "name", "properties": { "name": "urn:ogc:def:crs:OGC:1.3:CRS84" } },
"features": [
{ "type": "Feature", "properties": { "site_no": "02406000", "nhdplus_comid": "22206723", "navigation_mode": "DM", "requested_distance_km": 12.0, "start_source": "nwissite", "start_id": "USGS-02406000", "geometry_length_km": 0.081769930019792186 }, "geometry": { "type": "LineString", "coordinates": [ [ -86.113492331, 33.389197138 ], [ -86.113520205, 33.389197893 ], [ -86.114060007, 33.3897487 ] ] } },
{ "type": "Feature", "properties": { "site_no": "02406000", "nhdplus_comid": "22206699", "navigation_mode": "DM", "requested_distance_km": 12.0, "start_source": "nwissite", "start_id": "USGS-02406000", "geometry_length_km": 0.5293583816574744 }, "geometry": { "type": "LineString", "coordinates": [ [ -86.114060007, 33.3897487 ], [ -86.114116304, 33.390509896 ], [ -86.114521101, 33.390923098 ], [ -86.115425207, 33.391001195 ], [ -86.116979204, 33.390757196 ], [ -86.118620902, 33.391025096 ] ] } },
{ "type": "Feature", "properties": { "site_no": "02406000", "nhdplus_comid": "22206695", "navigation_mode": "DM", "requested_distance_km": 12.0, "start_source": "nwissite", "start_id": "USGS-02406000", "geometry_length_km": 3.3191123846016994 }, "geometry": { "type": "LineString", "coordinates": [ [ -86.118620902, 33.391025096 ], [ -86.120294206, 33.391043499 ], [ -86.120564103, 33.391318895 ], [ -86.121468201, 33.391396999 ], [ -86.123809807, 33.393363893 ], [ -86.126427807, 33.394346096 ], [ -86.127388403, 33.395185299 ], [ -86.127309807, 33.395808794 ], [ -86.128311105, 33.397533894 ], [ -86.128336206, 33.398544393 ], [ -86.126474202, 33.400022499 ], [ -86.126245007, 33.400632896 ], [ -86.128524102, 33.403098494 ], [ -86.130200505, 33.405511998 ], [ -86.130486205, 33.405662693 ], [ -86.131874003, 33.405530199 ], [ -86.137284003, 33.406122595 ], [ -86.139593206, 33.404115699 ] ] } },
{ "type": "Feature", "properties": { "site_no": "02406000", "nhdplus_comid": "22206689", "navigation_mode": "DM", "requested_distance_km": 12.0, "start_source": "nwissite", "start_id": "USGS-02406000", "geometry_length_km": 2.0131570186477532 }, "geometry": { "type": "LineString", "coordinates": [ [ -86.139593206, 33.404115699 ], [ -86.140596405, 33.404013097 ], [ -86.140866406, 33.404288493 ], [ -86.140599705, 33.406408295 ], [ -86.141846307, 33.407397993 ], [ -86.144480705, 33.4082551 ], [ -86.149049304, 33.408270299 ], [ -86.149454504, 33.4086833 ], [ -86.149213202, 33.411813699 ], [ -86.150158502, 33.412777394 ], [ -86.152179502, 33.414274797 ] ] } },
{ "type": "Feature", "properties": { "site_no": "02406000", "nhdplus_comid": "22206837", "navigation_mode": "DM", "requested_distance_km": 12.0, "start_source": "nwissite", "start_id": "USGS-02406000", "geometry_length_km": 0.97355766272715616 }, "geometry": { "type": "LineString", "coordinates": [ [ -86.152179502, 33.414274797 ], [ -86.153967805, 33.413987398 ], [ -86.155157901, 33.4142159 ], [ -86.157585301, 33.414298594 ], [ -86.158323303, 33.4144881 ], [ -86.158593506, 33.414763398 ], [ -86.160220206, 33.415155299 ], [ -86.161702104, 33.414274395 ], [ -86.162006803, 33.414140597 ] ] } },
{ "type": "Feature", "properties": { "site_no": "02406000", "nhdplus_comid": "22206841", "navigation_mode": "DM", "requested_distance_km": 12.0, "start_source": "nwissite", "start_id": "USGS-02406000", "geometry_length_km": 1.44868091407873 }, "geometry": { "type": "LineString", "coordinates": [ [ -86.162006803, 33.414140597 ], [ -86.162075005, 33.414110593 ], [ -86.160024501, 33.411861293 ], [ -86.159443207, 33.410424896 ], [ -86.160275102, 33.409866199 ], [ -86.1620114, 33.409385197 ], [ -86.163659506, 33.408392496 ], [ -86.163483307, 33.407368995 ], [ -86.163733803, 33.405373797 ], [ -86.164950304, 33.404331096 ] ] } }
]
}
