{
"type": "FeatureCollection",
"name": "USGS_03575950_DM_12km",
"crs": { "type": "name", "properties": { "name": "urn:ogc:def:crs:OGC:1.3:CRS84" } },
"features": [
{ "type": "Feature", "properties": { "site_no": "03575950", "nhdplus_comid": "19620296", "navigation_mode": "DM", "requested_distance_km": 12.0, "start_source": "nwissite", "start_id": "USGS-03575950", "geometry_length_km": 3.2472701232499541 }, "geometry": { "type": "LineString", "coordinates": [ [ -86.596563098, 34.69001853 ], [ -86.596568801, 34.689861797 ], [ -86.59668, 34.689151794 ], [ -86.597512707, 34.687090397 ], [ -86.598067604, 34.686197199 ], [ -86.598788902, 34.685326993 ], [ -86.599482603, 34.683815397 ], [ -86.599843502, 34.682761796 ], [ -86.5998713, 34.682372399 ], [ -86.600482106, 34.679967396 ], [ -86.601342507, 34.677127294 ], [ -86.601814903, 34.673508398 ], [ -86.601871006, 34.6714468 ], [ -86.602232106, 34.669018894 ], [ -86.602232501, 34.667896494 ], [ -86.602426805, 34.667094797 ], [ -86.603092603, 34.665262498 ], [ -86.603702903, 34.663888194 ], [ -86.604590401, 34.662262097 ], [ -86.604812205, 34.662124798 ] ] } },
{ "type": "Feature", "properties": { "site_no": "03575950", "nhdplus_comid": "19621400", "navigation_mode": "DM", "requested_distance_km": 12.0, "start_source": "nwissite", "start_id": "USGS-03575950", "geometry_length_km": 3.337390424491042 }, "geometry": { "type": "LineString", "coordinates": [ [ -86.604812205, 34.662124798 ], [ -86.605200604, 34.661162697 ], [ -86.605228402, 34.660521396 ], [ -86.6048683, 34.659696698 ], [ -86.6037599, 34.657978594 ], [ -86.6033445, 34.656810395 ], [ -86.603344701, 34.655962795 ], [ -86.604121201, 34.654405296 ], [ -86.604481801, 34.653786898 ], [ -86.604786702, 34.653557993 ], [ -86.605646104, 34.653191693 ], [ -86.606034204, 34.6526419 ], [ -86.606367201, 34.651404999 ], [ -86.606367305, 34.650878198 ], [ -86.606145702, 34.650351398 ], [ -86.605730005, 34.649893194 ], [ -86.605591603, 34.6494122 ], [ -86.605592005, 34.647602595 ], [ -86.605703101, 34.647121496 ], [ -86.606035702, 34.646777995 ], [ -86.6060635, 34.646388695 ], [ -86.605980404, 34.646296993 ], [ -86.605038203, 34.645976193 ], [ -86.605010502, 34.645655498 ], [ -86.605371103, 34.644693494 ], [ -86.6061197, 34.643250495 ], [ -86.606646404, 34.642563395 ], [ -86.607006803, 34.6422657 ], [ -86.607339501, 34.641693197 ], [ -86.607810706, 34.641349696 ], [ -86.608254202, 34.6413268 ], [ -86.608558901, 34.641601697 ], [ -86.6087806, 34.6416476 ], [ -86.611330606, 34.640571199 ], [ -86.611746401, 34.640227698 ], [ -86.611884907, 34.639998794 ], [ -86.612245403, 34.638876393 ], [ -86.612883002, 34.6386474 ], [ -86.613575801, 34.6390827 ] ] } },
{ "type": "Feature", "properties": { "site_no": "03575950", "nhdplus_comid": "19621418", "navigation_mode": "DM", "requested_distance_km": 12.0, "start_source": "nwissite", "start_id": "USGS-03575950", "geometry_length_km": 2.5714309495132159 }, "geometry": { "type": "LineString", "coordinates": [ [ -86.613575801, 34.6390827 ], [ -86.615294106, 34.639014199 ], [ -86.615626603, 34.638922594 ], [ -86.616458103, 34.638006397 ], [ -86.616929404, 34.636998594 ], [ -86.617068104, 34.635853298 ], [ -86.617373005, 34.635463893 ], [ -86.618121207, 34.634845495 ], [ -86.618564703, 34.634639397 ], [ -86.619617701, 34.634456195 ], [ -86.620421402, 34.634685293 ], [ -86.621031106, 34.634387493 ], [ -86.621696204, 34.634318896 ], [ -86.6223059, 34.634341799 ], [ -86.622749306, 34.634204395 ], [ -86.623414502, 34.633837894 ], [ -86.624328904, 34.633150697 ], [ -86.624994002, 34.6324865 ], [ -86.625271104, 34.631913893 ], [ -86.625298806, 34.631272398 ], [ -86.624994002, 34.630745597 ], [ -86.624883205, 34.630562298 ], [ -86.624883205, 34.6302187 ], [ -86.624994002, 34.630012698 ], [ -86.625437401, 34.6295546 ], [ -86.625797704, 34.629439995 ], [ -86.626822904, 34.628775798 ], [ -86.627654307, 34.627905294 ], [ -86.628014505, 34.627378397 ], [ -86.628069803, 34.626782797 ], [ -86.627820402, 34.626072794 ], [ -86.6279312, 34.625637598 ], [ -86.628346905, 34.625316896 ], [ -86.628817901, 34.625294 ], [ -86.629621603, 34.625614695 ], [ -86.630175807, 34.6257063 ] ] } },
{ "type": "Feature", "properties": { "site_no": "03575950", "nhdplus_comid": "19620470", "navigation_mode": "DM", "requested_distance_km": 12.0, "start_source": "nwissite", "start_id": "USGS-03575950", "geometry_length_km": 0.60742278815114681 }, "geometry": { "type": "LineString", "coordinates": [ [ -86.630175807, 34.6257063 ], [ -86.6315336, 34.625339694 ], [ -86.633085303, 34.625339597 ], [ -86.634415202, 34.6251105 ], [ -86.635385104, 34.624560699 ], [ -86.636299305, 34.623987995 ] ] } },
{ "type": "Feature", "properties": { "site_no": "03575950", "nhdplus_comid": "19620480", "navigation_mode": "DM", "requested_distance_km": 12.0, "start_source": "nwissite", "start_id": "USGS-03575950", "geometry_length_km": 0.31458281747272127 }, "geometry": { "type": "LineString", "coordinates": [ [ -86.636299305, 34.623987995 ], [ -86.637158304, 34.623461097 ], [ -86.638211101, 34.622682199 ], [ -86.639042303, 34.622292697 ] ] } },
{ "type": "Feature", "properties": { "site_no": "03575950", "nhdplus_comid": "19621546", "navigation_mode": "DM", "requested_distance_km": 12.0, "start_source": "nwissite", "start_id": "USGS-03575950", "geometry_length_km": 0.85622547006949334 }, "geometry": { "type": "LineString", "coordinates": [ [ -86.639042303, 34.622292697 ], [ -86.6391064, 34.622225694 ], [ -86.639972903, 34.621712498 ], [ -86.640629306, 34.621765293 ], [ -86.642140605, 34.622964896 ], [ -86.645258702, 34.6232154 ], [ -86.647061802, 34.622012496 ] ] } },
{ "type": "Feature", "properties": { "site_no": "03575950", "nhdplus_comid": "19621562", "navigation_mode": "DM", "requested_distance_km": 12.0, "start_source": "nwissite", "start_id": "USGS-03575950", "geometry_length_km": 1.9842163394437298 }, "geometry": { "type": "LineString", "coordinates": [ [ -86.647061802, 34.622012496 ], [ -86.647438601, 34.621638395 ], [ -86.647552006, 34.6207041 ], [ -86.650977701, 34.6184185 ], [ -86.6523531, 34.616642095 ], [ -86.653975703, 34.615559399 ], [ -86.655172907, 34.615251198 ], [ -86.657994904, 34.615208 ], [ -86.660292201, 34.615392298 ], [ -86.661720507, 34.615911096 ], [ -86.664165802, 34.616241895 ], [ -86.664497502, 34.616570696 ] ] } }
]
}
