{
"type": "FeatureCollection",
"name": "USGS_03589250_DM_12km",
"crs": { "type": "name", "properties": { "name": "urn:ogc:def:crs:OGC:1.3:CRS84" } },
"features": [
{ "type": "Feature", "properties": { "site_no": "03589250", "nhdplus_comid": "19581357", "navigation_mode": "DM", "requested_distance_km": 12.0, "start_source": "nwissite", "start_id": "USGS-03589250", "geometry_length_km": 5.4762610163800804 }, "geometry": { "type": "LineString", "coordinates": [ [ -87.602455212, 34.757628737 ], [ -87.602546707, 34.757627495 ], [ -87.6028798, 34.757558897 ], [ -87.603101902, 34.757421494 ], [ -87.604295507, 34.756161995 ], [ -87.604878403, 34.755978793 ], [ -87.606626801, 34.755887397 ], [ -87.6068765, 34.755956195 ], [ -87.611538604, 34.757949598 ], [ -87.613508806, 34.758911796 ], [ -87.614119306, 34.759094998 ], [ -87.616811402, 34.759278499 ], [ -87.618643001, 34.759713799 ], [ -87.6221954, 34.759187095 ], [ -87.623166807, 34.7593017 ], [ -87.625026204, 34.7599888 ], [ -87.626913406, 34.760721698 ], [ -87.629189201, 34.761294194 ], [ -87.631770305, 34.761798099 ], [ -87.633047104, 34.762279093 ], [ -87.634712406, 34.762668297 ], [ -87.635517202, 34.762645297 ], [ -87.636211105, 34.762393296 ], [ -87.636849307, 34.7619351 ], [ -87.637071401, 34.761866398 ], [ -87.637987301, 34.761866294 ], [ -87.640152104, 34.762415797 ], [ -87.641956106, 34.762438498 ], [ -87.642400205, 34.762507096 ], [ -87.642400205, 34.762896493 ], [ -87.641873002, 34.763743997 ], [ -87.641234905, 34.765095398 ], [ -87.641013101, 34.765713893 ], [ -87.640902601, 34.768096 ], [ -87.640680604, 34.768668599 ], [ -87.640153401, 34.769355796 ], [ -87.638155103, 34.771279998 ], [ -87.636212401, 34.772768997 ], [ -87.635102205, 34.774143293 ], [ -87.634963401, 34.774509698 ] ] } },
{ "type": "Feature", "properties": { "site_no": "03589250", "nhdplus_comid": "19581349", "navigation_mode": "DM", "requested_distance_km": 12.0, "start_source": "nwissite", "start_id": "USGS-03589250", "geometry_length_km": 1.9546651761248759 }, "geometry": { "type": "LineString", "coordinates": [ [ -87.634963401, 34.774509698 ], [ -87.634824701, 34.775425896 ], [ -87.634852603, 34.776914895 ], [ -87.635075003, 34.778678395 ], [ -87.635241605, 34.779159397 ], [ -87.635491505, 34.779525794 ], [ -87.637212805, 34.780762494 ], [ -87.638767503, 34.782205299 ], [ -87.638989702, 34.782640494 ], [ -87.6394061, 34.783098496 ], [ -87.641460702, 34.784403794 ], [ -87.642404802, 34.785411499 ], [ -87.6430436, 34.7864649 ], [ -87.643182501, 34.786991693 ], [ -87.643682405, 34.788045295 ], [ -87.643877007, 34.788755298 ], [ -87.643849202, 34.7893508 ] ] } },
{ "type": "Feature", "properties": { "site_no": "03589250", "nhdplus_comid": "19623624", "navigation_mode": "DM", "requested_distance_km": 12.0, "start_source": "nwissite", "start_id": "USGS-03589250", "geometry_length_km": 0.0063864659752764221 }, "geometry": { "type": "LineString", "coordinates": [ [ -87.643849202, 34.7893508 ], [ -87.643827602, 34.789332993 ], [ -87.643828101, 34.789365098 ] ] } },
{ "type": "Feature", "properties": { "site_no": "03589250", "nhdplus_comid": "19623622", "navigation_mode": "DM", "requested_distance_km": 12.0, "start_source": "nwissite", "start_id": "USGS-03589250", "geometry_length_km": 0.38468798838099943 }, "geometry": { "type": "LineString", "coordinates": [ [ -87.643828101, 34.789365098 ], [ -87.643830806, 34.7895386 ], [ -87.645031705, 34.790701397 ], [ -87.647157304, 34.790988095 ] ] } },
{ "type": "Feature", "properties": { "site_no": "03589250", "nhdplus_comid": "19623648", "navigation_mode": "DM", "requested_distance_km": 12.0, "start_source": "nwissite", "start_id": "USGS-03589250", "geometry_length_km": 2.1244862923647783 }, "geometry": { "type": "LineString", "coordinates": [ [ -87.647157304, 34.790988095 ], [ -87.6543274, 34.787596695 ], [ -87.664130807, 34.784392893 ], [ -87.668134004, 34.7826593 ] ] } },
{ "type": "Feature", "properties": { "site_no": "03589250", "nhdplus_comid": "19623652", "navigation_mode": "DM", "requested_distance_km": 12.0, "start_source": "nwissite", "start_id": "USGS-03589250", "geometry_length_km": 0.34248917684570351 }, "geometry": { "type": "LineString", "coordinates": [ [ -87.668134004, 34.7826593 ], [ -87.6707967, 34.782579996 ], [ -87.671484105, 34.782359794 ], [ -87.6717989, 34.7825168 ] ] } },
{ "type": "Feature", "properties": { "site_no": "03589250", "nhdplus_comid": "19623678", "navigation_mode": "DM", "requested_distance_km": 12.0, "start_source": "nwissite", "start_id": "USGS-03589250", "geometry_length_km": 2.3055981509775969 }, "geometry": { "type": "LineString", "coordinates": [ [ -87.6717989, 34.7825168 ], [ -87.674476005, 34.782303795 ], [ -87.677883901, 34.7814698 ], [ -87.681335106, 34.780234896 ], [ -87.684220105, 34.779632598 ], [ -87.686983801, 34.778617896 ], [ -87.689016804, 34.778224096 ], [ -87.690584801, 34.777527995 ], [ -87.692811206, 34.7768787 ], [ -87.693813302, 34.7768154 ], [ -87.694873005, 34.776217699 ], [ -87.695696004, 34.776276194 ] ] } }
]
}
