{
"type": "FeatureCollection",
"name": "USGS_02372430_DM_12km",
"crs": { "type": "name", "properties": { "name": "urn:ogc:def:crs:OGC:1.3:CRS84" } },
"features": [
{ "type": "Feature", "properties": { "site_no": "02372430", "nhdplus_comid": "2378189", "navigation_mode": "DM", "requested_distance_km": 12.0, "start_source": "nwissite", "start_id": "USGS-02372430", "geometry_length_km": 0.54124538576883474 }, "geometry": { "type": "LineString", "coordinates": [ [ -86.529458738, 31.34805471 ], [ -86.529471904, 31.347990997 ], [ -86.529954001, 31.346639298 ], [ -86.530194506, 31.346387394 ], [ -86.530862406, 31.346112795 ], [ -86.532705307, 31.345724598 ], [ -86.533453405, 31.345220894 ] ] } },
{ "type": "Feature", "properties": { "site_no": "02372430", "nhdplus_comid": "2378193", "navigation_mode": "DM", "requested_distance_km": 12.0, "start_source": "nwissite", "start_id": "USGS-02372430", "geometry_length_km": 0.17784918106558639 }, "geometry": { "type": "LineString", "coordinates": [ [ -86.533453405, 31.345220894 ], [ -86.533801302, 31.344441995 ], [ -86.533935405, 31.343685798 ] ] } },
{ "type": "Feature", "properties": { "site_no": "02372430", "nhdplus_comid": "2378205", "navigation_mode": "DM", "requested_distance_km": 12.0, "start_source": "nwissite", "start_id": "USGS-02372430", "geometry_length_km": 0.44644893916633394 }, "geometry": { "type": "LineString", "coordinates": [ [ -86.533935405, 31.343685798 ], [ -86.5338827, 31.343066998 ], [ -86.533722803, 31.342723094 ], [ -86.533564404, 31.340866797 ], [ -86.533351801, 31.339720696 ] ] } },
{ "type": "Feature", "properties": { "site_no": "02372430", "nhdplus_comid": "2378229", "navigation_mode": "DM", "requested_distance_km": 12.0, "start_source": "nwissite", "start_id": "USGS-02372430", "geometry_length_km": 1.9948911443544206 }, "geometry": { "type": "LineString", "coordinates": [ [ -86.533351801, 31.339720696 ], [ -86.533087105, 31.337359995 ], [ -86.533038206, 31.332524493 ], [ -86.533333004, 31.331447698 ], [ -86.533333704, 31.330783099 ], [ -86.533253804, 31.330484994 ], [ -86.533013903, 31.330095299 ], [ -86.530852802, 31.328604095 ], [ -86.530346006, 31.328076594 ], [ -86.529519804, 31.326792598 ], [ -86.529493205, 31.326609194 ], [ -86.528746903, 31.325416997 ], [ -86.528108001, 31.323605999 ], [ -86.527921304, 31.323399596 ] ] } },
{ "type": "Feature", "properties": { "site_no": "02372430", "nhdplus_comid": "2378247", "navigation_mode": "DM", "requested_distance_km": 12.0, "start_source": "nwissite", "start_id": "USGS-02372430", "geometry_length_km": 0.83812235438363503 }, "geometry": { "type": "LineString", "coordinates": [ [ -86.527921304, 31.323399596 ], [ -86.527841702, 31.322918296 ], [ -86.527442701, 31.321497194 ], [ -86.5274451, 31.319113694 ], [ -86.527526706, 31.317578293 ], [ -86.527606905, 31.317417994 ], [ -86.527635202, 31.3159284 ] ] } },
{ "type": "Feature", "properties": { "site_no": "02372430", "nhdplus_comid": "2378257", "navigation_mode": "DM", "requested_distance_km": 12.0, "start_source": "nwissite", "start_id": "USGS-02372430", "geometry_length_km": 1.5720066604283283 }, "geometry": { "type": "LineString", "coordinates": [ [ -86.527635202, 31.3159284 ], [ -86.527797304, 31.313911796 ], [ -86.5280651, 31.313041098 ], [ -86.528305702, 31.312766299 ], [ -86.528679401, 31.312720694 ], [ -86.528919503, 31.3128355 ], [ -86.529586107, 31.313615195 ], [ -86.530252904, 31.314188696 ], [ -86.531133302, 31.314762197 ], [ -86.532894604, 31.315198898 ], [ -86.533935703, 31.315222494 ], [ -86.535137102, 31.315086 ], [ -86.536712304, 31.314720295 ], [ -86.537406705, 31.314353995 ], [ -86.537967704, 31.313918993 ], [ -86.538341805, 31.3133922 ], [ -86.538556002, 31.312658899 ] ] } },
{ "type": "Feature", "properties": { "site_no": "02372430", "nhdplus_comid": "2378269", "navigation_mode": "DM", "requested_distance_km": 12.0, "start_source": "nwissite", "start_id": "USGS-02372430", "geometry_length_km": 1.6505305961017589 }, "geometry": { "type": "LineString", "coordinates": [ [ -86.538556002, 31.312658899 ], [ -86.538369507, 31.312269196 ], [ -86.537862703, 31.311787695 ], [ -86.536982305, 31.311305694 ], [ -86.535301402, 31.310617194 ], [ -86.534607902, 31.3100437 ], [ -86.534180902, 31.3098372 ], [ -86.531592302, 31.309239499 ], [ -86.531218804, 31.309055895 ], [ -86.531032301, 31.3087807 ], [ -86.531112604, 31.308528699 ], [ -86.531379603, 31.3083914 ], [ -86.534129307, 31.308003798 ], [ -86.534529902, 31.307797797 ], [ -86.534583502, 31.307568595 ], [ -86.534450203, 31.307430997 ], [ -86.533729807, 31.307132594 ], [ -86.533516504, 31.306949198 ], [ -86.5332499, 31.306513496 ], [ -86.532957003, 31.305711195 ], [ -86.532851003, 31.304908998 ], [ -86.532717802, 31.304656796 ] ] } },
{ "type": "Feature", "properties": { "site_no": "02372430", "nhdplus_comid": "2378277", "navigation_mode": "DM", "requested_distance_km": 12.0, "start_source": "nwissite", "start_id": "USGS-02372430", "geometry_length_km": 1.5812368967575174 }, "geometry": { "type": "LineString", "coordinates": [ [ -86.532717802, 31.304656796 ], [ -86.532638304, 31.304106697 ], [ -86.5325066, 31.3022504 ], [ -86.532586902, 31.301952496 ], [ -86.532934301, 31.301494397 ], [ -86.535070702, 31.300304197 ], [ -86.535551503, 31.299891993 ], [ -86.536299303, 31.299388297 ], [ -86.536806501, 31.299251199 ], [ -86.536966503, 31.299297199 ], [ -86.538166307, 31.300650097 ], [ -86.538593106, 31.301016994 ], [ -86.539126702, 31.301223598 ], [ -86.540594406, 31.301476598 ], [ -86.540888101, 31.301408097 ], [ -86.541261904, 31.301133297 ], [ -86.541422501, 31.300766796 ], [ -86.541477107, 31.299368799 ], [ -86.541610807, 31.299070999 ] ] } },
{ "type": "Feature", "properties": { "site_no": "02372430", "nhdplus_comid": "2378279", "navigation_mode": "DM", "requested_distance_km": 12.0, "start_source": "nwissite", "start_id": "USGS-02372430", "geometry_length_km": 1.1339622535662739 }, "geometry": { "type": "LineString", "coordinates": [ [ -86.541610807, 31.299070999 ], [ -86.542705104, 31.299071699 ], [ -86.5440391, 31.299507998 ], [ -86.544812806, 31.299898095 ], [ -86.546066403, 31.300769694 ], [ -86.546439901, 31.300930299 ], [ -86.546867102, 31.300861895 ], [ -86.547214203, 31.300724499 ], [ -86.548443206, 31.299121097 ], [ -86.548923805, 31.2988922 ], [ -86.549991705, 31.298549093 ], [ -86.551726505, 31.298435494 ] ] } },
{ "type": "Feature", "properties": { "site_no": "02372430", "nhdplus_comid": "2378283", "navigation_mode": "DM", "requested_distance_km": 12.0, "start_source": "nwissite", "start_id": "USGS-02372430", "geometry_length_km": 0.45727581086880542 }, "geometry": { "type": "LineString", "coordinates": [ [ -86.551726505, 31.298435494 ], [ -86.552741006, 31.298138097 ], [ -86.553275004, 31.297794595 ], [ -86.553809203, 31.297176197 ], [ -86.553836301, 31.296557397 ], [ -86.553756602, 31.296121895 ], [ -86.553463601, 31.295365497 ] ] } },
{ "type": "Feature", "properties": { "site_no": "02372430", "nhdplus_comid": "2378297", "navigation_mode": "DM", "requested_distance_km": 12.0, "start_source": "nwissite", "start_id": "USGS-02372430", "geometry_length_km": 0.96905871136110344 }, "geometry": { "type": "LineString", "coordinates": [ [ -86.553463601, 31.295365497 ], [ -86.553464003, 31.294815399 ], [ -86.553731404, 31.294196799 ], [ -86.5539717, 31.293944895 ], [ -86.554398902, 31.2936472 ], [ -86.555840403, 31.293166697 ], [ -86.557628706, 31.292732194 ], [ -86.559470601, 31.292045698 ], [ -86.561045505, 31.291610993 ], [ -86.561819606, 31.291473895 ] ] } },
{ "type": "Feature", "properties": { "site_no": "02372430", "nhdplus_comid": "2378301", "navigation_mode": "DM", "requested_distance_km": 12.0, "start_source": "nwissite", "start_id": "USGS-02372430", "geometry_length_km": 0.27991794871225251 }, "geometry": { "type": "LineString", "coordinates": [ [ -86.561819606, 31.291473895 ], [ -86.5638486, 31.290237397 ], [ -86.564275704, 31.290100098 ] ] } }
]
}
