{
"type": "FeatureCollection",
"name": "USGS_02362240_UM_12km",
"crs": { "type": "name", "properties": { "name": "urn:ogc:def:crs:OGC:1.3:CRS84" } },
"features": [
{ "type": "Feature", "properties": { "site_no": "02362240", "nhdplus_comid": "2188549", "navigation_mode": "UM", "requested_distance_km": 12.0, "start_source": "nwissite", "start_id": "USGS-02362240", "geometry_length_km": 1.0626128693246142 }, "geometry": { "type": "LineString", "coordinates": [ [ -85.962857202, 31.280975096 ], [ -85.962803505, 31.280585594 ], [ -85.962348901, 31.279485993 ], [ -85.961467206, 31.278111599 ], [ -85.961386606, 31.277561694 ], [ -85.961306602, 31.277515896 ], [ -85.961145803, 31.276943199 ], [ -85.960878506, 31.276347496 ], [ -85.960264005, 31.275408395 ], [ -85.960130103, 31.2749044 ], [ -85.959996104, 31.274171196 ], [ -85.959782302, 31.273804694 ], [ -85.958981305, 31.2730719 ], [ -85.958553702, 31.272361897 ], [ -85.958548108, 31.272343937 ] ] } },
{ "type": "Feature", "properties": { "site_no": "02362240", "nhdplus_comid": "2188459", "navigation_mode": "UM", "requested_distance_km": 12.0, "start_source": "nwissite", "start_id": "USGS-02362240", "geometry_length_km": 0.26069704943481409 }, "geometry": { "type": "LineString", "coordinates": [ [ -85.964326501, 31.282853194 ], [ -85.964032903, 31.282738797 ], [ -85.963338405, 31.281914294 ], [ -85.962990604, 31.281043798 ], [ -85.962857202, 31.280975096 ] ] } },
{ "type": "Feature", "properties": { "site_no": "02362240", "nhdplus_comid": "2188445", "navigation_mode": "UM", "requested_distance_km": 12.0, "start_source": "nwissite", "start_id": "USGS-02362240", "geometry_length_km": 1.119048027923857 }, "geometry": { "type": "LineString", "coordinates": [ [ -85.970524907, 31.290823296 ], [ -85.970204607, 31.290708899 ], [ -85.967854001, 31.288373299 ], [ -85.967453301, 31.287800699 ], [ -85.967398703, 31.286654897 ], [ -85.967238203, 31.2862655 ], [ -85.9670237, 31.285188593 ], [ -85.966596104, 31.284524396 ], [ -85.966222405, 31.284272596 ], [ -85.965421401, 31.283837795 ], [ -85.964433506, 31.283128098 ], [ -85.964326501, 31.282853194 ] ] } },
{ "type": "Feature", "properties": { "site_no": "02362240", "nhdplus_comid": "2188395", "navigation_mode": "UM", "requested_distance_km": 12.0, "start_source": "nwissite", "start_id": "USGS-02362240", "geometry_length_km": 0.56105960628918006 }, "geometry": { "type": "LineString", "coordinates": [ [ -85.971490405, 31.295588896 ], [ -85.971569203, 31.294374399 ], [ -85.971649207, 31.294236898 ], [ -85.971648201, 31.293320194 ], [ -85.971406907, 31.292151697 ], [ -85.971112803, 31.291579098 ], [ -85.970525101, 31.291006595 ], [ -85.970524907, 31.290823296 ] ] } },
{ "type": "Feature", "properties": { "site_no": "02362240", "nhdplus_comid": "2188357", "navigation_mode": "UM", "requested_distance_km": 12.0, "start_source": "nwissite", "start_id": "USGS-02362240", "geometry_length_km": 0.66762655284277317 }, "geometry": { "type": "LineString", "coordinates": [ [ -85.967145003, 31.300106496 ], [ -85.967517905, 31.299327098 ], [ -85.967944503, 31.298914395 ], [ -85.968317501, 31.298272498 ], [ -85.969597004, 31.296804897 ], [ -85.970290102, 31.296162896 ], [ -85.971196905, 31.295635 ], [ -85.971490405, 31.295588896 ] ] } },
{ "type": "Feature", "properties": { "site_no": "02362240", "nhdplus_comid": "2188341", "navigation_mode": "UM", "requested_distance_km": 12.0, "start_source": "nwissite", "start_id": "USGS-02362240", "geometry_length_km": 0.72140477033456707 }, "geometry": { "type": "LineString", "coordinates": [ [ -85.964081302, 31.3057459 ], [ -85.964587905, 31.305218399 ], [ -85.965334803, 31.304782599 ], [ -85.965814807, 31.304346897 ], [ -85.966187902, 31.303865395 ], [ -85.966506407, 31.302123494 ], [ -85.966772802, 31.301481694 ], [ -85.967145003, 31.300106496 ] ] } },
{ "type": "Feature", "properties": { "site_no": "02362240", "nhdplus_comid": "2188289", "navigation_mode": "UM", "requested_distance_km": 12.0, "start_source": "nwissite", "start_id": "USGS-02362240", "geometry_length_km": 1.0961499221420661 }, "geometry": { "type": "LineString", "coordinates": [ [ -85.962141901, 31.315279998 ], [ -85.9621142, 31.314363398 ], [ -85.962193705, 31.313790396 ], [ -85.962513402, 31.313034095 ], [ -85.962459803, 31.3128049 ], [ -85.962646306, 31.312415197 ], [ -85.962672107, 31.311498597 ], [ -85.962618403, 31.311040394 ], [ -85.962590404, 31.3096883 ], [ -85.963389702, 31.308312796 ], [ -85.964081302, 31.3057459 ] ] } },
{ "type": "Feature", "properties": { "site_no": "02362240", "nhdplus_comid": "2188227", "navigation_mode": "UM", "requested_distance_km": 12.0, "start_source": "nwissite", "start_id": "USGS-02362240", "geometry_length_km": 2.5934536816663165 }, "geometry": { "type": "LineString", "coordinates": [ [ -85.962349102, 31.337668099 ], [ -85.962402403, 31.337438896 ], [ -85.962962203, 31.336498998 ], [ -85.9642139, 31.3332671 ], [ -85.964266904, 31.332900397 ], [ -85.964852303, 31.330700196 ], [ -85.964850307, 31.3286836 ], [ -85.964796305, 31.328042097 ], [ -85.964367501, 31.326209098 ], [ -85.964233801, 31.32598 ], [ -85.964046307, 31.325246893 ], [ -85.963991806, 31.324100994 ], [ -85.964496806, 31.321832098 ], [ -85.964468904, 31.320480198 ], [ -85.964228004, 31.319724098 ], [ -85.964174502, 31.319655396 ], [ -85.963746004, 31.318166196 ], [ -85.963425301, 31.317730993 ], [ -85.963344805, 31.317295693 ], [ -85.962783106, 31.316058598 ], [ -85.962355502, 31.315417297 ], [ -85.962141901, 31.315279998 ] ] } },
{ "type": "Feature", "properties": { "site_no": "02362240", "nhdplus_comid": "2188087", "navigation_mode": "UM", "requested_distance_km": 12.0, "start_source": "nwissite", "start_id": "USGS-02362240", "geometry_length_km": 1.3146155724132862 }, "geometry": { "type": "LineString", "coordinates": [ [ -85.955976903, 31.347800694 ], [ -85.956110105, 31.347433895 ], [ -85.956482701, 31.345921293 ], [ -85.9570961, 31.345118895 ], [ -85.957362607, 31.344499998 ], [ -85.957656004, 31.344110295 ], [ -85.9583221, 31.342620395 ], [ -85.958508201, 31.341795295 ], [ -85.959174603, 31.340534598 ], [ -85.960028104, 31.3395257 ], [ -85.960481703, 31.339250498 ], [ -85.962029003, 31.337782897 ], [ -85.962349102, 31.337668099 ] ] } },
{ "type": "Feature", "properties": { "site_no": "02362240", "nhdplus_comid": "2188015", "navigation_mode": "UM", "requested_distance_km": 12.0, "start_source": "nwissite", "start_id": "USGS-02362240", "geometry_length_km": 2.9244475308929831 }, "geometry": { "type": "LineString", "coordinates": [ [ -85.951056406, 31.372024894 ], [ -85.952203602, 31.370603599 ], [ -85.9528969, 31.369113594 ], [ -85.953109905, 31.368288495 ], [ -85.953563005, 31.3672342 ], [ -85.954176903, 31.366706796 ], [ -85.954817005, 31.365766898 ], [ -85.955270104, 31.364666797 ], [ -85.955322303, 31.363360494 ], [ -85.955455706, 31.363062494 ], [ -85.955428302, 31.362260394 ], [ -85.954679802, 31.361298494 ], [ -85.954358704, 31.360565394 ], [ -85.954250902, 31.359373897 ], [ -85.954623304, 31.357632197 ], [ -85.954622701, 31.356830098 ], [ -85.954168007, 31.355959594 ], [ -85.9538204, 31.355318196 ], [ -85.953660101, 31.355157897 ], [ -85.953419104, 31.3544247 ], [ -85.953338102, 31.353416495 ], [ -85.953897104, 31.3512851 ], [ -85.954456501, 31.349657796 ], [ -85.954936504, 31.348832399 ], [ -85.955763303, 31.347823694 ], [ -85.955976903, 31.347800694 ] ] } }
]
}
