{
"type": "FeatureCollection",
"name": "USGS_03584600_DM_12km",
"crs": { "type": "name", "properties": { "name": "urn:ogc:def:crs:OGC:1.3:CRS84" } },
"features": [
{ "type": "Feature", "properties": { "site_no": "03584600", "nhdplus_comid": "19594712", "navigation_mode": "DM", "requested_distance_km": 12.0, "start_source": "nwissite", "start_id": "USGS-03584600", "geometry_length_km": 0.26606633267862256 }, "geometry": { "type": "LineString", "coordinates": [ [ -86.994761605, 35.013754758 ], [ -86.997250006, 35.014068395 ], [ -86.997667603, 35.014022097 ] ] } },
{ "type": "Feature", "properties": { "site_no": "03584600", "nhdplus_comid": "19594710", "navigation_mode": "DM", "requested_distance_km": 12.0, "start_source": "nwissite", "start_id": "USGS-03584600", "geometry_length_km": 0.21511571041856958 }, "geometry": { "type": "LineString", "coordinates": [ [ -86.997667603, 35.014022097 ], [ -86.9978626, 35.014113598 ], [ -87.000007607, 35.0142489 ] ] } },
{ "type": "Feature", "properties": { "site_no": "03584600", "nhdplus_comid": "19596640", "navigation_mode": "DM", "requested_distance_km": 12.0, "start_source": "nwissite", "start_id": "USGS-03584600", "geometry_length_km": 0.10347420006746876 }, "geometry": { "type": "LineString", "coordinates": [ [ -87.000007607, 35.0142489 ], [ -87.001121901, 35.014456093 ] ] } },
{ "type": "Feature", "properties": { "site_no": "03584600", "nhdplus_comid": "19596656", "navigation_mode": "DM", "requested_distance_km": 12.0, "start_source": "nwissite", "start_id": "USGS-03584600", "geometry_length_km": 0.75413665243987493 }, "geometry": { "type": "LineString", "coordinates": [ [ -87.001121901, 35.014456093 ], [ -87.003100105, 35.013473198 ], [ -87.004688807, 35.012260899 ], [ -87.005748302, 35.0111854 ], [ -87.006863907, 35.009720594 ] ] } },
{ "type": "Feature", "properties": { "site_no": "03584600", "nhdplus_comid": "19596904", "navigation_mode": "DM", "requested_distance_km": 12.0, "start_source": "nwissite", "start_id": "USGS-03584600", "geometry_length_km": 0.01796583740334725 }, "geometry": { "type": "LineString", "coordinates": [ [ -87.006863907, 35.009720594 ], [ -87.006815203, 35.0096673 ], [ -87.006864101, 35.0095817 ] ] } },
{ "type": "Feature", "properties": { "site_no": "03584600", "nhdplus_comid": "19596906", "navigation_mode": "DM", "requested_distance_km": 12.0, "start_source": "nwissite", "start_id": "USGS-03584600", "geometry_length_km": 1.3365201732701713 }, "geometry": { "type": "LineString", "coordinates": [ [ -87.006864101, 35.0095817 ], [ -87.007316001, 35.008791097 ], [ -87.007873602, 35.008295298 ], [ -87.0079206, 35.007894896 ], [ -87.010048606, 35.005364895 ], [ -87.010126807, 35.004697599 ], [ -87.0104881, 35.004455999 ], [ -87.010747001, 35.003667794 ], [ -87.0133541, 35.001309194 ], [ -87.015176207, 35.000090495 ] ] } },
{ "type": "Feature", "properties": { "site_no": "03584600", "nhdplus_comid": "19601082", "navigation_mode": "DM", "requested_distance_km": 12.0, "start_source": "nwissite", "start_id": "USGS-03584600", "geometry_length_km": 0.35754785116290266 }, "geometry": { "type": "LineString", "coordinates": [ [ -87.015176207, 35.000090495 ], [ -87.015188903, 35.000048794 ], [ -87.015320502, 34.999956898 ], [ -87.015839405, 34.999741696 ], [ -87.016679704, 34.999742493 ], [ -87.017295301, 34.999912895 ], [ -87.018025003, 34.9999604 ], [ -87.018763706, 35.000021294 ], [ -87.018914804, 35.000091895 ] ] } },
{ "type": "Feature", "properties": { "site_no": "03584600", "nhdplus_comid": "19596908", "navigation_mode": "DM", "requested_distance_km": 12.0, "start_source": "nwissite", "start_id": "USGS-03584600", "geometry_length_km": 0.91512897007563532 }, "geometry": { "type": "LineString", "coordinates": [ [ -87.018914804, 35.000091895 ], [ -87.021806203, 35.000206798 ], [ -87.023919605, 35.000638098 ], [ -87.026559301, 35.000840396 ], [ -87.027894706, 35.000807993 ], [ -87.0289158, 35.000616893 ] ] } },
{ "type": "Feature", "properties": { "site_no": "03584600", "nhdplus_comid": "19596912", "navigation_mode": "DM", "requested_distance_km": 12.0, "start_source": "nwissite", "start_id": "USGS-03584600", "geometry_length_km": 0.09155826542599628 }, "geometry": { "type": "LineString", "coordinates": [ [ -87.0289158, 35.000616893 ], [ -87.029695302, 35.000095397 ] ] } },
{ "type": "Feature", "properties": { "site_no": "03584600", "nhdplus_comid": "19598476", "navigation_mode": "DM", "requested_distance_km": 12.0, "start_source": "nwissite", "start_id": "USGS-03584600", "geometry_length_km": 0.58335558440031055 }, "geometry": { "type": "LineString", "coordinates": [ [ -87.029695302, 35.000095397 ], [ -87.029999405, 34.9998919 ], [ -87.030211203, 34.999504194 ], [ -87.030367404, 34.998169497 ], [ -87.029886104, 34.995169997 ], [ -87.030000202, 34.995119199 ] ] } },
{ "type": "Feature", "properties": { "site_no": "03584600", "nhdplus_comid": "19598480", "navigation_mode": "DM", "requested_distance_km": 12.0, "start_source": "nwissite", "start_id": "USGS-03584600", "geometry_length_km": 4.2915107902128895 }, "geometry": { "type": "LineString", "coordinates": [ [ -87.030000202, 34.995119199 ], [ -87.0290839, 34.993492499 ], [ -87.026946105, 34.991847396 ], [ -87.024353705, 34.991244696 ], [ -87.0218793, 34.991055094 ], [ -87.013638705, 34.988941595 ], [ -87.010520302, 34.988567598 ], [ -87.008289404, 34.987722993 ], [ -87.006796405, 34.986261599 ], [ -87.005876705, 34.984170899 ], [ -87.005223207, 34.979811199 ], [ -87.005512305, 34.975927994 ], [ -87.007113405, 34.973626897 ], [ -87.0103634, 34.9714524 ] ] } },
{ "type": "Feature", "properties": { "site_no": "03584600", "nhdplus_comid": "19598484", "navigation_mode": "DM", "requested_distance_km": 12.0, "start_source": "nwissite", "start_id": "USGS-03584600", "geometry_length_km": 0.46595244763258054 }, "geometry": { "type": "LineString", "coordinates": [ [ -87.0103634, 34.9714524 ], [ -87.013189904, 34.970053397 ], [ -87.0144068, 34.969608098 ], [ -87.014511801, 34.969883293 ], [ -87.0146138, 34.969804294 ] ] } },
{ "type": "Feature", "properties": { "site_no": "03584600", "nhdplus_comid": "19601088", "navigation_mode": "DM", "requested_distance_km": 12.0, "start_source": "nwissite", "start_id": "USGS-03584600", "geometry_length_km": 0.49487106250742824 }, "geometry": { "type": "LineString", "coordinates": [ [ -87.0146138, 34.969804294 ], [ -87.0154588, 34.969150193 ], [ -87.019231007, 34.967486896 ] ] } },
{ "type": "Feature", "properties": { "site_no": "03584600", "nhdplus_comid": "19598490", "navigation_mode": "DM", "requested_distance_km": 12.0, "start_source": "nwissite", "start_id": "USGS-03584600", "geometry_length_km": 1.3861552979660401 }, "geometry": { "type": "LineString", "coordinates": [ [ -87.019231007, 34.967486896 ], [ -87.021393903, 34.966777399 ], [ -87.025641404, 34.9660258 ], [ -87.027368501, 34.965484798 ], [ -87.028028205, 34.965535395 ], [ -87.028569706, 34.965172894 ], [ -87.028899506, 34.9651981 ], [ -87.030704603, 34.963989794 ], [ -87.032481901, 34.9623079 ] ] } },
{ "type": "Feature", "properties": { "site_no": "03584600", "nhdplus_comid": "19598494", "navigation_mode": "DM", "requested_distance_km": 12.0, "start_source": "nwissite", "start_id": "USGS-03584600", "geometry_length_km": 1.4946656491149202 }, "geometry": { "type": "LineString", "coordinates": [ [ -87.032481901, 34.9623079 ], [ -87.036353603, 34.958362296 ], [ -87.038635306, 34.954496898 ], [ -87.041902602, 34.951447599 ] ] } }
]
}
