{
"type": "FeatureCollection",
"name": "USGS_02427300_DM_12km",
"crs": { "type": "name", "properties": { "name": "urn:ogc:def:crs:OGC:1.3:CRS84" } },
"features": [
{ "type": "Feature", "properties": { "site_no": "02427300", "nhdplus_comid": "21458470", "navigation_mode": "DM", "requested_distance_km": 12.0, "start_source": "nwissite", "start_id": "USGS-02427300", "geometry_length_km": 0.82577630662743506 }, "geometry": { "type": "LineString", "coordinates": [ [ -87.103557023, 31.933615069 ], [ -87.103515707, 31.934036598 ], [ -87.103703804, 31.934357397 ], [ -87.103703603, 31.934792794 ], [ -87.103515603, 31.934930295 ], [ -87.103515506, 31.935319893 ], [ -87.103676602, 31.9355032 ], [ -87.103810906, 31.935755298 ], [ -87.104348205, 31.936534494 ], [ -87.104321301, 31.936809495 ], [ -87.103998706, 31.937153295 ], [ -87.104025505, 31.9377032 ], [ -87.103488006, 31.937794797 ], [ -87.103353605, 31.937978096 ], [ -87.103299804, 31.938253097 ], [ -87.103058003, 31.938413396 ], [ -87.102332503, 31.9383903 ], [ -87.101956107, 31.938802794 ], [ -87.101929106, 31.939375699 ] ] } },
{ "type": "Feature", "properties": { "site_no": "02427300", "nhdplus_comid": "21458374", "navigation_mode": "DM", "requested_distance_km": 12.0, "start_source": "nwissite", "start_id": "USGS-02427300", "geometry_length_km": 1.6695513247548164 }, "geometry": { "type": "LineString", "coordinates": [ [ -87.101929106, 31.939375699 ], [ -87.102385901, 31.939627796 ], [ -87.102735102, 31.939994596 ], [ -87.102708206, 31.940315396 ], [ -87.102385603, 31.940704897 ], [ -87.101847902, 31.941735998 ], [ -87.101632707, 31.942537993 ], [ -87.101659305, 31.943431698 ], [ -87.101820402, 31.944485895 ], [ -87.101793304, 31.945196293 ], [ -87.101605006, 31.945929497 ], [ -87.101631701, 31.946754493 ], [ -87.101819701, 31.947052397 ], [ -87.101819701, 31.947212793 ], [ -87.102061503, 31.947808698 ], [ -87.102088302, 31.948037796 ], [ -87.102330104, 31.9483587 ], [ -87.102840602, 31.948656693 ], [ -87.103646703, 31.949687995 ], [ -87.1038884, 31.950192198 ], [ -87.103968903, 31.950742096 ], [ -87.104775205, 31.951521397 ], [ -87.104775101, 31.951819293 ], [ -87.104640603, 31.952002697 ], [ -87.104506105, 31.952735893 ], [ -87.104667403, 31.952850498 ] ] } },
{ "type": "Feature", "properties": { "site_no": "02427300", "nhdplus_comid": "21458292", "navigation_mode": "DM", "requested_distance_km": 12.0, "start_source": "nwissite", "start_id": "USGS-02427300", "geometry_length_km": 0.39263929469248582 }, "geometry": { "type": "LineString", "coordinates": [ [ -87.104667403, 31.952850498 ], [ -87.104774803, 31.953056797 ], [ -87.105204701, 31.953331798 ], [ -87.105204701, 31.953698494 ], [ -87.104935803, 31.953996293 ], [ -87.1047206, 31.955164999 ], [ -87.104371004, 31.956035793 ] ] } },
{ "type": "Feature", "properties": { "site_no": "02427300", "nhdplus_comid": "21458266", "navigation_mode": "DM", "requested_distance_km": 12.0, "start_source": "nwissite", "start_id": "USGS-02427300", "geometry_length_km": 1.2973363624465184 }, "geometry": { "type": "LineString", "coordinates": [ [ -87.104371004, 31.956035793 ], [ -87.103671603, 31.958922997 ], [ -87.103563905, 31.959908299 ], [ -87.102891304, 31.962566398 ], [ -87.102407001, 31.964445494 ], [ -87.102164507, 31.966461994 ], [ -87.102003001, 31.967493095 ] ] } },
{ "type": "Feature", "properties": { "site_no": "02427300", "nhdplus_comid": "21458174", "navigation_mode": "DM", "requested_distance_km": 12.0, "start_source": "nwissite", "start_id": "USGS-02427300", "geometry_length_km": 0.033189976742334648 }, "geometry": { "type": "LineString", "coordinates": [ [ -87.102003001, 31.967493095 ], [ -87.102002904, 31.967790999 ] ] } },
{ "type": "Feature", "properties": { "site_no": "02427300", "nhdplus_comid": "21458172", "navigation_mode": "DM", "requested_distance_km": 12.0, "start_source": "nwissite", "start_id": "USGS-02427300", "geometry_length_km": 1.7193986180754188 }, "geometry": { "type": "LineString", "coordinates": [ [ -87.102002904, 31.967790999 ], [ -87.102191001, 31.968386799 ], [ -87.102352202, 31.968753494 ], [ -87.102325201, 31.9691431 ], [ -87.102002606, 31.969417997 ], [ -87.100765802, 31.970105298 ], [ -87.100765802, 31.970426098 ], [ -87.100953907, 31.970678195 ], [ -87.101894602, 31.971342899 ], [ -87.101894505, 31.9716179 ], [ -87.101168603, 31.972213499 ], [ -87.101168603, 31.972374 ], [ -87.101571806, 31.972717799 ], [ -87.101356603, 31.973153196 ], [ -87.1005769, 31.973313399 ], [ -87.100603707, 31.973863393 ], [ -87.100845501, 31.974252999 ], [ -87.100845501, 31.974528 ], [ -87.100415304, 31.974734098 ], [ -87.099420503, 31.974963196 ], [ -87.099339806, 31.975054793 ], [ -87.099339701, 31.975260995 ], [ -87.100199901, 31.975902796 ], [ -87.100199804, 31.9762007 ], [ -87.100038506, 31.976383999 ], [ -87.100092202, 31.976567395 ], [ -87.100710407, 31.977025799 ], [ -87.100710303, 31.977392495 ], [ -87.100522004, 31.977690294 ], [ -87.100387402, 31.978354797 ], [ -87.100414202, 31.978813097 ], [ -87.100871101, 31.979431897 ] ] } },
{ "type": "Feature", "properties": { "site_no": "02427300", "nhdplus_comid": "21458072", "navigation_mode": "DM", "requested_distance_km": 12.0, "start_source": "nwissite", "start_id": "USGS-02427300", "geometry_length_km": 3.1672704100069122 }, "geometry": { "type": "LineString", "coordinates": [ [ -87.100871101, 31.979431897 ], [ -87.100494407, 31.980440095 ], [ -87.100467302, 31.981654599 ], [ -87.1003059, 31.981998295 ], [ -87.099794902, 31.982410796 ], [ -87.099848405, 31.983625196 ], [ -87.100278504, 31.983877398 ], [ -87.100520402, 31.984152496 ], [ -87.100520201, 31.984725393 ], [ -87.100251205, 31.985412799 ], [ -87.100116603, 31.986054294 ], [ -87.099901505, 31.986237593 ], [ -87.099632606, 31.986237593 ], [ -87.099229306, 31.9859626 ], [ -87.099175602, 31.985824995 ], [ -87.098960601, 31.985687494 ], [ -87.098557301, 31.985756099 ], [ -87.098180905, 31.986168496 ], [ -87.098100007, 31.986764297 ], [ -87.098691404, 31.987062395 ], [ -87.098772004, 31.987222798 ], [ -87.098745003, 31.987635195 ], [ -87.098529801, 31.988185197 ], [ -87.098368205, 31.989055894 ], [ -87.098448701, 31.9897663 ], [ -87.098556101, 31.989949599 ], [ -87.098556101, 31.990247495 ], [ -87.098018207, 31.990591198 ], [ -87.098018005, 31.9911412 ], [ -87.097238302, 31.991347194 ], [ -87.097238101, 31.991599299 ], [ -87.0975876, 31.991920196 ], [ -87.098878101, 31.992562093 ], [ -87.099200703, 31.992630899 ], [ -87.099980406, 31.993112296 ], [ -87.099926606, 31.993364297 ], [ -87.099550001, 31.993593395 ], [ -87.099550001, 31.993868396 ], [ -87.099791802, 31.994349696 ], [ -87.0995498, 31.994532898 ], [ -87.098850705, 31.994647399 ], [ -87.098581702, 31.994784899 ], [ -87.0984741, 31.994945295 ], [ -87.0983124, 31.996205598 ], [ -87.099683605, 31.9969621 ], [ -87.100490101, 31.997832999 ], [ -87.100678205, 31.998314299 ], [ -87.101162203, 31.9987268 ], [ -87.101269603, 31.999162197 ], [ -87.101699807, 31.999528997 ], [ -87.102614, 31.999895796 ], [ -87.102882802, 32.000155799 ] ] } },
{ "type": "Feature", "properties": { "site_no": "02427300", "nhdplus_comid": "21459218", "navigation_mode": "DM", "requested_distance_km": 12.0, "start_source": "nwissite", "start_id": "USGS-02427300", "geometry_length_km": 0.070926372344805047 }, "geometry": { "type": "LineString", "coordinates": [ [ -87.102882802, 32.000155799 ], [ -87.102128603, 32.000156 ] ] } },
{ "type": "Feature", "properties": { "site_no": "02427300", "nhdplus_comid": "21456274", "navigation_mode": "DM", "requested_distance_km": 12.0, "start_source": "nwissite", "start_id": "USGS-02427300", "geometry_length_km": 0.48269897823934593 }, "geometry": { "type": "LineString", "coordinates": [ [ -87.102128603, 32.000156 ], [ -87.102209203, 32.000544995 ], [ -87.102747001, 32.000888899 ], [ -87.102746904, 32.0011639 ], [ -87.102962002, 32.001347199 ], [ -87.103634305, 32.001461893 ], [ -87.103741802, 32.001599498 ], [ -87.103768706, 32.001851596 ], [ -87.103956804, 32.002103694 ], [ -87.104548402, 32.002309993 ], [ -87.104521401, 32.0026308 ], [ -87.104091004, 32.003203593 ] ] } },
{ "type": "Feature", "properties": { "site_no": "02427300", "nhdplus_comid": "21456196", "navigation_mode": "DM", "requested_distance_km": 12.0, "start_source": "nwissite", "start_id": "USGS-02427300", "geometry_length_km": 0.4331962633055354 }, "geometry": { "type": "LineString", "coordinates": [ [ -87.104091004, 32.003203593 ], [ -87.1048977, 32.003982894 ], [ -87.105704404, 32.004441299 ], [ -87.106672503, 32.004808098 ], [ -87.108016901, 32.004876994 ] ] } },
{ "type": "Feature", "properties": { "site_no": "02427300", "nhdplus_comid": "21456170", "navigation_mode": "DM", "requested_distance_km": 12.0, "start_source": "nwissite", "start_id": "USGS-02427300", "geometry_length_km": 1.6109045257943022 }, "geometry": { "type": "LineString", "coordinates": [ [ -87.108016901, 32.004876994 ], [ -87.108178206, 32.005014494 ], [ -87.108447105, 32.005862497 ], [ -87.108716004, 32.006114595 ], [ -87.109253801, 32.006412499 ], [ -87.109253801, 32.006939597 ], [ -87.108984806, 32.007008299 ], [ -87.107505605, 32.007030994 ], [ -87.107478701, 32.007512197 ], [ -87.108258404, 32.008291498 ], [ -87.108285204, 32.009001799 ], [ -87.107989304, 32.009551793 ], [ -87.107989304, 32.009712197 ], [ -87.1083389, 32.009987198 ], [ -87.108903505, 32.010147698 ], [ -87.109118603, 32.010835096 ], [ -87.109387502, 32.0110185 ], [ -87.110006101, 32.011110395 ], [ -87.110274903, 32.011408299 ], [ -87.110248007, 32.011912495 ], [ -87.110140406, 32.012118697 ], [ -87.109306604, 32.012599796 ], [ -87.109226003, 32.0127602 ], [ -87.109602503, 32.013081096 ], [ -87.110167205, 32.013264395 ], [ -87.110839605, 32.013172798 ], [ -87.111673303, 32.012874998 ], [ -87.111861601, 32.012874998 ], [ -87.112103507, 32.013035499 ], [ -87.112211101, 32.013241693 ] ] } }
]
}
