{
"type": "FeatureCollection",
"name": "USGS_03577225_UM_12km",
"crs": { "type": "name", "properties": { "name": "urn:ogc:def:crs:OGC:1.3:CRS84" } },
"features": [
{ "type": "Feature", "properties": { "site_no": "03577225", "nhdplus_comid": "19619792", "navigation_mode": "UM", "requested_distance_km": 12.0, "start_source": "nwissite", "start_id": "USGS-03577225", "geometry_length_km": 0.73152103903494459 }, "geometry": { "type": "LineString", "coordinates": [ [ -86.9472306, 34.769927695 ], [ -86.947145902, 34.768324398 ], [ -86.9470625, 34.768049598 ], [ -86.9470338, 34.767064594 ], [ -86.946950406, 34.766927198 ], [ -86.946949504, 34.765873596 ], [ -86.946866103, 34.765759096 ], [ -86.946725406, 34.763537399 ], [ -86.946679222, 34.763442291 ] ] } },
{ "type": "Feature", "properties": { "site_no": "03577225", "nhdplus_comid": "19619692", "navigation_mode": "UM", "requested_distance_km": 12.0, "start_source": "nwissite", "start_id": "USGS-03577225", "geometry_length_km": 0.78430223040833424 }, "geometry": { "type": "LineString", "coordinates": [ [ -86.947125606, 34.776936799 ], [ -86.947067901, 34.774302699 ], [ -86.9472306, 34.769927695 ] ] } },
{ "type": "Feature", "properties": { "site_no": "03577225", "nhdplus_comid": "19619648", "navigation_mode": "UM", "requested_distance_km": 12.0, "start_source": "nwissite", "start_id": "USGS-03577225", "geometry_length_km": 1.8563002039011167 }, "geometry": { "type": "LineString", "coordinates": [ [ -86.948694602, 34.793106899 ], [ -86.948361002, 34.792557299 ], [ -86.948054604, 34.7914581 ], [ -86.947915502, 34.791206196 ], [ -86.946912505, 34.787244298 ], [ -86.946967706, 34.786854796 ], [ -86.948131606, 34.784471996 ], [ -86.947125606, 34.776936799 ] ] } },
{ "type": "Feature", "properties": { "site_no": "03577225", "nhdplus_comid": "19619532", "navigation_mode": "UM", "requested_distance_km": 12.0, "start_source": "nwissite", "start_id": "USGS-03577225", "geometry_length_km": 1.9415735675352865 }, "geometry": { "type": "LineString", "coordinates": [ [ -86.941015601, 34.8082975 ], [ -86.941458605, 34.8068313 ], [ -86.9419301, 34.806006499 ], [ -86.947702006, 34.8011702 ], [ -86.948117904, 34.800345294 ], [ -86.948754907, 34.798558399 ], [ -86.948778406, 34.793771096 ], [ -86.948694602, 34.793106899 ] ] } },
{ "type": "Feature", "properties": { "site_no": "03577225", "nhdplus_comid": "19619436", "navigation_mode": "UM", "requested_distance_km": 12.0, "start_source": "nwissite", "start_id": "USGS-03577225", "geometry_length_km": 0.33579268554185704 }, "geometry": { "type": "LineString", "coordinates": [ [ -86.941712104, 34.811229095 ], [ -86.941489302, 34.810427494 ], [ -86.941071801, 34.809282497 ], [ -86.941015601, 34.8082975 ] ] } },
{ "type": "Feature", "properties": { "site_no": "03577225", "nhdplus_comid": "19619418", "navigation_mode": "UM", "requested_distance_km": 12.0, "start_source": "nwissite", "start_id": "USGS-03577225", "geometry_length_km": 3.0022708405462475 }, "geometry": { "type": "LineString", "coordinates": [ [ -86.953148507, 34.834814399 ], [ -86.9530636, 34.833096594 ], [ -86.952924304, 34.832684398 ], [ -86.952813104, 34.832592897 ], [ -86.952424206, 34.832524396 ], [ -86.951896004, 34.832272694 ], [ -86.951340005, 34.831723399 ], [ -86.949364901, 34.828609496 ], [ -86.948113404, 34.8268466 ], [ -86.947946303, 34.826457299 ], [ -86.947859302, 34.822242796 ], [ -86.947552003, 34.820227295 ], [ -86.947521806, 34.817455895 ], [ -86.947437905, 34.8167459 ], [ -86.946965002, 34.81583 ], [ -86.946103305, 34.815097496 ], [ -86.942435205, 34.812373899 ], [ -86.941962205, 34.811389297 ], [ -86.941712104, 34.811229095 ] ] } },
{ "type": "Feature", "properties": { "site_no": "03577225", "nhdplus_comid": "19619284", "navigation_mode": "UM", "requested_distance_km": 12.0, "start_source": "nwissite", "start_id": "USGS-03577225", "geometry_length_km": 5.2871933307424426 }, "geometry": { "type": "LineString", "coordinates": [ [ -86.968608007, 34.871909596 ], [ -86.969246604, 34.871359393 ], [ -86.969466902, 34.869503893 ], [ -86.969383001, 34.8689771 ], [ -86.969271705, 34.868816897 ], [ -86.969298303, 34.867786095 ], [ -86.969381303, 34.867534094 ], [ -86.970131502, 34.867396198 ], [ -86.970298104, 34.867235698 ], [ -86.970575005, 34.866364993 ], [ -86.970601805, 34.8655174 ], [ -86.970517904, 34.865036495 ], [ -86.970572703, 34.864441 ], [ -86.971016601, 34.863753498 ], [ -86.971266404, 34.863547198 ], [ -86.971405007, 34.863203399 ], [ -86.971458606, 34.861485593 ], [ -86.971291602, 34.861325294 ], [ -86.970735706, 34.861142598 ], [ -86.970624402, 34.860982299 ], [ -86.970624104, 34.860799097 ], [ -86.970957302, 34.860592596 ], [ -86.971068203, 34.860363498 ], [ -86.970901303, 34.860111699 ], [ -86.970206305, 34.859883197 ], [ -86.9699836, 34.859539799 ], [ -86.969982505, 34.858646497 ], [ -86.970093004, 34.858050898 ], [ -86.969898306, 34.8578678 ], [ -86.969370104, 34.857685 ], [ -86.969035603, 34.856700294 ], [ -86.968952201, 34.856631696 ], [ -86.968645401, 34.855738595 ], [ -86.968923002, 34.855394796 ], [ -86.968894906, 34.855188698 ], [ -86.968283102, 34.8547768 ], [ -86.967310101, 34.854365394 ], [ -86.966643102, 34.854182594 ], [ -86.966309302, 34.853816397 ], [ -86.965753205, 34.853473194 ], [ -86.965502806, 34.8531527 ], [ -86.965474501, 34.852648795 ], [ -86.965223506, 34.851870194 ], [ -86.964778401, 34.851343796 ], [ -86.963722207, 34.851115495 ], [ -86.963499606, 34.850886598 ], [ -86.963304505, 34.850314096 ], [ -86.962887406, 34.850016698 ], [ -86.9621372, 34.8499256 ], [ -86.961720005, 34.8495823 ], [ -86.961414002, 34.849101499 ], [ -86.961302504, 34.848758094 ], [ -86.960996404, 34.848322995 ], [ -86.960412301, 34.847773798 ], [ -86.959689006, 34.846789293 ], [ -86.9593831, 34.846606299 ], [ -86.958660804, 34.846606798 ], [ -86.958549604, 34.846515298 ], [ -86.958577104, 34.846194595 ], [ -86.958660305, 34.846125796 ], [ -86.958632, 34.845667697 ], [ -86.958242804, 34.845324397 ], [ -86.956547104, 34.844386496 ], [ -86.955880001, 34.8440433 ], [ -86.955629706, 34.843837298 ], [ -86.955545701, 34.8431044 ], [ -86.9552119, 34.842783995 ], [ -86.955183402, 34.842028096 ], [ -86.954988502, 34.841615997 ], [ -86.954849005, 34.840974793 ], [ -86.954431705, 34.8403337 ], [ -86.954403505, 34.839829795 ], [ -86.954652801, 34.839234099 ], [ -86.9546801, 34.838638596 ], [ -86.954207405, 34.838203698 ], [ -86.954206802, 34.837608099 ], [ -86.954678401, 34.836897798 ], [ -86.955204904, 34.835523196 ], [ -86.955121204, 34.835133798 ], [ -86.954898804, 34.834950693 ], [ -86.954621002, 34.834927998 ], [ -86.953954406, 34.835088797 ], [ -86.953148507, 34.834814399 ] ] } }
]
}
