{
"type": "FeatureCollection",
"name": "USGS_02375500_UM_12km",
"crs": { "type": "name", "properties": { "name": "urn:ogc:def:crs:OGC:1.3:CRS84" } },
"features": [
{ "type": "Feature", "properties": { "site_no": "02375500", "nhdplus_comid": "448444", "navigation_mode": "UM", "requested_distance_km": 12.0, "start_source": "nwissite", "start_id": "USGS-02375500", "geometry_length_km": 0.30927645621564687 }, "geometry": { "type": "LineString", "coordinates": [ [ -87.232705303, 30.967739195 ], [ -87.232766606, 30.9676641 ], [ -87.232838906, 30.967575595 ], [ -87.232911102, 30.967487194 ], [ -87.232983306, 30.9673988 ], [ -87.233055606, 30.967310399 ], [ -87.233127803, 30.967221998 ], [ -87.233200103, 30.967133597 ], [ -87.233272307, 30.967045195 ], [ -87.233344503, 30.966956794 ], [ -87.233416803, 30.966868296 ], [ -87.233489007, 30.966779895 ], [ -87.233561203, 30.966691494 ], [ -87.233633503, 30.966603093 ], [ -87.233705707, 30.966514699 ], [ -87.233777903, 30.966426298 ], [ -87.233850203, 30.966337897 ], [ -87.233922407, 30.966249496 ], [ -87.233994603, 30.966160998 ], [ -87.234066904, 30.966072597 ], [ -87.234139107, 30.965984195 ], [ -87.234211303, 30.965895794 ], [ -87.234283604, 30.965807393 ], [ -87.2343558, 30.965719 ], [ -87.234428003, 30.965630598 ], [ -87.234500304, 30.965542197 ], [ -87.234566952, 30.9654605 ] ] } },
{ "type": "Feature", "properties": { "site_no": "02375500", "nhdplus_comid": "448434", "navigation_mode": "UM", "requested_distance_km": 12.0, "start_source": "nwissite", "start_id": "USGS-02375500", "geometry_length_km": 0.016835573876500209 }, "geometry": { "type": "LineString", "coordinates": [ [ -87.2326902, 30.967887595 ], [ -87.232694402, 30.967752494 ], [ -87.232705303, 30.967739195 ] ] } },
{ "type": "Feature", "properties": { "site_no": "02375500", "nhdplus_comid": "448658", "navigation_mode": "UM", "requested_distance_km": 12.0, "start_source": "nwissite", "start_id": "USGS-02375500", "geometry_length_km": 0.16047580236153763 }, "geometry": { "type": "LineString", "coordinates": [ [ -87.231148101, 30.968301497 ], [ -87.231946006, 30.968300797 ], [ -87.2326902, 30.967887595 ] ] } },
{ "type": "Feature", "properties": { "site_no": "02375500", "nhdplus_comid": "448274", "navigation_mode": "UM", "requested_distance_km": 12.0, "start_source": "nwissite", "start_id": "USGS-02375500", "geometry_length_km": 0.3226265324818835 }, "geometry": { "type": "LineString", "coordinates": [ [ -87.2312252, 30.965986595 ], [ -87.230454706, 30.966651797 ], [ -87.230242305, 30.966995798 ], [ -87.230322503, 30.967385396 ], [ -87.230589002, 30.967866495 ], [ -87.231148101, 30.968301497 ] ] } },
{ "type": "Feature", "properties": { "site_no": "02375500", "nhdplus_comid": "448436", "navigation_mode": "UM", "requested_distance_km": 12.0, "start_source": "nwissite", "start_id": "USGS-02375500", "geometry_length_km": 0.038884445800004393 }, "geometry": { "type": "LineString", "coordinates": [ [ -87.2312617, 30.965643793 ], [ -87.231249407, 30.9656775 ], [ -87.231211707, 30.9657804 ], [ -87.2312252, 30.965986595 ] ] } },
{ "type": "Feature", "properties": { "site_no": "02375500", "nhdplus_comid": "448448", "navigation_mode": "UM", "requested_distance_km": 12.0, "start_source": "nwissite", "start_id": "USGS-02375500", "geometry_length_km": 1.2000233303395063 }, "geometry": { "type": "LineString", "coordinates": [ [ -87.222488001, 30.962974094 ], [ -87.222571902, 30.962893598 ], [ -87.222655803, 30.962813094 ], [ -87.222739801, 30.962732695 ], [ -87.222823702, 30.962652199 ], [ -87.222907707, 30.962571695 ], [ -87.222991601, 30.962491296 ], [ -87.2230682, 30.962464295 ], [ -87.223184705, 30.962423198 ], [ -87.223301202, 30.962382197 ], [ -87.223417804, 30.9623411 ], [ -87.223534301, 30.962300099 ], [ -87.223650806, 30.962259099 ], [ -87.223767303, 30.962217994 ], [ -87.2238838, 30.962176993 ], [ -87.224000305, 30.962135896 ], [ -87.224116802, 30.962094896 ], [ -87.224233307, 30.962053798 ], [ -87.224349804, 30.962012798 ], [ -87.224466302, 30.9619717 ], [ -87.224582806, 30.9619307 ], [ -87.224699304, 30.961889699 ], [ -87.224815801, 30.961848594 ], [ -87.224932306, 30.961807594 ], [ -87.225048803, 30.961766496 ], [ -87.2251653, 30.961725496 ], [ -87.225281805, 30.961684398 ], [ -87.225398406, 30.961643398 ], [ -87.225514904, 30.961602293 ], [ -87.225631401, 30.9615613 ], [ -87.225747906, 30.961520195 ], [ -87.225864403, 30.961479194 ], [ -87.2259809, 30.961438097 ], [ -87.226097405, 30.961397097 ], [ -87.226213902, 30.961356096 ], [ -87.226276606, 30.961360998 ], [ -87.226402007, 30.961370997 ], [ -87.226527505, 30.961380899 ], [ -87.226652905, 30.961390898 ], [ -87.226778306, 30.961400799 ], [ -87.226903804, 30.961410798 ], [ -87.227029204, 30.9614207 ], [ -87.227154605, 30.961430699 ], [ -87.227280103, 30.961440593 ], [ -87.227405503, 30.961450599 ], [ -87.227531001, 30.961460494 ], [ -87.227656402, 30.9614705 ], [ -87.227781802, 30.961480394 ], [ -87.2279073, 30.9614904 ], [ -87.228032701, 30.961500295 ], [ -87.228158101, 30.961510196 ], [ -87.228283606, 30.961520195 ], [ -87.228409, 30.961530097 ], [ -87.228424601, 30.961542197 ], [ -87.228518002, 30.961614594 ], [ -87.228611305, 30.961687095 ], [ -87.228704706, 30.9617595 ], [ -87.228798106, 30.961831897 ], [ -87.228891507, 30.961904399 ], [ -87.2289849, 30.961976796 ], [ -87.2290783, 30.962049194 ], [ -87.229171604, 30.962121695 ], [ -87.229265004, 30.9621941 ], [ -87.229358405, 30.962266497 ], [ -87.229451805, 30.962338895 ], [ -87.229545206, 30.962411396 ], [ -87.229638606, 30.962483793 ], [ -87.229731902, 30.962556198 ], [ -87.229825303, 30.9626287 ], [ -87.229918703, 30.962701097 ], [ -87.230012104, 30.962773494 ], [ -87.230105504, 30.962845899 ], [ -87.230198905, 30.962918393 ], [ -87.230292305, 30.962990798 ], [ -87.230385602, 30.963063195 ], [ -87.230479002, 30.963135697 ], [ -87.230572402, 30.963208094 ], [ -87.230665803, 30.963280499 ], [ -87.230759203, 30.963352896 ], [ -87.230852604, 30.963425398 ], [ -87.230946004, 30.963497795 ], [ -87.231039405, 30.9635702 ], [ -87.231132701, 30.963642694 ], [ -87.231152602, 30.963686399 ], [ -87.231198303, 30.9637869 ], [ -87.231244102, 30.963887498 ], [ -87.231289804, 30.963988096 ], [ -87.231335506, 30.964088596 ], [ -87.2313812, 30.964189194 ], [ -87.231426902, 30.964289695 ], [ -87.231472604, 30.9643903 ], [ -87.231518403, 30.964490794 ], [ -87.231564105, 30.964591399 ], [ -87.231609806, 30.964691997 ], [ -87.231588304, 30.9647507 ], [ -87.231550701, 30.9648536 ], [ -87.231513001, 30.964956596 ], [ -87.231475301, 30.965059593 ], [ -87.231437705, 30.965162598 ], [ -87.231400006, 30.965265498 ], [ -87.231362402, 30.965368494 ], [ -87.231324703, 30.965471499 ], [ -87.231287003, 30.965574495 ], [ -87.2312617, 30.965643793 ] ] } },
{ "type": "Feature", "properties": { "site_no": "02375500", "nhdplus_comid": "448686", "navigation_mode": "UM", "requested_distance_km": 12.0, "start_source": "nwissite", "start_id": "USGS-02375500", "geometry_length_km": 0.30182123672495603 }, "geometry": { "type": "LineString", "coordinates": [ [ -87.219622903, 30.963614799 ], [ -87.219691701, 30.963586494 ], [ -87.219805203, 30.963539697 ], [ -87.219918802, 30.963492997 ], [ -87.220032305, 30.9634462 ], [ -87.220145807, 30.9633995 ], [ -87.220259406, 30.963352695 ], [ -87.2203729, 30.963305995 ], [ -87.220486507, 30.963259198 ], [ -87.220600002, 30.963212498 ], [ -87.220713504, 30.963165693 ], [ -87.220827103, 30.963119 ], [ -87.220940605, 30.963072196 ], [ -87.221054204, 30.963025495 ], [ -87.221167706, 30.962978698 ], [ -87.221285306, 30.963000499 ], [ -87.221408501, 30.963023193 ], [ -87.2215316, 30.963045999 ], [ -87.221654803, 30.963068694 ], [ -87.221777901, 30.9630915 ], [ -87.221901007, 30.963114299 ], [ -87.222024202, 30.963136993 ], [ -87.222147301, 30.9631598 ], [ -87.222270504, 30.963182494 ], [ -87.222320102, 30.963134997 ], [ -87.222404003, 30.963054493 ], [ -87.222488001, 30.962974094 ] ] } },
{ "type": "Feature", "properties": { "site_no": "02375500", "nhdplus_comid": "448682", "navigation_mode": "UM", "requested_distance_km": 12.0, "start_source": "nwissite", "start_id": "USGS-02375500", "geometry_length_km": 0.037929682054974406 }, "geometry": { "type": "LineString", "coordinates": [ [ -87.219226904, 30.963650495 ], [ -87.219622903, 30.963614799 ] ] } },
{ "type": "Feature", "properties": { "site_no": "02375500", "nhdplus_comid": "448680", "navigation_mode": "UM", "requested_distance_km": 12.0, "start_source": "nwissite", "start_id": "USGS-02375500", "geometry_length_km": 0.033456711913681457 }, "geometry": { "type": "LineString", "coordinates": [ [ -87.218877606, 30.963681996 ], [ -87.219226904, 30.963650495 ] ] } },
{ "type": "Feature", "properties": { "site_no": "02375500", "nhdplus_comid": "448440", "navigation_mode": "UM", "requested_distance_km": 12.0, "start_source": "nwissite", "start_id": "USGS-02375500", "geometry_length_km": 1.2184532082627808 }, "geometry": { "type": "LineString", "coordinates": [ [ -87.212443307, 30.9672172 ], [ -87.212476, 30.967182495 ], [ -87.2125552, 30.967098698 ], [ -87.212634504, 30.967014797 ], [ -87.212713704, 30.966930896 ], [ -87.212793, 30.966846995 ], [ -87.212872304, 30.966763094 ], [ -87.212951601, 30.966679297 ], [ -87.2130308, 30.966595396 ], [ -87.213110104, 30.966511495 ], [ -87.213106804, 30.966440894 ], [ -87.2131017, 30.966333099 ], [ -87.213096701, 30.966225199 ], [ -87.213091604, 30.966117397 ], [ -87.213086605, 30.966009595 ], [ -87.213081501, 30.965901799 ], [ -87.213076502, 30.9657939 ], [ -87.213071406, 30.965686098 ], [ -87.213066302, 30.965578295 ], [ -87.213061303, 30.965470396 ], [ -87.213056304, 30.965362594 ], [ -87.2130512, 30.965254799 ], [ -87.213046201, 30.965146996 ], [ -87.213041104, 30.965039097 ], [ -87.213036105, 30.964931294 ], [ -87.213031001, 30.964823499 ], [ -87.213026002, 30.964715697 ], [ -87.213020906, 30.964607798 ], [ -87.212999806, 30.9645679 ], [ -87.212947607, 30.964469694 ], [ -87.212895505, 30.964371495 ], [ -87.212843403, 30.964273199 ], [ -87.212791204, 30.964174993 ], [ -87.212739103, 30.964076795 ], [ -87.212687001, 30.963978499 ], [ -87.212634802, 30.963880293 ], [ -87.2125827, 30.963781998 ], [ -87.212530605, 30.963683799 ], [ -87.212536402, 30.963630095 ], [ -87.212548003, 30.963522598 ], [ -87.212559603, 30.963415198 ], [ -87.212571301, 30.963307694 ], [ -87.212582901, 30.963200293 ], [ -87.212594502, 30.963092797 ], [ -87.212606207, 30.962985396 ], [ -87.212617807, 30.962877899 ], [ -87.212629505, 30.962770395 ], [ -87.212641105, 30.962662995 ], [ -87.212652706, 30.962555498 ], [ -87.212723203, 30.962488897 ], [ -87.2128077, 30.9624089 ], [ -87.212892301, 30.962328896 ], [ -87.212976903, 30.962248899 ], [ -87.2130614, 30.962168895 ], [ -87.213146001, 30.962088995 ], [ -87.213193201, 30.962089799 ], [ -87.213319205, 30.962092094 ], [ -87.213445105, 30.962094396 ], [ -87.213571005, 30.962096699 ], [ -87.213697001, 30.962098897 ], [ -87.213822901, 30.962101199 ], [ -87.213948905, 30.962103494 ], [ -87.214074805, 30.962105796 ], [ -87.214200802, 30.962108098 ], [ -87.214326702, 30.9621104 ], [ -87.214452706, 30.962112598 ], [ -87.214578606, 30.962114893 ], [ -87.214704603, 30.962117195 ], [ -87.214830503, 30.962119497 ], [ -87.214956403, 30.9621218 ], [ -87.215082407, 30.962123998 ], [ -87.215208307, 30.9621263 ], [ -87.215210706, 30.962127693 ], [ -87.215314701, 30.962188594 ], [ -87.215418801, 30.962249495 ], [ -87.215522803, 30.962310396 ], [ -87.215626806, 30.962371297 ], [ -87.215730801, 30.962432198 ], [ -87.215834804, 30.962493099 ], [ -87.215938807, 30.962553993 ], [ -87.216042802, 30.962614894 ], [ -87.216146804, 30.962675795 ], [ -87.216250807, 30.962736599 ], [ -87.216354802, 30.9627975 ], [ -87.216458805, 30.962858394 ], [ -87.2165628, 30.962919295 ], [ -87.216666803, 30.962980196 ], [ -87.216770701, 30.963041097 ], [ -87.216874801, 30.963101998 ], [ -87.216978803, 30.963162899 ], [ -87.217082806, 30.9632238 ], [ -87.217186801, 30.963284694 ], [ -87.217290804, 30.963345498 ], [ -87.217394903, 30.963406399 ], [ -87.217498906, 30.9634673 ], [ -87.217602901, 30.963528194 ], [ -87.217706904, 30.963589095 ], [ -87.217748702, 30.963592395 ], [ -87.217874102, 30.963602394 ], [ -87.217999704, 30.963612296 ], [ -87.218125001, 30.963622294 ], [ -87.218250401, 30.963632293 ], [ -87.218375906, 30.963642195 ], [ -87.218501307, 30.963652194 ], [ -87.218626805, 30.963662095 ], [ -87.218752205, 30.963672094 ], [ -87.218877606, 30.963681996 ] ] } },
{ "type": "Feature", "properties": { "site_no": "02375500", "nhdplus_comid": "448428", "navigation_mode": "UM", "requested_distance_km": 12.0, "start_source": "nwissite", "start_id": "USGS-02375500", "geometry_length_km": 1.8120150115437292 }, "geometry": { "type": "LineString", "coordinates": [ [ -87.197478101, 30.976311795 ], [ -87.198106006, 30.975560397 ], [ -87.198813803, 30.974478699 ], [ -87.202465504, 30.9721139 ], [ -87.203186803, 30.970906898 ], [ -87.204306401, 30.970110796 ], [ -87.206157707, 30.969372898 ], [ -87.209179804, 30.968727998 ], [ -87.211337402, 30.967887998 ], [ -87.212443307, 30.9672172 ] ] } },
{ "type": "Feature", "properties": { "site_no": "02375500", "nhdplus_comid": "450512", "navigation_mode": "UM", "requested_distance_km": 12.0, "start_source": "nwissite", "start_id": "USGS-02375500", "geometry_length_km": 0.83161413838789966 }, "geometry": { "type": "LineString", "coordinates": [ [ -87.189387403, 30.976320498 ], [ -87.190719903, 30.975604698 ], [ -87.192769006, 30.975767799 ], [ -87.194617301, 30.976420693 ], [ -87.197168402, 30.976682395 ], [ -87.197478101, 30.976311795 ] ] } },
{ "type": "Feature", "properties": { "site_no": "02375500", "nhdplus_comid": "448424", "navigation_mode": "UM", "requested_distance_km": 12.0, "start_source": "nwissite", "start_id": "USGS-02375500", "geometry_length_km": 0.87778477432698787 }, "geometry": { "type": "LineString", "coordinates": [ [ -87.185045801, 30.982991993 ], [ -87.186298504, 30.982333198 ], [ -87.187486507, 30.980910599 ], [ -87.188759401, 30.977345198 ], [ -87.189387403, 30.976320498 ] ] } },
{ "type": "Feature", "properties": { "site_no": "02375500", "nhdplus_comid": "2415540", "navigation_mode": "UM", "requested_distance_km": 12.0, "start_source": "nwissite", "start_id": "USGS-02375500", "geometry_length_km": 0.22272608688562504 }, "geometry": { "type": "LineString", "coordinates": [ [ -87.183301806, 30.984322898 ], [ -87.184072301, 30.983799495 ], [ -87.185045801, 30.982991993 ] ] } },
{ "type": "Feature", "properties": { "site_no": "02375500", "nhdplus_comid": "2415546", "navigation_mode": "UM", "requested_distance_km": 12.0, "start_source": "nwissite", "start_id": "USGS-02375500", "geometry_length_km": 0.051621571227626201 }, "geometry": { "type": "LineString", "coordinates": [ [ -87.182773605, 30.984427199 ], [ -87.183301806, 30.984322898 ] ] } },
{ "type": "Feature", "properties": { "site_no": "02375500", "nhdplus_comid": "2418522", "navigation_mode": "UM", "requested_distance_km": 12.0, "start_source": "nwissite", "start_id": "USGS-02375500", "geometry_length_km": 1.0414966001258521 }, "geometry": { "type": "LineString", "coordinates": [ [ -87.174114406, 30.9898334 ], [ -87.174649, 30.988991 ], [ -87.176262803, 30.987728894 ], [ -87.178114802, 30.986991495 ], [ -87.180354901, 30.985399894 ], [ -87.181457803, 30.985042594 ], [ -87.182773605, 30.984427199 ] ] } },
{ "type": "Feature", "properties": { "site_no": "02375500", "nhdplus_comid": "2415550", "navigation_mode": "UM", "requested_distance_km": 12.0, "start_source": "nwissite", "start_id": "USGS-02375500", "geometry_length_km": 0.55886191716348343 }, "geometry": { "type": "LineString", "coordinates": [ [ -87.175899401, 30.994464293 ], [ -87.174679205, 30.992786497 ], [ -87.174083605, 30.991474696 ], [ -87.174114406, 30.9898334 ] ] } },
{ "type": "Feature", "properties": { "site_no": "02375500", "nhdplus_comid": "2418508", "navigation_mode": "UM", "requested_distance_km": 12.0, "start_source": "nwissite", "start_id": "USGS-02375500", "geometry_length_km": 0.38416770995352356 }, "geometry": { "type": "LineString", "coordinates": [ [ -87.174814805, 30.996401198 ], [ -87.1753828, 30.996606998 ], [ -87.175507203, 30.996624097 ], [ -87.175631702, 30.996641196 ], [ -87.175756104, 30.996658295 ], [ -87.175880507, 30.996675394 ], [ -87.1759727, 30.996609993 ], [ -87.176069602, 30.996541098 ], [ -87.176166601, 30.996472195 ], [ -87.176263601, 30.996403299 ], [ -87.176360607, 30.996334396 ], [ -87.1763594, 30.996273495 ], [ -87.176357105, 30.996165596 ], [ -87.1763549, 30.996057697 ], [ -87.176352605, 30.995949797 ], [ -87.1763504, 30.995841898 ], [ -87.176348105, 30.995733999 ], [ -87.176345907, 30.995626099 ], [ -87.176343605, 30.9955182 ], [ -87.176341407, 30.995410398 ], [ -87.176339202, 30.995302498 ], [ -87.176336907, 30.995194599 ], [ -87.176302105, 30.995136395 ], [ -87.176244602, 30.995040394 ], [ -87.176187105, 30.994944394 ], [ -87.176129505, 30.994848393 ], [ -87.176072001, 30.9947524 ], [ -87.176014505, 30.994656295 ], [ -87.175957002, 30.994560294 ], [ -87.175899401, 30.994464293 ] ] } },
{ "type": "Feature", "properties": { "site_no": "02375500", "nhdplus_comid": "2415538", "navigation_mode": "UM", "requested_distance_km": 12.0, "start_source": "nwissite", "start_id": "USGS-02375500", "geometry_length_km": 1.8182491170306645 }, "geometry": { "type": "LineString", "coordinates": [ [ -87.163069405, 31.000196695 ], [ -87.163034305, 31.000156298 ], [ -87.162959002, 31.0000697 ], [ -87.162946202, 31.000022799 ], [ -87.162917703, 30.999917693 ], [ -87.162889101, 30.999812596 ], [ -87.162860505, 30.999707498 ], [ -87.162831903, 30.9996024 ], [ -87.162803307, 30.999497294 ], [ -87.162774801, 30.999392197 ], [ -87.162746206, 30.999287099 ], [ -87.162717603, 30.999181993 ], [ -87.162689, 30.999076895 ], [ -87.162660405, 30.998971798 ], [ -87.162631907, 30.9988667 ], [ -87.162603304, 30.998761594 ], [ -87.162574701, 30.998656496 ], [ -87.162546106, 30.998551399 ], [ -87.162517503, 30.998446293 ], [ -87.162489004, 30.998341195 ], [ -87.162460402, 30.998236194 ], [ -87.162431806, 30.998131096 ], [ -87.162446201, 30.998071395 ], [ -87.162471704, 30.997965693 ], [ -87.1624972, 30.99786 ], [ -87.162522703, 30.997754395 ], [ -87.162548207, 30.997648694 ], [ -87.162573606, 30.997543 ], [ -87.162599102, 30.997437298 ], [ -87.162624605, 30.997331694 ], [ -87.162650101, 30.997226 ], [ -87.162675604, 30.997120298 ], [ -87.1627011, 30.997014597 ], [ -87.162742205, 30.996989198 ], [ -87.1628443, 30.996925995 ], [ -87.162946403, 30.996862799 ], [ -87.163048603, 30.996799596 ], [ -87.163150802, 30.9967364 ], [ -87.163252801, 30.996673197 ], [ -87.163355, 30.996609993 ], [ -87.163457103, 30.996546797 ], [ -87.163559407, 30.996483497 ], [ -87.163661405, 30.996420294 ], [ -87.163763501, 30.996357098 ], [ -87.1638657, 30.996293895 ], [ -87.163967803, 30.996230699 ], [ -87.164060205, 30.996205196 ], [ -87.1641801, 30.996172093 ], [ -87.164300106, 30.996138997 ], [ -87.164420001, 30.996105894 ], [ -87.16454, 30.996072695 ], [ -87.164659902, 30.996039599 ], [ -87.164779902, 30.996006496 ], [ -87.164899804, 30.995973393 ], [ -87.165019803, 30.995940298 ], [ -87.165139705, 30.995907195 ], [ -87.165259607, 30.995873995 ], [ -87.165379606, 30.9958409 ], [ -87.165499501, 30.995807797 ], [ -87.1656195, 30.995774694 ], [ -87.165739402, 30.995741598 ], [ -87.165859401, 30.995708495 ], [ -87.165979303, 30.995675296 ], [ -87.166099206, 30.9956422 ], [ -87.166118607, 30.995628498 ], [ -87.166215606, 30.995559596 ], [ -87.166312605, 30.9954907 ], [ -87.166409604, 30.995421797 ], [ -87.166506603, 30.995352894 ], [ -87.166603602, 30.995283999 ], [ -87.166700505, 30.9952152 ], [ -87.166797601, 30.995146297 ], [ -87.1668946, 30.995077394 ], [ -87.166991606, 30.995008498 ], [ -87.167088605, 30.994939595 ], [ -87.167185605, 30.9948707 ], [ -87.167282604, 30.994801797 ], [ -87.167379603, 30.994732894 ], [ -87.1673958, 30.994705796 ], [ -87.167453304, 30.994609699 ], [ -87.167510703, 30.994513698 ], [ -87.167568207, 30.994417697 ], [ -87.167625703, 30.9943216 ], [ -87.167683102, 30.994225599 ], [ -87.167740606, 30.994129494 ], [ -87.167745106, 30.994126 ], [ -87.167837203, 30.994052298 ], [ -87.167929307, 30.993978694 ], [ -87.168021403, 30.993904993 ], [ -87.1681135, 30.993831396 ], [ -87.168205604, 30.993757695 ], [ -87.168297701, 30.993684098 ], [ -87.168389805, 30.993610397 ], [ -87.168481901, 30.9935368 ], [ -87.168574005, 30.993463099 ], [ -87.168666102, 30.993389495 ], [ -87.168758206, 30.993315794 ], [ -87.168850303, 30.993242197 ], [ -87.168942407, 30.993168496 ], [ -87.169034503, 30.993094899 ], [ -87.169118203, 30.9931015 ], [ -87.169243604, 30.993111596 ], [ -87.169369102, 30.993121594 ], [ -87.169494607, 30.993131593 ], [ -87.169620104, 30.993141599 ], [ -87.169745602, 30.993151598 ], [ -87.169871002, 30.993161596 ], [ -87.1699965, 30.993171595 ], [ -87.170122005, 30.993181594 ], [ -87.170247503, 30.993191697 ], [ -87.170372903, 30.993201695 ], [ -87.170498304, 30.993211694 ], [ -87.170521706, 30.993224099 ], [ -87.170628704, 30.993281096 ], [ -87.170735702, 30.993338093 ], [ -87.170842804, 30.993395098 ], [ -87.170949705, 30.993452094 ], [ -87.171056703, 30.993509099 ], [ -87.171110705, 30.993560493 ], [ -87.171194904, 30.993640698 ], [ -87.171279207, 30.993720897 ], [ -87.171363503, 30.993801199 ], [ -87.171447806, 30.993881397 ], [ -87.171532005, 30.993961595 ], [ -87.171616301, 30.994041897 ], [ -87.171700604, 30.994122095 ], [ -87.1717849, 30.994202293 ], [ -87.171869107, 30.994282596 ], [ -87.171953402, 30.994362794 ], [ -87.172037706, 30.994442999 ], [ -87.172122002, 30.994523197 ], [ -87.172206104, 30.9946035 ], [ -87.172290504, 30.994683698 ], [ -87.1723748, 30.994763896 ], [ -87.172459103, 30.994844198 ], [ -87.172543302, 30.994924396 ], [ -87.172627605, 30.995004594 ], [ -87.172711901, 30.995084897 ], [ -87.172796205, 30.995165095 ], [ -87.172799706, 30.995167896 ], [ -87.172892503, 30.9952408 ], [ -87.1729853, 30.995313793 ], [ -87.173078105, 30.995386794 ], [ -87.173170902, 30.995459795 ], [ -87.173263803, 30.995532796 ], [ -87.1733566, 30.995605797 ], [ -87.173449405, 30.995678797 ], [ -87.173542202, 30.995751798 ], [ -87.173635006, 30.995824799 ], [ -87.174814805, 30.996401198 ] ] } },
{ "type": "Feature", "properties": { "site_no": "02375500", "nhdplus_comid": "2414062", "navigation_mode": "UM", "requested_distance_km": 12.0, "start_source": "nwissite", "start_id": "USGS-02375500", "geometry_length_km": 0.95184041960456112 }, "geometry": { "type": "LineString", "coordinates": [ [ -87.161233902, 31.007771 ], [ -87.161238305, 31.007754698 ], [ -87.161261804, 31.007667094 ], [ -87.161285304, 31.007579394 ], [ -87.161308803, 31.007491797 ], [ -87.161332302, 31.007404096 ], [ -87.161355801, 31.0073165 ], [ -87.161379203, 31.007228799 ], [ -87.161402702, 31.007141195 ], [ -87.161426201, 31.007053599 ], [ -87.161449701, 31.006965898 ], [ -87.161473207, 31.006878294 ], [ -87.161496706, 31.006790593 ], [ -87.161520205, 31.006702997 ], [ -87.161543705, 31.006615296 ], [ -87.161567204, 31.0065277 ], [ -87.161590703, 31.006440096 ], [ -87.161614202, 31.006352395 ], [ -87.161637604, 31.006264798 ], [ -87.161661103, 31.006177098 ], [ -87.161684602, 31.006089494 ], [ -87.161708102, 31.006001793 ], [ -87.161731601, 31.005914196 ], [ -87.161740802, 31.005904794 ], [ -87.161808304, 31.005835995 ], [ -87.161875904, 31.0057671 ], [ -87.161943406, 31.005698293 ], [ -87.162011005, 31.005629398 ], [ -87.1620785, 31.005560495 ], [ -87.162146106, 31.005491696 ], [ -87.162213601, 31.005422793 ], [ -87.1622812, 31.005353995 ], [ -87.162348703, 31.005285099 ], [ -87.162416302, 31.005216196 ], [ -87.162483804, 31.005147398 ], [ -87.162551403, 31.005078495 ], [ -87.162618905, 31.005009696 ], [ -87.162686504, 31.004940793 ], [ -87.162754007, 31.004871897 ], [ -87.162821501, 31.004803099 ], [ -87.162889101, 31.004734196 ], [ -87.162956603, 31.004665397 ], [ -87.163024202, 31.004596494 ], [ -87.163091704, 31.004527599 ], [ -87.163159303, 31.0044588 ], [ -87.163226806, 31.004389897 ], [ -87.163267307, 31.004328094 ], [ -87.163318701, 31.004249699 ], [ -87.163370103, 31.0041712 ], [ -87.163421504, 31.004092798 ], [ -87.163472906, 31.004014395 ], [ -87.1635243, 31.003936 ], [ -87.163575605, 31.003857493 ], [ -87.163627006, 31.003779098 ], [ -87.1636784, 31.003700696 ], [ -87.163729802, 31.003622293 ], [ -87.163781203, 31.003543794 ], [ -87.163832605, 31.003465399 ], [ -87.163884006, 31.003386997 ], [ -87.163935304, 31.003308594 ], [ -87.163945101, 31.003218994 ], [ -87.163954802, 31.003129497 ], [ -87.163964607, 31.003039993 ], [ -87.1639743, 31.0029504 ], [ -87.163984105, 31.002860896 ], [ -87.163993806, 31.0027714 ], [ -87.164003603, 31.002681799 ], [ -87.164013304, 31.002592295 ], [ -87.164023101, 31.002502799 ], [ -87.164032906, 31.002413198 ], [ -87.164042607, 31.002323695 ], [ -87.164052404, 31.002234198 ], [ -87.164062105, 31.002144597 ], [ -87.164071903, 31.002055094 ], [ -87.164081603, 31.001965597 ], [ -87.164091401, 31.001875997 ], [ -87.164101101, 31.0017865 ], [ -87.164110906, 31.001696996 ], [ -87.164120607, 31.001607396 ], [ -87.164130405, 31.001517899 ], [ -87.164140105, 31.001428396 ], [ -87.164119907, 31.001405098 ], [ -87.164057203, 31.001332998 ], [ -87.163994506, 31.001260899 ], [ -87.163931802, 31.001188695 ], [ -87.163869105, 31.001116596 ], [ -87.163806401, 31.001044497 ], [ -87.163743705, 31.000972293 ], [ -87.163681, 31.000900194 ], [ -87.163618207, 31.000828095 ], [ -87.163555503, 31.000755899 ], [ -87.163492806, 31.000683799 ], [ -87.163430102, 31.0006117 ], [ -87.163367406, 31.000539497 ], [ -87.163304701, 31.000467397 ], [ -87.163242005, 31.000395298 ], [ -87.163179301, 31.000323094 ], [ -87.163116604, 31.000250995 ], [ -87.163069405, 31.000196695 ] ] } }
]
}
