{
"type": "FeatureCollection",
"name": "USGS_02471078_DM_12km",
"crs": { "type": "name", "properties": { "name": "urn:ogc:def:crs:OGC:1.3:CRS84" } },
"features": [
{ "type": "Feature", "properties": { "site_no": "02471078", "nhdplus_comid": "18515610", "navigation_mode": "DM", "requested_distance_km": 12.0, "start_source": "nwissite", "start_id": "USGS-02471078", "geometry_length_km": 0.066835222542673975 }, "geometry": { "type": "LineString", "coordinates": [ [ -88.181355168, 30.500810023 ], [ -88.181334302, 30.500776194 ], [ -88.181333803, 30.500212893 ] ] } },
{ "type": "Feature", "properties": { "site_no": "02471078", "nhdplus_comid": "18516910", "navigation_mode": "DM", "requested_distance_km": 12.0, "start_source": "nwissite", "start_id": "USGS-02471078", "geometry_length_km": 0.88907919554656345 }, "geometry": { "type": "LineString", "coordinates": [ [ -88.181333803, 30.500212893 ], [ -88.181412905, 30.499871597 ], [ -88.181333207, 30.499596596 ], [ -88.180936202, 30.499275893 ], [ -88.180644706, 30.498932399 ], [ -88.1805121, 30.498473994 ], [ -88.180194102, 30.498176299 ], [ -88.180193804, 30.497832499 ], [ -88.180299401, 30.497603297 ], [ -88.180906601, 30.497236393 ], [ -88.181460604, 30.496823497 ], [ -88.181697801, 30.496456698 ], [ -88.181616306, 30.495517097 ], [ -88.1819591, 30.495058596 ], [ -88.181958407, 30.494600296 ], [ -88.181905307, 30.494485795 ], [ -88.181904607, 30.494050294 ], [ -88.182300806, 30.493477196 ], [ -88.182432905, 30.493385397 ] ] } },
{ "type": "Feature", "properties": { "site_no": "02471078", "nhdplus_comid": "18517078", "navigation_mode": "DM", "requested_distance_km": 12.0, "start_source": "nwissite", "start_id": "USGS-02471078", "geometry_length_km": 3.5506492354523247 }, "geometry": { "type": "LineString", "coordinates": [ [ -88.182432905, 30.493385397 ], [ -88.182326503, 30.4926522 ], [ -88.182088003, 30.492239796 ], [ -88.181981802, 30.491598196 ], [ -88.181796305, 30.491346098 ], [ -88.181425601, 30.490888 ], [ -88.181372605, 30.490681693 ], [ -88.1812931, 30.490658894 ], [ -88.181212805, 30.489238098 ], [ -88.181080304, 30.488963194 ], [ -88.1809742, 30.4885507 ], [ -88.1807888, 30.488252796 ], [ -88.180391707, 30.488000996 ], [ -88.180047505, 30.487680197 ], [ -88.180047303, 30.4873823 ], [ -88.179941401, 30.4872678 ], [ -88.179729603, 30.487130396 ], [ -88.179041505, 30.487039097 ], [ -88.178776905, 30.487016298 ], [ -88.178538606, 30.4867872 ], [ -88.178538501, 30.4866497 ], [ -88.178591304, 30.4863059 ], [ -88.178935103, 30.486099496 ], [ -88.179146603, 30.485824399 ], [ -88.179146104, 30.484907694 ], [ -88.178986907, 30.484334797 ], [ -88.178881004, 30.484243199 ], [ -88.1788809, 30.4840599 ], [ -88.178775005, 30.483991198 ], [ -88.178589307, 30.483326696 ], [ -88.178536303, 30.483074494 ], [ -88.178403705, 30.482707895 ], [ -88.178324006, 30.482066296 ], [ -88.177872904, 30.480187297 ], [ -88.177740403, 30.479958199 ], [ -88.177687407, 30.4797749 ], [ -88.177422501, 30.479270793 ], [ -88.176707804, 30.478698097 ], [ -88.175701804, 30.477942295 ], [ -88.175119504, 30.477598794 ], [ -88.174457707, 30.477026299 ], [ -88.1741134, 30.476453394 ], [ -88.173689902, 30.476041093 ], [ -88.173187003, 30.475697599 ], [ -88.172446005, 30.475354098 ], [ -88.171996005, 30.475239694 ], [ -88.171175607, 30.474942096 ], [ -88.170884505, 30.474873498 ], [ -88.169614404, 30.4747594 ], [ -88.169296801, 30.474622093 ], [ -88.169032104, 30.474324197 ], [ -88.168529205, 30.473888993 ], [ -88.167708702, 30.473316394 ], [ -88.167285204, 30.472858198 ], [ -88.167126104, 30.472353995 ], [ -88.166808404, 30.471941598 ], [ -88.165987901, 30.471254393 ], [ -88.164876401, 30.470590197 ], [ -88.163817905, 30.470269695 ], [ -88.163368106, 30.469994798 ] ] } }
]
}
