{
"type": "FeatureCollection",
"name": "USGS_02422000_UM_12km",
"crs": { "type": "name", "properties": { "name": "urn:ogc:def:crs:OGC:1.3:CRS84" } },
"features": [
{ "type": "Feature", "properties": { "site_no": "02422000", "nhdplus_comid": "21682830", "navigation_mode": "UM", "requested_distance_km": 12.0, "start_source": "nwissite", "start_id": "USGS-02422000", "geometry_length_km": 0.063407807102360367 }, "geometry": { "type": "LineString", "coordinates": [ [ -86.694693603, 32.2663849 ], [ -86.694532201, 32.266820297 ], [ -86.694429365, 32.266892694 ] ] } },
{ "type": "Feature", "properties": { "site_no": "02422000", "nhdplus_comid": "21682950", "navigation_mode": "UM", "requested_distance_km": 12.0, "start_source": "nwissite", "start_id": "USGS-02422000", "geometry_length_km": 1.7250395810275456 }, "geometry": { "type": "LineString", "coordinates": [ [ -86.690103203, 32.258527599 ], [ -86.690238506, 32.259169094 ], [ -86.690670304, 32.259650096 ], [ -86.690751404, 32.259902097 ], [ -86.690670706, 32.260154195 ], [ -86.690428004, 32.260154396 ], [ -86.689753503, 32.259788096 ], [ -86.689510904, 32.259811096 ], [ -86.689403102, 32.259994499 ], [ -86.689646102, 32.2604298 ], [ -86.690428406, 32.2607731 ], [ -86.690455906, 32.261414595 ], [ -86.691130206, 32.261735097 ], [ -86.691076405, 32.2619185 ], [ -86.690833904, 32.262056097 ], [ -86.690240704, 32.262262598 ], [ -86.690160006, 32.262468897 ], [ -86.690348804, 32.262583397 ], [ -86.6915894, 32.262697294 ], [ -86.691940203, 32.2628574 ], [ -86.691913307, 32.263063699 ], [ -86.691347301, 32.263453595 ], [ -86.691239506, 32.263636895 ], [ -86.691239804, 32.264095195 ], [ -86.691482902, 32.264599293 ], [ -86.6916987, 32.2647366 ], [ -86.691914506, 32.264736496 ], [ -86.692615204, 32.264117397 ], [ -86.693100803, 32.264231697 ], [ -86.693289503, 32.264208697 ], [ -86.693397202, 32.263933599 ], [ -86.693693906, 32.264093794 ], [ -86.694098905, 32.264460295 ], [ -86.6941531, 32.264849797 ], [ -86.694692701, 32.265193298 ], [ -86.694747306, 32.2660411 ], [ -86.694693603, 32.2663849 ] ] } },
{ "type": "Feature", "properties": { "site_no": "02422000", "nhdplus_comid": "21682968", "navigation_mode": "UM", "requested_distance_km": 12.0, "start_source": "nwissite", "start_id": "USGS-02422000", "geometry_length_km": 0.28361770275317177 }, "geometry": { "type": "LineString", "coordinates": [ [ -86.688160703, 32.257199593 ], [ -86.688781202, 32.257542998 ], [ -86.688727506, 32.257978395 ], [ -86.688808605, 32.2582075 ], [ -86.689671502, 32.258161195 ], [ -86.690103203, 32.258527599 ] ] } },
{ "type": "Feature", "properties": { "site_no": "02422000", "nhdplus_comid": "21686748", "navigation_mode": "UM", "requested_distance_km": 12.0, "start_source": "nwissite", "start_id": "USGS-02422000", "geometry_length_km": 2.2410259722044032 }, "geometry": { "type": "LineString", "coordinates": [ [ -86.684886202, 32.244990595 ], [ -86.684643902, 32.245540597 ], [ -86.684644103, 32.245769799 ], [ -86.684752002, 32.245930195 ], [ -86.6854802, 32.246158995 ], [ -86.685642004, 32.246296398 ], [ -86.68575, 32.246617094 ], [ -86.685723707, 32.247487895 ], [ -86.685481206, 32.247969195 ], [ -86.685481407, 32.248221293 ], [ -86.686048001, 32.248793796 ], [ -86.686587706, 32.249481097 ], [ -86.686749801, 32.249893397 ], [ -86.686992705, 32.250145294 ], [ -86.687239006, 32.250256896 ], [ -86.6884524, 32.250279196 ], [ -86.688425601, 32.250485495 ], [ -86.688290901, 32.250668794 ], [ -86.6877518, 32.251012795 ], [ -86.687050804, 32.251104794 ], [ -86.687051006, 32.251402698 ], [ -86.687159002, 32.251585998 ], [ -86.687132306, 32.251975596 ], [ -86.686620206, 32.252388299 ], [ -86.686701506, 32.252869494 ], [ -86.686836302, 32.252983995 ], [ -86.687159903, 32.252937995 ], [ -86.688210905, 32.251929194 ], [ -86.688669302, 32.251974799 ], [ -86.688750304, 32.252089299 ], [ -86.688508101, 32.252822697 ], [ -86.687942304, 32.253510498 ], [ -86.687969707, 32.254106194 ], [ -86.688185804, 32.254656099 ], [ -86.688347705, 32.254862294 ], [ -86.688563503, 32.254907899 ], [ -86.688725203, 32.254816197 ], [ -86.688913703, 32.254472397 ], [ -86.689102501, 32.254495196 ], [ -86.689022101, 32.255228497 ], [ -86.688564606, 32.256328598 ], [ -86.688106507, 32.256764196 ], [ -86.688160703, 32.257199593 ] ] } },
{ "type": "Feature", "properties": { "site_no": "02422000", "nhdplus_comid": "21683094", "navigation_mode": "UM", "requested_distance_km": 12.0, "start_source": "nwissite", "start_id": "USGS-02422000", "geometry_length_km": 0.54058155888666481 }, "geometry": { "type": "LineString", "coordinates": [ [ -86.687204204, 32.243660495 ], [ -86.687096603, 32.244187593 ], [ -86.6873933, 32.244370699 ], [ -86.6878516, 32.244301796 ], [ -86.687986605, 32.2444392 ], [ -86.687933102, 32.245012097 ], [ -86.687690504, 32.245264299 ], [ -86.687474802, 32.245241493 ], [ -86.686180204, 32.244692095 ], [ -86.685533203, 32.244784094 ], [ -86.684886202, 32.244990595 ] ] } },
{ "type": "Feature", "properties": { "site_no": "02422000", "nhdplus_comid": "21683234", "navigation_mode": "UM", "requested_distance_km": 12.0, "start_source": "nwissite", "start_id": "USGS-02422000", "geometry_length_km": 2.6394885333053373 }, "geometry": { "type": "LineString", "coordinates": [ [ -86.675980806, 32.230924994 ], [ -86.676843606, 32.230993293 ], [ -86.677086204, 32.231084995 ], [ -86.677302003, 32.231313899 ], [ -86.677221403, 32.231772296 ], [ -86.676574707, 32.232368298 ], [ -86.676574901, 32.232689098 ], [ -86.676736906, 32.232918195 ], [ -86.677195206, 32.233032599 ], [ -86.678058006, 32.233100995 ], [ -86.678300701, 32.233330093 ], [ -86.678355001, 32.233902894 ], [ -86.678220406, 32.2342695 ], [ -86.678247504, 32.234475799 ], [ -86.679083101, 32.234406695 ], [ -86.679218002, 32.234544098 ], [ -86.679191403, 32.235071197 ], [ -86.679434203, 32.235414796 ], [ -86.680027604, 32.235918596 ], [ -86.680486202, 32.236399598 ], [ -86.681079306, 32.2363078 ], [ -86.681268007, 32.236422293 ], [ -86.681079507, 32.236834794 ], [ -86.681133606, 32.237018093 ], [ -86.681700006, 32.237315796 ], [ -86.6815385, 32.237888694 ], [ -86.681619503, 32.238048993 ], [ -86.682158805, 32.2381863 ], [ -86.682266802, 32.238323696 ], [ -86.682266802, 32.238552794 ], [ -86.681916602, 32.238965496 ], [ -86.681916706, 32.239194594 ], [ -86.682051606, 32.239309095 ], [ -86.682294302, 32.239240296 ], [ -86.683075704, 32.238575399 ], [ -86.6832375, 32.238598198 ], [ -86.683453307, 32.238941796 ], [ -86.683696203, 32.2390792 ], [ -86.683696404, 32.239445895 ], [ -86.683211304, 32.239812694 ], [ -86.683211401, 32.240110599 ], [ -86.683508106, 32.240270793 ], [ -86.683804601, 32.240179099 ], [ -86.684343502, 32.239697598 ], [ -86.684559301, 32.239743397 ], [ -86.684829101, 32.240132794 ], [ -86.6852336, 32.240247197 ], [ -86.685180105, 32.240865894 ], [ -86.684803002, 32.241393097 ], [ -86.684803203, 32.241736799 ], [ -86.684911206, 32.241965994 ], [ -86.685180902, 32.2421491 ], [ -86.685396604, 32.242194898 ], [ -86.686259307, 32.242011197 ], [ -86.686475001, 32.242056794 ], [ -86.6868257, 32.242354594 ], [ -86.686960801, 32.242652394 ], [ -86.686988302, 32.243454397 ], [ -86.687204204, 32.243660495 ] ] } },
{ "type": "Feature", "properties": { "site_no": "02422000", "nhdplus_comid": "21683410", "navigation_mode": "UM", "requested_distance_km": 12.0, "start_source": "nwissite", "start_id": "USGS-02422000", "geometry_length_km": 1.9845332663898421 }, "geometry": { "type": "LineString", "coordinates": [ [ -86.667079702, 32.220181294 ], [ -86.667214602, 32.220318593 ], [ -86.668131001, 32.220226794 ], [ -86.668319903, 32.220616199 ], [ -86.668535702, 32.220799394 ], [ -86.668508902, 32.221051499 ], [ -86.667970002, 32.221464194 ], [ -86.667970106, 32.221807994 ], [ -86.668212906, 32.222357795 ], [ -86.668213204, 32.2229307 ], [ -86.668132305, 32.223068096 ], [ -86.668186404, 32.223343194 ], [ -86.668806501, 32.223663695 ], [ -86.669373102, 32.2245114 ], [ -86.670263, 32.225335896 ], [ -86.670937002, 32.225427397 ], [ -86.671287604, 32.225793794 ], [ -86.671718903, 32.225908294 ], [ -86.671853803, 32.226045698 ], [ -86.671826907, 32.226297796 ], [ -86.671638407, 32.226549894 ], [ -86.671638407, 32.226710297 ], [ -86.672042906, 32.226778895 ], [ -86.672070004, 32.227053896 ], [ -86.671719603, 32.227260195 ], [ -86.671638802, 32.227397799 ], [ -86.671692804, 32.227535196 ], [ -86.671881504, 32.227672599 ], [ -86.6723129, 32.227695398 ], [ -86.673094504, 32.227488898 ], [ -86.673418, 32.227511697 ], [ -86.673579805, 32.227671996 ], [ -86.673634, 32.227969795 ], [ -86.673768803, 32.228153095 ], [ -86.673984505, 32.228153095 ], [ -86.674334906, 32.227969699 ], [ -86.674577504, 32.228084095 ], [ -86.674658403, 32.228244498 ], [ -86.674712807, 32.229160994 ], [ -86.674820803, 32.229298495 ], [ -86.675467603, 32.228908695 ], [ -86.675737306, 32.229206495 ], [ -86.6757918, 32.230329297 ], [ -86.675980702, 32.230741695 ], [ -86.675980806, 32.230924994 ] ] } }
]
}
