{
"type": "FeatureCollection",
"name": "USGS_02423414_UM_12km",
"crs": { "type": "name", "properties": { "name": "urn:ogc:def:crs:OGC:1.3:CRS84" } },
"features": [
{ "type": "Feature", "properties": { "site_no": "02423414", "nhdplus_comid": "21655412", "navigation_mode": "UM", "requested_distance_km": 12.0, "start_source": "nwissite", "start_id": "USGS-02423414", "geometry_length_km": 2.1829662557522722 }, "geometry": { "type": "LineString", "coordinates": [ [ -86.690630704, 33.451286599 ], [ -86.6917511, 33.451171398 ], [ -86.6925712, 33.451354295 ], [ -86.693117805, 33.4513769 ], [ -86.693336301, 33.451262198 ], [ -86.6935267, 33.450025 ], [ -86.693717703, 33.449727096 ], [ -86.694318704, 33.449291497 ], [ -86.695903704, 33.4491302 ], [ -86.696450107, 33.448946595 ], [ -86.696504503, 33.448694594 ], [ -86.695219003, 33.447297797 ], [ -86.6952186, 33.446724996 ], [ -86.696120001, 33.446266398 ], [ -86.696119606, 33.445854098 ], [ -86.696037605, 33.445785299 ], [ -86.696037404, 33.445602097 ], [ -86.695763707, 33.445098199 ], [ -86.695708007, 33.443677895 ], [ -86.6954889, 33.443128094 ], [ -86.695133306, 33.442715995 ], [ -86.694149204, 33.442327 ], [ -86.694149107, 33.442074999 ], [ -86.694285505, 33.441799998 ], [ -86.6947769, 33.441204093 ], [ -86.6953777, 33.440699697 ], [ -86.6967436, 33.440149099 ], [ -86.697153106, 33.439644799 ], [ -86.697808802, 33.439484194 ], [ -86.698246002, 33.439483896 ], [ -86.698456693, 33.439740448 ] ] } },
{ "type": "Feature", "properties": { "site_no": "02423414", "nhdplus_comid": "21655384", "navigation_mode": "UM", "requested_distance_km": 12.0, "start_source": "nwissite", "start_id": "USGS-02423414", "geometry_length_km": 2.972033729307535 }, "geometry": { "type": "LineString", "coordinates": [ [ -86.670903802, 33.461879298 ], [ -86.671751201, 33.461924896 ], [ -86.672188401, 33.461672693 ], [ -86.672543406, 33.461122796 ], [ -86.673144102, 33.459862597 ], [ -86.673253, 33.458946094 ], [ -86.673471205, 33.458327495 ], [ -86.674372904, 33.457823195 ], [ -86.6754383, 33.456974998 ], [ -86.676613301, 33.456470594 ], [ -86.677269205, 33.456378698 ], [ -86.677734002, 33.456538893 ], [ -86.678198703, 33.456561595 ], [ -86.678362601, 33.456469893 ], [ -86.678553604, 33.456011593 ], [ -86.678580202, 33.454820298 ], [ -86.678689405, 33.454453699 ], [ -86.678743407, 33.453514293 ], [ -86.678223804, 33.452827193 ], [ -86.678578705, 33.452162795 ], [ -86.679234207, 33.451360598 ], [ -86.680299304, 33.450374998 ], [ -86.681146003, 33.449389495 ], [ -86.6819655, 33.448701896 ], [ -86.682375304, 33.448518395 ], [ -86.682867207, 33.448518194 ], [ -86.6834139, 33.448838599 ], [ -86.684781305, 33.450189695 ], [ -86.685328104, 33.450487293 ], [ -86.686858803, 33.450761497 ], [ -86.687624305, 33.451150596 ], [ -86.688198403, 33.451310694 ], [ -86.690630704, 33.451286599 ] ] } },
{ "type": "Feature", "properties": { "site_no": "02423414", "nhdplus_comid": "21655372", "navigation_mode": "UM", "requested_distance_km": 12.0, "start_source": "nwissite", "start_id": "USGS-02423414", "geometry_length_km": 0.32038959512267667 }, "geometry": { "type": "LineString", "coordinates": [ [ -86.668251604, 33.460093394 ], [ -86.669618703, 33.460848898 ], [ -86.670903802, 33.461787693 ], [ -86.670903802, 33.461879298 ] ] } },
{ "type": "Feature", "properties": { "site_no": "02423414", "nhdplus_comid": "21656574", "navigation_mode": "UM", "requested_distance_km": 12.0, "start_source": "nwissite", "start_id": "USGS-02423414", "geometry_length_km": 0.99132554587746724 }, "geometry": { "type": "LineString", "coordinates": [ [ -86.660111107, 33.462896198 ], [ -86.660266407, 33.4627233 ], [ -86.662657306, 33.460710295 ], [ -86.663063206, 33.459861599 ], [ -86.664389402, 33.458961897 ], [ -86.665898405, 33.459084898 ], [ -86.666306503, 33.459495999 ], [ -86.668024704, 33.459963299 ], [ -86.668251604, 33.460093394 ] ] } },
{ "type": "Feature", "properties": { "site_no": "02423414", "nhdplus_comid": "21656572", "navigation_mode": "UM", "requested_distance_km": 12.0, "start_source": "nwissite", "start_id": "USGS-02423414", "geometry_length_km": 4.6625854001630147 }, "geometry": { "type": "LineString", "coordinates": [ [ -86.622685201, 33.482766196 ], [ -86.623017006, 33.482541397 ], [ -86.625553101, 33.4830008 ], [ -86.625884801, 33.482775994 ], [ -86.626019202, 33.481653295 ], [ -86.626516901, 33.481316097 ], [ -86.628387801, 33.480965197 ], [ -86.629051305, 33.480515599 ], [ -86.630786203, 33.480027594 ], [ -86.631932303, 33.479365394 ], [ -86.634271003, 33.478926696 ], [ -86.6367587, 33.477240495 ], [ -86.637526602, 33.475917496 ], [ -86.640405506, 33.4735073 ], [ -86.641490005, 33.472084299 ], [ -86.641549602, 33.471585296 ], [ -86.642527804, 33.469775595 ], [ -86.642889306, 33.469301298 ], [ -86.644381702, 33.468289398 ], [ -86.646343604, 33.468449496 ], [ -86.647597507, 33.469433695 ], [ -86.648322307, 33.469744794 ], [ -86.651340701, 33.469990999 ], [ -86.653827801, 33.468304396 ], [ -86.654731303, 33.467118397 ], [ -86.6564041, 33.465869196 ], [ -86.6572778, 33.464932598 ], [ -86.660111107, 33.462896198 ] ] } }
]
}
