{
"type": "FeatureCollection",
"name": "USGS_02407900_UM_12km",
"crs": { "type": "name", "properties": { "name": "urn:ogc:def:crs:OGC:1.3:CRS84" } },
"features": [
{ "type": "Feature", "properties": { "site_no": "02407900", "nhdplus_comid": "22272912", "navigation_mode": "UM", "requested_distance_km": 12.0, "start_source": "nwissite", "start_id": "USGS-02407900", "geometry_length_km": 2.0322245135226327 }, "geometry": { "type": "LineString", "coordinates": [ [ -86.4187738, 33.041779399 ], [ -86.419671707, 33.042283095 ], [ -86.420188703, 33.042695299 ], [ -86.420324907, 33.042947195 ], [ -86.420379803, 33.043955296 ], [ -86.420516007, 33.044459298 ], [ -86.4210333, 33.045260996 ], [ -86.421768203, 33.046016797 ], [ -86.422094703, 33.046222895 ], [ -86.422557302, 33.046245597 ], [ -86.422910705, 33.046039298 ], [ -86.423019402, 33.0456727 ], [ -86.422937304, 33.044893697 ], [ -86.422801107, 33.044481397 ], [ -86.4231546, 33.044183396 ], [ -86.423589803, 33.044068694 ], [ -86.425140306, 33.044090994 ], [ -86.426119305, 33.0436095 ], [ -86.427913904, 33.042256899 ], [ -86.427913606, 33.0416843 ], [ -86.427668504, 33.041226096 ], [ -86.426797301, 33.040057994 ], [ -86.425463304, 33.037904896 ], [ -86.425435804, 33.0374697 ], [ -86.425436693, 33.037468662 ] ] } },
{ "type": "Feature", "properties": { "site_no": "02407900", "nhdplus_comid": "22272850", "navigation_mode": "UM", "requested_distance_km": 12.0, "start_source": "nwissite", "start_id": "USGS-02407900", "geometry_length_km": 1.3769028830150356 }, "geometry": { "type": "LineString", "coordinates": [ [ -86.409826301, 33.0470974 ], [ -86.409962207, 33.047005795 ], [ -86.411322303, 33.046661697 ], [ -86.411811903, 33.046432398 ], [ -86.412546106, 33.045561694 ], [ -86.412763603, 33.045446999 ], [ -86.413470805, 33.045355096 ], [ -86.414967105, 33.045583799 ], [ -86.416136906, 33.0456063 ], [ -86.416436106, 33.045514598 ], [ -86.416680805, 33.045285396 ], [ -86.416707702, 33.044620998 ], [ -86.417197004, 33.043841898 ], [ -86.417251103, 33.043269098 ], [ -86.416597702, 33.0418946 ], [ -86.4165975, 33.041688398 ], [ -86.417005405, 33.041344695 ], [ -86.417603806, 33.041321598 ], [ -86.4187738, 33.041779399 ] ] } },
{ "type": "Feature", "properties": { "site_no": "02407900", "nhdplus_comid": "22272830", "navigation_mode": "UM", "requested_distance_km": 12.0, "start_source": "nwissite", "start_id": "USGS-02407900", "geometry_length_km": 1.034489721596888 }, "geometry": { "type": "LineString", "coordinates": [ [ -86.401856802, 33.051177494 ], [ -86.402346402, 33.050810799 ], [ -86.403271206, 33.050421096 ], [ -86.404114403, 33.049825296 ], [ -86.404440701, 33.049252398 ], [ -86.404767007, 33.048954494 ], [ -86.405555807, 33.048541896 ], [ -86.406780005, 33.048449993 ], [ -86.408357903, 33.048770294 ], [ -86.409174003, 33.0487701 ], [ -86.409718007, 33.048540793 ], [ -86.409962803, 33.048288696 ], [ -86.410098605, 33.047876298 ], [ -86.410044104, 33.047555596 ], [ -86.409826301, 33.0470974 ] ] } },
{ "type": "Feature", "properties": { "site_no": "02407900", "nhdplus_comid": "22272804", "navigation_mode": "UM", "requested_distance_km": 12.0, "start_source": "nwissite", "start_id": "USGS-02407900", "geometry_length_km": 0.51814997417012365 }, "geometry": { "type": "LineString", "coordinates": [ [ -86.399572603, 33.055233099 ], [ -86.399627, 33.055049799 ], [ -86.400198206, 33.054499798 ], [ -86.401558004, 33.052987494 ], [ -86.401721202, 33.052620895 ], [ -86.401856802, 33.051177494 ] ] } },
{ "type": "Feature", "properties": { "site_no": "02407900", "nhdplus_comid": "22272774", "navigation_mode": "UM", "requested_distance_km": 12.0, "start_source": "nwissite", "start_id": "USGS-02407900", "geometry_length_km": 2.275806960263008 }, "geometry": { "type": "LineString", "coordinates": [ [ -86.381562606, 33.0619938 ], [ -86.382378906, 33.062062398 ], [ -86.383004606, 33.0618563 ], [ -86.383412704, 33.061512597 ], [ -86.383684807, 33.060985595 ], [ -86.384636901, 33.060023293 ], [ -86.385072105, 33.058854796 ], [ -86.3853442, 33.058396496 ], [ -86.385915406, 33.057800896 ], [ -86.386105806, 33.057159297 ], [ -86.386377804, 33.056930199 ], [ -86.386813201, 33.056792699 ], [ -86.3873844, 33.056769699 ], [ -86.387983106, 33.056884199 ], [ -86.389343403, 33.056884095 ], [ -86.390567802, 33.057777494 ], [ -86.390921503, 33.057823293 ], [ -86.391710505, 33.057548299 ], [ -86.393369906, 33.0567692 ], [ -86.3941589, 33.056471199 ], [ -86.394784704, 33.056379497 ], [ -86.395083904, 33.056470998 ], [ -86.395737, 33.057043694 ], [ -86.396662101, 33.057410195 ], [ -86.397587106, 33.057501599 ], [ -86.398022406, 33.057409897 ], [ -86.398593605, 33.056928694 ], [ -86.3988657, 33.056493394 ], [ -86.399191804, 33.055576898 ], [ -86.399355106, 33.055324793 ], [ -86.399572603, 33.055233099 ] ] } },
{ "type": "Feature", "properties": { "site_no": "02407900", "nhdplus_comid": "22272764", "navigation_mode": "UM", "requested_distance_km": 12.0, "start_source": "nwissite", "start_id": "USGS-02407900", "geometry_length_km": 4.7656948974354592 }, "geometry": { "type": "LineString", "coordinates": [ [ -86.344557203, 33.068084098 ], [ -86.345944807, 33.068473995 ], [ -86.3472507, 33.0692074 ], [ -86.347740404, 33.069367893 ], [ -86.348257303, 33.069413796 ], [ -86.348719902, 33.0692994 ], [ -86.349971801, 33.068497695 ], [ -86.351169206, 33.068039797 ], [ -86.352012806, 33.068062797 ], [ -86.352584206, 33.0681547 ], [ -86.3531828, 33.068406694 ], [ -86.353672504, 33.068750493 ], [ -86.354869701, 33.069254793 ], [ -86.355168901, 33.069277696 ], [ -86.356066905, 33.069071598 ], [ -86.356937706, 33.068636499 ], [ -86.359060407, 33.066895597 ], [ -86.359495901, 33.066689499 ], [ -86.360012904, 33.066597894 ], [ -86.361101307, 33.066598095 ], [ -86.361672603, 33.066804297 ], [ -86.362135202, 33.066873096 ], [ -86.362679303, 33.0667357 ], [ -86.363250904, 33.066254593 ], [ -86.363767907, 33.066002697 ], [ -86.364665806, 33.065979794 ], [ -86.366407104, 33.066529796 ], [ -86.3670329, 33.066438295 ], [ -86.367359504, 33.066209197 ], [ -86.368529603, 33.064857498 ], [ -86.368584104, 33.064422198 ], [ -86.368420906, 33.064009793 ], [ -86.3685297, 33.063711993 ], [ -86.368529804, 33.063024595 ], [ -86.368937902, 33.062222794 ], [ -86.368992604, 33.060619093 ], [ -86.370788403, 33.059015393 ], [ -86.371713504, 33.057846993 ], [ -86.372257501, 33.057480395 ], [ -86.372801706, 33.057480395 ], [ -86.373917207, 33.058694698 ], [ -86.374406904, 33.058855094 ], [ -86.374760501, 33.058809295 ], [ -86.374978304, 33.058648899 ], [ -86.3754135, 33.058351099 ], [ -86.376257002, 33.058442697 ], [ -86.376746707, 33.058305293 ], [ -86.377100401, 33.058099099 ], [ -86.377562903, 33.058121994 ], [ -86.378025405, 33.058419794 ], [ -86.378324807, 33.059015498 ], [ -86.378705703, 33.060664997 ], [ -86.378896207, 33.060962893 ], [ -86.379168302, 33.061191894 ], [ -86.379494801, 33.061283596 ], [ -86.380746305, 33.061352298 ], [ -86.3811545, 33.061512694 ], [ -86.381562606, 33.0619938 ] ] } }
]
}
