{
"type": "FeatureCollection",
"name": "USGS_02418760_UM_12km",
"crs": { "type": "name", "properties": { "name": "urn:ogc:def:crs:OGC:1.3:CRS84" } },
"features": [
{ "type": "Feature", "properties": { "site_no": "02418760", "nhdplus_comid": "21712732", "navigation_mode": "UM", "requested_distance_km": 12.0, "start_source": "nwissite", "start_id": "USGS-02418760", "geometry_length_km": 0.20340270413023218 }, "geometry": { "type": "LineString", "coordinates": [ [ -85.478158705, 32.548625 ], [ -85.478726804, 32.548693195 ], [ -85.479564905, 32.548463494 ], [ -85.480218867, 32.548207173 ] ] } },
{ "type": "Feature", "properties": { "site_no": "02418760", "nhdplus_comid": "21712726", "navigation_mode": "UM", "requested_distance_km": 12.0, "start_source": "nwissite", "start_id": "USGS-02418760", "geometry_length_km": 1.4823720930471573 }, "geometry": { "type": "LineString", "coordinates": [ [ -85.467799403, 32.548174798 ], [ -85.4689354, 32.548334293 ], [ -85.469179004, 32.548517399 ], [ -85.469396204, 32.549227394 ], [ -85.4708037, 32.550280198 ], [ -85.471101306, 32.550279893 ], [ -85.471533902, 32.550119199 ], [ -85.473182201, 32.548651896 ], [ -85.473506205, 32.548193499 ], [ -85.473830402, 32.547803797 ], [ -85.474262804, 32.547551498 ], [ -85.476101302, 32.546908595 ], [ -85.4775884, 32.546563797 ], [ -85.477967203, 32.546586394 ], [ -85.478156604, 32.546700694 ], [ -85.478211001, 32.547021396 ], [ -85.477724902, 32.547731996 ], [ -85.477779604, 32.548258796 ], [ -85.478158705, 32.548625 ] ] } },
{ "type": "Feature", "properties": { "site_no": "02418760", "nhdplus_comid": "21712718", "navigation_mode": "UM", "requested_distance_km": 12.0, "start_source": "nwissite", "start_id": "USGS-02418760", "geometry_length_km": 0.20325194814280659 }, "geometry": { "type": "LineString", "coordinates": [ [ -85.466472805, 32.546892896 ], [ -85.466797605, 32.547098897 ], [ -85.466960207, 32.547419496 ], [ -85.467014603, 32.547785997 ], [ -85.467799403, 32.548174798 ] ] } },
{ "type": "Feature", "properties": { "site_no": "02418760", "nhdplus_comid": "21713170", "navigation_mode": "UM", "requested_distance_km": 12.0, "start_source": "nwissite", "start_id": "USGS-02418760", "geometry_length_km": 1.9636990421327605 }, "geometry": { "type": "LineString", "coordinates": [ [ -85.448162802, 32.547110893 ], [ -85.448514007, 32.5466296 ], [ -85.448703207, 32.546537898 ], [ -85.449920304, 32.546514295 ], [ -85.450623602, 32.546697095 ], [ -85.451272905, 32.546971694 ], [ -85.452922605, 32.546741597 ], [ -85.453274101, 32.546626896 ], [ -85.4535987, 32.546626695 ], [ -85.453923404, 32.546878494 ], [ -85.456114106, 32.546899997 ], [ -85.456519604, 32.546716496 ], [ -85.456789903, 32.546487197 ], [ -85.457033202, 32.546395399 ], [ -85.457168207, 32.546143398 ], [ -85.4573844, 32.545982897 ], [ -85.4592508, 32.5460504 ], [ -85.459738001, 32.546462394 ], [ -85.461009204, 32.546644896 ], [ -85.461225905, 32.546873793 ], [ -85.461307205, 32.547079898 ], [ -85.461929701, 32.547514699 ], [ -85.4626064, 32.548063993 ], [ -85.463472106, 32.548292398 ], [ -85.4638777, 32.548200496 ], [ -85.464147903, 32.548017099 ], [ -85.4646888, 32.547947995 ], [ -85.465202406, 32.547695599 ], [ -85.465445407, 32.547305994 ], [ -85.465688705, 32.547122598 ], [ -85.466472805, 32.546892896 ] ] } },
{ "type": "Feature", "properties": { "site_no": "02418760", "nhdplus_comid": "21713294", "navigation_mode": "UM", "requested_distance_km": 12.0, "start_source": "nwissite", "start_id": "USGS-02418760", "geometry_length_km": 0.59970118592209043 }, "geometry": { "type": "LineString", "coordinates": [ [ -85.443644106, 32.550817698 ], [ -85.443743505, 32.550637498 ], [ -85.447999202, 32.547561295 ], [ -85.448086902, 32.547305398 ], [ -85.448162802, 32.547110893 ] ] } },
{ "type": "Feature", "properties": { "site_no": "02418760", "nhdplus_comid": "21713284", "navigation_mode": "UM", "requested_distance_km": 12.0, "start_source": "nwissite", "start_id": "USGS-02418760", "geometry_length_km": 2.0306206529308941 }, "geometry": { "type": "LineString", "coordinates": [ [ -85.428316906, 32.557383299 ], [ -85.428420104, 32.557253994 ], [ -85.430232003, 32.556384996 ], [ -85.430629805, 32.555664293 ], [ -85.431126602, 32.555331893 ], [ -85.432599805, 32.555595897 ], [ -85.434105605, 32.556747198 ], [ -85.438260503, 32.557261899 ], [ -85.443029806, 32.554297097 ], [ -85.443644106, 32.550817698 ] ] } },
{ "type": "Feature", "properties": { "site_no": "02418760", "nhdplus_comid": "21712624", "navigation_mode": "UM", "requested_distance_km": 12.0, "start_source": "nwissite", "start_id": "USGS-02418760", "geometry_length_km": 0.11186700782932869 }, "geometry": { "type": "LineString", "coordinates": [ [ -85.427153803, 32.557566993 ], [ -85.427424401, 32.557589695 ], [ -85.428316906, 32.557383299 ] ] } },
{ "type": "Feature", "properties": { "site_no": "02418760", "nhdplus_comid": "21712646", "navigation_mode": "UM", "requested_distance_km": 12.0, "start_source": "nwissite", "start_id": "USGS-02418760", "geometry_length_km": 0.38428905860916934 }, "geometry": { "type": "LineString", "coordinates": [ [ -85.425854005, 32.554795697 ], [ -85.426341102, 32.555230699 ], [ -85.426774107, 32.555688694 ], [ -85.426936701, 32.556055196 ], [ -85.426882707, 32.556398794 ], [ -85.426585503, 32.556879997 ], [ -85.426585704, 32.557338096 ], [ -85.427153803, 32.557566993 ] ] } },
{ "type": "Feature", "properties": { "site_no": "02418760", "nhdplus_comid": "21712674", "navigation_mode": "UM", "requested_distance_km": 12.0, "start_source": "nwissite", "start_id": "USGS-02418760", "geometry_length_km": 0.71505295070741959 }, "geometry": { "type": "LineString", "coordinates": [ [ -85.421578705, 32.551292397 ], [ -85.421984404, 32.551475599 ], [ -85.422525704, 32.552025199 ], [ -85.423391305, 32.552414194 ], [ -85.423716106, 32.552643195 ], [ -85.423770405, 32.552918099 ], [ -85.423608303, 32.5531701 ], [ -85.4236084, 32.553422093 ], [ -85.424095303, 32.553444795 ], [ -85.424960606, 32.553192496 ], [ -85.425393403, 32.553192295 ], [ -85.425772205, 32.553581595 ], [ -85.425583206, 32.553925298 ], [ -85.425854005, 32.554795697 ] ] } },
{ "type": "Feature", "properties": { "site_no": "02418760", "nhdplus_comid": "21712694", "navigation_mode": "UM", "requested_distance_km": 12.0, "start_source": "nwissite", "start_id": "USGS-02418760", "geometry_length_km": 2.3473155686216125 }, "geometry": { "type": "LineString", "coordinates": [ [ -85.4050254, 32.549327299 ], [ -85.4050254, 32.549762495 ], [ -85.4055124, 32.550357997 ], [ -85.405539602, 32.550472498 ], [ -85.405891307, 32.550884694 ], [ -85.405999601, 32.551274098 ], [ -85.4060807, 32.551319897 ], [ -85.406107903, 32.551663496 ], [ -85.407027803, 32.552510895 ], [ -85.407028005, 32.553243898 ], [ -85.407325603, 32.553472996 ], [ -85.408191204, 32.553793393 ], [ -85.408489101, 32.554182693 ], [ -85.408705503, 32.554297194 ], [ -85.409057103, 32.554365896 ], [ -85.409517005, 32.5546178 ], [ -85.410220303, 32.554823793 ], [ -85.410490803, 32.554983996 ], [ -85.410599202, 32.555465095 ], [ -85.411113203, 32.555693999 ], [ -85.411924601, 32.555602096 ], [ -85.412357301, 32.555395797 ], [ -85.412627801, 32.555418596 ], [ -85.412763201, 32.555968396 ], [ -85.413223207, 32.556220196 ], [ -85.413628906, 32.556174293 ], [ -85.414034605, 32.556265794 ], [ -85.415089406, 32.556013495 ], [ -85.416198105, 32.555440493 ], [ -85.417306505, 32.5540886 ], [ -85.417712003, 32.553699099 ], [ -85.4180637, 32.553584494 ], [ -85.418848, 32.553675793 ], [ -85.419632405, 32.553606696 ], [ -85.419902705, 32.553446293 ], [ -85.420173101, 32.553125493 ], [ -85.420578703, 32.552896298 ], [ -85.420686804, 32.552712999 ], [ -85.420713305, 32.551544696 ], [ -85.421037704, 32.551315598 ], [ -85.421578705, 32.551292397 ] ] } },
{ "type": "Feature", "properties": { "site_no": "02418760", "nhdplus_comid": "21712698", "navigation_mode": "UM", "requested_distance_km": 12.0, "start_source": "nwissite", "start_id": "USGS-02418760", "geometry_length_km": 1.3715613269662492 }, "geometry": { "type": "LineString", "coordinates": [ [ -85.393585302, 32.552375995 ], [ -85.393693402, 32.552421793 ], [ -85.394721203, 32.551642798 ], [ -85.395235002, 32.551551096 ], [ -85.395992205, 32.550840899 ], [ -85.396154501, 32.550886698 ], [ -85.396181703, 32.551184393 ], [ -85.396533206, 32.551184393 ], [ -85.3968307, 32.550817899 ], [ -85.397101104, 32.550749093 ], [ -85.397588104, 32.550932199 ], [ -85.397777401, 32.5508864 ], [ -85.397777304, 32.550703198 ], [ -85.397614904, 32.550451197 ], [ -85.397587806, 32.550153397 ], [ -85.397858202, 32.549855597 ], [ -85.398236804, 32.549626395 ], [ -85.398994103, 32.5495805 ], [ -85.3999677, 32.549351297 ], [ -85.400211006, 32.549076296 ], [ -85.400616705, 32.549007498 ], [ -85.401130706, 32.549144894 ], [ -85.401969001, 32.549098998 ], [ -85.402807407, 32.548915498 ], [ -85.403132007, 32.549029894 ], [ -85.404700704, 32.549006693 ], [ -85.4050254, 32.549327299 ] ] } },
{ "type": "Feature", "properties": { "site_no": "02418760", "nhdplus_comid": "21712660", "navigation_mode": "UM", "requested_distance_km": 12.0, "start_source": "nwissite", "start_id": "USGS-02418760", "geometry_length_km": 0.88510299356335742 }, "geometry": { "type": "LineString", "coordinates": [ [ -85.388501205, 32.558469899 ], [ -85.388636403, 32.557759799 ], [ -85.389123201, 32.557393193 ], [ -85.389231302, 32.557026699 ], [ -85.389123, 32.556362398 ], [ -85.389961407, 32.555675097 ], [ -85.390313007, 32.554941997 ], [ -85.391178407, 32.5540943 ], [ -85.391935602, 32.553865194 ], [ -85.393504106, 32.5526051 ], [ -85.393585302, 32.552375995 ] ] } }
]
}
