{
"type": "FeatureCollection",
"name": "USGS_02423647_DM_12km",
"crs": { "type": "name", "properties": { "name": "urn:ogc:def:crs:OGC:1.3:CRS84" } },
"features": [
{ "type": "Feature", "properties": { "site_no": "02423647", "nhdplus_comid": "21658214", "navigation_mode": "DM", "requested_distance_km": 12.0, "start_source": "nwissite", "start_id": "USGS-02423647", "geometry_length_km": 0.32974392418676896 }, "geometry": { "type": "LineString", "coordinates": [ [ -87.054053873, 33.096999041 ], [ -87.054115601, 33.096956596 ], [ -87.056338601, 33.094737194 ] ] } },
{ "type": "Feature", "properties": { "site_no": "02423647", "nhdplus_comid": "21658218", "navigation_mode": "DM", "requested_distance_km": 12.0, "start_source": "nwissite", "start_id": "USGS-02423647", "geometry_length_km": 1.261372125426055 }, "geometry": { "type": "LineString", "coordinates": [ [ -87.056338601, 33.094737194 ], [ -87.060713202, 33.090922795 ], [ -87.061526902, 33.089096799 ], [ -87.063763604, 33.0867524 ], [ -87.063852504, 33.085662596 ] ] } },
{ "type": "Feature", "properties": { "site_no": "02423647", "nhdplus_comid": "21658222", "navigation_mode": "DM", "requested_distance_km": 12.0, "start_source": "nwissite", "start_id": "USGS-02423647", "geometry_length_km": 0.17620002474426824 }, "geometry": { "type": "LineString", "coordinates": [ [ -87.063852504, 33.085662596 ], [ -87.063981101, 33.084087595 ] ] } },
{ "type": "Feature", "properties": { "site_no": "02423647", "nhdplus_comid": "21658224", "navigation_mode": "DM", "requested_distance_km": 12.0, "start_source": "nwissite", "start_id": "USGS-02423647", "geometry_length_km": 0.28034312835940634 }, "geometry": { "type": "LineString", "coordinates": [ [ -87.063981101, 33.084087595 ], [ -87.064151801, 33.081995398 ], [ -87.064365506, 33.081620693 ] ] } },
{ "type": "Feature", "properties": { "site_no": "02423647", "nhdplus_comid": "21658226", "navigation_mode": "DM", "requested_distance_km": 12.0, "start_source": "nwissite", "start_id": "USGS-02423647", "geometry_length_km": 0.26640206950272294 }, "geometry": { "type": "LineString", "coordinates": [ [ -87.064365506, 33.081620693 ], [ -87.064908601, 33.080668896 ], [ -87.066073604, 33.079752296 ] ] } },
{ "type": "Feature", "properties": { "site_no": "02423647", "nhdplus_comid": "21658232", "navigation_mode": "DM", "requested_distance_km": 12.0, "start_source": "nwissite", "start_id": "USGS-02423647", "geometry_length_km": 0.67330165487025939 }, "geometry": { "type": "LineString", "coordinates": [ [ -87.066073604, 33.079752296 ], [ -87.067374602, 33.078972295 ], [ -87.069905803, 33.0780368 ], [ -87.072057001, 33.0764414 ] ] } },
{ "type": "Feature", "properties": { "site_no": "02423647", "nhdplus_comid": "21658236", "navigation_mode": "DM", "requested_distance_km": 12.0, "start_source": "nwissite", "start_id": "USGS-02423647", "geometry_length_km": 0.11125689573636548 }, "geometry": { "type": "LineString", "coordinates": [ [ -87.072057001, 33.0764414 ], [ -87.0722607, 33.075459093 ] ] } },
{ "type": "Feature", "properties": { "site_no": "02423647", "nhdplus_comid": "21658238", "navigation_mode": "DM", "requested_distance_km": 12.0, "start_source": "nwissite", "start_id": "USGS-02423647", "geometry_length_km": 0.18142677214618066 }, "geometry": { "type": "LineString", "coordinates": [ [ -87.0722607, 33.075459093 ], [ -87.072391205, 33.074829794 ], [ -87.072944202, 33.073956497 ] ] } },
{ "type": "Feature", "properties": { "site_no": "02423647", "nhdplus_comid": "21658240", "navigation_mode": "DM", "requested_distance_km": 12.0, "start_source": "nwissite", "start_id": "USGS-02423647", "geometry_length_km": 0.72922312823804947 }, "geometry": { "type": "LineString", "coordinates": [ [ -87.072944202, 33.073956497 ], [ -87.073683403, 33.0727892 ], [ -87.074669704, 33.072110496 ], [ -87.076886006, 33.071276195 ], [ -87.078200907, 33.070371196 ], [ -87.078399904, 33.069682494 ] ] } },
{ "type": "Feature", "properties": { "site_no": "02423647", "nhdplus_comid": "21658242", "navigation_mode": "DM", "requested_distance_km": 12.0, "start_source": "nwissite", "start_id": "USGS-02423647", "geometry_length_km": 0.13628921665634353 }, "geometry": { "type": "LineString", "coordinates": [ [ -87.078399904, 33.069682494 ], [ -87.078450106, 33.069508798 ], [ -87.078524604, 33.068468198 ] ] } },
{ "type": "Feature", "properties": { "site_no": "02423647", "nhdplus_comid": "21658244", "navigation_mode": "DM", "requested_distance_km": 12.0, "start_source": "nwissite", "start_id": "USGS-02423647", "geometry_length_km": 0.1434536423888918 }, "geometry": { "type": "LineString", "coordinates": [ [ -87.078524604, 33.068468198 ], [ -87.078616403, 33.067185193 ] ] } },
{ "type": "Feature", "properties": { "site_no": "02423647", "nhdplus_comid": "21658246", "navigation_mode": "DM", "requested_distance_km": 12.0, "start_source": "nwissite", "start_id": "USGS-02423647", "geometry_length_km": 0.15360862184759583 }, "geometry": { "type": "LineString", "coordinates": [ [ -87.078616403, 33.067185193 ], [ -87.078710102, 33.065875493 ], [ -87.078769602, 33.0658345 ] ] } },
{ "type": "Feature", "properties": { "site_no": "02423647", "nhdplus_comid": "21658248", "navigation_mode": "DM", "requested_distance_km": 12.0, "start_source": "nwissite", "start_id": "USGS-02423647", "geometry_length_km": 0.1511042468595187 }, "geometry": { "type": "LineString", "coordinates": [ [ -87.078769602, 33.0658345 ], [ -87.079038806, 33.065649197 ], [ -87.079463907, 33.064646393 ] ] } },
{ "type": "Feature", "properties": { "site_no": "02423647", "nhdplus_comid": "21658250", "navigation_mode": "DM", "requested_distance_km": 12.0, "start_source": "nwissite", "start_id": "USGS-02423647", "geometry_length_km": 0.16993690881616175 }, "geometry": { "type": "LineString", "coordinates": [ [ -87.079463907, 33.064646393 ], [ -87.080072604, 33.063210398 ] ] } },
{ "type": "Feature", "properties": { "site_no": "02423647", "nhdplus_comid": "21658254", "navigation_mode": "DM", "requested_distance_km": 12.0, "start_source": "nwissite", "start_id": "USGS-02423647", "geometry_length_km": 0.094615262508355086 }, "geometry": { "type": "LineString", "coordinates": [ [ -87.080072604, 33.063210398 ], [ -87.080119804, 33.062363595 ] ] } },
{ "type": "Feature", "properties": { "site_no": "02423647", "nhdplus_comid": "21667186", "navigation_mode": "DM", "requested_distance_km": 12.0, "start_source": "nwissite", "start_id": "USGS-02423647", "geometry_length_km": 1.0932034975798328 }, "geometry": { "type": "LineString", "coordinates": [ [ -87.080119804, 33.062363595 ], [ -87.080219403, 33.060576096 ], [ -87.079745807, 33.0594052 ], [ -87.079751201, 33.058019698 ], [ -87.081156, 33.054979898 ], [ -87.081797101, 33.052919798 ] ] } },
{ "type": "Feature", "properties": { "site_no": "02423647", "nhdplus_comid": "21658266", "navigation_mode": "DM", "requested_distance_km": 12.0, "start_source": "nwissite", "start_id": "USGS-02423647", "geometry_length_km": 0.029455009407277206 }, "geometry": { "type": "LineString", "coordinates": [ [ -87.081797101, 33.052919798 ], [ -87.081560604, 33.0527438 ] ] } },
{ "type": "Feature", "properties": { "site_no": "02423647", "nhdplus_comid": "21658274", "navigation_mode": "DM", "requested_distance_km": 12.0, "start_source": "nwissite", "start_id": "USGS-02423647", "geometry_length_km": 0.32073143822507572 }, "geometry": { "type": "LineString", "coordinates": [ [ -87.081560604, 33.0527438 ], [ -87.0807302, 33.052048795 ], [ -87.080772601, 33.051674195 ], [ -87.080270804, 33.050752997 ], [ -87.0805915, 33.050322495 ] ] } },
{ "type": "Feature", "properties": { "site_no": "02423647", "nhdplus_comid": "21667248", "navigation_mode": "DM", "requested_distance_km": 12.0, "start_source": "nwissite", "start_id": "USGS-02423647", "geometry_length_km": 1.0521164884402991 }, "geometry": { "type": "LineString", "coordinates": [ [ -87.0805915, 33.050322495 ], [ -87.079037607, 33.048262596 ], [ -87.077073202, 33.044202998 ], [ -87.076455005, 33.041634798 ] ] } },
{ "type": "Feature", "properties": { "site_no": "02423647", "nhdplus_comid": "21658314", "navigation_mode": "DM", "requested_distance_km": 12.0, "start_source": "nwissite", "start_id": "USGS-02423647", "geometry_length_km": 0.7911667394661599 }, "geometry": { "type": "LineString", "coordinates": [ [ -87.076455005, 33.041634798 ], [ -87.0774462, 33.039570495 ], [ -87.079230607, 33.0371904 ], [ -87.080289602, 33.035326995 ] ] } },
{ "type": "Feature", "properties": { "site_no": "02423647", "nhdplus_comid": "21667250", "navigation_mode": "DM", "requested_distance_km": 12.0, "start_source": "nwissite", "start_id": "USGS-02423647", "geometry_length_km": 0.00083639853109266043 }, "geometry": { "type": "LineString", "coordinates": [ [ -87.080289602, 33.035326995 ], [ -87.080293402, 33.0353202 ] ] } },
{ "type": "Feature", "properties": { "site_no": "02423647", "nhdplus_comid": "21658278", "navigation_mode": "DM", "requested_distance_km": 12.0, "start_source": "nwissite", "start_id": "USGS-02423647", "geometry_length_km": 2.27256952592623 }, "geometry": { "type": "LineString", "coordinates": [ [ -87.080293402, 33.0353202 ], [ -87.080293804, 33.035319597 ], [ -87.079119407, 33.034157798 ], [ -87.078547105, 33.033860996 ], [ -87.077960603, 33.033689097 ], [ -87.074042603, 33.033508196 ], [ -87.073320106, 33.033199593 ], [ -87.0716317, 33.032059297 ], [ -87.070027903, 33.030169696 ], [ -87.069784202, 33.029646598 ], [ -87.070095502, 33.026899099 ], [ -87.070701607, 33.025560595 ], [ -87.071030103, 33.025334395 ], [ -87.071500205, 33.0238593 ], [ -87.071828701, 33.023632996 ], [ -87.072106205, 33.022520795 ], [ -87.072819807, 33.021568693 ], [ -87.072731905, 33.021114893 ] ] } },
{ "type": "Feature", "properties": { "site_no": "02423647", "nhdplus_comid": "21658302", "navigation_mode": "DM", "requested_distance_km": 12.0, "start_source": "nwissite", "start_id": "USGS-02423647", "geometry_length_km": 0.021696153558684518 }, "geometry": { "type": "LineString", "coordinates": [ [ -87.072731905, 33.021114893 ], [ -87.072777301, 33.020924196 ] ] } },
{ "type": "Feature", "properties": { "site_no": "02423647", "nhdplus_comid": "21658300", "navigation_mode": "DM", "requested_distance_km": 12.0, "start_source": "nwissite", "start_id": "USGS-02423647", "geometry_length_km": 0.011596292752920682 }, "geometry": { "type": "LineString", "coordinates": [ [ -87.072777301, 33.020924196 ], [ -87.072845407, 33.020837098 ] ] } },
{ "type": "Feature", "properties": { "site_no": "02423647", "nhdplus_comid": "21658286", "navigation_mode": "DM", "requested_distance_km": 12.0, "start_source": "nwissite", "start_id": "USGS-02423647", "geometry_length_km": 1.123576317992057 }, "geometry": { "type": "LineString", "coordinates": [ [ -87.072845407, 33.020837098 ], [ -87.074040405, 33.020152397 ], [ -87.075298004, 33.019746996 ], [ -87.077920705, 33.0193225 ], [ -87.080135502, 33.018487997 ], [ -87.081613801, 33.017469794 ], [ -87.083066404, 33.016008593 ] ] } }
]
}
