{
"type": "FeatureCollection",
"name": "USGS_02461500_DM_12km",
"crs": { "type": "name", "properties": { "name": "urn:ogc:def:crs:OGC:1.3:CRS84" } },
"features": [
{ "type": "Feature", "properties": { "site_no": "02461500", "nhdplus_comid": "18225427", "navigation_mode": "DM", "requested_distance_km": 12.0, "start_source": "nwissite", "start_id": "USGS-02461500", "geometry_length_km": 2.4223716638000088 }, "geometry": { "type": "LineString", "coordinates": [ [ -86.982249628, 33.420105845 ], [ -86.982824303, 33.419803597 ], [ -86.983451702, 33.419046998 ], [ -86.983696006, 33.417786695 ], [ -86.983776204, 33.416297495 ], [ -86.983885303, 33.416182794 ], [ -86.984071702, 33.412402496 ], [ -86.984561205, 33.410615094 ], [ -86.984915502, 33.409950398 ], [ -86.985133104, 33.409171194 ], [ -86.9850481, 33.406742796 ], [ -86.9851024, 33.406421997 ], [ -86.985293105, 33.4061011 ], [ -86.985675305, 33.4058946 ], [ -86.986549102, 33.405595995 ], [ -86.987231404, 33.405160099 ], [ -86.989905506, 33.402935393 ], [ -86.990560003, 33.402178794 ], [ -86.991214603, 33.401513696 ], [ -86.991323501, 33.401284494 ] ] } },
{ "type": "Feature", "properties": { "site_no": "02461500", "nhdplus_comid": "18225431", "navigation_mode": "DM", "requested_distance_km": 12.0, "start_source": "nwissite", "start_id": "USGS-02461500", "geometry_length_km": 0.96700368108971024 }, "geometry": { "type": "LineString", "coordinates": [ [ -86.991323501, 33.401284494 ], [ -86.993261606, 33.400297597 ], [ -86.997683801, 33.398460396 ], [ -86.998911902, 33.397680394 ], [ -86.999993503, 33.3966024 ] ] } },
{ "type": "Feature", "properties": { "site_no": "02461500", "nhdplus_comid": "18230177", "navigation_mode": "DM", "requested_distance_km": 12.0, "start_source": "nwissite", "start_id": "USGS-02461500", "geometry_length_km": 0.1722718277333313 }, "geometry": { "type": "LineString", "coordinates": [ [ -86.999993503, 33.3966024 ], [ -87.000036202, 33.396462195 ], [ -87.000057302, 33.395490393 ], [ -86.999993503, 33.395067498 ] ] } },
{ "type": "Feature", "properties": { "site_no": "02461500", "nhdplus_comid": "18227641", "navigation_mode": "DM", "requested_distance_km": 12.0, "start_source": "nwissite", "start_id": "USGS-02461500", "geometry_length_km": 0.29170136481416803 }, "geometry": { "type": "LineString", "coordinates": [ [ -86.999993503, 33.395067498 ], [ -87.000341706, 33.394861594 ], [ -87.001162402, 33.393945999 ], [ -87.0018185, 33.3935114 ], [ -87.002310306, 33.393397294 ] ] } },
{ "type": "Feature", "properties": { "site_no": "02461500", "nhdplus_comid": "18229405", "navigation_mode": "DM", "requested_distance_km": 12.0, "start_source": "nwissite", "start_id": "USGS-02461500", "geometry_length_km": 0.013766291545582931 }, "geometry": { "type": "LineString", "coordinates": [ [ -87.002310306, 33.393397294 ], [ -87.002355807, 33.393313594 ], [ -87.002393804, 33.393315494 ] ] } },
{ "type": "Feature", "properties": { "site_no": "02461500", "nhdplus_comid": "18229407", "navigation_mode": "DM", "requested_distance_km": 12.0, "start_source": "nwissite", "start_id": "USGS-02461500", "geometry_length_km": 0.136094036192068 }, "geometry": { "type": "LineString", "coordinates": [ [ -87.002393804, 33.393315494 ], [ -87.002669103, 33.393328898 ], [ -87.0031645, 33.392990097 ], [ -87.003262207, 33.392635696 ], [ -87.003349401, 33.392573595 ] ] } },
{ "type": "Feature", "properties": { "site_no": "02461500", "nhdplus_comid": "18227687", "navigation_mode": "DM", "requested_distance_km": 12.0, "start_source": "nwissite", "start_id": "USGS-02461500", "geometry_length_km": 1.4580622275135133 }, "geometry": { "type": "LineString", "coordinates": [ [ -87.003349401, 33.392573595 ], [ -87.003842905, 33.391084895 ], [ -87.004500002, 33.389985897 ], [ -87.0049375, 33.389596693 ], [ -87.005976103, 33.388956293 ], [ -87.006440505, 33.388865098 ], [ -87.006822303, 33.389231995 ], [ -87.006931007, 33.389690399 ], [ -87.007340103, 33.390057296 ], [ -87.0092232, 33.3911817 ], [ -87.010969907, 33.392122693 ], [ -87.011843503, 33.392444193 ], [ -87.012144104, 33.392329998 ], [ -87.012718305, 33.391757697 ], [ -87.013184205, 33.390429296 ] ] } },
{ "type": "Feature", "properties": { "site_no": "02461500", "nhdplus_comid": "18227697", "navigation_mode": "DM", "requested_distance_km": 12.0, "start_source": "nwissite", "start_id": "USGS-02461500", "geometry_length_km": 0.91109273560973902 }, "geometry": { "type": "LineString", "coordinates": [ [ -87.013184205, 33.390429296 ], [ -87.013703302, 33.390292294 ], [ -87.0159977, 33.390065193 ], [ -87.019602701, 33.390137196 ], [ -87.022335805, 33.388466999 ] ] } },
{ "type": "Feature", "properties": { "site_no": "02461500", "nhdplus_comid": "18227699", "navigation_mode": "DM", "requested_distance_km": 12.0, "start_source": "nwissite", "start_id": "USGS-02461500", "geometry_length_km": 0.53959084879791319 }, "geometry": { "type": "LineString", "coordinates": [ [ -87.022335805, 33.388466999 ], [ -87.022854604, 33.388513297 ], [ -87.023100302, 33.388650894 ], [ -87.023318402, 33.388994694 ], [ -87.023235604, 33.389704898 ], [ -87.023371503, 33.3902319 ], [ -87.023889303, 33.3912175 ], [ -87.024543703, 33.392180294 ], [ -87.024898604, 33.392340995 ] ] } },
{ "type": "Feature", "properties": { "site_no": "02461500", "nhdplus_comid": "18227655", "navigation_mode": "DM", "requested_distance_km": 12.0, "start_source": "nwissite", "start_id": "USGS-02461500", "geometry_length_km": 1.148115094974302 }, "geometry": { "type": "LineString", "coordinates": [ [ -87.024898604, 33.392340995 ], [ -87.028967805, 33.392481595 ], [ -87.030333206, 33.392780595 ], [ -87.033309303, 33.393607497 ], [ -87.036913805, 33.394343294 ], [ -87.036941007, 33.394412093 ] ] } },
{ "type": "Feature", "properties": { "site_no": "02461500", "nhdplus_comid": "18227767", "navigation_mode": "DM", "requested_distance_km": 12.0, "start_source": "nwissite", "start_id": "USGS-02461500", "geometry_length_km": 4.4569081146150182 }, "geometry": { "type": "LineString", "coordinates": [ [ -87.036941007, 33.394412093 ], [ -87.037760407, 33.3944126 ], [ -87.038088307, 33.394229494 ], [ -87.038307101, 33.393931895 ], [ -87.038336501, 33.391824096 ], [ -87.038501002, 33.3912744 ], [ -87.038719505, 33.391159996 ], [ -87.039511502, 33.391160496 ], [ -87.040248603, 33.391527593 ], [ -87.041804805, 33.392078593 ], [ -87.043770403, 33.393087894 ], [ -87.0450534, 33.393844798 ], [ -87.045572005, 33.394234695 ], [ -87.046036102, 33.394349493 ], [ -87.046719104, 33.394235298 ], [ -87.0480306, 33.393571794 ], [ -87.048303902, 33.393342793 ], [ -87.048440702, 33.393090896 ], [ -87.048441201, 33.392518096 ], [ -87.048250705, 33.391807795 ], [ -87.047923304, 33.391303599 ], [ -87.0475692, 33.390272394 ], [ -87.047597505, 33.389241397 ], [ -87.047243103, 33.388324797 ], [ -87.046779305, 33.387797594 ], [ -87.044403605, 33.387429498 ], [ -87.042520106, 33.386511795 ], [ -87.042438306, 33.386374295 ], [ -87.042520702, 33.385939099 ], [ -87.043039903, 33.385527 ], [ -87.0434497, 33.3853212 ], [ -87.044078305, 33.384771697 ], [ -87.044625401, 33.383763999 ], [ -87.044789806, 33.383214295 ], [ -87.045035906, 33.3828936 ], [ -87.045363702, 33.382825099 ], [ -87.045609303, 33.383077294 ], [ -87.0456907, 33.383466899 ], [ -87.045909002, 33.383787699 ], [ -87.046373107, 33.383971296 ], [ -87.046700701, 33.384017296 ], [ -87.046946704, 33.383834198 ], [ -87.047193006, 33.3831928 ], [ -87.047193803, 33.382368095 ], [ -87.046811901, 33.3818409 ], [ -87.045611307, 33.380763397 ], [ -87.045420401, 33.380488396 ], [ -87.045311503, 33.380121596 ], [ -87.045503102, 33.379617698 ], [ -87.046213701, 33.378862098 ], [ -87.04676, 33.378725 ], [ -87.047087602, 33.378931396 ], [ -87.047578506, 33.379619099 ], [ -87.048069805, 33.379871398 ], [ -87.048506707, 33.379871696 ], [ -87.048944406, 33.379024297 ], [ -87.049327105, 33.378634997 ], [ -87.049873404, 33.378451996 ] ] } }
]
}
