{
"type": "FeatureCollection",
"name": "USGS_03584500_DM_12km",
"crs": { "type": "name", "properties": { "name": "urn:ogc:def:crs:OGC:1.3:CRS84" } },
"features": [
{ "type": "Feature", "properties": { "site_no": "03584500", "nhdplus_comid": "19594720", "navigation_mode": "DM", "requested_distance_km": 12.0, "start_source": "nwissite", "start_id": "USGS-03584500", "geometry_length_km": 2.1137123458433895 }, "geometry": { "type": "LineString", "coordinates": [ [ -86.947483671, 35.027706495 ], [ -86.947650507, 35.027324393 ], [ -86.9471469, 35.024461597 ], [ -86.946476102, 35.021507293 ], [ -86.945638701, 35.019056998 ], [ -86.945471406, 35.018782295 ], [ -86.944217302, 35.017454594 ], [ -86.9436322, 35.0167678 ], [ -86.941653803, 35.014753297 ], [ -86.940427706, 35.013356797 ], [ -86.939703107, 35.012349397 ], [ -86.939647302, 35.012166195 ], [ -86.9394795, 35.011227295 ], [ -86.939646207, 35.010906495 ], [ -86.939701706, 35.010608695 ] ] } },
{ "type": "Feature", "properties": { "site_no": "03584500", "nhdplus_comid": "19594736", "navigation_mode": "DM", "requested_distance_km": 12.0, "start_source": "nwissite", "start_id": "USGS-03584500", "geometry_length_km": 0.69383840990895007 }, "geometry": { "type": "LineString", "coordinates": [ [ -86.939701706, 35.010608695 ], [ -86.940592006, 35.009852394 ], [ -86.942094602, 35.009072796 ], [ -86.9431521, 35.008659899 ], [ -86.946297005, 35.007581599 ] ] } },
{ "type": "Feature", "properties": { "site_no": "03584500", "nhdplus_comid": "19594738", "navigation_mode": "DM", "requested_distance_km": 12.0, "start_source": "nwissite", "start_id": "USGS-03584500", "geometry_length_km": 0.50907861839170865 }, "geometry": { "type": "LineString", "coordinates": [ [ -86.946297005, 35.007581599 ], [ -86.948774502, 35.007534198 ], [ -86.950083002, 35.007716596 ], [ -86.951837204, 35.008104898 ] ] } },
{ "type": "Feature", "properties": { "site_no": "03584500", "nhdplus_comid": "19594744", "navigation_mode": "DM", "requested_distance_km": 12.0, "start_source": "nwissite", "start_id": "USGS-03584500", "geometry_length_km": 1.6626582799541136 }, "geometry": { "type": "LineString", "coordinates": [ [ -86.951837204, 35.008104898 ], [ -86.952895202, 35.008241698 ], [ -86.954844005, 35.008377895 ], [ -86.957015306, 35.008399196 ], [ -86.958017401, 35.008238196 ], [ -86.960605502, 35.007365994 ], [ -86.9622472, 35.006723598 ], [ -86.964556307, 35.005347595 ], [ -86.966893807, 35.004704393 ], [ -86.969036803, 35.004359297 ] ] } },
{ "type": "Feature", "properties": { "site_no": "03584500", "nhdplus_comid": "19594748", "navigation_mode": "DM", "requested_distance_km": 12.0, "start_source": "nwissite", "start_id": "USGS-03584500", "geometry_length_km": 0.073476066060174802 }, "geometry": { "type": "LineString", "coordinates": [ [ -86.969036803, 35.004359297 ], [ -86.969816104, 35.004175395 ] ] } },
{ "type": "Feature", "properties": { "site_no": "03584500", "nhdplus_comid": "19594750", "navigation_mode": "DM", "requested_distance_km": 12.0, "start_source": "nwissite", "start_id": "USGS-03584500", "geometry_length_km": 1.5194488264137336 }, "geometry": { "type": "LineString", "coordinates": [ [ -86.969816104, 35.004175395 ], [ -86.971736602, 35.003990695 ], [ -86.976135105, 35.004170299 ], [ -86.978250906, 35.004328899 ], [ -86.979281105, 35.004556999 ], [ -86.979754604, 35.004785597 ], [ -86.980841301, 35.005654998 ], [ -86.981426805, 35.006364696 ], [ -86.981844902, 35.006707795 ], [ -86.982067905, 35.007005394 ], [ -86.983851403, 35.008332297 ], [ -86.984158002, 35.008652598 ], [ -86.984186001, 35.008789994 ] ] } },
{ "type": "Feature", "properties": { "site_no": "03584500", "nhdplus_comid": "19594730", "navigation_mode": "DM", "requested_distance_km": 12.0, "start_source": "nwissite", "start_id": "USGS-03584500", "geometry_length_km": 0.063456875462780102 }, "geometry": { "type": "LineString", "coordinates": [ [ -86.984186001, 35.008789994 ], [ -86.984548301, 35.009110399 ], [ -86.984632, 35.009224795 ] ] } },
{ "type": "Feature", "properties": { "site_no": "03584500", "nhdplus_comid": "19594724", "navigation_mode": "DM", "requested_distance_km": 12.0, "start_source": "nwissite", "start_id": "USGS-03584500", "geometry_length_km": 0.030229326333144287 }, "geometry": { "type": "LineString", "coordinates": [ [ -86.984632, 35.009224795 ], [ -86.984966002, 35.009224497 ] ] } },
{ "type": "Feature", "properties": { "site_no": "03584500", "nhdplus_comid": "19594728", "navigation_mode": "DM", "requested_distance_km": 12.0, "start_source": "nwissite", "start_id": "USGS-03584500", "geometry_length_km": 0.95810988422378307 }, "geometry": { "type": "LineString", "coordinates": [ [ -86.984966002, 35.009224497 ], [ -86.985550404, 35.0089949 ], [ -86.985940106, 35.009017393 ], [ -86.987472303, 35.009794794 ], [ -86.989562504, 35.011464797 ], [ -86.990398005, 35.011715896 ], [ -86.9912064, 35.012356497 ], [ -86.993407302, 35.013430893 ], [ -86.993463106, 35.013591096 ] ] } },
{ "type": "Feature", "properties": { "site_no": "03584500", "nhdplus_comid": "19594712", "navigation_mode": "DM", "requested_distance_km": 12.0, "start_source": "nwissite", "start_id": "USGS-03584500", "geometry_length_km": 0.38500013280388695 }, "geometry": { "type": "LineString", "coordinates": [ [ -86.993463106, 35.013591096 ], [ -86.997250006, 35.014068395 ], [ -86.997667603, 35.014022097 ] ] } },
{ "type": "Feature", "properties": { "site_no": "03584500", "nhdplus_comid": "19594710", "navigation_mode": "DM", "requested_distance_km": 12.0, "start_source": "nwissite", "start_id": "USGS-03584500", "geometry_length_km": 0.21511571041856958 }, "geometry": { "type": "LineString", "coordinates": [ [ -86.997667603, 35.014022097 ], [ -86.9978626, 35.014113598 ], [ -87.000007607, 35.0142489 ] ] } },
{ "type": "Feature", "properties": { "site_no": "03584500", "nhdplus_comid": "19596640", "navigation_mode": "DM", "requested_distance_km": 12.0, "start_source": "nwissite", "start_id": "USGS-03584500", "geometry_length_km": 0.10347420006746876 }, "geometry": { "type": "LineString", "coordinates": [ [ -87.000007607, 35.0142489 ], [ -87.001121901, 35.014456093 ] ] } },
{ "type": "Feature", "properties": { "site_no": "03584500", "nhdplus_comid": "19596656", "navigation_mode": "DM", "requested_distance_km": 12.0, "start_source": "nwissite", "start_id": "USGS-03584500", "geometry_length_km": 0.75413665243987493 }, "geometry": { "type": "LineString", "coordinates": [ [ -87.001121901, 35.014456093 ], [ -87.003100105, 35.013473198 ], [ -87.004688807, 35.012260899 ], [ -87.005748302, 35.0111854 ], [ -87.006863907, 35.009720594 ] ] } },
{ "type": "Feature", "properties": { "site_no": "03584500", "nhdplus_comid": "19596904", "navigation_mode": "DM", "requested_distance_km": 12.0, "start_source": "nwissite", "start_id": "USGS-03584500", "geometry_length_km": 0.01796583740334725 }, "geometry": { "type": "LineString", "coordinates": [ [ -87.006863907, 35.009720594 ], [ -87.006815203, 35.0096673 ], [ -87.006864101, 35.0095817 ] ] } },
{ "type": "Feature", "properties": { "site_no": "03584500", "nhdplus_comid": "19596906", "navigation_mode": "DM", "requested_distance_km": 12.0, "start_source": "nwissite", "start_id": "USGS-03584500", "geometry_length_km": 1.3365201732701713 }, "geometry": { "type": "LineString", "coordinates": [ [ -87.006864101, 35.0095817 ], [ -87.007316001, 35.008791097 ], [ -87.007873602, 35.008295298 ], [ -87.0079206, 35.007894896 ], [ -87.010048606, 35.005364895 ], [ -87.010126807, 35.004697599 ], [ -87.0104881, 35.004455999 ], [ -87.010747001, 35.003667794 ], [ -87.0133541, 35.001309194 ], [ -87.015176207, 35.000090495 ] ] } },
{ "type": "Feature", "properties": { "site_no": "03584500", "nhdplus_comid": "19601082", "navigation_mode": "DM", "requested_distance_km": 12.0, "start_source": "nwissite", "start_id": "USGS-03584500", "geometry_length_km": 0.35754785116290266 }, "geometry": { "type": "LineString", "coordinates": [ [ -87.015176207, 35.000090495 ], [ -87.015188903, 35.000048794 ], [ -87.015320502, 34.999956898 ], [ -87.015839405, 34.999741696 ], [ -87.016679704, 34.999742493 ], [ -87.017295301, 34.999912895 ], [ -87.018025003, 34.9999604 ], [ -87.018763706, 35.000021294 ], [ -87.018914804, 35.000091895 ] ] } },
{ "type": "Feature", "properties": { "site_no": "03584500", "nhdplus_comid": "19596908", "navigation_mode": "DM", "requested_distance_km": 12.0, "start_source": "nwissite", "start_id": "USGS-03584500", "geometry_length_km": 0.91512897007563532 }, "geometry": { "type": "LineString", "coordinates": [ [ -87.018914804, 35.000091895 ], [ -87.021806203, 35.000206798 ], [ -87.023919605, 35.000638098 ], [ -87.026559301, 35.000840396 ], [ -87.027894706, 35.000807993 ], [ -87.0289158, 35.000616893 ] ] } },
{ "type": "Feature", "properties": { "site_no": "03584500", "nhdplus_comid": "19596912", "navigation_mode": "DM", "requested_distance_km": 12.0, "start_source": "nwissite", "start_id": "USGS-03584500", "geometry_length_km": 0.09155826542599628 }, "geometry": { "type": "LineString", "coordinates": [ [ -87.0289158, 35.000616893 ], [ -87.029695302, 35.000095397 ] ] } }
]
}
