{
"type": "FeatureCollection",
"name": "USGS_02467000_UM_12km",
"crs": { "type": "name", "properties": { "name": "urn:ogc:def:crs:OGC:1.3:CRS84" } },
"features": [
{ "type": "Feature", "properties": { "site_no": "02467000", "nhdplus_comid": "18540822", "navigation_mode": "UM", "requested_distance_km": 12.0, "start_source": "nwissite", "start_id": "USGS-02467000", "geometry_length_km": 0.82411432128435591 }, "geometry": { "type": "LineString", "coordinates": [ [ -87.870396905, 32.517896898 ], [ -87.8710922, 32.518450797 ], [ -87.872435801, 32.518547297 ], [ -87.874611206, 32.519333594 ], [ -87.876014501, 32.5203164 ], [ -87.878320276, 32.520481909 ] ] } },
{ "type": "Feature", "properties": { "site_no": "02467000", "nhdplus_comid": "18540828", "navigation_mode": "UM", "requested_distance_km": 12.0, "start_source": "nwissite", "start_id": "USGS-02467000", "geometry_length_km": 1.6127600483899691 }, "geometry": { "type": "LineString", "coordinates": [ [ -87.853707105, 32.514932394 ], [ -87.854726501, 32.515257798 ], [ -87.858471304, 32.515401296 ], [ -87.860087804, 32.515769593 ], [ -87.862177804, 32.515919998 ], [ -87.862898603, 32.516223796 ], [ -87.864975803, 32.516499199 ], [ -87.865982302, 32.516949594 ], [ -87.868358105, 32.517246298 ], [ -87.870098405, 32.517875396 ], [ -87.870396905, 32.517896898 ] ] } },
{ "type": "Feature", "properties": { "site_no": "02467000", "nhdplus_comid": "18540826", "navigation_mode": "UM", "requested_distance_km": 12.0, "start_source": "nwissite", "start_id": "USGS-02467000", "geometry_length_km": 0.20812597732310556 }, "geometry": { "type": "LineString", "coordinates": [ [ -87.851553001, 32.515407294 ], [ -87.853707105, 32.514932394 ] ] } },
{ "type": "Feature", "properties": { "site_no": "02467000", "nhdplus_comid": "18540824", "navigation_mode": "UM", "requested_distance_km": 12.0, "start_source": "nwissite", "start_id": "USGS-02467000", "geometry_length_km": 2.8128913225819061 }, "geometry": { "type": "LineString", "coordinates": [ [ -87.850697502, 32.531474099 ], [ -87.849910304, 32.5314174 ], [ -87.848468505, 32.530809596 ], [ -87.846975505, 32.530701995 ], [ -87.843994103, 32.528975196 ], [ -87.841414303, 32.526269093 ], [ -87.842278205, 32.520787194 ], [ -87.843716606, 32.518496796 ], [ -87.844689302, 32.517810896 ], [ -87.847005606, 32.517221794 ], [ -87.850943103, 32.515489399 ], [ -87.851553001, 32.515407294 ] ] } },
{ "type": "Feature", "properties": { "site_no": "02467000", "nhdplus_comid": "18540846", "navigation_mode": "UM", "requested_distance_km": 12.0, "start_source": "nwissite", "start_id": "USGS-02467000", "geometry_length_km": 0.30484009354829872 }, "geometry": { "type": "LineString", "coordinates": [ [ -87.853933804, 32.531824097 ], [ -87.850697502, 32.531474099 ] ] } },
{ "type": "Feature", "properties": { "site_no": "02467000", "nhdplus_comid": "18632638", "navigation_mode": "UM", "requested_distance_km": 12.0, "start_source": "nwissite", "start_id": "USGS-02467000", "geometry_length_km": 3.7033350209067213 }, "geometry": { "type": "LineString", "coordinates": [ [ -87.8729605, 32.554611497 ], [ -87.872900806, 32.553725295 ], [ -87.873651907, 32.552267194 ], [ -87.874155402, 32.5502875 ], [ -87.874893606, 32.548954494 ], [ -87.874961905, 32.546817496 ], [ -87.874245003, 32.545002095 ], [ -87.872879602, 32.543644093 ], [ -87.8727943, 32.543008 ], [ -87.871987902, 32.542068094 ], [ -87.871441804, 32.541524895 ], [ -87.870571405, 32.541210398 ], [ -87.869479202, 32.540123895 ], [ -87.868562005, 32.538798094 ], [ -87.863114402, 32.533240594 ], [ -87.861685306, 32.5325078 ], [ -87.860665806, 32.5321825 ], [ -87.853933804, 32.531824097 ] ] } },
{ "type": "Feature", "properties": { "site_no": "02467000", "nhdplus_comid": "18632634", "navigation_mode": "UM", "requested_distance_km": 12.0, "start_source": "nwissite", "start_id": "USGS-02467000", "geometry_length_km": 2.51231300732185 }, "geometry": { "type": "LineString", "coordinates": [ [ -87.877856202, 32.575877495 ], [ -87.8773866, 32.574583896 ], [ -87.875747502, 32.572954394 ], [ -87.8747188, 32.571242794 ], [ -87.873643205, 32.568519697 ], [ -87.874138303, 32.560743794 ], [ -87.8737927, 32.559710994 ], [ -87.873109803, 32.559031993 ], [ -87.872529507, 32.557352394 ], [ -87.8729605, 32.554611497 ] ] } }
]
}
