{
"type": "FeatureCollection",
"name": "USGS_02420980_UM_12km",
"crs": { "type": "name", "properties": { "name": "urn:ogc:def:crs:OGC:1.3:CRS84" } },
"features": [
{ "type": "Feature", "properties": { "site_no": "02420980", "nhdplus_comid": "21686572", "navigation_mode": "UM", "requested_distance_km": 12.0, "start_source": "nwissite", "start_id": "USGS-02420980", "geometry_length_km": 3.3136103791353668 }, "geometry": { "type": "LineString", "coordinates": [ [ -86.241393901, 32.337527595 ], [ -86.241363004, 32.334457293 ], [ -86.241281606, 32.334113695 ], [ -86.241578102, 32.333769798 ], [ -86.242089801, 32.332967393 ], [ -86.242088906, 32.332257099 ], [ -86.2417363, 32.330997199 ], [ -86.241762705, 32.330401495 ], [ -86.242301501, 32.329736397 ], [ -86.243083104, 32.328887999 ], [ -86.243298203, 32.328314893 ], [ -86.244807504, 32.326869994 ], [ -86.246884704, 32.3263181 ], [ -86.247585706, 32.3258821 ], [ -86.248097703, 32.325377494 ], [ -86.248393506, 32.324506499 ], [ -86.2489594, 32.323910199 ], [ -86.249363802, 32.3236349 ], [ -86.249957204, 32.323473997 ], [ -86.250436105, 32.323423393 ], [ -86.250949301, 32.323080197 ], [ -86.252948806, 32.321134597 ], [ -86.255407102, 32.319074795 ], [ -86.256811202, 32.318342894 ], [ -86.258323006, 32.3177258 ], [ -86.260051206, 32.316696197 ], [ -86.260942206, 32.316261694 ], [ -86.261126853, 32.316105223 ] ] } },
{ "type": "Feature", "properties": { "site_no": "02420980", "nhdplus_comid": "21681890", "navigation_mode": "UM", "requested_distance_km": 12.0, "start_source": "nwissite", "start_id": "USGS-02420980", "geometry_length_km": 0.86651708121208748 }, "geometry": { "type": "LineString", "coordinates": [ [ -86.238325603, 32.344335593 ], [ -86.238135405, 32.3433505 ], [ -86.238134004, 32.342250593 ], [ -86.238376103, 32.341494195 ], [ -86.238860503, 32.340485699 ], [ -86.239183903, 32.339981295 ], [ -86.240207106, 32.338101499 ], [ -86.2410703, 32.337779999 ], [ -86.241393901, 32.337527595 ] ] } },
{ "type": "Feature", "properties": { "site_no": "02420980", "nhdplus_comid": "21681814", "navigation_mode": "UM", "requested_distance_km": 12.0, "start_source": "nwissite", "start_id": "USGS-02420980", "geometry_length_km": 1.7880971721639716 }, "geometry": { "type": "LineString", "coordinates": [ [ -86.229217507, 32.357495293 ], [ -86.229649, 32.357151099 ], [ -86.230511807, 32.356256798 ], [ -86.230754204, 32.355798297 ], [ -86.231050201, 32.3548816 ], [ -86.231209606, 32.352658898 ], [ -86.231344201, 32.3524068 ], [ -86.2321527, 32.351306297 ], [ -86.232799806, 32.350664295 ], [ -86.234229304, 32.349654794 ], [ -86.234822206, 32.348944098 ], [ -86.236060403, 32.346055999 ], [ -86.236733705, 32.344818197 ], [ -86.237138301, 32.3446116 ], [ -86.238325603, 32.344335593 ] ] } }
]
}
