{
"type": "FeatureCollection",
"name": "USGS_02342200_UM_12km",
"crs": { "type": "name", "properties": { "name": "urn:ogc:def:crs:OGC:1.3:CRS84" } },
"features": [
{ "type": "Feature", "properties": { "site_no": "02342200", "nhdplus_comid": "3431386", "navigation_mode": "UM", "requested_distance_km": 12.0, "start_source": "nwissite", "start_id": "USGS-02342200", "geometry_length_km": 0.62421081198692197 }, "geometry": { "type": "LineString", "coordinates": [ [ -85.278429307, 32.569357999 ], [ -85.278429702, 32.569106095 ], [ -85.277889706, 32.568143599 ], [ -85.277808607, 32.5680748 ], [ -85.277727805, 32.567845598 ], [ -85.277025506, 32.566882998 ], [ -85.276971802, 32.566562295 ], [ -85.276890703, 32.566539399 ], [ -85.276620902, 32.565851994 ], [ -85.276462866, 32.564158157 ] ] } },
{ "type": "Feature", "properties": { "site_no": "02342200", "nhdplus_comid": "3431052", "navigation_mode": "UM", "requested_distance_km": 12.0, "start_source": "nwissite", "start_id": "USGS-02342200", "geometry_length_km": 1.3896957146061115 }, "geometry": { "type": "LineString", "coordinates": [ [ -85.284288406, 32.580059595 ], [ -85.284316905, 32.578685299 ], [ -85.284101501, 32.577677295 ], [ -85.283669204, 32.577150099 ], [ -85.282966405, 32.576553993 ], [ -85.281965807, 32.576163895 ], [ -85.281993404, 32.575774498 ], [ -85.281749904, 32.575705595 ], [ -85.281723306, 32.575361997 ], [ -85.281426005, 32.575086899 ], [ -85.281371906, 32.575018093 ], [ -85.281021401, 32.573964097 ], [ -85.280940302, 32.573895395 ], [ -85.280886605, 32.5735517 ], [ -85.280157804, 32.571970694 ], [ -85.279833704, 32.571512297 ], [ -85.279428706, 32.570778996 ], [ -85.278618701, 32.569426894 ], [ -85.278429307, 32.569357999 ] ] } },
{ "type": "Feature", "properties": { "site_no": "02342200", "nhdplus_comid": "3431030", "navigation_mode": "UM", "requested_distance_km": 12.0, "start_source": "nwissite", "start_id": "USGS-02342200", "geometry_length_km": 1.0216633064763219 }, "geometry": { "type": "LineString", "coordinates": [ [ -85.285497501, 32.588146396 ], [ -85.285390005, 32.5875737 ], [ -85.285525903, 32.586863697 ], [ -85.285553902, 32.585832894 ], [ -85.285391904, 32.585512199 ], [ -85.284959503, 32.585168198 ], [ -85.284905702, 32.584824599 ], [ -85.285636701, 32.584344096 ], [ -85.2857721, 32.584160894 ], [ -85.286098301, 32.582718194 ], [ -85.286044605, 32.582282893 ], [ -85.285774805, 32.581618398 ], [ -85.285044901, 32.581045195 ], [ -85.285018004, 32.580838993 ], [ -85.284288406, 32.580059595 ] ] } },
{ "type": "Feature", "properties": { "site_no": "02342200", "nhdplus_comid": "3431020", "navigation_mode": "UM", "requested_distance_km": 12.0, "start_source": "nwissite", "start_id": "USGS-02342200", "geometry_length_km": 4.3470594631240234 }, "geometry": { "type": "LineString", "coordinates": [ [ -85.283194907, 32.616181597 ], [ -85.2828971, 32.616249993 ], [ -85.280975401, 32.616294295 ], [ -85.279947102, 32.616110295 ], [ -85.277701803, 32.615123495 ], [ -85.277080201, 32.614298396 ], [ -85.276755705, 32.614114799 ], [ -85.276349701, 32.614091694 ], [ -85.276079401, 32.613885298 ], [ -85.276025705, 32.613381296 ], [ -85.2757015, 32.612968698 ], [ -85.275783703, 32.6120525 ], [ -85.275594801, 32.6116172 ], [ -85.275623105, 32.610563599 ], [ -85.275813803, 32.609487094 ], [ -85.276355505, 32.609075293 ], [ -85.276355706, 32.608891994 ], [ -85.276247807, 32.608616993 ], [ -85.276248403, 32.608113199 ], [ -85.276492804, 32.607357495 ], [ -85.277088903, 32.606762297 ], [ -85.277224503, 32.606441796 ], [ -85.2780919, 32.605205595 ], [ -85.278660305, 32.605091497 ], [ -85.278904103, 32.604954198 ], [ -85.2791209, 32.604633793 ], [ -85.279445603, 32.604656897 ], [ -85.279526606, 32.604771495 ], [ -85.279689007, 32.604817398 ], [ -85.279959701, 32.604657397 ], [ -85.280556105, 32.603764497 ], [ -85.280826807, 32.603673093 ], [ -85.281313702, 32.603925399 ], [ -85.281665504, 32.603856996 ], [ -85.282911204, 32.603056297 ], [ -85.283317305, 32.602873296 ], [ -85.283858702, 32.602736294 ], [ -85.284291901, 32.602461696 ], [ -85.284779705, 32.6018207 ], [ -85.285213105, 32.601431698 ], [ -85.2861332, 32.601478197 ], [ -85.286268704, 32.6012263 ], [ -85.286052704, 32.600745097 ], [ -85.286053106, 32.600401498 ], [ -85.286432602, 32.599783398 ], [ -85.286487207, 32.599279493 ], [ -85.2865685, 32.599165 ], [ -85.286626004, 32.595820799 ], [ -85.286707304, 32.595752098 ], [ -85.286761805, 32.595385693 ], [ -85.286546104, 32.594583794 ], [ -85.286601007, 32.593873695 ], [ -85.286791004, 32.593255393 ], [ -85.286602303, 32.592613794 ], [ -85.286711603, 32.591537394 ], [ -85.287064202, 32.590781793 ], [ -85.287010603, 32.590231895 ], [ -85.286416605, 32.5889946 ], [ -85.285822004, 32.588352799 ], [ -85.285497501, 32.588146396 ] ] } },
{ "type": "Feature", "properties": { "site_no": "02342200", "nhdplus_comid": "3431000", "navigation_mode": "UM", "requested_distance_km": 12.0, "start_source": "nwissite", "start_id": "USGS-02342200", "geometry_length_km": 0.67420774142662243 }, "geometry": { "type": "LineString", "coordinates": [ [ -85.288958006, 32.617903799 ], [ -85.288930707, 32.6181328 ], [ -85.288795203, 32.618293099 ], [ -85.288361907, 32.618521795 ], [ -85.287982903, 32.618613198 ], [ -85.286954701, 32.6183834 ], [ -85.285899803, 32.617718294 ], [ -85.285466902, 32.617534794 ], [ -85.284114704, 32.616503 ], [ -85.283817306, 32.616181999 ], [ -85.283194907, 32.616181597 ] ] } }
]
}
