{
"type": "FeatureCollection",
"name": "USGS_03575830_DM_12km",
"crs": { "type": "name", "properties": { "name": "urn:ogc:def:crs:OGC:1.3:CRS84" } },
"features": [
{ "type": "Feature", "properties": { "site_no": "03575830", "nhdplus_comid": "19621386", "navigation_mode": "DM", "requested_distance_km": 12.0, "start_source": "nwissite", "start_id": "USGS-03575830", "geometry_length_km": 4.1235808356823087 }, "geometry": { "type": "LineString", "coordinates": [ [ -86.700197721, 34.697559967 ], [ -86.700178504, 34.697539896 ], [ -86.6994569, 34.6969219 ], [ -86.699317902, 34.696555495 ], [ -86.6991226, 34.6951354 ], [ -86.699009903, 34.693165593 ], [ -86.698399507, 34.692799494 ], [ -86.698288403, 34.692616299 ], [ -86.698232502, 34.692043699 ], [ -86.698426403, 34.691745795 ], [ -86.698426001, 34.691310599 ], [ -86.698314801, 34.691104494 ], [ -86.698453002, 34.690623298 ], [ -86.698813401, 34.690439895 ], [ -86.698868707, 34.690187894 ], [ -86.698729701, 34.689867295 ], [ -86.697536506, 34.688883096 ], [ -86.697369702, 34.688402198 ], [ -86.6973138, 34.687829599 ], [ -86.6979222, 34.686019599 ], [ -86.6979772, 34.685424 ], [ -86.697865807, 34.684828497 ], [ -86.697782502, 34.6847599 ], [ -86.6977823, 34.6844621 ], [ -86.698031403, 34.683980994 ], [ -86.698031105, 34.683499999 ], [ -86.698197104, 34.683224998 ], [ -86.698224701, 34.682950094 ], [ -86.697725102, 34.682423495 ], [ -86.697558403, 34.682057098 ], [ -86.697529905, 34.681095093 ], [ -86.697695702, 34.680522397 ], [ -86.698304802, 34.679445393 ], [ -86.699302301, 34.678597398 ], [ -86.6995515, 34.6782078 ], [ -86.699828006, 34.677360095 ], [ -86.699659303, 34.6746803 ], [ -86.699464902, 34.674359694 ], [ -86.698410504, 34.673283696 ], [ -86.698160507, 34.672848597 ], [ -86.697938204, 34.672184497 ], [ -86.698076107, 34.6713598 ], [ -86.698324807, 34.670443498 ], [ -86.698212005, 34.668152899 ], [ -86.697684601, 34.667420194 ], [ -86.697739705, 34.666984998 ], [ -86.697739102, 34.6663666 ], [ -86.697655901, 34.666274995 ], [ -86.697572105, 34.665496297 ], [ -86.6976825, 34.665015094 ], [ -86.6977088, 34.663365893 ] ] } },
{ "type": "Feature", "properties": { "site_no": "03575830", "nhdplus_comid": "19620398", "navigation_mode": "DM", "requested_distance_km": 12.0, "start_source": "nwissite", "start_id": "USGS-03575830", "geometry_length_km": 3.4408182238822529 }, "geometry": { "type": "LineString", "coordinates": [ [ -86.6977088, 34.663365893 ], [ -86.698318101, 34.6626096 ], [ -86.698261805, 34.661739193 ], [ -86.698483303, 34.661372699 ], [ -86.698982105, 34.6611204 ], [ -86.699286707, 34.660822399 ], [ -86.699314304, 34.660593294 ], [ -86.698537506, 34.660021096 ], [ -86.698509604, 34.6597692 ], [ -86.698648103, 34.659562893 ], [ -86.699257702, 34.659379393 ], [ -86.6994517, 34.659173094 ], [ -86.699478805, 34.658577494 ], [ -86.699312106, 34.6581195 ], [ -86.698063701, 34.656974897 ], [ -86.697758704, 34.656837694 ], [ -86.697592206, 34.656654499 ], [ -86.697369903, 34.655967496 ], [ -86.697203405, 34.6556926 ], [ -86.697202802, 34.65512 ], [ -86.697340906, 34.654432796 ], [ -86.697229803, 34.654135093 ], [ -86.696841404, 34.653906293 ], [ -86.696342506, 34.653906599 ], [ -86.695538804, 34.654204793 ], [ -86.695372306, 34.653998695 ], [ -86.695372, 34.653609298 ], [ -86.695510305, 34.653219797 ], [ -86.695509903, 34.652807496 ], [ -86.695260301, 34.652624398 ], [ -86.694706, 34.6526246 ], [ -86.694151603, 34.652739495 ], [ -86.694040701, 34.652647994 ], [ -86.692624003, 34.648777597 ], [ -86.692318603, 34.648090698 ], [ -86.692290604, 34.647792898 ], [ -86.692124106, 34.6475868 ], [ -86.691374101, 34.645411193 ], [ -86.6912909, 34.645365499 ], [ -86.691263005, 34.645021893 ], [ -86.690957502, 34.644243099 ], [ -86.690901101, 34.643074997 ], [ -86.690596104, 34.642754398 ], [ -86.690540105, 34.642136 ], [ -86.690318301, 34.641929999 ], [ -86.689542003, 34.641609699 ], [ -86.688682705, 34.641403995 ], [ -86.6884607, 34.641152196 ], [ -86.688238606, 34.640579499 ], [ -86.688155405, 34.640533797 ], [ -86.688099705, 34.640281893 ], [ -86.687489703, 34.639732495 ], [ -86.687433802, 34.639228597 ], [ -86.687322907, 34.639114097 ] ] } },
{ "type": "Feature", "properties": { "site_no": "03575830", "nhdplus_comid": "19621542", "navigation_mode": "DM", "requested_distance_km": 12.0, "start_source": "nwissite", "start_id": "USGS-03575830", "geometry_length_km": 0.69985971098335298 }, "geometry": { "type": "LineString", "coordinates": [ [ -86.687322907, 34.639114097 ], [ -86.687205203, 34.638977595 ], [ -86.6869689, 34.638686597 ], [ -86.687539205, 34.6367108 ], [ -86.687173106, 34.634255797 ], [ -86.687253803, 34.633588396 ], [ -86.687794603, 34.633227296 ] ] } },
{ "type": "Feature", "properties": { "site_no": "03575830", "nhdplus_comid": "19621550", "navigation_mode": "DM", "requested_distance_km": 12.0, "start_source": "nwissite", "start_id": "USGS-03575830", "geometry_length_km": 1.439394858063755 }, "geometry": { "type": "LineString", "coordinates": [ [ -86.687794603, 34.633227296 ], [ -86.688647605, 34.633025996 ], [ -86.689960703, 34.633130893 ], [ -86.691583104, 34.632047698 ], [ -86.691728204, 34.630846493 ], [ -86.693711005, 34.629522495 ], [ -86.693775505, 34.628988594 ], [ -86.694380805, 34.628093593 ], [ -86.694668107, 34.624343097 ], [ -86.695389003, 34.623861693 ] ] } },
{ "type": "Feature", "properties": { "site_no": "03575830", "nhdplus_comid": "19621552", "navigation_mode": "DM", "requested_distance_km": 12.0, "start_source": "nwissite", "start_id": "USGS-03575830", "geometry_length_km": 0.31172818345994574 }, "geometry": { "type": "LineString", "coordinates": [ [ -86.695389003, 34.623861693 ], [ -86.696866103, 34.623979695 ], [ -86.698146805, 34.624351494 ], [ -86.698597401, 34.624050595 ] ] } },
{ "type": "Feature", "properties": { "site_no": "03575830", "nhdplus_comid": "19621580", "navigation_mode": "DM", "requested_distance_km": 12.0, "start_source": "nwissite", "start_id": "USGS-03575830", "geometry_length_km": 4.5683655488552946 }, "geometry": { "type": "LineString", "coordinates": [ [ -86.698597401, 34.624050595 ], [ -86.698746003, 34.620760694 ], [ -86.698630303, 34.620347194 ], [ -86.697134204, 34.6190148 ], [ -86.697198704, 34.618480898 ], [ -86.6969188, 34.618054196 ], [ -86.697015502, 34.617253393 ], [ -86.698277004, 34.616410799 ], [ -86.698669702, 34.615903094 ], [ -86.698750205, 34.615235694 ], [ -86.696826406, 34.613330096 ], [ -86.696038201, 34.612997599 ], [ -86.695002407, 34.611971498 ], [ -86.694951102, 34.611024 ], [ -86.693439201, 34.609825 ], [ -86.693105206, 34.607102998 ], [ -86.691773601, 34.605783693 ], [ -86.691805907, 34.605516694 ], [ -86.6909343, 34.604503699 ], [ -86.691031002, 34.603702798 ], [ -86.690339603, 34.602569394 ], [ -86.690484703, 34.601368099 ], [ -86.692827202, 34.599803299 ], [ -86.693483502, 34.599855796 ], [ -86.694239303, 34.600455299 ], [ -86.696372204, 34.600625694 ], [ -86.698459804, 34.602544494 ], [ -86.699280106, 34.602609999 ], [ -86.700181, 34.602008097 ], [ -86.700911805, 34.598697297 ], [ -86.700908802, 34.597349398 ] ] } }
]
}
