{
"type": "FeatureCollection",
"name": "USGS_03589500_UM_12km",
"crs": { "type": "name", "properties": { "name": "urn:ogc:def:crs:OGC:1.3:CRS84" } },
"features": [
{ "type": "Feature", "properties": { "site_no": "03589500", "nhdplus_comid": "19623652", "navigation_mode": "UM", "requested_distance_km": 12.0, "start_source": "nwissite", "start_id": "USGS-03589500", "geometry_length_km": 0.028755625766516513 }, "geometry": { "type": "LineString", "coordinates": [ [ -87.668134004, 34.7826593 ], [ -87.668450576, 34.782649871 ] ] } },
{ "type": "Feature", "properties": { "site_no": "03589500", "nhdplus_comid": "19623648", "navigation_mode": "UM", "requested_distance_km": 12.0, "start_source": "nwissite", "start_id": "USGS-03589500", "geometry_length_km": 2.1244862923647783 }, "geometry": { "type": "LineString", "coordinates": [ [ -87.647157304, 34.790988095 ], [ -87.6543274, 34.787596695 ], [ -87.664130807, 34.784392893 ], [ -87.668134004, 34.7826593 ] ] } },
{ "type": "Feature", "properties": { "site_no": "03589500", "nhdplus_comid": "25324441", "navigation_mode": "UM", "requested_distance_km": 12.0, "start_source": "nwissite", "start_id": "USGS-03589500", "geometry_length_km": 0.61193298504712679 }, "geometry": { "type": "LineString", "coordinates": [ [ -87.6412974, 34.793693595 ], [ -87.647157304, 34.790988095 ] ] } },
{ "type": "Feature", "properties": { "site_no": "03589500", "nhdplus_comid": "19633474", "navigation_mode": "UM", "requested_distance_km": 12.0, "start_source": "nwissite", "start_id": "USGS-03589500", "geometry_length_km": 1.5026287690912108 }, "geometry": { "type": "LineString", "coordinates": [ [ -87.625026003, 34.795902699 ], [ -87.638162807, 34.793671697 ], [ -87.6412974, 34.793693595 ] ] } },
{ "type": "Feature", "properties": { "site_no": "03589500", "nhdplus_comid": "19633480", "navigation_mode": "UM", "requested_distance_km": 12.0, "start_source": "nwissite", "start_id": "USGS-03589500", "geometry_length_km": 0.0090033318158177587 }, "geometry": { "type": "LineString", "coordinates": [ [ -87.624928907, 34.795919195 ], [ -87.625026003, 34.795902699 ] ] } },
{ "type": "Feature", "properties": { "site_no": "03589500", "nhdplus_comid": "19633472", "navigation_mode": "UM", "requested_distance_km": 12.0, "start_source": "nwissite", "start_id": "USGS-03589500", "geometry_length_km": 0.74145352347028537 }, "geometry": { "type": "LineString", "coordinates": [ [ -87.618733704, 34.800225899 ], [ -87.624838606, 34.795934595 ], [ -87.624928907, 34.795919195 ] ] } },
{ "type": "Feature", "properties": { "site_no": "03589500", "nhdplus_comid": "19633478", "navigation_mode": "UM", "requested_distance_km": 12.0, "start_source": "nwissite", "start_id": "USGS-03589500", "geometry_length_km": 1.750663193932348 }, "geometry": { "type": "LineString", "coordinates": [ [ -87.600163303, 34.804463498 ], [ -87.618733704, 34.800225899 ] ] } },
{ "type": "Feature", "properties": { "site_no": "03589500", "nhdplus_comid": "19623568", "navigation_mode": "UM", "requested_distance_km": 12.0, "start_source": "nwissite", "start_id": "USGS-03589500", "geometry_length_km": 1.0228039505862085 }, "geometry": { "type": "LineString", "coordinates": [ [ -87.590767205, 34.809020095 ], [ -87.590934105, 34.808834597 ], [ -87.595815606, 34.805344693 ], [ -87.600163303, 34.804463498 ] ] } },
{ "type": "Feature", "properties": { "site_no": "03589500", "nhdplus_comid": "19623540", "navigation_mode": "UM", "requested_distance_km": 12.0, "start_source": "nwissite", "start_id": "USGS-03589500", "geometry_length_km": 4.2329331476214387 }, "geometry": { "type": "LineString", "coordinates": [ [ -87.555457205, 34.826801397 ], [ -87.5559806, 34.826569997 ], [ -87.558659606, 34.826359697 ], [ -87.560903206, 34.825579293 ], [ -87.562938102, 34.825187795 ], [ -87.566275902, 34.825024799 ], [ -87.574085802, 34.823434196 ], [ -87.576164506, 34.822641797 ], [ -87.577661201, 34.822614998 ], [ -87.581057303, 34.8219174 ], [ -87.584167905, 34.820795193 ], [ -87.5872159, 34.818726197 ], [ -87.587756701, 34.813784294 ], [ -87.588338405, 34.813018396 ], [ -87.589230806, 34.810928799 ], [ -87.590767205, 34.809020095 ] ] } }
]
}
