{
"type": "FeatureCollection",
"name": "USGS_02418230_DM_12km",
"crs": { "type": "name", "properties": { "name": "urn:ogc:def:crs:OGC:1.3:CRS84" } },
"features": [
{ "type": "Feature", "properties": { "site_no": "02418230", "nhdplus_comid": "21712124", "navigation_mode": "DM", "requested_distance_km": 12.0, "start_source": "nwissite", "start_id": "USGS-02418230", "geometry_length_km": 1.532699413697665 }, "geometry": { "type": "LineString", "coordinates": [ [ -85.587968266, 32.626890098 ], [ -85.588028505, 32.6269539 ], [ -85.5880825, 32.627366297 ], [ -85.588569306, 32.628305696 ], [ -85.588623203, 32.628969997 ], [ -85.589786701, 32.630344898 ], [ -85.590192705, 32.630848996 ], [ -85.590408906, 32.631490499 ], [ -85.590679407, 32.631925799 ], [ -85.591139205, 32.633117199 ], [ -85.5912745, 32.633254699 ], [ -85.591518104, 32.633300595 ], [ -85.592303306, 32.633094698 ], [ -85.592547007, 32.633117594 ], [ -85.592898801, 32.633323893 ], [ -85.593494207, 32.634011395 ], [ -85.594224706, 32.635133997 ], [ -85.594630606, 32.635706894 ], [ -85.595252804, 32.636783697 ], [ -85.595604703, 32.637173198 ], [ -85.595929503, 32.637310795 ], [ -85.596443906, 32.637356795 ] ] } },
{ "type": "Feature", "properties": { "site_no": "02418230", "nhdplus_comid": "21712080", "navigation_mode": "DM", "requested_distance_km": 12.0, "start_source": "nwissite", "start_id": "USGS-02418230", "geometry_length_km": 2.5775907552146764 }, "geometry": { "type": "LineString", "coordinates": [ [ -85.596443906, 32.637356795 ], [ -85.596768804, 32.637356795 ], [ -85.597283304, 32.6370591 ], [ -85.597472906, 32.636830196 ], [ -85.597716704, 32.636303298 ], [ -85.597798504, 32.634951696 ], [ -85.597961105, 32.6345165 ], [ -85.598204702, 32.634424895 ], [ -85.598638006, 32.634379193 ], [ -85.599287704, 32.634539694 ], [ -85.599883206, 32.634791896 ], [ -85.600884907, 32.634952493 ], [ -85.601507604, 32.634700693 ], [ -85.602536507, 32.634655096 ], [ -85.603511006, 32.634998895 ], [ -85.604431301, 32.635755099 ], [ -85.604701906, 32.635915495 ], [ -85.605378702, 32.636121795 ], [ -85.605893105, 32.636144795 ], [ -85.606353506, 32.636053294 ], [ -85.607138507, 32.636282496 ], [ -85.607842401, 32.636328496 ], [ -85.608573504, 32.635824598 ], [ -85.608952805, 32.635068595 ], [ -85.609034106, 32.634725094 ], [ -85.608709402, 32.634198099 ], [ -85.608384505, 32.633945994 ], [ -85.608276203, 32.633716993 ], [ -85.608249307, 32.633327499 ], [ -85.608411804, 32.6331672 ], [ -85.610036306, 32.632548898 ], [ -85.6106048, 32.632503197 ], [ -85.611362703, 32.633236393 ], [ -85.612039603, 32.633328095 ], [ -85.612418607, 32.633030295 ], [ -85.612716503, 32.632572196 ], [ -85.612933107, 32.632365994 ], [ -85.613555804, 32.632205799 ], [ -85.614503406, 32.632114194 ], [ -85.615153104, 32.632251695 ], [ -85.615423806, 32.632412098 ] ] } },
{ "type": "Feature", "properties": { "site_no": "02418230", "nhdplus_comid": "21712074", "navigation_mode": "DM", "requested_distance_km": 12.0, "start_source": "nwissite", "start_id": "USGS-02418230", "geometry_length_km": 0.29017803503209105 }, "geometry": { "type": "LineString", "coordinates": [ [ -85.615423806, 32.632412098 ], [ -85.6156132, 32.632847399 ], [ -85.615667306, 32.633282699 ], [ -85.615883902, 32.633672096 ], [ -85.616587706, 32.634222098 ], [ -85.616885401, 32.634359494 ], [ -85.617102005, 32.634359494 ] ] } },
{ "type": "Feature", "properties": { "site_no": "02418230", "nhdplus_comid": "21712102", "navigation_mode": "DM", "requested_distance_km": 12.0, "start_source": "nwissite", "start_id": "USGS-02418230", "geometry_length_km": 1.0767869924365463 }, "geometry": { "type": "LineString", "coordinates": [ [ -85.617102005, 32.634359494 ], [ -85.6171562, 32.634519897 ], [ -85.617481105, 32.634542793 ], [ -85.617670603, 32.6344283 ], [ -85.6176707, 32.634038895 ], [ -85.617400005, 32.633214094 ], [ -85.617454201, 32.632732995 ], [ -85.617616706, 32.632641494 ], [ -85.618104003, 32.6325728 ], [ -85.619241104, 32.632939398 ], [ -85.619647101, 32.632939495 ], [ -85.620297, 32.632527098 ], [ -85.621677801, 32.630923696 ], [ -85.621948503, 32.6307633 ], [ -85.622652501, 32.630671695 ], [ -85.623058505, 32.630763397 ], [ -85.624358006, 32.631404899 ], [ -85.624601707, 32.631450698 ] ] } },
{ "type": "Feature", "properties": { "site_no": "02418230", "nhdplus_comid": "21712154", "navigation_mode": "DM", "requested_distance_km": 12.0, "start_source": "nwissite", "start_id": "USGS-02418230", "geometry_length_km": 1.5798810325749562 }, "geometry": { "type": "LineString", "coordinates": [ [ -85.624601707, 32.631450698 ], [ -85.624953605, 32.631496496 ], [ -85.625413902, 32.631336197 ], [ -85.625819907, 32.630648993 ], [ -85.625792906, 32.630030394 ], [ -85.625522301, 32.6289308 ], [ -85.625630602, 32.628541395 ], [ -85.625765905, 32.628335096 ], [ -85.626388505, 32.627808295 ], [ -85.628175303, 32.627029397 ], [ -85.628581405, 32.626571298 ], [ -85.628960401, 32.625173897 ], [ -85.629285306, 32.6244637 ], [ -85.630422205, 32.623203799 ], [ -85.631071903, 32.622791298 ], [ -85.632235907, 32.622081198 ], [ -85.633399807, 32.6218521 ], [ -85.634103701, 32.621577196 ] ] } },
{ "type": "Feature", "properties": { "site_no": "02418230", "nhdplus_comid": "21712196", "navigation_mode": "DM", "requested_distance_km": 12.0, "start_source": "nwissite", "start_id": "USGS-02418230", "geometry_length_km": 0.99865261423358542 }, "geometry": { "type": "LineString", "coordinates": [ [ -85.634103701, 32.621577196 ], [ -85.634212002, 32.6214168 ], [ -85.634130701, 32.620935693 ], [ -85.634049505, 32.620866999 ], [ -85.634049505, 32.619996496 ], [ -85.633968204, 32.619881995 ], [ -85.633670501, 32.618232496 ], [ -85.633237205, 32.617522396 ], [ -85.632722907, 32.617041297 ], [ -85.631179906, 32.616102099 ], [ -85.6291769, 32.615254499 ], [ -85.628770806, 32.614910893 ], [ -85.628770903, 32.614796296 ] ] } },
{ "type": "Feature", "properties": { "site_no": "02418230", "nhdplus_comid": "21712214", "navigation_mode": "DM", "requested_distance_km": 12.0, "start_source": "nwissite", "start_id": "USGS-02418230", "geometry_length_km": 1.4556491451743068 }, "geometry": { "type": "LineString", "coordinates": [ [ -85.628770903, 32.614796296 ], [ -85.628797904, 32.6146589 ], [ -85.6291769, 32.614475593 ], [ -85.6297995, 32.6143381 ], [ -85.630449101, 32.614498496 ], [ -85.631044507, 32.614544295 ], [ -85.632885106, 32.613811195 ], [ -85.6341573, 32.613559097 ], [ -85.634644501, 32.613650694 ], [ -85.635213003, 32.613925599 ], [ -85.6354836, 32.614314996 ], [ -85.635456607, 32.614544094 ], [ -85.635727301, 32.615323 ], [ -85.635889702, 32.6154375 ], [ -85.636268705, 32.6154145 ], [ -85.637865603, 32.614475198 ], [ -85.638298705, 32.614475094 ], [ -85.638542302, 32.614314795 ], [ -85.638975404, 32.613741994 ], [ -85.640247405, 32.6130547 ], [ -85.641275905, 32.612573497 ] ] } },
{ "type": "Feature", "properties": { "site_no": "02418230", "nhdplus_comid": "21712216", "navigation_mode": "DM", "requested_distance_km": 12.0, "start_source": "nwissite", "start_id": "USGS-02418230", "geometry_length_km": 0.29385350201312405 }, "geometry": { "type": "LineString", "coordinates": [ [ -85.641275905, 32.612573497 ], [ -85.643062301, 32.612275496 ], [ -85.643603601, 32.612321198 ], [ -85.644145004, 32.612504497 ], [ -85.6441992, 32.612664796 ] ] } },
{ "type": "Feature", "properties": { "site_no": "02418230", "nhdplus_comid": "21712414", "navigation_mode": "DM", "requested_distance_km": 12.0, "start_source": "nwissite", "start_id": "USGS-02418230", "geometry_length_km": 6.1544916233664315 }, "geometry": { "type": "LineString", "coordinates": [ [ -85.6441992, 32.612664796 ], [ -85.644605204, 32.612687699 ], [ -85.644875802, 32.612595998 ], [ -85.645254701, 32.611977495 ], [ -85.645606503, 32.611702494 ], [ -85.646039501, 32.611656599 ], [ -85.647799, 32.612022899 ], [ -85.648773402, 32.612160198 ], [ -85.649774902, 32.6120914 ], [ -85.652184106, 32.612434596 ], [ -85.653185502, 32.611999094 ], [ -85.6539701, 32.611174196 ], [ -85.654592305, 32.6102577 ], [ -85.654565103, 32.609616295 ], [ -85.653996401, 32.608585499 ], [ -85.653698601, 32.608379394 ], [ -85.651370704, 32.607440598 ], [ -85.650287807, 32.606455699 ], [ -85.6496922, 32.605722696 ], [ -85.649069503, 32.604783498 ], [ -85.648988202, 32.604371294 ], [ -85.649231806, 32.604096197 ], [ -85.649475306, 32.603935897 ], [ -85.649989605, 32.603889994 ], [ -85.650855705, 32.604004398 ], [ -85.651640505, 32.603843898 ], [ -85.652208701, 32.603568897 ], [ -85.652344003, 32.603316799 ], [ -85.652425103, 32.602950297 ], [ -85.652722701, 32.602377497 ], [ -85.653778002, 32.601850398 ], [ -85.656240501, 32.600727394 ], [ -85.656375706, 32.600292094 ], [ -85.655861206, 32.599559098 ], [ -85.655346707, 32.5983679 ], [ -85.65467, 32.597886994 ], [ -85.654669903, 32.597566299 ], [ -85.654913306, 32.597016394 ], [ -85.654966801, 32.595183693 ], [ -85.655156106, 32.5947484 ], [ -85.656941503, 32.592823595 ], [ -85.657726102, 32.592273593 ], [ -85.658132002, 32.592113197 ], [ -85.659458004, 32.592066996 ], [ -85.659945101, 32.591975197 ], [ -85.660540506, 32.591997996 ], [ -85.661163002, 32.592387199 ], [ -85.661650106, 32.592409998 ], [ -85.663003102, 32.592226394 ], [ -85.663381904, 32.592042997 ], [ -85.664923705, 32.590301499 ], [ -85.665139802, 32.589476794 ], [ -85.665572606, 32.589132994 ], [ -85.6678994, 32.588078499 ], [ -85.669197604, 32.586863898 ], [ -85.669765502, 32.586038999 ], [ -85.670387402, 32.584801696 ], [ -85.670820303, 32.584732793 ], [ -85.671523906, 32.584892996 ], [ -85.671956904, 32.585030198 ], [ -85.672633305, 32.584961295 ], [ -85.673174605, 32.585098594 ], [ -85.673391104, 32.585258797 ], [ -85.673607804, 32.585671097 ], [ -85.674176402, 32.586197793 ], [ -85.674582206, 32.586174697 ], [ -85.675123103, 32.5857163 ] ] } }
]
}
