{
"type": "FeatureCollection",
"name": "USGS_02414500_DM_12km",
"crs": { "type": "name", "properties": { "name": "urn:ogc:def:crs:OGC:1.3:CRS84" } },
"features": [
{ "type": "Feature", "properties": { "site_no": "02414500", "nhdplus_comid": "22042575", "navigation_mode": "DM", "requested_distance_km": 12.0, "start_source": "nwissite", "start_id": "USGS-02414500", "geometry_length_km": 0.20126761473021063 }, "geometry": { "type": "LineString", "coordinates": [ [ -85.560980105, 33.116785731 ], [ -85.561376803, 33.115559295 ], [ -85.561950304, 33.115319997 ] ] } },
{ "type": "Feature", "properties": { "site_no": "02414500", "nhdplus_comid": "22035681", "navigation_mode": "DM", "requested_distance_km": 12.0, "start_source": "nwissite", "start_id": "USGS-02414500", "geometry_length_km": 1.0549635384261535 }, "geometry": { "type": "LineString", "coordinates": [ [ -85.561950304, 33.115319997 ], [ -85.562223002, 33.111472696 ], [ -85.561770603, 33.109159894 ], [ -85.560935304, 33.107442997 ], [ -85.560817406, 33.106044099 ] ] } },
{ "type": "Feature", "properties": { "site_no": "02414500", "nhdplus_comid": "22035689", "navigation_mode": "DM", "requested_distance_km": 12.0, "start_source": "nwissite", "start_id": "USGS-02414500", "geometry_length_km": 2.683939391611768 }, "geometry": { "type": "LineString", "coordinates": [ [ -85.560817406, 33.106044099 ], [ -85.560850404, 33.105794795 ], [ -85.558964007, 33.102845795 ], [ -85.557562903, 33.101960197 ], [ -85.555961102, 33.100299098 ], [ -85.555244103, 33.099980995 ], [ -85.552708201, 33.097350799 ], [ -85.551423304, 33.095592499 ], [ -85.550672203, 33.094387896 ], [ -85.550136507, 33.091562495 ], [ -85.548484504, 33.089139499 ], [ -85.547666304, 33.087297797 ], [ -85.547448203, 33.085511096 ] ] } },
{ "type": "Feature", "properties": { "site_no": "02414500", "nhdplus_comid": "25809348", "navigation_mode": "DM", "requested_distance_km": 12.0, "start_source": "nwissite", "start_id": "USGS-02414500", "geometry_length_km": 1.7145537560501325 }, "geometry": { "type": "LineString", "coordinates": [ [ -85.547448203, 33.085511096 ], [ -85.548280105, 33.083820693 ], [ -85.549596101, 33.083058096 ], [ -85.5505457, 33.082766697 ], [ -85.551145703, 33.082821794 ], [ -85.551628806, 33.082613699 ], [ -85.554711506, 33.082265593 ], [ -85.556910701, 33.0817101 ], [ -85.558043502, 33.081182994 ], [ -85.559875406, 33.079962894 ], [ -85.560723506, 33.078147799 ], [ -85.561553605, 33.077520795 ] ] } },
{ "type": "Feature", "properties": { "site_no": "02414500", "nhdplus_comid": "22035691", "navigation_mode": "DM", "requested_distance_km": 12.0, "start_source": "nwissite", "start_id": "USGS-02414500", "geometry_length_km": 1.5710812940076448 }, "geometry": { "type": "LineString", "coordinates": [ [ -85.561553605, 33.077520795 ], [ -85.562270805, 33.075639598 ], [ -85.563885301, 33.073768497 ], [ -85.564667106, 33.072452098 ], [ -85.565548107, 33.070387498 ], [ -85.565878704, 33.067893997 ], [ -85.565892905, 33.0654976 ], [ -85.565542206, 33.0647083 ], [ -85.5658582, 33.064413697 ] ] } },
{ "type": "Feature", "properties": { "site_no": "02414500", "nhdplus_comid": "22035693", "navigation_mode": "DM", "requested_distance_km": 12.0, "start_source": "nwissite", "start_id": "USGS-02414500", "geometry_length_km": 3.5091874874673055 }, "geometry": { "type": "LineString", "coordinates": [ [ -85.5658582, 33.064413697 ], [ -85.565341502, 33.063932799 ], [ -85.564406306, 33.061827995 ], [ -85.5625384, 33.059889995 ], [ -85.561271504, 33.059142895 ], [ -85.5589891, 33.0591859 ], [ -85.556874305, 33.060253896 ], [ -85.554525703, 33.060795598 ], [ -85.552259803, 33.060713895 ], [ -85.5497602, 33.060105793 ], [ -85.5473601, 33.058749698 ], [ -85.5460262, 33.057365298 ], [ -85.545442104, 33.0560496 ], [ -85.545541406, 33.055301599 ], [ -85.546090603, 33.0545948 ], [ -85.547922105, 33.053374797 ], [ -85.551169306, 33.051779993 ], [ -85.553883702, 33.050767094 ] ] } },
{ "type": "Feature", "properties": { "site_no": "02414500", "nhdplus_comid": "22035699", "navigation_mode": "DM", "requested_distance_km": 12.0, "start_source": "nwissite", "start_id": "USGS-02414500", "geometry_length_km": 11.533662217280144 }, "geometry": { "type": "LineString", "coordinates": [ [ -85.553883702, 33.050767094 ], [ -85.557449102, 33.051346697 ], [ -85.562114902, 33.052784197 ], [ -85.563815005, 33.053697295 ], [ -85.567116104, 33.056271397 ], [ -85.568315707, 33.0563813 ], [ -85.569281504, 33.055964999 ], [ -85.570512906, 33.054689698 ], [ -85.570543505, 33.0521686 ], [ -85.570075907, 33.051116198 ], [ -85.5695232, 33.048415497 ], [ -85.568772301, 33.047210895 ], [ -85.568821907, 33.046836898 ], [ -85.568337806, 33.045909099 ], [ -85.568019003, 33.043734595 ], [ -85.567668401, 33.042945199 ], [ -85.567282304, 33.040133499 ], [ -85.567647107, 33.038526393 ], [ -85.569145001, 33.037527896 ], [ -85.572459601, 33.037705496 ], [ -85.573742807, 33.038327798 ], [ -85.577958405, 33.039723493 ], [ -85.578225203, 33.040000297 ], [ -85.580324106, 33.0401925 ], [ -85.581821904, 33.039193898 ], [ -85.583501101, 33.036823697 ], [ -85.584531106, 33.034772597 ], [ -85.584795102, 33.0327776 ], [ -85.584660202, 33.031503297 ], [ -85.583825305, 33.029786296 ], [ -85.582758106, 33.028679095 ], [ -85.580858901, 33.028126597 ], [ -85.5786421, 33.026535399 ], [ -85.576241106, 33.024043895 ], [ -85.575673304, 33.022603698 ], [ -85.575821802, 33.021481499 ], [ -85.576436602, 33.020275794 ], [ -85.576601602, 33.019028895 ], [ -85.577516004, 33.017850697 ], [ -85.5788306, 33.017087698 ], [ -85.582011007, 33.017126597 ], [ -85.585689105, 33.015696496 ], [ -85.587686904, 33.015500799 ], [ -85.592183203, 33.015912198 ], [ -85.598512702, 33.017374396 ], [ -85.601095304, 33.018493794 ], [ -85.603180602, 33.0210822 ], [ -85.6093022, 33.027572498 ] ] } }
]
}
