{
"type": "FeatureCollection",
"name": "USGS_02338523_UM_12km",
"crs": { "type": "name", "properties": { "name": "urn:ogc:def:crs:OGC:1.3:CRS84" } },
"features": [
{ "type": "Feature", "properties": { "site_no": "02338523", "nhdplus_comid": "3291248", "navigation_mode": "UM", "requested_distance_km": 12.0, "start_source": "nwissite", "start_id": "USGS-02338523", "geometry_length_km": 0.62750212890161017 }, "geometry": { "type": "LineString", "coordinates": [ [ -85.231690407, 33.341402598 ], [ -85.231417403, 33.341288298 ], [ -85.230680801, 33.341357693 ], [ -85.230244406, 33.341541298 ], [ -85.2302991, 33.341724396 ], [ -85.229972005, 33.341976598 ], [ -85.229290001, 33.342160396 ], [ -85.22828, 33.341794699 ], [ -85.227570206, 33.341566294 ], [ -85.226642303, 33.3413838 ], [ -85.2264238, 33.341154896 ], [ -85.22647146, 33.340586789 ] ] } },
{ "type": "Feature", "properties": { "site_no": "02338523", "nhdplus_comid": "3291228", "navigation_mode": "UM", "requested_distance_km": 12.0, "start_source": "nwissite", "start_id": "USGS-02338523", "geometry_length_km": 0.25425786304911735 }, "geometry": { "type": "LineString", "coordinates": [ [ -85.232238807, 33.343577899 ], [ -85.232238606, 33.343394794 ], [ -85.231855907, 33.342822395 ], [ -85.231799804, 33.341608696 ], [ -85.231690407, 33.341402598 ] ] } },
{ "type": "Feature", "properties": { "site_no": "02338523", "nhdplus_comid": "3291820", "navigation_mode": "UM", "requested_distance_km": 12.0, "start_source": "nwissite", "start_id": "USGS-02338523", "geometry_length_km": 3.1968588360838917 }, "geometry": { "type": "LineString", "coordinates": [ [ -85.256661102, 33.360390894 ], [ -85.2559788, 33.360367298 ], [ -85.255569801, 33.360114895 ], [ -85.255352005, 33.359656699 ], [ -85.254915804, 33.359335594 ], [ -85.254697904, 33.359037593 ], [ -85.254698105, 33.358877398 ], [ -85.254616402, 33.358785599 ], [ -85.253934301, 33.358647496 ], [ -85.253716305, 33.358349495 ], [ -85.253443703, 33.358143099 ], [ -85.253171302, 33.357799299 ], [ -85.253145404, 33.356768593 ], [ -85.252955005, 33.356356196 ], [ -85.251345605, 33.355804794 ], [ -85.249937303, 33.355219595 ], [ -85.247834407, 33.354168199 ], [ -85.247233607, 33.3538481 ], [ -85.245868802, 33.353689097 ], [ -85.244176403, 33.353369996 ], [ -85.243138902, 33.353027396 ], [ -85.242428705, 33.3524784 ], [ -85.241417706, 33.351517394 ], [ -85.240352504, 33.350854196 ], [ -85.239969902, 33.350442193 ], [ -85.238768004, 33.349549994 ], [ -85.238958202, 33.348862894 ], [ -85.239148602, 33.348381594 ], [ -85.239066102, 33.347900793 ], [ -85.238792807, 33.347488798 ], [ -85.238628402, 33.347030796 ], [ -85.238000102, 33.346481696 ], [ -85.236061506, 33.345521495 ], [ -85.233658902, 33.344515793 ], [ -85.232375301, 33.343623593 ], [ -85.232238807, 33.343577899 ] ] } },
{ "type": "Feature", "properties": { "site_no": "02338523", "nhdplus_comid": "3291198", "navigation_mode": "UM", "requested_distance_km": 12.0, "start_source": "nwissite", "start_id": "USGS-02338523", "geometry_length_km": 3.0866482978930825 }, "geometry": { "type": "LineString", "coordinates": [ [ -85.275183603, 33.3684697 ], [ -85.274200507, 33.368789494 ], [ -85.273545302, 33.368903495 ], [ -85.273135602, 33.369154997 ], [ -85.272534803, 33.3693607 ], [ -85.2706521, 33.368649095 ], [ -85.270625107, 33.368465893 ], [ -85.271362506, 33.368122995 ], [ -85.271390103, 33.367825195 ], [ -85.270817406, 33.367481194 ], [ -85.270026207, 33.367182694 ], [ -85.268907905, 33.366563395 ], [ -85.268553503, 33.366219498 ], [ -85.268144302, 33.3660817 ], [ -85.267353401, 33.3655084 ], [ -85.267410301, 33.363790698 ], [ -85.267001204, 33.363538496 ], [ -85.266837701, 33.363286398 ], [ -85.265419304, 33.362597995 ], [ -85.265119404, 33.362299897 ], [ -85.265147105, 33.362048 ], [ -85.265474901, 33.361819297 ], [ -85.266948804, 33.361797795 ], [ -85.267085306, 33.361729093 ], [ -85.267003804, 33.361522898 ], [ -85.266076505, 33.360857993 ], [ -85.265639901, 33.3607888 ], [ -85.263785407, 33.359710693 ], [ -85.263049603, 33.3589084 ], [ -85.262476601, 33.358770393 ], [ -85.261439607, 33.3587007 ], [ -85.261302806, 33.3589525 ], [ -85.261329204, 33.359547995 ], [ -85.260673501, 33.360097095 ], [ -85.260264002, 33.360165395 ], [ -85.257700205, 33.358926095 ], [ -85.257454507, 33.358971596 ], [ -85.257345103, 33.359154798 ], [ -85.257289805, 33.359658599 ], [ -85.256988905, 33.3601164 ], [ -85.256661102, 33.360390894 ] ] } },
{ "type": "Feature", "properties": { "site_no": "02338523", "nhdplus_comid": "3291176", "navigation_mode": "UM", "requested_distance_km": 12.0, "start_source": "nwissite", "start_id": "USGS-02338523", "geometry_length_km": 0.22253664679246898 }, "geometry": { "type": "LineString", "coordinates": [ [ -85.277394906, 33.368150994 ], [ -85.277258307, 33.368265294 ], [ -85.276384406, 33.368608095 ], [ -85.275374502, 33.368584394 ], [ -85.275183603, 33.3684697 ] ] } },
{ "type": "Feature", "properties": { "site_no": "02338523", "nhdplus_comid": "3291222", "navigation_mode": "UM", "requested_distance_km": 12.0, "start_source": "nwissite", "start_id": "USGS-02338523", "geometry_length_km": 3.8633042632100527 }, "geometry": { "type": "LineString", "coordinates": [ [ -85.299498305, 33.344965898 ], [ -85.298542105, 33.346087493 ], [ -85.297996007, 33.346545197 ], [ -85.297421806, 33.347690098 ], [ -85.297011904, 33.348285295 ], [ -85.296438403, 33.348743096 ], [ -85.296192706, 33.348811597 ], [ -85.295319505, 33.348788098 ], [ -85.294473507, 33.3487188 ], [ -85.294009902, 33.348466597 ], [ -85.2926182, 33.348351099 ], [ -85.292154007, 33.348533995 ], [ -85.291826606, 33.348556697 ], [ -85.291008204, 33.348166794 ], [ -85.290380605, 33.348166198 ], [ -85.2897797, 33.348646797 ], [ -85.289560802, 33.3492193 ], [ -85.288987502, 33.349424899 ], [ -85.288604803, 33.350043096 ], [ -85.288113005, 33.350683995 ], [ -85.287511706, 33.351645499 ], [ -85.287129104, 33.352011599 ], [ -85.287128903, 33.352332294 ], [ -85.287319601, 33.352584399 ], [ -85.287291907, 33.352973796 ], [ -85.286909603, 33.353225298 ], [ -85.286145106, 33.353499696 ], [ -85.286034904, 33.354461499 ], [ -85.285952702, 33.354805 ], [ -85.285461001, 33.355216898 ], [ -85.285651401, 33.355812497 ], [ -85.285678402, 33.356110193 ], [ -85.285541706, 33.356316298 ], [ -85.285020903, 33.3583543 ], [ -85.284747504, 33.358766399 ], [ -85.283736601, 33.359750494 ], [ -85.283327103, 33.359864697 ], [ -85.283026606, 33.360139295 ], [ -85.282177903, 33.362428993 ], [ -85.281385407, 33.363367394 ], [ -85.281276003, 33.363550499 ], [ -85.281303003, 33.363825299 ], [ -85.2813849, 33.363916993 ], [ -85.281302601, 33.364260599 ], [ -85.280810401, 33.364993095 ], [ -85.280345403, 33.365954593 ], [ -85.280672602, 33.366275497 ], [ -85.2796067, 33.3673511 ], [ -85.278896704, 33.367694095 ], [ -85.277831703, 33.368105397 ], [ -85.277394906, 33.368150994 ] ] } }
]
}
