{
"type": "FeatureCollection",
"name": "USGS_02466500_UM_12km",
"crs": { "type": "name", "properties": { "name": "urn:ogc:def:crs:OGC:1.3:CRS84" } },
"features": [
{ "type": "Feature", "properties": { "site_no": "02466500", "nhdplus_comid": "18210332", "navigation_mode": "UM", "requested_distance_km": 12.0, "start_source": "nwissite", "start_id": "USGS-02466500", "geometry_length_km": 3.0466067659249014 }, "geometry": { "type": "LineString", "coordinates": [ [ -87.674878001, 32.5284032 ], [ -87.675148703, 32.528723799 ], [ -87.675176002, 32.529182099 ], [ -87.675094903, 32.529342495 ], [ -87.674365006, 32.529961497 ], [ -87.674175903, 32.530259296 ], [ -87.674230404, 32.530992493 ], [ -87.674420103, 32.5316111 ], [ -87.674339205, 32.532252699 ], [ -87.673798703, 32.532940298 ], [ -87.673825905, 32.533238098 ], [ -87.674042404, 32.533467099 ], [ -87.674258806, 32.533512898 ], [ -87.674745701, 32.533443995 ], [ -87.675232403, 32.533214696 ], [ -87.675827101, 32.5326645 ], [ -87.676529802, 32.5317019 ], [ -87.677259803, 32.531266294 ], [ -87.677692503, 32.531288996 ], [ -87.678071305, 32.531403296 ], [ -87.678423002, 32.531701095 ], [ -87.679614104, 32.533396199 ], [ -87.680398807, 32.533693694 ], [ -87.680426002, 32.533968695 ], [ -87.679614902, 32.534610599 ], [ -87.679425806, 32.535045899 ], [ -87.679156102, 32.536237493 ], [ -87.678831704, 32.536718793 ], [ -87.678507306, 32.536856398 ], [ -87.677154906, 32.5369028 ], [ -87.676532902, 32.537109293 ], [ -87.676100306, 32.537407398 ], [ -87.675668001, 32.538301095 ], [ -87.675749406, 32.538644694 ], [ -87.675992906, 32.538827993 ], [ -87.6762904, 32.538850695 ], [ -87.677047804, 32.538758799 ], [ -87.677832104, 32.538529299 ], [ -87.678941004, 32.538414299 ], [ -87.679887801, 32.538482599 ], [ -87.680212401, 32.538642898 ], [ -87.680591501, 32.538986497 ], [ -87.681024805, 32.539879799 ], [ -87.681133106, 32.539925598 ], [ -87.681377202, 32.541048199 ], [ -87.681431405, 32.541231394 ], [ -87.681544585, 32.541362004 ] ] } },
{ "type": "Feature", "properties": { "site_no": "02466500", "nhdplus_comid": "18210336", "navigation_mode": "UM", "requested_distance_km": 12.0, "start_source": "nwissite", "start_id": "USGS-02466500", "geometry_length_km": 0.5011836188012283 }, "geometry": { "type": "LineString", "coordinates": [ [ -87.6717676, 32.528129399 ], [ -87.672227301, 32.528129198 ], [ -87.672416806, 32.528312497 ], [ -87.672470905, 32.528495796 ], [ -87.6721467, 32.5291145 ], [ -87.672173902, 32.529389396 ], [ -87.672309205, 32.529481098 ], [ -87.672687806, 32.529412195 ], [ -87.673120402, 32.528999597 ], [ -87.674364105, 32.528288797 ], [ -87.674878001, 32.5284032 ] ] } },
{ "type": "Feature", "properties": { "site_no": "02466500", "nhdplus_comid": "18210334", "navigation_mode": "UM", "requested_distance_km": 12.0, "start_source": "nwissite", "start_id": "USGS-02466500", "geometry_length_km": 1.8973725166723545 }, "geometry": { "type": "LineString", "coordinates": [ [ -87.662249006, 32.531981893 ], [ -87.662222102, 32.532279797 ], [ -87.662086904, 32.532485999 ], [ -87.662087202, 32.533287995 ], [ -87.662384905, 32.533448294 ], [ -87.662871704, 32.533425197 ], [ -87.663520701, 32.533172995 ], [ -87.664277703, 32.532302096 ], [ -87.664737105, 32.531454094 ], [ -87.665169805, 32.531362399 ], [ -87.665548503, 32.531545594 ], [ -87.665900402, 32.532049499 ], [ -87.666225001, 32.532186896 ], [ -87.666955203, 32.532026194 ], [ -87.667252801, 32.532255299 ], [ -87.667685904, 32.532919593 ], [ -87.667983502, 32.533194497 ], [ -87.668713905, 32.533217095 ], [ -87.6689841, 32.5329879 ], [ -87.668984003, 32.532552496 ], [ -87.668740302, 32.532071494 ], [ -87.668009602, 32.531269796 ], [ -87.667982504, 32.530880295 ], [ -87.668171607, 32.530628197 ], [ -87.669253401, 32.5305591 ], [ -87.669523902, 32.5303986 ], [ -87.669523805, 32.530215293 ], [ -87.669009604, 32.529734299 ], [ -87.668955401, 32.529413596 ], [ -87.6692257, 32.529161394 ], [ -87.671037406, 32.528358795 ], [ -87.6717676, 32.528129399 ] ] } },
{ "type": "Feature", "properties": { "site_no": "02466500", "nhdplus_comid": "18210344", "navigation_mode": "UM", "requested_distance_km": 12.0, "start_source": "nwissite", "start_id": "USGS-02466500", "geometry_length_km": 1.7832070545286078 }, "geometry": { "type": "LineString", "coordinates": [ [ -87.654321805, 32.525132999 ], [ -87.654538304, 32.525568299 ], [ -87.654592901, 32.526988998 ], [ -87.6549448, 32.528180398 ], [ -87.655296504, 32.528409399 ], [ -87.655756302, 32.528409295 ], [ -87.656161904, 32.528248794 ], [ -87.656702705, 32.527767494 ], [ -87.657216504, 32.527561098 ], [ -87.6574599, 32.527583994 ], [ -87.658352606, 32.5282024 ], [ -87.659272403, 32.528683297 ], [ -87.659407705, 32.528912395 ], [ -87.659380801, 32.5293248 ], [ -87.659516104, 32.529553898 ], [ -87.659732603, 32.529691294 ], [ -87.660679303, 32.529874295 ], [ -87.661030903, 32.529805496 ], [ -87.661328204, 32.529530495 ], [ -87.6614362, 32.528934695 ], [ -87.661652505, 32.528797194 ], [ -87.662031107, 32.528819993 ], [ -87.662923902, 32.529094696 ], [ -87.663627401, 32.529850595 ], [ -87.663952403, 32.530675396 ], [ -87.663709104, 32.531087898 ], [ -87.662654504, 32.5313861 ], [ -87.662357002, 32.531638198 ], [ -87.662249006, 32.531981893 ] ] } },
{ "type": "Feature", "properties": { "site_no": "02466500", "nhdplus_comid": "18210342", "navigation_mode": "UM", "requested_distance_km": 12.0, "start_source": "nwissite", "start_id": "USGS-02466500", "geometry_length_km": 1.2026390155686053 }, "geometry": { "type": "LineString", "coordinates": [ [ -87.648021303, 32.5297627 ], [ -87.648427002, 32.529189795 ], [ -87.648453906, 32.528937794 ], [ -87.648156106, 32.527929693 ], [ -87.648074605, 32.526440397 ], [ -87.648263901, 32.526234195 ], [ -87.648642503, 32.526165396 ], [ -87.648858905, 32.526348598 ], [ -87.649373002, 32.527287997 ], [ -87.649697706, 32.527677298 ], [ -87.650455005, 32.527837597 ], [ -87.650887705, 32.527654193 ], [ -87.651861101, 32.5268979 ], [ -87.653131902, 32.525683299 ], [ -87.6537809, 32.525179096 ], [ -87.654321805, 32.525132999 ] ] } },
{ "type": "Feature", "properties": { "site_no": "02466500", "nhdplus_comid": "18210330", "navigation_mode": "UM", "requested_distance_km": 12.0, "start_source": "nwissite", "start_id": "USGS-02466500", "geometry_length_km": 1.4984900041640909 }, "geometry": { "type": "LineString", "coordinates": [ [ -87.638663404, 32.531322099 ], [ -87.639150202, 32.530772194 ], [ -87.639420405, 32.529420294 ], [ -87.639717802, 32.529076599 ], [ -87.640204705, 32.529007897 ], [ -87.640448205, 32.529099494 ], [ -87.640691601, 32.529374294 ], [ -87.6406646, 32.529672295 ], [ -87.6403943, 32.5302222 ], [ -87.640177906, 32.530565895 ], [ -87.640178002, 32.530840896 ], [ -87.640313305, 32.530932397 ], [ -87.640746005, 32.5309553 ], [ -87.641205803, 32.530840695 ], [ -87.641476206, 32.530565694 ], [ -87.641719602, 32.530061595 ], [ -87.642017007, 32.529809497 ], [ -87.642503902, 32.529603198 ], [ -87.6430718, 32.5295344 ], [ -87.643721007, 32.529717594 ], [ -87.643883303, 32.529877998 ], [ -87.643883303, 32.530175894 ], [ -87.643964507, 32.530221596 ], [ -87.644045703, 32.530519493 ], [ -87.644370303, 32.530771494 ], [ -87.644694805, 32.530771397 ], [ -87.645316906, 32.530588098 ], [ -87.645884901, 32.530725397 ], [ -87.646371804, 32.530702494 ], [ -87.646777302, 32.530198298 ], [ -87.647074804, 32.530014999 ], [ -87.648021303, 32.5297627 ] ] } },
{ "type": "Feature", "properties": { "site_no": "02466500", "nhdplus_comid": "18210320", "navigation_mode": "UM", "requested_distance_km": 12.0, "start_source": "nwissite", "start_id": "USGS-02466500", "geometry_length_km": 0.76477717035455939 }, "geometry": { "type": "LineString", "coordinates": [ [ -87.633795202, 32.533934698 ], [ -87.634877101, 32.534071997 ], [ -87.6351206, 32.534003295 ], [ -87.635526203, 32.533499196 ], [ -87.635958903, 32.533086695 ], [ -87.636445701, 32.532445095 ], [ -87.636635005, 32.532055594 ], [ -87.636635005, 32.531780697 ], [ -87.636283204, 32.531391099 ], [ -87.636256203, 32.531184994 ], [ -87.6363644, 32.530978695 ], [ -87.636526607, 32.530887097 ], [ -87.636986405, 32.530818298 ], [ -87.637202807, 32.530887 ], [ -87.637852103, 32.531413898 ], [ -87.638663404, 32.531322099 ] ] } }
]
}
