{
"type": "FeatureCollection",
"name": "USGS_02458450_UM_12km",
"crs": { "type": "name", "properties": { "name": "urn:ogc:def:crs:OGC:1.3:CRS84" } },
"features": [
{ "type": "Feature", "properties": { "site_no": "02458450", "nhdplus_comid": "18566201", "navigation_mode": "UM", "requested_distance_km": 12.0, "start_source": "nwissite", "start_id": "USGS-02458450", "geometry_length_km": 0.93592747313506586 }, "geometry": { "type": "LineString", "coordinates": [ [ -86.870697804, 33.5209051 ], [ -86.872311503, 33.521317497 ], [ -86.872667104, 33.521317497 ], [ -86.873241507, 33.521157198 ], [ -86.874992102, 33.519988693 ], [ -86.876086101, 33.519141093 ], [ -86.877344303, 33.518293396 ], [ -86.878137507, 33.517880999 ], [ -86.878520407, 33.517766498 ], [ -86.879295267, 33.517766498 ] ] } },
{ "type": "Feature", "properties": { "site_no": "02458450", "nhdplus_comid": "18566197", "navigation_mode": "UM", "requested_distance_km": 12.0, "start_source": "nwissite", "start_id": "USGS-02458450", "geometry_length_km": 10.718289123322156 }, "geometry": { "type": "LineString", "coordinates": [ [ -86.770032503, 33.551925696 ], [ -86.773534805, 33.5519059 ], [ -86.774465404, 33.551723294 ], [ -86.778654307, 33.5492296 ], [ -86.781008601, 33.548085794 ], [ -86.785908401, 33.545912996 ], [ -86.788864501, 33.544723794 ], [ -86.790835403, 33.5434651 ], [ -86.791820705, 33.5432138 ], [ -86.792450003, 33.543191299 ], [ -86.793297902, 33.543421 ], [ -86.797181405, 33.545095995 ], [ -86.798166402, 33.545096599 ], [ -86.801066905, 33.544433996 ], [ -86.802982405, 33.544183195 ], [ -86.8048703, 33.544069596 ], [ -86.805663601, 33.544161797 ], [ -86.8092198, 33.545011498 ], [ -86.810204707, 33.545034893 ], [ -86.812968306, 33.544578098 ], [ -86.815075502, 33.543731399 ], [ -86.816553406, 33.542930394 ], [ -86.820057005, 33.540366098 ], [ -86.820495106, 33.539885193 ], [ -86.821836703, 33.537984297 ], [ -86.8225483, 33.537388898 ], [ -86.824518703, 33.536244199 ], [ -86.825613402, 33.535488695 ], [ -86.831660703, 33.532512695 ], [ -86.833521105, 33.532100894 ], [ -86.834670201, 33.531734698 ], [ -86.835655205, 33.5312768 ], [ -86.836394101, 33.530795999 ], [ -86.836968705, 33.530131795 ], [ -86.8375163, 33.529078096 ], [ -86.837926701, 33.528734595 ], [ -86.844465405, 33.525987193 ], [ -86.845176704, 33.525758296 ], [ -86.846188806, 33.525598094 ], [ -86.847337604, 33.525850393 ], [ -86.849580407, 33.526744395 ], [ -86.850783803, 33.526950896 ], [ -86.851741403, 33.526607394 ], [ -86.853109203, 33.525759995 ], [ -86.856118403, 33.524454594 ], [ -86.857158005, 33.5238363 ], [ -86.860249206, 33.521453999 ], [ -86.861151807, 33.521018796 ], [ -86.863011904, 33.520331696 ], [ -86.865419, 33.519392595 ], [ -86.866294205, 33.519278198 ], [ -86.870615803, 33.520813398 ], [ -86.870697804, 33.5209051 ] ] } }
]
}
