{
"type": "FeatureCollection",
"name": "USGS_02339500_UM_12km",
"crs": { "type": "name", "properties": { "name": "urn:ogc:def:crs:OGC:1.3:CRS84" } },
"features": [
{ "type": "Feature", "properties": { "site_no": "02339500", "nhdplus_comid": "3298592", "navigation_mode": "UM", "requested_distance_km": 12.0, "start_source": "nwissite", "start_id": "USGS-02339500", "geometry_length_km": 0.12593080452242611 }, "geometry": { "type": "LineString", "coordinates": [ [ -85.182391904, 32.888329796 ], [ -85.181735112, 32.88734286 ] ] } },
{ "type": "Feature", "properties": { "site_no": "02339500", "nhdplus_comid": "3298588", "navigation_mode": "UM", "requested_distance_km": 12.0, "start_source": "nwissite", "start_id": "USGS-02339500", "geometry_length_km": 0.1060681183339304 }, "geometry": { "type": "LineString", "coordinates": [ [ -85.182423905, 32.889279999 ], [ -85.182391904, 32.888329796 ] ] } },
{ "type": "Feature", "properties": { "site_no": "02339500", "nhdplus_comid": "3298584", "navigation_mode": "UM", "requested_distance_km": 12.0, "start_source": "nwissite", "start_id": "USGS-02339500", "geometry_length_km": 1.3773175573440597 }, "geometry": { "type": "LineString", "coordinates": [ [ -85.184071906, 32.900937699 ], [ -85.182510503, 32.899300694 ], [ -85.181608506, 32.897591099 ], [ -85.181416206, 32.896625698 ], [ -85.1813659, 32.895808995 ], [ -85.182423905, 32.889279999 ] ] } },
{ "type": "Feature", "properties": { "site_no": "02339500", "nhdplus_comid": "3298580", "navigation_mode": "UM", "requested_distance_km": 12.0, "start_source": "nwissite", "start_id": "USGS-02339500", "geometry_length_km": 1.5308851471841662 }, "geometry": { "type": "LineString", "coordinates": [ [ -85.191404, 32.912595198 ], [ -85.191426806, 32.911244296 ], [ -85.191092402, 32.910130098 ], [ -85.1903321, 32.9085695 ], [ -85.188417703, 32.905951798 ], [ -85.18812, 32.904570498 ], [ -85.187465101, 32.903425694 ], [ -85.186471403, 32.902383998 ], [ -85.184071906, 32.900937699 ] ] } },
{ "type": "Feature", "properties": { "site_no": "02339500", "nhdplus_comid": "3298572", "navigation_mode": "UM", "requested_distance_km": 12.0, "start_source": "nwissite", "start_id": "USGS-02339500", "geometry_length_km": 0.70863982209486331 }, "geometry": { "type": "LineString", "coordinates": [ [ -85.188834906, 32.918303698 ], [ -85.189746305, 32.917578697 ], [ -85.189911202, 32.916376695 ], [ -85.1911477, 32.914464898 ], [ -85.191207103, 32.912846997 ], [ -85.191404, 32.912595198 ] ] } },
{ "type": "Feature", "properties": { "site_no": "02339500", "nhdplus_comid": "3298568", "navigation_mode": "UM", "requested_distance_km": 12.0, "start_source": "nwissite", "start_id": "USGS-02339500", "geometry_length_km": 0.054061432498862257 }, "geometry": { "type": "LineString", "coordinates": [ [ -85.188379705, 32.918605193 ], [ -85.188834906, 32.918303698 ] ] } },
{ "type": "Feature", "properties": { "site_no": "02339500", "nhdplus_comid": "3298918", "navigation_mode": "UM", "requested_distance_km": 12.0, "start_source": "nwissite", "start_id": "USGS-02339500", "geometry_length_km": 0.01846866798228437 }, "geometry": { "type": "LineString", "coordinates": [ [ -85.188224204, 32.918708198 ], [ -85.188379705, 32.918605193 ] ] } },
{ "type": "Feature", "properties": { "site_no": "02339500", "nhdplus_comid": "3298566", "navigation_mode": "UM", "requested_distance_km": 12.0, "start_source": "nwissite", "start_id": "USGS-02339500", "geometry_length_km": 0.17269392157949043 }, "geometry": { "type": "LineString", "coordinates": [ [ -85.186770007, 32.9196712 ], [ -85.188224204, 32.918708198 ] ] } },
{ "type": "Feature", "properties": { "site_no": "02339500", "nhdplus_comid": "3298564", "navigation_mode": "UM", "requested_distance_km": 12.0, "start_source": "nwissite", "start_id": "USGS-02339500", "geometry_length_km": 0.26836315359491564 }, "geometry": { "type": "LineString", "coordinates": [ [ -85.185167201, 32.921551898 ], [ -85.1856196, 32.920433 ], [ -85.186770007, 32.9196712 ] ] } },
{ "type": "Feature", "properties": { "site_no": "02339500", "nhdplus_comid": "3298562", "navigation_mode": "UM", "requested_distance_km": 12.0, "start_source": "nwissite", "start_id": "USGS-02339500", "geometry_length_km": 0.083013697958117375 }, "geometry": { "type": "LineString", "coordinates": [ [ -85.184882104, 32.922256894 ], [ -85.185167201, 32.921551898 ] ] } },
{ "type": "Feature", "properties": { "site_no": "02339500", "nhdplus_comid": "3298560", "navigation_mode": "UM", "requested_distance_km": 12.0, "start_source": "nwissite", "start_id": "USGS-02339500", "geometry_length_km": 1.398312355593849 }, "geometry": { "type": "LineString", "coordinates": [ [ -85.188738406, 32.933546193 ], [ -85.188336104, 32.9325976 ], [ -85.184236206, 32.928148493 ], [ -85.184882104, 32.922256894 ] ] } },
{ "type": "Feature", "properties": { "site_no": "02339500", "nhdplus_comid": "3298552", "navigation_mode": "UM", "requested_distance_km": 12.0, "start_source": "nwissite", "start_id": "USGS-02339500", "geometry_length_km": 0.20001079237456659 }, "geometry": { "type": "LineString", "coordinates": [ [ -85.189455204, 32.935236193 ], [ -85.188738406, 32.933546193 ] ] } },
{ "type": "Feature", "properties": { "site_no": "02339500", "nhdplus_comid": "3298550", "navigation_mode": "UM", "requested_distance_km": 12.0, "start_source": "nwissite", "start_id": "USGS-02339500", "geometry_length_km": 1.6404580896257925 }, "geometry": { "type": "LineString", "coordinates": [ [ -85.191035405, 32.949630797 ], [ -85.190985002, 32.948814198 ], [ -85.190068401, 32.946021199 ], [ -85.189967506, 32.944388099 ], [ -85.190668203, 32.938095994 ], [ -85.189455204, 32.935236193 ] ] } },
{ "type": "Feature", "properties": { "site_no": "02339500", "nhdplus_comid": "3298546", "navigation_mode": "UM", "requested_distance_km": 12.0, "start_source": "nwissite", "start_id": "USGS-02339500", "geometry_length_km": 2.9165291326472942 }, "geometry": { "type": "LineString", "coordinates": [ [ -85.199131206, 32.973534599 ], [ -85.200079001, 32.967807397 ], [ -85.197511703, 32.962828398 ], [ -85.198006101, 32.959222697 ], [ -85.194454201, 32.955502793 ], [ -85.193180107, 32.952946395 ], [ -85.192061901, 32.951622494 ], [ -85.191035405, 32.949630797 ] ] } }
]
}
