{
"type": "FeatureCollection",
"name": "USGS_02341566_UM_12km",
"crs": { "type": "name", "properties": { "name": "urn:ogc:def:crs:OGC:1.3:CRS84" } },
"features": [
{ "type": "Feature", "properties": { "site_no": "02341566", "nhdplus_comid": "3434292", "navigation_mode": "UM", "requested_distance_km": 12.0, "start_source": "nwissite", "start_id": "USGS-02341566", "geometry_length_km": 0.11273581737432209 }, "geometry": { "type": "LineString", "coordinates": [ [ -84.967156805, 32.435362197 ], [ -84.967286803, 32.434426896 ], [ -84.96726897, 32.434359093 ] ] } },
{ "type": "Feature", "properties": { "site_no": "02341566", "nhdplus_comid": "3434284", "navigation_mode": "UM", "requested_distance_km": 12.0, "start_source": "nwissite", "start_id": "USGS-02341566", "geometry_length_km": 4.8724288697118041 }, "geometry": { "type": "LineString", "coordinates": [ [ -84.998375602, 32.465226896 ], [ -84.998168103, 32.4643941 ], [ -84.998268105, 32.462507896 ], [ -84.996997103, 32.458862796 ], [ -84.996748902, 32.455994599 ], [ -84.9952446, 32.452868395 ], [ -84.993836604, 32.451376796 ], [ -84.986952603, 32.447454497 ], [ -84.981158204, 32.444992594 ], [ -84.979602106, 32.444569699 ], [ -84.974363402, 32.443922296 ], [ -84.972985305, 32.443381295 ], [ -84.971118502, 32.441708997 ], [ -84.968256101, 32.437907696 ], [ -84.967156805, 32.435362197 ] ] } },
{ "type": "Feature", "properties": { "site_no": "02341566", "nhdplus_comid": "3434274", "navigation_mode": "UM", "requested_distance_km": 12.0, "start_source": "nwissite", "start_id": "USGS-02341566", "geometry_length_km": 2.9283454198852317 }, "geometry": { "type": "LineString", "coordinates": [ [ -84.995828502, 32.490573794 ], [ -84.995865606, 32.490306593 ], [ -84.995461605, 32.489725493 ], [ -84.995291106, 32.488625497 ], [ -84.994764701, 32.487761594 ], [ -84.994331107, 32.486229695 ], [ -84.994483307, 32.481640093 ], [ -84.994983904, 32.4780325 ], [ -84.994672604, 32.476783298 ], [ -84.994895101, 32.475179896 ], [ -84.995858803, 32.474055097 ], [ -84.997530505, 32.470155299 ], [ -84.997945704, 32.465997599 ], [ -84.998375602, 32.465226896 ] ] } },
{ "type": "Feature", "properties": { "site_no": "02341566", "nhdplus_comid": "3434268", "navigation_mode": "UM", "requested_distance_km": 12.0, "start_source": "nwissite", "start_id": "USGS-02341566", "geometry_length_km": 1.0929054454018894 }, "geometry": { "type": "LineString", "coordinates": [ [ -84.9960813, 32.500143796 ], [ -84.996108003, 32.500034496 ], [ -84.996134907, 32.499924697 ], [ -84.996161804, 32.499814898 ], [ -84.996145606, 32.499759898 ], [ -84.996113405, 32.499651097 ], [ -84.996081203, 32.499542296 ], [ -84.996049002, 32.499433495 ], [ -84.996016905, 32.499324694 ], [ -84.995984703, 32.499215893 ], [ -84.995952502, 32.4991071 ], [ -84.9959203, 32.498998299 ], [ -84.995888107, 32.498889498 ], [ -84.995856002, 32.498780698 ], [ -84.995823801, 32.498671897 ], [ -84.995791607, 32.498563096 ], [ -84.995759405, 32.498454295 ], [ -84.995727204, 32.498345494 ], [ -84.995695107, 32.498236693 ], [ -84.995662905, 32.4981279 ], [ -84.995630704, 32.498019099 ], [ -84.995598502, 32.497910298 ], [ -84.995566301, 32.497801498 ], [ -84.995534204, 32.497692697 ], [ -84.995502003, 32.497583896 ], [ -84.995502204, 32.497580498 ], [ -84.995511003, 32.497468695 ], [ -84.995519802, 32.497356795 ], [ -84.995528601, 32.497244895 ], [ -84.9955374, 32.497133099 ], [ -84.995546207, 32.497021198 ], [ -84.995555006, 32.496909395 ], [ -84.995563805, 32.496797495 ], [ -84.995572604, 32.496685699 ], [ -84.995581403, 32.496573798 ], [ -84.995590203, 32.496461995 ], [ -84.995599002, 32.496350095 ], [ -84.995607801, 32.496238299 ], [ -84.9956166, 32.496126398 ], [ -84.995625407, 32.496014595 ], [ -84.995634206, 32.495902695 ], [ -84.995643005, 32.495790899 ], [ -84.995651804, 32.495678999 ], [ -84.995660603, 32.495567195 ], [ -84.995669402, 32.495455295 ], [ -84.995678201, 32.495343499 ], [ -84.995687, 32.495231599 ], [ -84.995695807, 32.495119795 ], [ -84.995704606, 32.495007895 ], [ -84.995713405, 32.494896099 ], [ -84.995742902, 32.494850494 ], [ -84.9958065, 32.494751893 ], [ -84.995870203, 32.494653396 ], [ -84.995933905, 32.494554795 ], [ -84.9959976, 32.494456194 ], [ -84.996061303, 32.494357593 ], [ -84.996125005, 32.494259097 ], [ -84.996134207, 32.494192295 ], [ -84.996149704, 32.494080894 ], [ -84.996165104, 32.493969597 ], [ -84.996180601, 32.493858196 ], [ -84.996196002, 32.493746899 ], [ -84.996211506, 32.493635498 ], [ -84.996227004, 32.493524194 ], [ -84.996242404, 32.493412897 ], [ -84.996257901, 32.493301496 ], [ -84.996273302, 32.493190199 ], [ -84.996288806, 32.493078798 ], [ -84.996304207, 32.492967494 ], [ -84.996319704, 32.4928561 ], [ -84.996335104, 32.492744796 ], [ -84.996350601, 32.492633395 ], [ -84.996366002, 32.492522098 ], [ -84.996340707, 32.492430396 ], [ -84.996310607, 32.492321193 ], [ -84.996280506, 32.492211998 ], [ -84.996250302, 32.492102794 ], [ -84.996220201, 32.491993599 ], [ -84.996190101, 32.491884395 ], [ -84.996159904, 32.4917752 ], [ -84.996129803, 32.4916659 ], [ -84.996099703, 32.491556697 ], [ -84.996069603, 32.491447493 ], [ -84.996039405, 32.491338298 ], [ -84.996009305, 32.491229095 ], [ -84.995979205, 32.491119899 ], [ -84.995949, 32.491010696 ], [ -84.9959189, 32.490901396 ], [ -84.995888807, 32.4907922 ], [ -84.995858707, 32.490682997 ], [ -84.995828502, 32.490573794 ] ] } }
]
}
