{
"type": "FeatureCollection",
"name": "USGS_02404245_UM_12km",
"crs": { "type": "name", "properties": { "name": "urn:ogc:def:crs:OGC:1.3:CRS84" } },
"features": [
{ "type": "Feature", "properties": { "site_no": "02404245", "nhdplus_comid": "22204521", "navigation_mode": "UM", "requested_distance_km": 12.0, "start_source": "nwissite", "start_id": "USGS-02404245", "geometry_length_km": 0.82827262405231206 }, "geometry": { "type": "LineString", "coordinates": [ [ -86.007360205, 33.508532897 ], [ -86.008070804, 33.508785494 ], [ -86.011981606, 33.508582994 ], [ -86.012911104, 33.508789994 ], [ -86.015685769, 33.510298833 ] ] } },
{ "type": "Feature", "properties": { "site_no": "02404245", "nhdplus_comid": "22204541", "navigation_mode": "UM", "requested_distance_km": 12.0, "start_source": "nwissite", "start_id": "USGS-02404245", "geometry_length_km": 0.71716849052281784 }, "geometry": { "type": "LineString", "coordinates": [ [ -86.004168406, 33.503031895 ], [ -86.004496403, 33.503169797 ], [ -86.005944006, 33.504339397 ], [ -86.006162107, 33.504751898 ], [ -86.006298102, 33.505324699 ], [ -86.006323807, 33.506538898 ], [ -86.006786905, 33.507845096 ], [ -86.007360205, 33.508532897 ] ] } },
{ "type": "Feature", "properties": { "site_no": "02404245", "nhdplus_comid": "22204549", "navigation_mode": "UM", "requested_distance_km": 12.0, "start_source": "nwissite", "start_id": "USGS-02404245", "geometry_length_km": 0.40302195060967544 }, "geometry": { "type": "LineString", "coordinates": [ [ -86.001711607, 33.500107199 ], [ -86.001984507, 33.500464194 ], [ -86.002011605, 33.500601597 ], [ -86.002994306, 33.501816697 ], [ -86.004141301, 33.502848595 ], [ -86.004168406, 33.503031895 ] ] } },
{ "type": "Feature", "properties": { "site_no": "02404245", "nhdplus_comid": "22206823", "navigation_mode": "UM", "requested_distance_km": 12.0, "start_source": "nwissite", "start_id": "USGS-02404245", "geometry_length_km": 0.72002831795497424 }, "geometry": { "type": "LineString", "coordinates": [ [ -85.999968506, 33.493823096 ], [ -86.001711607, 33.500107199 ] ] } },
{ "type": "Feature", "properties": { "site_no": "02404245", "nhdplus_comid": "22205065", "navigation_mode": "UM", "requested_distance_km": 12.0, "start_source": "nwissite", "start_id": "USGS-02404245", "geometry_length_km": 0.24082124642767899 }, "geometry": { "type": "LineString", "coordinates": [ [ -85.998316504, 33.492221199 ], [ -85.998535804, 33.492747895 ], [ -85.999968506, 33.493823096 ] ] } },
{ "type": "Feature", "properties": { "site_no": "02404245", "nhdplus_comid": "22205069", "navigation_mode": "UM", "requested_distance_km": 12.0, "start_source": "nwissite", "start_id": "USGS-02404245", "geometry_length_km": 4.2892684943793862 }, "geometry": { "type": "LineString", "coordinates": [ [ -85.963839903, 33.491722099 ], [ -85.964906402, 33.492019199 ], [ -85.965043701, 33.4926605 ], [ -85.9652078, 33.492729194 ], [ -85.966820806, 33.492727995 ], [ -85.967285804, 33.492842294 ], [ -85.967231601, 33.493369199 ], [ -85.967450306, 33.493414797 ], [ -85.968544006, 33.493322499 ], [ -85.968790106, 33.493413895 ], [ -85.969337501, 33.493940398 ], [ -85.969720207, 33.493848495 ], [ -85.970157206, 33.493412897 ], [ -85.970840402, 33.493229099 ], [ -85.971742101, 33.492564097 ], [ -85.972534604, 33.492288694 ], [ -85.973327503, 33.492242299 ], [ -85.973737702, 33.492379397 ], [ -85.974038906, 33.492837295 ], [ -85.974284902, 33.492791399 ], [ -85.975405306, 33.492240697 ], [ -85.976361305, 33.491438299 ], [ -85.976826005, 33.491300397 ], [ -85.977536805, 33.491345696 ], [ -85.978165805, 33.491459697 ], [ -85.978795007, 33.491871595 ], [ -85.978959307, 33.492031798 ], [ -85.978987001, 33.492444098 ], [ -85.979069203, 33.492558599 ], [ -85.979042403, 33.493016794 ], [ -85.979152106, 33.493314497 ], [ -85.979781501, 33.493886694 ], [ -85.979891807, 33.494688399 ], [ -85.980001405, 33.494871594 ], [ -85.980084606, 33.4959023 ], [ -85.980166703, 33.496016793 ], [ -85.9805222, 33.496062197 ], [ -85.983063802, 33.495097995 ], [ -85.984402403, 33.494180694 ], [ -85.985468507, 33.493973598 ], [ -85.986753501, 33.4939726 ], [ -85.987873904, 33.493513398 ], [ -85.989131205, 33.493214495 ], [ -85.991072401, 33.493075296 ], [ -85.992137901, 33.492478795 ], [ -85.992574006, 33.491447598 ], [ -85.992847204, 33.491309896 ], [ -85.993148006, 33.491355494 ], [ -85.9934218, 33.491652995 ], [ -85.993859202, 33.491675496 ], [ -85.994978905, 33.490689494 ], [ -85.995389007, 33.490620397 ], [ -85.995498605, 33.490849398 ], [ -85.995499402, 33.491444893 ], [ -85.995608903, 33.4916052 ], [ -85.996155903, 33.491742097 ], [ -85.9965939, 33.492108293 ], [ -85.996894404, 33.492039196 ], [ -85.997277007, 33.491855599 ], [ -85.997523606, 33.492244795 ], [ -85.998316504, 33.492221199 ] ] } },
{ "type": "Feature", "properties": { "site_no": "02404245", "nhdplus_comid": "22205077", "navigation_mode": "UM", "requested_distance_km": 12.0, "start_source": "nwissite", "start_id": "USGS-02404245", "geometry_length_km": 0.72684386427056058 }, "geometry": { "type": "LineString", "coordinates": [ [ -85.960035503, 33.487166099 ], [ -85.960446201, 33.487807199 ], [ -85.961075507, 33.488493897 ], [ -85.961841606, 33.489088997 ], [ -85.962279104, 33.489157498 ], [ -85.963017203, 33.489088297 ], [ -85.9631266, 33.489156999 ], [ -85.963236406, 33.489569195 ], [ -85.963974901, 33.490026794 ], [ -85.964139402, 33.490416199 ], [ -85.964112706, 33.491103396 ], [ -85.963867001, 33.491470098 ], [ -85.963839903, 33.491722099 ] ] } },
{ "type": "Feature", "properties": { "site_no": "02404245", "nhdplus_comid": "22205081", "navigation_mode": "UM", "requested_distance_km": 12.0, "start_source": "nwissite", "start_id": "USGS-02404245", "geometry_length_km": 0.28522621583180557 }, "geometry": { "type": "LineString", "coordinates": [ [ -85.9621391, 33.4855382 ], [ -85.961455807, 33.485767797 ], [ -85.960499406, 33.486226596 ], [ -85.960253604, 33.486501597 ], [ -85.960035503, 33.487166099 ] ] } },
{ "type": "Feature", "properties": { "site_no": "02404245", "nhdplus_comid": "22205093", "navigation_mode": "UM", "requested_distance_km": 12.0, "start_source": "nwissite", "start_id": "USGS-02404245", "geometry_length_km": 2.9192910587858121 }, "geometry": { "type": "LineString", "coordinates": [ [ -85.950397804, 33.468685597 ], [ -85.950370602, 33.468983494 ], [ -85.951328203, 33.470082395 ], [ -85.952148601, 33.470631696 ], [ -85.952422, 33.470745996 ], [ -85.952996001, 33.470768593 ], [ -85.953897603, 33.470355794 ], [ -85.954498805, 33.470103398 ], [ -85.956166305, 33.470377296 ], [ -85.957095802, 33.470628798 ], [ -85.957478903, 33.471086599 ], [ -85.958189905, 33.471338198 ], [ -85.958736904, 33.471818894 ], [ -85.959038004, 33.472276896 ], [ -85.959065907, 33.472964093 ], [ -85.959558301, 33.4733532 ], [ -85.959777601, 33.473948695 ], [ -85.959751107, 33.474956594 ], [ -85.959341705, 33.475598194 ], [ -85.9586858, 33.475919396 ], [ -85.957838707, 33.476217695 ], [ -85.9577296, 33.476355195 ], [ -85.957730003, 33.476927899 ], [ -85.957265601, 33.477225997 ], [ -85.956910707, 33.477821693 ], [ -85.956829205, 33.478279993 ], [ -85.957103804, 33.479654193 ], [ -85.957322806, 33.479974799 ], [ -85.9592648, 33.481325194 ], [ -85.959729701, 33.481485195 ], [ -85.960003302, 33.481759995 ], [ -85.960222505, 33.482286699 ], [ -85.960496001, 33.482492596 ], [ -85.961179607, 33.482652597 ], [ -85.961726904, 33.483247794 ], [ -85.961754307, 33.483385198 ], [ -85.9618911, 33.483476698 ], [ -85.961864203, 33.4838662 ], [ -85.961563803, 33.484255798 ], [ -85.961618602, 33.484438993 ], [ -85.962275207, 33.484896697 ], [ -85.962248102, 33.485263295 ], [ -85.962138906, 33.485377796 ], [ -85.9621391, 33.4855382 ] ] } },
{ "type": "Feature", "properties": { "site_no": "02404245", "nhdplus_comid": "22205095", "navigation_mode": "UM", "requested_distance_km": 12.0, "start_source": "nwissite", "start_id": "USGS-02404245", "geometry_length_km": 0.49498111876626366 }, "geometry": { "type": "LineString", "coordinates": [ [ -85.945368901, 33.469146498 ], [ -85.946325302, 33.468962699 ], [ -85.947445907, 33.468916297 ], [ -85.947664507, 33.468824498 ], [ -85.947883002, 33.468526699 ], [ -85.948101602, 33.468411997 ], [ -85.949003704, 33.468617596 ], [ -85.950397804, 33.468685597 ] ] } }
]
}
