{
"type": "FeatureCollection",
"name": "USGS_02400000_UM_12km",
"crs": { "type": "name", "properties": { "name": "urn:ogc:def:crs:OGC:1.3:CRS84" } },
"features": [
{ "type": "Feature", "properties": { "site_no": "02400000", "nhdplus_comid": "15824321", "navigation_mode": "UM", "requested_distance_km": 12.0, "start_source": "comid_position_fallback", "start_id": "15824321", "geometry_length_km": 0.61711059570803151 }, "geometry": { "type": "LineString", "coordinates": [ [ -85.574906401, 33.956760697 ], [ -85.575620502, 33.957402393 ], [ -85.576307602, 33.957425594 ], [ -85.577160001, 33.956922099 ], [ -85.577572301, 33.956876494 ], [ -85.577902101, 33.957014099 ], [ -85.579083204, 33.958205499 ], [ -85.579989806, 33.958938897 ] ] } },
{ "type": "Feature", "properties": { "site_no": "02400000", "nhdplus_comid": "15824319", "navigation_mode": "UM", "requested_distance_km": 12.0, "start_source": "comid_position_fallback", "start_id": "15824321", "geometry_length_km": 1.9102923984913927 }, "geometry": { "type": "LineString", "coordinates": [ [ -85.559780806, 33.967150994 ], [ -85.561128706, 33.965937793 ], [ -85.562008604, 33.965617694 ], [ -85.564236507, 33.963901296 ], [ -85.566298001, 33.963925295 ], [ -85.567177907, 33.963650793 ], [ -85.569405705, 33.961751096 ], [ -85.569653407, 33.961293094 ], [ -85.569681406, 33.960582994 ], [ -85.570011601, 33.960102297 ], [ -85.571854301, 33.958454199 ], [ -85.5728992, 33.957882099 ], [ -85.574191406, 33.957355894 ], [ -85.574906401, 33.956760697 ] ] } }
]
}
