{
"type": "FeatureCollection",
"name": "USGS_02479500_UM_12km",
"crs": { "type": "name", "properties": { "name": "urn:ogc:def:crs:OGC:1.3:CRS84" } },
"features": [
{ "type": "Feature", "properties": { "site_no": "02479500", "nhdplus_comid": "18094145", "navigation_mode": "UM", "requested_distance_km": 12.0, "start_source": "nwissite", "start_id": "USGS-02479500", "geometry_length_km": 0.96993556287306848 }, "geometry": { "type": "LineString", "coordinates": [ [ -88.411243707, 30.864494599 ], [ -88.411509305, 30.864425793 ], [ -88.412067004, 30.864173599 ], [ -88.413209103, 30.863714993 ], [ -88.413979307, 30.863393895 ], [ -88.414563507, 30.862889595 ], [ -88.4149618, 30.862683296 ], [ -88.415466502, 30.862637199 ], [ -88.415918104, 30.862843297 ], [ -88.416157305, 30.8630495 ], [ -88.416370101, 30.863530599 ], [ -88.416450001, 30.864217997 ], [ -88.416582905, 30.864378296 ], [ -88.416769005, 30.864469893 ], [ -88.417034604, 30.864446893 ], [ -88.417353302, 30.864171796 ], [ -88.417459406, 30.864057198 ], [ -88.417592004, 30.863530196 ], [ -88.417777807, 30.863117598 ], [ -88.418038432, 30.862644779 ] ] } },
{ "type": "Feature", "properties": { "site_no": "02479500", "nhdplus_comid": "18094139", "navigation_mode": "UM", "requested_distance_km": 12.0, "start_source": "nwissite", "start_id": "USGS-02479500", "geometry_length_km": 0.82306191166584264 }, "geometry": { "type": "LineString", "coordinates": [ [ -88.413716607, 30.869832896 ], [ -88.413689904, 30.869512096 ], [ -88.413610205, 30.869466297 ], [ -88.413636707, 30.869374596 ], [ -88.413291305, 30.869031094 ], [ -88.412866004, 30.868801996 ], [ -88.411564305, 30.868733793 ], [ -88.411192402, 30.868687995 ], [ -88.410979904, 30.868550599 ], [ -88.410926707, 30.868367299 ], [ -88.410846606, 30.867702797 ], [ -88.410952806, 30.867519498 ], [ -88.410952404, 30.866648793 ], [ -88.410580404, 30.866098896 ], [ -88.410580106, 30.865480095 ], [ -88.410739303, 30.865044698 ], [ -88.411164202, 30.864654996 ], [ -88.411243707, 30.864494599 ] ] } },
{ "type": "Feature", "properties": { "site_no": "02479500", "nhdplus_comid": "18094123", "navigation_mode": "UM", "requested_distance_km": 12.0, "start_source": "nwissite", "start_id": "USGS-02479500", "geometry_length_km": 0.19957183215329533 }, "geometry": { "type": "LineString", "coordinates": [ [ -88.413531505, 30.871574596 ], [ -88.413584501, 30.871414095 ], [ -88.413770206, 30.870978698 ], [ -88.413769804, 30.869878799 ], [ -88.413716607, 30.869832896 ] ] } },
{ "type": "Feature", "properties": { "site_no": "02479500", "nhdplus_comid": "18094117", "navigation_mode": "UM", "requested_distance_km": 12.0, "start_source": "nwissite", "start_id": "USGS-02479500", "geometry_length_km": 2.7329305896565614 }, "geometry": { "type": "LineString", "coordinates": [ [ -88.402617902, 30.886082597 ], [ -88.402830303, 30.885784596 ], [ -88.403388105, 30.885371998 ], [ -88.404291406, 30.885096796 ], [ -88.404796101, 30.884684198 ], [ -88.404822506, 30.884294599 ], [ -88.404662907, 30.8840198 ], [ -88.404609703, 30.883813493 ], [ -88.404476807, 30.883653097 ], [ -88.404503405, 30.883538596 ], [ -88.404397003, 30.883332394 ], [ -88.404317006, 30.882667795 ], [ -88.404290207, 30.881820098 ], [ -88.404422902, 30.881384693 ], [ -88.405511707, 30.879826196 ], [ -88.405989707, 30.879184499 ], [ -88.406255201, 30.878932297 ], [ -88.406573802, 30.878428094 ], [ -88.406786107, 30.877809294 ], [ -88.4068655, 30.877007298 ], [ -88.407024704, 30.876502998 ], [ -88.407343306, 30.876021795 ], [ -88.407847904, 30.875540495 ], [ -88.408246301, 30.8752883 ], [ -88.408937, 30.875242293 ], [ -88.409495004, 30.8753796 ], [ -88.4111422, 30.875631198 ], [ -88.4115142, 30.8756769 ], [ -88.412417404, 30.875561997 ], [ -88.413825303, 30.8751949 ], [ -88.414117403, 30.874919899 ], [ -88.414303206, 30.874644794 ], [ -88.414409205, 30.874071896 ], [ -88.414196402, 30.873407498 ], [ -88.413744703, 30.8730869 ], [ -88.413319603, 30.872972399 ], [ -88.412203707, 30.872903995 ], [ -88.411725506, 30.872789599 ], [ -88.411512904, 30.8726063 ], [ -88.411512703, 30.872239694 ], [ -88.411804907, 30.872010395 ], [ -88.412681401, 30.871941499 ], [ -88.413212806, 30.871803895 ], [ -88.413531505, 30.871574596 ] ] } },
{ "type": "Feature", "properties": { "site_no": "02479500", "nhdplus_comid": "18094079", "navigation_mode": "UM", "requested_distance_km": 12.0, "start_source": "nwissite", "start_id": "USGS-02479500", "geometry_length_km": 0.087687577950143925 }, "geometry": { "type": "LineString", "coordinates": [ [ -88.402405605, 30.886838794 ], [ -88.402458601, 30.886632599 ], [ -88.4025914, 30.886403397 ], [ -88.402617902, 30.886082597 ] ] } },
{ "type": "Feature", "properties": { "site_no": "02479500", "nhdplus_comid": "18094075", "navigation_mode": "UM", "requested_distance_km": 12.0, "start_source": "nwissite", "start_id": "USGS-02479500", "geometry_length_km": 2.7330580220542902 }, "geometry": { "type": "LineString", "coordinates": [ [ -88.402011901, 30.901022993 ], [ -88.401241206, 30.900885798 ], [ -88.400683202, 30.900565095 ], [ -88.400284201, 30.900061093 ], [ -88.400284104, 30.899442397 ], [ -88.400416806, 30.899281994 ], [ -88.400735706, 30.899075598 ], [ -88.401346907, 30.899052598 ], [ -88.401798703, 30.899281599 ], [ -88.402410105, 30.899854295 ], [ -88.402968302, 30.900220796 ], [ -88.403260604, 30.900312297 ], [ -88.403526403, 30.900335297 ], [ -88.403712302, 30.900151893 ], [ -88.404004507, 30.8998539 ], [ -88.404004306, 30.899418496 ], [ -88.403951101, 30.899280995 ], [ -88.403180204, 30.8986625 ], [ -88.402276702, 30.898273297 ], [ -88.402090602, 30.898089997 ], [ -88.402117006, 30.897700496 ], [ -88.402356103, 30.897494197 ], [ -88.403233007, 30.897402294 ], [ -88.403658107, 30.897150099 ], [ -88.403658003, 30.896943897 ], [ -88.403498501, 30.896760598 ], [ -88.403179504, 30.896577395 ], [ -88.402648106, 30.8965545 ], [ -88.401558705, 30.896738097 ], [ -88.401293002, 30.8966695 ], [ -88.401186705, 30.896554798 ], [ -88.4010536, 30.896096595 ], [ -88.401186407, 30.895775795 ], [ -88.401638106, 30.895523593 ], [ -88.402089603, 30.895111099 ], [ -88.402328506, 30.894469395 ], [ -88.402966, 30.894010894 ], [ -88.403018802, 30.892796494 ], [ -88.4027794, 30.892292395 ], [ -88.401769504, 30.891353197 ], [ -88.401663207, 30.891192794 ], [ -88.401689507, 30.890688695 ], [ -88.4020878, 30.889840797 ], [ -88.402167305, 30.889267899 ], [ -88.402007706, 30.8886033 ], [ -88.401874706, 30.888374195 ], [ -88.401874602, 30.887801394 ], [ -88.401980601, 30.887320094 ], [ -88.402272806, 30.886953399 ], [ -88.402405605, 30.886838794 ] ] } },
{ "type": "Feature", "properties": { "site_no": "02479500", "nhdplus_comid": "18094049", "navigation_mode": "UM", "requested_distance_km": 12.0, "start_source": "nwissite", "start_id": "USGS-02479500", "geometry_length_km": 0.23604277430619847 }, "geometry": { "type": "LineString", "coordinates": [ [ -88.402703501, 30.902833097 ], [ -88.402597003, 30.902374893 ], [ -88.402676605, 30.902145699 ], [ -88.4026765, 30.9016416 ], [ -88.402463704, 30.9011833 ], [ -88.402011901, 30.901022993 ] ] } },
{ "type": "Feature", "properties": { "site_no": "02479500", "nhdplus_comid": "18094041", "navigation_mode": "UM", "requested_distance_km": 12.0, "start_source": "nwissite", "start_id": "USGS-02479500", "geometry_length_km": 0.26706098639968689 }, "geometry": { "type": "LineString", "coordinates": [ [ -88.402199306, 30.905010097 ], [ -88.402039804, 30.904757999 ], [ -88.402039707, 30.904460199 ], [ -88.402145803, 30.904047795 ], [ -88.402491204, 30.9037726 ], [ -88.402703606, 30.903474696 ], [ -88.402703501, 30.902833097 ] ] } },
{ "type": "Feature", "properties": { "site_no": "02479500", "nhdplus_comid": "18094029", "navigation_mode": "UM", "requested_distance_km": 12.0, "start_source": "nwissite", "start_id": "USGS-02479500", "geometry_length_km": 3.1011503031077696 }, "geometry": { "type": "LineString", "coordinates": [ [ -88.407070205, 30.9239133 ], [ -88.407202907, 30.923569493 ], [ -88.407255806, 30.9229967 ], [ -88.406909905, 30.922011398 ], [ -88.406909801, 30.921828099 ], [ -88.406776801, 30.921621993 ], [ -88.406803101, 30.920980297 ], [ -88.406962402, 30.920567796 ], [ -88.406988703, 30.9200866 ], [ -88.406802602, 30.919926293 ], [ -88.406457104, 30.919788897 ], [ -88.405580007, 30.919720396 ], [ -88.4051015, 30.919628896 ], [ -88.404676206, 30.919353999 ], [ -88.404383704, 30.919010296 ], [ -88.404330507, 30.918826997 ], [ -88.404277302, 30.918758295 ], [ -88.404277302, 30.918643698 ], [ -88.404197507, 30.918620795 ], [ -88.404091001, 30.918047994 ], [ -88.404197104, 30.917612597 ], [ -88.404462807, 30.9173605 ], [ -88.405392803, 30.9168102 ], [ -88.405685104, 30.916512296 ], [ -88.406535104, 30.915526696 ], [ -88.4070132, 30.914724596 ], [ -88.407677405, 30.913922399 ], [ -88.408129103, 30.913624398 ], [ -88.4083682, 30.913417995 ], [ -88.408447906, 30.913303494 ], [ -88.408474304, 30.913051397 ], [ -88.408235103, 30.9127765 ], [ -88.407783106, 30.912570395 ], [ -88.4058429, 30.912273094 ], [ -88.405125104, 30.911792099 ], [ -88.4041683, 30.911425598 ], [ -88.403822601, 30.911196597 ], [ -88.403822504, 30.910875797 ], [ -88.404035002, 30.9104404 ], [ -88.404221006, 30.910188295 ], [ -88.404274002, 30.9099591 ], [ -88.403157607, 30.909501195 ], [ -88.402785406, 30.909226298 ], [ -88.402732104, 30.908607595 ], [ -88.402944602, 30.908355497 ], [ -88.403715104, 30.908011496 ], [ -88.404565603, 30.907942593 ], [ -88.404831305, 30.907850794 ], [ -88.404937506, 30.907690398 ], [ -88.404990703, 30.907575794 ], [ -88.404033504, 30.906499095 ], [ -88.403873906, 30.906224199 ], [ -88.403820701, 30.906224199 ], [ -88.403794102, 30.906109594 ], [ -88.403608106, 30.905949295 ], [ -88.402863905, 30.905536994 ], [ -88.402598001, 30.905285098 ], [ -88.402199306, 30.905010097 ] ] } },
{ "type": "Feature", "properties": { "site_no": "02479500", "nhdplus_comid": "18093963", "navigation_mode": "UM", "requested_distance_km": 12.0, "start_source": "nwissite", "start_id": "USGS-02479500", "geometry_length_km": 0.1055975920282454 }, "geometry": { "type": "LineString", "coordinates": [ [ -88.406645201, 30.924784094 ], [ -88.406777903, 30.924394496 ], [ -88.406963803, 30.924050696 ], [ -88.407070205, 30.9239133 ] ] } },
{ "type": "Feature", "properties": { "site_no": "02479500", "nhdplus_comid": "18093961", "navigation_mode": "UM", "requested_distance_km": 12.0, "start_source": "nwissite", "start_id": "USGS-02479500", "geometry_length_km": 1.3005955088719212 }, "geometry": { "type": "LineString", "coordinates": [ [ -88.404203005, 30.933102794 ], [ -88.404043503, 30.933102794 ], [ -88.403485104, 30.932621799 ], [ -88.403192602, 30.932301097 ], [ -88.403006107, 30.931636594 ], [ -88.403139003, 30.931201197 ], [ -88.403643705, 30.930399098 ], [ -88.404547207, 30.929527998 ], [ -88.404786304, 30.9291614 ], [ -88.404812701, 30.9288176 ], [ -88.404732905, 30.928565599 ], [ -88.404333904, 30.927947097 ], [ -88.4042008, 30.927305393 ], [ -88.404253803, 30.927007496 ], [ -88.404360101, 30.926869996 ], [ -88.4046259, 30.926778294 ], [ -88.405157506, 30.926709294 ], [ -88.406486601, 30.9270299 ], [ -88.4068055, 30.926892199 ], [ -88.406991601, 30.926708899 ], [ -88.407018006, 30.926342294 ], [ -88.406858206, 30.925746597 ], [ -88.406805001, 30.925700694 ], [ -88.406671904, 30.925265297 ], [ -88.406645201, 30.924784094 ] ] } }
]
}
