{
"type": "FeatureCollection",
"name": "USGS_02427700_UM_12km",
"crs": { "type": "name", "properties": { "name": "urn:ogc:def:crs:OGC:1.3:CRS84" } },
"features": [
{ "type": "Feature", "properties": { "site_no": "02427700", "nhdplus_comid": "21456180", "navigation_mode": "UM", "requested_distance_km": 12.0, "start_source": "nwissite", "start_id": "USGS-02427700", "geometry_length_km": 1.7744805653346913 }, "geometry": { "type": "LineString", "coordinates": [ [ -87.567926206, 32.021325193 ], [ -87.567093, 32.020270795 ], [ -87.566394001, 32.019720599 ], [ -87.565614104, 32.019536793 ], [ -87.565210506, 32.019880399 ], [ -87.564779706, 32.020521797 ], [ -87.563676305, 32.021483697 ], [ -87.562949903, 32.021827094 ], [ -87.562035404, 32.021895394 ], [ -87.561632104, 32.021711893 ], [ -87.561363406, 32.021345094 ], [ -87.561363406, 32.021161795 ], [ -87.561605901, 32.020680599 ], [ -87.561955705, 32.020382993 ], [ -87.563247204, 32.0197649 ], [ -87.563328005, 32.019489996 ], [ -87.563113004, 32.019237794 ], [ -87.562951706, 32.019168995 ], [ -87.561875805, 32.019191295 ], [ -87.560020402, 32.018731996 ], [ -87.558326103, 32.018479094 ], [ -87.557815202, 32.0184789 ], [ -87.557519101, 32.018639095 ], [ -87.557112835, 32.018960024 ] ] } },
{ "type": "Feature", "properties": { "site_no": "02427700", "nhdplus_comid": "21456024", "navigation_mode": "UM", "requested_distance_km": 12.0, "start_source": "nwissite", "start_id": "USGS-02427700", "geometry_length_km": 1.5019479163997036 }, "geometry": { "type": "LineString", "coordinates": [ [ -87.582530007, 32.023370497 ], [ -87.579813801, 32.022705093 ], [ -87.577554807, 32.021993898 ], [ -87.576990001, 32.0220166 ], [ -87.576075107, 32.022497393 ], [ -87.5754565, 32.022497095 ], [ -87.575026304, 32.022267796 ], [ -87.574730806, 32.021740697 ], [ -87.574300505, 32.021648794 ], [ -87.573062904, 32.022198297 ], [ -87.572148204, 32.022404194 ], [ -87.571771801, 32.022335194 ], [ -87.570481107, 32.021738999 ], [ -87.569351502, 32.021715499 ], [ -87.567926206, 32.021325193 ] ] } },
{ "type": "Feature", "properties": { "site_no": "02427700", "nhdplus_comid": "21456000", "navigation_mode": "UM", "requested_distance_km": 12.0, "start_source": "nwissite", "start_id": "USGS-02427700", "geometry_length_km": 3.7197480407932257 }, "geometry": { "type": "LineString", "coordinates": [ [ -87.607353806, 32.036735795 ], [ -87.606519707, 32.036827393 ], [ -87.604582906, 32.036849894 ], [ -87.603695206, 32.036689393 ], [ -87.602430902, 32.0366662 ], [ -87.601650804, 32.036482699 ], [ -87.6006018, 32.036001399 ], [ -87.600278907, 32.035978399 ], [ -87.599229805, 32.036207296 ], [ -87.598638102, 32.036069699 ], [ -87.598234601, 32.0358634 ], [ -87.598019503, 32.035588399 ], [ -87.598046504, 32.034717694 ], [ -87.597831301, 32.034626 ], [ -87.596728407, 32.034717299 ], [ -87.596513204, 32.034648493 ], [ -87.595921606, 32.034235895 ], [ -87.595545001, 32.034075394 ], [ -87.594980106, 32.033983596 ], [ -87.594415307, 32.033571094 ], [ -87.594442405, 32.033112697 ], [ -87.595733702, 32.032585993 ], [ -87.595868304, 32.032311097 ], [ -87.595814601, 32.0318527 ], [ -87.595384404, 32.031325698 ], [ -87.594873503, 32.031050496 ], [ -87.5943086, 32.030958697 ], [ -87.592882901, 32.031004198 ], [ -87.5915379, 32.031370498 ], [ -87.591026805, 32.031095393 ], [ -87.590757906, 32.030659899 ], [ -87.590569906, 32.030041099 ], [ -87.589924507, 32.029353499 ], [ -87.589252204, 32.028917894 ], [ -87.588795103, 32.028734595 ], [ -87.587961301, 32.028550997 ], [ -87.585325003, 32.029100098 ], [ -87.584544905, 32.029099897 ], [ -87.583980203, 32.028870597 ], [ -87.583388604, 32.028480798 ], [ -87.583173506, 32.028205797 ], [ -87.5831469, 32.027655698 ], [ -87.582985602, 32.027403697 ], [ -87.582340203, 32.026830494 ], [ -87.582367301, 32.026257694 ], [ -87.582878605, 32.025730796 ], [ -87.583121002, 32.025203899 ], [ -87.583121501, 32.023920596 ], [ -87.582530007, 32.023370497 ] ] } },
{ "type": "Feature", "properties": { "site_no": "02427700", "nhdplus_comid": "21455944", "navigation_mode": "UM", "requested_distance_km": 12.0, "start_source": "nwissite", "start_id": "USGS-02427700", "geometry_length_km": 3.1644185719348599 }, "geometry": { "type": "LineString", "coordinates": [ [ -87.626937501, 32.035362199 ], [ -87.626507103, 32.034835197 ], [ -87.6258884, 32.0343998 ], [ -87.625431105, 32.034193598 ], [ -87.625108302, 32.033918694 ], [ -87.625081405, 32.033735298 ], [ -87.624973804, 32.033666596 ], [ -87.624704801, 32.033254094 ], [ -87.624166802, 32.0331854 ], [ -87.623870902, 32.033391595 ], [ -87.623548105, 32.033987395 ], [ -87.623171605, 32.034193493 ], [ -87.621961005, 32.034170598 ], [ -87.621207803, 32.0346976 ], [ -87.620831206, 32.0346976 ], [ -87.620562203, 32.034537196 ], [ -87.620078005, 32.0339185 ], [ -87.619405501, 32.033735193 ], [ -87.618867502, 32.032635197 ], [ -87.6184102, 32.032337397 ], [ -87.618087403, 32.032428995 ], [ -87.617872201, 32.032726794 ], [ -87.617764607, 32.033093497 ], [ -87.617764503, 32.033803798 ], [ -87.617683902, 32.033872597 ], [ -87.616742402, 32.033941194 ], [ -87.616473302, 32.034055799 ], [ -87.615720004, 32.034743197 ], [ -87.615478002, 32.034880593 ], [ -87.6150745, 32.034743093 ], [ -87.614751704, 32.033872299 ], [ -87.614160106, 32.033161797 ], [ -87.613810405, 32.033070199 ], [ -87.613487601, 32.033161893 ], [ -87.613326207, 32.0333222 ], [ -87.613379903, 32.033803396 ], [ -87.613514304, 32.034078397 ], [ -87.613460504, 32.034674197 ], [ -87.613056906, 32.034765795 ], [ -87.612465203, 32.034742899 ], [ -87.612007901, 32.034559496 ], [ -87.611819603, 32.034398995 ], [ -87.611819707, 32.033917896 ], [ -87.611550801, 32.033482499 ], [ -87.611093402, 32.033161595 ], [ -87.610609204, 32.033184499 ], [ -87.610501602, 32.033298999 ], [ -87.610528506, 32.033734396 ], [ -87.6106361, 32.033917695 ], [ -87.610582203, 32.034238495 ], [ -87.609640606, 32.034857094 ], [ -87.609290905, 32.034834094 ], [ -87.608268701, 32.034444496 ], [ -87.607703805, 32.034375697 ], [ -87.607488602, 32.034627698 ], [ -87.607542306, 32.035085998 ], [ -87.607838102, 32.035590097 ], [ -87.607838102, 32.036071397 ], [ -87.607353806, 32.036735795 ] ] } }
]
}
