{
"type": "FeatureCollection",
"name": "USGS_02406500_DM_12km",
"crs": { "type": "name", "properties": { "name": "urn:ogc:def:crs:OGC:1.3:CRS84" } },
"features": [
{ "type": "Feature", "properties": { "site_no": "02406500", "nhdplus_comid": "22206629", "navigation_mode": "DM", "requested_distance_km": 12.0, "start_source": "nwissite", "start_id": "USGS-02406500", "geometry_length_km": 2.4807573896873318 }, "geometry": { "type": "LineString", "coordinates": [ [ -86.234128088, 33.359830913 ], [ -86.234909102, 33.359664395 ], [ -86.237172902, 33.3580129 ], [ -86.238209806, 33.3576454 ], [ -86.238591701, 33.3574389 ], [ -86.238755204, 33.357209697 ], [ -86.238999106, 33.355857797 ], [ -86.239680007, 33.354642995 ], [ -86.239952803, 33.354413696 ], [ -86.2404439, 33.354252897 ], [ -86.241372101, 33.3542291 ], [ -86.243556201, 33.354479097 ], [ -86.243992902, 33.354409896 ], [ -86.246257402, 33.353422694 ], [ -86.247321106, 33.352757297 ], [ -86.248085104, 33.352573298 ], [ -86.249968506, 33.352502696 ], [ -86.252274506, 33.352477096 ], [ -86.252656706, 33.352408797 ], [ -86.252984703, 33.352202997 ], [ -86.252985105, 33.351859294 ], [ -86.252630703, 33.351538293 ], [ -86.252631001, 33.351332098 ], [ -86.252849706, 33.351103194 ], [ -86.253423207, 33.3508747 ], [ -86.253833301, 33.350485593 ], [ -86.2546525, 33.350280195 ] ] } },
{ "type": "Feature", "properties": { "site_no": "02406500", "nhdplus_comid": "22206479", "navigation_mode": "DM", "requested_distance_km": 12.0, "start_source": "nwissite", "start_id": "USGS-02406500", "geometry_length_km": 0.95976354325951363 }, "geometry": { "type": "LineString", "coordinates": [ [ -86.2546525, 33.350280195 ], [ -86.254680306, 33.349890798 ], [ -86.2540261, 33.349294595 ], [ -86.253862604, 33.349019498 ], [ -86.253890604, 33.348492496 ], [ -86.255010106, 33.348241694 ], [ -86.255801506, 33.348402798 ], [ -86.256292805, 33.348449096 ], [ -86.2569758, 33.348037399 ], [ -86.257303402, 33.347945996 ], [ -86.257767402, 33.348015293 ], [ -86.258585706, 33.3484971 ], [ -86.259158902, 33.348474696 ], [ -86.259486802, 33.348200195 ], [ -86.260143504, 33.347055294 ], [ -86.2601711, 33.346871994 ] ] } },
{ "type": "Feature", "properties": { "site_no": "02406500", "nhdplus_comid": "22206483", "navigation_mode": "DM", "requested_distance_km": 12.0, "start_source": "nwissite", "start_id": "USGS-02406500", "geometry_length_km": 1.609762423891119 }, "geometry": { "type": "LineString", "coordinates": [ [ -86.2601711, 33.346871994 ], [ -86.261127204, 33.346231498 ], [ -86.263530307, 33.345408998 ], [ -86.263939701, 33.345432296 ], [ -86.264376104, 33.345730394 ], [ -86.2645666, 33.346097194 ], [ -86.264730304, 33.346211895 ], [ -86.264757402, 33.346349396 ], [ -86.265575804, 33.346739493 ], [ -86.266258202, 33.346740097 ], [ -86.2665857, 33.346809193 ], [ -86.267321706, 33.347588696 ], [ -86.267785802, 33.347589098 ], [ -86.268004201, 33.347497694 ], [ -86.268277101, 33.347498 ], [ -86.269040801, 33.347979695 ], [ -86.2695048, 33.348071694 ], [ -86.2706514, 33.347935297 ], [ -86.2713615, 33.347569294 ], [ -86.271798201, 33.347638398 ], [ -86.272098005, 33.3480739 ], [ -86.272452801, 33.348074198 ], [ -86.272835106, 33.347914197 ], [ -86.273845106, 33.347892098 ], [ -86.275101103, 33.347549498 ] ] } },
{ "type": "Feature", "properties": { "site_no": "02406500", "nhdplus_comid": "22206481", "navigation_mode": "DM", "requested_distance_km": 12.0, "start_source": "nwissite", "start_id": "USGS-02406500", "geometry_length_km": 0.53121352933625765 }, "geometry": { "type": "LineString", "coordinates": [ [ -86.275101103, 33.347549498 ], [ -86.275210403, 33.347457998 ], [ -86.276957907, 33.347046994 ], [ -86.2785412, 33.346910797 ], [ -86.278951004, 33.346521594 ], [ -86.279306106, 33.346384399 ], [ -86.279524401, 33.346453294 ], [ -86.279660307, 33.346957393 ], [ -86.279796503, 33.3471867 ] ] } },
{ "type": "Feature", "properties": { "site_no": "02406500", "nhdplus_comid": "22206495", "navigation_mode": "DM", "requested_distance_km": 12.0, "start_source": "nwissite", "start_id": "USGS-02406500", "geometry_length_km": 2.2774012798223726 }, "geometry": { "type": "LineString", "coordinates": [ [ -86.279796503, 33.3471867 ], [ -86.280288003, 33.3470724 ], [ -86.2803974, 33.346935093 ], [ -86.280452304, 33.346568599 ], [ -86.280289702, 33.345537595 ], [ -86.280371703, 33.345400095 ], [ -86.280781306, 33.345240094 ], [ -86.282282807, 33.345103793 ], [ -86.282883205, 33.345195897 ], [ -86.283128604, 33.345356494 ], [ -86.283155702, 33.345585495 ], [ -86.2827731, 33.345997594 ], [ -86.282772705, 33.346318297 ], [ -86.282526501, 33.346936695 ], [ -86.2826083, 33.347028397 ], [ -86.283181503, 33.347051695 ], [ -86.284191906, 33.346663095 ], [ -86.285148002, 33.345930696 ], [ -86.285502903, 33.345862299 ], [ -86.285721302, 33.345953993 ], [ -86.285775706, 33.346068598 ], [ -86.285611406, 33.346595399 ], [ -86.285665706, 33.346778698 ], [ -86.286102504, 33.346733198 ], [ -86.286813006, 33.345954798 ], [ -86.287140705, 33.345840499 ], [ -86.288833305, 33.345635496 ], [ -86.290772304, 33.344605997 ], [ -86.290909, 33.344376996 ], [ -86.290909305, 33.344101995 ], [ -86.290773004, 33.343849994 ], [ -86.290718801, 33.343254298 ], [ -86.290828206, 33.343071096 ], [ -86.291210704, 33.342773594 ], [ -86.291674703, 33.342727996 ], [ -86.292384401, 33.342820093 ], [ -86.2927121, 33.342659995 ], [ -86.292766906, 33.342522599 ], [ -86.293177105, 33.341537699 ], [ -86.293204606, 33.341239996 ], [ -86.293095902, 33.340850398 ] ] } },
{ "type": "Feature", "properties": { "site_no": "02406500", "nhdplus_comid": "22206499", "navigation_mode": "DM", "requested_distance_km": 12.0, "start_source": "nwissite", "start_id": "USGS-02406500", "geometry_length_km": 0.19068440055061062 }, "geometry": { "type": "LineString", "coordinates": [ [ -86.293095902, 33.340850398 ], [ -86.292959407, 33.340827398 ], [ -86.292741604, 33.340254493 ], [ -86.293233506, 33.339705095 ], [ -86.2935884, 33.339613594 ] ] } },
{ "type": "Feature", "properties": { "site_no": "02406500", "nhdplus_comid": "22206509", "navigation_mode": "DM", "requested_distance_km": 12.0, "start_source": "nwissite", "start_id": "USGS-02406500", "geometry_length_km": 0.96639930460512691 }, "geometry": { "type": "LineString", "coordinates": [ [ -86.2935884, 33.339613594 ], [ -86.293997802, 33.339476399 ], [ -86.294189103, 33.339293294 ], [ -86.294217207, 33.338445693 ], [ -86.294572301, 33.338147998 ], [ -86.2954458, 33.338011198 ], [ -86.296264105, 33.338584498 ], [ -86.296537004, 33.338584594 ], [ -86.2969466, 33.338332899 ], [ -86.296947002, 33.337943397 ], [ -86.296101503, 33.337232798 ], [ -86.296101801, 33.337072395 ], [ -86.296292901, 33.3368892 ], [ -86.2982307, 33.336821698 ], [ -86.298612706, 33.337051094 ], [ -86.298803501, 33.337303199 ], [ -86.298967205, 33.337371998 ], [ -86.299294703, 33.337395094 ] ] } },
{ "type": "Feature", "properties": { "site_no": "02406500", "nhdplus_comid": "22206517", "navigation_mode": "DM", "requested_distance_km": 12.0, "start_source": "nwissite", "start_id": "USGS-02406500", "geometry_length_km": 0.88594860761384542 }, "geometry": { "type": "LineString", "coordinates": [ [ -86.299294703, 33.337395094 ], [ -86.300604701, 33.337441698 ], [ -86.301014304, 33.337327398 ], [ -86.301396601, 33.337029897 ], [ -86.301506005, 33.336755 ], [ -86.301424406, 33.336457096 ], [ -86.300960802, 33.335998595 ], [ -86.300988406, 33.335586295 ], [ -86.301643603, 33.335426293 ], [ -86.302108005, 33.334853895 ], [ -86.302872404, 33.334716894 ], [ -86.303282306, 33.334167294 ], [ -86.304019205, 33.334053196 ], [ -86.304401606, 33.333595194 ], [ -86.304675207, 33.332908094 ] ] } },
{ "type": "Feature", "properties": { "site_no": "02406500", "nhdplus_comid": "22206535", "navigation_mode": "DM", "requested_distance_km": 12.0, "start_source": "nwissite", "start_id": "USGS-02406500", "geometry_length_km": 0.88164095018042732 }, "geometry": { "type": "LineString", "coordinates": [ [ -86.304675207, 33.332908094 ], [ -86.305576101, 33.332450397 ], [ -86.306450002, 33.331855297 ], [ -86.306805201, 33.331374399 ], [ -86.307133101, 33.330733098 ], [ -86.307215303, 33.3303895 ], [ -86.307243101, 33.329679295 ], [ -86.3071343, 33.329312697 ], [ -86.307025306, 33.329106398 ], [ -86.3068619, 33.328648195 ], [ -86.306234606, 33.328166798 ], [ -86.3062075, 33.327891797 ], [ -86.306644507, 33.327433899 ], [ -86.307218403, 33.326426193 ] ] } },
{ "type": "Feature", "properties": { "site_no": "02406500", "nhdplus_comid": "22206545", "navigation_mode": "DM", "requested_distance_km": 12.0, "start_source": "nwissite", "start_id": "USGS-02406500", "geometry_length_km": 2.3870041539336779 }, "geometry": { "type": "LineString", "coordinates": [ [ -86.307218403, 33.326426193 ], [ -86.308856301, 33.325877197 ], [ -86.3089111, 33.3254878 ], [ -86.3088293, 33.325373195 ], [ -86.308857106, 33.3247317 ], [ -86.3103856, 33.3243431 ], [ -86.310522005, 33.324480698 ], [ -86.310521804, 33.324778497 ], [ -86.310439907, 33.324824199 ], [ -86.310166202, 33.325832099 ], [ -86.309783801, 33.326358795 ], [ -86.309756003, 33.326839894 ], [ -86.310247101, 33.327160895 ], [ -86.310656503, 33.327115394 ], [ -86.311584905, 33.326382697 ], [ -86.312048905, 33.326222494 ], [ -86.312349103, 33.3262228 ], [ -86.313030802, 33.326887399 ], [ -86.313494705, 33.3269106 ], [ -86.313931704, 33.326452598 ], [ -86.314832605, 33.325948998 ], [ -86.315651603, 33.325651698 ], [ -86.316388801, 33.324941799 ], [ -86.318191707, 33.322330996 ], [ -86.318984106, 33.320704699 ], [ -86.319203004, 33.319834299 ], [ -86.319230907, 33.318688899 ], [ -86.319640703, 33.317818396 ] ] } }
]
}
