{
"type": "FeatureCollection",
"name": "USGS_02401000_UM_12km",
"crs": { "type": "name", "properties": { "name": "urn:ogc:def:crs:OGC:1.3:CRS84" } },
"features": [
{ "type": "Feature", "properties": { "site_no": "02401000", "nhdplus_comid": "22200595", "navigation_mode": "UM", "requested_distance_km": 12.0, "start_source": "nwissite", "start_id": "USGS-02401000", "geometry_length_km": 0.56925278962600379 }, "geometry": { "type": "LineString", "coordinates": [ [ -86.033394806, 34.101416498 ], [ -86.033587806, 34.101187699 ], [ -86.0348555, 34.100203596 ], [ -86.036425807, 34.099403098 ], [ -86.037362605, 34.098762393 ], [ -86.038098373, 34.098136545 ] ] } },
{ "type": "Feature", "properties": { "site_no": "02401000", "nhdplus_comid": "22200311", "navigation_mode": "UM", "requested_distance_km": 12.0, "start_source": "nwissite", "start_id": "USGS-02401000", "geometry_length_km": 1.852178714931952 }, "geometry": { "type": "LineString", "coordinates": [ [ -86.024103902, 34.111029394 ], [ -86.0241592, 34.110892095 ], [ -86.024820603, 34.110548995 ], [ -86.025868103, 34.109656595 ], [ -86.026116401, 34.109244496 ], [ -86.026641205, 34.107824795 ], [ -86.026834205, 34.107595898 ], [ -86.0275506, 34.107207097 ], [ -86.028129004, 34.107115895 ], [ -86.0285969, 34.107276693 ], [ -86.029147103, 34.107735194 ], [ -86.029890403, 34.108079396 ], [ -86.030110307, 34.108308598 ], [ -86.030385606, 34.108400397 ], [ -86.030688606, 34.108400695 ], [ -86.031129502, 34.108080298 ], [ -86.031543307, 34.107278995 ], [ -86.031793006, 34.105721593 ], [ -86.031821504, 34.104736693 ], [ -86.031464003, 34.104392797 ], [ -86.030913405, 34.104277894 ], [ -86.030775905, 34.104094498 ], [ -86.030859105, 34.103636399 ], [ -86.031162404, 34.103270195 ], [ -86.032071605, 34.102766894 ], [ -86.033174403, 34.101507999 ], [ -86.033394806, 34.101416498 ] ] } },
{ "type": "Feature", "properties": { "site_no": "02401000", "nhdplus_comid": "22200301", "navigation_mode": "UM", "requested_distance_km": 12.0, "start_source": "nwissite", "start_id": "USGS-02401000", "geometry_length_km": 3.7106916124497054 }, "geometry": { "type": "LineString", "coordinates": [ [ -86.008848302, 34.130485393 ], [ -86.0087936, 34.130279295 ], [ -86.007941604, 34.128858194 ], [ -86.007364005, 34.128307998 ], [ -86.007199407, 34.1279184 ], [ -86.007200003, 34.1275061 ], [ -86.007421002, 34.1269565 ], [ -86.007423706, 34.125101194 ], [ -86.007451907, 34.124620199 ], [ -86.0077281, 34.124047898 ], [ -86.008003905, 34.123796195 ], [ -86.010345802, 34.123225793 ], [ -86.011888802, 34.122723393 ], [ -86.012935907, 34.122289099 ], [ -86.013459705, 34.121923096 ], [ -86.0143141, 34.121488698 ], [ -86.014975406, 34.121260293 ], [ -86.017316706, 34.120987594 ], [ -86.0190797, 34.120691299 ], [ -86.020264603, 34.120234296 ], [ -86.021394603, 34.119616799 ], [ -86.022221602, 34.118976198 ], [ -86.022249505, 34.118655398 ], [ -86.022139601, 34.118472099 ], [ -86.019689806, 34.117416397 ], [ -86.0187544, 34.116682597 ], [ -86.017378204, 34.116016999 ], [ -86.0171858, 34.115787894 ], [ -86.017158702, 34.115421295 ], [ -86.017269202, 34.115169398 ], [ -86.017875902, 34.114505798 ], [ -86.018647701, 34.114002496 ], [ -86.020493604, 34.1133857 ], [ -86.021210104, 34.112996899 ], [ -86.023690701, 34.111143693 ], [ -86.024103902, 34.111029394 ] ] } },
{ "type": "Feature", "properties": { "site_no": "02401000", "nhdplus_comid": "22200277", "navigation_mode": "UM", "requested_distance_km": 12.0, "start_source": "nwissite", "start_id": "USGS-02401000", "geometry_length_km": 1.3123758354329196 }, "geometry": { "type": "LineString", "coordinates": [ [ -85.999972202, 34.133274198 ], [ -86.001270302, 34.1327485 ], [ -86.0019866, 34.132657394 ], [ -86.003006302, 34.1322686 ], [ -86.004631706, 34.132154897 ], [ -86.005596101, 34.131903499 ], [ -86.005899407, 34.131674498 ], [ -86.0063411, 34.130987495 ], [ -86.006342202, 34.1302315 ], [ -86.006424904, 34.130139895 ], [ -86.006672904, 34.130094297 ], [ -86.006948106, 34.130277798 ], [ -86.007635102, 34.131400697 ], [ -86.007634804, 34.131560996 ], [ -86.007992201, 34.132065296 ], [ -86.008405201, 34.132203095 ], [ -86.008984007, 34.131882794 ], [ -86.009094402, 34.131745398 ], [ -86.009122707, 34.131287396 ], [ -86.008848302, 34.130485393 ] ] } },
{ "type": "Feature", "properties": { "site_no": "02401000", "nhdplus_comid": "22198855", "navigation_mode": "UM", "requested_distance_km": 12.0, "start_source": "nwissite", "start_id": "USGS-02401000", "geometry_length_km": 0.24190715925674125 }, "geometry": { "type": "LineString", "coordinates": [ [ -85.9988131, 34.135202795 ], [ -85.999362305, 34.134008899 ], [ -85.999972202, 34.133274198 ] ] } },
{ "type": "Feature", "properties": { "site_no": "02401000", "nhdplus_comid": "22198851", "navigation_mode": "UM", "requested_distance_km": 12.0, "start_source": "nwissite", "start_id": "USGS-02401000", "geometry_length_km": 4.7047478234784705 }, "geometry": { "type": "LineString", "coordinates": [ [ -85.980390303, 34.162568398 ], [ -85.980278902, 34.161583595 ], [ -85.980277903, 34.160781898 ], [ -85.980470702, 34.160667196 ], [ -85.981683001, 34.160620399 ], [ -85.982123606, 34.160436697 ], [ -85.982701607, 34.159886494 ], [ -85.983169802, 34.159748696 ], [ -85.983445503, 34.159794293 ], [ -85.983693704, 34.160046093 ], [ -85.984025501, 34.160984896 ], [ -85.984301105, 34.161007598 ], [ -85.984796003, 34.160182498 ], [ -85.984822504, 34.159335099 ], [ -85.984656803, 34.159014493 ], [ -85.984132804, 34.158602595 ], [ -85.982286006, 34.157916993 ], [ -85.982037604, 34.157665297 ], [ -85.9819545, 34.157321699 ], [ -85.982174501, 34.156955093 ], [ -85.983000107, 34.156152695 ], [ -85.983495101, 34.155419298 ], [ -85.9837429, 34.155304596 ], [ -85.984899804, 34.155097395 ], [ -85.9852302, 34.154868096 ], [ -85.985312201, 34.154364094 ], [ -85.985201806, 34.154203899 ], [ -85.985145003, 34.152829699 ], [ -85.985447504, 34.152394198 ], [ -85.986934006, 34.151453696 ], [ -85.987594306, 34.150720194 ], [ -85.9894941, 34.149756394 ], [ -85.989824206, 34.149389699 ], [ -85.989879005, 34.149091795 ], [ -85.989713401, 34.148885794 ], [ -85.989189506, 34.148611397 ], [ -85.988307901, 34.148520693 ], [ -85.988279901, 34.148245797 ], [ -85.988417402, 34.148108296 ], [ -85.9892985, 34.147672296 ], [ -85.989904001, 34.147190697 ], [ -85.991418205, 34.146433495 ], [ -85.991996206, 34.145997696 ], [ -85.9921057, 34.145470694 ], [ -85.992077701, 34.1451272 ], [ -85.991801701, 34.144783899 ], [ -85.991801001, 34.144325696 ], [ -85.992571406, 34.143546298 ], [ -85.992570505, 34.1429049 ], [ -85.992404804, 34.1425386 ], [ -85.992376402, 34.141943097 ], [ -85.993256405, 34.140751198 ], [ -85.993475705, 34.140017994 ], [ -85.994383201, 34.138871893 ], [ -85.994437702, 34.138390698 ], [ -85.9946298, 34.137817994 ], [ -85.995372102, 34.1368552 ], [ -85.995674103, 34.136053294 ], [ -85.996389605, 34.135548696 ], [ -85.997959502, 34.135432594 ], [ -85.9988131, 34.135202795 ] ] } }
]
}
