{
"type": "FeatureCollection",
"name": "USGS_02361000_UM_12km",
"crs": { "type": "name", "properties": { "name": "urn:ogc:def:crs:OGC:1.3:CRS84" } },
"features": [
{ "type": "Feature", "properties": { "site_no": "02361000", "nhdplus_comid": "2188031", "navigation_mode": "UM", "requested_distance_km": 12.0, "start_source": "nwissite", "start_id": "USGS-02361000", "geometry_length_km": 1.0531306545553738 }, "geometry": { "type": "LineString", "coordinates": [ [ -85.602084905, 31.347596698 ], [ -85.603954107, 31.3459244 ], [ -85.605182402, 31.3444812 ], [ -85.605769806, 31.343931399 ], [ -85.606223702, 31.343725197 ], [ -85.606811106, 31.343610793 ], [ -85.609133705, 31.343840294 ], [ -85.609640904, 31.343840294 ], [ -85.610682003, 31.3434738 ], [ -85.610930178, 31.343271579 ] ] } },
{ "type": "Feature", "properties": { "site_no": "02361000", "nhdplus_comid": "2187999", "navigation_mode": "UM", "requested_distance_km": 12.0, "start_source": "nwissite", "start_id": "USGS-02361000", "geometry_length_km": 0.52699868159274388 }, "geometry": { "type": "LineString", "coordinates": [ [ -85.597732306, 31.350276597 ], [ -85.597759202, 31.349932894 ], [ -85.598159701, 31.349635199 ], [ -85.5999486, 31.348833494 ], [ -85.601684406, 31.347711198 ], [ -85.602084905, 31.347596698 ] ] } },
{ "type": "Feature", "properties": { "site_no": "02361000", "nhdplus_comid": "2187985", "navigation_mode": "UM", "requested_distance_km": 12.0, "start_source": "nwissite", "start_id": "USGS-02361000", "geometry_length_km": 0.26181528909959173 }, "geometry": { "type": "LineString", "coordinates": [ [ -85.595889702, 31.351582199 ], [ -85.597064503, 31.351307496 ], [ -85.597518504, 31.351078495 ], [ -85.597732104, 31.350849397 ], [ -85.597732306, 31.350276597 ] ] } },
{ "type": "Feature", "properties": { "site_no": "02361000", "nhdplus_comid": "2187975", "navigation_mode": "UM", "requested_distance_km": 12.0, "start_source": "nwissite", "start_id": "USGS-02361000", "geometry_length_km": 1.5754928024071946 }, "geometry": { "type": "LineString", "coordinates": [ [ -85.585689805, 31.354259998 ], [ -85.586864702, 31.353664599 ], [ -85.587986402, 31.352862999 ], [ -85.588573806, 31.352771498 ], [ -85.588894203, 31.352863297 ], [ -85.589161202, 31.353023693 ], [ -85.589534804, 31.353459194 ], [ -85.589694701, 31.353871696 ], [ -85.589694306, 31.355017498 ], [ -85.589801103, 31.355177894 ], [ -85.590174705, 31.35543 ], [ -85.590708703, 31.355590597 ], [ -85.591242604, 31.3556595 ], [ -85.5918836, 31.355407499 ], [ -85.591990404, 31.3552242 ], [ -85.592043906, 31.3549034 ], [ -85.591910601, 31.354697198 ], [ -85.591403402, 31.354307599 ], [ -85.591403402, 31.354147196 ], [ -85.591804206, 31.353184894 ], [ -85.592311703, 31.352749795 ], [ -85.593112804, 31.352360494 ], [ -85.595889702, 31.351582199 ] ] } },
{ "type": "Feature", "properties": { "site_no": "02361000", "nhdplus_comid": "2187947", "navigation_mode": "UM", "requested_distance_km": 12.0, "start_source": "nwissite", "start_id": "USGS-02361000", "geometry_length_km": 0.61820904363684714 }, "geometry": { "type": "LineString", "coordinates": [ [ -85.580428503, 31.357351296 ], [ -85.581016101, 31.356870398 ], [ -85.581657305, 31.356137499 ], [ -85.582191505, 31.355702296 ], [ -85.583633602, 31.354992494 ], [ -85.585689805, 31.354259998 ] ] } },
{ "type": "Feature", "properties": { "site_no": "02361000", "nhdplus_comid": "2187933", "navigation_mode": "UM", "requested_distance_km": 12.0, "start_source": "nwissite", "start_id": "USGS-02361000", "geometry_length_km": 1.3915529132466651 }, "geometry": { "type": "LineString", "coordinates": [ [ -85.570441604, 31.359157294 ], [ -85.571109101, 31.359111793 ], [ -85.571349502, 31.3589973 ], [ -85.571563303, 31.358814195 ], [ -85.571510002, 31.358516097 ], [ -85.571403407, 31.358241096 ], [ -85.570789702, 31.357622296 ], [ -85.570816502, 31.357324399 ], [ -85.570950203, 31.357072398 ], [ -85.571377501, 31.356980897 ], [ -85.572151601, 31.357256293 ], [ -85.573272601, 31.357921198 ], [ -85.5739398, 31.358448498 ], [ -85.5743936, 31.358654894 ], [ -85.574980907, 31.358678095 ], [ -85.575247906, 31.358586594 ], [ -85.575942807, 31.357486993 ], [ -85.576396801, 31.357189395 ], [ -85.576930903, 31.357166596 ], [ -85.5786395, 31.357556894 ], [ -85.579574004, 31.3575572 ], [ -85.580428503, 31.357351296 ] ] } },
{ "type": "Feature", "properties": { "site_no": "02361000", "nhdplus_comid": "2187923", "navigation_mode": "UM", "requested_distance_km": 12.0, "start_source": "nwissite", "start_id": "USGS-02361000", "geometry_length_km": 0.16109859019551295 }, "geometry": { "type": "LineString", "coordinates": [ [ -85.568759605, 31.358950295 ], [ -85.570441604, 31.359157294 ] ] } },
{ "type": "Feature", "properties": { "site_no": "02361000", "nhdplus_comid": "2187921", "navigation_mode": "UM", "requested_distance_km": 12.0, "start_source": "nwissite", "start_id": "USGS-02361000", "geometry_length_km": 0.2152664442110824 }, "geometry": { "type": "LineString", "coordinates": [ [ -85.566490106, 31.359017998 ], [ -85.568759605, 31.358950295 ] ] } },
{ "type": "Feature", "properties": { "site_no": "02361000", "nhdplus_comid": "2187927", "navigation_mode": "UM", "requested_distance_km": 12.0, "start_source": "nwissite", "start_id": "USGS-02361000", "geometry_length_km": 0.61037704197229603 }, "geometry": { "type": "LineString", "coordinates": [ [ -85.560457006, 31.357410997 ], [ -85.561711803, 31.357549198 ], [ -85.563393407, 31.358191594 ], [ -85.565528803, 31.359063298 ], [ -85.566490106, 31.359017998 ] ] } },
{ "type": "Feature", "properties": { "site_no": "02361000", "nhdplus_comid": "2187925", "navigation_mode": "UM", "requested_distance_km": 12.0, "start_source": "nwissite", "start_id": "USGS-02361000", "geometry_length_km": 1.9777131968952424 }, "geometry": { "type": "LineString", "coordinates": [ [ -85.546009004, 31.361320496 ], [ -85.546571307, 31.359487794 ], [ -85.5471332, 31.358205095 ], [ -85.547801107, 31.357609898 ], [ -85.5483886, 31.357380994 ], [ -85.549189702, 31.357335694 ], [ -85.549963906, 31.357450694 ], [ -85.550337605, 31.357657194 ], [ -85.551698402, 31.358711995 ], [ -85.5523654, 31.359330997 ], [ -85.553299703, 31.3596524 ], [ -85.554047406, 31.359606996 ], [ -85.554314502, 31.359469697 ], [ -85.554581605, 31.359171994 ], [ -85.554608606, 31.358759597 ], [ -85.554155104, 31.3582552 ], [ -85.554155402, 31.357865795 ], [ -85.554796301, 31.357820295 ], [ -85.555677302, 31.357912399 ], [ -85.557733305, 31.357844897 ], [ -85.559415504, 31.357524998 ], [ -85.560457006, 31.357410997 ] ] } },
{ "type": "Feature", "properties": { "site_no": "02361000", "nhdplus_comid": "2187905", "navigation_mode": "UM", "requested_distance_km": 12.0, "start_source": "nwissite", "start_id": "USGS-02361000", "geometry_length_km": 0.60001072824610469 }, "geometry": { "type": "LineString", "coordinates": [ [ -85.5449102, 31.365993895 ], [ -85.545284703, 31.365215093 ], [ -85.5460594, 31.364849098 ], [ -85.5462998, 31.364643097 ], [ -85.546674401, 31.363841295 ], [ -85.546755105, 31.363153994 ], [ -85.546462201, 31.362122796 ], [ -85.546009004, 31.361320496 ] ] } },
{ "type": "Feature", "properties": { "site_no": "02361000", "nhdplus_comid": "2187873", "navigation_mode": "UM", "requested_distance_km": 12.0, "start_source": "nwissite", "start_id": "USGS-02361000", "geometry_length_km": 0.79207498371597529 }, "geometry": { "type": "LineString", "coordinates": [ [ -85.544664204, 31.372317694 ], [ -85.544744805, 31.3717907 ], [ -85.545092501, 31.3712411 ], [ -85.545734003, 31.370485395 ], [ -85.545734502, 31.369912595 ], [ -85.545521103, 31.369683295 ], [ -85.544960506, 31.369522594 ], [ -85.544800401, 31.369316295 ], [ -85.544560306, 31.369018294 ], [ -85.544534504, 31.368101694 ], [ -85.544748805, 31.367231093 ], [ -85.5449102, 31.365993895 ] ] } },
{ "type": "Feature", "properties": { "site_no": "02361000", "nhdplus_comid": "2187829", "navigation_mode": "UM", "requested_distance_km": 12.0, "start_source": "nwissite", "start_id": "USGS-02361000", "geometry_length_km": 0.51496038197079064 }, "geometry": { "type": "LineString", "coordinates": [ [ -85.544126302, 31.3766478 ], [ -85.543833002, 31.376189299 ], [ -85.543833502, 31.375547796 ], [ -85.5440742, 31.375181295 ], [ -85.544555403, 31.3746318 ], [ -85.544715904, 31.3741965 ], [ -85.544743501, 31.373302996 ], [ -85.544583902, 31.372523896 ], [ -85.544664204, 31.372317694 ] ] } },
{ "type": "Feature", "properties": { "site_no": "02361000", "nhdplus_comid": "2187781", "navigation_mode": "UM", "requested_distance_km": 12.0, "start_source": "nwissite", "start_id": "USGS-02361000", "geometry_length_km": 0.4112412116224915 }, "geometry": { "type": "LineString", "coordinates": [ [ -85.542440906, 31.379900195 ], [ -85.542841807, 31.379533894 ], [ -85.543244004, 31.377815694 ], [ -85.543912001, 31.377266295 ], [ -85.544072606, 31.376968496 ], [ -85.544126302, 31.3766478 ] ] } },
{ "type": "Feature", "properties": { "site_no": "02361000", "nhdplus_comid": "2187735", "navigation_mode": "UM", "requested_distance_km": 12.0, "start_source": "nwissite", "start_id": "USGS-02361000", "geometry_length_km": 0.86209050337580095 }, "geometry": { "type": "LineString", "coordinates": [ [ -85.5349067, 31.383148395 ], [ -85.535360701, 31.383034199 ], [ -85.535815202, 31.382530399 ], [ -85.536564104, 31.381385393 ], [ -85.537232406, 31.3807901 ], [ -85.538033903, 31.380492896 ], [ -85.541746303, 31.380174696 ], [ -85.542440906, 31.379900195 ] ] } }
]
}
