{
"type": "FeatureCollection",
"name": "USGS_02449000_UM_12km",
"crs": { "type": "name", "properties": { "name": "urn:ogc:def:crs:OGC:1.3:CRS84" } },
"features": [
{ "type": "Feature", "properties": { "site_no": "02449000", "nhdplus_comid": "18634054", "navigation_mode": "UM", "requested_distance_km": 12.0, "start_source": "nwissite", "start_id": "USGS-02449000", "geometry_length_km": 1.8803007922678689 }, "geometry": { "type": "LineString", "coordinates": [ [ -88.172974505, 32.827231295 ], [ -88.171163201, 32.827232495 ], [ -88.169477001, 32.827493995 ], [ -88.167766102, 32.828005694 ], [ -88.163033307, 32.830071695 ], [ -88.161234304, 32.829947598 ], [ -88.159721605, 32.828458294 ], [ -88.158145905, 32.826083295 ], [ -88.157320805, 32.825270899 ], [ -88.156626975, 32.824873495 ] ] } },
{ "type": "Feature", "properties": { "site_no": "02449000", "nhdplus_comid": "18634046", "navigation_mode": "UM", "requested_distance_km": 12.0, "start_source": "nwissite", "start_id": "USGS-02449000", "geometry_length_km": 0.53177052476586084 }, "geometry": { "type": "LineString", "coordinates": [ [ -88.1784347, 32.828488499 ], [ -88.177535206, 32.8284266 ], [ -88.176085606, 32.827823199 ], [ -88.172974505, 32.827231295 ] ] } },
{ "type": "Feature", "properties": { "site_no": "02449000", "nhdplus_comid": "18634248", "navigation_mode": "UM", "requested_distance_km": 12.0, "start_source": "nwissite", "start_id": "USGS-02449000", "geometry_length_km": 1.5625807042532989 }, "geometry": { "type": "LineString", "coordinates": [ [ -88.175571002, 32.837896094 ], [ -88.175989404, 32.837984599 ], [ -88.178360805, 32.838147797 ], [ -88.179401502, 32.837714098 ], [ -88.180271007, 32.837209195 ], [ -88.181125604, 32.836495198 ], [ -88.181711607, 32.835614197 ], [ -88.181837402, 32.834701493 ], [ -88.181352004, 32.833122596 ], [ -88.180663601, 32.831797197 ], [ -88.180075802, 32.830894798 ], [ -88.179180801, 32.829495795 ], [ -88.1784347, 32.828488499 ] ] } },
{ "type": "Feature", "properties": { "site_no": "02449000", "nhdplus_comid": "18634038", "navigation_mode": "UM", "requested_distance_km": 12.0, "start_source": "nwissite", "start_id": "USGS-02449000", "geometry_length_km": 2.4533714923641794 }, "geometry": { "type": "LineString", "coordinates": [ [ -88.156479202, 32.849235997 ], [ -88.157374807, 32.847559996 ], [ -88.158772804, 32.845641993 ], [ -88.162406206, 32.842493095 ], [ -88.163641602, 32.840689696 ], [ -88.165988505, 32.838333294 ], [ -88.167112306, 32.837655395 ], [ -88.168511301, 32.837248094 ], [ -88.171846904, 32.837100096 ], [ -88.175545603, 32.837858394 ], [ -88.175571002, 32.837896094 ] ] } },
{ "type": "Feature", "properties": { "site_no": "02449000", "nhdplus_comid": "18634030", "navigation_mode": "UM", "requested_distance_km": 12.0, "start_source": "nwissite", "start_id": "USGS-02449000", "geometry_length_km": 0.87691330876980567 }, "geometry": { "type": "LineString", "coordinates": [ [ -88.154069804, 32.856522895 ], [ -88.154869303, 32.856074497 ], [ -88.155029505, 32.852937996 ], [ -88.156015001, 32.850613795 ], [ -88.156077005, 32.849988498 ], [ -88.156479202, 32.849235997 ] ] } },
{ "type": "Feature", "properties": { "site_no": "02449000", "nhdplus_comid": "18634028", "navigation_mode": "UM", "requested_distance_km": 12.0, "start_source": "nwissite", "start_id": "USGS-02449000", "geometry_length_km": 0.68048984189842443 }, "geometry": { "type": "LineString", "coordinates": [ [ -88.158597, 32.861115798 ], [ -88.156871803, 32.860241495 ], [ -88.156321503, 32.859699897 ], [ -88.154321902, 32.857128195 ], [ -88.154069804, 32.856522895 ] ] } },
{ "type": "Feature", "properties": { "site_no": "02449000", "nhdplus_comid": "18634026", "navigation_mode": "UM", "requested_distance_km": 12.0, "start_source": "nwissite", "start_id": "USGS-02449000", "geometry_length_km": 3.7799335828020566 }, "geometry": { "type": "LineString", "coordinates": [ [ -88.183376506, 32.882335596 ], [ -88.183126003, 32.8818148 ], [ -88.183147505, 32.878543094 ], [ -88.182269007, 32.875209399 ], [ -88.181004003, 32.872730397 ], [ -88.179902904, 32.871647596 ], [ -88.178764805, 32.870939799 ], [ -88.174526401, 32.869515195 ], [ -88.172675602, 32.868380696 ], [ -88.170048706, 32.865933694 ], [ -88.167258404, 32.862090394 ], [ -88.1658701, 32.860861696 ], [ -88.163482904, 32.860571295 ], [ -88.162395902, 32.860874094 ], [ -88.158597, 32.861115798 ] ] } }
]
}
