{
"type": "FeatureCollection",
"name": "USGS_02398950_DM_12km",
"crs": { "type": "name", "properties": { "name": "urn:ogc:def:crs:OGC:1.3:CRS84" } },
"features": [
{ "type": "Feature", "properties": { "site_no": "02398950", "nhdplus_comid": "15820233", "navigation_mode": "DM", "requested_distance_km": 12.0, "start_source": "nwissite", "start_id": "USGS-02398950", "geometry_length_km": 2.2163615340531191 }, "geometry": { "type": "LineString", "coordinates": [ [ -85.616577128, 34.49686613 ], [ -85.616602801, 34.495732196 ], [ -85.616436906, 34.495342799 ], [ -85.615247801, 34.493625 ], [ -85.613948002, 34.4925256 ], [ -85.612426803, 34.491975695 ], [ -85.611763, 34.491906799 ], [ -85.610960804, 34.4919983 ], [ -85.609937303, 34.492456093 ], [ -85.608305, 34.493371896 ], [ -85.607585803, 34.493692398 ], [ -85.606534705, 34.493806697 ], [ -85.604930602, 34.4932108 ], [ -85.603962503, 34.4931648 ], [ -85.602689803, 34.494217895 ], [ -85.601859905, 34.494355097 ], [ -85.601528004, 34.494217597 ], [ -85.601223901, 34.493896894 ], [ -85.601113401, 34.493507594 ], [ -85.601030804, 34.492362395 ], [ -85.600477904, 34.491881296 ], [ -85.599537507, 34.491629198 ] ] } },
{ "type": "Feature", "properties": { "site_no": "02398950", "nhdplus_comid": "15820295", "navigation_mode": "DM", "requested_distance_km": 12.0, "start_source": "nwissite", "start_id": "USGS-02398950", "geometry_length_km": 4.1466141428021661 }, "geometry": { "type": "LineString", "coordinates": [ [ -85.599537507, 34.491629198 ], [ -85.598569602, 34.491033494 ], [ -85.597408406, 34.489979595 ], [ -85.5972149, 34.489567295 ], [ -85.5970769, 34.489063494 ], [ -85.597187802, 34.488307796 ], [ -85.597520001, 34.487666696 ], [ -85.5979627, 34.48714 ], [ -85.598018304, 34.486567497 ], [ -85.597852506, 34.486155197 ], [ -85.597465605, 34.485536799 ], [ -85.596497901, 34.484712094 ], [ -85.594341204, 34.4836808 ], [ -85.594009407, 34.483268499 ], [ -85.594011202, 34.479489595 ], [ -85.594315901, 34.4783905 ], [ -85.595007703, 34.477222696 ], [ -85.595367603, 34.476398394 ], [ -85.595423505, 34.475070193 ], [ -85.595175005, 34.474085398 ], [ -85.5944563, 34.473558396 ], [ -85.5939309, 34.473512396 ], [ -85.591386601, 34.4739924 ], [ -85.590723, 34.473854795 ], [ -85.589700006, 34.473487996 ], [ -85.5885114, 34.472456999 ], [ -85.588290401, 34.471953094 ], [ -85.588263303, 34.470899694 ], [ -85.588374302, 34.470166795 ], [ -85.588817105, 34.469548598 ], [ -85.589398004, 34.469090797 ], [ -85.590144806, 34.468701698 ], [ -85.590974703, 34.468175396 ], [ -85.591279, 34.467740394 ], [ -85.591251805, 34.466778494 ], [ -85.591003202, 34.466388993 ], [ -85.590588607, 34.466091193 ], [ -85.5894548, 34.465815999 ], [ -85.588846803, 34.465403393 ], [ -85.587354004, 34.4647846 ] ] } },
{ "type": "Feature", "properties": { "site_no": "02398950", "nhdplus_comid": "15820319", "navigation_mode": "DM", "requested_distance_km": 12.0, "start_source": "nwissite", "start_id": "USGS-02398950", "geometry_length_km": 0.90625519746277272 }, "geometry": { "type": "LineString", "coordinates": [ [ -85.587354004, 34.4647846 ], [ -85.586469203, 34.4646926 ], [ -85.5856122, 34.4644861 ], [ -85.584451102, 34.4640048 ], [ -85.583373301, 34.463134095 ], [ -85.5828759, 34.462538496 ], [ -85.581964307, 34.461026594 ], [ -85.581854306, 34.460156299 ], [ -85.582297303, 34.459148794 ] ] } },
{ "type": "Feature", "properties": { "site_no": "02398950", "nhdplus_comid": "15820339", "navigation_mode": "DM", "requested_distance_km": 12.0, "start_source": "nwissite", "start_id": "USGS-02398950", "geometry_length_km": 0.58380396643074906 }, "geometry": { "type": "LineString", "coordinates": [ [ -85.582297303, 34.459148794 ], [ -85.5835694, 34.458828695 ], [ -85.583818406, 34.458508097 ], [ -85.583901607, 34.457958594 ], [ -85.583487406, 34.457065195 ], [ -85.583460003, 34.456744596 ], [ -85.582825005, 34.454889394 ] ] } },
{ "type": "Feature", "properties": { "site_no": "02398950", "nhdplus_comid": "15820409", "navigation_mode": "DM", "requested_distance_km": 12.0, "start_source": "nwissite", "start_id": "USGS-02398950", "geometry_length_km": 1.609359991475686 }, "geometry": { "type": "LineString", "coordinates": [ [ -85.582825005, 34.454889394 ], [ -85.581195205, 34.452758893 ], [ -85.580670506, 34.451728098 ], [ -85.5802017, 34.449758299 ], [ -85.579623505, 34.445979297 ], [ -85.579377703, 34.441032499 ] ] } },
{ "type": "Feature", "properties": { "site_no": "02398950", "nhdplus_comid": "15820439", "navigation_mode": "DM", "requested_distance_km": 12.0, "start_source": "nwissite", "start_id": "USGS-02398950", "geometry_length_km": 0.95793058296301037 }, "geometry": { "type": "LineString", "coordinates": [ [ -85.579377703, 34.441032499 ], [ -85.579461202, 34.440162294 ], [ -85.579627305, 34.439704195 ], [ -85.581508301, 34.437437795 ], [ -85.582366206, 34.435743496 ], [ -85.582449704, 34.434781596 ], [ -85.582643501, 34.434163295 ], [ -85.5833074, 34.433270395 ] ] } },
{ "type": "Feature", "properties": { "site_no": "02398950", "nhdplus_comid": "15820449", "navigation_mode": "DM", "requested_distance_km": 12.0, "start_source": "nwissite", "start_id": "USGS-02398950", "geometry_length_km": 0.087958463043807888 }, "geometry": { "type": "LineString", "coordinates": [ [ -85.5833074, 34.433270395 ], [ -85.583777703, 34.432583593 ] ] } },
{ "type": "Feature", "properties": { "site_no": "02398950", "nhdplus_comid": "15820491", "navigation_mode": "DM", "requested_distance_km": 12.0, "start_source": "nwissite", "start_id": "USGS-02398950", "geometry_length_km": 2.4872912372401559 }, "geometry": { "type": "LineString", "coordinates": [ [ -85.583777703, 34.432583593 ], [ -85.586597405, 34.431783095 ], [ -85.589168601, 34.430524498 ], [ -85.589942701, 34.429929294 ], [ -85.590523601, 34.429104999 ], [ -85.590523906, 34.428234793 ], [ -85.590303205, 34.427455999 ], [ -85.5899994, 34.426997796 ], [ -85.588866703, 34.426127195 ], [ -85.588728607, 34.425875194 ], [ -85.588646106, 34.425256893 ], [ -85.588784404, 34.424913399 ], [ -85.589420401, 34.424203694 ], [ -85.591769703, 34.423929594 ], [ -85.592543602, 34.423746698 ], [ -85.595418401, 34.422625296 ], [ -85.596496306, 34.422556899 ], [ -85.598182201, 34.422282495 ], [ -85.5990666, 34.421962194 ], [ -85.600697607, 34.420932099 ] ] } }
]
}
