{
"type": "FeatureCollection",
"name": "USGS_02469700_DM_12km",
"crs": { "type": "name", "properties": { "name": "urn:ogc:def:crs:OGC:1.3:CRS84" } },
"features": [
{ "type": "Feature", "properties": { "site_no": "02469700", "nhdplus_comid": "18547776", "navigation_mode": "DM", "requested_distance_km": 12.0, "start_source": "nwissite", "start_id": "USGS-02469700", "geometry_length_km": 0.11078193490710592 }, "geometry": { "type": "LineString", "coordinates": [ [ -88.31340847, 31.891768093 ], [ -88.312827006, 31.8917678 ], [ -88.312263206, 31.891607195 ] ] } },
{ "type": "Feature", "properties": { "site_no": "02469700", "nhdplus_comid": "18547808", "navigation_mode": "DM", "requested_distance_km": 12.0, "start_source": "nwissite", "start_id": "USGS-02469700", "geometry_length_km": 1.4624235502240579 }, "geometry": { "type": "LineString", "coordinates": [ [ -88.312263206, 31.891607195 ], [ -88.311860606, 31.891332097 ], [ -88.311135702, 31.891010895 ], [ -88.310518205, 31.890644096 ], [ -88.309847206, 31.890070997 ], [ -88.309417605, 31.8899104 ], [ -88.309256501, 31.889910296 ], [ -88.308987804, 31.890070595 ], [ -88.308638602, 31.890368298 ], [ -88.308074504, 31.890368 ], [ -88.307859905, 31.890092999 ], [ -88.307699107, 31.889520094 ], [ -88.3076187, 31.889290996 ], [ -88.307269901, 31.888878293 ], [ -88.306545101, 31.888580099 ], [ -88.305793203, 31.888236098 ], [ -88.3056591, 31.888006896 ], [ -88.305632502, 31.887777798 ], [ -88.305525206, 31.887479894 ], [ -88.304961503, 31.887250498 ], [ -88.304558903, 31.8869524 ], [ -88.304156207, 31.886745997 ], [ -88.303189404, 31.886837199 ], [ -88.3029209, 31.886745393 ], [ -88.302679501, 31.886424497 ], [ -88.302625805, 31.886286996 ], [ -88.302706704, 31.885874599 ], [ -88.302787401, 31.885622598 ], [ -88.302787803, 31.885164395 ], [ -88.3025731, 31.884912193 ], [ -88.3021973, 31.884728797 ], [ -88.301982507, 31.884659894 ] ] } },
{ "type": "Feature", "properties": { "site_no": "02469700", "nhdplus_comid": "18547826", "navigation_mode": "DM", "requested_distance_km": 12.0, "start_source": "nwissite", "start_id": "USGS-02469700", "geometry_length_km": 0.64564645224473238 }, "geometry": { "type": "LineString", "coordinates": [ [ -88.301982507, 31.884659894 ], [ -88.301096603, 31.884338595 ], [ -88.3006135, 31.883925997 ], [ -88.299888805, 31.883467399 ], [ -88.299432501, 31.883146398 ], [ -88.299298503, 31.8828943 ], [ -88.299406305, 31.882344395 ], [ -88.299782701, 31.881680295 ], [ -88.299890406, 31.881405398 ], [ -88.29981, 31.881153196 ], [ -88.299702704, 31.881084397 ], [ -88.2989242, 31.880717494 ], [ -88.298870504, 31.880579896 ] ] } },
{ "type": "Feature", "properties": { "site_no": "02469700", "nhdplus_comid": "18547890", "navigation_mode": "DM", "requested_distance_km": 12.0, "start_source": "nwissite", "start_id": "USGS-02469700", "geometry_length_km": 4.8428149161258824 }, "geometry": { "type": "LineString", "coordinates": [ [ -88.298870504, 31.880579896 ], [ -88.298736304, 31.880602799 ], [ -88.2985484, 31.880442299 ], [ -88.298441201, 31.880144298 ], [ -88.298441902, 31.879296593 ], [ -88.298200406, 31.8790216 ], [ -88.297797702, 31.878883898 ], [ -88.297099605, 31.878837593 ], [ -88.296293907, 31.879020497 ], [ -88.296025202, 31.8792037 ], [ -88.295971401, 31.879455596 ], [ -88.296588503, 31.879982896 ], [ -88.296856903, 31.880257994 ], [ -88.296883404, 31.880670495 ], [ -88.2968565, 31.880830899 ], [ -88.296749003, 31.880922399 ], [ -88.296185002, 31.881128296 ], [ -88.295567103, 31.881219596 ], [ -88.2951914, 31.881081894 ], [ -88.294010602, 31.880347997 ], [ -88.293366201, 31.8801184 ], [ -88.2920774, 31.879957199 ], [ -88.291862801, 31.8797739 ], [ -88.290924303, 31.878146499 ], [ -88.2909244, 31.878054895 ], [ -88.290468603, 31.877275594 ], [ -88.290441804, 31.877183899 ], [ -88.290120006, 31.876702599 ], [ -88.289986007, 31.876335897 ], [ -88.289745405, 31.875167198 ], [ -88.289719202, 31.874342397 ], [ -88.289639205, 31.873723798 ], [ -88.289424606, 31.873471595 ], [ -88.289183006, 31.873333998 ], [ -88.288860805, 31.8733567 ], [ -88.288565204, 31.873562694 ], [ -88.288296402, 31.8738833 ], [ -88.288295902, 31.874433197 ], [ -88.288161203, 31.8751662 ], [ -88.288080506, 31.875372395 ], [ -88.287758, 31.875578396 ], [ -88.287301503, 31.8756698 ], [ -88.285287701, 31.875668399 ], [ -88.284589402, 31.875874199 ], [ -88.283756904, 31.875988096 ], [ -88.283434801, 31.8758047 ], [ -88.283220202, 31.8756212 ], [ -88.283059202, 31.875414893 ], [ -88.282979004, 31.875162795 ], [ -88.282952406, 31.874864899 ], [ -88.282684401, 31.874383599 ], [ -88.282308906, 31.874016799 ], [ -88.281530403, 31.873718396 ], [ -88.278550602, 31.873097599 ], [ -88.277503803, 31.8727303 ], [ -88.277101301, 31.872455098 ], [ -88.277074702, 31.872157194 ], [ -88.2773166, 31.8719512 ], [ -88.278256901, 31.871447794 ], [ -88.278391406, 31.871195897 ], [ -88.278311007, 31.870875098 ], [ -88.277962402, 31.870485298 ], [ -88.277372003, 31.870164096 ], [ -88.276567206, 31.869544894 ], [ -88.276165001, 31.868971795 ], [ -88.2758433, 31.868398793 ], [ -88.275870904, 31.867780097 ], [ -88.275897801, 31.867642693 ], [ -88.276247106, 31.867345095 ], [ -88.276891805, 31.867024794 ], [ -88.277456, 31.866681494 ], [ -88.277617306, 31.866383798 ], [ -88.277698904, 31.865398593 ], [ -88.2779411, 31.864848994 ], [ -88.277995102, 31.864551097 ], [ -88.277458705, 31.863863394 ], [ -88.277137004, 31.863381997 ], [ -88.277004004, 31.862167597 ] ] } },
{ "type": "Feature", "properties": { "site_no": "02469700", "nhdplus_comid": "18547920", "navigation_mode": "DM", "requested_distance_km": 12.0, "start_source": "nwissite", "start_id": "USGS-02469700", "geometry_length_km": 2.6239133784540174 }, "geometry": { "type": "LineString", "coordinates": [ [ -88.277004004, 31.862167597 ], [ -88.276521102, 31.861846395 ], [ -88.274749905, 31.861180693 ], [ -88.274052203, 31.860859394 ], [ -88.272871301, 31.860468999 ], [ -88.271502405, 31.860238798 ], [ -88.270214006, 31.859916896 ], [ -88.269301802, 31.859503798 ], [ -88.269114107, 31.859274499 ], [ -88.269087702, 31.858839199 ], [ -88.270135202, 31.858427696 ], [ -88.270242706, 31.8582903 ], [ -88.270243004, 31.858015396 ], [ -88.269921102, 31.857808895 ], [ -88.268767007, 31.857464194 ], [ -88.267291106, 31.856981896 ], [ -88.266969003, 31.8567525 ], [ -88.266540304, 31.8560877 ], [ -88.266218401, 31.855835393 ], [ -88.2657087, 31.855582997 ], [ -88.2653061, 31.855490997 ], [ -88.264769107, 31.855490498 ], [ -88.264500603, 31.855604894 ], [ -88.264393002, 31.855788097 ], [ -88.2644732, 31.856085993 ], [ -88.264741503, 31.8563383 ], [ -88.265304901, 31.856636599 ], [ -88.265814506, 31.857049398 ], [ -88.265814006, 31.857393093 ], [ -88.264363006, 31.858674996 ], [ -88.2640137, 31.858926699 ], [ -88.2635573, 31.858994998 ], [ -88.263369307, 31.858926095 ], [ -88.263047405, 31.858719699 ], [ -88.263021104, 31.858353093 ], [ -88.263128906, 31.857986599 ], [ -88.263156004, 31.857619897 ], [ -88.263048902, 31.857390799 ], [ -88.262807406, 31.857298896 ], [ -88.262297302, 31.857390098 ], [ -88.261169001, 31.857984893 ] ] } },
{ "type": "Feature", "properties": { "site_no": "02469700", "nhdplus_comid": "18548334", "navigation_mode": "DM", "requested_distance_km": 12.0, "start_source": "nwissite", "start_id": "USGS-02469700", "geometry_length_km": 2.3614124050289402 }, "geometry": { "type": "LineString", "coordinates": [ [ -88.261169001, 31.857984893 ], [ -88.260659002, 31.857984498 ], [ -88.260444403, 31.857892595 ], [ -88.260203004, 31.857686199 ], [ -88.2599084, 31.8569986 ], [ -88.259479105, 31.856814899 ], [ -88.258459203, 31.856653593 ], [ -88.2576809, 31.8564009 ], [ -88.257466502, 31.856171593 ], [ -88.257359803, 31.855621599 ], [ -88.257091902, 31.855140194 ], [ -88.2568506, 31.854888 ], [ -88.255938202, 31.854543395 ], [ -88.255481802, 31.854611799 ], [ -88.2550788, 31.854932196 ], [ -88.254970707, 31.855436198 ], [ -88.255077206, 31.856238194 ], [ -88.255210802, 31.8567653 ], [ -88.255397603, 31.857658997 ], [ -88.255423807, 31.858140193 ], [ -88.255208902, 31.858323194 ], [ -88.253517203, 31.858688295 ], [ -88.252899505, 31.858756498 ], [ -88.252684906, 31.858664595 ], [ -88.252229005, 31.858251698 ], [ -88.252041407, 31.857999496 ], [ -88.251934603, 31.857518293 ], [ -88.252043001, 31.856785193 ], [ -88.252393, 31.855960697 ], [ -88.252393506, 31.855502494 ], [ -88.2520447, 31.8553418 ], [ -88.2516957, 31.855341494 ], [ -88.250027902, 31.8556519 ], [ -88.2490886, 31.855836093 ], [ -88.247183405, 31.856342293 ], [ -88.246700302, 31.856457196 ] ] } }
]
}
