{
"type": "FeatureCollection",
"name": "USGS_02422000_DM_12km",
"crs": { "type": "name", "properties": { "name": "urn:ogc:def:crs:OGC:1.3:CRS84" } },
"features": [
{ "type": "Feature", "properties": { "site_no": "02422000", "nhdplus_comid": "21682830", "navigation_mode": "DM", "requested_distance_km": 12.0, "start_source": "nwissite", "start_id": "USGS-02422000", "geometry_length_km": 3.1720988799252208 }, "geometry": { "type": "LineString", "coordinates": [ [ -86.694429365, 32.266892694 ], [ -86.693750404, 32.267370693 ], [ -86.693750605, 32.267577 ], [ -86.694722205, 32.268424295 ], [ -86.694965206, 32.268836595 ], [ -86.6950735, 32.269432195 ], [ -86.695208505, 32.269592598 ], [ -86.695666902, 32.269477695 ], [ -86.695990302, 32.269111 ], [ -86.696206003, 32.269133799 ], [ -86.696368001, 32.269271098 ], [ -86.696476102, 32.269568995 ], [ -86.696530603, 32.270393796 ], [ -86.696638703, 32.270576999 ], [ -86.696800604, 32.270645693 ], [ -86.697420701, 32.270324595 ], [ -86.697771206, 32.270347297 ], [ -86.6991207, 32.271560997 ], [ -86.699309602, 32.271629594 ], [ -86.699822001, 32.271445997 ], [ -86.700010903, 32.271514699 ], [ -86.700200103, 32.2720415 ], [ -86.700200602, 32.272660196 ], [ -86.699446507, 32.274035498 ], [ -86.699500807, 32.274356298 ], [ -86.700148501, 32.274997495 ], [ -86.700148903, 32.275364093 ], [ -86.700014107, 32.275455795 ], [ -86.699447602, 32.275295794 ], [ -86.699096702, 32.275066897 ], [ -86.698853604, 32.274608798 ], [ -86.698556803, 32.274356797 ], [ -86.698313907, 32.274265297 ], [ -86.697855406, 32.274288498 ], [ -86.697639801, 32.274471894 ], [ -86.697532207, 32.274769895 ], [ -86.697532602, 32.275296897 ], [ -86.697748803, 32.275777996 ], [ -86.698072605, 32.276052698 ], [ -86.6989628, 32.276258498 ], [ -86.699394606, 32.276602 ], [ -86.6993948, 32.276762396 ], [ -86.698316, 32.276923299 ], [ -86.698073402, 32.277060993 ], [ -86.698046803, 32.277496494 ], [ -86.698235802, 32.277771294 ], [ -86.698694505, 32.278068997 ], [ -86.699099302, 32.278160296 ], [ -86.699935302, 32.278091095 ], [ -86.7001779, 32.277884699 ], [ -86.700339504, 32.277563795 ], [ -86.700555302, 32.277586594 ], [ -86.700744204, 32.277815595 ], [ -86.700825706, 32.278434396 ], [ -86.7007991, 32.278915495 ], [ -86.700152107, 32.279328398 ], [ -86.700152405, 32.279580496 ], [ -86.700476006, 32.279648997 ], [ -86.701231107, 32.279442295 ], [ -86.701554805, 32.279465094 ], [ -86.702499405, 32.280060299 ] ] } },
{ "type": "Feature", "properties": { "site_no": "02422000", "nhdplus_comid": "21682674", "navigation_mode": "DM", "requested_distance_km": 12.0, "start_source": "nwissite", "start_id": "USGS-02422000", "geometry_length_km": 1.0961418801488678 }, "geometry": { "type": "LineString", "coordinates": [ [ -86.702499405, 32.280060299 ], [ -86.702580504, 32.280266397 ], [ -86.702527203, 32.280930996 ], [ -86.7024194, 32.281045593 ], [ -86.701124802, 32.281344295 ], [ -86.700990103, 32.281458899 ], [ -86.701044403, 32.281779595 ], [ -86.701368302, 32.282077394 ], [ -86.702825405, 32.282603495 ], [ -86.702960804, 32.283244997 ], [ -86.702934004, 32.283565797 ], [ -86.702745304, 32.283703394 ], [ -86.702367805, 32.283795297 ], [ -86.7021522, 32.284047499 ], [ -86.702071905, 32.284689195 ], [ -86.700993106, 32.285033494 ], [ -86.700561501, 32.284964994 ], [ -86.699967906, 32.284827895 ], [ -86.699536406, 32.284896895 ], [ -86.699213006, 32.285286695 ], [ -86.699132301, 32.285561599 ] ] } },
{ "type": "Feature", "properties": { "site_no": "02422000", "nhdplus_comid": "21682586", "navigation_mode": "DM", "requested_distance_km": 12.0, "start_source": "nwissite", "start_id": "USGS-02422000", "geometry_length_km": 1.2522666206744211 }, "geometry": { "type": "LineString", "coordinates": [ [ -86.699132301, 32.285561599 ], [ -86.699537307, 32.285927996 ], [ -86.699969001, 32.286088198 ], [ -86.699807502, 32.286523595 ], [ -86.699052706, 32.287188597 ], [ -86.698891006, 32.287417896 ], [ -86.698756501, 32.287853293 ], [ -86.698756903, 32.288403295 ], [ -86.699161902, 32.288861297 ], [ -86.699243106, 32.289136194 ], [ -86.699162804, 32.289892495 ], [ -86.698893704, 32.290694699 ], [ -86.6987058, 32.291817494 ], [ -86.698706202, 32.292390399 ], [ -86.699030407, 32.2930547 ], [ -86.699004106, 32.293787993 ], [ -86.698869705, 32.294223495 ], [ -86.698896803, 32.294498399 ], [ -86.6995444, 32.294612497 ], [ -86.700003602, 32.295322597 ] ] } },
{ "type": "Feature", "properties": { "site_no": "02422000", "nhdplus_comid": "25380526", "navigation_mode": "DM", "requested_distance_km": 12.0, "start_source": "nwissite", "start_id": "USGS-02422000", "geometry_length_km": 0.13275044502340891 }, "geometry": { "type": "LineString", "coordinates": [ [ -86.700003602, 32.295322597 ], [ -86.699923001, 32.295780994 ], [ -86.699356906, 32.296331294 ] ] } },
{ "type": "Feature", "properties": { "site_no": "02422000", "nhdplus_comid": "21686608", "navigation_mode": "DM", "requested_distance_km": 12.0, "start_source": "nwissite", "start_id": "USGS-02422000", "geometry_length_km": 3.6219593864923132 }, "geometry": { "type": "LineString", "coordinates": [ [ -86.699356906, 32.296331294 ], [ -86.699438505, 32.297110297 ], [ -86.699142106, 32.297568895 ], [ -86.698522106, 32.2982108 ], [ -86.698414505, 32.298554599 ], [ -86.698522702, 32.298852399 ], [ -86.698711701, 32.299058497 ], [ -86.698711902, 32.299264796 ], [ -86.698172502, 32.299494095 ], [ -86.698253602, 32.299723297 ], [ -86.698523603, 32.299929395 ], [ -86.698847301, 32.300020799 ], [ -86.700007401, 32.299928494 ], [ -86.701005906, 32.300248697 ], [ -86.701464407, 32.300156698 ], [ -86.701761, 32.299904495 ], [ -86.702057704, 32.299858496 ], [ -86.702219702, 32.299995899 ], [ -86.702031307, 32.300568894 ], [ -86.702031903, 32.301233396 ], [ -86.702194102, 32.301622793 ], [ -86.702761404, 32.302470297 ], [ -86.702761702, 32.302699499 ], [ -86.702465102, 32.302882895 ], [ -86.702141203, 32.302974798 ], [ -86.701169804, 32.302700393 ], [ -86.700791806, 32.302402698 ], [ -86.700683706, 32.3021966 ], [ -86.700683206, 32.301532097 ], [ -86.700548202, 32.3014405 ], [ -86.700197503, 32.301463597 ], [ -86.699874006, 32.301761694 ], [ -86.699658602, 32.302334696 ], [ -86.698849104, 32.302128896 ], [ -86.698660202, 32.302220695 ], [ -86.698606804, 32.302770697 ], [ -86.698984705, 32.303114198 ], [ -86.700010002, 32.303113595 ], [ -86.700469106, 32.303663194 ], [ -86.700415604, 32.304213196 ], [ -86.700173005, 32.304373793 ], [ -86.699633606, 32.304557294 ], [ -86.699525803, 32.304740794 ], [ -86.699552901, 32.304946996 ], [ -86.6999579, 32.305290498 ], [ -86.700282402, 32.306252599 ], [ -86.7006336, 32.306733593 ], [ -86.700634107, 32.3072377 ], [ -86.701066002, 32.307535298 ], [ -86.702145502, 32.3077868 ], [ -86.702334404, 32.307946995 ], [ -86.702334806, 32.308474094 ], [ -86.701984607, 32.309001394 ], [ -86.701580606, 32.309941098 ], [ -86.7010414, 32.310445599 ], [ -86.701014601, 32.310628898 ], [ -86.701230504, 32.310743295 ], [ -86.701770201, 32.3107659 ], [ -86.702121206, 32.311063498 ], [ -86.702229306, 32.311338499 ], [ -86.702175707, 32.311705194 ], [ -86.700772904, 32.312118493 ], [ -86.700638205, 32.312324695 ], [ -86.700746506, 32.312691294 ], [ -86.700692803, 32.313126698 ], [ -86.700558007, 32.313218497 ], [ -86.700315103, 32.313195698 ], [ -86.699829206, 32.312966794 ], [ -86.699586406, 32.312966995 ], [ -86.699586704, 32.313264899 ] ] } },
{ "type": "Feature", "properties": { "site_no": "02422000", "nhdplus_comid": "21682188", "navigation_mode": "DM", "requested_distance_km": 12.0, "start_source": "nwissite", "start_id": "USGS-02422000", "geometry_length_km": 3.2530656700190637 }, "geometry": { "type": "LineString", "coordinates": [ [ -86.699586704, 32.313264899 ], [ -86.699667804, 32.313448094 ], [ -86.700234801, 32.313997693 ], [ -86.700208306, 32.314478897 ], [ -86.7000736, 32.314731099 ], [ -86.700289905, 32.315235093 ], [ -86.701072805, 32.315624095 ], [ -86.701667204, 32.316494495 ], [ -86.702450201, 32.317135699 ], [ -86.703232907, 32.317387193 ], [ -86.703719005, 32.317753494 ], [ -86.704151206, 32.318280295 ], [ -86.704259403, 32.318646796 ], [ -86.704529606, 32.319013394 ], [ -86.705528505, 32.319539793 ], [ -86.705744706, 32.319860399 ], [ -86.705879904, 32.3202499 ], [ -86.706150003, 32.320501797 ], [ -86.706878804, 32.320684597 ], [ -86.708254807, 32.320431694 ], [ -86.708983406, 32.320431098 ], [ -86.709442504, 32.320682995 ], [ -86.709766403, 32.320728496 ], [ -86.709847406, 32.320819996 ], [ -86.709902205, 32.321805395 ], [ -86.710064605, 32.322263598 ], [ -86.710469604, 32.322515398 ], [ -86.711899906, 32.322583199 ], [ -86.713330105, 32.322467595 ], [ -86.713761501, 32.322077699 ], [ -86.713977404, 32.322123297 ], [ -86.714922704, 32.322924696 ], [ -86.715543501, 32.323176399 ], [ -86.716164403, 32.323313497 ], [ -86.718188107, 32.323059797 ], [ -86.7192946, 32.323104896 ], [ -86.721481003, 32.323630199 ], [ -86.724045001, 32.323834494 ], [ -86.724530503, 32.323696695 ], [ -86.725097001, 32.3233983 ], [ -86.725959502, 32.3224352 ] ] } }
]
}
