{
"type": "FeatureCollection",
"name": "USGS_02470000_DM_12km",
"crs": { "type": "name", "properties": { "name": "urn:ogc:def:crs:OGC:1.3:CRS84" } },
"features": [
{ "type": "Feature", "properties": { "site_no": "02470000", "nhdplus_comid": "21640756", "navigation_mode": "DM", "requested_distance_km": 12.0, "start_source": "nwissite", "start_id": "USGS-02470000", "geometry_length_km": 2.7138478290555277 }, "geometry": { "type": "LineString", "coordinates": [ [ -88.038852224, 31.571021481 ], [ -88.036879204, 31.568963997 ], [ -88.035699904, 31.567365497 ], [ -88.032900207, 31.562622696 ], [ -88.031856202, 31.561160095 ], [ -88.030369706, 31.559665799 ], [ -88.025061205, 31.556257896 ], [ -88.024065703, 31.555808194 ], [ -88.020170905, 31.553131998 ] ] } },
{ "type": "Feature", "properties": { "site_no": "02470000", "nhdplus_comid": "21640762", "navigation_mode": "DM", "requested_distance_km": 12.0, "start_source": "nwissite", "start_id": "USGS-02470000", "geometry_length_km": 1.2861099795507853 }, "geometry": { "type": "LineString", "coordinates": [ [ -88.020170905, 31.553131998 ], [ -88.018045001, 31.552096598 ], [ -88.014664404, 31.551728599 ], [ -88.013066605, 31.551361799 ], [ -88.007475004, 31.549320899 ] ] } },
{ "type": "Feature", "properties": { "site_no": "02470000", "nhdplus_comid": "21640764", "navigation_mode": "DM", "requested_distance_km": 12.0, "start_source": "nwissite", "start_id": "USGS-02470000", "geometry_length_km": 0.86628317490172158 }, "geometry": { "type": "LineString", "coordinates": [ [ -88.007475004, 31.549320899 ], [ -88.007180005, 31.549299799 ], [ -88.000607803, 31.545168996 ], [ -88.000002503, 31.544890396 ] ] } },
{ "type": "Feature", "properties": { "site_no": "02470000", "nhdplus_comid": "21639356", "navigation_mode": "DM", "requested_distance_km": 12.0, "start_source": "nwissite", "start_id": "USGS-02470000", "geometry_length_km": 3.0250796132249906 }, "geometry": { "type": "LineString", "coordinates": [ [ -88.000002503, 31.544890396 ], [ -87.998334907, 31.544122599 ], [ -87.996676907, 31.542867899 ], [ -87.994674206, 31.542093195 ], [ -87.9944041, 31.541821495 ], [ -87.990508907, 31.540658496 ], [ -87.989476405, 31.540584393 ], [ -87.981918901, 31.538905799 ], [ -87.980763905, 31.538570397 ], [ -87.979351401, 31.537837796 ], [ -87.977326304, 31.535799094 ], [ -87.976076104, 31.533437394 ], [ -87.9748611, 31.532214195 ], [ -87.973731205, 31.531627998 ] ] } },
{ "type": "Feature", "properties": { "site_no": "02470000", "nhdplus_comid": "21639362", "navigation_mode": "DM", "requested_distance_km": 12.0, "start_source": "nwissite", "start_id": "USGS-02470000", "geometry_length_km": 0.80617750004332855 }, "geometry": { "type": "LineString", "coordinates": [ [ -87.973731205, 31.531627998 ], [ -87.972024001, 31.5308742 ], [ -87.969124407, 31.530160695 ], [ -87.966642305, 31.529729597 ], [ -87.965597503, 31.5297805 ] ] } },
{ "type": "Feature", "properties": { "site_no": "02470000", "nhdplus_comid": "21639366", "navigation_mode": "DM", "requested_distance_km": 12.0, "start_source": "nwissite", "start_id": "USGS-02470000", "geometry_length_km": 1.8857734861865105 }, "geometry": { "type": "LineString", "coordinates": [ [ -87.965597503, 31.5297805 ], [ -87.953087501, 31.528626494 ], [ -87.952375203, 31.528322697 ], [ -87.950310603, 31.528173797 ], [ -87.947693802, 31.527606294 ], [ -87.945911705, 31.527603894 ] ] } },
{ "type": "Feature", "properties": { "site_no": "02470000", "nhdplus_comid": "21639376", "navigation_mode": "DM", "requested_distance_km": 12.0, "start_source": "nwissite", "start_id": "USGS-02470000", "geometry_length_km": 3.9548651082907647 }, "geometry": { "type": "LineString", "coordinates": [ [ -87.945911705, 31.527603894 ], [ -87.945641801, 31.527331993 ], [ -87.9441671, 31.527225494 ], [ -87.943159901, 31.526900396 ], [ -87.942030303, 31.526313893 ], [ -87.938164704, 31.523384094 ], [ -87.9366806, 31.521888494 ], [ -87.933872603, 31.518782496 ], [ -87.932856202, 31.5170682 ], [ -87.930073604, 31.513711393 ], [ -87.928360902, 31.510053299 ], [ -87.927238107, 31.506437898 ], [ -87.926247001, 31.5044728 ], [ -87.924885802, 31.503238298 ], [ -87.922345303, 31.501918294 ], [ -87.9209591, 31.500934295 ] ] } }
]
}
