{
"type": "FeatureCollection",
"name": "USGS_02367500_UM_12km",
"crs": { "type": "name", "properties": { "name": "urn:ogc:def:crs:OGC:1.3:CRS84" } },
"features": [
{ "type": "Feature", "properties": { "site_no": "02367500", "nhdplus_comid": "894903", "navigation_mode": "UM", "requested_distance_km": 12.0, "start_source": "nwissite", "start_id": "USGS-02367500", "geometry_length_km": 0.46919555173729138 }, "geometry": { "type": "LineString", "coordinates": [ [ -86.309293501, 31.271901697 ], [ -86.309854105, 31.271328993 ], [ -86.310868107, 31.271123298 ], [ -86.311215207, 31.270848498 ], [ -86.311241902, 31.270710893 ], [ -86.311268806, 31.270619296 ], [ -86.311589003, 31.270527795 ], [ -86.312335804, 31.2708719 ], [ -86.312922902, 31.270895198 ], [ -86.313349806, 31.270734996 ], [ -86.313379146, 31.27071342 ] ] } },
{ "type": "Feature", "properties": { "site_no": "02367500", "nhdplus_comid": "893775", "navigation_mode": "UM", "requested_distance_km": 12.0, "start_source": "nwissite", "start_id": "USGS-02367500", "geometry_length_km": 0.12843130939143088 }, "geometry": { "type": "LineString", "coordinates": [ [ -86.308039203, 31.272313595 ], [ -86.308519706, 31.272084594 ], [ -86.309293501, 31.271901697 ] ] } },
{ "type": "Feature", "properties": { "site_no": "02367500", "nhdplus_comid": "893767", "navigation_mode": "UM", "requested_distance_km": 12.0, "start_source": "nwissite", "start_id": "USGS-02367500", "geometry_length_km": 0.24262423095423508 }, "geometry": { "type": "LineString", "coordinates": [ [ -86.305770703, 31.273183197 ], [ -86.306117907, 31.272885397 ], [ -86.307132103, 31.272427693 ], [ -86.308039203, 31.272313595 ] ] } },
{ "type": "Feature", "properties": { "site_no": "02367500", "nhdplus_comid": "893763", "navigation_mode": "UM", "requested_distance_km": 12.0, "start_source": "nwissite", "start_id": "USGS-02367500", "geometry_length_km": 0.42776984397677975 }, "geometry": { "type": "LineString", "coordinates": [ [ -86.304114103, 31.276298895 ], [ -86.303875007, 31.274992496 ], [ -86.303955205, 31.274763398 ], [ -86.304516107, 31.274007499 ], [ -86.305317104, 31.273297496 ], [ -86.305770703, 31.273183197 ] ] } },
{ "type": "Feature", "properties": { "site_no": "02367500", "nhdplus_comid": "893751", "navigation_mode": "UM", "requested_distance_km": 12.0, "start_source": "nwissite", "start_id": "USGS-02367500", "geometry_length_km": 2.3172149910792657 }, "geometry": { "type": "LineString", "coordinates": [ [ -86.289238803, 31.291185595 ], [ -86.290600404, 31.290521897 ], [ -86.291828305, 31.290155999 ], [ -86.292308904, 31.289927296 ], [ -86.293590605, 31.288965695 ], [ -86.293724202, 31.288782395 ], [ -86.293777905, 31.288392797 ], [ -86.294071801, 31.288003296 ], [ -86.2947658, 31.2877976 ], [ -86.295193106, 31.287316695 ], [ -86.295300201, 31.28695 ], [ -86.295540504, 31.286629297 ], [ -86.295567505, 31.286262698 ], [ -86.295461103, 31.286010496 ], [ -86.2959418, 31.2854608 ], [ -86.296663307, 31.284269497 ], [ -86.296663903, 31.283444494 ], [ -86.296984904, 31.2826197 ], [ -86.297225207, 31.282390699 ], [ -86.297785804, 31.282115996 ], [ -86.298853405, 31.281864695 ], [ -86.299787804, 31.281223498 ], [ -86.300455801, 31.280123994 ], [ -86.3020849, 31.278108194 ], [ -86.303179502, 31.277375497 ], [ -86.304114103, 31.276298895 ] ] } },
{ "type": "Feature", "properties": { "site_no": "02367500", "nhdplus_comid": "893725", "navigation_mode": "UM", "requested_distance_km": 12.0, "start_source": "nwissite", "start_id": "USGS-02367500", "geometry_length_km": 0.086118047322335078 }, "geometry": { "type": "LineString", "coordinates": [ [ -86.288331501, 31.291162096 ], [ -86.289238803, 31.291185595 ] ] } },
{ "type": "Feature", "properties": { "site_no": "02367500", "nhdplus_comid": "893723", "navigation_mode": "UM", "requested_distance_km": 12.0, "start_source": "nwissite", "start_id": "USGS-02367500", "geometry_length_km": 1.9638768031614193 }, "geometry": { "type": "LineString", "coordinates": [ [ -86.275908306, 31.304559298 ], [ -86.276015103, 31.304582193 ], [ -86.276469305, 31.304124296 ], [ -86.276764207, 31.302909896 ], [ -86.2768443, 31.302864194 ], [ -86.276898004, 31.302589193 ], [ -86.277325504, 31.302039497 ], [ -86.277833, 31.301764898 ], [ -86.278207205, 31.301238097 ], [ -86.278981507, 31.300849095 ], [ -86.279729404, 31.300345495 ], [ -86.281118602, 31.298948593 ], [ -86.281412601, 31.298536398 ], [ -86.282080904, 31.297253497 ], [ -86.284538403, 31.2949178 ], [ -86.285393305, 31.293978795 ], [ -86.285554007, 31.293405995 ], [ -86.286248304, 31.292925194 ], [ -86.286622606, 31.292283796 ], [ -86.287690505, 31.291757494 ], [ -86.2882246, 31.291368194 ], [ -86.288331501, 31.291162096 ] ] } },
{ "type": "Feature", "properties": { "site_no": "02367500", "nhdplus_comid": "893685", "navigation_mode": "UM", "requested_distance_km": 12.0, "start_source": "nwissite", "start_id": "USGS-02367500", "geometry_length_km": 0.14938945709724302 }, "geometry": { "type": "LineString", "coordinates": [ [ -86.275266506, 31.305773295 ], [ -86.275266707, 31.305658698 ], [ -86.275908306, 31.304559298 ] ] } },
{ "type": "Feature", "properties": { "site_no": "02367500", "nhdplus_comid": "893683", "navigation_mode": "UM", "requested_distance_km": 12.0, "start_source": "nwissite", "start_id": "USGS-02367500", "geometry_length_km": 0.77020818827187321 }, "geometry": { "type": "LineString", "coordinates": [ [ -86.272910707, 31.312279798 ], [ -86.273500204, 31.310309395 ], [ -86.274061605, 31.309484795 ], [ -86.274142407, 31.3088433 ], [ -86.274303004, 31.308430895 ], [ -86.274730705, 31.307766698 ], [ -86.274758004, 31.307010397 ], [ -86.275212504, 31.306323297 ], [ -86.275266506, 31.305773295 ] ] } },
{ "type": "Feature", "properties": { "site_no": "02367500", "nhdplus_comid": "893677", "navigation_mode": "UM", "requested_distance_km": 12.0, "start_source": "nwissite", "start_id": "USGS-02367500", "geometry_length_km": 0.82811985466924365 }, "geometry": { "type": "LineString", "coordinates": [ [ -86.269113906, 31.318189196 ], [ -86.269301005, 31.317914397 ], [ -86.269862004, 31.317662798 ], [ -86.270716302, 31.317480199 ], [ -86.271197304, 31.317022197 ], [ -86.2717316, 31.316610098 ], [ -86.271785505, 31.316174693 ], [ -86.272133, 31.315739699 ], [ -86.272027202, 31.314845793 ], [ -86.272188701, 31.313562497 ], [ -86.272402905, 31.312989794 ], [ -86.272750504, 31.312371299 ], [ -86.272910707, 31.312279798 ] ] } },
{ "type": "Feature", "properties": { "site_no": "02367500", "nhdplus_comid": "893671", "navigation_mode": "UM", "requested_distance_km": 12.0, "start_source": "nwissite", "start_id": "USGS-02367500", "geometry_length_km": 0.10820824889029443 }, "geometry": { "type": "LineString", "coordinates": [ [ -86.269406505, 31.319129094 ], [ -86.269113906, 31.318189196 ] ] } },
{ "type": "Feature", "properties": { "site_no": "02367500", "nhdplus_comid": "893665", "navigation_mode": "UM", "requested_distance_km": 12.0, "start_source": "nwissite", "start_id": "USGS-02367500", "geometry_length_km": 0.95057133800450633 }, "geometry": { "type": "LineString", "coordinates": [ [ -86.265607201, 31.326665394 ], [ -86.265607402, 31.326459095 ], [ -86.266382404, 31.325863898 ], [ -86.266810201, 31.325176798 ], [ -86.266838603, 31.323755994 ], [ -86.268415704, 31.321832396 ], [ -86.2684163, 31.321328193 ], [ -86.268977806, 31.320595399 ], [ -86.269406103, 31.319426998 ], [ -86.269406505, 31.319129094 ] ] } },
{ "type": "Feature", "properties": { "site_no": "02367500", "nhdplus_comid": "894857", "navigation_mode": "UM", "requested_distance_km": 12.0, "start_source": "nwissite", "start_id": "USGS-02367500", "geometry_length_km": 1.1742030801218277 }, "geometry": { "type": "LineString", "coordinates": [ [ -86.259723507, 31.335345596 ], [ -86.260258004, 31.334864795 ], [ -86.260472007, 31.334521294 ], [ -86.260660507, 31.333077699 ], [ -86.261008605, 31.332321696 ], [ -86.261062801, 31.331611298 ], [ -86.261490807, 31.330970094 ], [ -86.261624604, 31.330626398 ], [ -86.262159102, 31.330237299 ], [ -86.262560502, 31.329389699 ], [ -86.2636296, 31.328382395 ], [ -86.263976902, 31.328199297 ], [ -86.264724605, 31.327993795 ], [ -86.265045606, 31.327466995 ], [ -86.265366606, 31.326894395 ], [ -86.265607201, 31.326665394 ] ] } },
{ "type": "Feature", "properties": { "site_no": "02367500", "nhdplus_comid": "893635", "navigation_mode": "UM", "requested_distance_km": 12.0, "start_source": "nwissite", "start_id": "USGS-02367500", "geometry_length_km": 0.33265874004857116 }, "geometry": { "type": "LineString", "coordinates": [ [ -86.258838907, 31.338094793 ], [ -86.258947104, 31.3370407 ], [ -86.2591343, 31.336742893 ], [ -86.259588607, 31.336376697 ], [ -86.259722404, 31.336170599 ], [ -86.259723507, 31.335345596 ] ] } },
{ "type": "Feature", "properties": { "site_no": "02367500", "nhdplus_comid": "893631", "navigation_mode": "UM", "requested_distance_km": 12.0, "start_source": "nwissite", "start_id": "USGS-02367500", "geometry_length_km": 0.37273522179542717 }, "geometry": { "type": "LineString", "coordinates": [ [ -86.259155504, 31.341257498 ], [ -86.258995503, 31.341028199 ], [ -86.258942403, 31.340776093 ], [ -86.259183601, 31.340065897 ], [ -86.259237707, 31.339470096 ], [ -86.259131305, 31.339172095 ], [ -86.258811407, 31.338759296 ], [ -86.258731805, 31.338438399 ], [ -86.258838907, 31.338094793 ] ] } },
{ "type": "Feature", "properties": { "site_no": "02367500", "nhdplus_comid": "894823", "navigation_mode": "UM", "requested_distance_km": 12.0, "start_source": "nwissite", "start_id": "USGS-02367500", "geometry_length_km": 2.4194534513264059 }, "geometry": { "type": "LineString", "coordinates": [ [ -86.258889601, 31.361951098 ], [ -86.258889802, 31.361767694 ], [ -86.259452403, 31.360324495 ], [ -86.259721503, 31.358720593 ], [ -86.260203801, 31.357437596 ], [ -86.260258004, 31.356773093 ], [ -86.260151803, 31.356314696 ], [ -86.259618506, 31.355603799 ], [ -86.259460606, 31.3536558 ], [ -86.259835504, 31.352853999 ], [ -86.259970702, 31.351547897 ], [ -86.260238402, 31.350906499 ], [ -86.260961205, 31.349394694 ], [ -86.261283107, 31.348271996 ], [ -86.261418, 31.347126298 ], [ -86.261205204, 31.346415699 ], [ -86.2605654, 31.345498398 ], [ -86.260539703, 31.344719298 ], [ -86.260246605, 31.344146095 ], [ -86.259420104, 31.343228593 ], [ -86.259155504, 31.341257498 ] ] } }
]
}
