{
"type": "FeatureCollection",
"name": "USGS_02404400_DM_12km",
"crs": { "type": "name", "properties": { "name": "urn:ogc:def:crs:OGC:1.3:CRS84" } },
"features": [
{ "type": "Feature", "properties": { "site_no": "02404400", "nhdplus_comid": "22204871", "navigation_mode": "DM", "requested_distance_km": 12.0, "start_source": "nwissite", "start_id": "USGS-02404400", "geometry_length_km": 0.78440117166553547 }, "geometry": { "type": "LineString", "coordinates": [ [ -86.096757384, 33.548326975 ], [ -86.096758604, 33.548327699 ], [ -86.099613503, 33.5510948 ], [ -86.102515906, 33.5534878 ] ] } },
{ "type": "Feature", "properties": { "site_no": "02404400", "nhdplus_comid": "22204867", "navigation_mode": "DM", "requested_distance_km": 12.0, "start_source": "nwissite", "start_id": "USGS-02404400", "geometry_length_km": 0.28520686120148309 }, "geometry": { "type": "LineString", "coordinates": [ [ -86.102515906, 33.5534878 ], [ -86.102607302, 33.553504795 ], [ -86.102718405, 33.553525396 ], [ -86.102829501, 33.553545997 ], [ -86.102940604, 33.553566597 ], [ -86.103051707, 33.553587295 ], [ -86.103162706, 33.553607896 ], [ -86.103273802, 33.553628497 ], [ -86.103384905, 33.553649195 ], [ -86.103496, 33.553669795 ], [ -86.103607103, 33.553690396 ], [ -86.103718206, 33.553711094 ], [ -86.103829302, 33.553731695 ], [ -86.103940301, 33.553752296 ], [ -86.104051404, 33.553772897 ], [ -86.104162507, 33.553793594 ], [ -86.104273602, 33.553814195 ], [ -86.104384705, 33.553834796 ], [ -86.104495801, 33.553855494 ], [ -86.104606904, 33.553876095 ], [ -86.104717903, 33.553896695 ], [ -86.104829006, 33.553917296 ], [ -86.104940102, 33.553937994 ], [ -86.105051205, 33.553958595 ], [ -86.105058201, 33.553955697 ], [ -86.105160207, 33.553913899 ], [ -86.105262101, 33.553872094 ], [ -86.105364107, 33.553830296 ], [ -86.105466105, 33.553788394 ], [ -86.105493702, 33.553777099 ] ] } },
{ "type": "Feature", "properties": { "site_no": "02404400", "nhdplus_comid": "22204869", "navigation_mode": "DM", "requested_distance_km": 12.0, "start_source": "nwissite", "start_id": "USGS-02404400", "geometry_length_km": 0.024961823750962665 }, "geometry": { "type": "LineString", "coordinates": [ [ -86.105493702, 33.553777099 ], [ -86.105568103, 33.553746596 ], [ -86.105740607, 33.553807497 ] ] } },
{ "type": "Feature", "properties": { "site_no": "02404400", "nhdplus_comid": "22204385", "navigation_mode": "DM", "requested_distance_km": 12.0, "start_source": "nwissite", "start_id": "USGS-02404400", "geometry_length_km": 0.50464637224345521 }, "geometry": { "type": "LineString", "coordinates": [ [ -86.105740607, 33.553807497 ], [ -86.105959505, 33.5537159 ], [ -86.106233202, 33.553372398 ], [ -86.1063428, 33.552982993 ], [ -86.1063703, 33.552135393 ], [ -86.106671505, 33.551150396 ], [ -86.107136704, 33.550371595 ], [ -86.107820906, 33.549844794 ] ] } },
{ "type": "Feature", "properties": { "site_no": "02404400", "nhdplus_comid": "22204387", "navigation_mode": "DM", "requested_distance_km": 12.0, "start_source": "nwissite", "start_id": "USGS-02404400", "geometry_length_km": 1.1653856105385429 }, "geometry": { "type": "LineString", "coordinates": [ [ -86.107820906, 33.549844794 ], [ -86.108778402, 33.5497991 ], [ -86.109325603, 33.549913697 ], [ -86.110994406, 33.550486699 ], [ -86.112116002, 33.550967894 ], [ -86.112635806, 33.551357396 ], [ -86.112799905, 33.551609397 ], [ -86.1131007, 33.553006798 ], [ -86.113784403, 33.554266796 ], [ -86.115043007, 33.555526897 ], [ -86.115508102, 33.556236997 ], [ -86.115918405, 33.556649394 ] ] } },
{ "type": "Feature", "properties": { "site_no": "02404400", "nhdplus_comid": "26132755", "navigation_mode": "DM", "requested_distance_km": 12.0, "start_source": "nwissite", "start_id": "USGS-02404400", "geometry_length_km": 2.3079460391820734 }, "geometry": { "type": "LineString", "coordinates": [ [ -86.115918405, 33.556649394 ], [ -86.116776407, 33.557677798 ], [ -86.117784902, 33.558679894 ], [ -86.119392507, 33.559188798 ], [ -86.122618601, 33.559140697 ], [ -86.125244007, 33.559727699 ], [ -86.129703306, 33.563667797 ], [ -86.132806301, 33.567456193 ], [ -86.133793503, 33.569078296 ] ] } },
{ "type": "Feature", "properties": { "site_no": "02404400", "nhdplus_comid": "26132757", "navigation_mode": "DM", "requested_distance_km": 12.0, "start_source": "nwissite", "start_id": "USGS-02404400", "geometry_length_km": 1.718551000523902 }, "geometry": { "type": "LineString", "coordinates": [ [ -86.133793503, 33.569078296 ], [ -86.133892201, 33.569240399 ], [ -86.135999501, 33.570747495 ], [ -86.1392176, 33.571551695 ], [ -86.142024606, 33.571002595 ], [ -86.1445214, 33.567466594 ], [ -86.145561107, 33.565341793 ], [ -86.146920606, 33.565208994 ], [ -86.147021607, 33.565425493 ] ] } },
{ "type": "Feature", "properties": { "site_no": "02404400", "nhdplus_comid": "26132751", "navigation_mode": "DM", "requested_distance_km": 12.0, "start_source": "nwissite", "start_id": "USGS-02404400", "geometry_length_km": 6.0919309143703657 }, "geometry": { "type": "LineString", "coordinates": [ [ -86.147021607, 33.565425493 ], [ -86.148084603, 33.567704394 ], [ -86.150027901, 33.568641596 ], [ -86.152493104, 33.568303093 ], [ -86.1551302, 33.567752697 ], [ -86.159201302, 33.568135694 ], [ -86.1621655, 33.568866499 ], [ -86.168541104, 33.567985699 ], [ -86.171000704, 33.568215296 ], [ -86.172366403, 33.5674427 ], [ -86.172894001, 33.565527394 ], [ -86.171297505, 33.563811198 ], [ -86.1709783, 33.561676994 ], [ -86.171003401, 33.559047699 ], [ -86.171355203, 33.557770893 ], [ -86.172885001, 33.557567894 ], [ -86.174995504, 33.558790095 ], [ -86.177710906, 33.558879294 ], [ -86.189787507, 33.551728494 ], [ -86.190334603, 33.551404394 ], [ -86.191590503, 33.550660595 ], [ -86.192850806, 33.549914196 ] ] } }
]
}
