{
"type": "FeatureCollection",
"name": "USGS_02403310_DM_12km",
"crs": { "type": "name", "properties": { "name": "urn:ogc:def:crs:OGC:1.3:CRS84" } },
"features": [
{ "type": "Feature", "properties": { "site_no": "02403310", "nhdplus_comid": "22201973", "navigation_mode": "DM", "requested_distance_km": 12.0, "start_source": "nwissite", "start_id": "USGS-02403310", "geometry_length_km": 0.83821054034699505 }, "geometry": { "type": "LineString", "coordinates": [ [ -85.784688406, 33.602089994 ], [ -85.788026705, 33.603352293 ], [ -85.789120406, 33.604475498 ], [ -85.789420702, 33.605346099 ], [ -85.789338201, 33.6056896 ], [ -85.788982101, 33.6059414 ], [ -85.788927101, 33.606170498 ], [ -85.789145902, 33.606376797 ], [ -85.790213503, 33.606446095 ] ] } },
{ "type": "Feature", "properties": { "site_no": "02403310", "nhdplus_comid": "22201981", "navigation_mode": "DM", "requested_distance_km": 12.0, "start_source": "nwissite", "start_id": "USGS-02403310", "geometry_length_km": 3.3646138918805271 }, "geometry": { "type": "LineString", "coordinates": [ [ -85.790213503, 33.606446095 ], [ -85.791418001, 33.606355399 ], [ -85.7922666, 33.606401794 ], [ -85.795306005, 33.605602197 ], [ -85.795935906, 33.605258994 ], [ -85.7968674, 33.604503699 ], [ -85.797798604, 33.6040003 ], [ -85.798674703, 33.6038405 ], [ -85.7991945, 33.604115695 ], [ -85.799659505, 33.604528293 ], [ -85.800015107, 33.605032496 ], [ -85.8000421, 33.605353199 ], [ -85.800315604, 33.605765693 ], [ -85.801191002, 33.606384598 ], [ -85.802012101, 33.606476799 ], [ -85.8034086, 33.606042497 ], [ -85.807324506, 33.604509994 ], [ -85.807817407, 33.604235396 ], [ -85.807982005, 33.603891797 ], [ -85.808092102, 33.603158899 ], [ -85.808256507, 33.602975696 ], [ -85.808667205, 33.602861494 ], [ -85.809652701, 33.602816194 ], [ -85.810199805, 33.603182994 ], [ -85.810363606, 33.603847399 ], [ -85.810609907, 33.6039849 ], [ -85.811184704, 33.604008093 ], [ -85.811704904, 33.603916794 ], [ -85.811595604, 33.603504397 ], [ -85.809927002, 33.602037497 ], [ -85.809790604, 33.601487696 ], [ -85.810283504, 33.601167299 ], [ -85.811077505, 33.6009387 ], [ -85.811898701, 33.600961998 ], [ -85.812199704, 33.601191193 ], [ -85.812609605, 33.602061898 ], [ -85.813129805, 33.601924695 ], [ -85.813266806, 33.601649895 ], [ -85.813377105, 33.600664996 ], [ -85.813650802, 33.600619294 ] ] } },
{ "type": "Feature", "properties": { "site_no": "02403310", "nhdplus_comid": "22201983", "navigation_mode": "DM", "requested_distance_km": 12.0, "start_source": "nwissite", "start_id": "USGS-02403310", "geometry_length_km": 0.46855646927391204 }, "geometry": { "type": "LineString", "coordinates": [ [ -85.813650802, 33.600619294 ], [ -85.8142251, 33.601490095 ], [ -85.814307004, 33.601856694 ], [ -85.813978001, 33.602383293 ], [ -85.814087205, 33.6028644 ], [ -85.814360805, 33.603047699 ], [ -85.815209404, 33.603002399 ], [ -85.815838605, 33.603552394 ] ] } },
{ "type": "Feature", "properties": { "site_no": "02403310", "nhdplus_comid": "22201967", "navigation_mode": "DM", "requested_distance_km": 12.0, "start_source": "nwissite", "start_id": "USGS-02403310", "geometry_length_km": 0.86760502226753855 }, "geometry": { "type": "LineString", "coordinates": [ [ -85.815838605, 33.603552394 ], [ -85.817180105, 33.603323996 ], [ -85.818029203, 33.6025685 ], [ -85.818960004, 33.602523096 ], [ -85.8194253, 33.602614895 ], [ -85.820164107, 33.602981798 ], [ -85.820848301, 33.603256993 ], [ -85.824489601, 33.602479793 ] ] } },
{ "type": "Feature", "properties": { "site_no": "02403310", "nhdplus_comid": "22202015", "navigation_mode": "DM", "requested_distance_km": 12.0, "start_source": "nwissite", "start_id": "USGS-02403310", "geometry_length_km": 3.5276338342575531 }, "geometry": { "type": "LineString", "coordinates": [ [ -85.824489601, 33.602479793 ], [ -85.824927703, 33.602273799 ], [ -85.825338602, 33.6017472 ], [ -85.826324202, 33.6015184 ], [ -85.829090305, 33.599045694 ], [ -85.830076605, 33.597351 ], [ -85.830131702, 33.5967784 ], [ -85.8298034, 33.596388899 ], [ -85.828954905, 33.596342698 ], [ -85.828352802, 33.596227899 ], [ -85.828079306, 33.595838398 ], [ -85.827997506, 33.595426098 ], [ -85.828189306, 33.595151298 ], [ -85.829120107, 33.594693497 ], [ -85.829476103, 33.594281293 ], [ -85.829531103, 33.593891993 ], [ -85.830407307, 33.593159296 ], [ -85.831310801, 33.592678599 ], [ -85.831803702, 33.5922665 ], [ -85.831831202, 33.591991596 ], [ -85.831557602, 33.591762498 ], [ -85.831585102, 33.5913959 ], [ -85.831831902, 33.590777598 ], [ -85.832653202, 33.590296693 ], [ -85.833064206, 33.589288995 ], [ -85.833940506, 33.588647999 ], [ -85.834378503, 33.588441893 ], [ -85.835200004, 33.587503098 ], [ -85.836158, 33.587182693 ], [ -85.8372529, 33.586999796 ], [ -85.838347703, 33.587160498 ], [ -85.839442305, 33.587115094 ], [ -85.840947807, 33.586817794 ], [ -85.8415775, 33.586519994 ], [ -85.843082905, 33.586153895 ], [ -85.843822002, 33.585741796 ], [ -85.844725303, 33.585444398 ], [ -85.846942306, 33.585169993 ], [ -85.847517006, 33.584986895 ] ] } },
{ "type": "Feature", "properties": { "site_no": "02403310", "nhdplus_comid": "22202043", "navigation_mode": "DM", "requested_distance_km": 12.0, "start_source": "nwissite", "start_id": "USGS-02403310", "geometry_length_km": 3.6716356319300387 }, "geometry": { "type": "LineString", "coordinates": [ [ -85.847517006, 33.584986895 ], [ -85.8477633, 33.584986895 ], [ -85.849268705, 33.584529199 ], [ -85.852388807, 33.584277794 ], [ -85.853319503, 33.584003098 ], [ -85.853100702, 33.583476193 ], [ -85.852553301, 33.583247095 ], [ -85.852882005, 33.582445398 ], [ -85.854606405, 33.581185795 ], [ -85.854606502, 33.580956794 ], [ -85.854360305, 33.580750495 ], [ -85.854223505, 33.580475599 ], [ -85.854223602, 33.580200799 ], [ -85.854524702, 33.580017596 ], [ -85.855345607, 33.580040693 ], [ -85.855619401, 33.580201 ], [ -85.855564505, 33.580842398 ], [ -85.855838105, 33.5809341 ], [ -85.858328506, 33.5810261 ], [ -85.858547404, 33.580842897 ], [ -85.858574905, 33.5804535 ], [ -85.858328603, 33.580270298 ], [ -85.857206605, 33.579972297 ], [ -85.857042603, 33.579765998 ], [ -85.8573163, 33.578941494 ], [ -85.857781604, 33.578735396 ], [ -85.858000606, 33.578781299 ], [ -85.858328901, 33.579010196 ], [ -85.858493, 33.579262294 ], [ -85.858547702, 33.579651698 ], [ -85.858711906, 33.579949498 ], [ -85.859095007, 33.580018297 ], [ -85.859888703, 33.579674795 ], [ -85.859970905, 33.579308294 ], [ -85.858876407, 33.578300297 ], [ -85.858712301, 33.577887997 ], [ -85.858876601, 33.577612996 ], [ -85.859314501, 33.577338196 ], [ -85.859752305, 33.577269599 ], [ -85.860272303, 33.577567495 ], [ -85.860354304, 33.5779339 ], [ -85.861010902, 33.578575395 ], [ -85.861722402, 33.578712896 ], [ -85.862078302, 33.578575596 ], [ -85.862653106, 33.577888399 ], [ -85.863118306, 33.577750996 ], [ -85.864623405, 33.578232296 ], [ -85.864951804, 33.578255199 ], [ -85.865471803, 33.578048997 ], [ -85.8654171, 33.577819996 ], [ -85.864924505, 33.577476397 ], [ -85.864924505, 33.577086896 ], [ -85.865417302, 33.576193593 ], [ -85.865882501, 33.575964697 ], [ -85.866922401, 33.576331295 ] ] } }
]
}
