{
"type": "FeatureCollection",
"name": "USGS_02401620_UM_12km",
"crs": { "type": "name", "properties": { "name": "urn:ogc:def:crs:OGC:1.3:CRS84" } },
"features": [
{ "type": "Feature", "properties": { "site_no": "02401620", "nhdplus_comid": "26132921", "navigation_mode": "UM", "requested_distance_km": 12.0, "start_source": "nwissite", "start_id": "USGS-02401620", "geometry_length_km": 0.10912093048494347 }, "geometry": { "type": "LineString", "coordinates": [ [ -86.0539601, 33.7843211 ], [ -86.053293215, 33.783513221 ] ] } },
{ "type": "Feature", "properties": { "site_no": "02401620", "nhdplus_comid": "26132917", "navigation_mode": "UM", "requested_distance_km": 12.0, "start_source": "nwissite", "start_id": "USGS-02401620", "geometry_length_km": 0.80243280569900988 }, "geometry": { "type": "LineString", "coordinates": [ [ -86.059833705, 33.7895585 ], [ -86.0551707, 33.7859798 ], [ -86.0539601, 33.7843211 ] ] } },
{ "type": "Feature", "properties": { "site_no": "02401620", "nhdplus_comid": "26132645", "navigation_mode": "UM", "requested_distance_km": 12.0, "start_source": "nwissite", "start_id": "USGS-02401620", "geometry_length_km": 1.5841512344347704 }, "geometry": { "type": "LineString", "coordinates": [ [ -86.064749204, 33.802819699 ], [ -86.064912803, 33.800834395 ], [ -86.063229002, 33.794253297 ], [ -86.059834301, 33.789558999 ], [ -86.059833705, 33.7895585 ] ] } },
{ "type": "Feature", "properties": { "site_no": "02401620", "nhdplus_comid": "26132637", "navigation_mode": "UM", "requested_distance_km": 12.0, "start_source": "nwissite", "start_id": "USGS-02401620", "geometry_length_km": 1.0152289425415626 }, "geometry": { "type": "LineString", "coordinates": [ [ -86.0634946, 33.811833598 ], [ -86.064313605, 33.808103897 ], [ -86.064749204, 33.802819699 ] ] } },
{ "type": "Feature", "properties": { "site_no": "02401620", "nhdplus_comid": "26132821", "navigation_mode": "UM", "requested_distance_km": 12.0, "start_source": "nwissite", "start_id": "USGS-02401620", "geometry_length_km": 4.260480269040019 }, "geometry": { "type": "LineString", "coordinates": [ [ -86.066797003, 33.840552397 ], [ -86.066801801, 33.840546295 ], [ -86.066720106, 33.838777497 ], [ -86.065317705, 33.837840699 ], [ -86.060902402, 33.835617997 ], [ -86.056384504, 33.833562694 ], [ -86.053587504, 33.831015296 ], [ -86.052007802, 33.827887699 ], [ -86.051432304, 33.825188898 ], [ -86.052159801, 33.823257893 ], [ -86.053592406, 33.821416497 ], [ -86.053696103, 33.821164697 ], [ -86.0604036, 33.8148055 ], [ -86.063492507, 33.811843298 ], [ -86.0634946, 33.811833598 ] ] } },
{ "type": "Feature", "properties": { "site_no": "02401620", "nhdplus_comid": "26132819", "navigation_mode": "UM", "requested_distance_km": 12.0, "start_source": "nwissite", "start_id": "USGS-02401620", "geometry_length_km": 4.0968983831361285 }, "geometry": { "type": "LineString", "coordinates": [ [ -86.068942301, 33.8662415 ], [ -86.067643605, 33.865223095 ], [ -86.065432504, 33.864364393 ], [ -86.0621223, 33.862486899 ], [ -86.058822401, 33.859683096 ], [ -86.057029903, 33.857480295 ], [ -86.055369906, 33.852415599 ], [ -86.054609902, 33.848115593 ], [ -86.055139504, 33.845846198 ], [ -86.055954106, 33.845178895 ], [ -86.059189402, 33.844614193 ], [ -86.063440107, 33.843467899 ], [ -86.065471902, 33.842220195 ], [ -86.066797003, 33.840552397 ] ] } }
]
}
