{
"type": "FeatureCollection",
"name": "USGS_02401620_DM_12km",
"crs": { "type": "name", "properties": { "name": "urn:ogc:def:crs:OGC:1.3:CRS84" } },
"features": [
{ "type": "Feature", "properties": { "site_no": "02401620", "nhdplus_comid": "26132921", "navigation_mode": "DM", "requested_distance_km": 12.0, "start_source": "nwissite", "start_id": "USGS-02401620", "geometry_length_km": 0.34720544247679103 }, "geometry": { "type": "LineString", "coordinates": [ [ -86.053293215, 33.783513221 ], [ -86.051171303, 33.780942693 ] ] } },
{ "type": "Feature", "properties": { "site_no": "02401620", "nhdplus_comid": "26132653", "navigation_mode": "DM", "requested_distance_km": 12.0, "start_source": "nwissite", "start_id": "USGS-02401620", "geometry_length_km": 0.22150074980788967 }, "geometry": { "type": "LineString", "coordinates": [ [ -86.051171303, 33.780942693 ], [ -86.049867101, 33.779275894 ] ] } },
{ "type": "Feature", "properties": { "site_no": "02401620", "nhdplus_comid": "26132663", "navigation_mode": "DM", "requested_distance_km": 12.0, "start_source": "nwissite", "start_id": "USGS-02401620", "geometry_length_km": 0.24233834151682554 }, "geometry": { "type": "LineString", "coordinates": [ [ -86.049867101, 33.779275894 ], [ -86.049812205, 33.779205799 ], [ -86.048746705, 33.777313493 ] ] } },
{ "type": "Feature", "properties": { "site_no": "02401620", "nhdplus_comid": "26132665", "navigation_mode": "DM", "requested_distance_km": 12.0, "start_source": "nwissite", "start_id": "USGS-02401620", "geometry_length_km": 0.43558000387668994 }, "geometry": { "type": "LineString", "coordinates": [ [ -86.048746705, 33.777313493 ], [ -86.047325902, 33.774789698 ], [ -86.0466763, 33.773808897 ] ] } },
{ "type": "Feature", "properties": { "site_no": "02401620", "nhdplus_comid": "26132655", "navigation_mode": "DM", "requested_distance_km": 12.0, "start_source": "nwissite", "start_id": "USGS-02401620", "geometry_length_km": 1.3682105369596622 }, "geometry": { "type": "LineString", "coordinates": [ [ -86.0466763, 33.773808897 ], [ -86.044832602, 33.771024793 ], [ -86.043713205, 33.766456194 ], [ -86.043745801, 33.763525099 ], [ -86.044733301, 33.762392797 ], [ -86.044839501, 33.762372799 ] ] } },
{ "type": "Feature", "properties": { "site_no": "02401620", "nhdplus_comid": "26132675", "navigation_mode": "DM", "requested_distance_km": 12.0, "start_source": "nwissite", "start_id": "USGS-02401620", "geometry_length_km": 4.2734876934183372 }, "geometry": { "type": "LineString", "coordinates": [ [ -86.044839501, 33.762372799 ], [ -86.048054904, 33.761767 ], [ -86.052923702, 33.762292996 ], [ -86.057803102, 33.761841796 ], [ -86.063286901, 33.759603597 ], [ -86.070351206, 33.755422898 ], [ -86.073888406, 33.752843693 ], [ -86.076459303, 33.749443099 ], [ -86.081010602, 33.743125796 ], [ -86.081019305, 33.743121698 ] ] } },
{ "type": "Feature", "properties": { "site_no": "02401620", "nhdplus_comid": "26132677", "navigation_mode": "DM", "requested_distance_km": 12.0, "start_source": "nwissite", "start_id": "USGS-02401620", "geometry_length_km": 1.7472286033486009 }, "geometry": { "type": "LineString", "coordinates": [ [ -86.081019305, 33.743121698 ], [ -86.085516304, 33.7410421 ], [ -86.0958829, 33.737698495 ], [ -86.098407306, 33.736908495 ] ] } },
{ "type": "Feature", "properties": { "site_no": "02401620", "nhdplus_comid": "26132679", "navigation_mode": "DM", "requested_distance_km": 12.0, "start_source": "nwissite", "start_id": "USGS-02401620", "geometry_length_km": 0.80202003986763848 }, "geometry": { "type": "LineString", "coordinates": [ [ -86.098407306, 33.736908495 ], [ -86.098425306, 33.736902796 ], [ -86.102942206, 33.733678594 ], [ -86.105064705, 33.732277393 ] ] } },
{ "type": "Feature", "properties": { "site_no": "02401620", "nhdplus_comid": "26132687", "navigation_mode": "DM", "requested_distance_km": 12.0, "start_source": "nwissite", "start_id": "USGS-02401620", "geometry_length_km": 2.6909066543021325 }, "geometry": { "type": "LineString", "coordinates": [ [ -86.105064705, 33.732277393 ], [ -86.111969702, 33.727718294 ], [ -86.116297401, 33.723840795 ], [ -86.118073002, 33.721736297 ], [ -86.118486106, 33.719459295 ], [ -86.118925706, 33.714576796 ], [ -86.1198918, 33.712995999 ] ] } }
]
}
