{
"type": "FeatureCollection",
"name": "USGS_03572110_UM_12km",
"crs": { "type": "name", "properties": { "name": "urn:ogc:def:crs:OGC:1.3:CRS84" } },
"features": [
{ "type": "Feature", "properties": { "site_no": "03572110", "nhdplus_comid": "19644594", "navigation_mode": "UM", "requested_distance_km": 12.0, "start_source": "nwissite", "start_id": "USGS-03572110", "geometry_length_km": 1.5032575418080707 }, "geometry": { "type": "LineString", "coordinates": [ [ -85.914246902, 34.946301296 ], [ -85.914190903, 34.945339397 ], [ -85.913940303, 34.944766894 ], [ -85.9139954, 34.943438597 ], [ -85.913049601, 34.9428434 ], [ -85.912966006, 34.942591399 ], [ -85.913438201, 34.941010997 ], [ -85.914272003, 34.939659595 ], [ -85.914355002, 34.938835099 ], [ -85.914521702, 34.938376993 ], [ -85.916161701, 34.936154999 ], [ -85.916300401, 34.935513698 ], [ -85.916689403, 34.934872299 ], [ -85.917301007, 34.934207998 ], [ -85.917378334, 34.934155035 ] ] } },
{ "type": "Feature", "properties": { "site_no": "03572110", "nhdplus_comid": "19644520", "navigation_mode": "UM", "requested_distance_km": 12.0, "start_source": "nwissite", "start_id": "USGS-03572110", "geometry_length_km": 1.1298797934426827 }, "geometry": { "type": "LineString", "coordinates": [ [ -85.915780403, 34.954866394 ], [ -85.915473901, 34.953629799 ], [ -85.915084206, 34.952965595 ], [ -85.914583005, 34.951729096 ], [ -85.914582707, 34.951019093 ], [ -85.914860703, 34.950515196 ], [ -85.915722601, 34.949850798 ], [ -85.915750302, 34.949438497 ], [ -85.914164603, 34.948935099 ], [ -85.913830705, 34.948477097 ], [ -85.9138024, 34.947652698 ], [ -85.914080001, 34.9464387 ], [ -85.914246902, 34.946301296 ] ] } },
{ "type": "Feature", "properties": { "site_no": "03572110", "nhdplus_comid": "19644488", "navigation_mode": "UM", "requested_distance_km": 12.0, "start_source": "nwissite", "start_id": "USGS-03572110", "geometry_length_km": 4.4951818066870608 }, "geometry": { "type": "LineString", "coordinates": [ [ -85.899654604, 34.989566699 ], [ -85.899710104, 34.988650694 ], [ -85.899793506, 34.988467395 ], [ -85.900043204, 34.985146597 ], [ -85.899736904, 34.9844824 ], [ -85.899681002, 34.983795397 ], [ -85.904021002, 34.980221994 ], [ -85.906969704, 34.977473095 ], [ -85.909945704, 34.974243298 ], [ -85.910335205, 34.973945394 ], [ -85.911586903, 34.973326795 ], [ -85.912198901, 34.972868696 ], [ -85.913283601, 34.971723199 ], [ -85.914201602, 34.971264899 ], [ -85.914980404, 34.970692195 ], [ -85.915647604, 34.969569698 ], [ -85.915953301, 34.968561999 ], [ -85.916785702, 34.963500299 ], [ -85.917145506, 34.959606893 ], [ -85.916922502, 34.958553396 ], [ -85.916811205, 34.958507493 ], [ -85.915780403, 34.954866394 ] ] } },
{ "type": "Feature", "properties": { "site_no": "03572110", "nhdplus_comid": "19644378", "navigation_mode": "UM", "requested_distance_km": 12.0, "start_source": "nwissite", "start_id": "USGS-03572110", "geometry_length_km": 0.69051068284922079 }, "geometry": { "type": "LineString", "coordinates": [ [ -85.902355202, 34.994833894 ], [ -85.902438603, 34.994490296 ], [ -85.902271606, 34.994009294 ], [ -85.902187802, 34.992932998 ], [ -85.902298905, 34.991810799 ], [ -85.902076103, 34.9914672 ], [ -85.899654604, 34.989566699 ] ] } },
{ "type": "Feature", "properties": { "site_no": "03572110", "nhdplus_comid": "19644358", "navigation_mode": "UM", "requested_distance_km": 12.0, "start_source": "nwissite", "start_id": "USGS-03572110", "geometry_length_km": 0.76973432156899835 }, "geometry": { "type": "LineString", "coordinates": [ [ -85.903099403, 35.000094496 ], [ -85.903266303, 34.999688894 ], [ -85.903238505, 34.999505699 ], [ -85.903043807, 34.999368399 ], [ -85.902153105, 34.999322698 ], [ -85.902041905, 34.999231197 ], [ -85.9020705, 34.998567 ], [ -85.902321205, 34.998315096 ], [ -85.903045006, 34.998154595 ], [ -85.903295405, 34.997994199 ], [ -85.903296307, 34.997490399 ], [ -85.903129801, 34.997352995 ], [ -85.902964301, 34.996826194 ], [ -85.902910605, 34.995887294 ], [ -85.902522102, 34.994925499 ], [ -85.902355202, 34.994833894 ] ] } },
{ "type": "Feature", "properties": { "site_no": "03572110", "nhdplus_comid": "19643404", "navigation_mode": "UM", "requested_distance_km": 12.0, "start_source": "nwissite", "start_id": "USGS-03572110", "geometry_length_km": 0.65869679592352348 }, "geometry": { "type": "LineString", "coordinates": [ [ -85.902869701, 35.004704997 ], [ -85.902871303, 35.003445394 ], [ -85.902732804, 35.003124796 ], [ -85.902706705, 35.002506495 ], [ -85.902819, 35.002162896 ], [ -85.903265804, 35.001475699 ], [ -85.903266206, 35.001177996 ], [ -85.903015703, 35.001132295 ], [ -85.902765103, 35.001246899 ], [ -85.902347505, 35.001269795 ], [ -85.902236305, 35.001201093 ], [ -85.902264304, 35.000926293 ], [ -85.903099403, 35.000094496 ] ] } },
{ "type": "Feature", "properties": { "site_no": "03572110", "nhdplus_comid": "19643372", "navigation_mode": "UM", "requested_distance_km": 12.0, "start_source": "nwissite", "start_id": "USGS-03572110", "geometry_length_km": 4.1016839644276368 }, "geometry": { "type": "LineString", "coordinates": [ [ -85.9142344, 35.022336595 ], [ -85.9143176, 35.021786794 ], [ -85.914066903, 35.021351799 ], [ -85.913398601, 35.021145798 ], [ -85.913148001, 35.020939797 ], [ -85.913092107, 35.020596296 ], [ -85.913593002, 35.020160995 ], [ -85.913648501, 35.019680098 ], [ -85.912923805, 35.017779395 ], [ -85.912673205, 35.017527498 ], [ -85.911587305, 35.017138496 ], [ -85.910863303, 35.016520396 ], [ -85.910863206, 35.016360097 ], [ -85.911057904, 35.016108096 ], [ -85.911698103, 35.015901893 ], [ -85.911892906, 35.015764393 ], [ -85.911920503, 35.0153521 ], [ -85.911558203, 35.014390394 ], [ -85.911335602, 35.014344595 ], [ -85.911085002, 35.014436297 ], [ -85.910834506, 35.014688194 ], [ -85.910528302, 35.014825694 ], [ -85.910361402, 35.014802895 ], [ -85.910110705, 35.014573999 ], [ -85.909832001, 35.013909899 ], [ -85.909664601, 35.012947999 ], [ -85.910165504, 35.012443997 ], [ -85.910638601, 35.0123294 ], [ -85.911028303, 35.011962898 ], [ -85.911362305, 35.011894099 ], [ -85.911974907, 35.012283199 ], [ -85.912281103, 35.012374699 ], [ -85.913088202, 35.011985093 ], [ -85.913032301, 35.011435494 ], [ -85.912948705, 35.011389799 ], [ -85.912865102, 35.010954693 ], [ -85.912363701, 35.010359399 ], [ -85.911918305, 35.010061793 ], [ -85.911277905, 35.009832896 ], [ -85.910582006, 35.009947598 ], [ -85.910248101, 35.010222495 ], [ -85.909914106, 35.010359995 ], [ -85.909663506, 35.010153897 ], [ -85.908995003, 35.009054899 ], [ -85.908187501, 35.008459695 ], [ -85.908187404, 35.008184798 ], [ -85.908855304, 35.007680796 ], [ -85.908743702, 35.0072916 ], [ -85.908437401, 35.006947994 ], [ -85.907268204, 35.006581895 ], [ -85.906989805, 35.006238498 ], [ -85.9068783, 35.005688794 ], [ -85.906989403, 35.005093299 ], [ -85.906878002, 35.004933096 ], [ -85.906376906, 35.004864596 ], [ -85.906154305, 35.004956193 ], [ -85.905903801, 35.005208194 ], [ -85.905987702, 35.0060784 ], [ -85.906266302, 35.006856993 ], [ -85.9062666, 35.007383697 ], [ -85.905710004, 35.007864796 ], [ -85.905209005, 35.007933699 ], [ -85.904902801, 35.007842094 ], [ -85.904568702, 35.007544495 ], [ -85.904457301, 35.007315397 ], [ -85.904484905, 35.006605498 ], [ -85.904734902, 35.005483299 ], [ -85.904400803, 35.004979596 ], [ -85.904066704, 35.004887894 ], [ -85.903092504, 35.004888095 ], [ -85.902869701, 35.004704997 ] ] } }
]
}
