{
"type": "FeatureCollection",
"name": "USGS_02421256_DM_12km",
"crs": { "type": "name", "properties": { "name": "urn:ogc:def:crs:OGC:1.3:CRS84" } },
"features": [
{ "type": "Feature", "properties": { "site_no": "02421256", "nhdplus_comid": "21677758", "navigation_mode": "DM", "requested_distance_km": 12.0, "start_source": "nwissite", "start_id": "USGS-02421256", "geometry_length_km": 0.31066067332186009 }, "geometry": { "type": "LineString", "coordinates": [ [ -86.668949516, 32.628524957 ], [ -86.667545207, 32.627158396 ], [ -86.666949302, 32.626448296 ], [ -86.666813903, 32.626425393 ] ] } },
{ "type": "Feature", "properties": { "site_no": "02421256", "nhdplus_comid": "21676498", "navigation_mode": "DM", "requested_distance_km": 12.0, "start_source": "nwissite", "start_id": "USGS-02421256", "geometry_length_km": 0.92943080442572168 }, "geometry": { "type": "LineString", "coordinates": [ [ -86.666813903, 32.626425393 ], [ -86.666380003, 32.6251195 ], [ -86.666217506, 32.624775894 ], [ -86.665052302, 32.622988999 ], [ -86.6650251, 32.622714095 ], [ -86.664808303, 32.622210093 ], [ -86.664130807, 32.620698094 ], [ -86.663940601, 32.619117096 ], [ -86.664048702, 32.618567094 ] ] } },
{ "type": "Feature", "properties": { "site_no": "02421256", "nhdplus_comid": "21676556", "navigation_mode": "DM", "requested_distance_km": 12.0, "start_source": "nwissite", "start_id": "USGS-02421256", "geometry_length_km": 0.93882218397130912 }, "geometry": { "type": "LineString", "coordinates": [ [ -86.664048702, 32.618567094 ], [ -86.664616607, 32.617031895 ], [ -86.664670005, 32.615450695 ], [ -86.664805107, 32.614832096 ], [ -86.665265106, 32.614236094 ], [ -86.665887602, 32.614052698 ], [ -86.666347802, 32.613800496 ], [ -86.666943103, 32.613204494 ], [ -86.667863302, 32.612745993 ], [ -86.668079801, 32.612310596 ], [ -86.668079406, 32.611577399 ] ] } },
{ "type": "Feature", "properties": { "site_no": "02421256", "nhdplus_comid": "21676610", "navigation_mode": "DM", "requested_distance_km": 12.0, "start_source": "nwissite", "start_id": "USGS-02421256", "geometry_length_km": 0.85109317451282818 }, "geometry": { "type": "LineString", "coordinates": [ [ -86.668079406, 32.611577399 ], [ -86.667971, 32.611348197 ], [ -86.667943701, 32.610912897 ], [ -86.668079004, 32.610546298 ], [ -86.668322504, 32.610294193 ], [ -86.668457605, 32.6099962 ], [ -86.668457501, 32.609583795 ], [ -86.667753302, 32.608827993 ], [ -86.667752802, 32.608025998 ], [ -86.667860903, 32.607453093 ], [ -86.668023206, 32.607246898 ], [ -86.668781102, 32.606902897 ], [ -86.668862, 32.606375895 ], [ -86.669511601, 32.6061465 ], [ -86.670431703, 32.605389997 ] ] } },
{ "type": "Feature", "properties": { "site_no": "02421256", "nhdplus_comid": "21676638", "navigation_mode": "DM", "requested_distance_km": 12.0, "start_source": "nwissite", "start_id": "USGS-02421256", "geometry_length_km": 0.33413024183074436 }, "geometry": { "type": "LineString", "coordinates": [ [ -86.670431703, 32.605389997 ], [ -86.6704586, 32.605183795 ], [ -86.671865202, 32.603281394 ], [ -86.672000304, 32.6028919 ], [ -86.672135606, 32.602800198 ] ] } },
{ "type": "Feature", "properties": { "site_no": "02421256", "nhdplus_comid": "21676684", "navigation_mode": "DM", "requested_distance_km": 12.0, "start_source": "nwissite", "start_id": "USGS-02421256", "geometry_length_km": 0.89444090830161826 }, "geometry": { "type": "LineString", "coordinates": [ [ -86.672135606, 32.602800198 ], [ -86.672460005, 32.602043897 ], [ -86.672757305, 32.600989893 ], [ -86.673271306, 32.600416794 ], [ -86.6732435, 32.598927498 ], [ -86.673649006, 32.598171197 ], [ -86.674082004, 32.597987697 ], [ -86.674460806, 32.597598098 ], [ -86.674866505, 32.596956298 ], [ -86.674974501, 32.596566796 ], [ -86.675515302, 32.595604196 ] ] } },
{ "type": "Feature", "properties": { "site_no": "02421256", "nhdplus_comid": "21676714", "navigation_mode": "DM", "requested_distance_km": 12.0, "start_source": "nwissite", "start_id": "USGS-02421256", "geometry_length_km": 0.4647323878197559 }, "geometry": { "type": "LineString", "coordinates": [ [ -86.675515302, 32.595604196 ], [ -86.675244607, 32.595466897 ], [ -86.675000705, 32.594939895 ], [ -86.674025603, 32.593840495 ], [ -86.673646405, 32.593084499 ], [ -86.673726901, 32.591938794 ] ] } },
{ "type": "Feature", "properties": { "site_no": "02421256", "nhdplus_comid": "21676738", "navigation_mode": "DM", "requested_distance_km": 12.0, "start_source": "nwissite", "start_id": "USGS-02421256", "geometry_length_km": 0.56504749782278685 }, "geometry": { "type": "LineString", "coordinates": [ [ -86.673726901, 32.591938794 ], [ -86.673699602, 32.5915263 ], [ -86.673374206, 32.590380795 ], [ -86.673455, 32.589418396 ], [ -86.673833601, 32.588845395 ], [ -86.674969904, 32.587974295 ], [ -86.675402701, 32.587538794 ] ] } },
{ "type": "Feature", "properties": { "site_no": "02421256", "nhdplus_comid": "21676808", "navigation_mode": "DM", "requested_distance_km": 12.0, "start_source": "nwissite", "start_id": "USGS-02421256", "geometry_length_km": 0.9166025260195263 }, "geometry": { "type": "LineString", "coordinates": [ [ -86.675402701, 32.587538794 ], [ -86.674102701, 32.586026996 ], [ -86.673858404, 32.584789798 ], [ -86.6737229, 32.584583595 ], [ -86.673640907, 32.583025597 ], [ -86.673803106, 32.582750596 ], [ -86.674344301, 32.582498297 ], [ -86.674722902, 32.5820399 ], [ -86.675182402, 32.580985695 ], [ -86.675209001, 32.5801837 ] ] } },
{ "type": "Feature", "properties": { "site_no": "02421256", "nhdplus_comid": "21676842", "navigation_mode": "DM", "requested_distance_km": 12.0, "start_source": "nwissite", "start_id": "USGS-02421256", "geometry_length_km": 0.53426119167549235 }, "geometry": { "type": "LineString", "coordinates": [ [ -86.675209001, 32.5801837 ], [ -86.674532406, 32.580161095 ], [ -86.673476703, 32.579657398 ], [ -86.672664501, 32.578878596 ], [ -86.672177002, 32.578122593 ], [ -86.672176607, 32.577366494 ], [ -86.672284603, 32.576816596 ] ] } },
{ "type": "Feature", "properties": { "site_no": "02421256", "nhdplus_comid": "21676884", "navigation_mode": "DM", "requested_distance_km": 12.0, "start_source": "nwissite", "start_id": "USGS-02421256", "geometry_length_km": 0.32491018491375157 }, "geometry": { "type": "LineString", "coordinates": [ [ -86.672284603, 32.576816596 ], [ -86.672473706, 32.576220796 ], [ -86.672661901, 32.573929399 ] ] } },
{ "type": "Feature", "properties": { "site_no": "02421256", "nhdplus_comid": "21676906", "navigation_mode": "DM", "requested_distance_km": 12.0, "start_source": "nwissite", "start_id": "USGS-02421256", "geometry_length_km": 0.5095029688342454 }, "geometry": { "type": "LineString", "coordinates": [ [ -86.672661901, 32.573929399 ], [ -86.672824107, 32.573608495 ], [ -86.672878005, 32.5731273 ], [ -86.674094304, 32.570629299 ], [ -86.674608104, 32.570102096 ], [ -86.675014004, 32.569987394 ] ] } },
{ "type": "Feature", "properties": { "site_no": "02421256", "nhdplus_comid": "21676924", "navigation_mode": "DM", "requested_distance_km": 12.0, "start_source": "nwissite", "start_id": "USGS-02421256", "geometry_length_km": 0.14027133840317749 }, "geometry": { "type": "LineString", "coordinates": [ [ -86.675014004, 32.569987394 ], [ -86.6750677, 32.569414496 ], [ -86.675256707, 32.568749994 ] ] } },
{ "type": "Feature", "properties": { "site_no": "02421256", "nhdplus_comid": "21677040", "navigation_mode": "DM", "requested_distance_km": 12.0, "start_source": "nwissite", "start_id": "USGS-02421256", "geometry_length_km": 1.6079822046416301 }, "geometry": { "type": "LineString", "coordinates": [ [ -86.675256707, 32.568749994 ], [ -86.675933003, 32.568314396 ], [ -86.676176302, 32.567764394 ], [ -86.676149003, 32.5673749 ], [ -86.676284201, 32.567168593 ], [ -86.676771, 32.566962197 ], [ -86.676852204, 32.566732995 ], [ -86.677013502, 32.5649914 ], [ -86.676931605, 32.563754193 ], [ -86.676985703, 32.563639596 ], [ -86.6774996, 32.563433096 ], [ -86.6777969, 32.562883094 ], [ -86.677796401, 32.562012397 ], [ -86.6781746, 32.560958296 ], [ -86.678606503, 32.559147999 ], [ -86.678741202, 32.558231294 ], [ -86.678442702, 32.556719199 ], [ -86.678333707, 32.555390298 ] ] } },
{ "type": "Feature", "properties": { "site_no": "02421256", "nhdplus_comid": "21677136", "navigation_mode": "DM", "requested_distance_km": 12.0, "start_source": "nwissite", "start_id": "USGS-02421256", "geometry_length_km": 1.2527869044136475 }, "geometry": { "type": "LineString", "coordinates": [ [ -86.678333707, 32.555390298 ], [ -86.678279206, 32.554748796 ], [ -86.678441204, 32.554290295 ], [ -86.6787927, 32.553808995 ], [ -86.679333501, 32.553442195 ], [ -86.679360203, 32.552731797 ], [ -86.679495305, 32.552456893 ], [ -86.679765701, 32.552181795 ], [ -86.681036904, 32.551608399 ], [ -86.681739606, 32.550462395 ], [ -86.681739107, 32.549660496 ], [ -86.681332603, 32.548766993 ], [ -86.681332201, 32.547987893 ], [ -86.682088904, 32.5468648 ], [ -86.682196803, 32.546360798 ], [ -86.682061106, 32.545604594 ] ] } },
{ "type": "Feature", "properties": { "site_no": "02421256", "nhdplus_comid": "21677152", "navigation_mode": "DM", "requested_distance_km": 12.0, "start_source": "nwissite", "start_id": "USGS-02421256", "geometry_length_km": 0.29642190146257241 }, "geometry": { "type": "LineString", "coordinates": [ [ -86.682061106, 32.545604594 ], [ -86.6821419, 32.545123398 ], [ -86.682601504, 32.544550397 ], [ -86.682898901, 32.544412695 ], [ -86.683872804, 32.544458099 ], [ -86.684305601, 32.544343397 ] ] } }
]
}
