{
"type": "FeatureCollection",
"name": "USGS_02424590_DM_12km",
"crs": { "type": "name", "properties": { "name": "urn:ogc:def:crs:OGC:1.3:CRS84" } },
"features": [
{ "type": "Feature", "properties": { "site_no": "02424590", "nhdplus_comid": "21662090", "navigation_mode": "DM", "requested_distance_km": 12.0, "start_source": "nwissite", "start_id": "USGS-02424590", "geometry_length_km": 3.1839678036004226 }, "geometry": { "type": "LineString", "coordinates": [ [ -87.199409385, 32.52962147 ], [ -87.1990657, 32.529545598 ], [ -87.1979829, 32.528452694 ], [ -87.197660007, 32.527292795 ], [ -87.197146304, 32.526496395 ], [ -87.194845401, 32.524173893 ], [ -87.1949009, 32.523673899 ], [ -87.1962054, 32.522766799 ], [ -87.196288601, 32.522016793 ], [ -87.194650702, 32.520502396 ], [ -87.194192506, 32.519205898 ], [ -87.194345005, 32.517830893 ], [ -87.1957881, 32.515673697 ], [ -87.195777506, 32.514412098 ], [ -87.195371501, 32.514002196 ], [ -87.194178, 32.513909295 ], [ -87.193688907, 32.514249496 ], [ -87.193307303, 32.514976196 ], [ -87.192492001, 32.5155432 ], [ -87.190511003, 32.515767097 ], [ -87.186645903, 32.515339896 ], [ -87.1854802, 32.514996894 ], [ -87.184789807, 32.514438696 ] ] } },
{ "type": "Feature", "properties": { "site_no": "02424590", "nhdplus_comid": "21662092", "navigation_mode": "DM", "requested_distance_km": 12.0, "start_source": "nwissite", "start_id": "USGS-02424590", "geometry_length_km": 0.25199433869082161 }, "geometry": { "type": "LineString", "coordinates": [ [ -87.184789807, 32.514438696 ], [ -87.185039602, 32.512188695 ] ] } },
{ "type": "Feature", "properties": { "site_no": "02424590", "nhdplus_comid": "21662158", "navigation_mode": "DM", "requested_distance_km": 12.0, "start_source": "nwissite", "start_id": "USGS-02424590", "geometry_length_km": 0.78245780342261517 }, "geometry": { "type": "LineString", "coordinates": [ [ -87.185039602, 32.512188695 ], [ -87.185067303, 32.511938699 ], [ -87.185407303, 32.511586897 ], [ -87.185844406, 32.510360099 ], [ -87.186038703, 32.5086101 ], [ -87.187235504, 32.507316396 ], [ -87.187318802, 32.506566398 ], [ -87.187062003, 32.506168097 ], [ -87.187494501, 32.505932793 ] ] } },
{ "type": "Feature", "properties": { "site_no": "02424590", "nhdplus_comid": "21662100", "navigation_mode": "DM", "requested_distance_km": 12.0, "start_source": "nwissite", "start_id": "USGS-02424590", "geometry_length_km": 1.1216632946418563 }, "geometry": { "type": "LineString", "coordinates": [ [ -87.187494501, 32.505932793 ], [ -87.186982207, 32.505531497 ], [ -87.187107101, 32.5044064 ], [ -87.186798304, 32.503121495 ], [ -87.186121903, 32.502438396 ], [ -87.184536606, 32.501810394 ], [ -87.1814458, 32.501191199 ], [ -87.179590002, 32.500289895 ], [ -87.179398507, 32.500150993 ] ] } },
{ "type": "Feature", "properties": { "site_no": "02424590", "nhdplus_comid": "21662550", "navigation_mode": "DM", "requested_distance_km": 12.0, "start_source": "nwissite", "start_id": "USGS-02424590", "geometry_length_km": 0.34016990829286065 }, "geometry": { "type": "LineString", "coordinates": [ [ -87.179398507, 32.500150993 ], [ -87.177640706, 32.498876899 ], [ -87.1766202, 32.498513497 ], [ -87.1764208, 32.498466797 ] ] } },
{ "type": "Feature", "properties": { "site_no": "02424590", "nhdplus_comid": "21662258", "navigation_mode": "DM", "requested_distance_km": 12.0, "start_source": "nwissite", "start_id": "USGS-02424590", "geometry_length_km": 2.3687397315808121 }, "geometry": { "type": "LineString", "coordinates": [ [ -87.1764208, 32.498466797 ], [ -87.174933404, 32.498031996 ], [ -87.173959807, 32.497596994 ], [ -87.173121206, 32.496909998 ], [ -87.172742501, 32.496474795 ], [ -87.1724177, 32.495787397 ], [ -87.171741202, 32.494802497 ], [ -87.171308406, 32.494390197 ], [ -87.170659207, 32.493794598 ], [ -87.169739604, 32.493199199 ], [ -87.168576606, 32.492283098 ], [ -87.167413205, 32.4904963 ], [ -87.166736402, 32.488915294 ], [ -87.166276507, 32.488205194 ], [ -87.166006103, 32.488090694 ], [ -87.164438106, 32.488022499 ], [ -87.164248705, 32.487885095 ], [ -87.1636803, 32.486281298 ], [ -87.163247406, 32.485456496 ], [ -87.162111402, 32.484402895 ], [ -87.161516502, 32.484013498 ], [ -87.160786405, 32.4833721 ], [ -87.160651207, 32.483349293 ] ] } },
{ "type": "Feature", "properties": { "site_no": "02424590", "nhdplus_comid": "21662280", "navigation_mode": "DM", "requested_distance_km": 12.0, "start_source": "nwissite", "start_id": "USGS-02424590", "geometry_length_km": 1.2607228612452295 }, "geometry": { "type": "LineString", "coordinates": [ [ -87.160651207, 32.483349293 ], [ -87.160597101, 32.483143099 ], [ -87.160245501, 32.482730694 ], [ -87.159569107, 32.481539398 ], [ -87.159217402, 32.480508395 ], [ -87.159189604, 32.478996098 ], [ -87.1593244, 32.478194095 ], [ -87.159269206, 32.4752611 ], [ -87.1591065, 32.473794699 ], [ -87.158998303, 32.473588496 ], [ -87.158862703, 32.472351193 ] ] } },
{ "type": "Feature", "properties": { "site_no": "02424590", "nhdplus_comid": "21662300", "navigation_mode": "DM", "requested_distance_km": 12.0, "start_source": "nwissite", "start_id": "USGS-02424590", "geometry_length_km": 3.736298148007084 }, "geometry": { "type": "LineString", "coordinates": [ [ -87.158862703, 32.472351193 ], [ -87.158862501, 32.471961595 ], [ -87.159266904, 32.469532594 ], [ -87.159239404, 32.468432799 ], [ -87.158644401, 32.467287295 ], [ -87.158617005, 32.466416493 ], [ -87.159184307, 32.465453997 ], [ -87.159913503, 32.464010194 ], [ -87.160318702, 32.463666394 ], [ -87.161021501, 32.463597499 ], [ -87.161859401, 32.463826396 ], [ -87.1647522, 32.465589799 ], [ -87.165455006, 32.465956196 ], [ -87.166049801, 32.4660706 ], [ -87.166590303, 32.466070399 ], [ -87.166968606, 32.465886995 ], [ -87.167265706, 32.465222396 ], [ -87.167265303, 32.464534998 ], [ -87.167021804, 32.463778898 ], [ -87.166670002, 32.463183194 ], [ -87.165588103, 32.461579598 ], [ -87.163749501, 32.459655493 ], [ -87.163722202, 32.459243096 ], [ -87.164100505, 32.458945096 ], [ -87.164992206, 32.458669797 ], [ -87.166586705, 32.458485894 ], [ -87.167370506, 32.458623096 ], [ -87.168100402, 32.458989494 ], [ -87.168884404, 32.459562197 ], [ -87.169749506, 32.459813893 ], [ -87.174587302, 32.459949397 ], [ -87.175425, 32.459742896 ] ] } }
]
}
