{
"type": "FeatureCollection",
"name": "USGS_02458148_DM_12km",
"crs": { "type": "name", "properties": { "name": "urn:ogc:def:crs:OGC:1.3:CRS84" } },
"features": [
{ "type": "Feature", "properties": { "site_no": "02458148", "nhdplus_comid": "18566151", "navigation_mode": "DM", "requested_distance_km": 12.0, "start_source": "nwissite", "start_id": "USGS-02458148", "geometry_length_km": 2.9383250020385949 }, "geometry": { "type": "LineString", "coordinates": [ [ -86.718941228, 33.576843341 ], [ -86.718947001, 33.576838896 ], [ -86.720477901, 33.575211093 ], [ -86.721106507, 33.574454598 ], [ -86.723592706, 33.570649698 ], [ -86.724794105, 33.568174399 ], [ -86.725040101, 33.568013899 ], [ -86.725258701, 33.567624196 ], [ -86.725750707, 33.567211397 ], [ -86.733763903, 33.563126795 ], [ -86.735186204, 33.562575698 ], [ -86.736964203, 33.562024295 ], [ -86.738058202, 33.561542198 ], [ -86.7388786, 33.561037399 ], [ -86.741120905, 33.559889793 ], [ -86.741558604, 33.559774794 ] ] } },
{ "type": "Feature", "properties": { "site_no": "02458148", "nhdplus_comid": "18566333", "navigation_mode": "DM", "requested_distance_km": 12.0, "start_source": "nwissite", "start_id": "USGS-02458148", "geometry_length_km": 2.9667056518325743 }, "geometry": { "type": "LineString", "coordinates": [ [ -86.741558604, 33.559774794 ], [ -86.741941504, 33.559636995 ], [ -86.748864502, 33.5595387 ], [ -86.749986105, 33.559354298 ], [ -86.760035604, 33.5594083 ], [ -86.760528304, 33.559317097 ], [ -86.763075002, 33.557807393 ], [ -86.764444403, 33.556800596 ], [ -86.765019901, 33.556228399 ], [ -86.769210503, 33.552910097 ], [ -86.769813105, 33.552292094 ], [ -86.770032503, 33.551925696 ] ] } },
{ "type": "Feature", "properties": { "site_no": "02458148", "nhdplus_comid": "18566197", "navigation_mode": "DM", "requested_distance_km": 12.0, "start_source": "nwissite", "start_id": "USGS-02458148", "geometry_length_km": 10.718289123322156 }, "geometry": { "type": "LineString", "coordinates": [ [ -86.770032503, 33.551925696 ], [ -86.773534805, 33.5519059 ], [ -86.774465404, 33.551723294 ], [ -86.778654307, 33.5492296 ], [ -86.781008601, 33.548085794 ], [ -86.785908401, 33.545912996 ], [ -86.788864501, 33.544723794 ], [ -86.790835403, 33.5434651 ], [ -86.791820705, 33.5432138 ], [ -86.792450003, 33.543191299 ], [ -86.793297902, 33.543421 ], [ -86.797181405, 33.545095995 ], [ -86.798166402, 33.545096599 ], [ -86.801066905, 33.544433996 ], [ -86.802982405, 33.544183195 ], [ -86.8048703, 33.544069596 ], [ -86.805663601, 33.544161797 ], [ -86.8092198, 33.545011498 ], [ -86.810204707, 33.545034893 ], [ -86.812968306, 33.544578098 ], [ -86.815075502, 33.543731399 ], [ -86.816553406, 33.542930394 ], [ -86.820057005, 33.540366098 ], [ -86.820495106, 33.539885193 ], [ -86.821836703, 33.537984297 ], [ -86.8225483, 33.537388898 ], [ -86.824518703, 33.536244199 ], [ -86.825613402, 33.535488695 ], [ -86.831660703, 33.532512695 ], [ -86.833521105, 33.532100894 ], [ -86.834670201, 33.531734698 ], [ -86.835655205, 33.5312768 ], [ -86.836394101, 33.530795999 ], [ -86.836968705, 33.530131795 ], [ -86.8375163, 33.529078096 ], [ -86.837926701, 33.528734595 ], [ -86.844465405, 33.525987193 ], [ -86.845176704, 33.525758296 ], [ -86.846188806, 33.525598094 ], [ -86.847337604, 33.525850393 ], [ -86.849580407, 33.526744395 ], [ -86.850783803, 33.526950896 ], [ -86.851741403, 33.526607394 ], [ -86.853109203, 33.525759995 ], [ -86.856118403, 33.524454594 ], [ -86.857158005, 33.5238363 ], [ -86.860249206, 33.521453999 ], [ -86.861151807, 33.521018796 ], [ -86.863011904, 33.520331696 ], [ -86.865419, 33.519392595 ], [ -86.866294205, 33.519278198 ], [ -86.870615803, 33.520813398 ], [ -86.870697804, 33.5209051 ] ] } }
]
}
