{
"type": "FeatureCollection",
"name": "USGS_02376500_UM_12km",
"crs": { "type": "name", "properties": { "name": "urn:ogc:def:crs:OGC:1.3:CRS84" } },
"features": [
{ "type": "Feature", "properties": { "site_no": "02376500", "nhdplus_comid": "2172289", "navigation_mode": "UM", "requested_distance_km": 12.0, "start_source": "nwissite", "start_id": "USGS-02376500", "geometry_length_km": 0.25905208031110905 }, "geometry": { "type": "LineString", "coordinates": [ [ -87.441547804, 30.692208096 ], [ -87.440273605, 30.690810695 ], [ -87.439796105, 30.690513 ], [ -87.439743253, 30.690497804 ] ] } },
{ "type": "Feature", "properties": { "site_no": "02376500", "nhdplus_comid": "2171327", "navigation_mode": "UM", "requested_distance_km": 12.0, "start_source": "nwissite", "start_id": "USGS-02376500", "geometry_length_km": 0.82945824571580684 }, "geometry": { "type": "LineString", "coordinates": [ [ -87.447969407, 30.6966509 ], [ -87.447146803, 30.696147196 ], [ -87.446059205, 30.695895694 ], [ -87.445767, 30.695529096 ], [ -87.444520406, 30.695323594 ], [ -87.443591602, 30.694613494 ], [ -87.4428747, 30.693467997 ], [ -87.442264207, 30.692688994 ], [ -87.441547804, 30.692208096 ] ] } },
{ "type": "Feature", "properties": { "site_no": "02376500", "nhdplus_comid": "2171315", "navigation_mode": "UM", "requested_distance_km": 12.0, "start_source": "nwissite", "start_id": "USGS-02376500", "geometry_length_km": 1.5721356520395104 }, "geometry": { "type": "LineString", "coordinates": [ [ -87.459003806, 30.697675399 ], [ -87.458419606, 30.696965396 ], [ -87.458074704, 30.696782194 ], [ -87.457650103, 30.6967595 ], [ -87.456934802, 30.6975623 ], [ -87.456404604, 30.697837599 ], [ -87.455741607, 30.698021397 ], [ -87.454654604, 30.698503397 ], [ -87.4539655, 30.699030995 ], [ -87.4535942, 30.6990541 ], [ -87.452612206, 30.698229596 ], [ -87.452320501, 30.698229797 ], [ -87.451949306, 30.698413394 ], [ -87.451763801, 30.698665597 ], [ -87.4517911, 30.699651197 ], [ -87.451419905, 30.699811794 ], [ -87.451021805, 30.699468195 ], [ -87.450888902, 30.699216194 ], [ -87.4498014, 30.699102297 ], [ -87.449350305, 30.698919199 ], [ -87.449111506, 30.698667198 ], [ -87.448925406, 30.698277697 ], [ -87.448818706, 30.697406799 ], [ -87.448712505, 30.697246395 ], [ -87.447969407, 30.6966509 ] ] } },
{ "type": "Feature", "properties": { "site_no": "02376500", "nhdplus_comid": "2171309", "navigation_mode": "UM", "requested_distance_km": 12.0, "start_source": "nwissite", "start_id": "USGS-02376500", "geometry_length_km": 1.414582438723557 }, "geometry": { "type": "LineString", "coordinates": [ [ -87.469406202, 30.703214698 ], [ -87.468052506, 30.702230096 ], [ -87.467707105, 30.701726198 ], [ -87.467759803, 30.701336496 ], [ -87.468130507, 30.7007633 ], [ -87.468183301, 30.700465195 ], [ -87.468050607, 30.700373694 ], [ -87.467546605, 30.700305298 ], [ -87.466857404, 30.700718299 ], [ -87.466380104, 30.700833298 ], [ -87.465212807, 30.700536199 ], [ -87.463621601, 30.700720593 ], [ -87.4620561, 30.700171597 ], [ -87.461366102, 30.699759498 ], [ -87.460569806, 30.699072495 ], [ -87.459773704, 30.698568799 ], [ -87.459003806, 30.697675399 ] ] } },
{ "type": "Feature", "properties": { "site_no": "02376500", "nhdplus_comid": "2171299", "navigation_mode": "UM", "requested_distance_km": 12.0, "start_source": "nwissite", "start_id": "USGS-02376500", "geometry_length_km": 5.3594180525849113 }, "geometry": { "type": "LineString", "coordinates": [ [ -87.498102106, 30.7208841 ], [ -87.497809507, 30.720311396 ], [ -87.497517504, 30.720128395 ], [ -87.496774904, 30.720358193 ], [ -87.494943902, 30.719970398 ], [ -87.494519502, 30.719970696 ], [ -87.494307406, 30.720131397 ], [ -87.493909501, 30.720200494 ], [ -87.493458204, 30.719857194 ], [ -87.493113101, 30.719765797 ], [ -87.492795005, 30.7198807 ], [ -87.492583103, 30.720201798 ], [ -87.492264904, 30.720316693 ], [ -87.491999403, 30.720133498 ], [ -87.491600305, 30.719148397 ], [ -87.491228707, 30.718988299 ], [ -87.490300104, 30.718966193 ], [ -87.489583507, 30.718691893 ], [ -87.489237905, 30.718119197 ], [ -87.488892704, 30.717798494 ], [ -87.488388605, 30.717753097 ], [ -87.488070503, 30.717982695 ], [ -87.487699807, 30.7184643 ], [ -87.487063102, 30.718487799 ], [ -87.486611903, 30.718327694 ], [ -87.485682607, 30.717618093 ], [ -87.484727204, 30.717297994 ], [ -87.484594405, 30.717183493 ], [ -87.484434702, 30.716748096 ], [ -87.484513402, 30.715945899 ], [ -87.484088607, 30.7156941 ], [ -87.483664103, 30.7156028 ], [ -87.483345903, 30.715763494 ], [ -87.483028002, 30.716107599 ], [ -87.482684202, 30.717024699 ], [ -87.482260205, 30.717460595 ], [ -87.481676802, 30.717598595 ], [ -87.4813582, 30.717392594 ], [ -87.481224701, 30.716544695 ], [ -87.481038503, 30.716086298 ], [ -87.479816802, 30.714941397 ], [ -87.478648804, 30.714208893 ], [ -87.478091307, 30.713750899 ], [ -87.477931805, 30.713521898 ], [ -87.478010707, 30.712902993 ], [ -87.478381902, 30.7126965 ], [ -87.479602307, 30.712855898 ], [ -87.479973406, 30.712626293 ], [ -87.480185106, 30.712236598 ], [ -87.480024807, 30.711159497 ], [ -87.479413405, 30.710013993 ], [ -87.479121305, 30.709739193 ], [ -87.478776306, 30.7095562 ], [ -87.478086606, 30.709556796 ], [ -87.477423802, 30.709900998 ], [ -87.476681203, 30.710039198 ], [ -87.476230204, 30.709901996 ], [ -87.475460507, 30.709512994 ], [ -87.475141801, 30.709169395 ], [ -87.475141302, 30.708688095 ], [ -87.475512303, 30.708321095 ], [ -87.475538403, 30.707954399 ], [ -87.475299306, 30.7076566 ], [ -87.474795006, 30.707290299 ], [ -87.474529505, 30.706992596 ], [ -87.474449404, 30.706625894 ], [ -87.4747409, 30.706258893 ], [ -87.475695305, 30.705868594 ], [ -87.475695007, 30.705547698 ], [ -87.475323401, 30.705295898 ], [ -87.474156104, 30.705182195 ], [ -87.473492704, 30.704884797 ], [ -87.472961701, 30.704426698 ], [ -87.472537301, 30.704381295 ], [ -87.4724048, 30.704495996 ], [ -87.472325504, 30.704771094 ], [ -87.472617701, 30.705206297 ], [ -87.472698003, 30.705779195 ], [ -87.472194105, 30.705939993 ], [ -87.471424401, 30.705482297 ], [ -87.470389701, 30.705276795 ], [ -87.469938502, 30.704910398 ], [ -87.469406202, 30.703214698 ] ] } },
{ "type": "Feature", "properties": { "site_no": "02376500", "nhdplus_comid": "2172063", "navigation_mode": "UM", "requested_distance_km": 12.0, "start_source": "nwissite", "start_id": "USGS-02376500", "geometry_length_km": 0.19838736232531701 }, "geometry": { "type": "LineString", "coordinates": [ [ -87.500172101, 30.720863096 ], [ -87.499985605, 30.7209052 ], [ -87.498102106, 30.7208841 ] ] } },
{ "type": "Feature", "properties": { "site_no": "02376500", "nhdplus_comid": "2172065", "navigation_mode": "UM", "requested_distance_km": 12.0, "start_source": "nwissite", "start_id": "USGS-02376500", "geometry_length_km": 2.3680849049251647 }, "geometry": { "type": "LineString", "coordinates": [ [ -87.514457606, 30.733320899 ], [ -87.5128657, 30.733227894 ], [ -87.5123614, 30.733341999 ], [ -87.511963204, 30.733593799 ], [ -87.511830501, 30.733593695 ], [ -87.511671305, 30.733570695 ], [ -87.510902606, 30.732997 ], [ -87.510584705, 30.732607096 ], [ -87.510506004, 30.7317819 ], [ -87.510214403, 30.731506594 ], [ -87.509790204, 30.731322899 ], [ -87.509366103, 30.730932899 ], [ -87.509339705, 30.730772398 ], [ -87.509207301, 30.730634794 ], [ -87.508863501, 30.729626 ], [ -87.5088384, 30.728365496 ], [ -87.508467503, 30.727883793 ], [ -87.507380106, 30.727584995 ], [ -87.506956205, 30.727103196 ], [ -87.506240301, 30.726713099 ], [ -87.505126506, 30.726322494 ], [ -87.504941106, 30.726001397 ], [ -87.505153701, 30.7257265 ], [ -87.506003104, 30.725383498 ], [ -87.5059238, 30.7251084 ], [ -87.505552806, 30.724787198 ], [ -87.503723204, 30.724006295 ], [ -87.503299102, 30.723639198 ], [ -87.503060907, 30.723226398 ], [ -87.502902701, 30.722378299 ], [ -87.5022934, 30.721621394 ], [ -87.501471505, 30.721185096 ], [ -87.500172101, 30.720863096 ] ] } }
]
}
