{
"type": "FeatureCollection",
"name": "USGS_02376500_DM_12km",
"crs": { "type": "name", "properties": { "name": "urn:ogc:def:crs:OGC:1.3:CRS84" } },
"features": [
{ "type": "Feature", "properties": { "site_no": "02376500", "nhdplus_comid": "2172289", "navigation_mode": "DM", "requested_distance_km": 12.0, "start_source": "nwissite", "start_id": "USGS-02376500", "geometry_length_km": 0.32144145702348975 }, "geometry": { "type": "LineString", "coordinates": [ [ -87.439743253, 30.690497804 ], [ -87.437806703, 30.689940996 ], [ -87.436957501, 30.689070493 ] ] } },
{ "type": "Feature", "properties": { "site_no": "02376500", "nhdplus_comid": "2171349", "navigation_mode": "DM", "requested_distance_km": 12.0, "start_source": "nwissite", "start_id": "USGS-02376500", "geometry_length_km": 1.8690412239165684 }, "geometry": { "type": "LineString", "coordinates": [ [ -87.436957501, 30.689070493 ], [ -87.436055407, 30.688681297 ], [ -87.434411205, 30.688659199 ], [ -87.433270901, 30.688797198 ], [ -87.432395406, 30.688224494 ], [ -87.431864902, 30.688087299 ], [ -87.431414105, 30.688156299 ], [ -87.430883907, 30.688546099 ], [ -87.4304066, 30.688637994 ], [ -87.430088207, 30.688363098 ], [ -87.429928206, 30.687079698 ], [ -87.429503702, 30.686759099 ], [ -87.428336702, 30.686484396 ], [ -87.428097904, 30.686301194 ], [ -87.427885607, 30.685934596 ], [ -87.427725703, 30.684742793 ], [ -87.427062504, 30.684193 ], [ -87.426744007, 30.683574297 ], [ -87.426478602, 30.683322296 ], [ -87.425789103, 30.683185093 ], [ -87.424913906, 30.683368795 ], [ -87.423428603, 30.682910897 ], [ -87.4226062, 30.682108998 ] ] } },
{ "type": "Feature", "properties": { "site_no": "02376500", "nhdplus_comid": "2171357", "navigation_mode": "DM", "requested_distance_km": 12.0, "start_source": "nwissite", "start_id": "USGS-02376500", "geometry_length_km": 1.4154056525968965 }, "geometry": { "type": "LineString", "coordinates": [ [ -87.4226062, 30.682108998 ], [ -87.422393806, 30.681581996 ], [ -87.422102004, 30.681352898 ], [ -87.421624504, 30.681169696 ], [ -87.4206964, 30.681078397 ], [ -87.420378007, 30.680895194 ], [ -87.419502504, 30.680024497 ], [ -87.419157207, 30.679107897 ], [ -87.418918505, 30.678741194 ], [ -87.418388002, 30.678580895 ], [ -87.418069802, 30.678626895 ], [ -87.417725205, 30.678925 ], [ -87.417460203, 30.679406397 ], [ -87.416930005, 30.679544099 ], [ -87.415816106, 30.678994298 ], [ -87.4143572, 30.6784219 ], [ -87.4127395, 30.678078599 ], [ -87.4110687, 30.677345693 ] ] } },
{ "type": "Feature", "properties": { "site_no": "02376500", "nhdplus_comid": "2171365", "navigation_mode": "DM", "requested_distance_km": 12.0, "start_source": "nwissite", "start_id": "USGS-02376500", "geometry_length_km": 1.1362727644578743 }, "geometry": { "type": "LineString", "coordinates": [ [ -87.4110687, 30.677345693 ], [ -87.410511702, 30.677116595 ], [ -87.408761002, 30.675856493 ], [ -87.408230603, 30.6756045 ], [ -87.406931102, 30.675169393 ], [ -87.406665802, 30.674802795 ], [ -87.406533003, 30.674023494 ], [ -87.407221906, 30.672625199 ], [ -87.407354303, 30.672075197 ], [ -87.407142103, 30.671800196 ], [ -87.406213805, 30.671250299 ], [ -87.406081207, 30.670906499 ], [ -87.4062929, 30.669874996 ] ] } },
{ "type": "Feature", "properties": { "site_no": "02376500", "nhdplus_comid": "2171393", "navigation_mode": "DM", "requested_distance_km": 12.0, "start_source": "nwissite", "start_id": "USGS-02376500", "geometry_length_km": 2.8138611617430582 }, "geometry": { "type": "LineString", "coordinates": [ [ -87.4062929, 30.669874996 ], [ -87.406266205, 30.6692103 ], [ -87.405708902, 30.668179095 ], [ -87.4056556, 30.667445697 ], [ -87.405841, 30.666643493 ], [ -87.4056288, 30.666460097 ], [ -87.404037707, 30.665841699 ], [ -87.403719507, 30.665474996 ], [ -87.403401107, 30.664879195 ], [ -87.403268203, 30.663801998 ], [ -87.403533101, 30.662976794 ], [ -87.403426901, 30.662380897 ], [ -87.402843401, 30.661762297 ], [ -87.402631007, 30.660868399 ], [ -87.403399304, 30.659240797 ], [ -87.403425403, 30.657980196 ], [ -87.403292701, 30.657728195 ], [ -87.402682804, 30.6570637 ], [ -87.401198007, 30.656605497 ], [ -87.400906406, 30.6566514 ], [ -87.4006944, 30.6571557 ], [ -87.4002968, 30.657270394 ], [ -87.400164306, 30.6572247 ], [ -87.399899006, 30.656834997 ], [ -87.399845906, 30.656468295 ], [ -87.3996602, 30.6562621 ], [ -87.398573205, 30.655895598 ], [ -87.397963203, 30.655368596 ], [ -87.3972736, 30.654337294 ], [ -87.397008404, 30.6536268 ], [ -87.3967693, 30.6518391 ], [ -87.396345004, 30.651082799 ], [ -87.396159306, 30.650441095 ] ] } },
{ "type": "Feature", "properties": { "site_no": "02376500", "nhdplus_comid": "2172123", "navigation_mode": "DM", "requested_distance_km": 12.0, "start_source": "nwissite", "start_id": "USGS-02376500", "geometry_length_km": 2.6564053190953993 }, "geometry": { "type": "LineString", "coordinates": [ [ -87.396159306, 30.650441095 ], [ -87.396450706, 30.649661794 ], [ -87.397113204, 30.648721896 ], [ -87.397192605, 30.648102999 ], [ -87.395681202, 30.646338396 ], [ -87.394806102, 30.645696893 ], [ -87.3947796, 30.645536393 ], [ -87.394912101, 30.645284295 ], [ -87.395654403, 30.644848697 ], [ -87.395866305, 30.644619398 ], [ -87.395919204, 30.643954694 ], [ -87.395362206, 30.642969199 ], [ -87.394248605, 30.641708896 ], [ -87.394221902, 30.640654497 ], [ -87.394539803, 30.639989793 ], [ -87.3946722, 30.6392335 ], [ -87.394566007, 30.638293594 ], [ -87.394671805, 30.637606099 ], [ -87.395307705, 30.636047393 ], [ -87.3952014, 30.6352911 ], [ -87.394406006, 30.634099297 ], [ -87.394459002, 30.633778393 ], [ -87.394644402, 30.633480497 ], [ -87.395678006, 30.633090697 ], [ -87.395678006, 30.632678099 ], [ -87.395041704, 30.632128097 ], [ -87.394405507, 30.631853096 ], [ -87.393901907, 30.631738596 ], [ -87.393663205, 30.631578296 ], [ -87.393610105, 30.630890697 ], [ -87.393716, 30.630363494 ] ] } },
{ "type": "Feature", "properties": { "site_no": "02376500", "nhdplus_comid": "2171433", "navigation_mode": "DM", "requested_distance_km": 12.0, "start_source": "nwissite", "start_id": "USGS-02376500", "geometry_length_km": 0.3161299532324931 }, "geometry": { "type": "LineString", "coordinates": [ [ -87.393716, 30.630363494 ], [ -87.393848501, 30.629882194 ], [ -87.393874705, 30.628919497 ], [ -87.393662505, 30.627544299 ] ] } },
{ "type": "Feature", "properties": { "site_no": "02376500", "nhdplus_comid": "2172145", "navigation_mode": "DM", "requested_distance_km": 12.0, "start_source": "nwissite", "start_id": "USGS-02376500", "geometry_length_km": 2.7511718539111363 }, "geometry": { "type": "LineString", "coordinates": [ [ -87.393662505, 30.627544299 ], [ -87.393741801, 30.627017096 ], [ -87.394483507, 30.625183299 ], [ -87.394721903, 30.624679096 ], [ -87.395013407, 30.624426894 ], [ -87.395861402, 30.6244497 ], [ -87.396073505, 30.624266297 ], [ -87.396073304, 30.623830795 ], [ -87.395649202, 30.623395398 ], [ -87.395437106, 30.622914195 ], [ -87.395410307, 30.621493094 ], [ -87.395701602, 30.620530397 ], [ -87.396099001, 30.620094895 ], [ -87.396125406, 30.619636498 ], [ -87.396045901, 30.619521894 ], [ -87.396072201, 30.618627898 ], [ -87.3964165, 30.617756896 ], [ -87.396416306, 30.616931796 ], [ -87.395859703, 30.616404697 ], [ -87.395038001, 30.615900598 ], [ -87.395011403, 30.615281694 ], [ -87.395143807, 30.614823394 ], [ -87.395567507, 30.613585599 ], [ -87.396521106, 30.611981094 ], [ -87.396918304, 30.610651597 ], [ -87.396997504, 30.609643094 ], [ -87.397288807, 30.608726099 ], [ -87.398480803, 30.607052699 ], [ -87.398904502, 30.605952494 ], [ -87.399248905, 30.605608694 ] ] } }
]
}
