{
"type": "FeatureCollection",
"name": "USGS_02409400_UM_12km",
"crs": { "type": "name", "properties": { "name": "urn:ogc:def:crs:OGC:1.3:CRS84" } },
"features": [
{ "type": "Feature", "properties": { "site_no": "02409400", "nhdplus_comid": "22276502", "navigation_mode": "UM", "requested_distance_km": 12.0, "start_source": "nwissite", "start_id": "USGS-02409400", "geometry_length_km": 2.1866289027676356 }, "geometry": { "type": "LineString", "coordinates": [ [ -86.455772705, 32.813289799 ], [ -86.454905003, 32.812964596 ], [ -86.449682906, 32.812399194 ], [ -86.448410302, 32.812922694 ], [ -86.4470485, 32.812934294 ], [ -86.446569405, 32.813146196 ], [ -86.445821404, 32.813083194 ], [ -86.445192501, 32.813282497 ], [ -86.443097606, 32.813106194 ], [ -86.441752307, 32.811731696 ], [ -86.4419486, 32.810108699 ], [ -86.444943801, 32.8078385 ], [ -86.445155203, 32.806090593 ], [ -86.445037934, 32.805970789 ] ] } },
{ "type": "Feature", "properties": { "site_no": "02409400", "nhdplus_comid": "22276496", "navigation_mode": "UM", "requested_distance_km": 12.0, "start_source": "nwissite", "start_id": "USGS-02409400", "geometry_length_km": 1.9719639382734453 }, "geometry": { "type": "LineString", "coordinates": [ [ -86.461026303, 32.829874098 ], [ -86.460488006, 32.829324394 ], [ -86.460533105, 32.828949794 ], [ -86.459726602, 32.826864295 ], [ -86.459727705, 32.825603195 ], [ -86.459087104, 32.8221443 ], [ -86.459283106, 32.820521198 ], [ -86.458627507, 32.817187093 ], [ -86.457791105, 32.815351196 ], [ -86.455772705, 32.813289799 ] ] } },
{ "type": "Feature", "properties": { "site_no": "02409400", "nhdplus_comid": "22276480", "navigation_mode": "UM", "requested_distance_km": 12.0, "start_source": "nwissite", "start_id": "USGS-02409400", "geometry_length_km": 2.2578868376687202 }, "geometry": { "type": "LineString", "coordinates": [ [ -86.453472801, 32.847966999 ], [ -86.455712505, 32.846326597 ], [ -86.456672207, 32.844641693 ], [ -86.457168803, 32.841782898 ], [ -86.459056705, 32.839923695 ], [ -86.460826002, 32.836541198 ], [ -86.461623907, 32.831185393 ], [ -86.461085506, 32.830635697 ], [ -86.461026303, 32.829874098 ] ] } },
{ "type": "Feature", "properties": { "site_no": "02409400", "nhdplus_comid": "22276472", "navigation_mode": "UM", "requested_distance_km": 12.0, "start_source": "nwissite", "start_id": "USGS-02409400", "geometry_length_km": 0.66747213679308137 }, "geometry": { "type": "LineString", "coordinates": [ [ -86.447309203, 32.850790694 ], [ -86.450260505, 32.848894998 ], [ -86.452581607, 32.848459594 ], [ -86.453472801, 32.847966999 ] ] } },
{ "type": "Feature", "properties": { "site_no": "02409400", "nhdplus_comid": "22276470", "navigation_mode": "UM", "requested_distance_km": 12.0, "start_source": "nwissite", "start_id": "USGS-02409400", "geometry_length_km": 2.9764803637007962 }, "geometry": { "type": "LineString", "coordinates": [ [ -86.464916602, 32.869042397 ], [ -86.464437202, 32.869254395 ], [ -86.460843407, 32.868952699 ], [ -86.457520001, 32.867664695 ], [ -86.456023701, 32.866278 ], [ -86.453284405, 32.8651651 ], [ -86.450187802, 32.862004295 ], [ -86.448125601, 32.857795395 ], [ -86.447453804, 32.855847299 ], [ -86.447455101, 32.854586296 ], [ -86.447126701, 32.853549793 ], [ -86.447309203, 32.850790694 ] ] } },
{ "type": "Feature", "properties": { "site_no": "02409400", "nhdplus_comid": "22276446", "navigation_mode": "UM", "requested_distance_km": 12.0, "start_source": "nwissite", "start_id": "USGS-02409400", "geometry_length_km": 1.6050697495096709 }, "geometry": { "type": "LineString", "coordinates": [ [ -86.480173402, 32.8742311 ], [ -86.477868401, 32.872020297 ], [ -86.475323506, 32.870545894 ], [ -86.471954606, 32.8696329 ], [ -86.465350807, 32.869204998 ], [ -86.464916602, 32.869042397 ] ] } },
{ "type": "Feature", "properties": { "site_no": "02409400", "nhdplus_comid": "22276410", "navigation_mode": "UM", "requested_distance_km": 12.0, "start_source": "nwissite", "start_id": "USGS-02409400", "geometry_length_km": 2.1109364929272125 }, "geometry": { "type": "LineString", "coordinates": [ [ -86.486798607, 32.892061599 ], [ -86.486409403, 32.891524598 ], [ -86.485661805, 32.888940096 ], [ -86.484719306, 32.886717498 ], [ -86.483447306, 32.884719498 ], [ -86.4821309, 32.881834999 ], [ -86.482071407, 32.881073393 ], [ -86.481368504, 32.879375197 ], [ -86.481489606, 32.8771156 ], [ -86.481175803, 32.875954397 ], [ -86.480173402, 32.8742311 ] ] } }
]
}
