{
"type": "FeatureCollection",
"name": "USGS_02462800_DM_12km",
"crs": { "type": "name", "properties": { "name": "urn:ogc:def:crs:OGC:1.3:CRS84" } },
"features": [
{ "type": "Feature", "properties": { "site_no": "02462800", "nhdplus_comid": "18229183", "navigation_mode": "DM", "requested_distance_km": 12.0, "start_source": "nwissite", "start_id": "USGS-02462800", "geometry_length_km": 6.0881027501672715 }, "geometry": { "type": "LineString", "coordinates": [ [ -87.217841849, 33.309049918 ], [ -87.217930704, 33.309090599 ], [ -87.218149506, 33.309525698 ], [ -87.218177304, 33.310006797 ], [ -87.218205206, 33.310625397 ], [ -87.217878103, 33.310900599 ], [ -87.217087001, 33.311061494 ], [ -87.216841601, 33.311290897 ], [ -87.216842003, 33.311680399 ], [ -87.217169605, 33.311817497 ], [ -87.218425006, 33.312045693 ], [ -87.219161801, 33.312045097 ], [ -87.219707206, 33.311838597 ], [ -87.220388904, 33.3114485 ], [ -87.221070506, 33.310921095 ], [ -87.221316107, 33.3108292 ], [ -87.221889302, 33.310989194 ], [ -87.222080402, 33.311172299 ], [ -87.222081006, 33.311630495 ], [ -87.221917607, 33.311928496 ], [ -87.221590504, 33.3122494 ], [ -87.220881402, 33.312616594 ], [ -87.219162807, 33.313007295 ], [ -87.218781002, 33.3132139 ], [ -87.218672, 33.313420199 ], [ -87.218645103, 33.313695095 ], [ -87.218809202, 33.3140845 ], [ -87.219328105, 33.314473495 ], [ -87.220146805, 33.314564496 ], [ -87.220556401, 33.314747497 ], [ -87.223778807, 33.317036197 ], [ -87.2238883, 33.317402594 ], [ -87.223752104, 33.317563094 ], [ -87.2234248, 33.317654997 ], [ -87.220668405, 33.317382097 ], [ -87.220341101, 33.317542799 ], [ -87.2202323, 33.317840695 ], [ -87.2202067, 33.319467396 ], [ -87.220452502, 33.319673494 ], [ -87.221244104, 33.319833294 ], [ -87.222964101, 33.320587896 ], [ -87.223619007, 33.320472799 ], [ -87.224273302, 33.319876596 ], [ -87.224546, 33.319784798 ], [ -87.224928103, 33.3197845 ], [ -87.225201301, 33.320082098 ], [ -87.2252561, 33.320242397 ], [ -87.227169104, 33.322577797 ], [ -87.227770105, 33.323172897 ], [ -87.229517907, 33.324179597 ], [ -87.230528206, 33.324636996 ], [ -87.2309926, 33.325048894 ], [ -87.230993003, 33.3254155 ], [ -87.230665803, 33.325622 ], [ -87.229983807, 33.325759999 ], [ -87.228919402, 33.325737998 ], [ -87.227718405, 33.3255786 ], [ -87.226762705, 33.325166993 ], [ -87.225943305, 33.3245949 ], [ -87.225260705, 33.324297599 ], [ -87.224769503, 33.324343793 ], [ -87.224360704, 33.324756496 ], [ -87.224197306, 33.3250774 ], [ -87.224198103, 33.325856395 ], [ -87.223190106, 33.327277593 ], [ -87.222099505, 33.328355193 ], [ -87.222100005, 33.328744695 ], [ -87.222318605, 33.328927897 ], [ -87.222891703, 33.328927398 ], [ -87.223601103, 33.328766495 ], [ -87.224256106, 33.328765899 ], [ -87.225729607, 33.328558698 ], [ -87.226603106, 33.328695394 ], [ -87.226930901, 33.328993 ], [ -87.227150403, 33.330000795 ], [ -87.228653707, 33.3318782 ], [ -87.228763305, 33.332267597 ] ] } },
{ "type": "Feature", "properties": { "site_no": "02462800", "nhdplus_comid": "18228193", "navigation_mode": "DM", "requested_distance_km": 12.0, "start_source": "nwissite", "start_id": "USGS-02462800", "geometry_length_km": 2.9732694108037028 }, "geometry": { "type": "LineString", "coordinates": [ [ -87.228763305, 33.332267597 ], [ -87.228899904, 33.332336299 ], [ -87.229146101, 33.332817197 ], [ -87.2301846, 33.333938897 ], [ -87.231004603, 33.334877498 ], [ -87.231906101, 33.335495293 ], [ -87.2328889, 33.335769497 ], [ -87.233243704, 33.3357234 ], [ -87.233652204, 33.3350586 ], [ -87.233897105, 33.334416896 ], [ -87.234250903, 33.333637498 ], [ -87.235422507, 33.3320328 ], [ -87.2354495, 33.331757799 ], [ -87.235367402, 33.331574596 ], [ -87.235094205, 33.331391595 ], [ -87.232255504, 33.331141993 ], [ -87.2316548, 33.330890596 ], [ -87.230425306, 33.329837695 ], [ -87.230424702, 33.329310797 ], [ -87.230533704, 33.329150297 ], [ -87.232115805, 33.328507498 ], [ -87.233970106, 33.327245697 ], [ -87.234951504, 33.326465897 ], [ -87.235333003, 33.325961597 ], [ -87.2358227, 33.324769795 ], [ -87.2354661, 33.323372595 ], [ -87.235464804, 33.322318695 ], [ -87.235709704, 33.321676999 ], [ -87.236091204, 33.321332999 ], [ -87.236882202, 33.320988595 ], [ -87.2374826, 33.320942193 ] ] } },
{ "type": "Feature", "properties": { "site_no": "02462800", "nhdplus_comid": "18228195", "navigation_mode": "DM", "requested_distance_km": 12.0, "start_source": "nwissite", "start_id": "USGS-02462800", "geometry_length_km": 0.3719829427749145 }, "geometry": { "type": "LineString", "coordinates": [ [ -87.2374826, 33.320942193 ], [ -87.237810105, 33.321033597 ], [ -87.238056004, 33.321262494 ], [ -87.238192901, 33.321628898 ], [ -87.237841107, 33.323966093 ] ] } },
{ "type": "Feature", "properties": { "site_no": "02462800", "nhdplus_comid": "18229179", "navigation_mode": "DM", "requested_distance_km": 12.0, "start_source": "nwissite", "start_id": "USGS-02462800", "geometry_length_km": 4.1429044569881865 }, "geometry": { "type": "LineString", "coordinates": [ [ -87.237841107, 33.323966093 ], [ -87.237842001, 33.3245617 ], [ -87.238252506, 33.325477794 ], [ -87.240384303, 33.327858694 ], [ -87.242324203, 33.329460494 ], [ -87.242570303, 33.329849795 ], [ -87.242516004, 33.330033094 ], [ -87.242243506, 33.330331199 ], [ -87.2416979, 33.330560796 ], [ -87.241070405, 33.330652997 ], [ -87.238341004, 33.330518097 ], [ -87.237522304, 33.330587596 ], [ -87.237413205, 33.330702297 ], [ -87.237413704, 33.331137598 ], [ -87.239028007, 33.334160298 ], [ -87.239520006, 33.334663793 ], [ -87.239875004, 33.334869698 ], [ -87.242223002, 33.335394397 ], [ -87.245961607, 33.334886894 ], [ -87.247188807, 33.334198393 ], [ -87.2474612, 33.333762899 ], [ -87.247813001, 33.331631698 ], [ -87.248139307, 33.330829494 ], [ -87.2481663, 33.3305775 ], [ -87.248357005, 33.330371194 ], [ -87.248739004, 33.330324896 ], [ -87.249995105, 33.330781996 ], [ -87.250493005, 33.330921598 ], [ -87.251967005, 33.330739699 ], [ -87.252676606, 33.3307634 ], [ -87.253167704, 33.330924198 ], [ -87.253358506, 33.331107594 ], [ -87.253412604, 33.331451394 ], [ -87.253330104, 33.331909597 ], [ -87.253138505, 33.332298793 ], [ -87.252783306, 33.332619198 ], [ -87.251690701, 33.333190896 ], [ -87.251526602, 33.333488494 ], [ -87.251607604, 33.334153093 ], [ -87.251934707, 33.334428295 ], [ -87.252698407, 33.334749795 ], [ -87.253434606, 33.335300393 ] ] } }
]
}
