{
"type": "FeatureCollection",
"name": "USGS_0357568980_UM_12km",
"crs": { "type": "name", "properties": { "name": "urn:ogc:def:crs:OGC:1.3:CRS84" } },
"features": [
{ "type": "Feature", "properties": { "site_no": "0357568980", "nhdplus_comid": "19620330", "navigation_mode": "UM", "requested_distance_km": 12.0, "start_source": "nwissite", "start_id": "USGS-0357568980", "geometry_length_km": 0.55594178393560956 }, "geometry": { "type": "LineString", "coordinates": [ [ -86.5529394, 34.668746993 ], [ -86.5535779, 34.667670794 ], [ -86.554467, 34.665403694 ], [ -86.554578505, 34.664693698 ], [ -86.554579069, 34.664013148 ] ] } },
{ "type": "Feature", "properties": { "site_no": "0357568980", "nhdplus_comid": "19620258", "navigation_mode": "UM", "requested_distance_km": 12.0, "start_source": "nwissite", "start_id": "USGS-0357568980", "geometry_length_km": 0.88928308798893108 }, "geometry": { "type": "LineString", "coordinates": [ [ -86.548996001, 34.675707899 ], [ -86.549246505, 34.674677297 ], [ -86.549718603, 34.673830099 ], [ -86.550356701, 34.673349395 ], [ -86.550717503, 34.672960296 ], [ -86.550939701, 34.672548197 ], [ -86.551107503, 34.670967698 ], [ -86.551218703, 34.670578398 ], [ -86.552634105, 34.6688613 ], [ -86.5529394, 34.668746993 ] ] } },
{ "type": "Feature", "properties": { "site_no": "0357568980", "nhdplus_comid": "19620202", "navigation_mode": "UM", "requested_distance_km": 12.0, "start_source": "nwissite", "start_id": "USGS-0357568980", "geometry_length_km": 1.0083946432858537 }, "geometry": { "type": "LineString", "coordinates": [ [ -86.549154103, 34.684686996 ], [ -86.549128406, 34.682327695 ], [ -86.549296305, 34.680724397 ], [ -86.549079105, 34.675776593 ], [ -86.548996001, 34.675707899 ] ] } },
{ "type": "Feature", "properties": { "site_no": "0357568980", "nhdplus_comid": "19620150", "navigation_mode": "UM", "requested_distance_km": 12.0, "start_source": "nwissite", "start_id": "USGS-0357568980", "geometry_length_km": 0.76404505182482629 }, "geometry": { "type": "LineString", "coordinates": [ [ -86.549120501, 34.690986097 ], [ -86.549009904, 34.6905737 ], [ -86.5478466, 34.6891528 ], [ -86.547791407, 34.688763298 ], [ -86.548763305, 34.687366694 ], [ -86.548985906, 34.686610997 ], [ -86.549154103, 34.684686996 ] ] } },
{ "type": "Feature", "properties": { "site_no": "0357568980", "nhdplus_comid": "19620104", "navigation_mode": "UM", "requested_distance_km": 12.0, "start_source": "nwissite", "start_id": "USGS-0357568980", "geometry_length_km": 3.6912089919651496 }, "geometry": { "type": "LineString", "coordinates": [ [ -86.548598602, 34.715151094 ], [ -86.549820103, 34.714166999 ], [ -86.550125301, 34.714029796 ], [ -86.551318206, 34.713915899 ], [ -86.551928706, 34.713618398 ], [ -86.552983001, 34.713344298 ], [ -86.554480903, 34.713368095 ], [ -86.555785, 34.712842099 ], [ -86.557144403, 34.712659493 ], [ -86.557644002, 34.712201796 ], [ -86.557838507, 34.711904094 ], [ -86.557949804, 34.711423099 ], [ -86.558006205, 34.710323699 ], [ -86.558089502, 34.7101634 ], [ -86.558145605, 34.709499195 ], [ -86.557896607, 34.708674394 ], [ -86.557093002, 34.707666196 ], [ -86.556761004, 34.706818499 ], [ -86.556761704, 34.705902196 ], [ -86.556456901, 34.705649994 ], [ -86.553101003, 34.7054419 ], [ -86.552740805, 34.705052398 ], [ -86.552519806, 34.704090193 ], [ -86.552354105, 34.703059293 ], [ -86.551939406, 34.701707594 ], [ -86.551274605, 34.700699396 ], [ -86.5511088, 34.700057894 ], [ -86.551081806, 34.699301898 ], [ -86.550278701, 34.6980417 ], [ -86.550085202, 34.697331496 ], [ -86.550058506, 34.696323596 ], [ -86.549892902, 34.695407294 ], [ -86.549838603, 34.694055796 ], [ -86.549617901, 34.692864694 ], [ -86.549286701, 34.691238098 ], [ -86.549120501, 34.690986097 ] ] } }
]
}
