{
"type": "FeatureCollection",
"name": "USGS_02462800_UM_12km",
"crs": { "type": "name", "properties": { "name": "urn:ogc:def:crs:OGC:1.3:CRS84" } },
"features": [
{ "type": "Feature", "properties": { "site_no": "02462800", "nhdplus_comid": "18229183", "navigation_mode": "UM", "requested_distance_km": 12.0, "start_source": "nwissite", "start_id": "USGS-02462800", "geometry_length_km": 0.27046798758260931 }, "geometry": { "type": "LineString", "coordinates": [ [ -87.215282805, 33.307878293 ], [ -87.217841849, 33.309049918 ] ] } },
{ "type": "Feature", "properties": { "site_no": "02462800", "nhdplus_comid": "18228289", "navigation_mode": "UM", "requested_distance_km": 12.0, "start_source": "nwissite", "start_id": "USGS-02462800", "geometry_length_km": 0.83894554162796309 }, "geometry": { "type": "LineString", "coordinates": [ [ -87.213040903, 33.303435199 ], [ -87.213123001, 33.3036642 ], [ -87.2142426, 33.304648593 ], [ -87.214570403, 33.305037796 ], [ -87.214761905, 33.305518799 ], [ -87.2145712, 33.305816799 ], [ -87.214216702, 33.306023195 ], [ -87.213425703, 33.306252897 ], [ -87.212826006, 33.306917794 ], [ -87.212717302, 33.307215698 ], [ -87.2130448, 33.307398699 ], [ -87.213863306, 33.307214797 ], [ -87.214108802, 33.307237595 ], [ -87.214736603, 33.307489097 ], [ -87.215282805, 33.307878293 ] ] } },
{ "type": "Feature", "properties": { "site_no": "02462800", "nhdplus_comid": "18228307", "navigation_mode": "UM", "requested_distance_km": 12.0, "start_source": "nwissite", "start_id": "USGS-02462800", "geometry_length_km": 0.73704406941840783 }, "geometry": { "type": "LineString", "coordinates": [ [ -87.207500301, 33.301331297 ], [ -87.207691401, 33.301514395 ], [ -87.207964204, 33.301514193 ], [ -87.208618902, 33.301330499 ], [ -87.210173205, 33.300504595 ], [ -87.210664302, 33.3005272 ], [ -87.211019106, 33.300641499 ], [ -87.211292103, 33.300893396 ], [ -87.211647503, 33.301534593 ], [ -87.211647704, 33.301694997 ], [ -87.212057605, 33.302382 ], [ -87.212358102, 33.302794196 ], [ -87.213040903, 33.303435199 ] ] } },
{ "type": "Feature", "properties": { "site_no": "02462800", "nhdplus_comid": "18228397", "navigation_mode": "UM", "requested_distance_km": 12.0, "start_source": "nwissite", "start_id": "USGS-02462800", "geometry_length_km": 3.7288021010042613 }, "geometry": { "type": "LineString", "coordinates": [ [ -87.197776005, 33.287842698 ], [ -87.202932306, 33.288412496 ], [ -87.204132602, 33.288342997 ], [ -87.204323605, 33.288434498 ], [ -87.204323903, 33.288801096 ], [ -87.203642502, 33.2895118 ], [ -87.203533702, 33.289717995 ], [ -87.203452304, 33.290336594 ], [ -87.203534603, 33.290748999 ], [ -87.202854104, 33.292284496 ], [ -87.202063501, 33.2929952 ], [ -87.202091001, 33.293178394 ], [ -87.202854604, 33.293040499 ], [ -87.203209206, 33.292879894 ], [ -87.203782104, 33.292902395 ], [ -87.203945905, 33.292994 ], [ -87.2039188, 33.293223098 ], [ -87.203346305, 33.293681696 ], [ -87.203210205, 33.293933794 ], [ -87.203210607, 33.294391997 ], [ -87.203728907, 33.294391699 ], [ -87.2041924, 33.294116497 ], [ -87.204846501, 33.293382898 ], [ -87.205092102, 33.293474399 ], [ -87.205228902, 33.293909594 ], [ -87.205966502, 33.294985898 ], [ -87.206431203, 33.295993693 ], [ -87.206295207, 33.296406098 ], [ -87.2056951, 33.296498097 ], [ -87.203976303, 33.2965222 ], [ -87.203376405, 33.296774596 ], [ -87.202012405, 33.296912894 ], [ -87.201685205, 33.297119297 ], [ -87.2016038, 33.297600493 ], [ -87.201767907, 33.298173197 ], [ -87.202478103, 33.299043298 ], [ -87.202751406, 33.299684696 ], [ -87.203079104, 33.299959294 ], [ -87.203297406, 33.300005093 ], [ -87.203815706, 33.299935997 ], [ -87.204906203, 33.299018897 ], [ -87.207252502, 33.298971497 ], [ -87.207880005, 33.299085699 ], [ -87.207989305, 33.299177296 ], [ -87.207662404, 33.299658597 ], [ -87.207307905, 33.299887896 ], [ -87.207198903, 33.300071299 ], [ -87.2072815, 33.300895996 ], [ -87.207500301, 33.301331297 ] ] } },
{ "type": "Feature", "properties": { "site_no": "02462800", "nhdplus_comid": "18228425", "navigation_mode": "UM", "requested_distance_km": 12.0, "start_source": "nwissite", "start_id": "USGS-02462800", "geometry_length_km": 0.7149483193468209 }, "geometry": { "type": "LineString", "coordinates": [ [ -87.1992459, 33.284038797 ], [ -87.199218705, 33.284221999 ], [ -87.199055202, 33.284313694 ], [ -87.198618807, 33.284336999 ], [ -87.198482506, 33.284520298 ], [ -87.198564902, 33.285115898 ], [ -87.198155805, 33.285299398 ], [ -87.1978833, 33.285620295 ], [ -87.197010607, 33.285827093 ], [ -87.196465202, 33.286079399 ], [ -87.196165703, 33.286766894 ], [ -87.196166307, 33.2874313 ], [ -87.196330003, 33.287568696 ], [ -87.197366804, 33.287682697 ], [ -87.197776005, 33.287842698 ] ] } }
]
}
