{
"type": "FeatureCollection",
"name": "USGS_02414765_DM_12km",
"crs": { "type": "name", "properties": { "name": "urn:ogc:def:crs:OGC:1.3:CRS84" } },
"features": [
{ "type": "Feature", "properties": { "site_no": "02414765", "nhdplus_comid": "22034585", "navigation_mode": "DM", "requested_distance_km": 12.0, "start_source": "nwissite", "start_id": "USGS-02414765", "geometry_length_km": 1.0512538447532169 }, "geometry": { "type": "LineString", "coordinates": [ [ -85.847739177, 33.221409736 ], [ -85.847758703, 33.221002594 ], [ -85.847106606, 33.215962693 ], [ -85.846888803, 33.214977697 ], [ -85.846153304, 33.214038193 ], [ -85.845363304, 33.213465296 ], [ -85.844763905, 33.213258997 ], [ -85.844273202, 33.213212997 ] ] } },
{ "type": "Feature", "properties": { "site_no": "02414765", "nhdplus_comid": "22034629", "navigation_mode": "DM", "requested_distance_km": 12.0, "start_source": "nwissite", "start_id": "USGS-02414765", "geometry_length_km": 1.3343984310219403 }, "geometry": { "type": "LineString", "coordinates": [ [ -85.844273202, 33.213212997 ], [ -85.843701102, 33.212846294 ], [ -85.843646705, 33.212708794 ], [ -85.843265302, 33.212502494 ], [ -85.841903307, 33.210990198 ], [ -85.841140501, 33.210577697 ], [ -85.840759106, 33.210210994 ], [ -85.8407868, 33.209546596 ], [ -85.841113903, 33.209111497 ], [ -85.842204303, 33.208287194 ], [ -85.843648806, 33.207806498 ], [ -85.847218901, 33.2072578 ], [ -85.847627603, 33.207097597 ], [ -85.847764105, 33.206753999 ], [ -85.847682402, 33.206501998 ] ] } },
{ "type": "Feature", "properties": { "site_no": "02414765", "nhdplus_comid": "22034671", "navigation_mode": "DM", "requested_distance_km": 12.0, "start_source": "nwissite", "start_id": "USGS-02414765", "geometry_length_km": 1.6019408073700376 }, "geometry": { "type": "LineString", "coordinates": [ [ -85.847682402, 33.206501998 ], [ -85.846837707, 33.206158094 ], [ -85.845284604, 33.206043094 ], [ -85.844412707, 33.205630593 ], [ -85.843922406, 33.2053556 ], [ -85.843404904, 33.204805598 ], [ -85.8432687, 33.2045535 ], [ -85.842969, 33.204324298 ], [ -85.842179403, 33.202903897 ], [ -85.841117203, 33.201849796 ], [ -85.840844907, 33.201345697 ], [ -85.840845101, 33.200956196 ], [ -85.841063105, 33.200773098 ], [ -85.842753001, 33.1996511 ], [ -85.843080305, 33.199009798 ], [ -85.842917003, 33.198391199 ], [ -85.841855004, 33.196947694 ], [ -85.841501102, 33.196329094 ] ] } },
{ "type": "Feature", "properties": { "site_no": "02414765", "nhdplus_comid": "22034705", "navigation_mode": "DM", "requested_distance_km": 12.0, "start_source": "nwissite", "start_id": "USGS-02414765", "geometry_length_km": 1.4748758348455608 }, "geometry": { "type": "LineString", "coordinates": [ [ -85.841501102, 33.196329094 ], [ -85.841555901, 33.195664793 ], [ -85.841338202, 33.194954596 ], [ -85.840194501, 33.193602696 ], [ -85.8395411, 33.192479998 ], [ -85.839514002, 33.192296699 ], [ -85.839187205, 33.191975899 ], [ -85.839214705, 33.191334397 ], [ -85.83946, 33.191059694 ], [ -85.840004906, 33.191036999 ], [ -85.840604305, 33.191174597 ], [ -85.841312706, 33.191174798 ], [ -85.841530606, 33.191106096 ], [ -85.8416126, 33.190670997 ], [ -85.840115301, 33.188013196 ], [ -85.840170003, 33.187623695 ], [ -85.840279102, 33.187371798 ], [ -85.841423906, 33.186157994 ] ] } },
{ "type": "Feature", "properties": { "site_no": "02414765", "nhdplus_comid": "22034851", "navigation_mode": "DM", "requested_distance_km": 12.0, "start_source": "nwissite", "start_id": "USGS-02414765", "geometry_length_km": 5.5098405782496727 }, "geometry": { "type": "LineString", "coordinates": [ [ -85.841423906, 33.186157994 ], [ -85.841396704, 33.185608096 ], [ -85.840934105, 33.184645794 ], [ -85.839354903, 33.1826066 ], [ -85.839082904, 33.181713194 ], [ -85.839219302, 33.181369498 ], [ -85.8409907, 33.179651998 ], [ -85.842517003, 33.178071797 ], [ -85.843280204, 33.176972397 ], [ -85.843280405, 33.176583 ], [ -85.842980802, 33.176353797 ], [ -85.8426539, 33.176399596 ], [ -85.839956507, 33.177612796 ], [ -85.8393571, 33.177772999 ], [ -85.838458404, 33.177451998 ], [ -85.835980102, 33.176007994 ], [ -85.8322227, 33.172639199 ], [ -85.832005002, 33.172249697 ], [ -85.831624605, 33.170554399 ], [ -85.831516303, 33.169317193 ], [ -85.831816107, 33.169088297 ], [ -85.8329603, 33.168699197 ], [ -85.835112207, 33.168562494 ], [ -85.837073103, 33.168838196 ], [ -85.837372907, 33.168677896 ], [ -85.837836005, 33.168403193 ], [ -85.838572003, 33.167349599 ], [ -85.839879803, 33.166479595 ], [ -85.840315804, 33.166090295 ], [ -85.840697505, 33.165219896 ], [ -85.840833902, 33.164624296 ], [ -85.840126105, 33.163890995 ], [ -85.839581601, 33.163501494 ], [ -85.838274404, 33.162997097 ], [ -85.837430306, 33.1625157 ], [ -85.835796803, 33.161140695 ], [ -85.833646506, 33.158551298 ], [ -85.833238207, 33.157955498 ], [ -85.831904501, 33.156466 ], [ -85.831551403, 33.154816598 ] ] } }
]
}
