{
"type": "FeatureCollection",
"name": "USGS_02455900_DM_12km",
"crs": { "type": "name", "properties": { "name": "urn:ogc:def:crs:OGC:1.3:CRS84" } },
"features": [
{ "type": "Feature", "properties": { "site_no": "02455900", "nhdplus_comid": "18565417", "navigation_mode": "DM", "requested_distance_km": 12.0, "start_source": "nwissite", "start_id": "USGS-02455900", "geometry_length_km": 3.4536872671126337 }, "geometry": { "type": "LineString", "coordinates": [ [ -86.800589233, 33.808835598 ], [ -86.8010647, 33.808408797 ], [ -86.801312402, 33.807584196 ], [ -86.801313803, 33.805911899 ], [ -86.801013306, 33.8042164 ], [ -86.800931007, 33.804147497 ], [ -86.800657906, 33.8026812 ], [ -86.800466202, 33.8022229 ], [ -86.7988763, 33.8002517 ], [ -86.798712, 33.7997934 ], [ -86.7986577, 33.799197696 ], [ -86.799042605, 33.798373297 ], [ -86.799564406, 33.797846697 ], [ -86.8004978, 33.797228798 ], [ -86.803297803, 33.795878798 ], [ -86.8064816, 33.794758096 ], [ -86.807414904, 33.794208795 ], [ -86.808073901, 33.793567695 ], [ -86.810765803, 33.789743297 ], [ -86.8121932, 33.788575694 ], [ -86.814389206, 33.787225097 ], [ -86.816338107, 33.785805695 ], [ -86.816502906, 33.785576694 ] ] } },
{ "type": "Feature", "properties": { "site_no": "02455900", "nhdplus_comid": "18565493", "navigation_mode": "DM", "requested_distance_km": 12.0, "start_source": "nwissite", "start_id": "USGS-02455900", "geometry_length_km": 1.9270130049541399 }, "geometry": { "type": "LineString", "coordinates": [ [ -86.816502906, 33.785576694 ], [ -86.816832207, 33.785462297 ], [ -86.8173813, 33.785027295 ], [ -86.819412701, 33.7830351 ], [ -86.819879405, 33.782462694 ], [ -86.821115106, 33.780653395 ], [ -86.821582101, 33.779737197 ], [ -86.822955906, 33.776118197 ], [ -86.824165404, 33.771605499 ], [ -86.825098902, 33.770254299 ] ] } },
{ "type": "Feature", "properties": { "site_no": "02455900", "nhdplus_comid": "18565501", "navigation_mode": "DM", "requested_distance_km": 12.0, "start_source": "nwissite", "start_id": "USGS-02455900", "geometry_length_km": 0.67791121738925608 }, "geometry": { "type": "LineString", "coordinates": [ [ -86.825098902, 33.770254299 ], [ -86.826909602, 33.769819699 ], [ -86.827760004, 33.769728497 ], [ -86.828582905, 33.769751593 ], [ -86.829872005, 33.770049997 ], [ -86.830420606, 33.7702334 ], [ -86.831572205, 33.771127395 ], [ -86.831654407, 33.771356493 ] ] } },
{ "type": "Feature", "properties": { "site_no": "02455900", "nhdplus_comid": "18565485", "navigation_mode": "DM", "requested_distance_km": 12.0, "start_source": "nwissite", "start_id": "USGS-02455900", "geometry_length_km": 3.4405788524631307 }, "geometry": { "type": "LineString", "coordinates": [ [ -86.831654407, 33.771356493 ], [ -86.8319012, 33.771471098 ], [ -86.832257606, 33.771906495 ], [ -86.833381601, 33.7737168 ], [ -86.834423304, 33.7749542 ], [ -86.835246004, 33.775756299 ], [ -86.836507402, 33.776718996 ], [ -86.838345006, 33.777887896 ], [ -86.838975802, 33.778369196 ], [ -86.839195207, 33.778689995 ], [ -86.839222305, 33.779423095 ], [ -86.838947505, 33.780453898 ], [ -86.837766901, 33.782675795 ], [ -86.834747903, 33.785469696 ], [ -86.834226303, 33.786133893 ], [ -86.833649404, 33.787393793 ], [ -86.833594404, 33.7878519 ], [ -86.833704002, 33.788218498 ], [ -86.834252506, 33.788745597 ], [ -86.835267402, 33.789433293 ], [ -86.836529203, 33.790097997 ], [ -86.837516807, 33.790418997 ], [ -86.839519605, 33.790717497 ], [ -86.840809204, 33.790649094 ], [ -86.845034406, 33.791016795 ] ] } },
{ "type": "Feature", "properties": { "site_no": "02455900", "nhdplus_comid": "18565449", "navigation_mode": "DM", "requested_distance_km": 12.0, "start_source": "nwissite", "start_id": "USGS-02455900", "geometry_length_km": 1.9090883461904984 }, "geometry": { "type": "LineString", "coordinates": [ [ -86.845034406, 33.791016795 ], [ -86.847531207, 33.791154899 ], [ -86.847750902, 33.790902995 ], [ -86.848300003, 33.7896659 ], [ -86.848684601, 33.787924998 ], [ -86.848658204, 33.7843282 ], [ -86.848768905, 33.781075098 ], [ -86.849153504, 33.7789675 ], [ -86.849537902, 33.777799197 ], [ -86.849839702, 33.777318195 ], [ -86.850196704, 33.776470594 ] ] } }
]
}
