{
"type": "FeatureCollection",
"name": "USGS_02339495_DM_12km",
"crs": { "type": "name", "properties": { "name": "urn:ogc:def:crs:OGC:1.3:CRS84" } },
"features": [
{ "type": "Feature", "properties": { "site_no": "02339495", "nhdplus_comid": "3296804", "navigation_mode": "DM", "requested_distance_km": 12.0, "start_source": "nwissite", "start_id": "USGS-02339495", "geometry_length_km": 2.9456180711137083 }, "geometry": { "type": "LineString", "coordinates": [ [ -85.19700963, 32.901898249 ], [ -85.196616501, 32.901926495 ], [ -85.193928704, 32.9022028 ], [ -85.192408204, 32.902226396 ], [ -85.192218103, 32.902157798 ], [ -85.192245103, 32.901928797 ], [ -85.192570701, 32.901584998 ], [ -85.192543402, 32.901287295 ], [ -85.192298904, 32.901035398 ], [ -85.1915657, 32.900852598 ], [ -85.191375501, 32.9006695 ], [ -85.191429406, 32.900073893 ], [ -85.191266403, 32.899913698 ], [ -85.190587707, 32.899959698 ], [ -85.190424606, 32.8997996 ], [ -85.190261401, 32.899249896 ], [ -85.189989805, 32.899158396 ], [ -85.1897185, 32.899341695 ], [ -85.189311303, 32.899410695 ], [ -85.188958205, 32.8992505 ], [ -85.188740902, 32.899113193 ], [ -85.1887132, 32.898288697 ], [ -85.188577101, 32.897830598 ], [ -85.1887125, 32.897143498 ], [ -85.188630402, 32.896158598 ], [ -85.187978603, 32.895861097 ], [ -85.187951401, 32.895586297 ], [ -85.188195504, 32.895196795 ], [ -85.188765302, 32.894898795 ], [ -85.1887381, 32.894738495 ], [ -85.188195005, 32.894532599 ], [ -85.1879232, 32.894235 ], [ -85.187923104, 32.894051693 ], [ -85.188846305, 32.894005597 ], [ -85.1891177, 32.893890895 ], [ -85.1894162, 32.893615894 ], [ -85.189850301, 32.893340796 ], [ -85.189985901, 32.893134594 ], [ -85.190012902, 32.8927911 ], [ -85.189415306, 32.892470695 ], [ -85.189469405, 32.892172895 ], [ -85.189496502, 32.892012596 ], [ -85.1897135, 32.891966596 ], [ -85.190066606, 32.892126799 ], [ -85.190446801, 32.892195299 ], [ -85.190419607, 32.891989194 ], [ -85.189414605, 32.8914629 ], [ -85.188355803, 32.891302995 ], [ -85.1881385, 32.891142793 ], [ -85.188002504, 32.890753597 ], [ -85.186834507, 32.889700495 ], [ -85.186210006, 32.8895633 ], [ -85.185830101, 32.889677994 ], [ -85.184689902, 32.889747195 ], [ -85.184499905, 32.889655694 ] ] } },
{ "type": "Feature", "properties": { "site_no": "02339495", "nhdplus_comid": "3296816", "navigation_mode": "DM", "requested_distance_km": 12.0, "start_source": "nwissite", "start_id": "USGS-02339495", "geometry_length_km": 0.31485616537857586 }, "geometry": { "type": "LineString", "coordinates": [ [ -85.184499905, 32.889655694 ], [ -85.184363902, 32.8893122 ], [ -85.184417702, 32.888327196 ], [ -85.183956102, 32.888144195 ], [ -85.1835218, 32.888304695 ], [ -85.183331907, 32.888487995 ], [ -85.182843305, 32.888533995 ] ] } },
{ "type": "Feature", "properties": { "site_no": "02339495", "nhdplus_comid": "3298590", "navigation_mode": "DM", "requested_distance_km": 12.0, "start_source": "nwissite", "start_id": "USGS-02339495", "geometry_length_km": 0.04777539828093947 }, "geometry": { "type": "LineString", "coordinates": [ [ -85.182843305, 32.888533995 ], [ -85.182762407, 32.888493493 ], [ -85.1825772, 32.888411596 ], [ -85.182391904, 32.888329796 ] ] } },
{ "type": "Feature", "properties": { "site_no": "02339495", "nhdplus_comid": "3298592", "navigation_mode": "DM", "requested_distance_km": 12.0, "start_source": "nwissite", "start_id": "USGS-02339495", "geometry_length_km": 3.2218746665184033 }, "geometry": { "type": "LineString", "coordinates": [ [ -85.182391904, 32.888329796 ], [ -85.181718901, 32.887318499 ], [ -85.179590106, 32.885086 ], [ -85.178903602, 32.882990994 ], [ -85.179343402, 32.879785597 ], [ -85.179737106, 32.879281893 ], [ -85.180295706, 32.877576098 ], [ -85.181101501, 32.876435198 ], [ -85.181499906, 32.874714099 ], [ -85.182955705, 32.871199593 ], [ -85.183976501, 32.869673096 ], [ -85.184232906, 32.867803298 ], [ -85.183935404, 32.866421796 ], [ -85.184265003, 32.864017695 ], [ -85.183633506, 32.8615219 ], [ -85.183830306, 32.861269996 ] ] } },
{ "type": "Feature", "properties": { "site_no": "02339495", "nhdplus_comid": "3298598", "navigation_mode": "DM", "requested_distance_km": 12.0, "start_source": "nwissite", "start_id": "USGS-02339495", "geometry_length_km": 2.3065972209518186 }, "geometry": { "type": "LineString", "coordinates": [ [ -85.183830306, 32.861269996 ], [ -85.181207903, 32.857907899 ], [ -85.179221801, 32.855824195 ], [ -85.177729905, 32.854869999 ], [ -85.176183105, 32.854316495 ], [ -85.171574704, 32.853606194 ], [ -85.170989007, 32.8531444 ], [ -85.168888405, 32.8530792 ], [ -85.167817406, 32.853788897 ], [ -85.167510502, 32.854842097 ], [ -85.165189803, 32.856379598 ] ] } },
{ "type": "Feature", "properties": { "site_no": "02339495", "nhdplus_comid": "3298602", "navigation_mode": "DM", "requested_distance_km": 12.0, "start_source": "nwissite", "start_id": "USGS-02339495", "geometry_length_km": 1.3307362054344494 }, "geometry": { "type": "LineString", "coordinates": [ [ -85.165189803, 32.856379598 ], [ -85.164155304, 32.856822096 ], [ -85.162498504, 32.857069798 ], [ -85.161697604, 32.856993295 ], [ -85.160329401, 32.856321394 ], [ -85.158892803, 32.854966298 ], [ -85.157424606, 32.852660999 ], [ -85.155173905, 32.850145496 ] ] } },
{ "type": "Feature", "properties": { "site_no": "02339495", "nhdplus_comid": "3298608", "navigation_mode": "DM", "requested_distance_km": 12.0, "start_source": "nwissite", "start_id": "USGS-02339495", "geometry_length_km": 1.1739293580424073 }, "geometry": { "type": "LineString", "coordinates": [ [ -85.155173905, 32.850145496 ], [ -85.154661804, 32.849149294 ], [ -85.153120302, 32.847378194 ], [ -85.153377406, 32.8455083 ], [ -85.152988702, 32.844794497 ], [ -85.152957104, 32.843844295 ], [ -85.153292604, 32.840222694 ] ] } }
]
}
