{
"type": "FeatureCollection",
"name": "USGS_02453500_UM_12km",
"crs": { "type": "name", "properties": { "name": "urn:ogc:def:crs:OGC:1.3:CRS84" } },
"features": [
{ "type": "Feature", "properties": { "site_no": "02453500", "nhdplus_comid": "18592074", "navigation_mode": "UM", "requested_distance_km": 12.0, "start_source": "nwissite", "start_id": "USGS-02453500", "geometry_length_km": 0.20150029932503891 }, "geometry": { "type": "LineString", "coordinates": [ [ -87.168390706, 33.758639395 ], [ -87.169949374, 33.757372021 ] ] } },
{ "type": "Feature", "properties": { "site_no": "02453500", "nhdplus_comid": "18592070", "navigation_mode": "UM", "requested_distance_km": 12.0, "start_source": "nwissite", "start_id": "USGS-02453500", "geometry_length_km": 1.4283776056301929 }, "geometry": { "type": "LineString", "coordinates": [ [ -87.152924605, 33.759271294 ], [ -87.164325103, 33.758767895 ], [ -87.166598402, 33.758942299 ], [ -87.168390706, 33.758639395 ] ] } },
{ "type": "Feature", "properties": { "site_no": "02453500", "nhdplus_comid": "18592228", "navigation_mode": "UM", "requested_distance_km": 12.0, "start_source": "nwissite", "start_id": "USGS-02453500", "geometry_length_km": 8.5343942095103653 }, "geometry": { "type": "LineString", "coordinates": [ [ -87.135610901, 33.813696995 ], [ -87.138529405, 33.810901195 ], [ -87.140428707, 33.807649493 ], [ -87.141082205, 33.805937797 ], [ -87.141730003, 33.801583 ], [ -87.142818406, 33.797387794 ], [ -87.142988503, 33.795890696 ], [ -87.143807501, 33.7940659 ], [ -87.145645306, 33.792697094 ], [ -87.150145501, 33.790777698 ], [ -87.152300507, 33.789307296 ], [ -87.153186001, 33.788242593 ], [ -87.153285101, 33.787369296 ], [ -87.152640305, 33.786312997 ], [ -87.150275402, 33.784243494 ], [ -87.146299705, 33.7815466 ], [ -87.141827002, 33.779188998 ], [ -87.135279305, 33.774909399 ], [ -87.134592302, 33.774227194 ], [ -87.134222701, 33.773443595 ], [ -87.134033002, 33.772422194 ], [ -87.134174801, 33.771174595 ], [ -87.134757206, 33.770086698 ], [ -87.138781905, 33.7656141 ], [ -87.142555505, 33.762002997 ], [ -87.145041302, 33.7603065 ], [ -87.147759303, 33.759256996 ], [ -87.150847003, 33.758990996 ], [ -87.152101003, 33.759307593 ], [ -87.152924605, 33.759271294 ] ] } },
{ "type": "Feature", "properties": { "site_no": "02453500", "nhdplus_comid": "18592034", "navigation_mode": "UM", "requested_distance_km": 12.0, "start_source": "nwissite", "start_id": "USGS-02453500", "geometry_length_km": 4.0509802534121047 }, "geometry": { "type": "LineString", "coordinates": [ [ -87.100682601, 33.8054033 ], [ -87.104745805, 33.806661099 ], [ -87.108806707, 33.8086107 ], [ -87.109754406, 33.809690699 ], [ -87.109318204, 33.812174 ], [ -87.109436505, 33.8138192 ], [ -87.110109404, 33.814626299 ], [ -87.111142501, 33.814957693 ], [ -87.121976502, 33.816548295 ], [ -87.128483705, 33.8171755 ], [ -87.129407905, 33.817120798 ], [ -87.1317963, 33.816297896 ], [ -87.135085002, 33.8142858 ], [ -87.135610901, 33.813696995 ] ] } }
]
}
