{
"type": "FeatureCollection",
"name": "USGS_03575000_UM_12km",
"crs": { "type": "name", "properties": { "name": "urn:ogc:def:crs:OGC:1.3:CRS84" } },
"features": [
{ "type": "Feature", "properties": { "site_no": "03575000", "nhdplus_comid": "19621280", "navigation_mode": "UM", "requested_distance_km": 12.0, "start_source": "nwissite", "start_id": "USGS-03575000", "geometry_length_km": 0.11472910756231335 }, "geometry": { "type": "LineString", "coordinates": [ [ -86.483588405, 34.823755398 ], [ -86.483143203, 34.823183298 ], [ -86.482982706, 34.822859388 ] ] } },
{ "type": "Feature", "properties": { "site_no": "03575000", "nhdplus_comid": "19619342", "navigation_mode": "UM", "requested_distance_km": 12.0, "start_source": "nwissite", "start_id": "USGS-03575000", "geometry_length_km": 2.5291862971539238 }, "geometry": { "type": "LineString", "coordinates": [ [ -86.481016405, 34.8324157 ], [ -86.480849102, 34.831843197 ], [ -86.480348505, 34.831431396 ], [ -86.479904003, 34.831340097 ], [ -86.479403906, 34.831340499 ], [ -86.4784877, 34.831707694 ], [ -86.4778767, 34.831822798 ], [ -86.477210201, 34.831823394 ], [ -86.473431103, 34.830703996 ], [ -86.472652905, 34.830361098 ], [ -86.472180001, 34.8298117 ], [ -86.472068004, 34.829101793 ], [ -86.472400807, 34.828551896 ], [ -86.473122701, 34.828345098 ], [ -86.474233307, 34.827909097 ], [ -86.475315504, 34.826991998 ], [ -86.476120904, 34.826876894 ], [ -86.478538401, 34.827790998 ], [ -86.479677707, 34.828110799 ], [ -86.480483204, 34.828110099 ], [ -86.481233001, 34.827971995 ], [ -86.481649302, 34.827765495 ], [ -86.482259706, 34.827215195 ], [ -86.482703507, 34.826642297 ], [ -86.483313307, 34.825656898 ], [ -86.483589306, 34.824396797 ], [ -86.483588405, 34.823755398 ] ] } },
{ "type": "Feature", "properties": { "site_no": "03575000", "nhdplus_comid": "19619288", "navigation_mode": "UM", "requested_distance_km": 12.0, "start_source": "nwissite", "start_id": "USGS-03575000", "geometry_length_km": 1.5906925393062994 }, "geometry": { "type": "LineString", "coordinates": [ [ -86.471084304, 34.843028598 ], [ -86.471277505, 34.841883197 ], [ -86.4716378, 34.841172896 ], [ -86.472081907, 34.840783097 ], [ -86.473247804, 34.840140894 ], [ -86.475580506, 34.839429095 ], [ -86.476801902, 34.838695094 ], [ -86.478855707, 34.837135896 ], [ -86.4804914, 34.834546298 ], [ -86.480712906, 34.833973497 ], [ -86.481016405, 34.8324157 ] ] } },
{ "type": "Feature", "properties": { "site_no": "03575000", "nhdplus_comid": "19619192", "navigation_mode": "UM", "requested_distance_km": 12.0, "start_source": "nwissite", "start_id": "USGS-03575000", "geometry_length_km": 0.96607491374217469 }, "geometry": { "type": "LineString", "coordinates": [ [ -86.473260902, 34.851203896 ], [ -86.473315507, 34.850356296 ], [ -86.473202504, 34.8488447 ], [ -86.472701602, 34.848134995 ], [ -86.471755803, 34.847196698 ], [ -86.471282303, 34.846120596 ], [ -86.471253105, 34.844952397 ], [ -86.471141502, 34.844425693 ], [ -86.471084304, 34.843028598 ] ] } },
{ "type": "Feature", "properties": { "site_no": "03575000", "nhdplus_comid": "19619164", "navigation_mode": "UM", "requested_distance_km": 12.0, "start_source": "nwissite", "start_id": "USGS-03575000", "geometry_length_km": 0.61910298327846969 }, "geometry": { "type": "LineString", "coordinates": [ [ -86.473322704, 34.856517695 ], [ -86.4731832, 34.8560597 ], [ -86.472707801, 34.8533573 ], [ -86.472678803, 34.852326594 ], [ -86.473010905, 34.851272799 ], [ -86.473260902, 34.851203896 ] ] } },
{ "type": "Feature", "properties": { "site_no": "03575000", "nhdplus_comid": "19619136", "navigation_mode": "UM", "requested_distance_km": 12.0, "start_source": "nwissite", "start_id": "USGS-03575000", "geometry_length_km": 0.022822520984591445 }, "geometry": { "type": "LineString", "coordinates": [ [ -86.473572806, 34.856540397 ], [ -86.473322704, 34.856517695 ] ] } },
{ "type": "Feature", "properties": { "site_no": "03575000", "nhdplus_comid": "19619132", "navigation_mode": "UM", "requested_distance_km": 12.0, "start_source": "nwissite", "start_id": "USGS-03575000", "geometry_length_km": 2.171491005185556 }, "geometry": { "type": "LineString", "coordinates": [ [ -86.4745664, 34.8741761 ], [ -86.473898605, 34.873535298 ], [ -86.4713099, 34.869918495 ], [ -86.470753402, 34.869277395 ], [ -86.470641904, 34.8690027 ], [ -86.470585503, 34.868338495 ], [ -86.471029103, 34.867399096 ], [ -86.471584305, 34.866963498 ], [ -86.471806005, 34.866436496 ], [ -86.472138204, 34.865290999 ], [ -86.4720264, 34.864787295 ], [ -86.471636504, 34.864031695 ], [ -86.471691601, 34.8635507 ], [ -86.472273804, 34.862404898 ], [ -86.472995803, 34.861923397 ], [ -86.473050602, 34.8613507 ], [ -86.472965807, 34.860136896 ], [ -86.473186605, 34.858876899 ], [ -86.473519303, 34.858304098 ], [ -86.473629706, 34.857685596 ], [ -86.473656505, 34.856792293 ], [ -86.473572806, 34.856540397 ] ] } },
{ "type": "Feature", "properties": { "site_no": "03575000", "nhdplus_comid": "19619038", "navigation_mode": "UM", "requested_distance_km": 12.0, "start_source": "nwissite", "start_id": "USGS-03575000", "geometry_length_km": 0.57132836533551357 }, "geometry": { "type": "LineString", "coordinates": [ [ -86.479434006, 34.877310097 ], [ -86.479267105, 34.877241597 ], [ -86.4782653, 34.876188695 ], [ -86.4762628, 34.875090994 ], [ -86.474872202, 34.874244593 ], [ -86.4745664, 34.8741761 ] ] } },
{ "type": "Feature", "properties": { "site_no": "03575000", "nhdplus_comid": "19619016", "navigation_mode": "UM", "requested_distance_km": 12.0, "start_source": "nwissite", "start_id": "USGS-03575000", "geometry_length_km": 0.63399678011481075 }, "geometry": { "type": "LineString", "coordinates": [ [ -86.479941003, 34.882715099 ], [ -86.480190001, 34.881729998 ], [ -86.480522007, 34.880561598 ], [ -86.480604202, 34.879599497 ], [ -86.479823805, 34.877928197 ], [ -86.4794899, 34.877561994 ], [ -86.479434006, 34.877310097 ] ] } },
{ "type": "Feature", "properties": { "site_no": "03575000", "nhdplus_comid": "19619000", "navigation_mode": "UM", "requested_distance_km": 12.0, "start_source": "nwissite", "start_id": "USGS-03575000", "geometry_length_km": 4.107382370888967 }, "geometry": { "type": "LineString", "coordinates": [ [ -86.4930894, 34.903363198 ], [ -86.492977701, 34.903042696 ], [ -86.492975101, 34.901141599 ], [ -86.493279904, 34.900431298 ], [ -86.494584106, 34.898735099 ], [ -86.495997205, 34.895572893 ], [ -86.496829204, 34.894220799 ], [ -86.497578204, 34.893166393 ], [ -86.498188905, 34.8925016 ], [ -86.498438403, 34.8920433 ], [ -86.498465307, 34.891470499 ], [ -86.498687007, 34.891035199 ], [ -86.498853102, 34.890508197 ], [ -86.498740904, 34.889821194 ], [ -86.498601504, 34.889523596 ], [ -86.498211704, 34.889065899 ], [ -86.497516304, 34.8887688 ], [ -86.496597603, 34.887945198 ], [ -86.495068103, 34.887419894 ], [ -86.493344307, 34.887123697 ], [ -86.492816202, 34.887124196 ], [ -86.491927102, 34.887376994 ], [ -86.490010701, 34.8885011 ], [ -86.489705302, 34.888730399 ], [ -86.489206001, 34.889509596 ], [ -86.488844804, 34.889624394 ], [ -86.488177806, 34.889693797 ], [ -86.486898802, 34.8895116 ], [ -86.485926107, 34.889627099 ], [ -86.485481307, 34.8895588 ], [ -86.484952301, 34.888917893 ], [ -86.484285004, 34.888781093 ], [ -86.484006904, 34.888643898 ], [ -86.483617604, 34.888598397 ], [ -86.483117402, 34.8887363 ], [ -86.482616805, 34.888484798 ], [ -86.482088104, 34.888004296 ], [ -86.480751805, 34.886379093 ], [ -86.480166703, 34.8853947 ], [ -86.479803905, 34.884249799 ], [ -86.479775205, 34.883471094 ], [ -86.479941003, 34.882715099 ] ] } }
]
}
