{
"type": "FeatureCollection",
"name": "USGS_02471065_DM_12km",
"crs": { "type": "name", "properties": { "name": "urn:ogc:def:crs:OGC:1.3:CRS84" } },
"features": [
{ "type": "Feature", "properties": { "site_no": "02471065", "nhdplus_comid": "18515590", "navigation_mode": "DM", "requested_distance_km": 12.0, "start_source": "nwissite", "start_id": "USGS-02471065", "geometry_length_km": 3.0823796481932679 }, "geometry": { "type": "LineString", "coordinates": [ [ -88.125560104, 30.649926842 ], [ -88.125372402, 30.649728596 ], [ -88.125266306, 30.6495452 ], [ -88.125001207, 30.649361894 ], [ -88.123649307, 30.648147196 ], [ -88.123490207, 30.647757597 ], [ -88.1233842, 30.647024296 ], [ -88.123357601, 30.645076394 ], [ -88.123463601, 30.643907599 ], [ -88.123702206, 30.642990895 ], [ -88.1250007, 30.640630394 ], [ -88.125265807, 30.640447095 ], [ -88.125265807, 30.640332498 ], [ -88.125822201, 30.639553294 ], [ -88.128366403, 30.637307197 ], [ -88.130407006, 30.635932095 ], [ -88.131308004, 30.635450795 ], [ -88.1317055, 30.634854898 ], [ -88.131891005, 30.634763196 ], [ -88.132235505, 30.634190194 ], [ -88.132500403, 30.6336172 ], [ -88.132579803, 30.633227594 ], [ -88.132606305, 30.632975593 ], [ -88.132685803, 30.632494293 ], [ -88.1333481, 30.631004699 ], [ -88.136501104, 30.626787499 ] ] } },
{ "type": "Feature", "properties": { "site_no": "02471065", "nhdplus_comid": "18515372", "navigation_mode": "DM", "requested_distance_km": 12.0, "start_source": "nwissite", "start_id": "USGS-02471065", "geometry_length_km": 2.1050128489710507 }, "geometry": { "type": "LineString", "coordinates": [ [ -88.136501104, 30.626787499 ], [ -88.136501007, 30.626718797 ], [ -88.134672403, 30.625825197 ], [ -88.133267902, 30.625206597 ], [ -88.132525802, 30.6247712 ], [ -88.131439202, 30.624404699 ], [ -88.130485207, 30.623946398 ], [ -88.130061105, 30.623396493 ], [ -88.130034603, 30.623235993 ], [ -88.129610606, 30.622640096 ], [ -88.1295311, 30.622433893 ], [ -88.129504606, 30.622387998 ], [ -88.129451506, 30.622112997 ], [ -88.129345506, 30.621860899 ], [ -88.129292503, 30.621700495 ], [ -88.129239507, 30.621631794 ], [ -88.129239604, 30.621494293 ], [ -88.129160002, 30.621425599 ], [ -88.129133604, 30.621242195 ], [ -88.129054002, 30.6212193 ], [ -88.129027501, 30.621012993 ], [ -88.128815405, 30.620646395 ], [ -88.128709503, 30.620554693 ], [ -88.128603503, 30.620371394 ], [ -88.128020406, 30.619592294 ], [ -88.127252005, 30.618858993 ], [ -88.126536407, 30.618469395 ], [ -88.124999605, 30.617873594 ], [ -88.123913102, 30.617598698 ], [ -88.122058302, 30.617346495 ], [ -88.119488001, 30.616819397 ] ] } },
{ "type": "Feature", "properties": { "site_no": "02471065", "nhdplus_comid": "18515638", "navigation_mode": "DM", "requested_distance_km": 12.0, "start_source": "nwissite", "start_id": "USGS-02471065", "geometry_length_km": 0.074105909924580673 }, "geometry": { "type": "LineString", "coordinates": [ [ -88.119488001, 30.616819397 ], [ -88.119341604, 30.616747797 ], [ -88.1188839, 30.616405495 ] ] } },
{ "type": "Feature", "properties": { "site_no": "02471065", "nhdplus_comid": "18515646", "navigation_mode": "DM", "requested_distance_km": 12.0, "start_source": "nwissite", "start_id": "USGS-02471065", "geometry_length_km": 1.1336829350361832 }, "geometry": { "type": "LineString", "coordinates": [ [ -88.1188839, 30.616405495 ], [ -88.118069105, 30.614197999 ], [ -88.117133006, 30.613245994 ], [ -88.1158811, 30.612524293 ], [ -88.115346305, 30.611980297 ], [ -88.113401607, 30.610829696 ], [ -88.111699805, 30.608684897 ] ] } },
{ "type": "Feature", "properties": { "site_no": "02471065", "nhdplus_comid": "18515656", "navigation_mode": "DM", "requested_distance_km": 12.0, "start_source": "nwissite", "start_id": "USGS-02471065", "geometry_length_km": 2.0917844833582619 }, "geometry": { "type": "LineString", "coordinates": [ [ -88.111699805, 30.608684897 ], [ -88.111991301, 30.607188694 ], [ -88.113315605, 30.605639994 ], [ -88.114542603, 30.603578597 ], [ -88.115209505, 30.596672699 ], [ -88.114358701, 30.594841793 ], [ -88.114673905, 30.591577195 ], [ -88.114005603, 30.590897098 ] ] } },
{ "type": "Feature", "properties": { "site_no": "02471065", "nhdplus_comid": "18515668", "navigation_mode": "DM", "requested_distance_km": 12.0, "start_source": "nwissite", "start_id": "USGS-02471065", "geometry_length_km": 2.3046945806524208 }, "geometry": { "type": "LineString", "coordinates": [ [ -88.114005603, 30.590897098 ], [ -88.113950901, 30.590703599 ], [ -88.110676005, 30.587371297 ], [ -88.110384203, 30.585833199 ], [ -88.107577503, 30.5829769 ], [ -88.107225105, 30.582066596 ], [ -88.106909007, 30.579262398 ], [ -88.106532305, 30.578603193 ], [ -88.106459402, 30.5778393 ], [ -88.102571905, 30.574020296 ], [ -88.102001004, 30.573852897 ] ] } }
]
}
