{
"type": "FeatureCollection",
"name": "USGS_02398500_UM_12km",
"crs": { "type": "name", "properties": { "name": "urn:ogc:def:crs:OGC:1.3:CRS84" } },
"features": [
{ "type": "Feature", "properties": { "site_no": "02398500", "nhdplus_comid": "15823237", "navigation_mode": "UM", "requested_distance_km": 12.0, "start_source": "nwissite", "start_id": "USGS-02398500", "geometry_length_km": 3.4269323426685583 }, "geometry": { "type": "LineString", "coordinates": [ [ -85.543848403, 34.269900799 ], [ -85.544880703, 34.270245999 ], [ -85.5471818, 34.270327799 ], [ -85.548331901, 34.269801594 ], [ -85.548618801, 34.268819593 ], [ -85.547670506, 34.267852098 ], [ -85.54569, 34.266539395 ], [ -85.544335403, 34.265157193 ], [ -85.543809503, 34.263345793 ], [ -85.544247702, 34.2612435 ], [ -85.545566805, 34.260606699 ], [ -85.548645802, 34.260632694 ], [ -85.551452905, 34.2592481 ], [ -85.552975506, 34.259385496 ], [ -85.556361102, 34.261706799 ], [ -85.558597006, 34.264554195 ], [ -85.559358403, 34.264622897 ], [ -85.560577159, 34.263697408 ] ] } },
{ "type": "Feature", "properties": { "site_no": "02398500", "nhdplus_comid": "15823193", "navigation_mode": "UM", "requested_distance_km": 12.0, "start_source": "nwissite", "start_id": "USGS-02398500", "geometry_length_km": 0.21621297330152844 }, "geometry": { "type": "LineString", "coordinates": [ [ -85.542264506, 34.268497594 ], [ -85.543272905, 34.269596897 ], [ -85.543848403, 34.269900799 ] ] } },
{ "type": "Feature", "properties": { "site_no": "02398500", "nhdplus_comid": "15823195", "navigation_mode": "UM", "requested_distance_km": 12.0, "start_source": "nwissite", "start_id": "USGS-02398500", "geometry_length_km": 0.00068988265429528468 }, "geometry": { "type": "LineString", "coordinates": [ [ -85.542263903, 34.268492699 ], [ -85.542261906, 34.2684948 ], [ -85.542264506, 34.268497594 ] ] } },
{ "type": "Feature", "properties": { "site_no": "02398500", "nhdplus_comid": "15821295", "navigation_mode": "UM", "requested_distance_km": 12.0, "start_source": "nwissite", "start_id": "USGS-02398500", "geometry_length_km": 1.0894889360692541 }, "geometry": { "type": "LineString", "coordinates": [ [ -85.532777905, 34.265233897 ], [ -85.533551104, 34.264501497 ], [ -85.533965006, 34.264341496 ], [ -85.534930401, 34.264388099 ], [ -85.5363646, 34.264640994 ], [ -85.538763806, 34.265421398 ], [ -85.540417902, 34.2662699 ], [ -85.541051805, 34.266842999 ], [ -85.541575201, 34.2675533 ], [ -85.541712806, 34.267873995 ], [ -85.542263903, 34.268492699 ] ] } },
{ "type": "Feature", "properties": { "site_no": "02398500", "nhdplus_comid": "15821291", "navigation_mode": "UM", "requested_distance_km": 12.0, "start_source": "nwissite", "start_id": "USGS-02398500", "geometry_length_km": 3.8631603111582566 }, "geometry": { "type": "LineString", "coordinates": [ [ -85.510511801, 34.2894677 ], [ -85.513245806, 34.287706897 ], [ -85.516558707, 34.286289997 ], [ -85.518408202, 34.285581596 ], [ -85.519594803, 34.285376593 ], [ -85.521940902, 34.284691595 ], [ -85.524065904, 34.284326993 ], [ -85.524673201, 34.2840527 ], [ -85.525143005, 34.283411793 ], [ -85.525585704, 34.282358699 ], [ -85.5266634, 34.2809854 ], [ -85.527935401, 34.278513096 ], [ -85.5283508, 34.277116396 ], [ -85.528435402, 34.275513299 ], [ -85.528079405, 34.2732687 ], [ -85.527584001, 34.272191897 ], [ -85.527529702, 34.271481797 ], [ -85.527612805, 34.271252893 ], [ -85.528026901, 34.270886794 ], [ -85.529931203, 34.270201296 ], [ -85.531559803, 34.269263595 ], [ -85.531946503, 34.268782899 ], [ -85.532527506, 34.267225996 ], [ -85.532639407, 34.265760399 ], [ -85.532777905, 34.265233897 ] ] } },
{ "type": "Feature", "properties": { "site_no": "02398500", "nhdplus_comid": "15822925", "navigation_mode": "UM", "requested_distance_km": 12.0, "start_source": "nwissite", "start_id": "USGS-02398500", "geometry_length_km": 0.36703331143344053 }, "geometry": { "type": "LineString", "coordinates": [ [ -85.508879803, 34.292305999 ], [ -85.509102404, 34.291023694 ], [ -85.509324007, 34.2904284 ], [ -85.510511801, 34.2894677 ] ] } },
{ "type": "Feature", "properties": { "site_no": "02398500", "nhdplus_comid": "15822921", "navigation_mode": "UM", "requested_distance_km": 12.0, "start_source": "nwissite", "start_id": "USGS-02398500", "geometry_length_km": 1.5879944010417597 }, "geometry": { "type": "LineString", "coordinates": [ [ -85.495028004, 34.300235696 ], [ -85.495523706, 34.299479395 ], [ -85.496295303, 34.298745893 ], [ -85.497067206, 34.298218399 ], [ -85.499962807, 34.2969101 ], [ -85.501147404, 34.296603799 ], [ -85.503576405, 34.2961253 ], [ -85.505758107, 34.294868 ], [ -85.508879803, 34.292305999 ] ] } },
{ "type": "Feature", "properties": { "site_no": "02398500", "nhdplus_comid": "15821033", "navigation_mode": "UM", "requested_distance_km": 12.0, "start_source": "nwissite", "start_id": "USGS-02398500", "geometry_length_km": 1.9787909403457105 }, "geometry": { "type": "LineString", "coordinates": [ [ -85.478675403, 34.309937596 ], [ -85.479503103, 34.309639193 ], [ -85.479971707, 34.309249498 ], [ -85.480936207, 34.308057897 ], [ -85.482010603, 34.306499697 ], [ -85.483278304, 34.305101596 ], [ -85.485098407, 34.303954899 ], [ -85.486560002, 34.303174898 ], [ -85.487691, 34.302853294 ], [ -85.488767006, 34.302714899 ], [ -85.490450807, 34.303011097 ], [ -85.491527103, 34.3029643 ], [ -85.493071303, 34.302138396 ], [ -85.494036101, 34.301312998 ], [ -85.495028004, 34.300235696 ] ] } }
]
}
