{
"type": "FeatureCollection",
"name": "USGS_02427250_DM_12km",
"crs": { "type": "name", "properties": { "name": "urn:ogc:def:crs:OGC:1.3:CRS84" } },
"features": [
{ "type": "Feature", "properties": { "site_no": "02427250", "nhdplus_comid": "21457950", "navigation_mode": "DM", "requested_distance_km": 12.0, "start_source": "nwissite", "start_id": "USGS-02427250", "geometry_length_km": 1.6685123765185899 }, "geometry": { "type": "LineString", "coordinates": [ [ -87.068326606, 31.996480763 ], [ -87.069808803, 31.997113094 ], [ -87.0702122, 31.996975698 ], [ -87.070239305, 31.996586196 ], [ -87.069890201, 31.9959445 ], [ -87.069782704, 31.995417297 ], [ -87.069890402, 31.995211199 ], [ -87.070482202, 31.994913496 ], [ -87.070966206, 31.994913697 ], [ -87.073278002, 31.996129096 ], [ -87.074783705, 31.996381797 ], [ -87.075294502, 31.996656999 ], [ -87.075778201, 31.997184299 ], [ -87.076127701, 31.997321799 ], [ -87.076773107, 31.997230396 ], [ -87.077042103, 31.997115895 ], [ -87.0773919, 31.9968182 ], [ -87.077768303, 31.9968412 ], [ -87.078037106, 31.9970247 ], [ -87.078198202, 31.997574694 ], [ -87.078305706, 31.997643493 ], [ -87.078332506, 31.997803897 ], [ -87.079031304, 31.998583294 ], [ -87.079380102, 32.000161 ] ] } },
{ "type": "Feature", "properties": { "site_no": "02427250", "nhdplus_comid": "21464256", "navigation_mode": "DM", "requested_distance_km": 12.0, "start_source": "nwissite", "start_id": "USGS-02427250", "geometry_length_km": 0.0031357346814364566 }, "geometry": { "type": "LineString", "coordinates": [ [ -87.079380102, 32.000161 ], [ -87.079378702, 32.000157796 ], [ -87.079376303, 32.000154294 ], [ -87.079372801, 32.000153996 ], [ -87.079367302, 32.000154793 ], [ -87.079368003, 32.000157997 ], [ -87.079373807, 32.000160195 ], [ -87.079378903, 32.000161 ] ] } },
{ "type": "Feature", "properties": { "site_no": "02427250", "nhdplus_comid": "21456282", "navigation_mode": "DM", "requested_distance_km": 12.0, "start_source": "nwissite", "start_id": "USGS-02427250", "geometry_length_km": 0.17110416020011271 }, "geometry": { "type": "LineString", "coordinates": [ [ -87.079378903, 32.000161 ], [ -87.079728201, 32.000676394 ], [ -87.080185205, 32.001043193 ], [ -87.080642305, 32.001180895 ] ] } },
{ "type": "Feature", "properties": { "site_no": "02427250", "nhdplus_comid": "21456280", "navigation_mode": "DM", "requested_distance_km": 12.0, "start_source": "nwissite", "start_id": "USGS-02427250", "geometry_length_km": 0.14255377133372377 }, "geometry": { "type": "LineString", "coordinates": [ [ -87.080642305, 32.001180895 ], [ -87.081557103, 32.000160694 ] ] } },
{ "type": "Feature", "properties": { "site_no": "02427250", "nhdplus_comid": "21464258", "navigation_mode": "DM", "requested_distance_km": 12.0, "start_source": "nwissite", "start_id": "USGS-02427250", "geometry_length_km": 0.0024585925959257644 }, "geometry": { "type": "LineString", "coordinates": [ [ -87.081557103, 32.000160694 ], [ -87.081552602, 32.0001591 ], [ -87.081553802, 32.000153698 ], [ -87.081562005, 32.000157394 ], [ -87.081558205, 32.000160694 ] ] } },
{ "type": "Feature", "properties": { "site_no": "02427250", "nhdplus_comid": "21457924", "navigation_mode": "DM", "requested_distance_km": 12.0, "start_source": "nwissite", "start_id": "USGS-02427250", "geometry_length_km": 0.10357561269349405 }, "geometry": { "type": "LineString", "coordinates": [ [ -87.081558205, 32.000160694 ], [ -87.081907906, 32.000050798 ], [ -87.082418807, 32.000074096 ], [ -87.082609601, 32.000160597 ] ] } },
{ "type": "Feature", "properties": { "site_no": "02427250", "nhdplus_comid": "21459216", "navigation_mode": "DM", "requested_distance_km": 12.0, "start_source": "nwissite", "start_id": "USGS-02427250", "geometry_length_km": 0.093214692084024067 }, "geometry": { "type": "LineString", "coordinates": [ [ -87.082609601, 32.000160597 ], [ -87.083600804, 32.000160396 ] ] } },
{ "type": "Feature", "properties": { "site_no": "02427250", "nhdplus_comid": "21456278", "navigation_mode": "DM", "requested_distance_km": 12.0, "start_source": "nwissite", "start_id": "USGS-02427250", "geometry_length_km": 1.772743266917393 }, "geometry": { "type": "LineString", "coordinates": [ [ -87.083600804, 32.000160396 ], [ -87.084272906, 32.000723898 ], [ -87.084460907, 32.000998899 ], [ -87.084756404, 32.001915596 ], [ -87.085213304, 32.002373993 ], [ -87.085643604, 32.002351299 ], [ -87.086531207, 32.001870394 ], [ -87.086988501, 32.0014809 ], [ -87.087338202, 32.001320593 ], [ -87.087607101, 32.001320697 ], [ -87.087822206, 32.001412399 ], [ -87.087822005, 32.001939498 ], [ -87.087606601, 32.002535194 ], [ -87.087606505, 32.002993494 ], [ -87.087714002, 32.003153995 ], [ -87.087902203, 32.003222793 ], [ -87.088762805, 32.003085494 ], [ -87.089892305, 32.002787896 ], [ -87.091129303, 32.002788298 ], [ -87.0915865, 32.002925895 ], [ -87.091909103, 32.003246695 ], [ -87.092097104, 32.003659293 ], [ -87.092150703, 32.004209295 ], [ -87.092285104, 32.004530199 ], [ -87.092715301, 32.004736498 ], [ -87.093495101, 32.004667997 ], [ -87.094544202, 32.004186995 ], [ -87.095055103, 32.004209995 ], [ -87.095270202, 32.004393399 ], [ -87.095404506, 32.0048059 ], [ -87.095780902, 32.0051497 ], [ -87.095888406, 32.0051497 ] ] } },
{ "type": "Feature", "properties": { "site_no": "02427250", "nhdplus_comid": "21456192", "navigation_mode": "DM", "requested_distance_km": 12.0, "start_source": "nwissite", "start_id": "USGS-02427250", "geometry_length_km": 0.24827272784357235 }, "geometry": { "type": "LineString", "coordinates": [ [ -87.095888406, 32.0051497 ], [ -87.096130505, 32.0051727 ], [ -87.096453205, 32.005058199 ], [ -87.0965342, 32.004072897 ], [ -87.096857101, 32.003385395 ] ] } },
{ "type": "Feature", "properties": { "site_no": "02427250", "nhdplus_comid": "21456198", "navigation_mode": "DM", "requested_distance_km": 12.0, "start_source": "nwissite", "start_id": "USGS-02427250", "geometry_length_km": 1.0111558924269612 }, "geometry": { "type": "LineString", "coordinates": [ [ -87.096857101, 32.003385395 ], [ -87.096964702, 32.003385499 ], [ -87.097422004, 32.003087699 ], [ -87.0977716, 32.002996095 ], [ -87.098094203, 32.003202394 ], [ -87.098443702, 32.003798299 ], [ -87.098954402, 32.004440099 ], [ -87.099653505, 32.004806899 ], [ -87.100030102, 32.004646599 ], [ -87.100057103, 32.004256994 ], [ -87.099842004, 32.003775693 ], [ -87.099949703, 32.003477797 ], [ -87.100272402, 32.003363393 ], [ -87.102127805, 32.004005298 ], [ -87.102558106, 32.004005395 ], [ -87.103069104, 32.003753394 ], [ -87.103230506, 32.0033639 ], [ -87.103445604, 32.003134698 ], [ -87.103768304, 32.0030661 ], [ -87.104091004, 32.003203593 ] ] } },
{ "type": "Feature", "properties": { "site_no": "02427250", "nhdplus_comid": "21456196", "navigation_mode": "DM", "requested_distance_km": 12.0, "start_source": "nwissite", "start_id": "USGS-02427250", "geometry_length_km": 0.4331962633055354 }, "geometry": { "type": "LineString", "coordinates": [ [ -87.104091004, 32.003203593 ], [ -87.1048977, 32.003982894 ], [ -87.105704404, 32.004441299 ], [ -87.106672503, 32.004808098 ], [ -87.108016901, 32.004876994 ] ] } },
{ "type": "Feature", "properties": { "site_no": "02427250", "nhdplus_comid": "21456170", "navigation_mode": "DM", "requested_distance_km": 12.0, "start_source": "nwissite", "start_id": "USGS-02427250", "geometry_length_km": 1.6109045257943022 }, "geometry": { "type": "LineString", "coordinates": [ [ -87.108016901, 32.004876994 ], [ -87.108178206, 32.005014494 ], [ -87.108447105, 32.005862497 ], [ -87.108716004, 32.006114595 ], [ -87.109253801, 32.006412499 ], [ -87.109253801, 32.006939597 ], [ -87.108984806, 32.007008299 ], [ -87.107505605, 32.007030994 ], [ -87.107478701, 32.007512197 ], [ -87.108258404, 32.008291498 ], [ -87.108285204, 32.009001799 ], [ -87.107989304, 32.009551793 ], [ -87.107989304, 32.009712197 ], [ -87.1083389, 32.009987198 ], [ -87.108903505, 32.010147698 ], [ -87.109118603, 32.010835096 ], [ -87.109387502, 32.0110185 ], [ -87.110006101, 32.011110395 ], [ -87.110274903, 32.011408299 ], [ -87.110248007, 32.011912495 ], [ -87.110140406, 32.012118697 ], [ -87.109306604, 32.012599796 ], [ -87.109226003, 32.0127602 ], [ -87.109602503, 32.013081096 ], [ -87.110167205, 32.013264395 ], [ -87.110839605, 32.013172798 ], [ -87.111673303, 32.012874998 ], [ -87.111861601, 32.012874998 ], [ -87.112103507, 32.013035499 ], [ -87.112211101, 32.013241693 ] ] } },
{ "type": "Feature", "properties": { "site_no": "02427250", "nhdplus_comid": "21456108", "navigation_mode": "DM", "requested_distance_km": 12.0, "start_source": "nwissite", "start_id": "USGS-02427250", "geometry_length_km": 1.1793837169444115 }, "geometry": { "type": "LineString", "coordinates": [ [ -87.112211101, 32.013241693 ], [ -87.1128565, 32.013195895 ], [ -87.1135827, 32.013310596 ], [ -87.1139054, 32.013196096 ], [ -87.114147604, 32.012989797 ], [ -87.1144704, 32.012164898 ], [ -87.115357906, 32.0119588 ], [ -87.115492404, 32.0118213 ], [ -87.115546301, 32.011454694 ], [ -87.115223601, 32.011064999 ], [ -87.115707703, 32.010790095 ], [ -87.116568305, 32.010744296 ], [ -87.117805406, 32.010400593 ], [ -87.120199002, 32.010079898 ], [ -87.122027807, 32.010423698 ], [ -87.122243002, 32.010309197 ] ] } },
{ "type": "Feature", "properties": { "site_no": "02427250", "nhdplus_comid": "21456270", "navigation_mode": "DM", "requested_distance_km": 12.0, "start_source": "nwissite", "start_id": "USGS-02427250", "geometry_length_km": 2.1107110498437947 }, "geometry": { "type": "LineString", "coordinates": [ [ -87.122243002, 32.010309197 ], [ -87.122269802, 32.009965397 ], [ -87.122000903, 32.009644598 ], [ -87.121274807, 32.009277895 ], [ -87.1196343, 32.008246697 ], [ -87.119284704, 32.007879995 ], [ -87.119150303, 32.007490493 ], [ -87.119096503, 32.007032096 ], [ -87.119204007, 32.006802998 ], [ -87.119715102, 32.006780095 ], [ -87.120575607, 32.007284299 ], [ -87.120871402, 32.007284299 ], [ -87.120952107, 32.007009394 ], [ -87.120844603, 32.006115593 ], [ -87.121113501, 32.005634397 ], [ -87.121705204, 32.005611494 ], [ -87.121893503, 32.005703196 ], [ -87.122753903, 32.006505199 ], [ -87.122942202, 32.006505199 ], [ -87.123049803, 32.006275997 ], [ -87.122754, 32.005588599 ], [ -87.122727104, 32.005153194 ], [ -87.122834705, 32.004878193 ], [ -87.1234264, 32.004144996 ], [ -87.1234532, 32.003709599 ], [ -87.123345703, 32.003480397 ], [ -87.121893503, 32.002334498 ], [ -87.121167406, 32.001853295 ], [ -87.119742103, 32.001280293 ], [ -87.118290104, 32.000523999 ], [ -87.1179405, 32.000150196 ] ] } },
{ "type": "Feature", "properties": { "site_no": "02427250", "nhdplus_comid": "21464264", "navigation_mode": "DM", "requested_distance_km": 12.0, "start_source": "nwissite", "start_id": "USGS-02427250", "geometry_length_km": 0.0069505648420628043 }, "geometry": { "type": "LineString", "coordinates": [ [ -87.1179405, 32.000150196 ], [ -87.117919602, 32.000142798 ], [ -87.117918402, 32.0001335 ], [ -87.117933504, 32.000131294 ], [ -87.117940001, 32.000137895 ], [ -87.1179417, 32.000150196 ] ] } },
{ "type": "Feature", "properties": { "site_no": "02427250", "nhdplus_comid": "21457948", "navigation_mode": "DM", "requested_distance_km": 12.0, "start_source": "nwissite", "start_id": "USGS-02427250", "geometry_length_km": 2.4204928049338506 }, "geometry": { "type": "LineString", "coordinates": [ [ -87.1179417, 32.000150196 ], [ -87.117968604, 31.999828696 ], [ -87.118156806, 31.999576695 ], [ -87.118533403, 31.999278799 ], [ -87.119716607, 31.998637199 ], [ -87.120281301, 31.998178899 ], [ -87.121330105, 31.997033194 ], [ -87.122513302, 31.996139497 ], [ -87.122970402, 31.995910294 ], [ -87.123562001, 31.995749995 ], [ -87.123830803, 31.995887496 ], [ -87.124583803, 31.9966437 ], [ -87.1249872, 31.996872798 ], [ -87.125524901, 31.997056097 ], [ -87.126197204, 31.997147799 ], [ -87.126788706, 31.997056097 ], [ -87.127783701, 31.996666498 ], [ -87.128590405, 31.996483199 ], [ -87.129047506, 31.9961394 ], [ -87.129155003, 31.995978996 ], [ -87.129128002, 31.995291598 ], [ -87.129450701, 31.994925 ], [ -87.1298002, 31.994810395 ], [ -87.130069204, 31.994833298 ], [ -87.130311102, 31.995016597 ], [ -87.130526304, 31.9953603 ], [ -87.130660802, 31.996024899 ], [ -87.131171703, 31.996918499 ], [ -87.131279401, 31.997491397 ], [ -87.131656006, 31.998339295 ], [ -87.131924905, 31.998545498 ], [ -87.132543303, 31.998637095 ], [ -87.13335, 31.998522498 ], [ -87.134076007, 31.998499498 ], [ -87.134291202, 31.9985912 ], [ -87.134398803, 31.999209799 ], [ -87.134049304, 31.999759793 ], [ -87.133995503, 32.000151195 ] ] } }
]
}
