{
"type": "FeatureCollection",
"name": "USGS_02456330_UM_12km",
"crs": { "type": "name", "properties": { "name": "urn:ogc:def:crs:OGC:1.3:CRS84" } },
"features": [
{ "type": "Feature", "properties": { "site_no": "02456330", "nhdplus_comid": "18566299", "navigation_mode": "UM", "requested_distance_km": 12.0, "start_source": "nwissite", "start_id": "USGS-02456330", "geometry_length_km": 0.55626776469905526 }, "geometry": { "type": "LineString", "coordinates": [ [ -86.869017005, 33.732362598 ], [ -86.868139401, 33.733828798 ], [ -86.8681942, 33.734859698 ], [ -86.867947407, 33.735249199 ], [ -86.867508605, 33.735615693 ], [ -86.866878003, 33.735936396 ], [ -86.866466701, 33.736325696 ], [ -86.866466604, 33.736554794 ], [ -86.866469378, 33.736556843 ] ] } },
{ "type": "Feature", "properties": { "site_no": "02456330", "nhdplus_comid": "18565645", "navigation_mode": "UM", "requested_distance_km": 12.0, "start_source": "nwissite", "start_id": "USGS-02456330", "geometry_length_km": 0.55028945251314487 }, "geometry": { "type": "LineString", "coordinates": [ [ -86.866056003, 33.728788495 ], [ -86.866110906, 33.729361296 ], [ -86.866385005, 33.729613297 ], [ -86.867344603, 33.729636297 ], [ -86.867673703, 33.729727998 ], [ -86.868002601, 33.730002895 ], [ -86.868359007, 33.730506897 ], [ -86.868907407, 33.7316982 ], [ -86.868907407, 33.731858596 ], [ -86.868989602, 33.731927298 ], [ -86.869017005, 33.732362598 ] ] } },
{ "type": "Feature", "properties": { "site_no": "02456330", "nhdplus_comid": "18565669", "navigation_mode": "UM", "requested_distance_km": 12.0, "start_source": "nwissite", "start_id": "USGS-02456330", "geometry_length_km": 0.80135663176428218 }, "geometry": { "type": "LineString", "coordinates": [ [ -86.864247203, 33.722579896 ], [ -86.865179405, 33.722694494 ], [ -86.865563102, 33.722900696 ], [ -86.865892, 33.7234964 ], [ -86.866001703, 33.724504396 ], [ -86.866001502, 33.726337194 ], [ -86.865891807, 33.726657994 ], [ -86.865891606, 33.727620095 ], [ -86.866165802, 33.728101194 ], [ -86.866056003, 33.728788495 ] ] } },
{ "type": "Feature", "properties": { "site_no": "02456330", "nhdplus_comid": "18565683", "navigation_mode": "UM", "requested_distance_km": 12.0, "start_source": "nwissite", "start_id": "USGS-02456330", "geometry_length_km": 0.43896370436182042 }, "geometry": { "type": "LineString", "coordinates": [ [ -86.864795901, 33.719143599 ], [ -86.864795901, 33.719784997 ], [ -86.864878103, 33.719830796 ], [ -86.864878103, 33.720220298 ], [ -86.864741005, 33.720449299 ], [ -86.864165202, 33.720792994 ], [ -86.863808706, 33.721159495 ], [ -86.863808706, 33.721709296 ], [ -86.8639457, 33.722190395 ], [ -86.864247203, 33.722579896 ] ] } },
{ "type": "Feature", "properties": { "site_no": "02456330", "nhdplus_comid": "18565741", "navigation_mode": "UM", "requested_distance_km": 12.0, "start_source": "nwissite", "start_id": "USGS-02456330", "geometry_length_km": 2.490854842346212 }, "geometry": { "type": "LineString", "coordinates": [ [ -86.855067804, 33.700562499 ], [ -86.855287105, 33.700814597 ], [ -86.855615705, 33.701410294 ], [ -86.8570133, 33.703197494 ], [ -86.857013404, 33.703289099 ], [ -86.858548, 33.704961695 ], [ -86.859616801, 33.705901198 ], [ -86.859918304, 33.7062907 ], [ -86.860027805, 33.706611499 ], [ -86.860027701, 33.7071613 ], [ -86.859342307, 33.708329596 ], [ -86.859342106, 33.709108494 ], [ -86.860164307, 33.709956199 ], [ -86.860657804, 33.710276999 ], [ -86.860657804, 33.710552 ], [ -86.860219106, 33.711010195 ], [ -86.860218905, 33.711285099 ], [ -86.860356003, 33.711468294 ], [ -86.861616805, 33.712041199 ], [ -86.862411804, 33.712614 ], [ -86.862768106, 33.712980598 ], [ -86.8629051, 33.713347197 ], [ -86.8628776, 33.713690795 ], [ -86.862521105, 33.714767598 ], [ -86.862767704, 33.715088293 ], [ -86.863151602, 33.715271696 ], [ -86.863343306, 33.715477899 ], [ -86.863562606, 33.716210999 ], [ -86.863617301, 33.716875397 ], [ -86.863727003, 33.717012793 ], [ -86.863754407, 33.717264794 ], [ -86.864439704, 33.717906393 ], [ -86.864631504, 33.718181297 ], [ -86.864795901, 33.719143599 ] ] } },
{ "type": "Feature", "properties": { "site_no": "02456330", "nhdplus_comid": "18565755", "navigation_mode": "UM", "requested_distance_km": 12.0, "start_source": "nwissite", "start_id": "USGS-02456330", "geometry_length_km": 0.40313478084569204 }, "geometry": { "type": "LineString", "coordinates": [ [ -86.853588507, 33.697423697 ], [ -86.853670806, 33.6974466 ], [ -86.853725605, 33.697675698 ], [ -86.853917301, 33.697904795 ], [ -86.8541364, 33.698454797 ], [ -86.854136206, 33.699691899 ], [ -86.854355305, 33.699989699 ], [ -86.855040401, 33.700402096 ], [ -86.855067804, 33.700562499 ] ] } },
{ "type": "Feature", "properties": { "site_no": "02456330", "nhdplus_comid": "18565773", "navigation_mode": "UM", "requested_distance_km": 12.0, "start_source": "nwissite", "start_id": "USGS-02456330", "geometry_length_km": 0.44153258602552342 }, "geometry": { "type": "LineString", "coordinates": [ [ -86.855754405, 33.694102198 ], [ -86.855699606, 33.6943084 ], [ -86.854246706, 33.695522293 ], [ -86.853671007, 33.696346998 ], [ -86.853588805, 33.696621895 ], [ -86.853588507, 33.697423697 ] ] } },
{ "type": "Feature", "properties": { "site_no": "02456330", "nhdplus_comid": "18565853", "navigation_mode": "UM", "requested_distance_km": 12.0, "start_source": "nwissite", "start_id": "USGS-02456330", "geometry_length_km": 4.0069550031371204 }, "geometry": { "type": "LineString", "coordinates": [ [ -86.835783906, 33.6737305 ], [ -86.837783903, 33.674395494 ], [ -86.840112902, 33.674396299 ], [ -86.8429901, 33.673847295 ], [ -86.843757302, 33.673778698 ], [ -86.847922005, 33.6746962 ], [ -86.850579903, 33.674628094 ], [ -86.852799401, 33.6744681 ], [ -86.853676103, 33.674651496 ], [ -86.854251407, 33.674949497 ], [ -86.854826801, 33.675545298 ], [ -86.855785601, 33.6769429 ], [ -86.856032006, 33.677653097 ], [ -86.856196202, 33.678477898 ], [ -86.8561683, 33.680493996 ], [ -86.855921403, 33.682166293 ], [ -86.8557842, 33.683334693 ], [ -86.855838701, 33.684571795 ], [ -86.855975606, 33.6849842 ], [ -86.856989302, 33.686404794 ], [ -86.857318006, 33.6870692 ], [ -86.857482307, 33.687756494 ], [ -86.857399501, 33.690620199 ], [ -86.856851205, 33.692063399 ], [ -86.856522106, 33.692636095 ], [ -86.856220506, 33.693575293 ], [ -86.855918802, 33.694056399 ], [ -86.855754405, 33.694102198 ] ] } }
]
}
