{
"type": "FeatureCollection",
"name": "USGS_02404000_DM_12km",
"crs": { "type": "name", "properties": { "name": "urn:ogc:def:crs:OGC:1.3:CRS84" } },
"features": [
{ "type": "Feature", "properties": { "site_no": "02404000", "nhdplus_comid": "22202073", "navigation_mode": "DM", "requested_distance_km": 12.0, "start_source": "nwissite", "start_id": "USGS-02404000", "geometry_length_km": 1.376692483289832 }, "geometry": { "type": "LineString", "coordinates": [ [ -85.930071289, 33.570729279 ], [ -85.9314484, 33.570638299 ], [ -85.933555603, 33.571026698 ], [ -85.9342397, 33.570888899 ], [ -85.934759505, 33.570705399 ], [ -85.9349235, 33.5704991 ], [ -85.934950605, 33.569972299 ], [ -85.934704006, 33.569674596 ], [ -85.934484005, 33.567887895 ], [ -85.9341003, 33.5670176 ], [ -85.934535801, 33.563512698 ], [ -85.934343606, 33.562550694 ] ] } },
{ "type": "Feature", "properties": { "site_no": "02404000", "nhdplus_comid": "22202077", "navigation_mode": "DM", "requested_distance_km": 12.0, "start_source": "nwissite", "start_id": "USGS-02404000", "geometry_length_km": 0.18554411277410501 }, "geometry": { "type": "LineString", "coordinates": [ [ -85.934343606, 33.562550694 ], [ -85.934479706, 33.561313599 ], [ -85.934725702, 33.560947098 ] ] } },
{ "type": "Feature", "properties": { "site_no": "02404000", "nhdplus_comid": "22202079", "navigation_mode": "DM", "requested_distance_km": 12.0, "start_source": "nwissite", "start_id": "USGS-02404000", "geometry_length_km": 3.1632895394704597 }, "geometry": { "type": "LineString", "coordinates": [ [ -85.934725702, 33.560947098 ], [ -85.935272902, 33.561107196 ], [ -85.935711004, 33.561358899 ], [ -85.9362038, 33.561793894 ], [ -85.937079504, 33.561999597 ], [ -85.9379002, 33.561861798 ], [ -85.938474603, 33.561609499 ], [ -85.939131305, 33.561471693 ], [ -85.939952105, 33.561494298 ], [ -85.942990102, 33.562615 ], [ -85.945863806, 33.563483894 ], [ -85.946493603, 33.5640333 ], [ -85.946795404, 33.565063998 ], [ -85.949206106, 33.568200894 ], [ -85.949178904, 33.5685215 ], [ -85.948933005, 33.568865299 ], [ -85.948522501, 33.568888396 ], [ -85.945210204, 33.567492999 ], [ -85.944088407, 33.567653999 ], [ -85.943650901, 33.567906193 ], [ -85.943268105, 33.568341598 ], [ -85.943323202, 33.5688226 ], [ -85.944391102, 33.569646694 ], [ -85.944692604, 33.570310898 ], [ -85.945076004, 33.570654199 ], [ -85.945869707, 33.570836999 ], [ -85.947922103, 33.570813 ], [ -85.949700505, 33.570537098 ] ] } },
{ "type": "Feature", "properties": { "site_no": "02404000", "nhdplus_comid": "22202071", "navigation_mode": "DM", "requested_distance_km": 12.0, "start_source": "nwissite", "start_id": "USGS-02404000", "geometry_length_km": 1.8568197272277223 }, "geometry": { "type": "LineString", "coordinates": [ [ -85.949700505, 33.570537098 ], [ -85.950766802, 33.569436893 ], [ -85.957903907, 33.564094998 ], [ -85.958888702, 33.563727796 ], [ -85.961925305, 33.563152999 ], [ -85.965674005, 33.563173294 ], [ -85.966522306, 33.5632414 ] ] } },
{ "type": "Feature", "properties": { "site_no": "02404000", "nhdplus_comid": "22202087", "navigation_mode": "DM", "requested_distance_km": 12.0, "start_source": "nwissite", "start_id": "USGS-02404000", "geometry_length_km": 1.8104912893339669 }, "geometry": { "type": "LineString", "coordinates": [ [ -85.966522306, 33.5632414 ], [ -85.967753604, 33.563309297 ], [ -85.968109205, 33.563217394 ], [ -85.968437307, 33.562919296 ], [ -85.968464106, 33.5623696 ], [ -85.968354203, 33.561980195 ], [ -85.967943206, 33.561338998 ], [ -85.967723601, 33.560812399 ], [ -85.967695907, 33.560468793 ], [ -85.967805102, 33.560125098 ], [ -85.968297005, 33.559666596 ], [ -85.969172306, 33.559436895 ], [ -85.970157601, 33.5596423 ], [ -85.9707321, 33.559527293 ], [ -85.974697404, 33.557668693 ], [ -85.975216702, 33.557278894 ], [ -85.975981303, 33.555972598 ], [ -85.975815102, 33.5540713 ], [ -85.976114705, 33.552948698 ] ] } },
{ "type": "Feature", "properties": { "site_no": "02404000", "nhdplus_comid": "22202117", "navigation_mode": "DM", "requested_distance_km": 12.0, "start_source": "nwissite", "start_id": "USGS-02404000", "geometry_length_km": 5.091465882907527 }, "geometry": { "type": "LineString", "coordinates": [ [ -85.976114705, 33.552948698 ], [ -85.976387307, 33.552215494 ], [ -85.976988502, 33.551642194 ], [ -85.977481, 33.551573098 ], [ -85.9781655, 33.551916197 ], [ -85.978932202, 33.552510999 ], [ -85.982710004, 33.5543404 ], [ -85.983284406, 33.554294199 ], [ -85.984624103, 33.553445399 ], [ -85.985253006, 33.553192899 ], [ -85.9870039, 33.553122595 ], [ -85.9894659, 33.552845396 ], [ -85.990012705, 33.552592896 ], [ -85.990586102, 33.551698998 ], [ -85.990803801, 33.550805494 ], [ -85.990775101, 33.549843296 ], [ -85.990609601, 33.548766799 ], [ -85.990499906, 33.548537798 ], [ -85.990389407, 33.547759093 ], [ -85.988878101, 33.542743795 ], [ -85.988959305, 33.542010695 ], [ -85.989177801, 33.541735597 ], [ -85.990216702, 33.5412765 ], [ -85.991119504, 33.541344397 ], [ -85.991557702, 33.541710496 ], [ -85.991831802, 33.542191394 ], [ -85.9918878, 33.542992994 ], [ -85.992134906, 33.543679997 ], [ -85.992600605, 33.544206396 ], [ -85.994023904, 33.5447089 ], [ -85.994461507, 33.544662498 ], [ -85.994898804, 33.544364095 ], [ -85.995308407, 33.543744996 ], [ -85.995579801, 33.542210095 ], [ -85.996016406, 33.541407995 ], [ -85.996235006, 33.541247293 ], [ -85.996891506, 33.541177399 ], [ -85.997329503, 33.541428596 ], [ -85.997576103, 33.541680194 ], [ -85.997987807, 33.5426872 ], [ -85.997907102, 33.543672293 ], [ -85.997552305, 33.544314295 ], [ -85.997389205, 33.545070298 ], [ -85.997417606, 33.5458031 ], [ -85.9973085, 33.545963593 ], [ -85.997418903, 33.546719193 ], [ -85.998077907, 33.548459098 ], [ -85.998653404, 33.549168497 ], [ -85.999173701, 33.549442597 ], [ -85.999968804, 33.549601994 ] ] } }
]
}
