{
"type": "FeatureCollection",
"name": "USGS_02344000_UM_12km",
"crs": { "type": "name", "properties": { "name": "urn:ogc:def:crs:OGC:1.3:CRS84" } },
"features": [
{ "type": "Feature", "properties": { "site_no": "02344000", "nhdplus_comid": "2310509", "navigation_mode": "UM", "requested_distance_km": 12.0, "start_source": "nwissite", "start_id": "USGS-02344000", "geometry_length_km": 1.2134124820941361 }, "geometry": { "type": "LineString", "coordinates": [ [ -85.055535004, 31.125043295 ], [ -85.055077605, 31.1225546 ], [ -85.053173505, 31.120194398 ], [ -85.052582905, 31.119864494 ], [ -85.050093405, 31.119482495 ], [ -85.048598707, 31.118791595 ], [ -85.047490557, 31.117893579 ] ] } },
{ "type": "Feature", "properties": { "site_no": "02344000", "nhdplus_comid": "2310503", "navigation_mode": "UM", "requested_distance_km": 12.0, "start_source": "nwissite", "start_id": "USGS-02344000", "geometry_length_km": 0.88802091624890744 }, "geometry": { "type": "LineString", "coordinates": [ [ -85.059994102, 31.131999895 ], [ -85.060030401, 31.131731994 ], [ -85.055535004, 31.125043295 ] ] } },
{ "type": "Feature", "properties": { "site_no": "02344000", "nhdplus_comid": "2310497", "navigation_mode": "UM", "requested_distance_km": 12.0, "start_source": "nwissite", "start_id": "USGS-02344000", "geometry_length_km": 1.0290373399805857 }, "geometry": { "type": "LineString", "coordinates": [ [ -85.062683903, 31.140885398 ], [ -85.062198602, 31.140362397 ], [ -85.061716601, 31.139228798 ], [ -85.059994102, 31.131999895 ] ] } },
{ "type": "Feature", "properties": { "site_no": "02344000", "nhdplus_comid": "2310493", "navigation_mode": "UM", "requested_distance_km": 12.0, "start_source": "nwissite", "start_id": "USGS-02344000", "geometry_length_km": 2.9370887388456093 }, "geometry": { "type": "LineString", "coordinates": [ [ -85.082247302, 31.160122499 ], [ -85.079201601, 31.1591435 ], [ -85.076680705, 31.157809094 ], [ -85.075848505, 31.156912595 ], [ -85.075106807, 31.155346297 ], [ -85.070789404, 31.150848195 ], [ -85.069372706, 31.148400798 ], [ -85.067431301, 31.146308795 ], [ -85.066008404, 31.145082399 ], [ -85.064392604, 31.1441084 ], [ -85.063699305, 31.143361196 ], [ -85.062680706, 31.141495898 ], [ -85.062683903, 31.140885398 ] ] } },
{ "type": "Feature", "properties": { "site_no": "02344000", "nhdplus_comid": "2310485", "navigation_mode": "UM", "requested_distance_km": 12.0, "start_source": "nwissite", "start_id": "USGS-02344000", "geometry_length_km": 0.080777069776671248 }, "geometry": { "type": "LineString", "coordinates": [ [ -85.083067507, 31.159931794 ], [ -85.082247302, 31.160122499 ] ] } },
{ "type": "Feature", "properties": { "site_no": "02344000", "nhdplus_comid": "2310487", "navigation_mode": "UM", "requested_distance_km": 12.0, "start_source": "nwissite", "start_id": "USGS-02344000", "geometry_length_km": 1.7947244717896678 }, "geometry": { "type": "LineString", "coordinates": [ [ -85.099720806, 31.166051097 ], [ -85.098610707, 31.164855994 ], [ -85.095793806, 31.163357094 ], [ -85.092301302, 31.160977297 ], [ -85.083067507, 31.159931794 ] ] } },
{ "type": "Feature", "properties": { "site_no": "02344000", "nhdplus_comid": "2310479", "navigation_mode": "UM", "requested_distance_km": 12.0, "start_source": "nwissite", "start_id": "USGS-02344000", "geometry_length_km": 2.6055585048885703 }, "geometry": { "type": "LineString", "coordinates": [ [ -85.105100505, 31.186260596 ], [ -85.102922402, 31.185910694 ], [ -85.100889005, 31.184489198 ], [ -85.099362306, 31.182845995 ], [ -85.098221704, 31.180697896 ], [ -85.098209403, 31.179610893 ], [ -85.097931907, 31.179312199 ], [ -85.098720506, 31.171110399 ], [ -85.099720806, 31.166051097 ] ] } }
]
}
