{
"type": "FeatureCollection",
"name": "USGS_02363000_UM_12km",
"crs": { "type": "name", "properties": { "name": "urn:ogc:def:crs:OGC:1.3:CRS84" } },
"features": [
{ "type": "Feature", "properties": { "site_no": "02363000", "nhdplus_comid": "2210130", "navigation_mode": "UM", "requested_distance_km": 12.0, "start_source": "nwissite", "start_id": "USGS-02363000", "geometry_length_km": 0.19391330893228451 }, "geometry": { "type": "LineString", "coordinates": [ [ -85.781999201, 31.596387796 ], [ -85.782427706, 31.596158899 ], [ -85.783271313, 31.595059716 ] ] } },
{ "type": "Feature", "properties": { "site_no": "02363000", "nhdplus_comid": "2210116", "navigation_mode": "UM", "requested_distance_km": 12.0, "start_source": "nwissite", "start_id": "USGS-02363000", "geometry_length_km": 0.13413883111453559 }, "geometry": { "type": "LineString", "coordinates": [ [ -85.780687705, 31.596088894 ], [ -85.781570807, 31.596456096 ], [ -85.781999201, 31.596387796 ] ] } },
{ "type": "Feature", "properties": { "site_no": "02363000", "nhdplus_comid": "2210118", "navigation_mode": "UM", "requested_distance_km": 12.0, "start_source": "nwissite", "start_id": "USGS-02363000", "geometry_length_km": 0.8196601411899197 }, "geometry": { "type": "LineString", "coordinates": [ [ -85.7768877, 31.594871596 ], [ -85.776244804, 31.595283598 ], [ -85.776190601, 31.595833398 ], [ -85.776351005, 31.596039794 ], [ -85.777020104, 31.596177794 ], [ -85.777635805, 31.596155398 ], [ -85.778038003, 31.595628597 ], [ -85.778493002, 31.595674798 ], [ -85.778706901, 31.595927 ], [ -85.778786905, 31.5962478 ], [ -85.778652601, 31.596614294 ], [ -85.778652303, 31.597026698 ], [ -85.778812803, 31.597187199 ], [ -85.779080503, 31.597164497 ], [ -85.779402003, 31.5969586 ], [ -85.779830903, 31.596294396 ], [ -85.780259401, 31.596088499 ], [ -85.780687705, 31.596088894 ] ] } },
{ "type": "Feature", "properties": { "site_no": "02363000", "nhdplus_comid": "2210122", "navigation_mode": "UM", "requested_distance_km": 12.0, "start_source": "nwissite", "start_id": "USGS-02363000", "geometry_length_km": 0.066505632248360008 }, "geometry": { "type": "LineString", "coordinates": [ [ -85.776486501, 31.594550498 ], [ -85.776861206, 31.594596595 ], [ -85.7768877, 31.594871596 ] ] } },
{ "type": "Feature", "properties": { "site_no": "02363000", "nhdplus_comid": "2210120", "navigation_mode": "UM", "requested_distance_km": 12.0, "start_source": "nwissite", "start_id": "USGS-02363000", "geometry_length_km": 2.4041701678455834 }, "geometry": { "type": "LineString", "coordinates": [ [ -85.755566806, 31.604362197 ], [ -85.756370105, 31.604225494 ], [ -85.756718501, 31.603996694 ], [ -85.757094502, 31.603057593 ], [ -85.757603906, 31.602553993 ], [ -85.758193307, 31.602164894 ], [ -85.759505704, 31.601707898 ], [ -85.760362506, 31.601662897 ], [ -85.760603301, 31.601754799 ], [ -85.7611119, 31.6017095 ], [ -85.7617817, 31.601389296 ], [ -85.763014704, 31.600175798 ], [ -85.764220506, 31.599191695 ], [ -85.766791902, 31.597956695 ], [ -85.769067906, 31.597477399 ], [ -85.770621203, 31.596997499 ], [ -85.772575706, 31.596792795 ], [ -85.773914106, 31.596770994 ], [ -85.774369501, 31.596565098 ], [ -85.774771303, 31.596290499 ], [ -85.775120206, 31.595465899 ], [ -85.7754419, 31.595122494 ], [ -85.776111603, 31.594664797 ], [ -85.776486501, 31.594550498 ] ] } },
{ "type": "Feature", "properties": { "site_no": "02363000", "nhdplus_comid": "2210092", "navigation_mode": "UM", "requested_distance_km": 12.0, "start_source": "nwissite", "start_id": "USGS-02363000", "geometry_length_km": 0.31594492197174467 }, "geometry": { "type": "LineString", "coordinates": [ [ -85.757465504, 31.606082395 ], [ -85.757439807, 31.605257593 ], [ -85.757199101, 31.605119899 ], [ -85.756369203, 31.6050504 ], [ -85.755620003, 31.604682997 ], [ -85.755566806, 31.604362197 ] ] } },
{ "type": "Feature", "properties": { "site_no": "02363000", "nhdplus_comid": "2211056", "navigation_mode": "UM", "requested_distance_km": 12.0, "start_source": "nwissite", "start_id": "USGS-02363000", "geometry_length_km": 2.5866784800801397 }, "geometry": { "type": "LineString", "coordinates": [ [ -85.747169703, 31.617588997 ], [ -85.747089006, 31.617428593 ], [ -85.747061901, 31.617107898 ], [ -85.748024903, 31.6163738 ], [ -85.7481049, 31.616167396 ], [ -85.748077907, 31.615938395 ], [ -85.747542106, 31.615663894 ], [ -85.747487903, 31.615205698 ], [ -85.748584405, 31.614265196 ], [ -85.749387503, 31.614172697 ], [ -85.749521203, 31.613989294 ], [ -85.749547705, 31.613782994 ], [ -85.749359906, 31.613485396 ], [ -85.749252304, 31.613164693 ], [ -85.749572903, 31.612591594 ], [ -85.7499476, 31.612476699 ], [ -85.750335, 31.612697497 ], [ -85.750762202, 31.613568693 ], [ -85.7510565, 31.613752298 ], [ -85.751270607, 31.613798298 ], [ -85.751431502, 31.613706797 ], [ -85.751485303, 31.613431893 ], [ -85.751245305, 31.612767197 ], [ -85.750897601, 31.612468898 ], [ -85.750202604, 31.611666396 ], [ -85.750310205, 31.611299798 ], [ -85.750497706, 31.611185394 ], [ -85.751541704, 31.611369796 ], [ -85.751756005, 31.6112784 ], [ -85.751782902, 31.611163795 ], [ -85.751944907, 31.610132799 ], [ -85.752723202, 31.608781695 ], [ -85.753635101, 31.6075911 ], [ -85.754385106, 31.607293993 ], [ -85.755215205, 31.607157297 ], [ -85.755429506, 31.607065894 ], [ -85.755349606, 31.606767893 ], [ -85.755028807, 31.606378093 ], [ -85.754975706, 31.6060801 ], [ -85.755083106, 31.6058053 ], [ -85.755591802, 31.605782799 ], [ -85.755939603, 31.605989397 ], [ -85.756634705, 31.606723294 ], [ -85.756929204, 31.606815197 ], [ -85.757170103, 31.606769599 ], [ -85.757357806, 31.606609397 ], [ -85.757465504, 31.606082395 ] ] } },
{ "type": "Feature", "properties": { "site_no": "02363000", "nhdplus_comid": "2210030", "navigation_mode": "UM", "requested_distance_km": 12.0, "start_source": "nwissite", "start_id": "USGS-02363000", "geometry_length_km": 0.23546972008421063 }, "geometry": { "type": "LineString", "coordinates": [ [ -85.745618306, 31.618896395 ], [ -85.746528506, 31.618712194 ], [ -85.746849701, 31.618551597 ], [ -85.747009903, 31.618230596 ], [ -85.747169703, 31.617588997 ] ] } },
{ "type": "Feature", "properties": { "site_no": "02363000", "nhdplus_comid": "2210024", "navigation_mode": "UM", "requested_distance_km": 12.0, "start_source": "nwissite", "start_id": "USGS-02363000", "geometry_length_km": 0.020240055173460718 }, "geometry": { "type": "LineString", "coordinates": [ [ -85.745404102, 31.618896596 ], [ -85.745618306, 31.618896395 ] ] } },
{ "type": "Feature", "properties": { "site_no": "02363000", "nhdplus_comid": "2210022", "navigation_mode": "UM", "requested_distance_km": 12.0, "start_source": "nwissite", "start_id": "USGS-02363000", "geometry_length_km": 0.07961399218016138 }, "geometry": { "type": "LineString", "coordinates": [ [ -85.744788803, 31.6193325 ], [ -85.7452171, 31.619171694 ], [ -85.745404102, 31.618896596 ] ] } },
{ "type": "Feature", "properties": { "site_no": "02363000", "nhdplus_comid": "2211048", "navigation_mode": "UM", "requested_distance_km": 12.0, "start_source": "nwissite", "start_id": "USGS-02363000", "geometry_length_km": 0.23642081098347603 }, "geometry": { "type": "LineString", "coordinates": [ [ -85.742325403, 31.619357698 ], [ -85.742753707, 31.619242698 ], [ -85.744012102, 31.6191957 ], [ -85.744788803, 31.6193325 ] ] } },
{ "type": "Feature", "properties": { "site_no": "02363000", "nhdplus_comid": "2211046", "navigation_mode": "UM", "requested_distance_km": 12.0, "start_source": "nwissite", "start_id": "USGS-02363000", "geometry_length_km": 2.7827618082957946 }, "geometry": { "type": "LineString", "coordinates": [ [ -85.730723605, 31.636529297 ], [ -85.731365703, 31.636024594 ], [ -85.7312847, 31.635451898 ], [ -85.731097206, 31.635360397 ], [ -85.731070206, 31.635131195 ], [ -85.730399802, 31.6343069 ], [ -85.730372503, 31.633848697 ], [ -85.731095001, 31.633321099 ], [ -85.731094606, 31.633069098 ], [ -85.730907001, 31.632885896 ], [ -85.730077006, 31.632955298 ], [ -85.729782201, 31.6327722 ], [ -85.7297552, 31.632588997 ], [ -85.729781702, 31.632382795 ], [ -85.730049007, 31.631992996 ], [ -85.730450407, 31.631648995 ], [ -85.730717801, 31.631236397 ], [ -85.730824105, 31.630548894 ], [ -85.731144801, 31.629929997 ], [ -85.732481904, 31.628324896 ], [ -85.733498506, 31.627430499 ], [ -85.733846404, 31.627246998 ], [ -85.734728903, 31.626169398 ], [ -85.735504203, 31.625183396 ], [ -85.7357447, 31.624610394 ], [ -85.736252904, 31.624220498 ], [ -85.736895204, 31.623853296 ], [ -85.737617902, 31.623623498 ], [ -85.738528304, 31.6235082 ], [ -85.739920303, 31.6233695 ], [ -85.740214601, 31.623140097 ], [ -85.740134105, 31.622911096 ], [ -85.7396781, 31.622292899 ], [ -85.739677802, 31.622040793 ], [ -85.739811406, 31.621834397 ], [ -85.740052305, 31.621719599 ], [ -85.740774907, 31.621444099 ], [ -85.741096005, 31.621237598 ], [ -85.7410421, 31.620962694 ], [ -85.740854502, 31.620825395 ], [ -85.740747005, 31.620367199 ], [ -85.741415307, 31.619610496 ], [ -85.741763204, 31.619403996 ], [ -85.742325403, 31.619357698 ] ] } },
{ "type": "Feature", "properties": { "site_no": "02363000", "nhdplus_comid": "2209950", "navigation_mode": "UM", "requested_distance_km": 12.0, "start_source": "nwissite", "start_id": "USGS-02363000", "geometry_length_km": 0.1758655647778975 }, "geometry": { "type": "LineString", "coordinates": [ [ -85.728929602, 31.636782698 ], [ -85.729572006, 31.636644699 ], [ -85.730188102, 31.636712998 ], [ -85.730723605, 31.636529297 ] ] } },
{ "type": "Feature", "properties": { "site_no": "02363000", "nhdplus_comid": "2209948", "navigation_mode": "UM", "requested_distance_km": 12.0, "start_source": "nwissite", "start_id": "USGS-02363000", "geometry_length_km": 0.24949856082950458 }, "geometry": { "type": "LineString", "coordinates": [ [ -85.728556804, 31.638845198 ], [ -85.728449501, 31.638684899 ], [ -85.728287905, 31.637837194 ], [ -85.7284749, 31.637355797 ], [ -85.728929602, 31.636782698 ] ] } },
{ "type": "Feature", "properties": { "site_no": "02363000", "nhdplus_comid": "2209940", "navigation_mode": "UM", "requested_distance_km": 12.0, "start_source": "nwissite", "start_id": "USGS-02363000", "geometry_length_km": 0.15655047430215607 }, "geometry": { "type": "LineString", "coordinates": [ [ -85.728049301, 31.640151598 ], [ -85.728503905, 31.639440894 ], [ -85.728556804, 31.638845198 ] ] } },
{ "type": "Feature", "properties": { "site_no": "02363000", "nhdplus_comid": "2209934", "navigation_mode": "UM", "requested_distance_km": 12.0, "start_source": "nwissite", "start_id": "USGS-02363000", "geometry_length_km": 0.19528996692706302 }, "geometry": { "type": "LineString", "coordinates": [ [ -85.727649406, 31.641801596 ], [ -85.727997206, 31.641388893 ], [ -85.727969207, 31.640403599 ], [ -85.728049301, 31.640151598 ] ] } },
{ "type": "Feature", "properties": { "site_no": "02363000", "nhdplus_comid": "2209922", "navigation_mode": "UM", "requested_distance_km": 12.0, "start_source": "nwissite", "start_id": "USGS-02363000", "geometry_length_km": 0.25553978499094909 }, "geometry": { "type": "LineString", "coordinates": [ [ -85.727007903, 31.643016495 ], [ -85.726338103, 31.642833799 ], [ -85.726337805, 31.642467096 ], [ -85.726765804, 31.642077297 ], [ -85.727649406, 31.641801596 ] ] } },
{ "type": "Feature", "properties": { "site_no": "02363000", "nhdplus_comid": "2209918", "navigation_mode": "UM", "requested_distance_km": 12.0, "start_source": "nwissite", "start_id": "USGS-02363000", "geometry_length_km": 0.29655791443963442 }, "geometry": { "type": "LineString", "coordinates": [ [ -85.726019301, 31.645262696 ], [ -85.7259918, 31.644644 ], [ -85.726179004, 31.644368999 ], [ -85.726768002, 31.644139498 ], [ -85.727062002, 31.6435664 ], [ -85.727007903, 31.643016495 ] ] } },
{ "type": "Feature", "properties": { "site_no": "02363000", "nhdplus_comid": "2209910", "navigation_mode": "UM", "requested_distance_km": 12.0, "start_source": "nwissite", "start_id": "USGS-02363000", "geometry_length_km": 0.21723356414198952 }, "geometry": { "type": "LineString", "coordinates": [ [ -85.724787705, 31.645653099 ], [ -85.724679902, 31.645126194 ], [ -85.724760301, 31.645057499 ], [ -85.725429803, 31.645033993 ], [ -85.725590907, 31.645377599 ], [ -85.726019301, 31.645262696 ] ] } }
]
}
