{
"type": "FeatureCollection",
"name": "USGS_02418764_UM_12km",
"crs": { "type": "name", "properties": { "name": "urn:ogc:def:crs:OGC:1.3:CRS84" } },
"features": [
{ "type": "Feature", "properties": { "site_no": "02418764", "nhdplus_comid": "21712422", "navigation_mode": "UM", "requested_distance_km": 12.0, "start_source": "nwissite", "start_id": "USGS-02418764", "geometry_length_km": 1.6007795705883479 }, "geometry": { "type": "LineString", "coordinates": [ [ -85.471720502, 32.599461995 ], [ -85.4717471, 32.598980896 ], [ -85.471394204, 32.597973198 ], [ -85.470445402, 32.596255995 ], [ -85.469199702, 32.595363498 ], [ -85.468874402, 32.594859697 ], [ -85.468684405, 32.594310097 ], [ -85.4686561, 32.593050197 ], [ -85.468926102, 32.592408597 ], [ -85.470250301, 32.590689495 ], [ -85.471087001, 32.588627197 ], [ -85.472167306, 32.586725093 ], [ -85.472273887, 32.586614372 ] ] } },
{ "type": "Feature", "properties": { "site_no": "02418764", "nhdplus_comid": "21712304", "navigation_mode": "UM", "requested_distance_km": 12.0, "start_source": "nwissite", "start_id": "USGS-02418764", "geometry_length_km": 0.79926232169728351 }, "geometry": { "type": "LineString", "coordinates": [ [ -85.470401503, 32.606449798 ], [ -85.470428005, 32.605854198 ], [ -85.471103504, 32.604777098 ], [ -85.471316203, 32.601111695 ], [ -85.471720502, 32.599461995 ] ] } }
]
}
