{
"type": "FeatureCollection",
"name": "USGS_02454200_DM_12km",
"crs": { "type": "name", "properties": { "name": "urn:ogc:def:crs:OGC:1.3:CRS84" } },
"features": [
{ "type": "Feature", "properties": { "site_no": "02454200", "nhdplus_comid": "18591830", "navigation_mode": "DM", "requested_distance_km": 12.0, "start_source": "nwissite", "start_id": "USGS-02454200", "geometry_length_km": 0.23416216872670789 }, "geometry": { "type": "LineString", "coordinates": [ [ -87.387245758, 33.672755777 ], [ -87.386621706, 33.672849 ], [ -87.385909304, 33.672803193 ], [ -87.385059901, 33.672459699 ], [ -87.384813301, 33.672436796 ] ] } },
{ "type": "Feature", "properties": { "site_no": "02454200", "nhdplus_comid": "18591844", "navigation_mode": "DM", "requested_distance_km": 12.0, "start_source": "nwissite", "start_id": "USGS-02454200", "geometry_length_km": 7.4974502168635908 }, "geometry": { "type": "LineString", "coordinates": [ [ -87.384813301, 33.672436796 ], [ -87.384374805, 33.672276497 ], [ -87.382621303, 33.671795398 ], [ -87.381634802, 33.671657994 ], [ -87.380703203, 33.671703897 ], [ -87.380237505, 33.671955995 ], [ -87.378949903, 33.672986895 ], [ -87.378155403, 33.673468098 ], [ -87.377799101, 33.673559695 ], [ -87.377141505, 33.673536897 ], [ -87.376511306, 33.673330694 ], [ -87.375004306, 33.672620393 ], [ -87.374538504, 33.672460094 ], [ -87.372812405, 33.671978995 ], [ -87.370264202, 33.671429195 ], [ -87.368592903, 33.671177 ], [ -87.367633902, 33.670901999 ], [ -87.366812006, 33.670512594 ], [ -87.364373602, 33.669046097 ], [ -87.363798305, 33.668794096 ], [ -87.362839401, 33.668106697 ], [ -87.3626476, 33.667831793 ], [ -87.362236805, 33.666961193 ], [ -87.362373807, 33.666777998 ], [ -87.362812102, 33.666755095 ], [ -87.364291601, 33.667419598 ], [ -87.364565603, 33.667419598 ], [ -87.365140803, 33.667007297 ], [ -87.3653052, 33.666755296 ], [ -87.3653327, 33.666457497 ], [ -87.365195803, 33.666067995 ], [ -87.364209503, 33.6654035 ], [ -87.363524601, 33.665197194 ], [ -87.361058906, 33.664945096 ], [ -87.360675305, 33.6647847 ], [ -87.359634303, 33.664143093 ], [ -87.359278202, 33.663707696 ], [ -87.3594153, 33.6632725 ], [ -87.359826304, 33.662951693 ], [ -87.361497603, 33.662241697 ], [ -87.362401806, 33.661600396 ], [ -87.363004602, 33.660798594 ], [ -87.363196403, 33.660179995 ], [ -87.363223903, 33.659240797 ], [ -87.3629499, 33.658667997 ], [ -87.362456903, 33.658232793 ], [ -87.360731006, 33.657338999 ], [ -87.358019203, 33.656307794 ], [ -87.356649503, 33.656101294 ], [ -87.3562112, 33.656101294 ], [ -87.355800301, 33.656238697 ], [ -87.355526403, 33.656490698 ], [ -87.355307102, 33.656879999 ], [ -87.355279706, 33.657154895 ], [ -87.354813702, 33.658117197 ], [ -87.354704201, 33.658162996 ], [ -87.354676701, 33.658277497 ], [ -87.353635505, 33.658895895 ], [ -87.351881906, 33.660201393 ], [ -87.351334006, 33.660384595 ], [ -87.350676402, 33.660476096 ], [ -87.349936903, 33.660040595 ], [ -87.349334307, 33.659559399 ], [ -87.348923504, 33.6590553 ], [ -87.348923706, 33.658642896 ], [ -87.349115603, 33.6579099 ], [ -87.350211807, 33.656718895 ], [ -87.351910606, 33.654909298 ], [ -87.353938401, 33.652023099 ], [ -87.354623407, 33.651244298 ], [ -87.354924604, 33.651175596 ], [ -87.356403902, 33.651381895 ], [ -87.356650405, 33.651313297 ], [ -87.356869601, 33.651107095 ], [ -87.3568701, 33.648243494 ], [ -87.356787905, 33.647808194 ] ] } },
{ "type": "Feature", "properties": { "site_no": "02454200", "nhdplus_comid": "18591856", "navigation_mode": "DM", "requested_distance_km": 12.0, "start_source": "nwissite", "start_id": "USGS-02454200", "geometry_length_km": 2.9730786417652162 }, "geometry": { "type": "LineString", "coordinates": [ [ -87.356787905, 33.647808194 ], [ -87.3561306, 33.647510193 ], [ -87.355089903, 33.646708198 ], [ -87.354076505, 33.646501899 ], [ -87.352871202, 33.646547496 ], [ -87.351309903, 33.646799296 ], [ -87.3495294, 33.647234097 ], [ -87.348132402, 33.6474858 ], [ -87.3476393, 33.647485696 ], [ -87.347310707, 33.647119097 ], [ -87.347037107, 33.645950697 ], [ -87.346955106, 33.645286299 ], [ -87.346790902, 33.6446907 ], [ -87.346544504, 33.644415498 ], [ -87.346243106, 33.644346699 ], [ -87.345859706, 33.644438297 ], [ -87.345777504, 33.644552894 ], [ -87.345750101, 33.644965194 ], [ -87.3459142, 33.645469293 ], [ -87.345914103, 33.6460879 ], [ -87.345776804, 33.646798 ], [ -87.345530204, 33.647278994 ], [ -87.345365703, 33.647439398 ], [ -87.345256105, 33.647714294 ], [ -87.344680704, 33.648149393 ], [ -87.342927404, 33.648904994 ], [ -87.3425164, 33.649179794 ], [ -87.341173902, 33.649843797 ], [ -87.340516403, 33.650049798 ], [ -87.339804202, 33.650049597 ], [ -87.339338601, 33.649820395 ], [ -87.338763505, 33.649316095 ], [ -87.338298202, 33.6486746 ], [ -87.337832905, 33.647620596 ], [ -87.337175906, 33.646703996 ], [ -87.335916601, 33.645260297 ], [ -87.335642703, 33.645191498 ] ] } }
]
}
