{
"type": "FeatureCollection",
"name": "USGS_02400100_UM_12km",
"crs": { "type": "name", "properties": { "name": "urn:ogc:def:crs:OGC:1.3:CRS84" } },
"features": [
{ "type": "Feature", "properties": { "site_no": "02400100", "nhdplus_comid": "15823141", "navigation_mode": "UM", "requested_distance_km": 12.0, "start_source": "nwissite", "start_id": "USGS-02400100", "geometry_length_km": 0.40461129038354887 }, "geometry": { "type": "LineString", "coordinates": [ [ -85.610600606, 34.062084794 ], [ -85.613159701, 34.063390493 ], [ -85.614287905, 34.063825794 ], [ -85.614437991, 34.063857284 ] ] } },
{ "type": "Feature", "properties": { "site_no": "02400100", "nhdplus_comid": "15822465", "navigation_mode": "UM", "requested_distance_km": 12.0, "start_source": "nwissite", "start_id": "USGS-02400100", "geometry_length_km": 2.8488192369329481 }, "geometry": { "type": "LineString", "coordinates": [ [ -85.600231804, 34.042592198 ], [ -85.601717204, 34.043806396 ], [ -85.602047101, 34.044424795 ], [ -85.602102004, 34.045295194 ], [ -85.602459401, 34.046005294 ], [ -85.602982007, 34.046646699 ], [ -85.604357406, 34.047860794 ], [ -85.604770102, 34.047998399 ], [ -85.606751204, 34.047861293 ], [ -85.608071901, 34.047930196 ], [ -85.608704701, 34.048182197 ], [ -85.609089904, 34.048479997 ], [ -85.609502405, 34.049762696 ], [ -85.610025004, 34.0503124 ], [ -85.610850401, 34.050701894 ], [ -85.611290604, 34.051274493 ], [ -85.612170607, 34.054114595 ], [ -85.612665705, 34.055236995 ], [ -85.612830706, 34.056038596 ], [ -85.6127754, 34.057160795 ], [ -85.612445101, 34.058145598 ], [ -85.611756906, 34.0594052 ], [ -85.610628404, 34.060802199 ], [ -85.610463202, 34.061191596 ], [ -85.610518105, 34.061855696 ], [ -85.610600606, 34.062084794 ] ] } },
{ "type": "Feature", "properties": { "site_no": "02400100", "nhdplus_comid": "15822557", "navigation_mode": "UM", "requested_distance_km": 12.0, "start_source": "nwissite", "start_id": "USGS-02400100", "geometry_length_km": 4.4408148971333725 }, "geometry": { "type": "LineString", "coordinates": [ [ -85.615255602, 34.029974796 ], [ -85.615228005, 34.030341193 ], [ -85.614925303, 34.030822195 ], [ -85.6144851, 34.030982397 ], [ -85.613412201, 34.031050995 ], [ -85.610303305, 34.032928795 ], [ -85.609588102, 34.033066094 ], [ -85.608955406, 34.032997295 ], [ -85.608322702, 34.033042997 ], [ -85.606176704, 34.033935897 ], [ -85.603315502, 34.034393497 ], [ -85.602380201, 34.034232996 ], [ -85.601802602, 34.033957995 ], [ -85.601032406, 34.033316597 ], [ -85.600757502, 34.032423295 ], [ -85.600345001, 34.032033898 ], [ -85.599932507, 34.031850494 ], [ -85.599244706, 34.031941995 ], [ -85.598199107, 34.0326747 ], [ -85.597813606, 34.033430398 ], [ -85.597263306, 34.033957094 ], [ -85.596740507, 34.034300499 ], [ -85.595337301, 34.034895599 ], [ -85.593768604, 34.036154799 ], [ -85.593603507, 34.0364068 ], [ -85.592007406, 34.037734695 ], [ -85.590218805, 34.038741998 ], [ -85.589585707, 34.0393143 ], [ -85.588374503, 34.040756896 ], [ -85.588594407, 34.0413066 ], [ -85.589391902, 34.042039797 ], [ -85.589887105, 34.042314693 ], [ -85.590437204, 34.042521097 ], [ -85.590849906, 34.042521097 ], [ -85.592693403, 34.042155199 ], [ -85.593931407, 34.042270094 ], [ -85.595362201, 34.042110093 ], [ -85.597315803, 34.041560896 ], [ -85.598141201, 34.041652694 ], [ -85.599379204, 34.042019397 ], [ -85.600231804, 34.042592198 ] ] } },
{ "type": "Feature", "properties": { "site_no": "02400100", "nhdplus_comid": "15822571", "navigation_mode": "UM", "requested_distance_km": 12.0, "start_source": "nwissite", "start_id": "USGS-02400100", "geometry_length_km": 0.38039018672134189 }, "geometry": { "type": "LineString", "coordinates": [ [ -85.612752505, 34.027615398 ], [ -85.613660306, 34.027752995 ], [ -85.614045404, 34.028050795 ], [ -85.614320502, 34.028531693 ], [ -85.614430301, 34.029035598 ], [ -85.614733003, 34.029447898 ], [ -85.615090504, 34.029722899 ], [ -85.615255602, 34.029974796 ] ] } },
{ "type": "Feature", "properties": { "site_no": "02400100", "nhdplus_comid": "15822623", "navigation_mode": "UM", "requested_distance_km": 12.0, "start_source": "nwissite", "start_id": "USGS-02400100", "geometry_length_km": 1.8180259685328586 }, "geometry": { "type": "LineString", "coordinates": [ [ -85.597900704, 34.019642599 ], [ -85.598368205, 34.020054996 ], [ -85.598505206, 34.021474995 ], [ -85.5988627, 34.022070594 ], [ -85.600430101, 34.023399293 ], [ -85.60142, 34.024659194 ], [ -85.602327503, 34.025575496 ], [ -85.603840202, 34.026400298 ], [ -85.6051879, 34.026904494 ], [ -85.605765603, 34.026973195 ], [ -85.607278705, 34.026881896 ], [ -85.6078564, 34.026675798 ], [ -85.612009905, 34.027615398 ], [ -85.612752505, 34.027615398 ] ] } },
{ "type": "Feature", "properties": { "site_no": "02400100", "nhdplus_comid": "15822669", "navigation_mode": "UM", "requested_distance_km": 12.0, "start_source": "nwissite", "start_id": "USGS-02400100", "geometry_length_km": 2.2738521093105462 }, "geometry": { "type": "LineString", "coordinates": [ [ -85.588604704, 34.017441399 ], [ -85.589017704, 34.016708694 ], [ -85.589870706, 34.0157241 ], [ -85.591108903, 34.014533497 ], [ -85.5937225, 34.012427099 ], [ -85.595208004, 34.011442594 ], [ -85.596115701, 34.011099294 ], [ -85.5968033, 34.010961995 ], [ -85.598205902, 34.011191398 ], [ -85.599003404, 34.011649698 ], [ -85.599195801, 34.011947393 ], [ -85.599278204, 34.012245193 ], [ -85.599058002, 34.012703195 ], [ -85.597572401, 34.014283195 ], [ -85.597489707, 34.014695399 ], [ -85.597516902, 34.015909299 ], [ -85.597736806, 34.016367495 ], [ -85.598561503, 34.017535694 ], [ -85.598478705, 34.018428899 ], [ -85.597983405, 34.019184597 ], [ -85.597900704, 34.019642599 ] ] } }
]
}
