{
"type": "FeatureCollection",
"name": "USGS_03584600_UM_12km",
"crs": { "type": "name", "properties": { "name": "urn:ogc:def:crs:OGC:1.3:CRS84" } },
"features": [
{ "type": "Feature", "properties": { "site_no": "03584600", "nhdplus_comid": "19594712", "navigation_mode": "UM", "requested_distance_km": 12.0, "start_source": "nwissite", "start_id": "USGS-03584600", "geometry_length_km": 0.11893380014195876 }, "geometry": { "type": "LineString", "coordinates": [ [ -86.993463106, 35.013591096 ], [ -86.994761605, 35.013754758 ] ] } },
{ "type": "Feature", "properties": { "site_no": "03584600", "nhdplus_comid": "19594728", "navigation_mode": "UM", "requested_distance_km": 12.0, "start_source": "nwissite", "start_id": "USGS-03584600", "geometry_length_km": 0.95810988422378307 }, "geometry": { "type": "LineString", "coordinates": [ [ -86.984966002, 35.009224497 ], [ -86.985550404, 35.0089949 ], [ -86.985940106, 35.009017393 ], [ -86.987472303, 35.009794794 ], [ -86.989562504, 35.011464797 ], [ -86.990398005, 35.011715896 ], [ -86.9912064, 35.012356497 ], [ -86.993407302, 35.013430893 ], [ -86.993463106, 35.013591096 ] ] } },
{ "type": "Feature", "properties": { "site_no": "03584600", "nhdplus_comid": "19594724", "navigation_mode": "UM", "requested_distance_km": 12.0, "start_source": "nwissite", "start_id": "USGS-03584600", "geometry_length_km": 0.030229326333144287 }, "geometry": { "type": "LineString", "coordinates": [ [ -86.984632, 35.009224795 ], [ -86.984966002, 35.009224497 ] ] } },
{ "type": "Feature", "properties": { "site_no": "03584600", "nhdplus_comid": "19594730", "navigation_mode": "UM", "requested_distance_km": 12.0, "start_source": "nwissite", "start_id": "USGS-03584600", "geometry_length_km": 0.063456875462780102 }, "geometry": { "type": "LineString", "coordinates": [ [ -86.984186001, 35.008789994 ], [ -86.984548301, 35.009110399 ], [ -86.984632, 35.009224795 ] ] } },
{ "type": "Feature", "properties": { "site_no": "03584600", "nhdplus_comid": "19594750", "navigation_mode": "UM", "requested_distance_km": 12.0, "start_source": "nwissite", "start_id": "USGS-03584600", "geometry_length_km": 1.5194488264137336 }, "geometry": { "type": "LineString", "coordinates": [ [ -86.969816104, 35.004175395 ], [ -86.971736602, 35.003990695 ], [ -86.976135105, 35.004170299 ], [ -86.978250906, 35.004328899 ], [ -86.979281105, 35.004556999 ], [ -86.979754604, 35.004785597 ], [ -86.980841301, 35.005654998 ], [ -86.981426805, 35.006364696 ], [ -86.981844902, 35.006707795 ], [ -86.982067905, 35.007005394 ], [ -86.983851403, 35.008332297 ], [ -86.984158002, 35.008652598 ], [ -86.984186001, 35.008789994 ] ] } },
{ "type": "Feature", "properties": { "site_no": "03584600", "nhdplus_comid": "19594748", "navigation_mode": "UM", "requested_distance_km": 12.0, "start_source": "nwissite", "start_id": "USGS-03584600", "geometry_length_km": 0.073476066060174802 }, "geometry": { "type": "LineString", "coordinates": [ [ -86.969036803, 35.004359297 ], [ -86.969816104, 35.004175395 ] ] } },
{ "type": "Feature", "properties": { "site_no": "03584600", "nhdplus_comid": "19594744", "navigation_mode": "UM", "requested_distance_km": 12.0, "start_source": "nwissite", "start_id": "USGS-03584600", "geometry_length_km": 1.6626582799541136 }, "geometry": { "type": "LineString", "coordinates": [ [ -86.951837204, 35.008104898 ], [ -86.952895202, 35.008241698 ], [ -86.954844005, 35.008377895 ], [ -86.957015306, 35.008399196 ], [ -86.958017401, 35.008238196 ], [ -86.960605502, 35.007365994 ], [ -86.9622472, 35.006723598 ], [ -86.964556307, 35.005347595 ], [ -86.966893807, 35.004704393 ], [ -86.969036803, 35.004359297 ] ] } },
{ "type": "Feature", "properties": { "site_no": "03584600", "nhdplus_comid": "19594738", "navigation_mode": "UM", "requested_distance_km": 12.0, "start_source": "nwissite", "start_id": "USGS-03584600", "geometry_length_km": 0.50907861839170865 }, "geometry": { "type": "LineString", "coordinates": [ [ -86.946297005, 35.007581599 ], [ -86.948774502, 35.007534198 ], [ -86.950083002, 35.007716596 ], [ -86.951837204, 35.008104898 ] ] } },
{ "type": "Feature", "properties": { "site_no": "03584600", "nhdplus_comid": "19594736", "navigation_mode": "UM", "requested_distance_km": 12.0, "start_source": "nwissite", "start_id": "USGS-03584600", "geometry_length_km": 0.69383840990895007 }, "geometry": { "type": "LineString", "coordinates": [ [ -86.939701706, 35.010608695 ], [ -86.940592006, 35.009852394 ], [ -86.942094602, 35.009072796 ], [ -86.9431521, 35.008659899 ], [ -86.946297005, 35.007581599 ] ] } },
{ "type": "Feature", "properties": { "site_no": "03584600", "nhdplus_comid": "19594720", "navigation_mode": "UM", "requested_distance_km": 12.0, "start_source": "nwissite", "start_id": "USGS-03584600", "geometry_length_km": 2.3520418532549194 }, "geometry": { "type": "LineString", "coordinates": [ [ -86.945312701, 35.028699994 ], [ -86.945674703, 35.028699793 ], [ -86.946621306, 35.028424397 ], [ -86.947400406, 35.027897194 ], [ -86.947650507, 35.027324393 ], [ -86.9471469, 35.024461597 ], [ -86.946476102, 35.021507293 ], [ -86.945638701, 35.019056998 ], [ -86.945471406, 35.018782295 ], [ -86.944217302, 35.017454594 ], [ -86.9436322, 35.0167678 ], [ -86.941653803, 35.014753297 ], [ -86.940427706, 35.013356797 ], [ -86.939703107, 35.012349397 ], [ -86.939647302, 35.012166195 ], [ -86.9394795, 35.011227295 ], [ -86.939646207, 35.010906495 ], [ -86.939701706, 35.010608695 ] ] } },
{ "type": "Feature", "properties": { "site_no": "03584600", "nhdplus_comid": "19594702", "navigation_mode": "UM", "requested_distance_km": 12.0, "start_source": "nwissite", "start_id": "USGS-03584600", "geometry_length_km": 1.5238873459028874 }, "geometry": { "type": "LineString", "coordinates": [ [ -86.929050401, 35.027494498 ], [ -86.929858103, 35.027585797 ], [ -86.9354541, 35.026666895 ], [ -86.9372361, 35.026643097 ], [ -86.938767701, 35.026871294 ], [ -86.940076806, 35.027214199 ], [ -86.943084903, 35.028334893 ], [ -86.9445609, 35.028677598 ], [ -86.945312701, 35.028699994 ] ] } },
{ "type": "Feature", "properties": { "site_no": "03584600", "nhdplus_comid": "19594706", "navigation_mode": "UM", "requested_distance_km": 12.0, "start_source": "nwissite", "start_id": "USGS-03584600", "geometry_length_km": 2.4844072788891962 }, "geometry": { "type": "LineString", "coordinates": [ [ -86.908357203, 35.015912399 ], [ -86.908496402, 35.015981093 ], [ -86.911336102, 35.015774094 ], [ -86.912282705, 35.015636399 ], [ -86.9145099, 35.015566997 ], [ -86.915400803, 35.015772894 ], [ -86.915985607, 35.016024597 ], [ -86.917517401, 35.017169297 ], [ -86.919077404, 35.018909499 ], [ -86.919662707, 35.0200774 ], [ -86.920108505, 35.020741396 ], [ -86.921362303, 35.022115193 ], [ -86.923145004, 35.023397096 ], [ -86.924732901, 35.024701998 ], [ -86.926014505, 35.0260529 ], [ -86.926516004, 35.026441999 ], [ -86.927852906, 35.0271286 ], [ -86.929050401, 35.027494498 ] ] } }
]
}
