{
"type": "FeatureCollection",
"name": "USGS_02407900_DM_12km",
"crs": { "type": "name", "properties": { "name": "urn:ogc:def:crs:OGC:1.3:CRS84" } },
"features": [
{ "type": "Feature", "properties": { "site_no": "02407900", "nhdplus_comid": "22272912", "navigation_mode": "DM", "requested_distance_km": 12.0, "start_source": "nwissite", "start_id": "USGS-02407900", "geometry_length_km": 2.4284460415482165 }, "geometry": { "type": "LineString", "coordinates": [ [ -86.425436693, 33.037468662 ], [ -86.4257892, 33.037057094 ], [ -86.426305905, 33.036690295 ], [ -86.427176006, 33.036277495 ], [ -86.428780705, 33.035933197 ], [ -86.429378904, 33.035635099 ], [ -86.429596305, 33.035405897 ], [ -86.429487303, 33.035062298 ], [ -86.429242402, 33.034879096 ], [ -86.4276646, 33.034444496 ], [ -86.426848404, 33.0340783 ], [ -86.426331401, 33.033757694 ], [ -86.425814204, 33.033207998 ], [ -86.425814107, 33.032933094 ], [ -86.426140405, 33.032726794 ], [ -86.426630005, 33.032795295 ], [ -86.427310206, 33.033207394 ], [ -86.428643204, 33.033504695 ], [ -86.431608506, 33.034396999 ], [ -86.431989305, 33.034396693 ], [ -86.432016306, 33.034144796 ], [ -86.431825601, 33.033617899 ], [ -86.431526206, 33.033365995 ], [ -86.430301905, 33.032656297 ], [ -86.428696401, 33.031557299 ], [ -86.428723507, 33.031259395 ], [ -86.429103903, 33.0308927 ], [ -86.429865405, 33.030594498 ], [ -86.430300407, 33.0303194 ], [ -86.430626504, 33.029929794 ], [ -86.4307895, 33.029517293 ], [ -86.4308163, 33.028967395 ], [ -86.4309249, 33.028738193 ] ] } },
{ "type": "Feature", "properties": { "site_no": "02407900", "nhdplus_comid": "22272942", "navigation_mode": "DM", "requested_distance_km": 12.0, "start_source": "nwissite", "start_id": "USGS-02407900", "geometry_length_km": 1.7193691108955702 }, "geometry": { "type": "LineString", "coordinates": [ [ -86.4309249, 33.028738193 ], [ -86.431795105, 33.028302595 ], [ -86.432692103, 33.027614795 ], [ -86.433154106, 33.027087696 ], [ -86.433452904, 33.026468895 ], [ -86.433969304, 33.025918894 ], [ -86.434023604, 33.025712594 ], [ -86.434567206, 33.025231294 ], [ -86.434621304, 33.025070898 ], [ -86.435110606, 33.024589494 ], [ -86.435246304, 33.024245694 ], [ -86.435762905, 33.023924798 ], [ -86.436387807, 33.023099594 ], [ -86.437094502, 33.0225036 ], [ -86.437257402, 33.022205696 ], [ -86.438290305, 33.021357499 ], [ -86.438562006, 33.020922095 ], [ -86.438752204, 33.020807393 ], [ -86.439350501, 33.020761199 ], [ -86.4397313, 33.0208527 ], [ -86.440411501, 33.021173097 ], [ -86.441091403, 33.021172695 ], [ -86.441444807, 33.021057993 ], [ -86.441526301, 33.0209205 ], [ -86.441417404, 33.020714298 ], [ -86.440329105, 33.020142198 ], [ -86.440165803, 33.019958995 ], [ -86.440165602, 33.019706897 ], [ -86.440464504, 33.019340195 ], [ -86.440545902, 33.019156896 ] ] } },
{ "type": "Feature", "properties": { "site_no": "02407900", "nhdplus_comid": "22273020", "navigation_mode": "DM", "requested_distance_km": 12.0, "start_source": "nwissite", "start_id": "USGS-02407900", "geometry_length_km": 3.6907800684851231 }, "geometry": { "type": "LineString", "coordinates": [ [ -86.440545902, 33.019156896 ], [ -86.441089906, 33.019156598 ], [ -86.441878803, 33.019453995 ], [ -86.442422904, 33.019843198 ], [ -86.443157502, 33.0201407 ], [ -86.443674304, 33.020186193 ], [ -86.444054805, 33.019979797 ], [ -86.444054402, 33.019544497 ], [ -86.443863906, 33.019246697 ], [ -86.442258403, 33.017987497 ], [ -86.442203701, 33.017620899 ], [ -86.442448303, 33.0174146 ], [ -86.443019405, 33.017391399 ], [ -86.443726704, 33.017688796 ], [ -86.445277207, 33.018169098 ], [ -86.448187001, 33.0181446 ], [ -86.448703505, 33.0179151 ], [ -86.449600503, 33.017295994 ], [ -86.450089805, 33.017135397 ], [ -86.451041602, 33.017089099 ], [ -86.452291705, 33.016057193 ], [ -86.452454403, 33.015575998 ], [ -86.452372506, 33.015278198 ], [ -86.452127606, 33.015072197 ], [ -86.451746807, 33.014957897 ], [ -86.451474801, 33.014958099 ], [ -86.450659305, 33.015302196 ], [ -86.450224206, 33.015348196 ], [ -86.449625701, 33.015073597 ], [ -86.449380904, 33.014867596 ], [ -86.449435003, 33.014500894 ], [ -86.449869603, 33.014019594 ], [ -86.4511474, 33.013583593 ], [ -86.451582104, 33.0132396 ], [ -86.451744705, 33.012620896 ], [ -86.451581307, 33.012300298 ], [ -86.451580904, 33.011796094 ], [ -86.451771207, 33.0117274 ], [ -86.452695705, 33.011703998 ], [ -86.453157902, 33.011520393 ], [ -86.453755707, 33.011038899 ], [ -86.454488903, 33.009984396 ], [ -86.454488106, 33.008999296 ], [ -86.454623707, 33.008724295 ], [ -86.454976901, 33.008334495 ], [ -86.455439106, 33.008219697 ], [ -86.455548003, 33.0083571 ], [ -86.455466703, 33.008723699 ], [ -86.455467403, 33.009479798 ], [ -86.455576405, 33.009800494 ], [ -86.456093803, 33.010533296 ], [ -86.456610806, 33.010899499 ], [ -86.457345307, 33.011128195 ], [ -86.458025001, 33.011127695 ] ] } },
{ "type": "Feature", "properties": { "site_no": "02407900", "nhdplus_comid": "22273058", "navigation_mode": "DM", "requested_distance_km": 12.0, "start_source": "nwissite", "start_id": "USGS-02407900", "geometry_length_km": 2.4509265717389601 }, "geometry": { "type": "LineString", "coordinates": [ [ -86.458025001, 33.011127695 ], [ -86.457970403, 33.010875694 ], [ -86.457589202, 33.010348998 ], [ -86.457398504, 33.009913899 ], [ -86.457397804, 33.009157799 ], [ -86.4577775, 33.008080699 ], [ -86.458076306, 33.007759698 ], [ -86.4585656, 33.007667795 ], [ -86.458973601, 33.007804997 ], [ -86.460851401, 33.009315796 ], [ -86.4614226, 33.009567395 ], [ -86.4617761, 33.009567194 ], [ -86.461939104, 33.009360895 ], [ -86.461965702, 33.008856796 ], [ -86.461829506, 33.008513294 ], [ -86.461421505, 33.008376099 ], [ -86.460524306, 33.008491196 ], [ -86.460279502, 33.008399799 ], [ -86.460061707, 33.008193694 ], [ -86.460061304, 33.0078042 ], [ -86.460441604, 33.007437393 ], [ -86.460849404, 33.007299699 ], [ -86.461420305, 33.007207595 ], [ -86.462127507, 33.007344596 ], [ -86.463433102, 33.007778995 ], [ -86.464956507, 33.008510999 ], [ -86.46531, 33.008510798 ], [ -86.465554707, 33.008396097 ], [ -86.465771906, 33.008143894 ], [ -86.465798602, 33.007548198 ], [ -86.465716504, 33.007158697 ], [ -86.465553202, 33.006861098 ], [ -86.465579703, 33.006265298 ], [ -86.466204204, 33.005417198 ], [ -86.466882706, 33.0041795 ], [ -86.467587903, 33.002529293 ] ] } }
]
}
