{
"type": "FeatureCollection",
"name": "USGS_02424500_DM_12km",
"crs": { "type": "name", "properties": { "name": "urn:ogc:def:crs:OGC:1.3:CRS84" } },
"features": [
{ "type": "Feature", "properties": { "site_no": "02424500", "nhdplus_comid": "21662014", "navigation_mode": "DM", "requested_distance_km": 12.0, "start_source": "nwissite", "start_id": "USGS-02424500", "geometry_length_km": 0.72899391152827531 }, "geometry": { "type": "LineString", "coordinates": [ [ -87.241782135, 32.668054378 ], [ -87.241407901, 32.666833393 ], [ -87.240582705, 32.664752893 ], [ -87.2392537, 32.6631376 ], [ -87.238766402, 32.662091598 ] ] } },
{ "type": "Feature", "properties": { "site_no": "02424500", "nhdplus_comid": "21662018", "navigation_mode": "DM", "requested_distance_km": 12.0, "start_source": "nwissite", "start_id": "USGS-02424500", "geometry_length_km": 2.2194173856823043 }, "geometry": { "type": "LineString", "coordinates": [ [ -87.238766402, 32.662091598 ], [ -87.238959804, 32.660341896 ], [ -87.2392864, 32.660114996 ], [ -87.239695907, 32.6591383 ], [ -87.240880303, 32.657969393 ], [ -87.242812, 32.656858198 ], [ -87.243736401, 32.656677499 ], [ -87.2464405, 32.656760298 ], [ -87.247270703, 32.656068198 ], [ -87.247259207, 32.6548068 ], [ -87.245847501, 32.653941497 ], [ -87.245169304, 32.653258793 ], [ -87.245238304, 32.652633898 ], [ -87.245578602, 32.652282096 ], [ -87.247864202, 32.650693998 ], [ -87.249535806, 32.650570996 ], [ -87.250269204, 32.650753595 ] ] } },
{ "type": "Feature", "properties": { "site_no": "02424500", "nhdplus_comid": "21662022", "navigation_mode": "DM", "requested_distance_km": 12.0, "start_source": "nwissite", "start_id": "USGS-02424500", "geometry_length_km": 0.61811916232188602 }, "geometry": { "type": "LineString", "coordinates": [ [ -87.250269204, 32.650753595 ], [ -87.251044102, 32.6505614 ], [ -87.251940802, 32.650630593 ], [ -87.253233001, 32.649847999 ], [ -87.2545688, 32.647304095 ] ] } },
{ "type": "Feature", "properties": { "site_no": "02424500", "nhdplus_comid": "21662030", "navigation_mode": "DM", "requested_distance_km": 12.0, "start_source": "nwissite", "start_id": "USGS-02424500", "geometry_length_km": 2.3746472426363212 }, "geometry": { "type": "LineString", "coordinates": [ [ -87.2545688, 32.647304095 ], [ -87.2545963, 32.647054099 ], [ -87.255276904, 32.646350399 ], [ -87.256040104, 32.644896694 ], [ -87.256097503, 32.6430104 ], [ -87.255380206, 32.641316399 ], [ -87.254106507, 32.639201298 ], [ -87.253538601, 32.637518793 ], [ -87.251885705, 32.634744093 ], [ -87.251207605, 32.634061493 ], [ -87.248329602, 32.632830694 ], [ -87.244608, 32.632417098 ], [ -87.243589707, 32.632086299 ] ] } },
{ "type": "Feature", "properties": { "site_no": "02424500", "nhdplus_comid": "21662136", "navigation_mode": "DM", "requested_distance_km": 12.0, "start_source": "nwissite", "start_id": "USGS-02424500", "geometry_length_km": 1.0733245522563888 }, "geometry": { "type": "LineString", "coordinates": [ [ -87.243589707, 32.632086299 ], [ -87.241514206, 32.630413197 ], [ -87.240905203, 32.629105598 ], [ -87.240716904, 32.628082596 ], [ -87.2400527, 32.627274893 ], [ -87.239482701, 32.626978695 ], [ -87.236956604, 32.6266573 ], [ -87.236095905, 32.625833295 ] ] } },
{ "type": "Feature", "properties": { "site_no": "02424500", "nhdplus_comid": "21662032", "navigation_mode": "DM", "requested_distance_km": 12.0, "start_source": "nwissite", "start_id": "USGS-02424500", "geometry_length_km": 0.8162443298006542 }, "geometry": { "type": "LineString", "coordinates": [ [ -87.236095905, 32.625833295 ], [ -87.235531703, 32.625916794 ], [ -87.234433204, 32.624949396 ], [ -87.234245002, 32.623926394 ], [ -87.234397002, 32.622551493 ], [ -87.235215604, 32.620597996 ], [ -87.235418901, 32.619593598 ] ] } },
{ "type": "Feature", "properties": { "site_no": "02424500", "nhdplus_comid": "21662034", "navigation_mode": "DM", "requested_distance_km": 12.0, "start_source": "nwissite", "start_id": "USGS-02424500", "geometry_length_km": 1.8346878638136066 }, "geometry": { "type": "LineString", "coordinates": [ [ -87.235418901, 32.619593598 ], [ -87.235674307, 32.615086995 ], [ -87.235131904, 32.614540793 ], [ -87.233842805, 32.613936797 ], [ -87.233165003, 32.613253996 ], [ -87.232570104, 32.611821294 ], [ -87.230592102, 32.609273098 ], [ -87.230417803, 32.608124994 ], [ -87.230940305, 32.604761899 ] ] } },
{ "type": "Feature", "properties": { "site_no": "02424500", "nhdplus_comid": "21662044", "navigation_mode": "DM", "requested_distance_km": 12.0, "start_source": "nwissite", "start_id": "USGS-02424500", "geometry_length_km": 0.55052688065666378 }, "geometry": { "type": "LineString", "coordinates": [ [ -87.230940305, 32.604761899 ], [ -87.229734302, 32.603407897 ], [ -87.227792606, 32.6032575 ], [ -87.227521606, 32.602984399 ], [ -87.227576904, 32.602484398 ], [ -87.228026301, 32.601825893 ] ] } },
{ "type": "Feature", "properties": { "site_no": "02424500", "nhdplus_comid": "21662140", "navigation_mode": "DM", "requested_distance_km": 12.0, "start_source": "nwissite", "start_id": "USGS-02424500", "geometry_length_km": 0.36430978709861861 }, "geometry": { "type": "LineString", "coordinates": [ [ -87.228026301, 32.601825893 ], [ -87.227687404, 32.6014845 ], [ -87.2272394, 32.601449795 ], [ -87.224399902, 32.602029994 ] ] } },
{ "type": "Feature", "properties": { "site_no": "02424500", "nhdplus_comid": "21662050", "navigation_mode": "DM", "requested_distance_km": 12.0, "start_source": "nwissite", "start_id": "USGS-02424500", "geometry_length_km": 1.0204335585636495 }, "geometry": { "type": "LineString", "coordinates": [ [ -87.224399902, 32.602029994 ], [ -87.223776601, 32.601433598 ], [ -87.223887302, 32.6004337 ], [ -87.224390604, 32.599968396 ], [ -87.224432103, 32.599593498 ], [ -87.223483503, 32.598637499 ], [ -87.220499404, 32.597019494 ], [ -87.218873307, 32.595380597 ] ] } },
{ "type": "Feature", "properties": { "site_no": "02424500", "nhdplus_comid": "21662142", "navigation_mode": "DM", "requested_distance_km": 12.0, "start_source": "nwissite", "start_id": "USGS-02424500", "geometry_length_km": 0.75988866467534488 }, "geometry": { "type": "LineString", "coordinates": [ [ -87.218873307, 32.595380597 ], [ -87.217966303, 32.594049595 ], [ -87.218021601, 32.593549699 ], [ -87.217750601, 32.593276493 ], [ -87.218095206, 32.588861994 ] ] } }
]
}
