{
"type": "FeatureCollection",
"name": "USGS_02373500_UM_12km",
"crs": { "type": "name", "properties": { "name": "urn:ogc:def:crs:OGC:1.3:CRS84" } },
"features": [
{ "type": "Feature", "properties": { "site_no": "02373500", "nhdplus_comid": "2402861", "navigation_mode": "UM", "requested_distance_km": 12.0, "start_source": "nwissite", "start_id": "USGS-02373500", "geometry_length_km": 1.0336437511450338 }, "geometry": { "type": "LineString", "coordinates": [ [ -86.657642603, 31.482753299 ], [ -86.6574286, 31.482547097 ], [ -86.6569205, 31.482547298 ], [ -86.656760104, 31.482455596 ], [ -86.656679802, 31.482157797 ], [ -86.656786703, 31.482020199 ], [ -86.657027304, 31.481951393 ], [ -86.6572145, 31.482065894 ], [ -86.657428406, 31.482042894 ], [ -86.657588907, 31.481836595 ], [ -86.657455102, 31.481607497 ], [ -86.657134101, 31.481401294 ], [ -86.656198204, 31.481309898 ], [ -86.656037703, 31.481172495 ], [ -86.656171106, 31.480324499 ], [ -86.655983701, 31.480095394 ], [ -86.655983701, 31.479957797 ], [ -86.655876704, 31.479866296 ], [ -86.655850001, 31.4796829 ], [ -86.656036906, 31.479247496 ], [ -86.656224102, 31.479132794 ], [ -86.6565447, 31.477986895 ], [ -86.656892106, 31.477551296 ], [ -86.657881305, 31.476657294 ], [ -86.658249923, 31.476549473 ] ] } },
{ "type": "Feature", "properties": { "site_no": "02373500", "nhdplus_comid": "2402009", "navigation_mode": "UM", "requested_distance_km": 12.0, "start_source": "nwissite", "start_id": "USGS-02373500", "geometry_length_km": 0.14010289872194279 }, "geometry": { "type": "LineString", "coordinates": [ [ -86.656653404, 31.483578697 ], [ -86.656867303, 31.483143196 ], [ -86.657535702, 31.4828908 ], [ -86.657642603, 31.482753299 ] ] } },
{ "type": "Feature", "properties": { "site_no": "02373500", "nhdplus_comid": "2402001", "navigation_mode": "UM", "requested_distance_km": 12.0, "start_source": "nwissite", "start_id": "USGS-02373500", "geometry_length_km": 0.26021529952952899 }, "geometry": { "type": "LineString", "coordinates": [ [ -86.658392303, 31.484975994 ], [ -86.657857403, 31.485067897 ], [ -86.657509707, 31.484907493 ], [ -86.656974606, 31.484197296 ], [ -86.656813905, 31.483715996 ], [ -86.656653404, 31.483578697 ] ] } },
{ "type": "Feature", "properties": { "site_no": "02373500", "nhdplus_comid": "2402851", "navigation_mode": "UM", "requested_distance_km": 12.0, "start_source": "nwissite", "start_id": "USGS-02373500", "geometry_length_km": 0.93535476114848259 }, "geometry": { "type": "LineString", "coordinates": [ [ -86.655987702, 31.491737194 ], [ -86.656121306, 31.491691299 ], [ -86.656121001, 31.491026796 ], [ -86.656040907, 31.490980893 ], [ -86.656040803, 31.490820497 ], [ -86.656388305, 31.490430899 ], [ -86.657003306, 31.489972398 ], [ -86.657056801, 31.489834793 ], [ -86.656842701, 31.489491098 ], [ -86.657243706, 31.488986894 ], [ -86.657644801, 31.488757499 ], [ -86.6584737, 31.488573998 ], [ -86.658527106, 31.488001093 ], [ -86.658420101, 31.487932295 ], [ -86.658420004, 31.487794794 ], [ -86.658419907, 31.487542696 ], [ -86.6588476, 31.487130195 ], [ -86.658847503, 31.486786395 ], [ -86.658660203, 31.486465596 ], [ -86.658659704, 31.485228099 ], [ -86.658392303, 31.484975994 ] ] } },
{ "type": "Feature", "properties": { "site_no": "02373500", "nhdplus_comid": "2402849", "navigation_mode": "UM", "requested_distance_km": 12.0, "start_source": "nwissite", "start_id": "USGS-02373500", "geometry_length_km": 1.9294185778355157 }, "geometry": { "type": "LineString", "coordinates": [ [ -86.648875907, 31.500174098 ], [ -86.648875803, 31.499690793 ], [ -86.648554601, 31.499186598 ], [ -86.648554504, 31.498819999 ], [ -86.6488754, 31.498751193 ], [ -86.649116106, 31.4989345 ], [ -86.649250105, 31.499438599 ], [ -86.649464205, 31.499553196 ], [ -86.649704807, 31.499461494 ], [ -86.649758101, 31.498980194 ], [ -86.649356805, 31.498498999 ], [ -86.649303205, 31.498086497 ], [ -86.649410203, 31.4979719 ], [ -86.650159001, 31.497719698 ], [ -86.650399603, 31.497421794 ], [ -86.6503461, 31.497055098 ], [ -86.650105201, 31.496734299 ], [ -86.650105201, 31.4961842 ], [ -86.6495701, 31.495817699 ], [ -86.649436206, 31.495588593 ], [ -86.649543203, 31.495221794 ], [ -86.6503454, 31.494809195 ], [ -86.651147604, 31.494098693 ], [ -86.651522003, 31.494006895 ], [ -86.652778804, 31.493342094 ], [ -86.652832307, 31.493135795 ], [ -86.652538002, 31.492952496 ], [ -86.652404204, 31.492723398 ], [ -86.652404107, 31.492448397 ], [ -86.652725004, 31.492402494 ], [ -86.652965806, 31.492631599 ], [ -86.653233305, 31.492700294 ], [ -86.653340206, 31.492539898 ], [ -86.653126203, 31.4922878 ], [ -86.653126106, 31.492058598 ], [ -86.653420202, 31.491714895 ], [ -86.653874703, 31.491554298 ], [ -86.654061906, 31.491393894 ], [ -86.654142, 31.491095893 ], [ -86.654543206, 31.490958296 ], [ -86.6549711, 31.491118699 ], [ -86.655720301, 31.491691396 ], [ -86.655987702, 31.491737194 ] ] } },
{ "type": "Feature", "properties": { "site_no": "02373500", "nhdplus_comid": "2405391", "navigation_mode": "UM", "requested_distance_km": 12.0, "start_source": "nwissite", "start_id": "USGS-02373500", "geometry_length_km": 0.077270586026123897 }, "geometry": { "type": "LineString", "coordinates": [ [ -86.648207203, 31.500173897 ], [ -86.648247503, 31.500264294 ], [ -86.648584604, 31.5002902 ], [ -86.6488389, 31.500259995 ], [ -86.648875907, 31.500174098 ] ] } },
{ "type": "Feature", "properties": { "site_no": "02373500", "nhdplus_comid": "2401957", "navigation_mode": "UM", "requested_distance_km": 12.0, "start_source": "nwissite", "start_id": "USGS-02373500", "geometry_length_km": 0.2042494389654807 }, "geometry": { "type": "LineString", "coordinates": [ [ -86.646871604, 31.500173397 ], [ -86.6470588, 31.499805696 ], [ -86.647539906, 31.499874294 ], [ -86.648127005, 31.499690898 ], [ -86.648207203, 31.500173897 ] ] } },
{ "type": "Feature", "properties": { "site_no": "02373500", "nhdplus_comid": "2400959", "navigation_mode": "UM", "requested_distance_km": 12.0, "start_source": "nwissite", "start_id": "USGS-02373500", "geometry_length_km": 0.078822385640666168 }, "geometry": { "type": "LineString", "coordinates": [ [ -86.646606103, 31.500827998 ], [ -86.6468191, 31.500530094 ], [ -86.646871604, 31.500173397 ] ] } },
{ "type": "Feature", "properties": { "site_no": "02373500", "nhdplus_comid": "2400951", "navigation_mode": "UM", "requested_distance_km": 12.0, "start_source": "nwissite", "start_id": "USGS-02373500", "geometry_length_km": 0.91320707761688158 }, "geometry": { "type": "LineString", "coordinates": [ [ -86.651155204, 31.507908493 ], [ -86.651021205, 31.507220998 ], [ -86.650031202, 31.505869098 ], [ -86.649335407, 31.505067199 ], [ -86.648452401, 31.503440298 ], [ -86.647569306, 31.502271697 ], [ -86.646954, 31.501790494 ], [ -86.646740004, 31.501515597 ], [ -86.646606103, 31.500827998 ] ] } },
{ "type": "Feature", "properties": { "site_no": "02373500", "nhdplus_comid": "2400915", "navigation_mode": "UM", "requested_distance_km": 12.0, "start_source": "nwissite", "start_id": "USGS-02373500", "geometry_length_km": 1.4838519591204162 }, "geometry": { "type": "LineString", "coordinates": [ [ -86.645674504, 31.5196888 ], [ -86.646370001, 31.519253299 ], [ -86.6474666, 31.518267594 ], [ -86.647841007, 31.517557099 ], [ -86.647867501, 31.5169155 ], [ -86.647626601, 31.516227998 ], [ -86.647599705, 31.515586294 ], [ -86.647679701, 31.515173897 ], [ -86.648508601, 31.513569497 ], [ -86.649391204, 31.512835994 ], [ -86.650086403, 31.511827596 ], [ -86.650273204, 31.510452397 ], [ -86.650674306, 31.509833597 ], [ -86.650807902, 31.509352297 ], [ -86.650861107, 31.508664794 ], [ -86.651155204, 31.507908493 ] ] } },
{ "type": "Feature", "properties": { "site_no": "02373500", "nhdplus_comid": "2400877", "navigation_mode": "UM", "requested_distance_km": 12.0, "start_source": "nwissite", "start_id": "USGS-02373500", "geometry_length_km": 1.8654618104899787 }, "geometry": { "type": "LineString", "coordinates": [ [ -86.640780605, 31.528329097 ], [ -86.640432604, 31.528099999 ], [ -86.640432604, 31.527549997 ], [ -86.640539505, 31.5274354 ], [ -86.641583003, 31.527183197 ], [ -86.641609706, 31.526953995 ], [ -86.641475901, 31.526839495 ], [ -86.640780203, 31.526610397 ], [ -86.6401648, 31.526106298 ], [ -86.6401648, 31.525808297 ], [ -86.640673004, 31.5252354 ], [ -86.640726402, 31.524983294 ], [ -86.6410207, 31.524753995 ], [ -86.641314901, 31.524662398 ], [ -86.641502202, 31.524776995 ], [ -86.641689807, 31.5258082 ], [ -86.641957305, 31.526129 ], [ -86.642599501, 31.5264268 ], [ -86.643027507, 31.5264038 ], [ -86.643295005, 31.526220493 ], [ -86.643535703, 31.525716297 ], [ -86.643589102, 31.525349595 ], [ -86.643508807, 31.525051698 ], [ -86.642545506, 31.524112195 ], [ -86.642197601, 31.523676798 ], [ -86.642170705, 31.523241393 ], [ -86.642304406, 31.523058094 ], [ -86.644043207, 31.522141099 ], [ -86.644524701, 31.521728598 ], [ -86.645674504, 31.5196888 ] ] } },
{ "type": "Feature", "properties": { "site_no": "02373500", "nhdplus_comid": "2400857", "navigation_mode": "UM", "requested_distance_km": 12.0, "start_source": "nwissite", "start_id": "USGS-02373500", "geometry_length_km": 0.12632668101754982 }, "geometry": { "type": "LineString", "coordinates": [ [ -86.640352704, 31.529291697 ], [ -86.640780702, 31.528993696 ], [ -86.640780605, 31.528329097 ] ] } },
{ "type": "Feature", "properties": { "site_no": "02373500", "nhdplus_comid": "2400853", "navigation_mode": "UM", "requested_distance_km": 12.0, "start_source": "nwissite", "start_id": "USGS-02373500", "geometry_length_km": 4.1380572592474474 }, "geometry": { "type": "LineString", "coordinates": [ [ -86.622052006, 31.552530199 ], [ -86.622640707, 31.552301094 ], [ -86.623470403, 31.551430196 ], [ -86.623470403, 31.551155195 ], [ -86.622453503, 31.550192699 ], [ -86.621918201, 31.549230196 ], [ -86.621918201, 31.548840694 ], [ -86.6222395, 31.548084393 ], [ -86.622774601, 31.547626093 ], [ -86.623470403, 31.547305197 ], [ -86.623818204, 31.547053099 ], [ -86.623818301, 31.546938598 ], [ -86.623550706, 31.546755299 ], [ -86.623042203, 31.546182297 ], [ -86.622935206, 31.5452886 ], [ -86.623122506, 31.544921897 ], [ -86.623470403, 31.544715598 ], [ -86.624540806, 31.544555299 ], [ -86.624808304, 31.544371895 ], [ -86.624995604, 31.543959394 ], [ -86.625263207, 31.543730199 ], [ -86.626868702, 31.543088496 ], [ -86.627511002, 31.542973898 ], [ -86.628527805, 31.5430656 ], [ -86.629571401, 31.5433634 ], [ -86.630106606, 31.543294594 ], [ -86.630133301, 31.543179996 ], [ -86.629651703, 31.542607196 ], [ -86.629651703, 31.542240493 ], [ -86.630106501, 31.541919596 ], [ -86.630481102, 31.541804999 ], [ -86.631845802, 31.541736297 ], [ -86.632595003, 31.541529894 ], [ -86.632862605, 31.541323699 ], [ -86.6329161, 31.541048698 ], [ -86.632835701, 31.540888295 ], [ -86.631711707, 31.53988 ], [ -86.631684907, 31.539490394 ], [ -86.631818801, 31.539398797 ], [ -86.632648304, 31.539467499 ], [ -86.632889003, 31.539329894 ], [ -86.633290306, 31.538275696 ], [ -86.633745201, 31.537771493 ], [ -86.634066202, 31.537061095 ], [ -86.6340928, 31.536396496 ], [ -86.634360306, 31.535571396 ], [ -86.634868503, 31.534608893 ], [ -86.634868503, 31.534127697 ], [ -86.6346009, 31.533646494 ], [ -86.634440303, 31.533211097 ], [ -86.634440303, 31.5326152 ], [ -86.634654202, 31.5322944 ], [ -86.635162503, 31.531881794 ], [ -86.636098906, 31.531469196 ], [ -86.637944907, 31.5303232 ], [ -86.638399601, 31.529773094 ], [ -86.638693906, 31.529589795 ], [ -86.639523305, 31.529383495 ], [ -86.640352704, 31.529291697 ] ] } }
]
}
