{
"type": "FeatureCollection",
"name": "USGS_02407000_DM_12km",
"crs": { "type": "name", "properties": { "name": "urn:ogc:def:crs:OGC:1.3:CRS84" } },
"features": [
{ "type": "Feature", "properties": { "site_no": "02407000", "nhdplus_comid": "22273668", "navigation_mode": "DM", "requested_distance_km": 12.0, "start_source": "nwissite", "start_id": "USGS-02407000", "geometry_length_km": 1.2862124051355399 }, "geometry": { "type": "LineString", "coordinates": [ [ -86.36372922, 33.290982239 ], [ -86.365076602, 33.290421598 ], [ -86.368390806, 33.289440595 ], [ -86.372699805, 33.287786998 ], [ -86.373603001, 33.287863098 ], [ -86.375320002, 33.2875036 ], [ -86.376648806, 33.287030399 ] ] } },
{ "type": "Feature", "properties": { "site_no": "02407000", "nhdplus_comid": "22273372", "navigation_mode": "DM", "requested_distance_km": 12.0, "start_source": "nwissite", "start_id": "USGS-02407000", "geometry_length_km": 1.4939012364728226 }, "geometry": { "type": "LineString", "coordinates": [ [ -86.376648806, 33.287030399 ], [ -86.378182307, 33.286484294 ], [ -86.381151706, 33.284591593 ], [ -86.381830201, 33.284018494 ], [ -86.382057101, 33.283407398 ], [ -86.389155805, 33.278837197 ] ] } },
{ "type": "Feature", "properties": { "site_no": "02407000", "nhdplus_comid": "22273378", "navigation_mode": "DM", "requested_distance_km": 12.0, "start_source": "nwissite", "start_id": "USGS-02407000", "geometry_length_km": 1.7687678359076808 }, "geometry": { "type": "LineString", "coordinates": [ [ -86.389155805, 33.278837197 ], [ -86.391491905, 33.277143098 ], [ -86.392563, 33.275846697 ], [ -86.3943711, 33.274738394 ], [ -86.395470306, 33.274452694 ], [ -86.396975406, 33.274579197 ], [ -86.402306102, 33.273262598 ], [ -86.405874401, 33.272679999 ] ] } },
{ "type": "Feature", "properties": { "site_no": "02407000", "nhdplus_comid": "22273380", "navigation_mode": "DM", "requested_distance_km": 12.0, "start_source": "nwissite", "start_id": "USGS-02407000", "geometry_length_km": 2.4217794367689094 }, "geometry": { "type": "LineString", "coordinates": [ [ -86.405874401, 33.272679999 ], [ -86.407560401, 33.2725695 ], [ -86.410871401, 33.272847399 ], [ -86.411578201, 33.273284897 ], [ -86.414256804, 33.273761697 ], [ -86.417747207, 33.275062695 ], [ -86.418936007, 33.2752885 ], [ -86.421357602, 33.276625797 ], [ -86.4234327, 33.278312095 ], [ -86.425868101, 33.280784793 ], [ -86.4279586, 33.282346293 ] ] } },
{ "type": "Feature", "properties": { "site_no": "02407000", "nhdplus_comid": "22273398", "navigation_mode": "DM", "requested_distance_km": 12.0, "start_source": "nwissite", "start_id": "USGS-02407000", "geometry_length_km": 4.757585914238283 }, "geometry": { "type": "LineString", "coordinates": [ [ -86.4279586, 33.282346293 ], [ -86.430275805, 33.283296496 ], [ -86.431479901, 33.283397399 ], [ -86.432428703, 33.283098698 ], [ -86.433754504, 33.282201499 ], [ -86.4343125, 33.281365998 ], [ -86.434812702, 33.278509095 ], [ -86.434633203, 33.277485795 ], [ -86.434137605, 33.276562095 ], [ -86.434198402, 33.2760631 ], [ -86.433687605, 33.275264099 ], [ -86.433252804, 33.273841396 ], [ -86.431133501, 33.271269299 ], [ -86.431028701, 33.270882398 ], [ -86.426865101, 33.266374499 ], [ -86.425979003, 33.264913797 ], [ -86.425904706, 33.264277399 ], [ -86.424673602, 33.261905596 ], [ -86.4244655, 33.259871595 ], [ -86.424648106, 33.258374497 ], [ -86.425417304, 33.257052496 ], [ -86.425735101, 33.255692795 ], [ -86.426942207, 33.253273197 ], [ -86.427469604, 33.252687193 ], [ -86.429371201, 33.248309195 ] ] } }
]
}
