{
"type": "FeatureCollection",
"name": "USGS_02445245_UM_12km",
"crs": { "type": "name", "properties": { "name": "urn:ogc:def:crs:OGC:1.3:CRS84" } },
"features": [
{ "type": "Feature", "properties": { "site_no": "02445245", "nhdplus_comid": "18614496", "navigation_mode": "UM", "requested_distance_km": 12.0, "start_source": "nwissite", "start_id": "USGS-02445245", "geometry_length_km": 5.988451709007288 }, "geometry": { "type": "LineString", "coordinates": [ [ -87.6826213, 33.970221899 ], [ -87.682620905, 33.969672196 ], [ -87.682510801, 33.969420195 ], [ -87.682180606, 33.969145499 ], [ -87.680227704, 33.967932299 ], [ -87.679952703, 33.967886694 ], [ -87.679623105, 33.968207493 ], [ -87.679293305, 33.968390994 ], [ -87.678495705, 33.968001895 ], [ -87.6768177, 33.966765694 ], [ -87.676625103, 33.966467999 ], [ -87.676624402, 33.965528794 ], [ -87.676981501, 33.964955896 ], [ -87.677558504, 33.964497596 ], [ -87.677943304, 33.964336999 ], [ -87.680472307, 33.963831797 ], [ -87.682314105, 33.963693395 ], [ -87.682863802, 33.963464096 ], [ -87.683138505, 33.963234894 ], [ -87.683220506, 33.962455995 ], [ -87.683191605, 33.960669294 ], [ -87.682998501, 33.9598905 ], [ -87.682255603, 33.958951697 ], [ -87.681182802, 33.958012998 ], [ -87.680522703, 33.957692593 ], [ -87.679835506, 33.9575556 ], [ -87.679230504, 33.9573268 ], [ -87.679010406, 33.957143597 ], [ -87.678542607, 33.956204697 ], [ -87.677964807, 33.955677994 ], [ -87.677689403, 33.954853497 ], [ -87.677661203, 33.953868493 ], [ -87.678045504, 33.952929094 ], [ -87.678787, 33.951943696 ], [ -87.679226607, 33.951668598 ], [ -87.681150503, 33.9513928 ], [ -87.683706604, 33.950933397 ], [ -87.683981001, 33.950360499 ], [ -87.684034906, 33.948986098 ], [ -87.683897205, 33.948619597 ], [ -87.683539607, 33.948230296 ], [ -87.6817246, 33.946879797 ], [ -87.681174405, 33.946307398 ], [ -87.680981606, 33.945917994 ], [ -87.680816606, 33.945780694 ], [ -87.6807063, 33.9452997 ], [ -87.680705503, 33.943993896 ], [ -87.680042304, 33.939091995 ], [ -87.680149101, 33.934602194 ], [ -87.680285305, 33.932975598 ], [ -87.680310684, 33.930373856 ] ] } },
{ "type": "Feature", "properties": { "site_no": "02445245", "nhdplus_comid": "18614468", "navigation_mode": "UM", "requested_distance_km": 12.0, "start_source": "nwissite", "start_id": "USGS-02445245", "geometry_length_km": 3.1327791904860756 }, "geometry": { "type": "LineString", "coordinates": [ [ -87.660878003, 33.979439795 ], [ -87.660657801, 33.978958793 ], [ -87.660602406, 33.978317395 ], [ -87.660739407, 33.977194898 ], [ -87.660931602, 33.976645097 ], [ -87.661151402, 33.976347193 ], [ -87.661508903, 33.976278298 ], [ -87.661756404, 33.976392798 ], [ -87.662114002, 33.976919495 ], [ -87.662416607, 33.977079794 ], [ -87.662664101, 33.9771026 ], [ -87.662774004, 33.977010995 ], [ -87.662993401, 33.975842699 ], [ -87.663240701, 33.975498997 ], [ -87.663598001, 33.975315593 ], [ -87.664065406, 33.975223795 ], [ -87.665605202, 33.9751774 ], [ -87.665990002, 33.975085594 ], [ -87.666264802, 33.974695995 ], [ -87.666842103, 33.974535398 ], [ -87.667776905, 33.974512197 ], [ -87.668217003, 33.974809796 ], [ -87.668464504, 33.974832594 ], [ -87.669839107, 33.974442698 ], [ -87.670333803, 33.974144697 ], [ -87.670471102, 33.973984294 ], [ -87.670580901, 33.973526098 ], [ -87.670690805, 33.973411493 ], [ -87.6721754, 33.973204695 ], [ -87.672477901, 33.973296195 ], [ -87.672698006, 33.973479398 ], [ -87.6727532, 33.973822996 ], [ -87.672451302, 33.974647693 ], [ -87.672891304, 33.974670395 ], [ -87.673138604, 33.974555798 ], [ -87.674484901, 33.973089196 ], [ -87.674842201, 33.972928695 ], [ -87.676602006, 33.972927898 ], [ -87.680121407, 33.973155193 ], [ -87.681441203, 33.973085895 ], [ -87.681688502, 33.972948298 ], [ -87.681935705, 33.972490095 ], [ -87.682539307, 33.970840394 ], [ -87.6826213, 33.970221899 ] ] } },
{ "type": "Feature", "properties": { "site_no": "02445245", "nhdplus_comid": "18614462", "navigation_mode": "UM", "requested_distance_km": 12.0, "start_source": "nwissite", "start_id": "USGS-02445245", "geometry_length_km": 1.9878905326696472 }, "geometry": { "type": "LineString", "coordinates": [ [ -87.668582104, 33.987798095 ], [ -87.669571906, 33.9873854 ], [ -87.669873901, 33.986904293 ], [ -87.6714129, 33.9852314 ], [ -87.672209404, 33.983627498 ], [ -87.672456503, 33.982917294 ], [ -87.672483005, 33.981451198 ], [ -87.672235206, 33.980832793 ], [ -87.671905003, 33.980512299 ], [ -87.671134807, 33.980146095 ], [ -87.6700899, 33.9800319 ], [ -87.666597806, 33.980147898 ], [ -87.662005603, 33.979760095 ], [ -87.660878003, 33.979439795 ] ] } }
]
}
