{
"type": "FeatureCollection",
"name": "USGS_02469550_UM_12km",
"crs": { "type": "name", "properties": { "name": "urn:ogc:def:crs:OGC:1.3:CRS84" } },
"features": [
{ "type": "Feature", "properties": { "site_no": "02469550", "nhdplus_comid": "18543568", "navigation_mode": "UM", "requested_distance_km": 12.0, "start_source": "nwissite", "start_id": "USGS-02469550", "geometry_length_km": 0.69451378536463604 }, "geometry": { "type": "LineString", "coordinates": [ [ -87.8694923, 32.046022095 ], [ -87.869653806, 32.045884594 ], [ -87.870218605, 32.045884699 ], [ -87.871079601, 32.046067998 ], [ -87.871214002, 32.0462742 ], [ -87.871375404, 32.047121994 ], [ -87.871483102, 32.047305293 ], [ -87.872478604, 32.047969796 ], [ -87.8733932, 32.048244797 ], [ -87.874980502, 32.048061498 ], [ -87.875289448, 32.047976145 ] ] } },
{ "type": "Feature", "properties": { "site_no": "02469550", "nhdplus_comid": "18543576", "navigation_mode": "UM", "requested_distance_km": 12.0, "start_source": "nwissite", "start_id": "USGS-02469550", "geometry_length_km": 0.30118221329983902 }, "geometry": { "type": "LineString", "coordinates": [ [ -87.8667484, 32.044853397 ], [ -87.867044203, 32.045128398 ], [ -87.867636003, 32.0453576 ], [ -87.868281707, 32.045380495 ], [ -87.868981205, 32.045907497 ], [ -87.8694923, 32.046022095 ] ] } },
{ "type": "Feature", "properties": { "site_no": "02469550", "nhdplus_comid": "18543604", "navigation_mode": "UM", "requested_distance_km": 12.0, "start_source": "nwissite", "start_id": "USGS-02469550", "geometry_length_km": 3.1861691875195421 }, "geometry": { "type": "LineString", "coordinates": [ [ -87.850287601, 32.031561494 ], [ -87.850206904, 32.031653099 ], [ -87.850206703, 32.032340497 ], [ -87.850421801, 32.032546796 ], [ -87.851094201, 32.032821894 ], [ -87.853138506, 32.032913893 ], [ -87.853434406, 32.033005595 ], [ -87.853434302, 32.033418097 ], [ -87.8533535, 32.033601299 ], [ -87.853084505, 32.033738799 ], [ -87.852331303, 32.0338303 ], [ -87.852223605, 32.034196898 ], [ -87.852411807, 32.034448996 ], [ -87.852842204, 32.034792796 ], [ -87.853272602, 32.034930296 ], [ -87.853998907, 32.0346554 ], [ -87.854429305, 32.0346784 ], [ -87.854429305, 32.034884699 ], [ -87.854240902, 32.035228394 ], [ -87.853783503, 32.035617799 ], [ -87.853675805, 32.036030196 ], [ -87.854455806, 32.036900997 ], [ -87.854428805, 32.037359297 ], [ -87.854159705, 32.037657194 ], [ -87.854159705, 32.037817597 ], [ -87.854455501, 32.037932098 ], [ -87.855181806, 32.038000993 ], [ -87.855450705, 32.0381843 ], [ -87.8554506, 32.038596794 ], [ -87.854885705, 32.038871698 ], [ -87.854778007, 32.039215297 ], [ -87.854831703, 32.039948598 ], [ -87.855073705, 32.040246494 ], [ -87.855262004, 32.0403153 ], [ -87.856122807, 32.0403383 ], [ -87.8562572, 32.040979899 ], [ -87.856364802, 32.041186199 ], [ -87.857010402, 32.041736193 ], [ -87.857736707, 32.042194493 ], [ -87.858678207, 32.042561196 ], [ -87.859243102, 32.042400993 ], [ -87.860050201, 32.041988596 ], [ -87.860749602, 32.042126194 ], [ -87.861072406, 32.042309396 ], [ -87.861637406, 32.042217895 ], [ -87.861933306, 32.042057499 ], [ -87.862847805, 32.042240895 ], [ -87.863332205, 32.042080499 ], [ -87.8636012, 32.041645199 ], [ -87.863816403, 32.041484796 ], [ -87.864435107, 32.041622393 ], [ -87.865295902, 32.042470194 ], [ -87.865564905, 32.042928599 ], [ -87.865591705, 32.043134794 ], [ -87.865833804, 32.043615997 ], [ -87.866425604, 32.044441 ], [ -87.866721407, 32.044715896 ], [ -87.8667484, 32.044853397 ] ] } },
{ "type": "Feature", "properties": { "site_no": "02469550", "nhdplus_comid": "18543920", "navigation_mode": "UM", "requested_distance_km": 12.0, "start_source": "nwissite", "start_id": "USGS-02469550", "geometry_length_km": 6.6956830718779923 }, "geometry": { "type": "LineString", "coordinates": [ [ -87.829453506, 32.006373599 ], [ -87.829399601, 32.0066486 ], [ -87.829211205, 32.006877594 ], [ -87.829318605, 32.007198498 ], [ -87.8295606, 32.007358998 ], [ -87.829829507, 32.007267497 ], [ -87.830071703, 32.006969593 ], [ -87.830260001, 32.006923899 ], [ -87.830421202, 32.006992698 ], [ -87.830313407, 32.007725798 ], [ -87.829775304, 32.0082068 ], [ -87.829748005, 32.009077594 ], [ -87.830043606, 32.009375498 ], [ -87.830688901, 32.009650797 ], [ -87.830742501, 32.009948693 ], [ -87.830581002, 32.010269396 ], [ -87.830365807, 32.010475598 ], [ -87.829908602, 32.010681599 ], [ -87.829182506, 32.010589696 ], [ -87.828752205, 32.010658197 ], [ -87.828563705, 32.011139393 ], [ -87.828724705, 32.011689395 ], [ -87.829128101, 32.011918694 ], [ -87.8307686, 32.011712998 ], [ -87.831387103, 32.011736095 ], [ -87.831898004, 32.0118967 ], [ -87.832086205, 32.0120572 ], [ -87.832220502, 32.012423798 ], [ -87.832247205, 32.012813397 ], [ -87.831978202, 32.012950696 ], [ -87.829853706, 32.012995899 ], [ -87.829880401, 32.013362497 ], [ -87.831413202, 32.013798393 ], [ -87.831789501, 32.014119297 ], [ -87.831896901, 32.014394194 ], [ -87.831816107, 32.014692098 ], [ -87.831466407, 32.014966995 ], [ -87.830686405, 32.015104197 ], [ -87.830390401, 32.015333198 ], [ -87.830363505, 32.0155624 ], [ -87.8304976, 32.016295694 ], [ -87.830954604, 32.016639493 ], [ -87.831304304, 32.016456395 ], [ -87.831412002, 32.016204298 ], [ -87.831519604, 32.016135596 ], [ -87.831627205, 32.015929393 ], [ -87.831950106, 32.015631594 ], [ -87.832192205, 32.015654698 ], [ -87.832191803, 32.016594097 ], [ -87.832299203, 32.016800299 ], [ -87.832971402, 32.017167196 ], [ -87.833455503, 32.017052799 ], [ -87.833778307, 32.0168925 ], [ -87.834154807, 32.016892597 ], [ -87.834504403, 32.017167695 ], [ -87.834692501, 32.017534398 ], [ -87.834987901, 32.018496796 ], [ -87.835149206, 32.018657297 ], [ -87.835445106, 32.018634394 ], [ -87.836198203, 32.018290997 ], [ -87.836709201, 32.018291093 ], [ -87.836897403, 32.018428594 ], [ -87.836789705, 32.018634893 ], [ -87.835363805, 32.019825995 ], [ -87.835390702, 32.020261295 ], [ -87.835605703, 32.020490497 ], [ -87.836116605, 32.0207427 ], [ -87.837784, 32.021018095 ], [ -87.837783903, 32.021224394 ], [ -87.837622404, 32.021407694 ], [ -87.837030701, 32.021751195 ], [ -87.836761601, 32.022026099 ], [ -87.8367614, 32.022484399 ], [ -87.836895704, 32.022782296 ], [ -87.837299101, 32.023011498 ], [ -87.838616803, 32.023355596 ], [ -87.839100905, 32.023309894 ], [ -87.839262307, 32.023218296 ], [ -87.8396658, 32.023218498 ], [ -87.839827202, 32.023287199 ], [ -87.839665607, 32.023882896 ], [ -87.839826703, 32.0246391 ], [ -87.840149306, 32.025028795 ], [ -87.840364501, 32.025097594 ], [ -87.840714104, 32.025051899 ], [ -87.840956204, 32.024822794 ], [ -87.840983406, 32.024089493 ], [ -87.8411448, 32.023952 ], [ -87.841763407, 32.024066895 ], [ -87.842435606, 32.024548195 ], [ -87.842623904, 32.024594098 ], [ -87.843430802, 32.024502598 ], [ -87.844668202, 32.023884296 ], [ -87.845017806, 32.023861393 ], [ -87.845125407, 32.023953095 ], [ -87.845152102, 32.024892494 ], [ -87.844103105, 32.025029793 ], [ -87.844102904, 32.025258899 ], [ -87.844667502, 32.025854796 ], [ -87.844667405, 32.026290193 ], [ -87.844855703, 32.026404798 ], [ -87.845608801, 32.0262217 ], [ -87.846093006, 32.026359297 ], [ -87.846065901, 32.026588395 ], [ -87.845850803, 32.026725799 ], [ -87.844909303, 32.026954696 ], [ -87.844774701, 32.027115099 ], [ -87.844801605, 32.027504697 ], [ -87.844909206, 32.027642198 ], [ -87.845985003, 32.028054796 ], [ -87.845931001, 32.0283527 ], [ -87.845204704, 32.028810799 ], [ -87.845204704, 32.028994098 ], [ -87.845581204, 32.028994195 ], [ -87.8465496, 32.028811097 ], [ -87.846818402, 32.028971493 ], [ -87.847006604, 32.029452793 ], [ -87.847141102, 32.029590294 ], [ -87.848109402, 32.029498897 ], [ -87.848808706, 32.029613495 ], [ -87.849077702, 32.029773995 ], [ -87.848969802, 32.030438393 ], [ -87.8501532, 32.031194896 ], [ -87.850287601, 32.031561494 ] ] } },
{ "type": "Feature", "properties": { "site_no": "02469550", "nhdplus_comid": "18543672", "navigation_mode": "UM", "requested_distance_km": 12.0, "start_source": "nwissite", "start_id": "USGS-02469550", "geometry_length_km": 1.7617343856009386 }, "geometry": { "type": "LineString", "coordinates": [ [ -87.819829904, 32.000595495 ], [ -87.820609204, 32.001420699 ], [ -87.820770301, 32.001764499 ], [ -87.820716307, 32.002062298 ], [ -87.820205301, 32.002314195 ], [ -87.819828607, 32.002772294 ], [ -87.819828101, 32.003482595 ], [ -87.819935605, 32.003665894 ], [ -87.820311904, 32.003872395 ], [ -87.820580907, 32.0038267 ], [ -87.821388103, 32.003047995 ], [ -87.821549401, 32.002979293 ], [ -87.822006404, 32.003048196 ], [ -87.822328903, 32.003483698 ], [ -87.822544001, 32.003644198 ], [ -87.822786003, 32.003575496 ], [ -87.822920702, 32.003163196 ], [ -87.823109105, 32.0028653 ], [ -87.823270507, 32.002796695 ], [ -87.823647, 32.002819695 ], [ -87.824103907, 32.003003195 ], [ -87.824802503, 32.003942899 ], [ -87.825071603, 32.003851399 ], [ -87.825475, 32.003553696 ], [ -87.825797707, 32.003668293 ], [ -87.8260931, 32.004332997 ], [ -87.826442406, 32.004722595 ], [ -87.827437006, 32.005364597 ], [ -87.8279211, 32.005296096 ], [ -87.828243904, 32.005158797 ], [ -87.828566507, 32.005181797 ], [ -87.828539506, 32.005571298 ], [ -87.8287815, 32.005754694 ], [ -87.829292506, 32.005777799 ], [ -87.829641901, 32.0059155 ], [ -87.829641804, 32.006190397 ], [ -87.829453506, 32.006373599 ] ] } }
]
}
