{
"type": "FeatureCollection",
"name": "USGS_02374700_DM_12km",
"crs": { "type": "name", "properties": { "name": "urn:ogc:def:crs:OGC:1.3:CRS84" } },
"features": [
{ "type": "Feature", "properties": { "site_no": "02374700", "nhdplus_comid": "2413350", "navigation_mode": "DM", "requested_distance_km": 12.0, "start_source": "nwissite", "start_id": "USGS-02374700", "geometry_length_km": 0.73530305367370463 }, "geometry": { "type": "LineString", "coordinates": [ [ -87.068552648, 31.100431527 ], [ -87.0686123, 31.100405894 ], [ -87.069225207, 31.099879093 ], [ -87.069678403, 31.099191695 ], [ -87.070131406, 31.098664798 ], [ -87.0713569, 31.098115295 ], [ -87.074021004, 31.096649498 ], [ -87.074553803, 31.096512198 ] ] } },
{ "type": "Feature", "properties": { "site_no": "02374700", "nhdplus_comid": "2413396", "navigation_mode": "DM", "requested_distance_km": 12.0, "start_source": "nwissite", "start_id": "USGS-02374700", "geometry_length_km": 2.4389075292708866 }, "geometry": { "type": "LineString", "coordinates": [ [ -87.074553803, 31.096512198 ], [ -87.075752601, 31.096054293 ], [ -87.076365307, 31.095733598 ], [ -87.076631807, 31.095321193 ], [ -87.076738603, 31.094862893 ], [ -87.076738901, 31.094175294 ], [ -87.076899007, 31.093739897 ], [ -87.077458501, 31.093235895 ], [ -87.079109803, 31.092801094 ], [ -87.080281906, 31.092343099 ], [ -87.080654904, 31.0920453 ], [ -87.081347607, 31.091220498 ], [ -87.082120202, 31.090601899 ], [ -87.082440004, 31.0900978 ], [ -87.082626604, 31.089524895 ], [ -87.082627207, 31.088355996 ], [ -87.082361102, 31.087759994 ], [ -87.081722401, 31.086820096 ], [ -87.081642807, 31.086361796 ], [ -87.081723005, 31.085261695 ], [ -87.082122907, 31.084230497 ], [ -87.083162107, 31.082764 ], [ -87.083775103, 31.081709899 ], [ -87.083828703, 31.080747396 ], [ -87.083589107, 31.080426395 ], [ -87.083536103, 31.079945199 ], [ -87.0834563, 31.079830498 ], [ -87.083429702, 31.079463899 ], [ -87.0833233, 31.079372093 ], [ -87.083350107, 31.078959599 ] ] } },
{ "type": "Feature", "properties": { "site_no": "02374700", "nhdplus_comid": "2413408", "navigation_mode": "DM", "requested_distance_km": 12.0, "start_source": "nwissite", "start_id": "USGS-02374700", "geometry_length_km": 0.46271143306791307 }, "geometry": { "type": "LineString", "coordinates": [ [ -87.083350107, 31.078959599 ], [ -87.083350405, 31.078042895 ], [ -87.083004504, 31.077515699 ], [ -87.083058104, 31.076805294 ], [ -87.083404407, 31.0763698 ], [ -87.083803803, 31.076347098 ], [ -87.084416203, 31.076645195 ], [ -87.084948704, 31.076645397 ] ] } },
{ "type": "Feature", "properties": { "site_no": "02374700", "nhdplus_comid": "2413424", "navigation_mode": "DM", "requested_distance_km": 12.0, "start_source": "nwissite", "start_id": "USGS-02374700", "geometry_length_km": 0.72862701097746296 }, "geometry": { "type": "LineString", "coordinates": [ [ -87.084948704, 31.076645397 ], [ -87.084948801, 31.076461993 ], [ -87.085588105, 31.075889297 ], [ -87.086626701, 31.075385399 ], [ -87.088357702, 31.074950397 ], [ -87.088703901, 31.074675493 ], [ -87.089156806, 31.074033894 ], [ -87.089875802, 31.074034095 ], [ -87.090621203, 31.074492693 ], [ -87.091153704, 31.074538596 ] ] } },
{ "type": "Feature", "properties": { "site_no": "02374700", "nhdplus_comid": "2413432", "navigation_mode": "DM", "requested_distance_km": 12.0, "start_source": "nwissite", "start_id": "USGS-02374700", "geometry_length_km": 1.0800227445717365 }, "geometry": { "type": "LineString", "coordinates": [ [ -87.091153704, 31.074538596 ], [ -87.091526501, 31.074286595 ], [ -87.091659807, 31.074011594 ], [ -87.0917399, 31.073507495 ], [ -87.091979504, 31.073301196 ], [ -87.092512205, 31.073209696 ], [ -87.0934439, 31.073576599 ], [ -87.094189502, 31.073599599 ], [ -87.094642103, 31.073462196 ], [ -87.094988406, 31.073141493 ], [ -87.095228203, 31.072751999 ], [ -87.095281601, 31.072201997 ], [ -87.095148601, 31.0717206 ], [ -87.095388405, 31.071331099 ], [ -87.095814601, 31.070964396 ], [ -87.097518705, 31.0704147 ], [ -87.097838402, 31.070162699 ], [ -87.098184705, 31.069337696 ], [ -87.098291203, 31.069246098 ] ] } },
{ "type": "Feature", "properties": { "site_no": "02374700", "nhdplus_comid": "2413442", "navigation_mode": "DM", "requested_distance_km": 12.0, "start_source": "nwissite", "start_id": "USGS-02374700", "geometry_length_km": 0.16188737514458118 }, "geometry": { "type": "LineString", "coordinates": [ [ -87.098291203, 31.069246098 ], [ -87.098025203, 31.068260498 ], [ -87.097732507, 31.067893796 ] ] } },
{ "type": "Feature", "properties": { "site_no": "02374700", "nhdplus_comid": "2413988", "navigation_mode": "DM", "requested_distance_km": 12.0, "start_source": "nwissite", "start_id": "USGS-02374700", "geometry_length_km": 0.058106185667478528 }, "geometry": { "type": "LineString", "coordinates": [ [ -87.097732507, 31.067893796 ], [ -87.097658403, 31.067743793 ], [ -87.097626805, 31.067658097 ], [ -87.097595103, 31.067572296 ], [ -87.097563401, 31.067486599 ], [ -87.097531803, 31.067400895 ] ] } },
{ "type": "Feature", "properties": { "site_no": "02374700", "nhdplus_comid": "2413990", "navigation_mode": "DM", "requested_distance_km": 12.0, "start_source": "nwissite", "start_id": "USGS-02374700", "geometry_length_km": 0.10662701824678314 }, "geometry": { "type": "LineString", "coordinates": [ [ -87.097531803, 31.067400895 ], [ -87.098067701, 31.066558897 ] ] } },
{ "type": "Feature", "properties": { "site_no": "02374700", "nhdplus_comid": "2414008", "navigation_mode": "DM", "requested_distance_km": 12.0, "start_source": "nwissite", "start_id": "USGS-02374700", "geometry_length_km": 0.91746807235810912 }, "geometry": { "type": "LineString", "coordinates": [ [ -87.098067701, 31.066558897 ], [ -87.098127604, 31.064667299 ], [ -87.097875901, 31.064267799 ], [ -87.097839504, 31.0632535 ], [ -87.0979634, 31.062125593 ], [ -87.099369407, 31.060089193 ], [ -87.099667206, 31.058722496 ] ] } },
{ "type": "Feature", "properties": { "site_no": "02374700", "nhdplus_comid": "2414020", "navigation_mode": "DM", "requested_distance_km": 12.0, "start_source": "nwissite", "start_id": "USGS-02374700", "geometry_length_km": 0.34648436772436025 }, "geometry": { "type": "LineString", "coordinates": [ [ -87.099667206, 31.058722496 ], [ -87.099491604, 31.055610798 ] ] } },
{ "type": "Feature", "properties": { "site_no": "02374700", "nhdplus_comid": "2414026", "navigation_mode": "DM", "requested_distance_km": 12.0, "start_source": "nwissite", "start_id": "USGS-02374700", "geometry_length_km": 0.92550938271343064 }, "geometry": { "type": "LineString", "coordinates": [ [ -87.099491604, 31.055610798 ], [ -87.100080006, 31.054962695 ], [ -87.102483802, 31.053259395 ], [ -87.103243701, 31.053067595 ], [ -87.1049878, 31.053334095 ], [ -87.106461704, 31.054716699 ], [ -87.107327007, 31.054912597 ] ] } },
{ "type": "Feature", "properties": { "site_no": "02374700", "nhdplus_comid": "2414032", "navigation_mode": "DM", "requested_distance_km": 12.0, "start_source": "nwissite", "start_id": "USGS-02374700", "geometry_length_km": 3.0585214065962436 }, "geometry": { "type": "LineString", "coordinates": [ [ -87.107327007, 31.054912597 ], [ -87.108274601, 31.054356597 ], [ -87.1083709, 31.053479299 ], [ -87.107455403, 31.052394398 ], [ -87.107579105, 31.051266395 ], [ -87.109131202, 31.049241699 ], [ -87.109602802, 31.047635898 ], [ -87.109154306, 31.046335593 ], [ -87.108266406, 31.044999994 ], [ -87.108376406, 31.0439974 ], [ -87.1091775, 31.043429494 ], [ -87.109937303, 31.043237694 ], [ -87.112134404, 31.043413997 ], [ -87.114500903, 31.044741794 ], [ -87.115526207, 31.044824094 ], [ -87.115846604, 31.044596896 ], [ -87.116089202, 31.043731399 ], [ -87.115306504, 31.042783596 ], [ -87.114977002, 31.0417457 ], [ -87.115233302, 31.040754795 ], [ -87.115929, 31.039799094 ], [ -87.116107605, 31.038169794 ], [ -87.115405001, 31.037165195 ] ] } }
]
}
