{
"type": "FeatureCollection",
"name": "USGS_02400500_UM_12km",
"crs": { "type": "name", "properties": { "name": "urn:ogc:def:crs:OGC:1.3:CRS84" } },
"features": [
{ "type": "Feature", "properties": { "site_no": "02400500", "nhdplus_comid": "22199843", "navigation_mode": "UM", "requested_distance_km": 12.0, "start_source": "nwissite", "start_id": "USGS-02400500", "geometry_length_km": 0.87725360126551988 }, "geometry": { "type": "LineString", "coordinates": [ [ -85.9913553, 34.016230993 ], [ -85.993634507, 34.014035299 ], [ -85.997208707, 34.011321895 ], [ -85.997800225, 34.010481169 ] ] } },
{ "type": "Feature", "properties": { "site_no": "02400500", "nhdplus_comid": "22211911", "navigation_mode": "UM", "requested_distance_km": 12.0, "start_source": "nwissite", "start_id": "USGS-02400500", "geometry_length_km": 0.61576038200391348 }, "geometry": { "type": "LineString", "coordinates": [ [ -85.9878878, 34.0209115 ], [ -85.988699205, 34.020157494 ], [ -85.990083501, 34.017758295 ], [ -85.9913553, 34.016230993 ] ] } },
{ "type": "Feature", "properties": { "site_no": "02400500", "nhdplus_comid": "22199835", "navigation_mode": "UM", "requested_distance_km": 12.0, "start_source": "nwissite", "start_id": "USGS-02400500", "geometry_length_km": 3.2544491562265527 }, "geometry": { "type": "LineString", "coordinates": [ [ -85.956429407, 34.010803699 ], [ -85.959107503, 34.0102809 ], [ -85.963375404, 34.010526195 ], [ -85.966164105, 34.011524498 ], [ -85.973106503, 34.0160328 ], [ -85.977133602, 34.018146098 ], [ -85.979770802, 34.019130893 ], [ -85.980042405, 34.019406393 ], [ -85.981241301, 34.0196364 ], [ -85.984166302, 34.020771995 ], [ -85.987474807, 34.021295294 ], [ -85.9878878, 34.0209115 ] ] } },
{ "type": "Feature", "properties": { "site_no": "02400500", "nhdplus_comid": "22211919", "navigation_mode": "UM", "requested_distance_km": 12.0, "start_source": "nwissite", "start_id": "USGS-02400500", "geometry_length_km": 0.27877429651466273 }, "geometry": { "type": "LineString", "coordinates": [ [ -85.953874305, 34.012155995 ], [ -85.956429407, 34.010803699 ] ] } },
{ "type": "Feature", "properties": { "site_no": "02400500", "nhdplus_comid": "22199831", "navigation_mode": "UM", "requested_distance_km": 12.0, "start_source": "nwissite", "start_id": "USGS-02400500", "geometry_length_km": 1.2620679671879689 }, "geometry": { "type": "LineString", "coordinates": [ [ -85.941555902, 34.016562894 ], [ -85.9431068, 34.016446099 ], [ -85.9462891, 34.015589595 ], [ -85.947264805, 34.015170693 ], [ -85.950624302, 34.012943797 ], [ -85.9530311, 34.012145594 ], [ -85.953874305, 34.012155995 ] ] } },
{ "type": "Feature", "properties": { "site_no": "02400500", "nhdplus_comid": "22199819", "navigation_mode": "UM", "requested_distance_km": 12.0, "start_source": "nwissite", "start_id": "USGS-02400500", "geometry_length_km": 1.6328005479617447 }, "geometry": { "type": "LineString", "coordinates": [ [ -85.924244307, 34.015052997 ], [ -85.924515605, 34.015328594 ], [ -85.927232906, 34.015691794 ], [ -85.931404106, 34.016685598 ], [ -85.936567307, 34.017135896 ], [ -85.9382862, 34.016907796 ], [ -85.939501107, 34.017013699 ], [ -85.941555902, 34.016562894 ] ] } },
{ "type": "Feature", "properties": { "site_no": "02400500", "nhdplus_comid": "22199841", "navigation_mode": "UM", "requested_distance_km": 12.0, "start_source": "nwissite", "start_id": "USGS-02400500", "geometry_length_km": 2.8279860026032289 }, "geometry": { "type": "LineString", "coordinates": [ [ -85.904532507, 34.000110693 ], [ -85.9045173, 34.000227295 ], [ -85.904501103, 34.000351794 ], [ -85.904484905, 34.000476398 ], [ -85.9044687, 34.000600994 ], [ -85.904548205, 34.000681698 ], [ -85.904644102, 34.000779197 ], [ -85.904740006, 34.000876695 ], [ -85.904723801, 34.001001194 ], [ -85.904707603, 34.001125798 ], [ -85.904691406, 34.001250394 ], [ -85.904675305, 34.001374893 ], [ -85.9046591, 34.001499496 ], [ -85.904642902, 34.0016241 ], [ -85.904626705, 34.001748599 ], [ -85.9046105, 34.001873195 ], [ -85.904594302, 34.001997694 ], [ -85.904578105, 34.002122298 ], [ -85.904561907, 34.002246894 ], [ -85.904545702, 34.002371393 ], [ -85.9045716, 34.002457097 ], [ -85.904608205, 34.002578698 ], [ -85.904644802, 34.002700299 ], [ -85.904681601, 34.0028219 ], [ -85.904718302, 34.002943493 ], [ -85.904754907, 34.003065199 ], [ -85.904791601, 34.0031868 ], [ -85.904828303, 34.003308393 ], [ -85.9048649, 34.003429994 ], [ -85.904901601, 34.003551595 ], [ -85.904938303, 34.003673196 ], [ -85.904975004, 34.003794797 ], [ -85.904975101, 34.003802598 ], [ -85.904977903, 34.003927797 ], [ -85.904980704, 34.004053093 ], [ -85.904983401, 34.004178293 ], [ -85.904986106, 34.004303597 ], [ -85.904989004, 34.004428796 ], [ -85.904991701, 34.004554093 ], [ -85.904994503, 34.0046793 ], [ -85.904997304, 34.004804596 ], [ -85.905032307, 34.004867695 ], [ -85.905095607, 34.004981697 ], [ -85.905158907, 34.005095698 ], [ -85.905222304, 34.005209699 ], [ -85.905285604, 34.005323693 ], [ -85.905348904, 34.005437694 ], [ -85.905412205, 34.005551696 ], [ -85.905475602, 34.005665697 ], [ -85.905538805, 34.005779698 ], [ -85.905602105, 34.0058937 ], [ -85.905665405, 34.006007694 ], [ -85.905728705, 34.006121695 ], [ -85.905792005, 34.006235696 ], [ -85.905855305, 34.006349698 ], [ -85.905918606, 34.006463699 ], [ -85.905981906, 34.006577596 ], [ -85.906045206, 34.006691597 ], [ -85.906108506, 34.006805599 ], [ -85.906171806, 34.0069196 ], [ -85.906235106, 34.007033594 ], [ -85.906298406, 34.007147595 ], [ -85.906361707, 34.007261597 ], [ -85.906425104, 34.007375598 ], [ -85.906488404, 34.007489599 ], [ -85.906551704, 34.007603593 ], [ -85.906615004, 34.007717595 ], [ -85.906695604, 34.007799499 ], [ -85.906791501, 34.007896997 ], [ -85.906887405, 34.007994495 ], [ -85.906983405, 34.008091994 ], [ -85.907079302, 34.008189395 ], [ -85.907175206, 34.008286893 ], [ -85.907271102, 34.008384399 ], [ -85.907367006, 34.008481793 ], [ -85.907463007, 34.008579299 ], [ -85.907558903, 34.008676797 ], [ -85.907654904, 34.008774199 ], [ -85.907750703, 34.008871697 ], [ -85.9078466, 34.008969195 ], [ -85.907942601, 34.009066597 ], [ -85.908038504, 34.009164095 ], [ -85.908134401, 34.009261593 ], [ -85.908230305, 34.009358995 ], [ -85.908326305, 34.009456493 ], [ -85.908422202, 34.009553999 ], [ -85.908518106, 34.0096514 ], [ -85.908614002, 34.009748898 ], [ -85.908710003, 34.009846397 ], [ -85.908805802, 34.009943895 ], [ -85.908901803, 34.010041296 ], [ -85.908997707, 34.010138795 ], [ -85.909093603, 34.010236293 ], [ -85.909189604, 34.010333695 ], [ -85.909285501, 34.0104312 ], [ -85.909381405, 34.010528699 ], [ -85.909477405, 34.0106261 ], [ -85.909573302, 34.010723598 ], [ -85.909669206, 34.010821097 ], [ -85.909765102, 34.010918498 ], [ -85.909861103, 34.011015996 ], [ -85.909957007, 34.011113495 ], [ -85.910052903, 34.011210896 ], [ -85.910148807, 34.011308394 ], [ -85.9102448, 34.0114059 ], [ -85.910340704, 34.011503294 ], [ -85.9104366, 34.0116008 ], [ -85.910532504, 34.011698298 ], [ -85.910628505, 34.0117957 ], [ -85.910724401, 34.011893198 ], [ -85.910820201, 34.011990696 ], [ -85.910868704, 34.012024596 ], [ -85.910984606, 34.012106098 ], [ -85.911100604, 34.0121876 ], [ -85.911216505, 34.012269095 ], [ -85.911332503, 34.012350596 ], [ -85.9114483, 34.012432098 ], [ -85.911564402, 34.012513593 ], [ -85.9116804, 34.012595095 ], [ -85.911796302, 34.012676693 ], [ -85.911912307, 34.012758195 ], [ -85.912028201, 34.012839697 ], [ -85.912144206, 34.012921199 ], [ -85.912260205, 34.013002694 ], [ -85.912376106, 34.013084196 ], [ -85.912492104, 34.013165697 ], [ -85.912608102, 34.013247199 ], [ -85.912724003, 34.013328694 ], [ -85.912840001, 34.013410196 ], [ -85.912956007, 34.013491698 ], [ -85.913071901, 34.0135732 ], [ -85.913164206, 34.013601996 ], [ -85.913307004, 34.013646595 ], [ -85.913449705, 34.013691097 ], [ -85.913592406, 34.0137356 ], [ -85.913735107, 34.013780199 ], [ -85.913877904, 34.013824694 ], [ -85.914020605, 34.013869196 ], [ -85.914163403, 34.013913795 ], [ -85.914306104, 34.013958298 ], [ -85.914448805, 34.0140028 ], [ -85.914591603, 34.014047399 ], [ -85.914734304, 34.014091894 ], [ -85.914877005, 34.014136396 ], [ -85.915019803, 34.014180996 ], [ -85.915162504, 34.014225498 ], [ -85.915305205, 34.01427 ], [ -85.915448003, 34.014314599 ], [ -85.915590703, 34.014359094 ], [ -85.915733501, 34.014403597 ], [ -85.915876202, 34.014448099 ], [ -85.915877603, 34.014448196 ], [ -85.916029707, 34.0144592 ], [ -85.916181803, 34.014470197 ], [ -85.916333906, 34.014481194 ], [ -85.916486107, 34.014492199 ], [ -85.916638203, 34.014503196 ], [ -85.916790307, 34.014514193 ], [ -85.916942403, 34.014525197 ], [ -85.917094506, 34.014536195 ], [ -85.917246707, 34.014547199 ], [ -85.917398803, 34.014558196 ], [ -85.917550907, 34.014569193 ], [ -85.917703003, 34.014580198 ], [ -85.917855106, 34.014591195 ], [ -85.918007307, 34.014602199 ], [ -85.918159403, 34.014613196 ], [ -85.918311402, 34.014624193 ], [ -85.918463603, 34.014635198 ], [ -85.918615706, 34.014646195 ], [ -85.918767907, 34.014657199 ], [ -85.918920003, 34.014668196 ], [ -85.919072106, 34.014679193 ], [ -85.919224203, 34.014690198 ], [ -85.919376403, 34.014701195 ], [ -85.919528507, 34.0147122 ], [ -85.919680603, 34.014723197 ], [ -85.919832706, 34.014734194 ], [ -85.919984803, 34.014745198 ], [ -85.920137003, 34.014756195 ], [ -85.920289107, 34.0147672 ], [ -85.920441203, 34.014778197 ], [ -85.920593403, 34.014789194 ], [ -85.920745403, 34.014800198 ], [ -85.920897603, 34.014811195 ], [ -85.921049707, 34.0148222 ], [ -85.921201803, 34.014833197 ], [ -85.921353906, 34.014844097 ], [ -85.921506107, 34.014855094 ], [ -85.921658203, 34.014866099 ], [ -85.921810307, 34.014877096 ], [ -85.921962403, 34.014888093 ], [ -85.922114506, 34.014899097 ], [ -85.922266707, 34.014910094 ], [ -85.922418803, 34.014921099 ], [ -85.922570907, 34.014932096 ], [ -85.922723003, 34.014943093 ], [ -85.922875203, 34.014954098 ], [ -85.923027307, 34.014965095 ], [ -85.923179403, 34.014976099 ], [ -85.923331507, 34.014986999 ], [ -85.923483603, 34.014997996 ], [ -85.923635803, 34.015008993 ], [ -85.923787907, 34.015019998 ], [ -85.923940003, 34.015030995 ], [ -85.924092107, 34.015042 ], [ -85.924244307, 34.015052997 ] ] } },
{ "type": "Feature", "properties": { "site_no": "02400500", "nhdplus_comid": "26132843", "navigation_mode": "UM", "requested_distance_km": 12.0, "start_source": "nwissite", "start_id": "USGS-02400500", "geometry_length_km": 4.0028913087874951 }, "geometry": { "type": "LineString", "coordinates": [ [ -85.881869301, 34.0001022 ], [ -85.880887702, 33.997227199 ], [ -85.880717903, 33.995405793 ], [ -85.8813731, 33.993960395 ], [ -85.882333204, 33.992448695 ], [ -85.884647407, 33.991018295 ], [ -85.887234002, 33.989912994 ], [ -85.890237205, 33.988649994 ], [ -85.893456005, 33.987826593 ], [ -85.894841507, 33.987608694 ], [ -85.896196507, 33.987620898 ], [ -85.8984548, 33.988355294 ], [ -85.899963602, 33.989313297 ], [ -85.9005353, 33.990009494 ], [ -85.901148506, 33.991788797 ], [ -85.901572503, 33.993220896 ], [ -85.902495705, 33.994565293 ], [ -85.903229907, 33.995539397 ], [ -85.903880805, 33.996535793 ], [ -85.9042283, 33.997483395 ], [ -85.904591903, 33.999329597 ], [ -85.904532507, 34.000110693 ] ] } }
]
}
