{
"type": "FeatureCollection",
"name": "USGS_02450250_DM_12km",
"crs": { "type": "name", "properties": { "name": "urn:ogc:def:crs:OGC:1.3:CRS84" } },
"features": [
{ "type": "Feature", "properties": { "site_no": "02450250", "nhdplus_comid": "18578829", "navigation_mode": "DM", "requested_distance_km": 12.0, "start_source": "nwissite", "start_id": "USGS-02450250", "geometry_length_km": 4.6928015634582758 }, "geometry": { "type": "LineString", "coordinates": [ [ -87.399325578, 34.285082221 ], [ -87.399082206, 34.2846561 ], [ -87.397922806, 34.2835567 ], [ -87.396597907, 34.283121794 ], [ -87.3961289, 34.283236399 ], [ -87.395522006, 34.283717498 ], [ -87.394970201, 34.284496397 ], [ -87.393094003, 34.285985693 ], [ -87.391438201, 34.286535598 ], [ -87.390555203, 34.286742099 ], [ -87.387961105, 34.286925599 ], [ -87.387022704, 34.286742494 ], [ -87.385836005, 34.286376096 ], [ -87.383600503, 34.285368398 ], [ -87.382882901, 34.284933195 ], [ -87.382468902, 34.284566596 ], [ -87.382331006, 34.284016997 ], [ -87.382689506, 34.283146493 ], [ -87.383572504, 34.282642499 ], [ -87.384096704, 34.281703293 ], [ -87.384924501, 34.280924395 ], [ -87.385228001, 34.280191295 ], [ -87.384869106, 34.279343799 ], [ -87.384593107, 34.279000193 ], [ -87.384482801, 34.278702393 ], [ -87.384537704, 34.277236395 ], [ -87.384344503, 34.276732497 ], [ -87.384096101, 34.276388898 ], [ -87.383709706, 34.276113994 ], [ -87.38233, 34.275472693 ], [ -87.380012006, 34.274006799 ], [ -87.378356405, 34.273296796 ], [ -87.377114601, 34.273113593 ], [ -87.3754315, 34.273090795 ], [ -87.375017501, 34.273136497 ], [ -87.373693205, 34.273548894 ], [ -87.372065105, 34.2743048 ], [ -87.370023206, 34.275862396 ], [ -87.368809007, 34.2765266 ], [ -87.367512107, 34.277396999 ], [ -87.367456801, 34.2775345 ] ] } },
{ "type": "Feature", "properties": { "site_no": "02450250", "nhdplus_comid": "18578815", "navigation_mode": "DM", "requested_distance_km": 12.0, "start_source": "nwissite", "start_id": "USGS-02450250", "geometry_length_km": 0.51792064101876789 }, "geometry": { "type": "LineString", "coordinates": [ [ -87.367456801, 34.2775345 ], [ -87.367263705, 34.277580298 ], [ -87.366380602, 34.278107099 ], [ -87.365856305, 34.278267495 ], [ -87.365332, 34.278267398 ], [ -87.365056001, 34.2779238 ], [ -87.364863001, 34.277465597 ], [ -87.364200801, 34.276824199 ], [ -87.364090405, 34.276549295 ], [ -87.364063002, 34.275884993 ] ] } },
{ "type": "Feature", "properties": { "site_no": "02450250", "nhdplus_comid": "18578867", "navigation_mode": "DM", "requested_distance_km": 12.0, "start_source": "nwissite", "start_id": "USGS-02450250", "geometry_length_km": 1.8524909554436357 }, "geometry": { "type": "LineString", "coordinates": [ [ -87.364063002, 34.275884993 ], [ -87.364752904, 34.273548499 ], [ -87.364670202, 34.272930093 ], [ -87.364504702, 34.272494793 ], [ -87.364256404, 34.272197098 ], [ -87.362766601, 34.271234795 ], [ -87.362766705, 34.270639196 ], [ -87.363208205, 34.270020798 ], [ -87.364146404, 34.2694024 ], [ -87.368781902, 34.268715397 ], [ -87.370271705, 34.268417694 ], [ -87.370989203, 34.268188596 ], [ -87.371568605, 34.267799295 ], [ -87.372258306, 34.267066196 ], [ -87.372672305, 34.266493596 ], [ -87.373362102, 34.265737697 ] ] } },
{ "type": "Feature", "properties": { "site_no": "02450250", "nhdplus_comid": "18578959", "navigation_mode": "DM", "requested_distance_km": 12.0, "start_source": "nwissite", "start_id": "USGS-02450250", "geometry_length_km": 2.3607110375447427 }, "geometry": { "type": "LineString", "coordinates": [ [ -87.373362102, 34.265737697 ], [ -87.373693101, 34.264821298 ], [ -87.374051802, 34.264179893 ], [ -87.374548502, 34.262874193 ], [ -87.374686204, 34.260675199 ], [ -87.374769107, 34.260446198 ], [ -87.374769002, 34.259140499 ], [ -87.374851801, 34.258796893 ], [ -87.374851801, 34.257514097 ], [ -87.374520801, 34.256620698 ], [ -87.373996601, 34.256208397 ], [ -87.3732794, 34.256070897 ], [ -87.372231007, 34.256185494 ], [ -87.371651605, 34.256345794 ], [ -87.370575704, 34.257330894 ], [ -87.369803205, 34.257903397 ], [ -87.3692239, 34.258155398 ], [ -87.3685342, 34.2582241 ], [ -87.367872, 34.257949196 ], [ -87.367430702, 34.257422298 ], [ -87.367210001, 34.256895497 ], [ -87.367154904, 34.256391495 ], [ -87.367486104, 34.255039997 ], [ -87.367486104, 34.253917597 ], [ -87.367182702, 34.252817996 ] ] } },
{ "type": "Feature", "properties": { "site_no": "02450250", "nhdplus_comid": "18580153", "navigation_mode": "DM", "requested_distance_km": 12.0, "start_source": "nwissite", "start_id": "USGS-02450250", "geometry_length_km": 1.195328727174092 }, "geometry": { "type": "LineString", "coordinates": [ [ -87.367182702, 34.252817996 ], [ -87.367044903, 34.251145795 ], [ -87.367158905, 34.250104293 ], [ -87.367628001, 34.246255897 ], [ -87.367462501, 34.245912299 ], [ -87.366497107, 34.245156296 ], [ -87.365807503, 34.2448356 ], [ -87.364428401, 34.243896298 ], [ -87.364069805, 34.243461095 ] ] } },
{ "type": "Feature", "properties": { "site_no": "02450250", "nhdplus_comid": "18578989", "navigation_mode": "DM", "requested_distance_km": 12.0, "start_source": "nwissite", "start_id": "USGS-02450250", "geometry_length_km": 2.4135007723768473 }, "geometry": { "type": "LineString", "coordinates": [ [ -87.364069805, 34.243461095 ], [ -87.3640147, 34.242888398 ], [ -87.364235401, 34.242705196 ], [ -87.364814602, 34.242521897 ], [ -87.365918003, 34.242384493 ], [ -87.370358802, 34.243667498 ], [ -87.371048406, 34.243667498 ], [ -87.371931106, 34.243232198 ], [ -87.372151703, 34.242980197 ], [ -87.372179307, 34.242086798 ], [ -87.372372404, 34.241285093 ], [ -87.372537903, 34.2396359 ], [ -87.372923903, 34.237871997 ], [ -87.373337604, 34.236520499 ], [ -87.373972006, 34.235787399 ], [ -87.374358103, 34.235581197 ], [ -87.375020102, 34.235443793 ], [ -87.375571705, 34.235420793 ], [ -87.376537107, 34.235672794 ], [ -87.378357306, 34.2359934 ], [ -87.379267506, 34.235855997 ], [ -87.381198004, 34.234939598 ] ] } }
]
}
