{
"type": "FeatureCollection",
"name": "USGS_02443230_DM_12km",
"crs": { "type": "name", "properties": { "name": "urn:ogc:def:crs:OGC:1.3:CRS84" } },
"features": [
{ "type": "Feature", "properties": { "site_no": "02443230", "nhdplus_comid": "18647888", "navigation_mode": "DM", "requested_distance_km": 12.0, "start_source": "nwissite", "start_id": "USGS-02443230", "geometry_length_km": 1.7211675181517023 }, "geometry": { "type": "LineString", "coordinates": [ [ -88.162835886, 33.608410806 ], [ -88.163080901, 33.608265996 ], [ -88.163984202, 33.607967898 ], [ -88.164586507, 33.607921794 ], [ -88.165490001, 33.608150594 ], [ -88.166502804, 33.608150199 ], [ -88.167132705, 33.608310297 ], [ -88.167680204, 33.608264394 ], [ -88.1682823, 33.608035095 ], [ -88.168638207, 33.607920498 ], [ -88.168912105, 33.608309694 ], [ -88.169322707, 33.608309597 ], [ -88.169514202, 33.6080347 ], [ -88.169513807, 33.607232898 ], [ -88.169787303, 33.606934994 ], [ -88.170280106, 33.606889099 ], [ -88.170964606, 33.607117794 ], [ -88.171840802, 33.607346497 ], [ -88.172333501, 33.607392199 ], [ -88.174249701, 33.607047796 ], [ -88.174715005, 33.606818497 ], [ -88.175262406, 33.6066579 ], [ -88.175755203, 33.606772199 ], [ -88.176083706, 33.606772095 ], [ -88.176494204, 33.6065429 ], [ -88.176767506, 33.605855599 ], [ -88.176904306, 33.6056723 ], [ -88.177725501, 33.605625995 ], [ -88.177944407, 33.605511397 ], [ -88.178272702, 33.605167694 ] ] } },
{ "type": "Feature", "properties": { "site_no": "02443230", "nhdplus_comid": "18647900", "navigation_mode": "DM", "requested_distance_km": 12.0, "start_source": "nwissite", "start_id": "USGS-02443230", "geometry_length_km": 0.34643395069696498 }, "geometry": { "type": "LineString", "coordinates": [ [ -88.178272702, 33.605167694 ], [ -88.178354606, 33.604869895 ], [ -88.178546004, 33.604526095 ], [ -88.178765006, 33.604411699 ], [ -88.179504104, 33.604296796 ], [ -88.179914601, 33.604181997 ], [ -88.180051401, 33.6040674 ], [ -88.180051103, 33.603677996 ], [ -88.179914102, 33.603494897 ], [ -88.179859102, 33.603036799 ] ] } },
{ "type": "Feature", "properties": { "site_no": "02443230", "nhdplus_comid": "18647916", "navigation_mode": "DM", "requested_distance_km": 12.0, "start_source": "nwissite", "start_id": "USGS-02443230", "geometry_length_km": 0.67660083754398126 }, "geometry": { "type": "LineString", "coordinates": [ [ -88.179859102, 33.603036799 ], [ -88.180050604, 33.602876298 ], [ -88.180406503, 33.602922 ], [ -88.180734903, 33.602807298 ], [ -88.180816904, 33.602578193 ], [ -88.180597603, 33.602234699 ], [ -88.180597402, 33.601891093 ], [ -88.180734307, 33.601845197 ], [ -88.181008004, 33.601890899 ], [ -88.181555606, 33.602119699 ], [ -88.182185404, 33.602417193 ], [ -88.183061607, 33.602691598 ], [ -88.184239, 33.603103399 ], [ -88.1851153, 33.603331998 ], [ -88.1853889, 33.603331797 ] ] } },
{ "type": "Feature", "properties": { "site_no": "02443230", "nhdplus_comid": "18647912", "navigation_mode": "DM", "requested_distance_km": 12.0, "start_source": "nwissite", "start_id": "USGS-02443230", "geometry_length_km": 0.68035048654253383 }, "geometry": { "type": "LineString", "coordinates": [ [ -88.1853889, 33.603331797 ], [ -88.186072901, 33.602758899 ], [ -88.186757207, 33.602689698 ], [ -88.187030807, 33.602575094 ], [ -88.187386401, 33.602185495 ], [ -88.187577903, 33.602002099 ], [ -88.188535906, 33.601955794 ], [ -88.1888097, 33.602001399 ], [ -88.189220503, 33.6022304 ], [ -88.189220704, 33.602413498 ], [ -88.188673504, 33.602871999 ], [ -88.188673705, 33.603146896 ], [ -88.189084306, 33.603146695 ], [ -88.189905301, 33.602871396 ], [ -88.190042101, 33.602802597 ] ] } },
{ "type": "Feature", "properties": { "site_no": "02443230", "nhdplus_comid": "18647926", "navigation_mode": "DM", "requested_distance_km": 12.0, "start_source": "nwissite", "start_id": "USGS-02443230", "geometry_length_km": 0.38706552978453856 }, "geometry": { "type": "LineString", "coordinates": [ [ -88.190042101, 33.602802597 ], [ -88.191081703, 33.601839997 ], [ -88.191683806, 33.601610593 ], [ -88.192450106, 33.6015414 ], [ -88.193052404, 33.601609796 ], [ -88.193545006, 33.601494998 ], [ -88.193545006, 33.601426296 ] ] } },
{ "type": "Feature", "properties": { "site_no": "02443230", "nhdplus_comid": "18647928", "navigation_mode": "DM", "requested_distance_km": 12.0, "start_source": "nwissite", "start_id": "USGS-02443230", "geometry_length_km": 0.95433634518588006 }, "geometry": { "type": "LineString", "coordinates": [ [ -88.193545006, 33.601426296 ], [ -88.194147207, 33.601425894 ], [ -88.194557905, 33.601608895 ], [ -88.194831707, 33.601608694 ], [ -88.195789501, 33.601425 ], [ -88.196747705, 33.601424396 ], [ -88.197842807, 33.601606898 ], [ -88.198116601, 33.601721294 ], [ -88.1983907, 33.601950198 ], [ -88.198609702, 33.601950094 ], [ -88.199020103, 33.601835296 ], [ -88.200032607, 33.601376593 ], [ -88.200443007, 33.601261795 ], [ -88.2009359, 33.601490498 ], [ -88.201811902, 33.601489998 ], [ -88.202167802, 33.601535596 ], [ -88.202633604, 33.601947598 ], [ -88.202989601, 33.602061898 ], [ -88.203044504, 33.602176398 ] ] } },
{ "type": "Feature", "properties": { "site_no": "02443230", "nhdplus_comid": "18647924", "navigation_mode": "DM", "requested_distance_km": 12.0, "start_source": "nwissite", "start_id": "USGS-02443230", "geometry_length_km": 0.39501268746491747 }, "geometry": { "type": "LineString", "coordinates": [ [ -88.203044504, 33.602176398 ], [ -88.203318201, 33.602176197 ], [ -88.203454904, 33.602061599 ], [ -88.204084106, 33.601603098 ], [ -88.204412505, 33.6014883 ], [ -88.204631604, 33.601602696 ], [ -88.204686604, 33.601946197 ], [ -88.204823703, 33.602060698 ], [ -88.205097303, 33.602060497 ], [ -88.205316104, 33.601877093 ], [ -88.205589503, 33.601487495 ], [ -88.205917902, 33.601372696 ], [ -88.206137002, 33.6014871 ] ] } },
{ "type": "Feature", "properties": { "site_no": "02443230", "nhdplus_comid": "18647934", "navigation_mode": "DM", "requested_distance_km": 12.0, "start_source": "nwissite", "start_id": "USGS-02443230", "geometry_length_km": 1.0063670111272676 }, "geometry": { "type": "LineString", "coordinates": [ [ -88.206137002, 33.6014871 ], [ -88.206465401, 33.601418197 ], [ -88.2079705, 33.600913197 ], [ -88.208243906, 33.6006153 ], [ -88.208927602, 33.599927597 ], [ -88.209201105, 33.599698395 ], [ -88.209611505, 33.5994232 ], [ -88.210514806, 33.599537194 ], [ -88.211746402, 33.599307194 ], [ -88.212157205, 33.599467196 ], [ -88.212567806, 33.599466898 ], [ -88.213388704, 33.599305995 ], [ -88.214073002, 33.599305496 ], [ -88.214127906, 33.599351197 ], [ -88.214620903, 33.599579997 ], [ -88.2157159, 33.599647895 ], [ -88.215852901, 33.599762298 ] ] } },
{ "type": "Feature", "properties": { "site_no": "02443230", "nhdplus_comid": "18647938", "navigation_mode": "DM", "requested_distance_km": 12.0, "start_source": "nwissite", "start_id": "USGS-02443230", "geometry_length_km": 0.69518583842014059 }, "geometry": { "type": "LineString", "coordinates": [ [ -88.215852901, 33.599762298 ], [ -88.2165372, 33.599761695 ], [ -88.217412904, 33.599532098 ], [ -88.217905506, 33.599462897 ], [ -88.218371101, 33.5996916 ], [ -88.2188638, 33.599759899 ], [ -88.219411105, 33.599530496 ], [ -88.220150203, 33.599461295 ], [ -88.220560804, 33.599529594 ], [ -88.2211904, 33.599574998 ], [ -88.221792303, 33.599345393 ], [ -88.222886503, 33.598726094 ] ] } },
{ "type": "Feature", "properties": { "site_no": "02443230", "nhdplus_comid": "18647944", "navigation_mode": "DM", "requested_distance_km": 12.0, "start_source": "nwissite", "start_id": "USGS-02443230", "geometry_length_km": 0.40199278319437037 }, "geometry": { "type": "LineString", "coordinates": [ [ -88.222886503, 33.598726094 ], [ -88.223242506, 33.598771498 ], [ -88.223790102, 33.598954394 ], [ -88.224118501, 33.598885395 ], [ -88.224391706, 33.598426998 ], [ -88.224665307, 33.598312296 ], [ -88.224884301, 33.598312095 ], [ -88.225843005, 33.598883994 ], [ -88.226582207, 33.598951995 ] ] } },
{ "type": "Feature", "properties": { "site_no": "02443230", "nhdplus_comid": "18647946", "navigation_mode": "DM", "requested_distance_km": 12.0, "start_source": "nwissite", "start_id": "USGS-02443230", "geometry_length_km": 1.2888225507140427 }, "geometry": { "type": "LineString", "coordinates": [ [ -88.226582207, 33.598951995 ], [ -88.227348506, 33.598836899 ], [ -88.228087403, 33.598652996 ], [ -88.2285797, 33.598377794 ], [ -88.230221607, 33.598078497 ], [ -88.230906107, 33.598192595 ], [ -88.231590502, 33.598191895 ], [ -88.232137807, 33.598076895 ], [ -88.232548207, 33.597961999 ], [ -88.232959107, 33.598144896 ], [ -88.233506806, 33.598419294 ], [ -88.234054603, 33.598716594 ], [ -88.234246403, 33.598830894 ], [ -88.234930605, 33.598761596 ], [ -88.237065002, 33.598255694 ], [ -88.238570303, 33.598025195 ], [ -88.239172801, 33.598253697 ], [ -88.239309601, 33.598184898 ], [ -88.239802003, 33.598069794 ] ] } },
{ "type": "Feature", "properties": { "site_no": "02443230", "nhdplus_comid": "18648568", "navigation_mode": "DM", "requested_distance_km": 12.0, "start_source": "nwissite", "start_id": "USGS-02443230", "geometry_length_km": 2.9452429294657914 }, "geometry": { "type": "LineString", "coordinates": [ [ -88.239802003, 33.598069794 ], [ -88.239802301, 33.598184399 ], [ -88.239858001, 33.598940298 ], [ -88.240077205, 33.599054597 ], [ -88.240350805, 33.598939799 ], [ -88.240486801, 33.598367095 ], [ -88.240623407, 33.598183699 ], [ -88.240897, 33.598068893 ], [ -88.241307802, 33.598251797 ], [ -88.241992705, 33.598709196 ], [ -88.242540605, 33.598983496 ], [ -88.243225105, 33.599051595 ], [ -88.244319804, 33.598935999 ], [ -88.244648404, 33.599050194 ], [ -88.245333806, 33.599782497 ], [ -88.245334305, 33.600194797 ], [ -88.245197706, 33.600309394 ], [ -88.245198004, 33.600469798 ], [ -88.245827906, 33.600766897 ], [ -88.246102102, 33.601156093 ], [ -88.246294104, 33.601384997 ], [ -88.246787205, 33.601567693 ], [ -88.2471155, 33.601567298 ], [ -88.247662902, 33.601452298 ], [ -88.2479636, 33.601245895 ], [ -88.248783603, 33.600374699 ], [ -88.248975106, 33.6002599 ], [ -88.249112107, 33.600328498 ], [ -88.249659702, 33.600442499 ], [ -88.250043005, 33.600510694 ], [ -88.250984505, 33.600290895 ], [ -88.251532003, 33.600291498 ], [ -88.251805402, 33.6004292 ], [ -88.252133302, 33.600887597 ], [ -88.252899103, 33.601438098 ], [ -88.2534464, 33.601507299 ], [ -88.254541203, 33.6015542 ], [ -88.255909406, 33.601967797 ], [ -88.2567304, 33.6020144 ], [ -88.258153901, 33.602015696 ], [ -88.2589202, 33.602130897 ], [ -88.259248607, 33.6022458 ], [ -88.260698505, 33.603002995 ], [ -88.261027001, 33.602934599 ], [ -88.261985205, 33.602820896 ], [ -88.262943901, 33.602363594 ], [ -88.263710506, 33.602203995 ], [ -88.2640393, 33.601906598 ], [ -88.264395401, 33.6017465 ], [ -88.264669307, 33.601677999 ], [ -88.265353501, 33.601747394 ] ] } }
]
}
