{
"type": "FeatureCollection",
"name": "USGS_02374700_UM_12km",
"crs": { "type": "name", "properties": { "name": "urn:ogc:def:crs:OGC:1.3:CRS84" } },
"features": [
{ "type": "Feature", "properties": { "site_no": "02374700", "nhdplus_comid": "2413350", "navigation_mode": "UM", "requested_distance_km": 12.0, "start_source": "nwissite", "start_id": "USGS-02374700", "geometry_length_km": 0.99646365429161432 }, "geometry": { "type": "LineString", "coordinates": [ [ -87.060194202, 31.102854297 ], [ -87.061739005, 31.102832198 ], [ -87.063257501, 31.102534898 ], [ -87.063550606, 31.102168396 ], [ -87.063524507, 31.101389095 ], [ -87.063737907, 31.100930795 ], [ -87.064111106, 31.100541398 ], [ -87.064643905, 31.100312494 ], [ -87.065336406, 31.100312799 ], [ -87.066987306, 31.100886494 ], [ -87.067386806, 31.100932494 ], [ -87.068552648, 31.100431527 ] ] } },
{ "type": "Feature", "properties": { "site_no": "02374700", "nhdplus_comid": "2413338", "navigation_mode": "UM", "requested_distance_km": 12.0, "start_source": "nwissite", "start_id": "USGS-02374700", "geometry_length_km": 1.0683918211005325 }, "geometry": { "type": "LineString", "coordinates": [ [ -87.052359506, 31.108236 ], [ -87.053425305, 31.107617795 ], [ -87.054464802, 31.106793299 ], [ -87.054864705, 31.106312193 ], [ -87.055344701, 31.105487399 ], [ -87.0563308, 31.10464 ], [ -87.056624107, 31.104158796 ], [ -87.056757703, 31.103608795 ], [ -87.056997806, 31.103150599 ], [ -87.057610705, 31.102715395 ], [ -87.058329806, 31.102715798 ], [ -87.058649302, 31.102876499 ], [ -87.059501506, 31.103037298 ], [ -87.060194202, 31.102854297 ] ] } },
{ "type": "Feature", "properties": { "site_no": "02374700", "nhdplus_comid": "2413320", "navigation_mode": "UM", "requested_distance_km": 12.0, "start_source": "nwissite", "start_id": "USGS-02374700", "geometry_length_km": 2.1447622173039842 }, "geometry": { "type": "LineString", "coordinates": [ [ -87.0385518, 31.119457699 ], [ -87.038818501, 31.119045295 ], [ -87.040524602, 31.117648393 ], [ -87.041564107, 31.1170303 ], [ -87.041724101, 31.116869994 ], [ -87.042044505, 31.116045095 ], [ -87.042924501, 31.114945494 ], [ -87.043004803, 31.114464298 ], [ -87.043351404, 31.114120796 ], [ -87.043724507, 31.113914698 ], [ -87.045722403, 31.113870099 ], [ -87.046042204, 31.113755696 ], [ -87.0462825, 31.113022394 ], [ -87.0462033, 31.112013996 ], [ -87.0459904, 31.111715898 ], [ -87.045884706, 31.110753298 ], [ -87.045964904, 31.110386595 ], [ -87.046391405, 31.109928496 ], [ -87.047963001, 31.109952398 ], [ -87.048309401, 31.109860897 ], [ -87.048682503, 31.109631993 ], [ -87.049189307, 31.108646698 ], [ -87.049455807, 31.108486496 ], [ -87.049988605, 31.108440898 ], [ -87.050894201, 31.108533196 ], [ -87.052359506, 31.108236 ] ] } },
{ "type": "Feature", "properties": { "site_no": "02374700", "nhdplus_comid": "2413284", "navigation_mode": "UM", "requested_distance_km": 12.0, "start_source": "nwissite", "start_id": "USGS-02374700", "geometry_length_km": 3.6206209656593145 }, "geometry": { "type": "LineString", "coordinates": [ [ -87.021511205, 31.136129998 ], [ -87.021432005, 31.135419495 ], [ -87.021539003, 31.135029994 ], [ -87.022046104, 31.1342282 ], [ -87.022206604, 31.133655399 ], [ -87.022126801, 31.133563593 ], [ -87.022074006, 31.133059293 ], [ -87.0222608, 31.132807396 ], [ -87.022687301, 31.132670194 ], [ -87.0232471, 31.132326894 ], [ -87.024020605, 31.131525196 ], [ -87.025860205, 31.130220294 ], [ -87.027220704, 31.128548294 ], [ -87.027380906, 31.128204599 ], [ -87.027994104, 31.127723798 ], [ -87.028660506, 31.127472199 ], [ -87.029539801, 31.127381198 ], [ -87.032363206, 31.128116697 ], [ -87.0331892, 31.128002599 ], [ -87.033562303, 31.127842396 ], [ -87.034068905, 31.127453193 ], [ -87.034842104, 31.126605697 ], [ -87.035375305, 31.126331098 ], [ -87.0361479, 31.126285799 ], [ -87.036387801, 31.126194298 ], [ -87.036734402, 31.125919499 ], [ -87.036735006, 31.125254795 ], [ -87.037055105, 31.124819599 ], [ -87.037348203, 31.124751098 ], [ -87.038067207, 31.125164099 ], [ -87.039398804, 31.125669196 ], [ -87.040065005, 31.125646695 ], [ -87.040544607, 31.125440694 ], [ -87.040824801, 31.125132695 ], [ -87.041211307, 31.124707796 ], [ -87.041238301, 31.124134898 ], [ -87.0409723, 31.123767994 ], [ -87.040359803, 31.123561293 ], [ -87.039720707, 31.123079598 ], [ -87.039721303, 31.122483693 ], [ -87.039801404, 31.122323297 ], [ -87.040707901, 31.121430099 ], [ -87.041001305, 31.121017799 ], [ -87.041001804, 31.1204677 ], [ -87.040762305, 31.120146699 ], [ -87.040309601, 31.119894199 ], [ -87.039217301, 31.120076895 ], [ -87.038684607, 31.119824499 ], [ -87.038551502, 31.119686894 ], [ -87.0385518, 31.119457699 ] ] } },
{ "type": "Feature", "properties": { "site_no": "02374700", "nhdplus_comid": "2413226", "navigation_mode": "UM", "requested_distance_km": 12.0, "start_source": "nwissite", "start_id": "USGS-02374700", "geometry_length_km": 2.5514001918826397 }, "geometry": { "type": "LineString", "coordinates": [ [ -87.025301501, 31.155499093 ], [ -87.025195301, 31.155223899 ], [ -87.024849303, 31.154811196 ], [ -87.024529606, 31.154627495 ], [ -87.023357503, 31.154236995 ], [ -87.021999501, 31.153181694 ], [ -87.021786906, 31.152631499 ], [ -87.021868706, 31.150866799 ], [ -87.022375904, 31.150019199 ], [ -87.023229606, 31.149126098 ], [ -87.024216004, 31.148737296 ], [ -87.0243228, 31.148485199 ], [ -87.024323203, 31.148164399 ], [ -87.023764305, 31.147499293 ], [ -87.023765005, 31.146811694 ], [ -87.0239252, 31.146422297 ], [ -87.023899302, 31.145757593 ], [ -87.023686603, 31.145230293 ], [ -87.023767106, 31.144703194 ], [ -87.023580901, 31.144359298 ], [ -87.022516303, 31.143281296 ], [ -87.022516705, 31.142868698 ], [ -87.023077205, 31.1419295 ], [ -87.023077607, 31.141494095 ], [ -87.022758402, 31.140966699 ], [ -87.022812903, 31.139889598 ], [ -87.022602603, 31.137139194 ], [ -87.022496201, 31.136955798 ], [ -87.022176705, 31.136657596 ], [ -87.021883704, 31.136542797 ], [ -87.021511205, 31.136129998 ] ] } },
{ "type": "Feature", "properties": { "site_no": "02374700", "nhdplus_comid": "2413156", "navigation_mode": "UM", "requested_distance_km": 12.0, "start_source": "nwissite", "start_id": "USGS-02374700", "geometry_length_km": 0.6711531123785035 }, "geometry": { "type": "LineString", "coordinates": [ [ -87.023084402, 31.160631098 ], [ -87.023857802, 31.1600587 ], [ -87.023938403, 31.159439996 ], [ -87.023592502, 31.158866696 ], [ -87.023593307, 31.158179097 ], [ -87.023780204, 31.157858394 ], [ -87.024313502, 31.157515094 ], [ -87.024580404, 31.157171495 ], [ -87.024661101, 31.156529896 ], [ -87.025087804, 31.156140596 ], [ -87.0253013, 31.155774094 ], [ -87.025301501, 31.155499093 ] ] } },
{ "type": "Feature", "properties": { "site_no": "02374700", "nhdplus_comid": "2413132", "navigation_mode": "UM", "requested_distance_km": 12.0, "start_source": "nwissite", "start_id": "USGS-02374700", "geometry_length_km": 1.1276632087200396 }, "geometry": { "type": "LineString", "coordinates": [ [ -87.020916902, 31.168788299 ], [ -87.020943902, 31.168467395 ], [ -87.021370806, 31.168078199 ], [ -87.022224106, 31.167620495 ], [ -87.022491001, 31.1673228 ], [ -87.022491202, 31.167001896 ], [ -87.021558903, 31.166519895 ], [ -87.0212394, 31.166244596 ], [ -87.021106407, 31.165946595 ], [ -87.021080606, 31.165258996 ], [ -87.021214202, 31.1649611 ], [ -87.021988101, 31.1639992 ], [ -87.023348704, 31.162762694 ], [ -87.023402803, 31.161983497 ], [ -87.023296505, 31.161570795 ], [ -87.0230304, 31.161249794 ], [ -87.023084402, 31.160631098 ] ] } }
]
}
