{
"type": "FeatureCollection",
"name": "USGS_02341566_DM_12km",
"crs": { "type": "name", "properties": { "name": "urn:ogc:def:crs:OGC:1.3:CRS84" } },
"features": [
{ "type": "Feature", "properties": { "site_no": "02341566", "nhdplus_comid": "3434292", "navigation_mode": "DM", "requested_distance_km": 12.0, "start_source": "nwissite", "start_id": "USGS-02341566", "geometry_length_km": 3.3261931424297226 }, "geometry": { "type": "LineString", "coordinates": [ [ -84.96726897, 32.434359093 ], [ -84.966336206, 32.430812493 ], [ -84.965359204, 32.428549796 ], [ -84.963031001, 32.424394198 ], [ -84.963254005, 32.422790699 ], [ -84.964695401, 32.421712793 ], [ -84.966418006, 32.420933299 ], [ -84.96813, 32.419069096 ], [ -84.971049502, 32.416645899 ], [ -84.973520406, 32.415126793 ], [ -84.977246702, 32.413865894 ], [ -84.979436003, 32.412048198 ] ] } },
{ "type": "Feature", "properties": { "site_no": "02341566", "nhdplus_comid": "3434304", "navigation_mode": "DM", "requested_distance_km": 12.0, "start_source": "nwissite", "start_id": "USGS-02341566", "geometry_length_km": 4.9336860148366997 }, "geometry": { "type": "LineString", "coordinates": [ [ -84.979436003, 32.412048198 ], [ -84.980192006, 32.410090499 ], [ -84.980711304, 32.406348899 ], [ -84.980519503, 32.403079495 ], [ -84.979842402, 32.400981598 ], [ -84.979316704, 32.400117494 ], [ -84.977488004, 32.398177996 ], [ -84.976747505, 32.3976992 ], [ -84.974048607, 32.396216199 ], [ -84.971079104, 32.395519398 ], [ -84.969561204, 32.394829094 ], [ -84.968332604, 32.393218897 ], [ -84.968555301, 32.391615294 ], [ -84.968770206, 32.391229995 ], [ -84.970192403, 32.390285596 ], [ -84.971184701, 32.390111797 ], [ -84.9765791, 32.390774995 ], [ -84.978404604, 32.390411697 ], [ -84.980633505, 32.390629597 ], [ -84.981692307, 32.3911395 ], [ -84.983443603, 32.391310699 ], [ -84.985043302, 32.390247993 ], [ -84.987220801, 32.387345493 ] ] } },
{ "type": "Feature", "properties": { "site_no": "02341566", "nhdplus_comid": "3434324", "navigation_mode": "DM", "requested_distance_km": 12.0, "start_source": "nwissite", "start_id": "USGS-02341566", "geometry_length_km": 2.3605788915123567 }, "geometry": { "type": "LineString", "coordinates": [ [ -84.987220801, 32.387345493 ], [ -84.988124706, 32.384318598 ], [ -84.987747304, 32.382385395 ], [ -84.986903302, 32.381490298 ], [ -84.986303605, 32.381160796 ], [ -84.984411903, 32.380840398 ], [ -84.979684204, 32.381190896 ], [ -84.975049205, 32.380872995 ], [ -84.973531604, 32.380182698 ], [ -84.971844107, 32.378392197 ], [ -84.971674107, 32.377292 ] ] } },
{ "type": "Feature", "properties": { "site_no": "02341566", "nhdplus_comid": "3434330", "navigation_mode": "DM", "requested_distance_km": 12.0, "start_source": "nwissite", "start_id": "USGS-02341566", "geometry_length_km": 2.2547418533003012 }, "geometry": { "type": "LineString", "coordinates": [ [ -84.971674107, 32.377292 ], [ -84.972337201, 32.376002297 ], [ -84.974862501, 32.3740822 ], [ -84.977679707, 32.373545095 ], [ -84.9829695, 32.373791493 ], [ -84.984157905, 32.373365894 ], [ -84.985046402, 32.372775495 ], [ -84.986046106, 32.371383294 ], [ -84.986409105, 32.3699288 ], [ -84.985891201, 32.3678464 ], [ -84.984644003, 32.36637 ] ] } }
]
}
