{
"type": "FeatureCollection",
"name": "USGS_03576250_DM_12km",
"crs": { "type": "name", "properties": { "name": "urn:ogc:def:crs:OGC:1.3:CRS84" } },
"features": [
{ "type": "Feature", "properties": { "site_no": "03576250", "nhdplus_comid": "19621374", "navigation_mode": "DM", "requested_distance_km": 12.0, "start_source": "nwissite", "start_id": "USGS-03576250", "geometry_length_km": 0.85316275308837153 }, "geometry": { "type": "LineString", "coordinates": [ [ -86.823376851, 34.751548399 ], [ -86.824023403, 34.750097394 ], [ -86.824384503, 34.749662295 ], [ -86.824884102, 34.749410599 ], [ -86.825800002, 34.749227695 ], [ -86.828713901, 34.749160096 ], [ -86.831073001, 34.748794496 ] ] } },
{ "type": "Feature", "properties": { "site_no": "03576250", "nhdplus_comid": "19622028", "navigation_mode": "DM", "requested_distance_km": 12.0, "start_source": "nwissite", "start_id": "USGS-03576250", "geometry_length_km": 1.1259699550507249 }, "geometry": { "type": "LineString", "coordinates": [ [ -86.831073001, 34.748794496 ], [ -86.832544006, 34.748405598 ], [ -86.833626501, 34.747970797 ], [ -86.836679801, 34.746276796 ], [ -86.837429404, 34.745704398 ], [ -86.837623805, 34.745429598 ], [ -86.8377349, 34.745017298 ], [ -86.837792002, 34.741764799 ] ] } },
{ "type": "Feature", "properties": { "site_no": "03576250", "nhdplus_comid": "19619940", "navigation_mode": "DM", "requested_distance_km": 12.0, "start_source": "nwissite", "start_id": "USGS-03576250", "geometry_length_km": 3.8400698865022291 }, "geometry": { "type": "LineString", "coordinates": [ [ -86.837792002, 34.741764799 ], [ -86.837708905, 34.741398297 ], [ -86.837570205, 34.741214998 ], [ -86.836987607, 34.741100296 ], [ -86.836654805, 34.740733698 ], [ -86.836516306, 34.740183897 ], [ -86.836571902, 34.739702895 ], [ -86.836849704, 34.739176095 ], [ -86.837626904, 34.7387641 ], [ -86.837793306, 34.738603793 ], [ -86.8384597, 34.737710595 ], [ -86.8384322, 34.737137996 ], [ -86.838265903, 34.736702695 ], [ -86.838183001, 34.736084297 ], [ -86.838655107, 34.735030696 ], [ -86.838877201, 34.734732993 ], [ -86.839571103, 34.734160595 ], [ -86.840042904, 34.733977497 ], [ -86.841208406, 34.733702995 ], [ -86.842318505, 34.733061895 ], [ -86.843012504, 34.732031398 ], [ -86.843262605, 34.731092297 ], [ -86.843651406, 34.730313495 ], [ -86.843762703, 34.729122497 ], [ -86.843901701, 34.728641495 ], [ -86.844151504, 34.728206396 ], [ -86.844678804, 34.727725498 ], [ -86.845150501, 34.7277027 ], [ -86.845539004, 34.727542497 ], [ -86.846010901, 34.727038696 ], [ -86.846399605, 34.7262142 ], [ -86.846510902, 34.725160494 ], [ -86.846622005, 34.724908598 ], [ -86.8474546, 34.723992497 ], [ -86.848980807, 34.722618595 ], [ -86.8506179, 34.721908793 ], [ -86.851561204, 34.721588396 ], [ -86.852282606, 34.7211532 ], [ -86.8534756, 34.720763996 ], [ -86.853503503, 34.720397599 ], [ -86.853115305, 34.719710298 ], [ -86.853115402, 34.7192064 ], [ -86.853337407, 34.718977399 ], [ -86.854225203, 34.718496598 ], [ -86.855251804, 34.7177637 ], [ -86.856333807, 34.717099696 ], [ -86.857055105, 34.716756098 ], [ -86.8577765, 34.716664597 ] ] } },
{ "type": "Feature", "properties": { "site_no": "03576250", "nhdplus_comid": "19620038", "navigation_mode": "DM", "requested_distance_km": 12.0, "start_source": "nwissite", "start_id": "USGS-03576250", "geometry_length_km": 2.4729912097022253 }, "geometry": { "type": "LineString", "coordinates": [ [ -86.8577765, 34.716664597 ], [ -86.859468706, 34.716573194 ], [ -86.860994406, 34.716115296 ], [ -86.861826606, 34.716023795 ], [ -86.863407806, 34.716001093 ], [ -86.864517607, 34.715336896 ], [ -86.865377605, 34.715107895 ], [ -86.866736807, 34.715108 ], [ -86.867208302, 34.714924797 ], [ -86.867430307, 34.714741595 ], [ -86.867846504, 34.713871099 ], [ -86.867818803, 34.712221898 ], [ -86.867735602, 34.7120158 ], [ -86.867708005, 34.711282797 ], [ -86.868235201, 34.709335893 ], [ -86.868623503, 34.708648793 ], [ -86.8694003, 34.708373897 ], [ -86.869955204, 34.707434699 ], [ -86.8718969, 34.703288898 ], [ -86.871869206, 34.7022352 ], [ -86.871813707, 34.7019374 ] ] } },
{ "type": "Feature", "properties": { "site_no": "03576250", "nhdplus_comid": "19620304", "navigation_mode": "DM", "requested_distance_km": 12.0, "start_source": "nwissite", "start_id": "USGS-03576250", "geometry_length_km": 5.2894804803898872 }, "geometry": { "type": "LineString", "coordinates": [ [ -86.871813707, 34.7019374 ], [ -86.870926201, 34.701433398 ], [ -86.869816907, 34.701181397 ], [ -86.869456403, 34.701021098 ], [ -86.869262204, 34.700700395 ], [ -86.8692623, 34.699921593 ], [ -86.8695952, 34.699486397 ], [ -86.869622901, 34.699051194 ], [ -86.869428806, 34.698844999 ], [ -86.867958903, 34.6986847 ], [ -86.867681503, 34.6983639 ], [ -86.867431901, 34.697722599 ], [ -86.867182404, 34.6975393 ], [ -86.866239503, 34.697310194 ], [ -86.8659067, 34.697035298 ], [ -86.865435302, 34.696348093 ], [ -86.864908405, 34.695935696 ], [ -86.8648808, 34.695202798 ], [ -86.864991806, 34.694698699 ], [ -86.865491107, 34.693759695 ], [ -86.865463406, 34.692957997 ], [ -86.866295703, 34.690873697 ], [ -86.866906002, 34.690072097 ], [ -86.867127903, 34.688972495 ], [ -86.867266603, 34.688720599 ], [ -86.867682606, 34.688468598 ], [ -86.867738001, 34.688285299 ], [ -86.867543906, 34.688079298 ], [ -86.866379201, 34.687391996 ], [ -86.865935601, 34.686910897 ], [ -86.865769304, 34.686040498 ], [ -86.865464404, 34.685261697 ], [ -86.865048803, 34.682490095 ], [ -86.865298405, 34.682054795 ], [ -86.866185904, 34.681619696 ], [ -86.8661028, 34.680199593 ], [ -86.865576103, 34.679054193 ], [ -86.865576304, 34.677794397 ], [ -86.865326703, 34.677130096 ], [ -86.864633806, 34.675984696 ], [ -86.864439704, 34.675297596 ], [ -86.864412107, 34.674495794 ], [ -86.864329003, 34.674243897 ], [ -86.864357002, 34.672502995 ], [ -86.8646897, 34.6717472 ], [ -86.864995107, 34.669479497 ], [ -86.8650783, 34.669319093 ], [ -86.865078405, 34.668150894 ], [ -86.865300305, 34.667624198 ], [ -86.866298504, 34.666158199 ], [ -86.867074803, 34.665494099 ], [ -86.867823504, 34.664463393 ], [ -86.868294701, 34.664188497 ], [ -86.869209602, 34.664050996 ], [ -86.869542204, 34.6639366 ], [ -86.869570106, 34.662699595 ], [ -86.869764201, 34.661989599 ] ] } }
]
}
