{
"type": "FeatureCollection",
"name": "USGS_02414800_DM_12km",
"crs": { "type": "name", "properties": { "name": "urn:ogc:def:crs:OGC:1.3:CRS84" } },
"features": [
{ "type": "Feature", "properties": { "site_no": "02414800", "nhdplus_comid": "22035015", "navigation_mode": "DM", "requested_distance_km": 12.0, "start_source": "nwissite", "start_id": "USGS-02414800", "geometry_length_km": 0.81550221388556521 }, "geometry": { "type": "LineString", "coordinates": [ [ -85.944536426, 33.119638388 ], [ -85.944112502, 33.119368799 ], [ -85.943676502, 33.118750498 ], [ -85.943376601, 33.118177995 ], [ -85.942069001, 33.116895795 ], [ -85.9420413, 33.116300195 ], [ -85.941796102, 33.116139896 ], [ -85.940162607, 33.115797095 ], [ -85.939536303, 33.115476698 ], [ -85.939427406, 33.115591295 ], [ -85.9394278, 33.116049498 ], [ -85.939128503, 33.116324499 ] ] } },
{ "type": "Feature", "properties": { "site_no": "02414800", "nhdplus_comid": "22035035", "navigation_mode": "DM", "requested_distance_km": 12.0, "start_source": "nwissite", "start_id": "USGS-02414800", "geometry_length_km": 3.2170916674921721 }, "geometry": { "type": "LineString", "coordinates": [ [ -85.939128503, 33.116324499 ], [ -85.936814606, 33.116440296 ], [ -85.936378904, 33.116371796 ], [ -85.935670801, 33.115890995 ], [ -85.935316704, 33.115501694 ], [ -85.935316503, 33.1152955 ], [ -85.934907801, 33.114700094 ], [ -85.934880406, 33.114379399 ], [ -85.935070805, 33.114241794 ], [ -85.936214, 33.113989294 ], [ -85.936350003, 33.113805994 ], [ -85.936349802, 33.113622695 ], [ -85.935805202, 33.113233596 ], [ -85.935668901, 33.112958699 ], [ -85.934906401, 33.112523794 ], [ -85.934388705, 33.111745097 ], [ -85.934034407, 33.110966399 ], [ -85.933653101, 33.110714599 ], [ -85.931938201, 33.110761099 ], [ -85.930876501, 33.1105325 ], [ -85.929079302, 33.109616898 ], [ -85.927772202, 33.108815596 ], [ -85.927200504, 33.108609699 ], [ -85.926656105, 33.108586997 ], [ -85.9263568, 33.108678699 ], [ -85.925240904, 33.109274797 ], [ -85.924751006, 33.109251998 ], [ -85.924342401, 33.108839795 ], [ -85.924233407, 33.108587898 ], [ -85.924205907, 33.108106799 ], [ -85.924804606, 33.10774 ], [ -85.925022304, 33.107533798 ], [ -85.925620906, 33.107258596 ], [ -85.925865702, 33.106960796 ], [ -85.925919905, 33.106548399 ], [ -85.925838202, 33.106410995 ], [ -85.925865002, 33.105609193 ], [ -85.925973706, 33.105357096 ], [ -85.926000804, 33.104967698 ], [ -85.925782904, 33.104669996 ], [ -85.925456107, 33.104463898 ], [ -85.925075106, 33.104509793 ], [ -85.924231604, 33.105128698 ], [ -85.9239325, 33.105701596 ], [ -85.923306607, 33.105976693 ], [ -85.922517307, 33.106091499 ], [ -85.921755001, 33.105862699 ], [ -85.921128906, 33.105816998 ], [ -85.920720704, 33.105908796 ] ] } },
{ "type": "Feature", "properties": { "site_no": "02414800", "nhdplus_comid": "22035077", "navigation_mode": "DM", "requested_distance_km": 12.0, "start_source": "nwissite", "start_id": "USGS-02414800", "geometry_length_km": 2.6929934619896612 }, "geometry": { "type": "LineString", "coordinates": [ [ -85.920720704, 33.105908796 ], [ -85.920203306, 33.105427898 ], [ -85.919712804, 33.104236893 ], [ -85.919222407, 33.1032978 ], [ -85.9187323, 33.1029085 ], [ -85.917861201, 33.102771297 ], [ -85.916935802, 33.102886096 ], [ -85.916227907, 33.102313593 ], [ -85.915356204, 33.100778997 ], [ -85.915246904, 33.099908598 ], [ -85.914729707, 33.099473499 ], [ -85.914185204, 33.099244498 ], [ -85.913940206, 33.099015497 ], [ -85.913695, 33.0986261 ], [ -85.913640402, 33.098144993 ], [ -85.913722001, 33.097824298 ], [ -85.915436201, 33.096769996 ], [ -85.916388601, 33.096540697 ], [ -85.916606203, 33.096288599 ], [ -85.916388303, 33.095876299 ], [ -85.915598907, 33.095395394 ], [ -85.914972901, 33.095281094 ], [ -85.914102003, 33.095510498 ], [ -85.913775407, 33.095395997 ], [ -85.913775206, 33.095121093 ], [ -85.914074406, 33.094571196 ], [ -85.914999202, 33.0933109 ], [ -85.915516101, 33.092783898 ], [ -85.916033, 33.092508793 ], [ -85.916033, 33.092348494 ], [ -85.915134706, 33.091982193 ], [ -85.915107302, 33.091592699 ], [ -85.914916702, 33.091409594 ], [ -85.914889507, 33.091134593 ], [ -85.915487707, 33.090195194 ], [ -85.915759504, 33.089439198 ] ] } },
{ "type": "Feature", "properties": { "site_no": "02414800", "nhdplus_comid": "22035111", "navigation_mode": "DM", "requested_distance_km": 12.0, "start_source": "nwissite", "start_id": "USGS-02414800", "geometry_length_km": 2.188072534043763 }, "geometry": { "type": "LineString", "coordinates": [ [ -85.915759504, 33.089439198 ], [ -85.915079206, 33.089347698 ], [ -85.913501002, 33.089897998 ], [ -85.912766203, 33.089898199 ], [ -85.912494004, 33.089783698 ], [ -85.912439503, 33.089485995 ], [ -85.913173802, 33.088454895 ], [ -85.913200803, 33.087836295 ], [ -85.913118906, 33.087194897 ], [ -85.912928201, 33.086759694 ], [ -85.912302107, 33.086393297 ], [ -85.911403805, 33.085866697 ], [ -85.910233505, 33.085431695 ], [ -85.909798004, 33.085179895 ], [ -85.909797907, 33.084927797 ], [ -85.910260402, 33.084561199 ], [ -85.910505205, 33.084332094 ], [ -85.910396203, 33.0839426 ], [ -85.910287306, 33.083782293 ], [ -85.910287105, 33.083209597 ], [ -85.910178207, 33.082957596 ], [ -85.909797102, 33.082911894 ], [ -85.909361906, 33.083072394 ], [ -85.908980906, 33.0831412 ], [ -85.908518106, 33.082660198 ], [ -85.907701604, 33.082087696 ], [ -85.907483503, 33.081240095 ], [ -85.907075301, 33.080988199 ], [ -85.907075204, 33.080782093 ], [ -85.907238401, 33.080552898 ], [ -85.908027306, 33.080071695 ], [ -85.908163406, 33.079796694 ], [ -85.908081502, 33.079430297 ], [ -85.907809302, 33.078903399 ], [ -85.9064757, 33.078124896 ], [ -85.906448402, 33.077895798 ] ] } },
{ "type": "Feature", "properties": { "site_no": "02414800", "nhdplus_comid": "22035117", "navigation_mode": "DM", "requested_distance_km": 12.0, "start_source": "nwissite", "start_id": "USGS-02414800", "geometry_length_km": 2.1648433927838107 }, "geometry": { "type": "LineString", "coordinates": [ [ -85.906448402, 33.077895798 ], [ -85.906421006, 33.077552199 ], [ -85.906176105, 33.077208497 ], [ -85.905740604, 33.0769796 ], [ -85.905278005, 33.076887995 ], [ -85.903509304, 33.076842599 ], [ -85.903210007, 33.077071697 ], [ -85.903291903, 33.077781893 ], [ -85.903400905, 33.078125499 ], [ -85.903346606, 33.078904398 ], [ -85.903156303, 33.079179399 ], [ -85.901768707, 33.0799587 ], [ -85.900979601, 33.080279499 ], [ -85.900544301, 33.080279596 ], [ -85.900136001, 33.080096297 ], [ -85.899918206, 33.0797069 ], [ -85.899618804, 33.079500794 ], [ -85.897877201, 33.078997195 ], [ -85.894802302, 33.079180896 ], [ -85.894013301, 33.079249695 ], [ -85.8937684, 33.079478897 ], [ -85.893305801, 33.079433098 ], [ -85.892516606, 33.0791125 ], [ -85.891183302, 33.079043895 ], [ -85.891019903, 33.078998096 ], [ -85.891128704, 33.0784254 ], [ -85.890448406, 33.078173496 ], [ -85.889577702, 33.078356899 ], [ -85.888951905, 33.078677595 ], [ -85.888734303, 33.078837894 ] ] } }
]
}
