{
"type": "FeatureCollection",
"name": "USGS_02367800_UM_12km",
"crs": { "type": "name", "properties": { "name": "urn:ogc:def:crs:OGC:1.3:CRS84" } },
"features": [
{ "type": "Feature", "properties": { "site_no": "02367800", "nhdplus_comid": "894557", "navigation_mode": "UM", "requested_distance_km": 12.0, "start_source": "nwissite", "start_id": "USGS-02367800", "geometry_length_km": 2.601013575159552 }, "geometry": { "type": "LineString", "coordinates": [ [ -86.538140506, 31.0292034 ], [ -86.538034305, 31.028928295 ], [ -86.537529007, 31.028584093 ], [ -86.537343107, 31.028171495 ], [ -86.537159301, 31.025352396 ], [ -86.536999904, 31.024962693 ], [ -86.536361806, 31.024297595 ], [ -86.536362104, 31.023999594 ], [ -86.536735103, 31.023541495 ], [ -86.536788903, 31.022945695 ], [ -86.536602803, 31.022716396 ], [ -86.536550403, 31.021799497 ], [ -86.536684006, 31.021089196 ], [ -86.537377305, 31.019645795 ], [ -86.5375643, 31.018889599 ], [ -86.537351906, 31.018293597 ], [ -86.537352607, 31.017445594 ], [ -86.5376992, 31.016712494 ], [ -86.537726305, 31.016276993 ], [ -86.537380703, 31.015887193 ], [ -86.537167802, 31.015841193 ], [ -86.536901504, 31.0159785 ], [ -86.536368906, 31.016505197 ], [ -86.5360495, 31.016550899 ], [ -86.535810202, 31.016367294 ], [ -86.535757303, 31.016069397 ], [ -86.5359172, 31.015702799 ], [ -86.536024407, 31.014992394 ], [ -86.536131002, 31.014809094 ], [ -86.536902703, 31.014786698 ], [ -86.537115701, 31.014580697 ], [ -86.537116006, 31.014259793 ], [ -86.536850706, 31.013296999 ], [ -86.536957607, 31.012930393 ], [ -86.537303701, 31.012632698 ], [ -86.537596807, 31.012243196 ], [ -86.537597105, 31.011853598 ], [ -86.537384801, 31.011303395 ], [ -86.537256348, 31.009986421 ] ] } },
{ "type": "Feature", "properties": { "site_no": "02367800", "nhdplus_comid": "894507", "navigation_mode": "UM", "requested_distance_km": 12.0, "start_source": "nwissite", "start_id": "USGS-02367800", "geometry_length_km": 1.5918736100273918 }, "geometry": { "type": "LineString", "coordinates": [ [ -86.534567304, 31.036809795 ], [ -86.534700505, 31.0366266 ], [ -86.535606004, 31.036077194 ], [ -86.5361384, 31.035985798 ], [ -86.536377907, 31.036054797 ], [ -86.5367769, 31.03633 ], [ -86.537042305, 31.037017696 ], [ -86.537228502, 31.037178293 ], [ -86.5374946, 31.037201397 ], [ -86.537787601, 31.037086993 ], [ -86.538346805, 31.036697797 ], [ -86.538693205, 31.036285497 ], [ -86.538800701, 31.0352313 ], [ -86.539067805, 31.0339939 ], [ -86.539494604, 31.032871194 ], [ -86.5395483, 31.032481596 ], [ -86.539468601, 31.032344095 ], [ -86.539202601, 31.032160498 ], [ -86.538883202, 31.032091498 ], [ -86.5385371, 31.032274693 ], [ -86.537685402, 31.032365799 ], [ -86.537445903, 31.032251097 ], [ -86.537126802, 31.031952895 ], [ -86.5370472, 31.031723693 ], [ -86.5369149, 31.030829698 ], [ -86.537128106, 31.030508995 ], [ -86.538060404, 31.029547095 ], [ -86.538140506, 31.0292034 ] ] } },
{ "type": "Feature", "properties": { "site_no": "02367800", "nhdplus_comid": "894495", "navigation_mode": "UM", "requested_distance_km": 12.0, "start_source": "nwissite", "start_id": "USGS-02367800", "geometry_length_km": 1.2844976230200076 }, "geometry": { "type": "LineString", "coordinates": [ [ -86.527693503, 31.043634497 ], [ -86.528146803, 31.042809695 ], [ -86.528147407, 31.042305499 ], [ -86.527961306, 31.0420762 ], [ -86.527296305, 31.0416632 ], [ -86.527163401, 31.041479699 ], [ -86.527137004, 31.041227594 ], [ -86.527403407, 31.040952794 ], [ -86.528255701, 31.040472098 ], [ -86.528841801, 31.039922498 ], [ -86.529933207, 31.039854594 ], [ -86.530598901, 31.039511293 ], [ -86.531637207, 31.039282896 ], [ -86.532861702, 31.0391692 ], [ -86.533500805, 31.038917497 ], [ -86.534406103, 31.0383223 ], [ -86.534619503, 31.037955694 ], [ -86.534567304, 31.036809795 ] ] } },
{ "type": "Feature", "properties": { "site_no": "02367800", "nhdplus_comid": "894483", "navigation_mode": "UM", "requested_distance_km": 12.0, "start_source": "nwissite", "start_id": "USGS-02367800", "geometry_length_km": 0.50090396054525954 }, "geometry": { "type": "LineString", "coordinates": [ [ -86.525214605, 31.047070295 ], [ -86.525455005, 31.046222396 ], [ -86.5255896, 31.044801593 ], [ -86.525722906, 31.044572599 ], [ -86.526149206, 31.044229098 ], [ -86.527693503, 31.043634497 ] ] } },
{ "type": "Feature", "properties": { "site_no": "02367800", "nhdplus_comid": "894475", "navigation_mode": "UM", "requested_distance_km": 12.0, "start_source": "nwissite", "start_id": "USGS-02367800", "geometry_length_km": 1.5222627018280788 }, "geometry": { "type": "LineString", "coordinates": [ [ -86.513467304, 31.054394394 ], [ -86.513707407, 31.054005094 ], [ -86.514161207, 31.052744895 ], [ -86.514534406, 31.052286893 ], [ -86.515067004, 31.052241497 ], [ -86.516158305, 31.052311197 ], [ -86.516637601, 31.052242897 ], [ -86.517516404, 31.051853895 ], [ -86.517836206, 31.0515792 ], [ -86.518555902, 31.050731897 ], [ -86.519222103, 31.050067797 ], [ -86.519648202, 31.049907699 ], [ -86.520659901, 31.049793899 ], [ -86.523056202, 31.049199894 ], [ -86.523935005, 31.048879795 ], [ -86.524654306, 31.0483303 ], [ -86.524920806, 31.047917999 ], [ -86.525214605, 31.047070295 ] ] } },
{ "type": "Feature", "properties": { "site_no": "02367800", "nhdplus_comid": "894457", "navigation_mode": "UM", "requested_distance_km": 12.0, "start_source": "nwissite", "start_id": "USGS-02367800", "geometry_length_km": 1.1461816327454888 }, "geometry": { "type": "LineString", "coordinates": [ [ -86.508985005, 31.062732793 ], [ -86.508985505, 31.062343195 ], [ -86.508905701, 31.062297195 ], [ -86.508853801, 31.061059594 ], [ -86.508987807, 31.060372196 ], [ -86.509361506, 31.059616297 ], [ -86.509442203, 31.058951698 ], [ -86.509682104, 31.058653995 ], [ -86.510268107, 31.058379494 ], [ -86.510614701, 31.058013096 ], [ -86.510828003, 31.057554893 ], [ -86.510535702, 31.057119198 ], [ -86.510482803, 31.056844093 ], [ -86.510722801, 31.056569196 ], [ -86.511468403, 31.056317896 ], [ -86.511841305, 31.056134894 ], [ -86.512161307, 31.055722497 ], [ -86.512588203, 31.054852098 ], [ -86.512934707, 31.054577395 ], [ -86.513467304, 31.054394394 ] ] } },
{ "type": "Feature", "properties": { "site_no": "02367800", "nhdplus_comid": "894429", "navigation_mode": "UM", "requested_distance_km": 12.0, "start_source": "nwissite", "start_id": "USGS-02367800", "geometry_length_km": 1.3533055273716619 }, "geometry": { "type": "LineString", "coordinates": [ [ -86.5028795, 31.069694296 ], [ -86.503173105, 31.069144495 ], [ -86.5030936, 31.068823598 ], [ -86.5030948, 31.067906894 ], [ -86.503441207, 31.0677009 ], [ -86.5040536, 31.067678593 ], [ -86.504213303, 31.067770399 ], [ -86.5043725, 31.068114296 ], [ -86.504292101, 31.0685267 ], [ -86.504504904, 31.068710394 ], [ -86.504850902, 31.068733498 ], [ -86.505064301, 31.0684359 ], [ -86.505092107, 31.067564994 ], [ -86.505625606, 31.066694595 ], [ -86.505546607, 31.065915294 ], [ -86.505840302, 31.065365493 ], [ -86.506160006, 31.065136693 ], [ -86.506745704, 31.065068394 ], [ -86.507118404, 31.065183394 ], [ -86.507464506, 31.065183699 ], [ -86.507571101, 31.065069199 ], [ -86.507651702, 31.064450495 ], [ -86.508211806, 31.063648894 ], [ -86.508771606, 31.063076399 ], [ -86.508985005, 31.062732793 ] ] } },
{ "type": "Feature", "properties": { "site_no": "02367800", "nhdplus_comid": "894965", "navigation_mode": "UM", "requested_distance_km": 12.0, "start_source": "nwissite", "start_id": "USGS-02367800", "geometry_length_km": 0.46672727569654443 }, "geometry": { "type": "LineString", "coordinates": [ [ -86.499820203, 31.068892993 ], [ -86.499953203, 31.068824098 ], [ -86.500298202, 31.068729199 ], [ -86.5009645, 31.068133995 ], [ -86.501364104, 31.067951098 ], [ -86.501630306, 31.068019994 ], [ -86.502082504, 31.068295494 ], [ -86.502348401, 31.068639494 ], [ -86.502294101, 31.069441594 ], [ -86.502560005, 31.069693998 ], [ -86.5028795, 31.069694296 ] ] } },
{ "type": "Feature", "properties": { "site_no": "02367800", "nhdplus_comid": "894419", "navigation_mode": "UM", "requested_distance_km": 12.0, "start_source": "nwissite", "start_id": "USGS-02367800", "geometry_length_km": 1.0011362195833429 }, "geometry": { "type": "LineString", "coordinates": [ [ -86.493730001, 31.074376099 ], [ -86.493809506, 31.074100994 ], [ -86.493729301, 31.073826 ], [ -86.493276104, 31.073413894 ], [ -86.493222505, 31.073070198 ], [ -86.493381903, 31.072840899 ], [ -86.494206801, 31.072450496 ], [ -86.495403707, 31.071509697 ], [ -86.496148907, 31.071302794 ], [ -86.497932807, 31.071163595 ], [ -86.4981988, 31.071002997 ], [ -86.4987837, 31.070337698 ], [ -86.499289103, 31.069970593 ], [ -86.499527901, 31.069305696 ], [ -86.499820203, 31.068892993 ] ] } },
{ "type": "Feature", "properties": { "site_no": "02367800", "nhdplus_comid": "894399", "navigation_mode": "UM", "requested_distance_km": 12.0, "start_source": "nwissite", "start_id": "USGS-02367800", "geometry_length_km": 1.2677582570881993 }, "geometry": { "type": "LineString", "coordinates": [ [ -86.490221702, 31.079742 ], [ -86.490328006, 31.079489894 ], [ -86.4903275, 31.079100296 ], [ -86.490247503, 31.079031594 ], [ -86.4900335, 31.078160897 ], [ -86.489687003, 31.077863194 ], [ -86.488834701, 31.077680595 ], [ -86.488541603, 31.077520497 ], [ -86.488541402, 31.077291295 ], [ -86.488754302, 31.077176496 ], [ -86.489686102, 31.077083997 ], [ -86.490776807, 31.076349698 ], [ -86.491016403, 31.076349497 ], [ -86.491203003, 31.076509699 ], [ -86.491257101, 31.077082597 ], [ -86.491496906, 31.077242799 ], [ -86.491789803, 31.077265494 ], [ -86.491869606, 31.077173695 ], [ -86.491895601, 31.076600797 ], [ -86.491708301, 31.0760509 ], [ -86.491707407, 31.0752488 ], [ -86.492159203, 31.074583694 ], [ -86.492398605, 31.074377298 ], [ -86.492851101, 31.074239396 ], [ -86.493250705, 31.0744223 ], [ -86.493730001, 31.074376099 ] ] } }
]
}
