{
"type": "FeatureCollection",
"name": "USGS_02364500_DM_12km",
"crs": { "type": "name", "properties": { "name": "urn:ogc:def:crs:OGC:1.3:CRS84" } },
"features": [
{ "type": "Feature", "properties": { "site_no": "02364500", "nhdplus_comid": "2214110", "navigation_mode": "DM", "requested_distance_km": 12.0, "start_source": "nwissite", "start_id": "USGS-02364500", "geometry_length_km": 2.1798955986827742 }, "geometry": { "type": "LineString", "coordinates": [ [ -86.099058539, 31.112751482 ], [ -86.099187903, 31.110865295 ], [ -86.099534601, 31.109329998 ], [ -86.099694505, 31.109032094 ], [ -86.099987805, 31.108069696 ], [ -86.1002542, 31.107748896 ], [ -86.101053402, 31.107130393 ], [ -86.101985902, 31.105618 ], [ -86.102119103, 31.105228394 ], [ -86.102758601, 31.104128599 ], [ -86.103104904, 31.103739098 ], [ -86.103531301, 31.102914095 ], [ -86.103558004, 31.102364093 ], [ -86.103052601, 31.1003474 ], [ -86.102866307, 31.099224396 ], [ -86.102786504, 31.099178597 ], [ -86.102254204, 31.097665995 ], [ -86.102121301, 31.096795194 ], [ -86.102094904, 31.095855594 ], [ -86.102201506, 31.095626496 ], [ -86.102361307, 31.095534898 ], [ -86.103666201, 31.095328897 ] ] } },
{ "type": "Feature", "properties": { "site_no": "02364500", "nhdplus_comid": "2214144", "navigation_mode": "DM", "requested_distance_km": 12.0, "start_source": "nwissite", "start_id": "USGS-02364500", "geometry_length_km": 1.6481179970764241 }, "geometry": { "type": "LineString", "coordinates": [ [ -86.103666201, 31.095328897 ], [ -86.104119003, 31.0952373 ], [ -86.104438603, 31.095076896 ], [ -86.104651704, 31.094733194 ], [ -86.104571901, 31.094595693 ], [ -86.103986107, 31.094183095 ], [ -86.100045405, 31.091707394 ], [ -86.098740906, 31.090698697 ], [ -86.097569205, 31.0901943 ], [ -86.096291102, 31.089827299 ], [ -86.094001204, 31.089460097 ], [ -86.093255706, 31.089116193 ], [ -86.091525301, 31.087992795 ], [ -86.091125906, 31.087832294 ] ] } },
{ "type": "Feature", "properties": { "site_no": "02364500", "nhdplus_comid": "2214164", "navigation_mode": "DM", "requested_distance_km": 12.0, "start_source": "nwissite", "start_id": "USGS-02364500", "geometry_length_km": 0.88171348055675747 }, "geometry": { "type": "LineString", "coordinates": [ [ -86.091125906, 31.087832294 ], [ -86.090699904, 31.087396793 ], [ -86.090353906, 31.086961195 ], [ -86.0901943, 31.086525798 ], [ -86.090061501, 31.085861199 ], [ -86.090168305, 31.085219599 ], [ -86.090541206, 31.084830098 ], [ -86.091446601, 31.084394895 ], [ -86.091739602, 31.084119998 ], [ -86.091846302, 31.083638795 ], [ -86.090355702, 31.082492597 ], [ -86.090089604, 31.082011193 ], [ -86.090009801, 31.081461199 ] ] } },
{ "type": "Feature", "properties": { "site_no": "02364500", "nhdplus_comid": "2214182", "navigation_mode": "DM", "requested_distance_km": 12.0, "start_source": "nwissite", "start_id": "USGS-02364500", "geometry_length_km": 0.63040339356791508 }, "geometry": { "type": "LineString", "coordinates": [ [ -86.090009801, 31.081461199 ], [ -86.090515904, 31.0809571 ], [ -86.092486702, 31.079720199 ], [ -86.095043503, 31.077795893 ] ] } },
{ "type": "Feature", "properties": { "site_no": "02364500", "nhdplus_comid": "2214734", "navigation_mode": "DM", "requested_distance_km": 12.0, "start_source": "nwissite", "start_id": "USGS-02364500", "geometry_length_km": 4.0918317585368245 }, "geometry": { "type": "LineString", "coordinates": [ [ -86.095043503, 31.077795893 ], [ -86.095043503, 31.0776584 ], [ -86.095469706, 31.0772231 ], [ -86.0956828, 31.076833494 ], [ -86.095949307, 31.075916894 ], [ -86.096349105, 31.074839994 ], [ -86.096375801, 31.074519098 ], [ -86.096509002, 31.074221194 ], [ -86.096509106, 31.073510796 ], [ -86.096402705, 31.073304497 ], [ -86.095683903, 31.073075198 ], [ -86.093820103, 31.073441394 ], [ -86.0931013, 31.073143296 ], [ -86.092622302, 31.072524495 ], [ -86.092196606, 31.071745194 ], [ -86.091850802, 31.070805594 ], [ -86.091770902, 31.070759699 ], [ -86.091611505, 31.070117995 ], [ -86.091771401, 31.069567993 ], [ -86.092144102, 31.069316 ], [ -86.093848102, 31.069064394 ], [ -86.097016506, 31.068148494 ], [ -86.097735405, 31.067850798 ], [ -86.098055102, 31.067277893 ], [ -86.098481506, 31.065719694 ], [ -86.098614901, 31.0648259 ], [ -86.098375402, 31.064436294 ], [ -86.097976103, 31.064252898 ], [ -86.095926203, 31.064619094 ], [ -86.094275601, 31.064618699 ], [ -86.092598505, 31.064022399 ], [ -86.092199303, 31.0636556 ], [ -86.091986403, 31.063357696 ], [ -86.091906801, 31.062738895 ], [ -86.091986902, 31.062074296 ], [ -86.092413202, 31.061066099 ], [ -86.092466801, 31.0600807 ], [ -86.092387207, 31.059416093 ], [ -86.092254303, 31.0588203 ], [ -86.091908507, 31.057834797 ], [ -86.091828704, 31.057788998 ], [ -86.0915628, 31.056826398 ], [ -86.091483004, 31.056757599 ], [ -86.091483004, 31.056597196 ], [ -86.091030806, 31.055794999 ], [ -86.090738103, 31.055428199 ], [ -86.090711601, 31.055153295 ], [ -86.090099804, 31.053892598 ], [ -86.089940101, 31.053778 ] ] } },
{ "type": "Feature", "properties": { "site_no": "02364500", "nhdplus_comid": "2214290", "navigation_mode": "DM", "requested_distance_km": 12.0, "start_source": "nwissite", "start_id": "USGS-02364500", "geometry_length_km": 0.40468877075106879 }, "geometry": { "type": "LineString", "coordinates": [ [ -86.089940101, 31.053778 ], [ -86.089594401, 31.052929997 ], [ -86.089354903, 31.052769497 ], [ -86.088770203, 31.050340198 ] ] } },
{ "type": "Feature", "properties": { "site_no": "02364500", "nhdplus_comid": "2214338", "navigation_mode": "DM", "requested_distance_km": 12.0, "start_source": "nwissite", "start_id": "USGS-02364500", "geometry_length_km": 1.3152995275907196 }, "geometry": { "type": "LineString", "coordinates": [ [ -86.088770203, 31.050340198 ], [ -86.087599702, 31.048552297 ], [ -86.087280303, 31.048323095 ], [ -86.086934507, 31.047772996 ], [ -86.086881407, 31.047543794 ], [ -86.086721703, 31.047383294 ], [ -86.086429305, 31.046397798 ], [ -86.085817501, 31.045549698 ], [ -86.082784303, 31.042936295 ], [ -86.082305402, 31.042638198 ], [ -86.081826404, 31.042500496 ], [ -86.081214204, 31.042454496 ], [ -86.079830103, 31.042568594 ] ] } },
{ "type": "Feature", "properties": { "site_no": "02364500", "nhdplus_comid": "2214740", "navigation_mode": "DM", "requested_distance_km": 12.0, "start_source": "nwissite", "start_id": "USGS-02364500", "geometry_length_km": 1.1213133307746315 }, "geometry": { "type": "LineString", "coordinates": [ [ -86.079830103, 31.042568594 ], [ -86.079510801, 31.042408094 ], [ -86.078766003, 31.041720293 ], [ -86.078526601, 31.041330598 ], [ -86.0785271, 31.040276393 ], [ -86.078979701, 31.039978698 ], [ -86.079645202, 31.039864399 ], [ -86.080789506, 31.040025197 ], [ -86.081561103, 31.040529594 ], [ -86.082678907, 31.040759198 ], [ -86.083264403, 31.040713593 ], [ -86.084835, 31.039888993 ], [ -86.085367501, 31.039499596 ], [ -86.085580707, 31.038743399 ] ] } }
]
}
