{
"type": "FeatureCollection",
"name": "USGS_02423630_DM_12km",
"crs": { "type": "name", "properties": { "name": "urn:ogc:def:crs:OGC:1.3:CRS84" } },
"features": [
{ "type": "Feature", "properties": { "site_no": "02423630", "nhdplus_comid": "21655740", "navigation_mode": "DM", "requested_distance_km": 12.0, "start_source": "nwissite", "start_id": "USGS-02423630", "geometry_length_km": 0.61683747171293202 }, "geometry": { "type": "LineString", "coordinates": [ [ -86.94916106, 33.325674776 ], [ -86.949194402, 33.325345494 ], [ -86.950093701, 33.3239474 ], [ -86.950421005, 33.323672198 ], [ -86.951485001, 33.323304996 ], [ -86.951893903, 33.322869495 ], [ -86.952057101, 33.322227895 ], [ -86.952384107, 33.321769498 ], [ -86.952438205, 33.321242496 ] ] } },
{ "type": "Feature", "properties": { "site_no": "02423630", "nhdplus_comid": "21655762", "navigation_mode": "DM", "requested_distance_km": 12.0, "start_source": "nwissite", "start_id": "USGS-02423630", "geometry_length_km": 0.52477583521956661 }, "geometry": { "type": "LineString", "coordinates": [ [ -86.952438205, 33.321242496 ], [ -86.952738203, 33.320990294 ], [ -86.953774907, 33.320508495 ], [ -86.953911103, 33.320302196 ], [ -86.953937806, 33.319637798 ], [ -86.954509802, 33.3184691 ], [ -86.954536505, 33.317850396 ], [ -86.954645403, 33.317621194 ], [ -86.955000006, 33.317460597 ] ] } },
{ "type": "Feature", "properties": { "site_no": "02423630", "nhdplus_comid": "21655780", "navigation_mode": "DM", "requested_distance_km": 12.0, "start_source": "nwissite", "start_id": "USGS-02423630", "geometry_length_km": 0.63758487250304596 }, "geometry": { "type": "LineString", "coordinates": [ [ -86.955000006, 33.317460597 ], [ -86.955327004, 33.316841796 ], [ -86.955326207, 33.316016994 ], [ -86.956416503, 33.314687498 ], [ -86.956498004, 33.314343795 ], [ -86.956879601, 33.313793696 ], [ -86.957261406, 33.313587293 ], [ -86.958707303, 33.313265599 ] ] } },
{ "type": "Feature", "properties": { "site_no": "02423630", "nhdplus_comid": "21655786", "navigation_mode": "DM", "requested_distance_km": 12.0, "start_source": "nwissite", "start_id": "USGS-02423630", "geometry_length_km": 0.26081808764103664 }, "geometry": { "type": "LineString", "coordinates": [ [ -86.958707303, 33.313265599 ], [ -86.958707005, 33.313013598 ], [ -86.959115304, 33.311913498 ], [ -86.959360704, 33.311707094 ], [ -86.960124701, 33.311592199 ] ] } },
{ "type": "Feature", "properties": { "site_no": "02423630", "nhdplus_comid": "21655792", "navigation_mode": "DM", "requested_distance_km": 12.0, "start_source": "nwissite", "start_id": "USGS-02423630", "geometry_length_km": 0.7561485536198238 }, "geometry": { "type": "LineString", "coordinates": [ [ -86.960124701, 33.311592199 ], [ -86.9602606, 33.311202593 ], [ -86.960506104, 33.3110421 ], [ -86.9612699, 33.310949899 ], [ -86.961734407, 33.311453596 ], [ -86.9620618, 33.311407499 ], [ -86.962143004, 33.310857594 ], [ -86.962360807, 33.3104451 ], [ -86.962660804, 33.310192898 ], [ -86.962714903, 33.309734598 ], [ -86.962905705, 33.309597097 ], [ -86.963751607, 33.309550695 ], [ -86.963997006, 33.3094588 ], [ -86.964051403, 33.309252597 ], [ -86.963723503, 33.308863297 ], [ -86.963641405, 33.308634296 ], [ -86.963750504, 33.308496699 ], [ -86.9643507, 33.3083589 ] ] } },
{ "type": "Feature", "properties": { "site_no": "02423630", "nhdplus_comid": "21655802", "navigation_mode": "DM", "requested_distance_km": 12.0, "start_source": "nwissite", "start_id": "USGS-02423630", "geometry_length_km": 0.3254545064359779 }, "geometry": { "type": "LineString", "coordinates": [ [ -86.9643507, 33.3083589 ], [ -86.964432403, 33.308221295 ], [ -86.964432001, 33.307877697 ], [ -86.963967703, 33.307396896 ], [ -86.963503703, 33.307351395 ], [ -86.962357901, 33.307512596 ], [ -86.961812206, 33.307512894 ] ] } },
{ "type": "Feature", "properties": { "site_no": "02423630", "nhdplus_comid": "21655816", "navigation_mode": "DM", "requested_distance_km": 12.0, "start_source": "nwissite", "start_id": "USGS-02423630", "geometry_length_km": 0.67018789634722453 }, "geometry": { "type": "LineString", "coordinates": [ [ -86.961812206, 33.307512894 ], [ -86.961430207, 33.3075132 ], [ -86.9606933, 33.3073534 ], [ -86.959219307, 33.306667 ], [ -86.958864301, 33.306369394 ], [ -86.958836704, 33.306048699 ], [ -86.959463701, 33.305429697 ], [ -86.959490404, 33.304811098 ], [ -86.959653802, 33.304558896 ], [ -86.960417405, 33.304077297 ], [ -86.960853703, 33.3038937 ] ] } },
{ "type": "Feature", "properties": { "site_no": "02423630", "nhdplus_comid": "21655822", "navigation_mode": "DM", "requested_distance_km": 12.0, "start_source": "nwissite", "start_id": "USGS-02423630", "geometry_length_km": 0.18563529086250036 }, "geometry": { "type": "LineString", "coordinates": [ [ -86.960853703, 33.3038937 ], [ -86.961071402, 33.303366594 ], [ -86.961206801, 33.302266799 ] ] } },
{ "type": "Feature", "properties": { "site_no": "02423630", "nhdplus_comid": "21655824", "navigation_mode": "DM", "requested_distance_km": 12.0, "start_source": "nwissite", "start_id": "USGS-02423630", "geometry_length_km": 0.084678404206326663 }, "geometry": { "type": "LineString", "coordinates": [ [ -86.961206801, 33.302266799 ], [ -86.961588502, 33.301945798 ], [ -86.961943001, 33.301853895 ] ] } },
{ "type": "Feature", "properties": { "site_no": "02423630", "nhdplus_comid": "21655834", "navigation_mode": "DM", "requested_distance_km": 12.0, "start_source": "nwissite", "start_id": "USGS-02423630", "geometry_length_km": 0.93842887565768618 }, "geometry": { "type": "LineString", "coordinates": [ [ -86.961943001, 33.301853895 ], [ -86.963088602, 33.301555298 ], [ -86.964779407, 33.300797999 ], [ -86.965733603, 33.300109997 ], [ -86.966388203, 33.299857497 ], [ -86.967615806, 33.299673297 ], [ -86.968324706, 33.299329095 ], [ -86.969169803, 33.298618294 ], [ -86.969742306, 33.2982971 ], [ -86.970478304, 33.297654994 ] ] } },
{ "type": "Feature", "properties": { "site_no": "02423630", "nhdplus_comid": "21655850", "navigation_mode": "DM", "requested_distance_km": 12.0, "start_source": "nwissite", "start_id": "USGS-02423630", "geometry_length_km": 1.062827024920324 }, "geometry": { "type": "LineString", "coordinates": [ [ -86.970478304, 33.297654994 ], [ -86.971023105, 33.296967193 ], [ -86.971840903, 33.296462595 ], [ -86.9726317, 33.296095394 ], [ -86.973340906, 33.295980297 ], [ -86.975550704, 33.296024397 ], [ -86.977270104, 33.296527095 ], [ -86.978034206, 33.296663895 ], [ -86.979425706, 33.296731494 ], [ -86.980325706, 33.296547495 ], [ -86.980625503, 33.296272196 ], [ -86.980707102, 33.296065897 ] ] } },
{ "type": "Feature", "properties": { "site_no": "02423630", "nhdplus_comid": "21655870", "navigation_mode": "DM", "requested_distance_km": 12.0, "start_source": "nwissite", "start_id": "USGS-02423630", "geometry_length_km": 2.2276191365317111 }, "geometry": { "type": "LineString", "coordinates": [ [ -86.980707102, 33.296065897 ], [ -86.981143303, 33.295836493 ], [ -86.981661603, 33.295744397 ], [ -86.982317001, 33.296270795 ], [ -86.9825899, 33.296385095 ], [ -86.983026303, 33.296293095 ], [ -86.983135402, 33.296201296 ], [ -86.983406201, 33.294643193 ], [ -86.983923703, 33.293932498 ], [ -86.984059602, 33.293588698 ], [ -86.984303504, 33.292213894 ], [ -86.984218605, 33.289808296 ], [ -86.984327406, 33.289510399 ], [ -86.984599903, 33.289235197 ], [ -86.9849272, 33.289211996 ], [ -86.985582605, 33.289761297 ], [ -86.987303406, 33.291455194 ], [ -86.9877946, 33.291615099 ], [ -86.989404403, 33.291773893 ], [ -86.989813901, 33.291956894 ], [ -86.990441903, 33.292437494 ], [ -86.990933307, 33.292620197 ], [ -86.991642006, 33.292184293 ], [ -86.992758706, 33.290900193 ], [ -86.993848704, 33.290028594 ], [ -86.994066902, 33.289959595 ] ] } },
{ "type": "Feature", "properties": { "site_no": "02423630", "nhdplus_comid": "21655890", "navigation_mode": "DM", "requested_distance_km": 12.0, "start_source": "nwissite", "start_id": "USGS-02423630", "geometry_length_km": 1.1565298118583796 }, "geometry": { "type": "LineString", "coordinates": [ [ -86.994066902, 33.289959595 ], [ -86.995047301, 33.288721494 ], [ -86.9957003, 33.2874837 ], [ -86.996324301, 33.285100393 ], [ -86.996487603, 33.284825295 ], [ -86.996923506, 33.284389496 ], [ -86.997768402, 33.283884697 ], [ -86.998531304, 33.283288196 ], [ -86.998667404, 33.283081897 ], [ -86.998693906, 33.282532096 ], [ -86.999047503, 33.2818674 ], [ -86.999992706, 33.281293698 ] ] } },
{ "type": "Feature", "properties": { "site_no": "02423630", "nhdplus_comid": "21667218", "navigation_mode": "DM", "requested_distance_km": 12.0, "start_source": "nwissite", "start_id": "USGS-02423630", "geometry_length_km": 0.076747137962353759 }, "geometry": { "type": "LineString", "coordinates": [ [ -86.999992706, 33.281293698 ], [ -86.999992706, 33.2806063 ] ] } },
{ "type": "Feature", "properties": { "site_no": "02423630", "nhdplus_comid": "21655900", "navigation_mode": "DM", "requested_distance_km": 12.0, "start_source": "nwissite", "start_id": "USGS-02423630", "geometry_length_km": 0.17148536612284299 }, "geometry": { "type": "LineString", "coordinates": [ [ -86.999992706, 33.2806063 ], [ -86.999645501, 33.280308895 ], [ -86.999671601, 33.279529899 ], [ -86.999835104, 33.279369295 ], [ -86.999992706, 33.279346198 ] ] } },
{ "type": "Feature", "properties": { "site_no": "02423630", "nhdplus_comid": "21657226", "navigation_mode": "DM", "requested_distance_km": 12.0, "start_source": "nwissite", "start_id": "USGS-02423630", "geometry_length_km": 1.238367095065475 }, "geometry": { "type": "LineString", "coordinates": [ [ -86.999992706, 33.279346198 ], [ -87.000259303, 33.279438198 ], [ -87.001049101, 33.280355394 ], [ -87.001321204, 33.280813895 ], [ -87.001866102, 33.281226799 ], [ -87.003500305, 33.282969594 ], [ -87.004563004, 33.283795394 ], [ -87.005844906, 33.284002796 ], [ -87.006745204, 33.2838891 ], [ -87.0093925, 33.282814898 ], [ -87.010184206, 33.282403193 ], [ -87.010266103, 33.282288797 ] ] } },
{ "type": "Feature", "properties": { "site_no": "02423630", "nhdplus_comid": "21657258", "navigation_mode": "DM", "requested_distance_km": 12.0, "start_source": "nwissite", "start_id": "USGS-02423630", "geometry_length_km": 3.6121450045337333 }, "geometry": { "type": "LineString", "coordinates": [ [ -87.010266103, 33.282288797 ], [ -87.010130607, 33.281624198 ], [ -87.009940103, 33.281371996 ], [ -87.008522004, 33.281026997 ], [ -87.008331306, 33.280889399 ], [ -87.008195303, 33.280545495 ], [ -87.008197404, 33.279010497 ], [ -87.008307002, 33.278598294 ], [ -87.0084984, 33.278300598 ], [ -87.009617805, 33.277522698 ], [ -87.009945802, 33.276973099 ], [ -87.009864807, 33.276262797 ], [ -87.009429701, 33.275300197 ], [ -87.008639902, 33.274360098 ], [ -87.008068405, 33.273511894 ], [ -87.008041404, 33.273236893 ], [ -87.007959701, 33.273190998 ], [ -87.008042201, 33.272641294 ], [ -87.008342505, 33.272412397 ], [ -87.008860901, 33.272183798 ], [ -87.011207007, 33.271819398 ], [ -87.011943705, 33.271613799 ], [ -87.012953706, 33.270950295 ], [ -87.015847005, 33.269165896 ], [ -87.016884707, 33.268112995 ], [ -87.016994201, 33.267700598 ], [ -87.0169136, 33.266692497 ], [ -87.016723603, 33.266004995 ], [ -87.016478702, 33.265615299 ], [ -87.015443705, 33.264445998 ], [ -87.015608005, 33.263896294 ], [ -87.0161267, 33.263575897 ], [ -87.0167813, 33.263507798 ], [ -87.017653406, 33.263966694 ], [ -87.018061906, 33.264356598 ], [ -87.0189071, 33.2646093 ], [ -87.019561306, 33.264930695 ], [ -87.019970201, 33.264999695 ], [ -87.020215802, 33.264885396 ], [ -87.020734504, 33.264450498 ], [ -87.021827407, 33.262710199 ], [ -87.021855004, 33.262458198 ] ] } }
]
}
