{
"type": "FeatureCollection",
"name": "USGS_02455980_UM_12km",
"crs": { "type": "name", "properties": { "name": "urn:ogc:def:crs:OGC:1.3:CRS84" } },
"features": [
{ "type": "Feature", "properties": { "site_no": "02455980", "nhdplus_comid": "18565735", "navigation_mode": "UM", "requested_distance_km": 12.0, "start_source": "nwissite", "start_id": "USGS-02455980", "geometry_length_km": 2.7811252568456895 }, "geometry": { "type": "LineString", "coordinates": [ [ -86.687643804, 33.701165393 ], [ -86.687726006, 33.701279894 ], [ -86.688000806, 33.702219099 ], [ -86.688412502, 33.702997796 ], [ -86.689015903, 33.703570195 ], [ -86.689536706, 33.703501299 ], [ -86.690112107, 33.703294799 ], [ -86.690988705, 33.702629894 ], [ -86.691317603, 33.702538095 ], [ -86.6915095, 33.702629693 ], [ -86.691565007, 33.7033858 ], [ -86.691976801, 33.704324797 ], [ -86.692470707, 33.704897299 ], [ -86.692854501, 33.705103293 ], [ -86.693402901, 33.705240399 ], [ -86.694280006, 33.705239899 ], [ -86.694773301, 33.705125093 ], [ -86.695293903, 33.704849899 ], [ -86.695704706, 33.704528898 ], [ -86.696389206, 33.703497596 ], [ -86.697073802, 33.702695496 ], [ -86.697347701, 33.702534899 ], [ -86.697676703, 33.702580594 ], [ -86.697978407, 33.702740796 ], [ -86.698362403, 33.703129999 ], [ -86.699350603, 33.704847597 ], [ -86.699515104, 33.705007896 ], [ -86.699927002, 33.705901094 ], [ -86.700531006, 33.7068858 ], [ -86.700613506, 33.707298197 ], [ -86.700312406, 33.707779497 ], [ -86.700093202, 33.707871199 ], [ -86.699161403, 33.7079864 ], [ -86.698640801, 33.708261594 ], [ -86.6980929, 33.708742894 ], [ -86.696394004, 33.709408298 ], [ -86.695763901, 33.709820993 ], [ -86.695544906, 33.710210599 ], [ -86.6955726, 33.710622899 ], [ -86.695730276, 33.711125896 ] ] } },
{ "type": "Feature", "properties": { "site_no": "02455980", "nhdplus_comid": "18565751", "navigation_mode": "UM", "requested_distance_km": 12.0, "start_source": "nwissite", "start_id": "USGS-02455980", "geometry_length_km": 0.32853468426462556 }, "geometry": { "type": "LineString", "coordinates": [ [ -86.685833201, 33.698829599 ], [ -86.686080001, 33.698989898 ], [ -86.686792806, 33.699310295 ], [ -86.687122002, 33.699699596 ], [ -86.687506206, 33.700455397 ], [ -86.687643804, 33.701165393 ] ] } },
{ "type": "Feature", "properties": { "site_no": "02455980", "nhdplus_comid": "18565749", "navigation_mode": "UM", "requested_distance_km": 12.0, "start_source": "nwissite", "start_id": "USGS-02455980", "geometry_length_km": 1.6313348714684239 }, "geometry": { "type": "LineString", "coordinates": [ [ -86.669388905, 33.700164996 ], [ -86.670238502, 33.700004295 ], [ -86.671088003, 33.699729197 ], [ -86.672540501, 33.699522398 ], [ -86.673609301, 33.699155495 ], [ -86.674541101, 33.699040599 ], [ -86.674897403, 33.699109197 ], [ -86.676569805, 33.699956097 ], [ -86.677501902, 33.700139098 ], [ -86.678652801, 33.6996345 ], [ -86.679392703, 33.699496798 ], [ -86.680187605, 33.699542299 ], [ -86.681777604, 33.700091496 ], [ -86.6822436, 33.700114198 ], [ -86.682682, 33.700022295 ], [ -86.684216201, 33.699082397 ], [ -86.684901305, 33.698875897 ], [ -86.685833201, 33.698829599 ] ] } },
{ "type": "Feature", "properties": { "site_no": "02455980", "nhdplus_comid": "18565743", "navigation_mode": "UM", "requested_distance_km": 12.0, "start_source": "nwissite", "start_id": "USGS-02455980", "geometry_length_km": 0.18060251919300957 }, "geometry": { "type": "LineString", "coordinates": [ [ -86.667442903, 33.700280197 ], [ -86.6678266, 33.700188495 ], [ -86.669388905, 33.700164996 ] ] } },
{ "type": "Feature", "properties": { "site_no": "02455980", "nhdplus_comid": "18565759", "navigation_mode": "UM", "requested_distance_km": 12.0, "start_source": "nwissite", "start_id": "USGS-02455980", "geometry_length_km": 1.1158960641951323 }, "geometry": { "type": "LineString", "coordinates": [ [ -86.656889103, 33.696205296 ], [ -86.657355204, 33.696640395 ], [ -86.658040501, 33.696983896 ], [ -86.658506602, 33.697350398 ], [ -86.6598773, 33.697922699 ], [ -86.660973705, 33.698288999 ], [ -86.662152506, 33.698861495 ], [ -86.663578205, 33.699823193 ], [ -86.664400503, 33.700212397 ], [ -86.664976202, 33.700395495 ], [ -86.666428804, 33.700394996 ], [ -86.667442903, 33.700280197 ] ] } },
{ "type": "Feature", "properties": { "site_no": "02455980", "nhdplus_comid": "18565803", "navigation_mode": "UM", "requested_distance_km": 12.0, "start_source": "nwissite", "start_id": "USGS-02455980", "geometry_length_km": 1.8583942436354783 }, "geometry": { "type": "LineString", "coordinates": [ [ -86.646335006, 33.686722994 ], [ -86.646718904, 33.687570497 ], [ -86.647020504, 33.687753797 ], [ -86.647376701, 33.687845297 ], [ -86.649706006, 33.687409699 ], [ -86.650555506, 33.687386498 ], [ -86.651076205, 33.6875927 ], [ -86.651186004, 33.687752999 ], [ -86.651432604, 33.687844694 ], [ -86.652008206, 33.688417293 ], [ -86.652775705, 33.688760795 ], [ -86.653570503, 33.688943796 ], [ -86.6550778, 33.689172596 ], [ -86.655817807, 33.689470194 ], [ -86.656585507, 33.690019898 ], [ -86.657325804, 33.690913193 ], [ -86.6575725, 33.691348299 ], [ -86.658066504, 33.6930665 ], [ -86.657902405, 33.694028698 ], [ -86.656971201, 33.695815794 ], [ -86.656889103, 33.696205296 ] ] } },
{ "type": "Feature", "properties": { "site_no": "02455980", "nhdplus_comid": "18565837", "navigation_mode": "UM", "requested_distance_km": 12.0, "start_source": "nwissite", "start_id": "USGS-02455980", "geometry_length_km": 1.2517206749689018 }, "geometry": { "type": "LineString", "coordinates": [ [ -86.639811702, 33.679186694 ], [ -86.640250102, 33.679346994 ], [ -86.641209304, 33.680057094 ], [ -86.642195806, 33.6804922 ], [ -86.644552507, 33.680606499 ], [ -86.645210207, 33.680812493 ], [ -86.645730905, 33.681224793 ], [ -86.646005005, 33.681591295 ], [ -86.646059901, 33.681889094 ], [ -86.646142103, 33.681934893 ], [ -86.646772802, 33.684225798 ], [ -86.646745704, 33.684867196 ], [ -86.6463897, 33.685852394 ], [ -86.646335006, 33.686722994 ] ] } }
]
}
