{
"type": "FeatureCollection",
"name": "USGS_02374745_UM_12km",
"crs": { "type": "name", "properties": { "name": "urn:ogc:def:crs:OGC:1.3:CRS84" } },
"features": [
{ "type": "Feature", "properties": { "site_no": "02374745", "nhdplus_comid": "2413254", "navigation_mode": "UM", "requested_distance_km": 12.0, "start_source": "nwissite", "start_id": "USGS-02374745", "geometry_length_km": 1.8923174511806307 }, "geometry": { "type": "LineString", "coordinates": [ [ -87.084976606, 31.140885994 ], [ -87.084551305, 31.138387799 ], [ -87.084524803, 31.137631498 ], [ -87.084631801, 31.136600196 ], [ -87.084392503, 31.135545895 ], [ -87.083833203, 31.135110199 ], [ -87.083487406, 31.133803695 ], [ -87.083460905, 31.133391194 ], [ -87.083620802, 31.133184999 ], [ -87.084047101, 31.133047596 ], [ -87.084819704, 31.133277096 ], [ -87.085086405, 31.132818699 ], [ -87.085619204, 31.132727198 ], [ -87.085752703, 31.1323836 ], [ -87.0856729, 31.131948099 ], [ -87.085220002, 31.131535396 ], [ -87.084367305, 31.131672598 ], [ -87.084287502, 31.1316268 ], [ -87.084367506, 31.131260097 ], [ -87.084740601, 31.1311685 ], [ -87.085193604, 31.130870797 ], [ -87.085193805, 31.130595699 ], [ -87.084501304, 31.130114198 ], [ -87.084501401, 31.129747495 ], [ -87.084687904, 31.129609995 ], [ -87.085114203, 31.129655994 ], [ -87.085700206, 31.1301146 ], [ -87.0858334, 31.130022898 ], [ -87.086606003, 31.130000293 ], [ -87.086659937, 31.129968281 ] ] } },
{ "type": "Feature", "properties": { "site_no": "02374745", "nhdplus_comid": "2413212", "navigation_mode": "UM", "requested_distance_km": 12.0, "start_source": "nwissite", "start_id": "USGS-02374745", "geometry_length_km": 0.9638388876334063 }, "geometry": { "type": "LineString", "coordinates": [ [ -87.087532006, 31.147831097 ], [ -87.087558806, 31.147624798 ], [ -87.087772101, 31.1472582 ], [ -87.087772101, 31.146868594 ], [ -87.086892806, 31.146822497 ], [ -87.086013801, 31.1460201 ], [ -87.085960701, 31.145447098 ], [ -87.086494103, 31.144415997 ], [ -87.0864942, 31.143980496 ], [ -87.085908204, 31.143705294 ], [ -87.085615002, 31.143475994 ], [ -87.085562102, 31.142261393 ], [ -87.085642204, 31.142055094 ], [ -87.085456006, 31.141436294 ], [ -87.084976606, 31.140885994 ] ] } },
{ "type": "Feature", "properties": { "site_no": "02374745", "nhdplus_comid": "2413200", "navigation_mode": "UM", "requested_distance_km": 12.0, "start_source": "nwissite", "start_id": "USGS-02374745", "geometry_length_km": 0.088988736580169897 }, "geometry": { "type": "LineString", "coordinates": [ [ -87.087691605, 31.148564599 ], [ -87.087585002, 31.148449898 ], [ -87.087452106, 31.147922799 ], [ -87.087532006, 31.147831097 ] ] } },
{ "type": "Feature", "properties": { "site_no": "02374745", "nhdplus_comid": "2413192", "navigation_mode": "UM", "requested_distance_km": 12.0, "start_source": "nwissite", "start_id": "USGS-02374745", "geometry_length_km": 1.7710023868372706 }, "geometry": { "type": "LineString", "coordinates": [ [ -87.089872606, 31.160528496 ], [ -87.0897661, 31.160299294 ], [ -87.089579605, 31.160115898 ], [ -87.088860206, 31.159748994 ], [ -87.0883274, 31.158992596 ], [ -87.088300906, 31.158694595 ], [ -87.088167705, 31.158419594 ], [ -87.087928005, 31.158213198 ], [ -87.087528102, 31.158419393 ], [ -87.087048404, 31.158510894 ], [ -87.086968601, 31.158304594 ], [ -87.087581605, 31.157731898 ], [ -87.087715, 31.157365195 ], [ -87.0875552, 31.157067195 ], [ -87.087049, 31.156952493 ], [ -87.086675905, 31.156746097 ], [ -87.086782701, 31.156196095 ], [ -87.086596601, 31.155256294 ], [ -87.0869698, 31.154820994 ], [ -87.086996503, 31.154477194 ], [ -87.0869167, 31.154293798 ], [ -87.086410604, 31.153812394 ], [ -87.086544104, 31.152643695 ], [ -87.086384401, 31.152368695 ], [ -87.086358003, 31.151497699 ], [ -87.086544804, 31.151085198 ], [ -87.086784706, 31.150833197 ], [ -87.087504305, 31.150627196 ], [ -87.0876109, 31.1504668 ], [ -87.087611206, 31.149847999 ], [ -87.088117503, 31.149756394 ], [ -87.088144407, 31.149320997 ], [ -87.087718107, 31.148954198 ], [ -87.087691605, 31.148564599 ] ] } },
{ "type": "Feature", "properties": { "site_no": "02374745", "nhdplus_comid": "2413136", "navigation_mode": "UM", "requested_distance_km": 12.0, "start_source": "nwissite", "start_id": "USGS-02374745", "geometry_length_km": 1.0844771821264194 }, "geometry": { "type": "LineString", "coordinates": [ [ -87.093948305, 31.167175896 ], [ -87.0937085, 31.166946597 ], [ -87.093708605, 31.166809097 ], [ -87.0939219, 31.166579999 ], [ -87.094668202, 31.166419797 ], [ -87.094828203, 31.166259296 ], [ -87.0948283, 31.165915497 ], [ -87.094268702, 31.165273696 ], [ -87.093682304, 31.165158994 ], [ -87.093469203, 31.165044397 ], [ -87.093442604, 31.164883994 ], [ -87.093789101, 31.164609 ], [ -87.093869105, 31.164379798 ], [ -87.093469404, 31.164288096 ], [ -87.093123004, 31.164012894 ], [ -87.093016505, 31.163829595 ], [ -87.0924301, 31.163806498 ], [ -87.091977306, 31.163187593 ], [ -87.091391101, 31.162729099 ], [ -87.090858303, 31.161812194 ], [ -87.090805106, 31.161514193 ], [ -87.089872606, 31.160528496 ] ] } },
{ "type": "Feature", "properties": { "site_no": "02374745", "nhdplus_comid": "2413106", "navigation_mode": "UM", "requested_distance_km": 12.0, "start_source": "nwissite", "start_id": "USGS-02374745", "geometry_length_km": 0.77157743893302944 }, "geometry": { "type": "LineString", "coordinates": [ [ -87.098824807, 31.171187595 ], [ -87.098691903, 31.169743694 ], [ -87.0985853, 31.169606194 ], [ -87.098345406, 31.169583194 ], [ -87.097972505, 31.168551795 ], [ -87.097199701, 31.167909898 ], [ -87.096720107, 31.167726494 ], [ -87.095814101, 31.167061694 ], [ -87.095254406, 31.166969895 ], [ -87.094588004, 31.167198993 ], [ -87.093948305, 31.167175896 ] ] } },
{ "type": "Feature", "properties": { "site_no": "02374745", "nhdplus_comid": "2413098", "navigation_mode": "UM", "requested_distance_km": 12.0, "start_source": "nwissite", "start_id": "USGS-02374745", "geometry_length_km": 4.1344987789443577 }, "geometry": { "type": "LineString", "coordinates": [ [ -87.123373501, 31.188332796 ], [ -87.122707106, 31.1876911 ], [ -87.1226537, 31.187461995 ], [ -87.1227604, 31.187003598 ], [ -87.122333907, 31.186545193 ], [ -87.121214204, 31.185857594 ], [ -87.121187501, 31.185674295 ], [ -87.121640705, 31.185559697 ], [ -87.121827401, 31.185399294 ], [ -87.1217473, 31.185192995 ], [ -87.121400803, 31.184917994 ], [ -87.120734401, 31.184986696 ], [ -87.120547801, 31.184917994 ], [ -87.120467804, 31.184734598 ], [ -87.1203079, 31.184620097 ], [ -87.117935203, 31.183749095 ], [ -87.116789103, 31.182923995 ], [ -87.116335906, 31.182740599 ], [ -87.1152163, 31.182694696 ], [ -87.115003102, 31.182580099 ], [ -87.115189701, 31.181984298 ], [ -87.115109801, 31.181777999 ], [ -87.114176802, 31.181296594 ], [ -87.113910303, 31.180952795 ], [ -87.113883607, 31.180769496 ], [ -87.113723807, 31.1805861 ], [ -87.113563806, 31.179829799 ], [ -87.113190606, 31.179508895 ], [ -87.112364307, 31.179348394 ], [ -87.1120978, 31.1791192 ], [ -87.1119112, 31.178821295 ], [ -87.111671306, 31.178958699 ], [ -87.111671202, 31.179073296 ], [ -87.111538, 31.179210894 ], [ -87.111324705, 31.179256596 ], [ -87.111084804, 31.1787754 ], [ -87.1103919, 31.178202294 ], [ -87.110258602, 31.178270996 ], [ -87.1101785, 31.178935699 ], [ -87.110071905, 31.179027297 ], [ -87.109725304, 31.179073095 ], [ -87.109432206, 31.178775094 ], [ -87.109432206, 31.178202197 ], [ -87.109299004, 31.178110495 ], [ -87.109139003, 31.178202197 ], [ -87.109059006, 31.178522997 ], [ -87.108712502, 31.1786604 ], [ -87.108526006, 31.178499997 ], [ -87.108526006, 31.1780416 ], [ -87.108846001, 31.177377097 ], [ -87.1087927, 31.177147895 ], [ -87.108499505, 31.177033193 ], [ -87.108286306, 31.176804096 ], [ -87.108286306, 31.176643595 ], [ -87.108579502, 31.176483199 ], [ -87.1086061, 31.176299796 ], [ -87.107939802, 31.176024795 ], [ -87.107673302, 31.176001899 ], [ -87.107326604, 31.1765977 ], [ -87.107006706, 31.176666394 ], [ -87.106766902, 31.176414296 ], [ -87.106713705, 31.175910093 ], [ -87.106473804, 31.175474599 ], [ -87.106020704, 31.175314099 ], [ -87.104581401, 31.175428495 ], [ -87.103755102, 31.175084598 ], [ -87.102955505, 31.175015695 ], [ -87.102475807, 31.174282193 ], [ -87.102289304, 31.173388295 ], [ -87.102156207, 31.173113294 ], [ -87.101516604, 31.172448598 ], [ -87.101143502, 31.172265194 ], [ -87.100797005, 31.172448397 ], [ -87.100477107, 31.172517195 ], [ -87.099997304, 31.172173299 ], [ -87.099890806, 31.171875395 ], [ -87.099864304, 31.171027295 ], [ -87.099704504, 31.170821093 ], [ -87.098824807, 31.171187595 ] ] } },
{ "type": "Feature", "properties": { "site_no": "02374745", "nhdplus_comid": "2413042", "navigation_mode": "UM", "requested_distance_km": 12.0, "start_source": "nwissite", "start_id": "USGS-02374745", "geometry_length_km": 0.42964556145920046 }, "geometry": { "type": "LineString", "coordinates": [ [ -87.127105802, 31.187713996 ], [ -87.126652606, 31.187553599 ], [ -87.125586301, 31.187553599 ], [ -87.125213005, 31.188332893 ], [ -87.124946401, 31.188332796 ], [ -87.124413304, 31.188103698 ], [ -87.1241467, 31.188103698 ], [ -87.123800203, 31.188309997 ], [ -87.123373501, 31.188332796 ] ] } },
{ "type": "Feature", "properties": { "site_no": "02374745", "nhdplus_comid": "2413040", "navigation_mode": "UM", "requested_distance_km": 12.0, "start_source": "nwissite", "start_id": "USGS-02374745", "geometry_length_km": 1.2142741023621868 }, "geometry": { "type": "LineString", "coordinates": [ [ -87.132918105, 31.194841295 ], [ -87.1326515, 31.194680899 ], [ -87.132464901, 31.194405898 ], [ -87.132224806, 31.193649597 ], [ -87.1320116, 31.193535 ], [ -87.130998507, 31.193580896 ], [ -87.130705304, 31.193374693 ], [ -87.1307052, 31.1929392 ], [ -87.130811803, 31.192709997 ], [ -87.130385205, 31.192137197 ], [ -87.130385205, 31.191747598 ], [ -87.130865104, 31.191426694 ], [ -87.130865, 31.191105798 ], [ -87.130705103, 31.190784998 ], [ -87.130358405, 31.190509893 ], [ -87.1299586, 31.190784998 ], [ -87.129558705, 31.190785095 ], [ -87.129132003, 31.190051593 ], [ -87.1289187, 31.1899371 ], [ -87.128358804, 31.1899371 ], [ -87.127772301, 31.189157896 ], [ -87.127105802, 31.187897399 ], [ -87.127105802, 31.187713996 ] ] } }
]
}
