{
"type": "FeatureCollection",
"name": "USGS_02401390_UM_12km",
"crs": { "type": "name", "properties": { "name": "urn:ogc:def:crs:OGC:1.3:CRS84" } },
"features": [
{ "type": "Feature", "properties": { "site_no": "02401390", "nhdplus_comid": "22203349", "navigation_mode": "UM", "requested_distance_km": 12.0, "start_source": "nwissite", "start_id": "USGS-02401390", "geometry_length_km": 0.14864580901762536 }, "geometry": { "type": "LineString", "coordinates": [ [ -86.262210406, 33.838892296 ], [ -86.2624299, 33.838984199 ], [ -86.263005704, 33.8394887 ], [ -86.263115406, 33.839671999 ], [ -86.263072888, 33.839900945 ] ] } },
{ "type": "Feature", "properties": { "site_no": "02401390", "nhdplus_comid": "22203361", "navigation_mode": "UM", "requested_distance_km": 12.0, "start_source": "nwissite", "start_id": "USGS-02401390", "geometry_length_km": 1.8367199350796055 }, "geometry": { "type": "LineString", "coordinates": [ [ -86.276207, 33.842203297 ], [ -86.275411002, 33.8420652 ], [ -86.274889804, 33.841721199 ], [ -86.273791902, 33.841513999 ], [ -86.273105405, 33.841651 ], [ -86.272885606, 33.8418798 ], [ -86.272747904, 33.8422921 ], [ -86.272527903, 33.8425209 ], [ -86.272061102, 33.842566393 ], [ -86.271293201, 33.842038795 ], [ -86.270662606, 33.841236599 ], [ -86.270114101, 33.840777896 ], [ -86.268906705, 33.840387397 ], [ -86.268193603, 33.839928694 ], [ -86.2675355, 33.839332394 ], [ -86.266713403, 33.838117599 ], [ -86.266164906, 33.837727696 ], [ -86.264683306, 33.837222397 ], [ -86.263970107, 33.836740598 ], [ -86.263558403, 33.836694397 ], [ -86.263146505, 33.836854398 ], [ -86.2627891, 33.837289296 ], [ -86.261992306, 33.837815493 ], [ -86.261909202, 33.838296399 ], [ -86.262210406, 33.838892296 ] ] } },
{ "type": "Feature", "properties": { "site_no": "02401390", "nhdplus_comid": "22203345", "navigation_mode": "UM", "requested_distance_km": 12.0, "start_source": "nwissite", "start_id": "USGS-02401390", "geometry_length_km": 0.28885370600925009 }, "geometry": { "type": "LineString", "coordinates": [ [ -86.277609706, 33.839890793 ], [ -86.277032107, 33.840921193 ], [ -86.276207, 33.842203297 ] ] } },
{ "type": "Feature", "properties": { "site_no": "02401390", "nhdplus_comid": "22203359", "navigation_mode": "UM", "requested_distance_km": 12.0, "start_source": "nwissite", "start_id": "USGS-02401390", "geometry_length_km": 0.56757092387483299 }, "geometry": { "type": "LineString", "coordinates": [ [ -86.282087602, 33.836939096 ], [ -86.281840503, 33.836984694 ], [ -86.281153701, 33.837419398 ], [ -86.278984405, 33.838036299 ], [ -86.278215207, 33.838539593 ], [ -86.277857803, 33.839020394 ], [ -86.277637504, 33.839592993 ], [ -86.277609706, 33.839890793 ] ] } },
{ "type": "Feature", "properties": { "site_no": "02401390", "nhdplus_comid": "22203445", "navigation_mode": "UM", "requested_distance_km": 12.0, "start_source": "nwissite", "start_id": "USGS-02401390", "geometry_length_km": 7.5638494662480751 }, "geometry": { "type": "LineString", "coordinates": [ [ -86.305498801, 33.809236094 ], [ -86.304455601, 33.809647799 ], [ -86.303247407, 33.810494699 ], [ -86.301957101, 33.811135396 ], [ -86.3002275, 33.811844498 ], [ -86.299678303, 33.812233597 ], [ -86.2994311, 33.812622793 ], [ -86.299101003, 33.813355699 ], [ -86.298908107, 33.814271897 ], [ -86.299043901, 33.815898493 ], [ -86.300029501, 33.818556398 ], [ -86.300084002, 33.818945795 ], [ -86.300632104, 33.820022799 ], [ -86.3007963, 33.820504099 ], [ -86.3007956, 33.821260095 ], [ -86.301590301, 33.822657898 ], [ -86.301864006, 33.823528498 ], [ -86.302192904, 33.824078597 ], [ -86.302878805, 33.824559994 ], [ -86.303180404, 33.824926794 ], [ -86.3031248, 33.825728498 ], [ -86.302849501, 33.826759197 ], [ -86.302601904, 33.827400498 ], [ -86.302052401, 33.827995799 ], [ -86.301283702, 33.828201495 ], [ -86.300542407, 33.828292593 ], [ -86.297578201, 33.828038797 ], [ -86.296508007, 33.8277632 ], [ -86.295932002, 33.827350497 ], [ -86.295301601, 33.826410897 ], [ -86.2943414, 33.825791799 ], [ -86.293519102, 33.824668594 ], [ -86.293190107, 33.8243936 ], [ -86.293135405, 33.824072793 ], [ -86.293300502, 33.823752195 ], [ -86.293657601, 33.823431693 ], [ -86.293795101, 33.823156893 ], [ -86.293712907, 33.822996497 ], [ -86.293219, 33.822904497 ], [ -86.292230703, 33.822972596 ], [ -86.291517101, 33.822949193 ], [ -86.291187905, 33.822788596 ], [ -86.290913701, 33.822559394 ], [ -86.290475406, 33.821734294 ], [ -86.290338904, 33.820909597 ], [ -86.290369004, 33.818229295 ], [ -86.290204704, 33.817954399 ], [ -86.289326802, 33.817587197 ], [ -86.288530804, 33.817632496 ], [ -86.288283706, 33.817769699 ], [ -86.288118802, 33.818067499 ], [ -86.288173005, 33.818662994 ], [ -86.288364604, 33.819189996 ], [ -86.288309306, 33.8195794 ], [ -86.287841901, 33.820335098 ], [ -86.285753906, 33.822395295 ], [ -86.283446401, 33.824294895 ], [ -86.283007301, 33.824248798 ], [ -86.282184303, 33.823927499 ], [ -86.281745002, 33.823995896 ], [ -86.281525105, 33.824316397 ], [ -86.281579606, 33.824614294 ], [ -86.282374203, 33.825828999 ], [ -86.2827029, 33.826539397 ], [ -86.282866806, 33.827226795 ], [ -86.282947004, 33.829219796 ], [ -86.283357106, 33.830709197 ], [ -86.2834666, 33.830938295 ], [ -86.283493206, 33.831762999 ], [ -86.283328004, 33.832198098 ], [ -86.283327706, 33.832495898 ], [ -86.283601701, 33.833000094 ], [ -86.284232207, 33.833733596 ], [ -86.285630904, 33.835086294 ], [ -86.285630301, 33.835613199 ], [ -86.284970701, 33.836322799 ], [ -86.284421407, 33.836459793 ], [ -86.282801807, 33.836550198 ], [ -86.282444805, 33.836641595 ], [ -86.282087602, 33.836939096 ] ] } },
{ "type": "Feature", "properties": { "site_no": "02401390", "nhdplus_comid": "22203447", "navigation_mode": "UM", "requested_distance_km": 12.0, "start_source": "nwissite", "start_id": "USGS-02401390", "geometry_length_km": 0.027860751757322007 }, "geometry": { "type": "LineString", "coordinates": [ [ -86.305800602, 33.809259199 ], [ -86.305498801, 33.809236094 ] ] } },
{ "type": "Feature", "properties": { "site_no": "02401390", "nhdplus_comid": "22203453", "navigation_mode": "UM", "requested_distance_km": 12.0, "start_source": "nwissite", "start_id": "USGS-02401390", "geometry_length_km": 2.6698664215998926 }, "geometry": { "type": "LineString", "coordinates": [ [ -86.3294283, 33.809865899 ], [ -86.328193605, 33.809292793 ], [ -86.327507704, 33.809132099 ], [ -86.325834103, 33.808558799 ], [ -86.324516803, 33.808466598 ], [ -86.323474206, 33.808122598 ], [ -86.322952904, 33.808030695 ], [ -86.322376505, 33.8080533 ], [ -86.320729703, 33.808693998 ], [ -86.318973206, 33.808991097 ], [ -86.317161307, 33.809929393 ], [ -86.316118002, 33.810570396 ], [ -86.314498, 33.811921097 ], [ -86.313043207, 33.812309898 ], [ -86.312658802, 33.812561594 ], [ -86.312136903, 33.813225694 ], [ -86.311533004, 33.8133628 ], [ -86.310188301, 33.813430898 ], [ -86.309145503, 33.813155398 ], [ -86.308157802, 33.812765494 ], [ -86.3074174, 33.8121465 ], [ -86.306869403, 33.811069496 ], [ -86.306760304, 33.810267694 ], [ -86.305855401, 33.809442498 ], [ -86.305800602, 33.809259199 ] ] } }
]
}
