{
"type": "FeatureCollection",
"name": "USGS_03585300_DM_12km",
"crs": { "type": "name", "properties": { "name": "urn:ogc:def:crs:OGC:1.3:CRS84" } },
"features": [
{ "type": "Feature", "properties": { "site_no": "03585300", "nhdplus_comid": "19598066", "navigation_mode": "DM", "requested_distance_km": 12.0, "start_source": "nwissite", "start_id": "USGS-03585300", "geometry_length_km": 0.60561009194119364 }, "geometry": { "type": "LineString", "coordinates": [ [ -87.155500066, 34.945428158 ], [ -87.1554721, 34.943518095 ], [ -87.155555204, 34.942853898 ], [ -87.155360103, 34.941617094 ], [ -87.154942602, 34.941113293 ], [ -87.153885506, 34.9406325 ] ] } },
{ "type": "Feature", "properties": { "site_no": "03585300", "nhdplus_comid": "19598088", "navigation_mode": "DM", "requested_distance_km": 12.0, "start_source": "nwissite", "start_id": "USGS-03585300", "geometry_length_km": 3.3783137301119868 }, "geometry": { "type": "LineString", "coordinates": [ [ -87.153885506, 34.9406325 ], [ -87.153857604, 34.940449297 ], [ -87.153551601, 34.940128699 ], [ -87.152772106, 34.938342296 ], [ -87.152549505, 34.938021794 ], [ -87.152187504, 34.9366934 ], [ -87.152047902, 34.935364895 ], [ -87.151435502, 34.933647193 ], [ -87.151407607, 34.933303699 ], [ -87.152019106, 34.932226993 ], [ -87.153103501, 34.931287698 ], [ -87.153965205, 34.9300965 ], [ -87.154270805, 34.929409198 ], [ -87.1544374, 34.928492993 ], [ -87.154103406, 34.927737199 ], [ -87.153268605, 34.926546395 ], [ -87.1527678, 34.925698899 ], [ -87.152294703, 34.924828693 ], [ -87.1518775, 34.924530998 ], [ -87.150709301, 34.924187697 ], [ -87.149541304, 34.924004696 ], [ -87.1490684, 34.923707098 ], [ -87.146481507, 34.921371296 ], [ -87.145285606, 34.920730196 ], [ -87.144006103, 34.919791199 ], [ -87.143644504, 34.919218697 ], [ -87.143644206, 34.917477995 ], [ -87.143393807, 34.916905396 ], [ -87.143643707, 34.915714294 ], [ -87.143755004, 34.915599793 ] ] } },
{ "type": "Feature", "properties": { "site_no": "03585300", "nhdplus_comid": "19598110", "navigation_mode": "DM", "requested_distance_km": 12.0, "start_source": "nwissite", "start_id": "USGS-03585300", "geometry_length_km": 0.88996013596793311 }, "geometry": { "type": "LineString", "coordinates": [ [ -87.143755004, 34.915599793 ], [ -87.1441717, 34.914156698 ], [ -87.145199805, 34.911087297 ], [ -87.1454776, 34.909896195 ], [ -87.146060906, 34.9081783 ], [ -87.146088704, 34.9078805 ] ] } },
{ "type": "Feature", "properties": { "site_no": "03585300", "nhdplus_comid": "19598116", "navigation_mode": "DM", "requested_distance_km": 12.0, "start_source": "nwissite", "start_id": "USGS-03585300", "geometry_length_km": 0.2077640042900035 }, "geometry": { "type": "LineString", "coordinates": [ [ -87.146088704, 34.9078805 ], [ -87.146561101, 34.907009996 ], [ -87.147256106, 34.906299897 ] ] } },
{ "type": "Feature", "properties": { "site_no": "03585300", "nhdplus_comid": "19598134", "navigation_mode": "DM", "requested_distance_km": 12.0, "start_source": "nwissite", "start_id": "USGS-03585300", "geometry_length_km": 1.1804814051178778 }, "geometry": { "type": "LineString", "coordinates": [ [ -87.147256106, 34.906299897 ], [ -87.146755502, 34.905727297 ], [ -87.146588601, 34.905360997 ], [ -87.146532707, 34.904605098 ], [ -87.146644004, 34.904307298 ], [ -87.147449903, 34.903115995 ], [ -87.147505105, 34.901672997 ], [ -87.147504807, 34.900390394 ], [ -87.147198707, 34.899565794 ], [ -87.146753706, 34.899062 ], [ -87.145697102, 34.898214698 ], [ -87.144946106, 34.897207096 ], [ -87.144834802, 34.896771893 ] ] } },
{ "type": "Feature", "properties": { "site_no": "03585300", "nhdplus_comid": "19598150", "navigation_mode": "DM", "requested_distance_km": 12.0, "start_source": "nwissite", "start_id": "USGS-03585300", "geometry_length_km": 1.486720300786478 }, "geometry": { "type": "LineString", "coordinates": [ [ -87.144834802, 34.896771893 ], [ -87.1407203, 34.8965206 ], [ -87.139914006, 34.896337494 ], [ -87.139580406, 34.896131299 ], [ -87.139330201, 34.895810694 ], [ -87.139163204, 34.894642599 ], [ -87.138940804, 34.894436494 ], [ -87.137050301, 34.893428795 ], [ -87.135771304, 34.892512798 ], [ -87.135270901, 34.892283797 ], [ -87.1342979, 34.892008997 ], [ -87.133825302, 34.891963199 ], [ -87.132824503, 34.8922382 ], [ -87.132101804, 34.892696299 ], [ -87.131434605, 34.8929483 ] ] } },
{ "type": "Feature", "properties": { "site_no": "03585300", "nhdplus_comid": "19598166", "navigation_mode": "DM", "requested_distance_km": 12.0, "start_source": "nwissite", "start_id": "USGS-03585300", "geometry_length_km": 1.1868096280475664 }, "geometry": { "type": "LineString", "coordinates": [ [ -87.131434605, 34.8929483 ], [ -87.131184503, 34.892902493 ], [ -87.130711801, 34.892650597 ], [ -87.1302948, 34.891940497 ], [ -87.12985, 34.8915741 ], [ -87.129460804, 34.891482495 ], [ -87.128932603, 34.891482495 ], [ -87.128626801, 34.891276397 ], [ -87.128404401, 34.890909895 ], [ -87.128154203, 34.889192097 ], [ -87.128126301, 34.887565896 ], [ -87.127904005, 34.886672594 ], [ -87.127653703, 34.886260293 ], [ -87.1270978, 34.885802194 ], [ -87.126597404, 34.885550193 ], [ -87.125013106, 34.885298297 ] ] } },
{ "type": "Feature", "properties": { "site_no": "03585300", "nhdplus_comid": "19598174", "navigation_mode": "DM", "requested_distance_km": 12.0, "start_source": "nwissite", "start_id": "USGS-03585300", "geometry_length_km": 0.27805011535938184 }, "geometry": { "type": "LineString", "coordinates": [ [ -87.125013106, 34.885298297 ], [ -87.124484904, 34.885069296 ], [ -87.123678707, 34.884404995 ], [ -87.123206101, 34.883786596 ], [ -87.123234004, 34.883694999 ], [ -87.1230672, 34.883488797 ] ] } },
{ "type": "Feature", "properties": { "site_no": "03585300", "nhdplus_comid": "19623260", "navigation_mode": "DM", "requested_distance_km": 12.0, "start_source": "nwissite", "start_id": "USGS-03585300", "geometry_length_km": 1.0185889014051595 }, "geometry": { "type": "LineString", "coordinates": [ [ -87.1230672, 34.883488797 ], [ -87.122931607, 34.883312494 ], [ -87.121994101, 34.882474899 ], [ -87.122601405, 34.880096994 ], [ -87.125957303, 34.8755036 ] ] } },
{ "type": "Feature", "properties": { "site_no": "03585300", "nhdplus_comid": "19623266", "navigation_mode": "DM", "requested_distance_km": 12.0, "start_source": "nwissite", "start_id": "USGS-03585300", "geometry_length_km": 1.7327839847421571 }, "geometry": { "type": "LineString", "coordinates": [ [ -87.125957303, 34.8755036 ], [ -87.125921004, 34.872942194 ], [ -87.124577306, 34.871628098 ], [ -87.121118307, 34.871365495 ], [ -87.1188998, 34.871870294 ], [ -87.1165938, 34.871695198 ], [ -87.113587804, 34.870389298 ], [ -87.112095103, 34.8689292 ] ] } }
]
}
