{
"type": "FeatureCollection",
"name": "USGS_02464500_UM_12km",
"crs": { "type": "name", "properties": { "name": "urn:ogc:def:crs:OGC:1.3:CRS84" } },
"features": [
{ "type": "Feature", "properties": { "site_no": "02464500", "nhdplus_comid": "18229579", "navigation_mode": "UM", "requested_distance_km": 12.0, "start_source": "nwissite", "start_id": "USGS-02464500", "geometry_length_km": 0.12090352813722607 }, "geometry": { "type": "LineString", "coordinates": [ [ -87.554894, 33.354311898 ], [ -87.553586577, 33.354335546 ] ] } },
{ "type": "Feature", "properties": { "site_no": "02464500", "nhdplus_comid": "18229591", "navigation_mode": "UM", "requested_distance_km": 12.0, "start_source": "nwissite", "start_id": "USGS-02464500", "geometry_length_km": 0.91736674170338484 }, "geometry": { "type": "LineString", "coordinates": [ [ -87.562017106, 33.3516903 ], [ -87.561961904, 33.351497397 ], [ -87.560780503, 33.350466296 ], [ -87.559574001, 33.350377299 ], [ -87.5585884, 33.351059899 ], [ -87.5576865, 33.352377996 ], [ -87.554894, 33.354311898 ] ] } },
{ "type": "Feature", "properties": { "site_no": "02464500", "nhdplus_comid": "18229589", "navigation_mode": "UM", "requested_distance_km": 12.0, "start_source": "nwissite", "start_id": "USGS-02464500", "geometry_length_km": 0.66898114840589751 }, "geometry": { "type": "LineString", "coordinates": [ [ -87.5655929, 33.3566112 ], [ -87.5644399, 33.356022798 ], [ -87.563340604, 33.354934797 ], [ -87.562321901, 33.353097394 ], [ -87.562017106, 33.3516903 ] ] } },
{ "type": "Feature", "properties": { "site_no": "02464500", "nhdplus_comid": "18229597", "navigation_mode": "UM", "requested_distance_km": 12.0, "start_source": "nwissite", "start_id": "USGS-02464500", "geometry_length_km": 1.3052666538320288 }, "geometry": { "type": "LineString", "coordinates": [ [ -87.575351402, 33.349029899 ], [ -87.575337, 33.349398598 ], [ -87.572588503, 33.352343194 ], [ -87.571931601, 33.352798298 ], [ -87.570523702, 33.354582794 ], [ -87.567265503, 33.356608599 ], [ -87.5655929, 33.3566112 ] ] } },
{ "type": "Feature", "properties": { "site_no": "02464500", "nhdplus_comid": "18229607", "navigation_mode": "UM", "requested_distance_km": 12.0, "start_source": "nwissite", "start_id": "USGS-02464500", "geometry_length_km": 1.4171538301669213 }, "geometry": { "type": "LineString", "coordinates": [ [ -87.587783203, 33.348866396 ], [ -87.584664203, 33.3460567 ], [ -87.584087707, 33.345762596 ], [ -87.581674606, 33.345585093 ], [ -87.580099404, 33.346098699 ], [ -87.578319803, 33.347100593 ], [ -87.575351402, 33.349029899 ] ] } },
{ "type": "Feature", "properties": { "site_no": "02464500", "nhdplus_comid": "18229601", "navigation_mode": "UM", "requested_distance_km": 12.0, "start_source": "nwissite", "start_id": "USGS-02464500", "geometry_length_km": 1.6639887032316156 }, "geometry": { "type": "LineString", "coordinates": [ [ -87.600069001, 33.349831596 ], [ -87.598285802, 33.349448897 ], [ -87.596325003, 33.349304996 ], [ -87.594940804, 33.349455096 ], [ -87.593995705, 33.349763393 ], [ -87.592517905, 33.350787699 ], [ -87.592109203, 33.351764597 ], [ -87.590631202, 33.352788895 ], [ -87.588972107, 33.352666996 ], [ -87.587872505, 33.351579294 ], [ -87.587993003, 33.350455195 ], [ -87.587783203, 33.348866396 ] ] } },
{ "type": "Feature", "properties": { "site_no": "02464500", "nhdplus_comid": "18229599", "navigation_mode": "UM", "requested_distance_km": 12.0, "start_source": "nwissite", "start_id": "USGS-02464500", "geometry_length_km": 0.92739308056378744 }, "geometry": { "type": "LineString", "coordinates": [ [ -87.604351602, 33.356690995 ], [ -87.604512006, 33.355192296 ], [ -87.603700407, 33.354251698 ], [ -87.603146702, 33.352322996 ], [ -87.601098001, 33.350158796 ], [ -87.600069001, 33.349831596 ] ] } },
{ "type": "Feature", "properties": { "site_no": "02464500", "nhdplus_comid": "18229585", "navigation_mode": "UM", "requested_distance_km": 12.0, "start_source": "nwissite", "start_id": "USGS-02464500", "geometry_length_km": 3.112434120636324 }, "geometry": { "type": "LineString", "coordinates": [ [ -87.588292301, 33.376029097 ], [ -87.587370105, 33.374702595 ], [ -87.587490603, 33.373578697 ], [ -87.587091602, 33.373045899 ], [ -87.587030903, 33.370775796 ], [ -87.586356901, 33.369971 ], [ -87.586557806, 33.3680977 ], [ -87.588364504, 33.366845898 ], [ -87.590131104, 33.365968697 ], [ -87.592048407, 33.365102597 ], [ -87.593446307, 33.364827596 ], [ -87.595514402, 33.3639725 ], [ -87.598745503, 33.362195693 ], [ -87.599663906, 33.362137198 ], [ -87.602633201, 33.359963499 ], [ -87.603356905, 33.358883694 ], [ -87.603845604, 33.357157394 ], [ -87.604351602, 33.356690995 ] ] } },
{ "type": "Feature", "properties": { "site_no": "02464500", "nhdplus_comid": "18229529", "navigation_mode": "UM", "requested_distance_km": 12.0, "start_source": "nwissite", "start_id": "USGS-02464500", "geometry_length_km": 0.68774416306892594 }, "geometry": { "type": "LineString", "coordinates": [ [ -87.592980601, 33.380526997 ], [ -87.592018105, 33.379575297 ], [ -87.591397502, 33.378270999 ], [ -87.590435006, 33.377319299 ], [ -87.589254804, 33.376980796 ], [ -87.588292301, 33.376029097 ] ] } },
{ "type": "Feature", "properties": { "site_no": "02464500", "nhdplus_comid": "18229509", "navigation_mode": "UM", "requested_distance_km": 12.0, "start_source": "nwissite", "start_id": "USGS-02464500", "geometry_length_km": 2.6310650587218061 }, "geometry": { "type": "LineString", "coordinates": [ [ -87.571148805, 33.392641895 ], [ -87.572463401, 33.391731694 ], [ -87.572859101, 33.390879795 ], [ -87.573680706, 33.390310898 ], [ -87.574227303, 33.389469996 ], [ -87.577895805, 33.386467293 ], [ -87.579019107, 33.385920495 ], [ -87.582157604, 33.385018393 ], [ -87.585051402, 33.3849793 ], [ -87.589356802, 33.384540394 ], [ -87.5926423, 33.382264294 ], [ -87.592980601, 33.380526997 ] ] } }
]
}
