{
"type": "FeatureCollection",
"name": "USGS_02457595_UM_12km",
"crs": { "type": "name", "properties": { "name": "urn:ogc:def:crs:OGC:1.3:CRS84" } },
"features": [
{ "type": "Feature", "properties": { "site_no": "02457595", "nhdplus_comid": "18566081", "navigation_mode": "UM", "requested_distance_km": 12.0, "start_source": "nwissite", "start_id": "USGS-02457595", "geometry_length_km": 1.5296302365993981 }, "geometry": { "type": "LineString", "coordinates": [ [ -86.857552603, 33.607068397 ], [ -86.858319305, 33.607045695 ], [ -86.861577503, 33.605579793 ], [ -86.8622346, 33.605213396 ], [ -86.862754904, 33.604778096 ], [ -86.864096701, 33.603151694 ], [ -86.865986004, 33.601067096 ], [ -86.867190704, 33.599326 ], [ -86.867765702, 33.597699396 ], [ -86.867805736, 33.597236644 ] ] } },
{ "type": "Feature", "properties": { "site_no": "02457595", "nhdplus_comid": "18566059", "navigation_mode": "UM", "requested_distance_km": 12.0, "start_source": "nwissite", "start_id": "USGS-02457595", "geometry_length_km": 0.36121519774865807 }, "geometry": { "type": "LineString", "coordinates": [ [ -86.8538839, 33.606105596 ], [ -86.854486205, 33.606266096 ], [ -86.855088606, 33.606609799 ], [ -86.856101602, 33.606655896 ], [ -86.857087307, 33.606885195 ], [ -86.857552603, 33.607068397 ] ] } },
{ "type": "Feature", "properties": { "site_no": "02457595", "nhdplus_comid": "18566095", "navigation_mode": "UM", "requested_distance_km": 12.0, "start_source": "nwissite", "start_id": "USGS-02457595", "geometry_length_km": 3.3773535101509129 }, "geometry": { "type": "LineString", "coordinates": [ [ -86.841077104, 33.589217998 ], [ -86.8414056, 33.589218199 ], [ -86.8445803, 33.590708099 ], [ -86.845346704, 33.590914495 ], [ -86.846551307, 33.590868995 ], [ -86.847701006, 33.590548493 ], [ -86.848796003, 33.590457097 ], [ -86.850985907, 33.590549193 ], [ -86.852080807, 33.590824299 ], [ -86.8525187, 33.591122195 ], [ -86.8528198, 33.591465898 ], [ -86.852819607, 33.591740996 ], [ -86.851039506, 33.595177099 ], [ -86.850656107, 33.595474795 ], [ -86.850327604, 33.595566399 ], [ -86.849424303, 33.5955204 ], [ -86.848493703, 33.594924495 ], [ -86.848083004, 33.594947293 ], [ -86.847973406, 33.595107697 ], [ -86.847973302, 33.595817894 ], [ -86.848055303, 33.596184395 ], [ -86.848137304, 33.596230298 ], [ -86.848137304, 33.596367694 ], [ -86.848410904, 33.596803099 ], [ -86.849669605, 33.598933898 ], [ -86.849669501, 33.599071398 ], [ -86.849751703, 33.599117294 ], [ -86.849779002, 33.599300593 ], [ -86.849861205, 33.599323496 ], [ -86.850216903, 33.600377396 ], [ -86.850299001, 33.600446194 ], [ -86.850463003, 33.601293795 ], [ -86.850517206, 33.602760099 ], [ -86.850654006, 33.603607699 ], [ -86.850982301, 33.604089096 ], [ -86.851392902, 33.604501493 ], [ -86.852159306, 33.605074398 ], [ -86.853856601, 33.605945297 ], [ -86.8538839, 33.606105596 ] ] } },
{ "type": "Feature", "properties": { "site_no": "02457595", "nhdplus_comid": "18566093", "navigation_mode": "UM", "requested_distance_km": 12.0, "start_source": "nwissite", "start_id": "USGS-02457595", "geometry_length_km": 1.4486199470166423 }, "geometry": { "type": "LineString", "coordinates": [ [ -86.832973003, 33.592124999 ], [ -86.833055004, 33.592560396 ], [ -86.833492905, 33.592904098 ], [ -86.834095001, 33.593202099 ], [ -86.837708205, 33.593867697 ], [ -86.839241005, 33.594326496 ], [ -86.8402263, 33.594784893 ], [ -86.840582207, 33.594807893 ], [ -86.840746507, 33.594716296 ], [ -86.840993002, 33.594303995 ], [ -86.841459103, 33.592517093 ], [ -86.8414592, 33.592013098 ], [ -86.840994403, 33.5904551 ], [ -86.840940103, 33.589469999 ], [ -86.841077104, 33.589217998 ] ] } },
{ "type": "Feature", "properties": { "site_no": "02457595", "nhdplus_comid": "18566097", "navigation_mode": "UM", "requested_distance_km": 12.0, "start_source": "nwissite", "start_id": "USGS-02457595", "geometry_length_km": 0.71834936280625716 }, "geometry": { "type": "LineString", "coordinates": [ [ -86.827636406, 33.589579895 ], [ -86.829908706, 33.589031093 ], [ -86.8303193, 33.589031197 ], [ -86.830894105, 33.589191794 ], [ -86.831140302, 33.5894439 ], [ -86.831167601, 33.589627199 ], [ -86.831769407, 33.590474993 ], [ -86.832645103, 33.590956397 ], [ -86.832946107, 33.591231495 ], [ -86.833055407, 33.591666795 ], [ -86.832973003, 33.592124999 ] ] } },
{ "type": "Feature", "properties": { "site_no": "02457595", "nhdplus_comid": "18566105", "navigation_mode": "UM", "requested_distance_km": 12.0, "start_source": "nwissite", "start_id": "USGS-02457595", "geometry_length_km": 4.6944312097875214 }, "geometry": { "type": "LineString", "coordinates": [ [ -86.7902757, 33.584931895 ], [ -86.790385, 33.585115194 ], [ -86.791069105, 33.585367694 ], [ -86.793339901, 33.586652197 ], [ -86.7944066, 33.587500595 ], [ -86.794926107, 33.588142395 ], [ -86.795801304, 33.589013495 ], [ -86.796375901, 33.589220099 ], [ -86.797114901, 33.589357898 ], [ -86.798045702, 33.589312695 ], [ -86.798511103, 33.589129798 ], [ -86.7990591, 33.588648997 ], [ -86.799497202, 33.588511795 ], [ -86.799935102, 33.588512093 ], [ -86.800427705, 33.588672698 ], [ -86.800509706, 33.588764399 ], [ -86.800509505, 33.589062296 ], [ -86.799550503, 33.590115599 ], [ -86.7994406, 33.590665296 ], [ -86.799850903, 33.590917595 ], [ -86.801959001, 33.590620995 ], [ -86.802615903, 33.590644397 ], [ -86.804395005, 33.590920299 ], [ -86.805216104, 33.591126993 ], [ -86.806913204, 33.591173798 ], [ -86.807323702, 33.591357298 ], [ -86.807515204, 33.591563597 ], [ -86.807542406, 33.591792695 ], [ -86.807624407, 33.591838598 ], [ -86.807733305, 33.592732094 ], [ -86.808006704, 33.593282096 ], [ -86.8085263, 33.593900897 ], [ -86.808717906, 33.5939698 ], [ -86.810360402, 33.5939935 ], [ -86.811345607, 33.594246097 ], [ -86.8140826, 33.595232695 ], [ -86.814931206, 33.595232993 ], [ -86.815451406, 33.595050097 ], [ -86.815807506, 33.594752394 ], [ -86.816191204, 33.594133995 ], [ -86.816492803, 33.593424 ], [ -86.817150302, 33.592370495 ], [ -86.817479104, 33.592095695 ], [ -86.817835003, 33.591981299 ], [ -86.818546601, 33.592119098 ], [ -86.8204896, 33.593265399 ], [ -86.821146406, 33.593494795 ], [ -86.821611904, 33.593380496 ], [ -86.821968101, 33.592991196 ], [ -86.822570801, 33.592006296 ], [ -86.823337607, 33.591365099 ], [ -86.825117506, 33.590586998 ], [ -86.826267503, 33.589991793 ], [ -86.827636406, 33.589579895 ] ] } }
]
}
