{
"type": "FeatureCollection",
"name": "USGS_02423800_DM_12km",
"crs": { "type": "name", "properties": { "name": "urn:ogc:def:crs:OGC:1.3:CRS84" } },
"features": [
{ "type": "Feature", "properties": { "site_no": "02423800", "nhdplus_comid": "21656310", "navigation_mode": "DM", "requested_distance_km": 12.0, "start_source": "nwissite", "start_id": "USGS-02423800", "geometry_length_km": 1.2844023371538491 }, "geometry": { "type": "LineString", "coordinates": [ [ -86.953340969, 33.057736664 ], [ -86.9538927, 33.057454094 ], [ -86.955034703, 33.056582794 ], [ -86.955361106, 33.056490898 ], [ -86.956150107, 33.056536198 ], [ -86.958600007, 33.057817593 ], [ -86.960260406, 33.058549695 ], [ -86.960668601, 33.0585723 ], [ -86.960940607, 33.058503397 ], [ -86.961212404, 33.058296993 ], [ -86.961483702, 33.057426095 ], [ -86.962027505, 33.0570134 ], [ -86.962299205, 33.056692399 ], [ -86.962570406, 33.055867396 ], [ -86.962651007, 33.054744698 ] ] } },
{ "type": "Feature", "properties": { "site_no": "02423800", "nhdplus_comid": "21656314", "navigation_mode": "DM", "requested_distance_km": 12.0, "start_source": "nwissite", "start_id": "USGS-02423800", "geometry_length_km": 0.6943552777551758 }, "geometry": { "type": "LineString", "coordinates": [ [ -86.962651007, 33.054744698 ], [ -86.962840803, 33.054194696 ], [ -86.963221401, 33.053804897 ], [ -86.964145705, 33.053116895 ], [ -86.964635201, 33.052841596 ], [ -86.965941206, 33.052909397 ], [ -86.968826003, 33.053732097 ] ] } },
{ "type": "Feature", "properties": { "site_no": "02423800", "nhdplus_comid": "21656312", "navigation_mode": "DM", "requested_distance_km": 12.0, "start_source": "nwissite", "start_id": "USGS-02423800", "geometry_length_km": 3.1982568214620906 }, "geometry": { "type": "LineString", "coordinates": [ [ -86.968826003, 33.053732097 ], [ -86.971765906, 33.055150397 ], [ -86.972800806, 33.056066096 ], [ -86.9739177, 33.057325296 ], [ -86.974054001, 33.0575772 ], [ -86.974054404, 33.057943799 ], [ -86.9738914, 33.058104299 ], [ -86.973075502, 33.058471598 ], [ -86.9725319, 33.0589073 ], [ -86.971635103, 33.059916094 ], [ -86.9713092, 33.060443297 ], [ -86.971282504, 33.061016195 ], [ -86.971473202, 33.061245099 ], [ -86.971609406, 33.061290793 ], [ -86.972615905, 33.061129697 ], [ -86.973894306, 33.060784996 ], [ -86.975634903, 33.060096197 ], [ -86.9764238, 33.059935197 ], [ -86.977484904, 33.0599114 ], [ -86.977838702, 33.060002796 ], [ -86.978219904, 33.060231596 ], [ -86.978356302, 33.060506396 ], [ -86.978329904, 33.061216697 ], [ -86.978221603, 33.061652094 ], [ -86.978031404, 33.061858498 ], [ -86.977650702, 33.062042095 ], [ -86.977106601, 33.062134199 ], [ -86.975310802, 33.062158495 ], [ -86.974902801, 33.062296398 ], [ -86.974794202, 33.062479697 ], [ -86.974849001, 33.062846199 ], [ -86.975094303, 33.063189797 ], [ -86.976020202, 33.063830495 ], [ -86.9763197, 33.064105198 ], [ -86.976511501, 33.065250598 ], [ -86.976729505, 33.065456696 ], [ -86.977028906, 33.0655481 ], [ -86.977763407, 33.065341294 ], [ -86.978225507, 33.064997293 ], [ -86.9792035, 33.063621797 ], [ -86.979529701, 33.063392393 ], [ -86.9801827, 33.0633002 ] ] } },
{ "type": "Feature", "properties": { "site_no": "02423800", "nhdplus_comid": "21656304", "navigation_mode": "DM", "requested_distance_km": 12.0, "start_source": "nwissite", "start_id": "USGS-02423800", "geometry_length_km": 2.8710373300917444 }, "geometry": { "type": "LineString", "coordinates": [ [ -86.9801827, 33.0633002 ], [ -86.9807541, 33.063414298 ], [ -86.981271505, 33.063665897 ], [ -86.9824154, 33.064581297 ], [ -86.983912803, 33.065290295 ], [ -86.985682204, 33.065861493 ], [ -86.986199304, 33.065952696 ], [ -86.986960903, 33.065768793 ], [ -86.988945507, 33.064323597 ], [ -86.989543803, 33.064070895 ], [ -86.9906049, 33.063978396 ], [ -86.990877107, 33.064092696 ], [ -86.9917216, 33.0647792 ], [ -86.992484801, 33.065832496 ], [ -86.9926759, 33.066336296 ], [ -86.9930306, 33.067000397 ], [ -86.993330106, 33.067160495 ], [ -86.993602201, 33.0671831 ], [ -86.994390801, 33.066815898 ], [ -86.994798303, 33.066219695 ], [ -86.995258503, 33.064500898 ], [ -86.995855302, 33.063240193 ], [ -86.995881505, 33.062484093 ], [ -86.995771505, 33.0616365 ], [ -86.995907404, 33.061476 ], [ -86.997022703, 33.061291598 ], [ -86.997675501, 33.0610618 ], [ -86.998028606, 33.060740694 ], [ -86.998028107, 33.060351193 ], [ -86.996666402, 33.059436098 ], [ -86.996475704, 33.059161298 ], [ -86.996448003, 33.058909394 ], [ -86.996556506, 33.058680095 ], [ -86.996909805, 33.058358997 ] ] } },
{ "type": "Feature", "properties": { "site_no": "02423800", "nhdplus_comid": "21656306", "navigation_mode": "DM", "requested_distance_km": 12.0, "start_source": "nwissite", "start_id": "USGS-02423800", "geometry_length_km": 0.31061443275206468 }, "geometry": { "type": "LineString", "coordinates": [ [ -86.996909805, 33.058358997 ], [ -86.997997701, 33.058060095 ], [ -86.998569101, 33.058059499 ], [ -86.999331601, 33.058494098 ], [ -86.9999924, 33.058699593 ] ] } },
{ "type": "Feature", "properties": { "site_no": "02423800", "nhdplus_comid": "21657768", "navigation_mode": "DM", "requested_distance_km": 12.0, "start_source": "nwissite", "start_id": "USGS-02423800", "geometry_length_km": 0.44927186280355352 }, "geometry": { "type": "LineString", "coordinates": [ [ -86.9999924, 33.058699593 ], [ -87.0009249, 33.058769293 ], [ -87.002175704, 33.059320495 ], [ -87.002746105, 33.059985399 ], [ -87.003343605, 33.060879596 ], [ -87.003370501, 33.061108693 ] ] } },
{ "type": "Feature", "properties": { "site_no": "02423800", "nhdplus_comid": "25382451", "navigation_mode": "DM", "requested_distance_km": 12.0, "start_source": "nwissite", "start_id": "USGS-02423800", "geometry_length_km": 0.25541073856549101 }, "geometry": { "type": "LineString", "coordinates": [ [ -87.003370501, 33.061108693 ], [ -87.003506407, 33.061131693 ], [ -87.004050002, 33.0615905 ], [ -87.004865706, 33.061980695 ], [ -87.005763702, 33.061981596 ] ] } },
{ "type": "Feature", "properties": { "site_no": "02423800", "nhdplus_comid": "25382460", "navigation_mode": "DM", "requested_distance_km": 12.0, "start_source": "nwissite", "start_id": "USGS-02423800", "geometry_length_km": 0.16225635832776381 }, "geometry": { "type": "LineString", "coordinates": [ [ -87.005763702, 33.061981596 ], [ -87.006389804, 33.061753094 ], [ -87.007152401, 33.0611353 ] ] } },
{ "type": "Feature", "properties": { "site_no": "02423800", "nhdplus_comid": "25382463", "navigation_mode": "DM", "requested_distance_km": 12.0, "start_source": "nwissite", "start_id": "USGS-02423800", "geometry_length_km": 0.21388944497774814 }, "geometry": { "type": "LineString", "coordinates": [ [ -87.007152401, 33.0611353 ], [ -87.007670701, 33.0601734 ], [ -87.007862307, 33.059325896 ] ] } },
{ "type": "Feature", "properties": { "site_no": "02423800", "nhdplus_comid": "25382466", "navigation_mode": "DM", "requested_distance_km": 12.0, "start_source": "nwissite", "start_id": "USGS-02423800", "geometry_length_km": 0.27124870610254076 }, "geometry": { "type": "LineString", "coordinates": [ [ -87.007862307, 33.059325896 ], [ -87.008053303, 33.058913693 ], [ -87.008298501, 33.058684699 ], [ -87.0089247, 33.058387496 ], [ -87.010176703, 33.058090799 ] ] } },
{ "type": "Feature", "properties": { "site_no": "02423800", "nhdplus_comid": "25382470", "navigation_mode": "DM", "requested_distance_km": 12.0, "start_source": "nwissite", "start_id": "USGS-02423800", "geometry_length_km": 0.22524114159110059 }, "geometry": { "type": "LineString", "coordinates": [ [ -87.010176703, 33.058090799 ], [ -87.010421604, 33.058045194 ], [ -87.012244903, 33.057748996 ], [ -87.012517206, 33.057611793 ] ] } },
{ "type": "Feature", "properties": { "site_no": "02423800", "nhdplus_comid": "25382473", "navigation_mode": "DM", "requested_distance_km": 12.0, "start_source": "nwissite", "start_id": "USGS-02423800", "geometry_length_km": 0.90817636214149755 }, "geometry": { "type": "LineString", "coordinates": [ [ -87.012517206, 33.057611793 ], [ -87.012789406, 33.057428695 ], [ -87.013062105, 33.057039499 ], [ -87.0133349, 33.056375295 ], [ -87.013336003, 33.055596299 ], [ -87.013227403, 33.055344194 ], [ -87.013228707, 33.0543819 ], [ -87.013339005, 33.053144693 ], [ -87.013369106, 33.050876498 ], [ -87.013506204, 33.050005995 ], [ -87.013697006, 33.049754195 ] ] } },
{ "type": "Feature", "properties": { "site_no": "02423800", "nhdplus_comid": "25382490", "navigation_mode": "DM", "requested_distance_km": 12.0, "start_source": "nwissite", "start_id": "USGS-02423800", "geometry_length_km": 0.6372187764243944 }, "geometry": { "type": "LineString", "coordinates": [ [ -87.013697006, 33.049754195 ], [ -87.014186807, 33.049617097 ], [ -87.015710302, 33.049641296 ], [ -87.016499206, 33.049733698 ], [ -87.017179005, 33.050032198 ], [ -87.017777003, 33.050444998 ], [ -87.018456303, 33.051064298 ], [ -87.018890902, 33.051706195 ], [ -87.018999204, 33.052187398 ] ] } }
]
}
