{
"type": "FeatureCollection",
"name": "USGS_02358785_DM_12km",
"crs": { "type": "name", "properties": { "name": "urn:ogc:def:crs:OGC:1.3:CRS84" } },
"features": [
{ "type": "Feature", "properties": { "site_no": "02358785", "nhdplus_comid": "2131226", "navigation_mode": "DM", "requested_distance_km": 12.0, "start_source": "nwissite", "start_id": "USGS-02358785", "geometry_length_km": 2.5483540065737205 }, "geometry": { "type": "LineString", "coordinates": [ [ -85.222896741, 31.016823151 ], [ -85.223146006, 31.016452797 ], [ -85.227213606, 31.014181398 ], [ -85.227638707, 31.013699897 ], [ -85.228408501, 31.012118295 ], [ -85.229019605, 31.011567995 ], [ -85.229843505, 31.010857098 ], [ -85.231225803, 31.010077097 ], [ -85.2319699, 31.009434894 ], [ -85.23274, 31.008311599 ], [ -85.234892301, 31.006385393 ], [ -85.236407205, 31.005330093 ], [ -85.237284206, 31.004687898 ], [ -85.2376028, 31.004160598 ], [ -85.238132901, 31.002625093 ], [ -85.239965901, 31.000744693 ], [ -85.240045302, 31.000423893 ], [ -85.240317605, 31.000189297 ] ] } },
{ "type": "Feature", "properties": { "site_no": "02358785", "nhdplus_comid": "2134034", "navigation_mode": "DM", "requested_distance_km": 12.0, "start_source": "nwissite", "start_id": "USGS-02358785", "geometry_length_km": 3.5895582620782789 }, "geometry": { "type": "LineString", "coordinates": [ [ -85.240317605, 31.000189297 ], [ -85.240369901, 30.999521397 ], [ -85.241139404, 30.997871198 ], [ -85.241272405, 30.997710697 ], [ -85.2416711, 30.997435495 ], [ -85.243055306, 30.997480094 ], [ -85.243294805, 30.9973654 ], [ -85.244543403, 30.995691895 ], [ -85.244622506, 30.995073199 ], [ -85.244941302, 30.994683497 ], [ -85.245126806, 30.994156294 ], [ -85.245148703, 30.990490496 ], [ -85.245308302, 30.990398794 ], [ -85.2459471, 30.990512796 ], [ -85.2464258, 30.990397796 ], [ -85.246664904, 30.9900769 ], [ -85.247222304, 30.989159994 ], [ -85.247248001, 30.9883352 ], [ -85.247167706, 30.987853996 ], [ -85.246794403, 30.987167098 ], [ -85.246794, 30.986846298 ], [ -85.246952906, 30.986296296 ], [ -85.2467665, 30.986113198 ], [ -85.246394105, 30.9862509 ], [ -85.246074207, 30.9857243 ], [ -85.246046305, 30.984051794 ], [ -85.246285304, 30.983730793 ], [ -85.246576704, 30.982814096 ], [ -85.246602803, 30.9823559 ], [ -85.246522903, 30.982287198 ], [ -85.246575505, 30.981691398 ], [ -85.246947505, 30.981507897 ], [ -85.2471321, 30.980087198 ], [ -85.247052103, 30.979949795 ], [ -85.247158304, 30.9797206 ], [ -85.247689903, 30.979582697 ], [ -85.248221807, 30.979696795 ], [ -85.248912401, 30.979008794 ], [ -85.248965107, 30.978642195 ], [ -85.248619303, 30.978436299 ], [ -85.248751603, 30.977977999 ], [ -85.249150202, 30.977679797 ], [ -85.2493359, 30.977381796 ], [ -85.249308705, 30.976808995 ], [ -85.248829603, 30.976374097 ], [ -85.249068201, 30.975824095 ], [ -85.249918401, 30.975250497 ], [ -85.250482507, 30.9745057 ] ] } },
{ "type": "Feature", "properties": { "site_no": "02358785", "nhdplus_comid": "2134352", "navigation_mode": "DM", "requested_distance_km": 12.0, "start_source": "nwissite", "start_id": "USGS-02358785", "geometry_length_km": 0.48128786805032125 }, "geometry": { "type": "LineString", "coordinates": [ [ -85.250482507, 30.9745057 ], [ -85.250376306, 30.974390894 ], [ -85.249917403, 30.9743113 ], [ -85.249624707, 30.974242799 ], [ -85.249598101, 30.974174097 ], [ -85.249916703, 30.973761395 ], [ -85.250564203, 30.973153897 ], [ -85.251601703, 30.972742595 ], [ -85.251947805, 30.972399294 ], [ -85.252001606, 30.972009793 ], [ -85.251682602, 30.971872099 ] ] } },
{ "type": "Feature", "properties": { "site_no": "02358785", "nhdplus_comid": "27141511", "navigation_mode": "DM", "requested_distance_km": 12.0, "start_source": "nwissite", "start_id": "USGS-02358785", "geometry_length_km": 1.8249866786259561 }, "geometry": { "type": "LineString", "coordinates": [ [ -85.251682602, 30.971872099 ], [ -85.251470201, 30.9716428 ], [ -85.251736805, 30.971115999 ], [ -85.251710601, 30.970886894 ], [ -85.251471207, 30.970932499 ], [ -85.2511786, 30.971023999 ], [ -85.251285605, 30.9705659 ], [ -85.251924604, 30.9699478 ], [ -85.251898602, 30.969535396 ], [ -85.252377406, 30.969444193 ], [ -85.252803802, 30.9686886 ], [ -85.253309801, 30.968070395 ], [ -85.253390707, 30.967131197 ], [ -85.253391005, 30.966947898 ], [ -85.253737107, 30.966604598 ], [ -85.253631704, 30.965940095 ], [ -85.253685303, 30.965596497 ], [ -85.253552601, 30.965504698 ], [ -85.253659107, 30.965321593 ], [ -85.253766805, 30.964405194 ], [ -85.253394902, 30.964152798 ], [ -85.253395304, 30.963854998 ], [ -85.253528401, 30.963694699 ], [ -85.254246205, 30.963764198 ], [ -85.254326001, 30.963695496 ], [ -85.254246905, 30.963237196 ], [ -85.254726, 30.962825298 ], [ -85.254912704, 30.962367296 ], [ -85.254966602, 30.961748697 ], [ -85.254594602, 30.961656697 ], [ -85.254435502, 30.961381599 ], [ -85.254330002, 30.960694194 ], [ -85.2545164, 30.960510999 ], [ -85.254596405, 30.960327797 ], [ -85.254091702, 30.960006595 ], [ -85.254171707, 30.9598234 ], [ -85.254278205, 30.959685996 ], [ -85.255102605, 30.959480599 ], [ -85.255187005, 30.959451593 ] ] } },
{ "type": "Feature", "properties": { "site_no": "02358785", "nhdplus_comid": "2134046", "navigation_mode": "DM", "requested_distance_km": 12.0, "start_source": "nwissite", "start_id": "USGS-02358785", "geometry_length_km": 0.95001411208509345 }, "geometry": { "type": "LineString", "coordinates": [ [ -85.255187005, 30.959451593 ], [ -85.255368605, 30.959389299 ], [ -85.2554757, 30.9589082 ], [ -85.255183503, 30.958724596 ], [ -85.255104005, 30.958495498 ], [ -85.254811704, 30.958380595 ], [ -85.254865102, 30.958220296 ], [ -85.254945002, 30.958151594 ], [ -85.255185105, 30.957487494 ], [ -85.254786901, 30.957074597 ], [ -85.254707702, 30.956639193 ], [ -85.254894406, 30.956158295 ], [ -85.2555326, 30.955998495 ], [ -85.255639203, 30.955838293 ], [ -85.255639501, 30.955632098 ], [ -85.255241506, 30.955013096 ], [ -85.255188704, 30.954783894 ], [ -85.255189404, 30.954188198 ], [ -85.255695403, 30.953592993 ], [ -85.255589306, 30.953409597 ], [ -85.255137503, 30.953248799 ], [ -85.255164601, 30.952882297 ], [ -85.255245, 30.952492796 ] ] } },
{ "type": "Feature", "properties": { "site_no": "02358785", "nhdplus_comid": "2134354", "navigation_mode": "DM", "requested_distance_km": 12.0, "start_source": "nwissite", "start_id": "USGS-02358785", "geometry_length_km": 0.53683088609325891 }, "geometry": { "type": "LineString", "coordinates": [ [ -85.255245, 30.952492796 ], [ -85.2551127, 30.9519886 ], [ -85.255459405, 30.951164193 ], [ -85.255459607, 30.951026693 ], [ -85.255859204, 30.950408496 ], [ -85.255912401, 30.950339794 ], [ -85.256603606, 30.9502718 ], [ -85.256630503, 30.950065598 ], [ -85.257135704, 30.949928597 ], [ -85.257348806, 30.949630998 ], [ -85.257402405, 30.9492644 ], [ -85.258014001, 30.949173398 ] ] } },
{ "type": "Feature", "properties": { "site_no": "02358785", "nhdplus_comid": "2134056", "navigation_mode": "DM", "requested_distance_km": 12.0, "start_source": "nwissite", "start_id": "USGS-02358785", "geometry_length_km": 4.8123704467706201 }, "geometry": { "type": "LineString", "coordinates": [ [ -85.258014001, 30.949173398 ], [ -85.257961601, 30.948577695 ], [ -85.258041501, 30.948463194 ], [ -85.258122303, 30.947638497 ], [ -85.258707002, 30.947707795 ], [ -85.258574605, 30.947386794 ], [ -85.258973904, 30.946929097 ], [ -85.259027302, 30.946745694 ], [ -85.2591075, 30.946425095 ], [ -85.259400606, 30.945806794 ], [ -85.259534106, 30.945348695 ], [ -85.259189203, 30.944821395 ], [ -85.260333702, 30.943653993 ], [ -85.260493502, 30.943379194 ], [ -85.259855606, 30.943378597 ], [ -85.259802505, 30.943286896 ], [ -85.260282807, 30.9418898 ], [ -85.260655604, 30.941454798 ], [ -85.260523103, 30.941110998 ], [ -85.260443501, 30.940973498 ], [ -85.260496907, 30.940698594 ], [ -85.260842703, 30.940469794 ], [ -85.2612423, 30.939805798 ], [ -85.261402704, 30.9390269 ], [ -85.262601003, 30.937378399 ], [ -85.263186201, 30.936920695 ], [ -85.263851203, 30.936600596 ], [ -85.2645697, 30.935890995 ], [ -85.2644113, 30.935020193 ], [ -85.264678106, 30.934172697 ], [ -85.264067203, 30.933851399 ], [ -85.264254704, 30.932728894 ], [ -85.264761202, 30.931377597 ], [ -85.265028603, 30.930048995 ], [ -85.265294805, 30.929751396 ], [ -85.265428804, 30.9287434 ], [ -85.265908502, 30.927735694 ], [ -85.266414404, 30.927071795 ], [ -85.267531902, 30.925904199 ], [ -85.267718501, 30.925400399 ], [ -85.267747, 30.923819497 ], [ -85.267933406, 30.923544794 ], [ -85.268359005, 30.923201397 ], [ -85.268359207, 30.922972299 ], [ -85.267907903, 30.9225595 ], [ -85.267855205, 30.922192797 ], [ -85.267988302, 30.922032595 ], [ -85.268254302, 30.921849497 ], [ -85.2685735, 30.921551898 ], [ -85.268919505, 30.921071097 ], [ -85.268653706, 30.921070896 ], [ -85.268441401, 30.9208875 ], [ -85.268202603, 30.920543499 ], [ -85.268229902, 30.9199249 ], [ -85.268203802, 30.919512495 ], [ -85.268071003, 30.9194666 ], [ -85.267885201, 30.919237293 ], [ -85.267859101, 30.918916494 ], [ -85.268045202, 30.918802097 ], [ -85.268231601, 30.918527395 ], [ -85.268656902, 30.918436095 ], [ -85.269347504, 30.9186887 ], [ -85.269640304, 30.918253697 ], [ -85.269694, 30.917795494 ], [ -85.269827001, 30.917726897 ], [ -85.2698275, 30.917337298 ], [ -85.269349605, 30.916901596 ], [ -85.269270204, 30.9167182 ], [ -85.269483507, 30.9160311 ], [ -85.270042107, 30.915458798 ], [ -85.271346405, 30.913649894 ] ] } }
]
}
