{
"type": "FeatureCollection",
"name": "USGS_02462600_UM_12km",
"crs": { "type": "name", "properties": { "name": "urn:ogc:def:crs:OGC:1.3:CRS84" } },
"features": [
{ "type": "Feature", "properties": { "site_no": "02462600", "nhdplus_comid": "18224329", "navigation_mode": "UM", "requested_distance_km": 12.0, "start_source": "nwissite", "start_id": "USGS-02462600", "geometry_length_km": 6.4791852962575218 }, "geometry": { "type": "LineString", "coordinates": [ [ -87.481436402, 33.573766299 ], [ -87.481127702, 33.5676497 ], [ -87.481206305, 33.564877599 ], [ -87.480874807, 33.562357798 ], [ -87.480709903, 33.561808094 ], [ -87.4805988, 33.560479395 ], [ -87.480489001, 33.560135894 ], [ -87.480378203, 33.5590363 ], [ -87.480376206, 33.557432696 ], [ -87.480594404, 33.556814 ], [ -87.480457306, 33.556676596 ], [ -87.480347306, 33.556241497 ], [ -87.480483204, 33.555553898 ], [ -87.480401002, 33.555439495 ], [ -87.480400503, 33.555050097 ], [ -87.480782002, 33.553675197 ], [ -87.480999604, 33.552666999 ], [ -87.480889902, 33.552460797 ], [ -87.480916202, 33.551613197 ], [ -87.481407605, 33.550627694 ], [ -87.481488504, 33.549734093 ], [ -87.480418406, 33.547329493 ], [ -87.480390206, 33.546710998 ], [ -87.480553605, 33.5460006 ], [ -87.480334304, 33.545657098 ], [ -87.479485303, 33.544947699 ], [ -87.479320705, 33.544558294 ], [ -87.479429401, 33.543962598 ], [ -87.479948603, 33.543481 ], [ -87.480057701, 33.543228999 ], [ -87.480084106, 33.542449996 ], [ -87.479645304, 33.541510999 ], [ -87.479726702, 33.540915295 ], [ -87.479917906, 33.540708996 ], [ -87.480191402, 33.540617093 ], [ -87.480437301, 33.540410697 ], [ -87.480682805, 33.539906494 ], [ -87.480897002, 33.536080398 ], [ -87.481115103, 33.535507396 ], [ -87.481798403, 33.534934096 ], [ -87.481825501, 33.534750797 ], [ -87.481414706, 33.534361698 ], [ -87.481496103, 33.533788897 ], [ -87.481960602, 33.533376195 ], [ -87.482999302, 33.532779597 ], [ -87.48319, 33.532115094 ], [ -87.483708903, 33.5313816 ], [ -87.484663203, 33.528883599 ], [ -87.484909005, 33.528585494 ], [ -87.485729404, 33.528355695 ], [ -87.485811107, 33.528012 ], [ -87.485701405, 33.527828798 ], [ -87.485181302, 33.527508393 ], [ -87.484660901, 33.5269133 ], [ -87.484248102, 33.524943396 ], [ -87.484274603, 33.5242332 ], [ -87.4844933, 33.524049796 ], [ -87.486325406, 33.523681596 ], [ -87.486461505, 33.523108698 ], [ -87.4857492, 33.522124194 ], [ -87.485502504, 33.521734998 ], [ -87.485137392, 33.520932517 ] ] } }
]
}
