{
"type": "FeatureCollection",
"name": "USGS_02413500_DM_12km",
"crs": { "type": "name", "properties": { "name": "urn:ogc:def:crs:OGC:1.3:CRS84" } },
"features": [
{ "type": "Feature", "properties": { "site_no": "02413500", "nhdplus_comid": "15811977", "navigation_mode": "DM", "requested_distance_km": 12.0, "start_source": "nwissite", "start_id": "USGS-02413500", "geometry_length_km": 3.2134425352370344 }, "geometry": { "type": "LineString", "coordinates": [ [ -85.544937658, 33.349573674 ], [ -85.545485802, 33.346288599 ], [ -85.545568801, 33.345143296 ], [ -85.545160607, 33.343906194 ], [ -85.5440979, 33.342095897 ], [ -85.543280207, 33.341133296 ], [ -85.539763406, 33.337557696 ], [ -85.538209401, 33.336159199 ], [ -85.5373099, 33.335196599 ], [ -85.536138706, 33.333179995 ], [ -85.535648607, 33.332011595 ], [ -85.534968905, 33.329720497 ], [ -85.534860604, 33.328918695 ], [ -85.535326406, 33.327109493 ], [ -85.536337607, 33.325552694 ], [ -85.537702702, 33.324683294 ], [ -85.538193904, 33.3245463 ] ] } },
{ "type": "Feature", "properties": { "site_no": "02413500", "nhdplus_comid": "15811979", "navigation_mode": "DM", "requested_distance_km": 12.0, "start_source": "nwissite", "start_id": "USGS-02413500", "geometry_length_km": 2.6845763947096684 }, "geometry": { "type": "LineString", "coordinates": [ [ -85.538193904, 33.3245463 ], [ -85.538930506, 33.3246613 ], [ -85.542176604, 33.325419396 ], [ -85.5433494, 33.3260158 ], [ -85.546239607, 33.328216493 ], [ -85.547193401, 33.329454094 ], [ -85.547166102, 33.329545699 ], [ -85.548937701, 33.331768699 ], [ -85.552427307, 33.335435696 ], [ -85.553054005, 33.336443894 ], [ -85.553299502, 33.336627297 ], [ -85.555370301, 33.340316296 ], [ -85.5559429, 33.340889297 ], [ -85.556597404, 33.341416493 ], [ -85.557006605, 33.341554098 ] ] } },
{ "type": "Feature", "properties": { "site_no": "02413500", "nhdplus_comid": "15811965", "navigation_mode": "DM", "requested_distance_km": 12.0, "start_source": "nwissite", "start_id": "USGS-02413500", "geometry_length_km": 1.6039951081175559 }, "geometry": { "type": "LineString", "coordinates": [ [ -85.557006605, 33.341554098 ], [ -85.557443306, 33.341554396 ], [ -85.558671705, 33.341073997 ], [ -85.559982203, 33.340364695 ], [ -85.561429001, 33.339861594 ], [ -85.562029801, 33.339220494 ], [ -85.562576003, 33.338602297 ], [ -85.562794603, 33.338167295 ], [ -85.562686205, 33.337205097 ], [ -85.561923407, 33.335532598 ], [ -85.561269805, 33.333745696 ], [ -85.561134301, 33.332600296 ], [ -85.561053805, 33.330813698 ], [ -85.560917906, 33.330149293 ] ] } },
{ "type": "Feature", "properties": { "site_no": "02413500", "nhdplus_comid": "15812003", "navigation_mode": "DM", "requested_distance_km": 12.0, "start_source": "nwissite", "start_id": "USGS-02413500", "geometry_length_km": 4.1749084395700411 }, "geometry": { "type": "LineString", "coordinates": [ [ -85.560917906, 33.330149293 ], [ -85.560946405, 33.328545898 ], [ -85.561274305, 33.327927694 ], [ -85.562093303, 33.327240899 ], [ -85.562448204, 33.327149495 ], [ -85.563375801, 33.327218696 ], [ -85.5642488, 33.327448197 ], [ -85.567194402, 33.329190396 ], [ -85.567931101, 33.329144999 ], [ -85.5685862, 33.328939095 ], [ -85.569159701, 33.328297995 ], [ -85.569187507, 33.327450596 ], [ -85.569105804, 33.327129796 ], [ -85.568342701, 33.325755097 ], [ -85.567197703, 33.324357398 ], [ -85.565780804, 33.321539193 ], [ -85.5653999, 33.320118897 ], [ -85.5653181, 33.320027299 ], [ -85.565209702, 33.318904795 ], [ -85.565264501, 33.318652898 ], [ -85.565701604, 33.317828499 ], [ -85.566275001, 33.3171416 ], [ -85.566629805, 33.316981494 ], [ -85.567284606, 33.316935994 ], [ -85.567993902, 33.317096695 ], [ -85.570202902, 33.318609498 ], [ -85.571211904, 33.3192055 ], [ -85.5721668, 33.319320396 ], [ -85.572821602, 33.319183297 ], [ -85.573313005, 33.318794094 ], [ -85.573667906, 33.318335995 ], [ -85.573722802, 33.317809194 ], [ -85.573559605, 33.317076199 ], [ -85.573123604, 33.316342995 ], [ -85.571924105, 33.314739093 ], [ -85.571733303, 33.314303793 ], [ -85.571679302, 33.313456297 ], [ -85.571761303, 33.313158497 ], [ -85.572280005, 33.312746495 ], [ -85.573289402, 33.312586494 ], [ -85.574026302, 33.312060095 ] ] } }
]
}
