{
"type": "FeatureCollection",
"name": "USGS_02419974_DM_12km",
"crs": { "type": "name", "properties": { "name": "urn:ogc:def:crs:OGC:1.3:CRS84" } },
"features": [
{ "type": "Feature", "properties": { "site_no": "02419974", "nhdplus_comid": "21686550", "navigation_mode": "DM", "requested_distance_km": 12.0, "start_source": "nwissite", "start_id": "USGS-02419974", "geometry_length_km": 0.89970928882429491 }, "geometry": { "type": "LineString", "coordinates": [ [ -86.25061486, 32.379035626 ], [ -86.252867304, 32.381532796 ], [ -86.253433101, 32.382449999 ], [ -86.253783703, 32.382794097 ], [ -86.254970901, 32.383459695 ], [ -86.255807802, 32.383552097 ], [ -86.256428607, 32.383827597 ], [ -86.256833106, 32.384148799 ], [ -86.2573459, 32.384378299 ] ] } },
{ "type": "Feature", "properties": { "site_no": "02419974", "nhdplus_comid": "21681504", "navigation_mode": "DM", "requested_distance_km": 12.0, "start_source": "nwissite", "start_id": "USGS-02419974", "geometry_length_km": 5.3529065235668645 }, "geometry": { "type": "LineString", "coordinates": [ [ -86.2573459, 32.384378299 ], [ -86.257318504, 32.384699196 ], [ -86.256669402, 32.385454699 ], [ -86.256425805, 32.385866895 ], [ -86.256290205, 32.386302195 ], [ -86.256289303, 32.386989497 ], [ -86.256370105, 32.387195796 ], [ -86.256421, 32.389532998 ], [ -86.256904103, 32.391801797 ], [ -86.257549703, 32.393704094 ], [ -86.2581155, 32.394781597 ], [ -86.258115306, 32.394987799 ], [ -86.258627303, 32.395813197 ], [ -86.259057902, 32.396936297 ], [ -86.259191804, 32.397806995 ], [ -86.259083107, 32.398310997 ], [ -86.254828401, 32.409213394 ], [ -86.254665703, 32.409717396 ], [ -86.254718401, 32.410633899 ], [ -86.255445004, 32.4127426 ], [ -86.255820803, 32.414507195 ], [ -86.2557372, 32.416340195 ], [ -86.255655706, 32.416683696 ], [ -86.255572103, 32.418608293 ], [ -86.255245805, 32.420211896 ], [ -86.255216606, 32.421930298 ], [ -86.254564606, 32.424587496 ], [ -86.255075105, 32.426673099 ], [ -86.255965501, 32.427430093 ], [ -86.256069504, 32.430523299 ], [ -86.256150506, 32.430569299 ] ] } },
{ "type": "Feature", "properties": { "site_no": "02419974", "nhdplus_comid": "21681176", "navigation_mode": "DM", "requested_distance_km": 12.0, "start_source": "nwissite", "start_id": "USGS-02419974", "geometry_length_km": 3.2138383363378575 }, "geometry": { "type": "LineString", "coordinates": [ [ -86.256150506, 32.430569299 ], [ -86.256041907, 32.431004599 ], [ -86.256040506, 32.432081498 ], [ -86.255684905, 32.435288794 ], [ -86.254033506, 32.437807597 ], [ -86.252056107, 32.441334099 ], [ -86.251811706, 32.442250498 ], [ -86.251728207, 32.4439459 ], [ -86.2514017, 32.445572294 ], [ -86.251400903, 32.446236797 ], [ -86.2515622, 32.446809694 ], [ -86.254639506, 32.449058197 ], [ -86.255422302, 32.449792199 ], [ -86.256635107, 32.452084593 ], [ -86.256634906, 32.452222094 ], [ -86.2571209, 32.452612095 ], [ -86.257417701, 32.453024797 ], [ -86.257633105, 32.453574896 ], [ -86.257875904, 32.453895897 ], [ -86.258335203, 32.453942195 ], [ -86.258956201, 32.454423897 ], [ -86.2594155, 32.454515994 ], [ -86.259685203, 32.454859994 ], [ -86.260333002, 32.455456294 ] ] } }
]
}
