{
"type": "FeatureCollection",
"name": "USGS_02425200_DM_12km",
"crs": { "type": "name", "properties": { "name": "urn:ogc:def:crs:OGC:1.3:CRS84" } },
"features": [
{ "type": "Feature", "properties": { "site_no": "02425200", "nhdplus_comid": "21455082", "navigation_mode": "DM", "requested_distance_km": 12.0, "start_source": "nwissite", "start_id": "USGS-02425200", "geometry_length_km": 6.34214857242576 }, "geometry": { "type": "LineString", "coordinates": [ [ -87.162706156, 32.221172706 ], [ -87.162216403, 32.221214496 ], [ -87.161973804, 32.221100099 ], [ -87.161731005, 32.220825098 ], [ -87.161730707, 32.220275193 ], [ -87.1616228, 32.220114797 ], [ -87.161056504, 32.219725497 ], [ -87.160867803, 32.219473496 ], [ -87.160813503, 32.218648493 ], [ -87.161270604, 32.2157612 ], [ -87.161324002, 32.214569598 ], [ -87.160865605, 32.213859394 ], [ -87.159867905, 32.213057697 ], [ -87.1593825, 32.212507799 ], [ -87.159005001, 32.212255798 ], [ -87.157118306, 32.212325096 ], [ -87.1563906, 32.212256499 ], [ -87.155959301, 32.212119095 ], [ -87.155069605, 32.211271398 ], [ -87.154611304, 32.211225696 ], [ -87.154180303, 32.211867496 ], [ -87.153937802, 32.212050796 ], [ -87.153506503, 32.2120509 ], [ -87.152212605, 32.211501293 ], [ -87.151835203, 32.211478397 ], [ -87.151323207, 32.211707696 ], [ -87.151053704, 32.212005697 ], [ -87.150757305, 32.212188996 ], [ -87.150299102, 32.212189093 ], [ -87.149948604, 32.211937197 ], [ -87.149247803, 32.211799793 ], [ -87.148466207, 32.211983196 ], [ -87.147981003, 32.211616695 ], [ -87.147684507, 32.211502194 ], [ -87.147226207, 32.211525194 ], [ -87.146660306, 32.211914897 ], [ -87.146283001, 32.212029494 ], [ -87.1453126, 32.211548395 ], [ -87.144719601, 32.211342297 ], [ -87.143614501, 32.211388394 ], [ -87.142644301, 32.211732194 ], [ -87.142482601, 32.211915493 ], [ -87.142105304, 32.212098897 ], [ -87.1409733, 32.212351099 ], [ -87.139302507, 32.213794999 ], [ -87.138601705, 32.213863797 ], [ -87.136930406, 32.213107795 ], [ -87.135771401, 32.212787099 ], [ -87.134962805, 32.212878793 ], [ -87.134774104, 32.213016294 ], [ -87.134531602, 32.213451698 ], [ -87.134208404, 32.214436993 ], [ -87.134181507, 32.215261996 ], [ -87.133723304, 32.215353698 ], [ -87.133615501, 32.215216197 ], [ -87.133372806, 32.214505896 ], [ -87.132806703, 32.2138872 ], [ -87.132025003, 32.213337295 ], [ -87.1314319, 32.2131311 ], [ -87.130812101, 32.213199899 ], [ -87.130219102, 32.213383295 ], [ -87.129949607, 32.213589497 ], [ -87.128871404, 32.2140707 ], [ -87.128278404, 32.214070797 ], [ -87.127847202, 32.213543594 ], [ -87.127604507, 32.212879099 ], [ -87.127523601, 32.212535396 ], [ -87.1267149, 32.211045898 ], [ -87.126175903, 32.210198194 ], [ -87.125771604, 32.210129395 ], [ -87.125205606, 32.210473098 ], [ -87.124990001, 32.210770994 ], [ -87.124720402, 32.211045995 ], [ -87.124100506, 32.211206399 ], [ -87.123588406, 32.210908495 ], [ -87.123426706, 32.210725196 ], [ -87.123669304, 32.209946096 ], [ -87.123399705, 32.209785596 ], [ -87.122995503, 32.209808595 ], [ -87.1222139, 32.209991895 ], [ -87.121782601, 32.210198097 ], [ -87.121782601, 32.211045995 ], [ -87.120623603, 32.2119167 ], [ -87.120785303, 32.213245794 ], [ -87.120354004, 32.214070596 ] ] } },
{ "type": "Feature", "properties": { "site_no": "02425200", "nhdplus_comid": "21456610", "navigation_mode": "DM", "requested_distance_km": 12.0, "start_source": "nwissite", "start_id": "USGS-02425200", "geometry_length_km": 0.091586204954694925 }, "geometry": { "type": "LineString", "coordinates": [ [ -87.120354004, 32.214070596 ], [ -87.120139003, 32.214162 ], [ -87.119602501, 32.214585498 ] ] } },
{ "type": "Feature", "properties": { "site_no": "02425200", "nhdplus_comid": "21456614", "navigation_mode": "DM", "requested_distance_km": 12.0, "start_source": "nwissite", "start_id": "USGS-02425200", "geometry_length_km": 1.7131848520452855 }, "geometry": { "type": "LineString", "coordinates": [ [ -87.119602501, 32.214585498 ], [ -87.114712104, 32.214073598 ], [ -87.105915904, 32.213631496 ], [ -87.102850907, 32.212884694 ], [ -87.102001101, 32.212439097 ], [ -87.101689905, 32.212540597 ] ] } },
{ "type": "Feature", "properties": { "site_no": "02425200", "nhdplus_comid": "21456622", "navigation_mode": "DM", "requested_distance_km": 12.0, "start_source": "nwissite", "start_id": "USGS-02425200", "geometry_length_km": 2.5840614706110943 }, "geometry": { "type": "LineString", "coordinates": [ [ -87.101689905, 32.212540597 ], [ -87.098657802, 32.210156299 ], [ -87.090417303, 32.202060997 ], [ -87.089275703, 32.200204395 ], [ -87.088473104, 32.197996095 ], [ -87.087062307, 32.195865795 ], [ -87.086245902, 32.193782493 ] ] } },
{ "type": "Feature", "properties": { "site_no": "02425200", "nhdplus_comid": "21456626", "navigation_mode": "DM", "requested_distance_km": 12.0, "start_source": "nwissite", "start_id": "USGS-02425200", "geometry_length_km": 1.6221244198239211 }, "geometry": { "type": "LineString", "coordinates": [ [ -87.086245902, 32.193782493 ], [ -87.084882401, 32.189889595 ], [ -87.085167103, 32.186000995 ], [ -87.086287305, 32.1826832 ], [ -87.088094205, 32.179924399 ] ] } }
]
}
