{
"type": "FeatureCollection",
"name": "USGS_02425000_DM_12km",
"crs": { "type": "name", "properties": { "name": "urn:ogc:def:crs:OGC:1.3:CRS84" } },
"features": [
{ "type": "Feature", "properties": { "site_no": "02425000", "nhdplus_comid": "21662336", "navigation_mode": "DM", "requested_distance_km": 12.0, "start_source": "nwissite", "start_id": "USGS-02425000", "geometry_length_km": 2.3330633746650795 }, "geometry": { "type": "LineString", "coordinates": [ [ -87.179715639, 32.444351683 ], [ -87.179712601, 32.444342896 ], [ -87.179577403, 32.444159597 ], [ -87.179333605, 32.443266198 ], [ -87.179332301, 32.440974794 ], [ -87.179709807, 32.439737298 ], [ -87.180654801, 32.438522398 ], [ -87.182734303, 32.436894596 ], [ -87.183220305, 32.436596498 ], [ -87.184030905, 32.436481498 ], [ -87.184517302, 32.436572894 ], [ -87.185436301, 32.436961994 ], [ -87.186652601, 32.437603094 ], [ -87.187139101, 32.437717393 ], [ -87.187814601, 32.437716998 ], [ -87.188408904, 32.437441796 ], [ -87.189192005, 32.436822698 ], [ -87.189812906, 32.436203696 ], [ -87.190055802, 32.435813993 ], [ -87.190810807, 32.4337743 ], [ -87.190918505, 32.433201395 ], [ -87.190944701, 32.432078697 ], [ -87.190836206, 32.431574598 ], [ -87.190511607, 32.431001797 ] ] } },
{ "type": "Feature", "properties": { "site_no": "02425000", "nhdplus_comid": "21662340", "navigation_mode": "DM", "requested_distance_km": 12.0, "start_source": "nwissite", "start_id": "USGS-02425000", "geometry_length_km": 0.22463062545347132 }, "geometry": { "type": "LineString", "coordinates": [ [ -87.190511607, 32.431001797 ], [ -87.188835405, 32.429559097 ] ] } },
{ "type": "Feature", "properties": { "site_no": "02425000", "nhdplus_comid": "21662368", "navigation_mode": "DM", "requested_distance_km": 12.0, "start_source": "nwissite", "start_id": "USGS-02425000", "geometry_length_km": 3.0594004727909851 }, "geometry": { "type": "LineString", "coordinates": [ [ -87.188835405, 32.429559097 ], [ -87.188646406, 32.429536298 ], [ -87.187511206, 32.428918198 ], [ -87.185700402, 32.428094193 ], [ -87.184619404, 32.427773893 ], [ -87.182673901, 32.427408196 ], [ -87.182025202, 32.427064799 ], [ -87.181863107, 32.426858597 ], [ -87.181754805, 32.426492095 ], [ -87.181862302, 32.425689995 ], [ -87.182805903, 32.422665 ], [ -87.1828053, 32.421633899 ], [ -87.182589002, 32.421404794 ], [ -87.1815622, 32.420924097 ], [ -87.180859804, 32.421039 ], [ -87.179941505, 32.421383098 ], [ -87.177754104, 32.422804698 ], [ -87.177105904, 32.423011199 ], [ -87.176187404, 32.423080295 ], [ -87.1756199, 32.422851399 ], [ -87.1752683, 32.422255799 ], [ -87.175078802, 32.421430998 ], [ -87.174834803, 32.419872895 ], [ -87.1743211, 32.419208698 ], [ -87.173456207, 32.418613195 ], [ -87.171780907, 32.417857699 ], [ -87.169214301, 32.417331696 ] ] } },
{ "type": "Feature", "properties": { "site_no": "02425000", "nhdplus_comid": "21662392", "navigation_mode": "DM", "requested_distance_km": 12.0, "start_source": "nwissite", "start_id": "USGS-02425000", "geometry_length_km": 4.7621671864421096 }, "geometry": { "type": "LineString", "coordinates": [ [ -87.169214301, 32.417331696 ], [ -87.167917505, 32.4169655 ], [ -87.167350106, 32.416713595 ], [ -87.166404203, 32.415911898 ], [ -87.165296003, 32.414583296 ], [ -87.164484903, 32.412750393 ], [ -87.164214201, 32.411650598 ], [ -87.164132707, 32.410802796 ], [ -87.164564706, 32.410138197 ], [ -87.165212601, 32.409565099 ], [ -87.1661309, 32.409060694 ], [ -87.167103104, 32.408785395 ], [ -87.170560405, 32.40828 ], [ -87.171262503, 32.408027798 ], [ -87.1719376, 32.407637894 ], [ -87.172477603, 32.407179497 ], [ -87.173422307, 32.4060793 ], [ -87.173610806, 32.404933497 ], [ -87.173448503, 32.404452398 ], [ -87.173205204, 32.404062897 ], [ -87.172718704, 32.403536096 ], [ -87.1720974, 32.403261296 ], [ -87.171205901, 32.403124198 ], [ -87.168585904, 32.402987696 ], [ -87.163345903, 32.402485199 ], [ -87.162157401, 32.402531393 ], [ -87.161077105, 32.402760997 ], [ -87.160347901, 32.403036095 ], [ -87.159375802, 32.403609194 ], [ -87.158754803, 32.404136397 ], [ -87.158025905, 32.404961497 ], [ -87.157054007, 32.406267896 ], [ -87.156568103, 32.407321997 ], [ -87.156433307, 32.407894894 ], [ -87.155839406, 32.408834495 ], [ -87.155299202, 32.409247093 ], [ -87.154165007, 32.409751497 ], [ -87.153165504, 32.409957893 ], [ -87.151652902, 32.410004094 ], [ -87.151112601, 32.409820996 ] ] } },
{ "type": "Feature", "properties": { "site_no": "02425000", "nhdplus_comid": "21662394", "navigation_mode": "DM", "requested_distance_km": 12.0, "start_source": "nwissite", "start_id": "USGS-02425000", "geometry_length_km": 0.97243574032637892 }, "geometry": { "type": "LineString", "coordinates": [ [ -87.151112601, 32.409820996 ], [ -87.1510856, 32.409683399 ], [ -87.150842406, 32.409477293 ], [ -87.150085703, 32.408125497 ], [ -87.149761304, 32.407323599 ], [ -87.149220802, 32.406292595 ], [ -87.1487884, 32.405376099 ], [ -87.148464106, 32.404757395 ], [ -87.148247801, 32.404184699 ], [ -87.148085706, 32.403955497 ], [ -87.147788405, 32.402855694 ], [ -87.147815004, 32.401687093 ] ] } }
]
}
