{
"type": "FeatureCollection",
"name": "USGS_02378500_DM_12km",
"crs": { "type": "name", "properties": { "name": "urn:ogc:def:crs:OGC:1.3:CRS84" } },
"features": [
{ "type": "Feature", "properties": { "site_no": "02378500", "nhdplus_comid": "18514402", "navigation_mode": "DM", "requested_distance_km": 12.0, "start_source": "nwissite", "start_id": "USGS-02378500", "geometry_length_km": 0.60910936525423653 }, "geometry": { "type": "LineString", "coordinates": [ [ -87.798379887, 30.545354248 ], [ -87.797802806, 30.544419199 ], [ -87.797751501, 30.542402193 ], [ -87.797169507, 30.541645497 ], [ -87.796852306, 30.540980697 ], [ -87.796270207, 30.540384494 ] ] } },
{ "type": "Feature", "properties": { "site_no": "02378500", "nhdplus_comid": "18514430", "navigation_mode": "DM", "requested_distance_km": 12.0, "start_source": "nwissite", "start_id": "USGS-02378500", "geometry_length_km": 2.6099876646749531 }, "geometry": { "type": "LineString", "coordinates": [ [ -87.796270207, 30.540384494 ], [ -87.797515102, 30.5398122 ], [ -87.798601404, 30.539033495 ], [ -87.7988666, 30.538483597 ], [ -87.7991587, 30.537314899 ], [ -87.799795106, 30.536031798 ], [ -87.799954802, 30.5349776 ], [ -87.800485104, 30.534084097 ], [ -87.801333107, 30.532984495 ], [ -87.801651306, 30.532342896 ], [ -87.801731206, 30.531724095 ], [ -87.802181706, 30.530967996 ], [ -87.802658707, 30.530418195 ], [ -87.803612106, 30.529960297 ], [ -87.8048831, 30.5297089 ], [ -87.805598207, 30.529434197 ], [ -87.806181006, 30.5288845 ], [ -87.8067111, 30.528013796 ], [ -87.807029106, 30.527624398 ], [ -87.807744302, 30.527028799 ], [ -87.807956301, 30.526662193 ], [ -87.808513403, 30.525058195 ], [ -87.808804907, 30.524691693 ], [ -87.808911003, 30.524324894 ], [ -87.809653103, 30.523018897 ], [ -87.809574105, 30.522377193 ], [ -87.809204005, 30.521620594 ] ] } },
{ "type": "Feature", "properties": { "site_no": "02378500", "nhdplus_comid": "18514442", "navigation_mode": "DM", "requested_distance_km": 12.0, "start_source": "nwissite", "start_id": "USGS-02378500", "geometry_length_km": 1.9112064562410345 }, "geometry": { "type": "LineString", "coordinates": [ [ -87.809204005, 30.521620594 ], [ -87.809071906, 30.521253899 ], [ -87.8089156, 30.517495096 ], [ -87.8092601, 30.516761795 ], [ -87.809234202, 30.515982494 ], [ -87.809419803, 30.515501298 ], [ -87.8094467, 30.514790796 ], [ -87.809288301, 30.514148995 ], [ -87.809526801, 30.513667695 ], [ -87.810242102, 30.512843095 ], [ -87.810374804, 30.512293093 ], [ -87.810375504, 30.511353396 ], [ -87.8101907, 30.510596998 ], [ -87.809714906, 30.509542495 ], [ -87.808471605, 30.508441597 ], [ -87.808286503, 30.508097798 ], [ -87.808314607, 30.505759999 ], [ -87.808076605, 30.505416095 ] ] } },
{ "type": "Feature", "properties": { "site_no": "02378500", "nhdplus_comid": "18514460", "navigation_mode": "DM", "requested_distance_km": 12.0, "start_source": "nwissite", "start_id": "USGS-02378500", "geometry_length_km": 0.60954077931904316 }, "geometry": { "type": "LineString", "coordinates": [ [ -87.808076605, 30.505416095 ], [ -87.807706505, 30.504957497 ], [ -87.807680905, 30.504178293 ], [ -87.808079503, 30.503353298 ], [ -87.8084803, 30.501199193 ], [ -87.808771901, 30.500717893 ], [ -87.808587104, 30.500212297 ] ] } },
{ "type": "Feature", "properties": { "site_no": "02378500", "nhdplus_comid": "18515934", "navigation_mode": "DM", "requested_distance_km": 12.0, "start_source": "nwissite", "start_id": "USGS-02378500", "geometry_length_km": 2.3723240112909085 }, "geometry": { "type": "LineString", "coordinates": [ [ -87.808587104, 30.500212297 ], [ -87.808031902, 30.499215193 ], [ -87.8078475, 30.498389997 ], [ -87.808006704, 30.497725397 ], [ -87.807954006, 30.497266993 ], [ -87.807531007, 30.496877193 ], [ -87.807478704, 30.496074997 ], [ -87.807611406, 30.4956396 ], [ -87.806580402, 30.4944015 ], [ -87.806581005, 30.493736796 ], [ -87.806978203, 30.493530698 ], [ -87.807322502, 30.493209995 ], [ -87.807349205, 30.492934994 ], [ -87.807190605, 30.492866196 ], [ -87.806423105, 30.492842793 ], [ -87.805999905, 30.4925218 ], [ -87.8059211, 30.492086299 ], [ -87.805709705, 30.491696596 ], [ -87.804943107, 30.490779497 ], [ -87.804838702, 30.489335395 ], [ -87.804706506, 30.489174999 ], [ -87.804680601, 30.488670796 ], [ -87.805422306, 30.487960599 ], [ -87.805502102, 30.487364799 ], [ -87.806058802, 30.486287795 ], [ -87.805953205, 30.485920995 ], [ -87.8057945, 30.485806398 ], [ -87.805371307, 30.485691495 ], [ -87.804392107, 30.485759795 ], [ -87.804259807, 30.485690996 ], [ -87.804287001, 30.484865993 ], [ -87.804181203, 30.484705493 ], [ -87.803334802, 30.4842695 ], [ -87.802885301, 30.483787999 ], [ -87.802621104, 30.4832379 ] ] } },
{ "type": "Feature", "properties": { "site_no": "02378500", "nhdplus_comid": "18515938", "navigation_mode": "DM", "requested_distance_km": 12.0, "start_source": "nwissite", "start_id": "USGS-02378500", "geometry_length_km": 1.0150154416321944 }, "geometry": { "type": "LineString", "coordinates": [ [ -87.802621104, 30.4832379 ], [ -87.802595206, 30.482412696 ], [ -87.8031784, 30.480900399 ], [ -87.803178601, 30.480441995 ], [ -87.80302, 30.480258495 ], [ -87.802173302, 30.479983099 ], [ -87.802068606, 30.4783099 ], [ -87.802571505, 30.4782186 ], [ -87.803232707, 30.478723094 ], [ -87.803735405, 30.478860795 ], [ -87.804053001, 30.478585996 ], [ -87.803947501, 30.478127494 ], [ -87.803498305, 30.477141798 ] ] } },
{ "type": "Feature", "properties": { "site_no": "02378500", "nhdplus_comid": "18515946", "navigation_mode": "DM", "requested_distance_km": 12.0, "start_source": "nwissite", "start_id": "USGS-02378500", "geometry_length_km": 0.74187516564440459 }, "geometry": { "type": "LineString", "coordinates": [ [ -87.803498305, 30.477141798 ], [ -87.803445801, 30.476683393 ], [ -87.803525202, 30.476499997 ], [ -87.803552106, 30.475881293 ], [ -87.8033408, 30.475353993 ], [ -87.802018501, 30.4742762 ], [ -87.801013403, 30.473633893 ], [ -87.798738606, 30.472647093 ] ] } },
{ "type": "Feature", "properties": { "site_no": "02378500", "nhdplus_comid": "18515950", "navigation_mode": "DM", "requested_distance_km": 12.0, "start_source": "nwissite", "start_id": "USGS-02378500", "geometry_length_km": 0.48857482682264308 }, "geometry": { "type": "LineString", "coordinates": [ [ -87.798738606, 30.472647093 ], [ -87.798712201, 30.472463794 ], [ -87.799135901, 30.471982695 ], [ -87.799665406, 30.471685097 ], [ -87.800909102, 30.4715482 ], [ -87.801411904, 30.471319295 ], [ -87.801782802, 30.470654793 ], [ -87.801783003, 30.4703568 ], [ -87.801942006, 30.469921395 ] ] } },
{ "type": "Feature", "properties": { "site_no": "02378500", "nhdplus_comid": "18516160", "navigation_mode": "DM", "requested_distance_km": 12.0, "start_source": "nwissite", "start_id": "USGS-02378500", "geometry_length_km": 2.0538402277613956 }, "geometry": { "type": "LineString", "coordinates": [ [ -87.801942006, 30.469921395 ], [ -87.801910207, 30.469836093 ], [ -87.802211307, 30.4688247 ], [ -87.801812403, 30.468415394 ], [ -87.801521301, 30.468393698 ], [ -87.8006033, 30.4673132 ], [ -87.800754301, 30.465806499 ], [ -87.801120907, 30.4650748 ], [ -87.802227706, 30.464271896 ], [ -87.803442307, 30.463856496 ], [ -87.803517804, 30.463103093 ], [ -87.803119004, 30.4626939 ], [ -87.802258402, 30.462503195 ], [ -87.801593706, 30.461821094 ], [ -87.801681802, 30.460942097 ], [ -87.803895302, 30.459336296 ], [ -87.804236703, 30.458855696 ], [ -87.804324806, 30.457976796 ], [ -87.803988807, 30.456939697 ], [ -87.802805007, 30.455586299 ] ] } }
]
}
