{
"type": "FeatureCollection",
"name": "USGS_02397530_UM_12km",
"crs": { "type": "name", "properties": { "name": "urn:ogc:def:crs:OGC:1.3:CRS84" } },
"features": [
{ "type": "Feature", "properties": { "site_no": "02397530", "nhdplus_comid": "15823427", "navigation_mode": "UM", "requested_distance_km": 12.0, "start_source": "nwissite", "start_id": "USGS-02397530", "geometry_length_km": 1.112781890436803 }, "geometry": { "type": "LineString", "coordinates": [ [ -85.4432991, 34.199031599 ], [ -85.447000004, 34.201259494 ], [ -85.448250502, 34.202255696 ], [ -85.450955003, 34.202754296 ], [ -85.453710906, 34.201745495 ], [ -85.453746392, 34.201742981 ] ] } },
{ "type": "Feature", "properties": { "site_no": "02397530", "nhdplus_comid": "15823441", "navigation_mode": "UM", "requested_distance_km": 12.0, "start_source": "nwissite", "start_id": "USGS-02397530", "geometry_length_km": 0.90628038590697713 }, "geometry": { "type": "LineString", "coordinates": [ [ -85.435847603, 34.193814598 ], [ -85.440730505, 34.197536893 ], [ -85.441440202, 34.197979793 ], [ -85.442336001, 34.198187597 ], [ -85.4432991, 34.199031599 ] ] } },
{ "type": "Feature", "properties": { "site_no": "02397530", "nhdplus_comid": "15823467", "navigation_mode": "UM", "requested_distance_km": 12.0, "start_source": "nwissite", "start_id": "USGS-02397530", "geometry_length_km": 2.7222762030230254 }, "geometry": { "type": "LineString", "coordinates": [ [ -85.412111305, 34.180428199 ], [ -85.414088503, 34.180609196 ], [ -85.419491902, 34.186144598 ], [ -85.420910902, 34.187030494 ], [ -85.421941601, 34.187376894 ], [ -85.423512802, 34.188276693 ], [ -85.424121201, 34.188332297 ], [ -85.424813703, 34.188899696 ], [ -85.4270273, 34.189606197 ], [ -85.432265505, 34.191849194 ], [ -85.433026001, 34.191918693 ], [ -85.435847603, 34.193814598 ] ] } },
{ "type": "Feature", "properties": { "site_no": "02397530", "nhdplus_comid": "15823465", "navigation_mode": "UM", "requested_distance_km": 12.0, "start_source": "nwissite", "start_id": "USGS-02397530", "geometry_length_km": 3.2531763831729923 }, "geometry": { "type": "LineString", "coordinates": [ [ -85.384360805, 34.1941415 ], [ -85.386035502, 34.193160996 ], [ -85.388115205, 34.192595698 ], [ -85.391917907, 34.192944497 ], [ -85.392948605, 34.193291098 ], [ -85.395534404, 34.193528198 ], [ -85.398391701, 34.192907996 ], [ -85.402129903, 34.190351993 ], [ -85.406225406, 34.185182199 ], [ -85.406462602, 34.184573799 ], [ -85.408069804, 34.182956696 ], [ -85.412111305, 34.180428199 ] ] } },
{ "type": "Feature", "properties": { "site_no": "02397530", "nhdplus_comid": "15823415", "navigation_mode": "UM", "requested_distance_km": 12.0, "start_source": "nwissite", "start_id": "USGS-02397530", "geometry_length_km": 1.6368700961731759 }, "geometry": { "type": "LineString", "coordinates": [ [ -85.391773403, 34.200744696 ], [ -85.3909958, 34.200799495 ], [ -85.387562402, 34.202248797 ], [ -85.385584705, 34.202067398 ], [ -85.384470105, 34.201208994 ], [ -85.382849507, 34.199547894 ], [ -85.3824955, 34.198759295 ], [ -85.383057207, 34.195786193 ], [ -85.383480906, 34.194942899 ], [ -85.384360805, 34.1941415 ] ] } },
{ "type": "Feature", "properties": { "site_no": "02397530", "nhdplus_comid": "15830163", "navigation_mode": "UM", "requested_distance_km": 12.0, "start_source": "nwissite", "start_id": "USGS-02397530", "geometry_length_km": 2.5302628855416094 }, "geometry": { "type": "LineString", "coordinates": [ [ -85.417193905, 34.205215499 ], [ -85.416857503, 34.205492996 ], [ -85.416602306, 34.205035396 ], [ -85.411752105, 34.203331299 ], [ -85.4111946, 34.202902198 ], [ -85.410298906, 34.2026942 ], [ -85.410028607, 34.202417396 ], [ -85.408271201, 34.201752394 ], [ -85.407865904, 34.2013373 ], [ -85.406818002, 34.201115295 ], [ -85.406547807, 34.200838499 ], [ -85.396845907, 34.199697599 ], [ -85.394343801, 34.199972294 ], [ -85.391773403, 34.200744696 ] ] } }
]
}
