{
"type": "FeatureCollection",
"name": "USGS_02465200_DM_12km",
"crs": { "type": "name", "properties": { "name": "urn:ogc:def:crs:OGC:1.3:CRS84" } },
"features": [
{ "type": "Feature", "properties": { "site_no": "02465200", "nhdplus_comid": "18204994", "navigation_mode": "DM", "requested_distance_km": 12.0, "start_source": "nwissite", "start_id": "USGS-02465200", "geometry_length_km": 2.3110510506750415 }, "geometry": { "type": "LineString", "coordinates": [ [ -87.684206024, 33.285800084 ], [ -87.684171803, 33.285747893 ], [ -87.683925405, 33.284488 ], [ -87.683761403, 33.284006894 ], [ -87.683733702, 33.283250794 ], [ -87.684169702, 33.282586299 ], [ -87.6842511, 33.282013498 ], [ -87.684441805, 33.281692699 ], [ -87.684386902, 33.281188697 ], [ -87.684277803, 33.281119995 ], [ -87.684086502, 33.280639 ], [ -87.683868103, 33.280478798 ], [ -87.683758602, 33.2798144 ], [ -87.683976002, 33.278668799 ], [ -87.684820801, 33.277499996 ], [ -87.6847113, 33.276995994 ], [ -87.684438303, 33.276560798 ], [ -87.684437603, 33.275667295 ], [ -87.684355706, 33.275461197 ], [ -87.684245802, 33.274292894 ], [ -87.684136607, 33.274132594 ], [ -87.684109107, 33.273857594 ], [ -87.683535904, 33.273101896 ], [ -87.683453806, 33.272712499 ], [ -87.683235303, 33.272323094 ], [ -87.683098406, 33.271452598 ], [ -87.682798102, 33.270948693 ], [ -87.682552002, 33.2701011 ], [ -87.682496302, 33.268451698 ], [ -87.682577707, 33.267832994 ], [ -87.6827683, 33.267237298 ], [ -87.682849303, 33.266045995 ] ] } },
{ "type": "Feature", "properties": { "site_no": "02465200", "nhdplus_comid": "18205012", "navigation_mode": "DM", "requested_distance_km": 12.0, "start_source": "nwissite", "start_id": "USGS-02465200", "geometry_length_km": 0.57752456785604889 }, "geometry": { "type": "LineString", "coordinates": [ [ -87.682849303, 33.266045995 ], [ -87.682847902, 33.263961099 ], [ -87.6829293, 33.2633425 ], [ -87.682820104, 33.263273798 ], [ -87.682465605, 33.263273999 ], [ -87.681101404, 33.2621978 ], [ -87.680555902, 33.261991896 ] ] } },
{ "type": "Feature", "properties": { "site_no": "02465200", "nhdplus_comid": "18205014", "navigation_mode": "DM", "requested_distance_km": 12.0, "start_source": "nwissite", "start_id": "USGS-02465200", "geometry_length_km": 0.27820885638305354 }, "geometry": { "type": "LineString", "coordinates": [ [ -87.680555902, 33.261991896 ], [ -87.680555701, 33.261716999 ], [ -87.6807191, 33.261304498 ], [ -87.680745803, 33.260319397 ], [ -87.680936404, 33.259838194 ], [ -87.681208901, 33.259654798 ] ] } },
{ "type": "Feature", "properties": { "site_no": "02465200", "nhdplus_comid": "18206382", "navigation_mode": "DM", "requested_distance_km": 12.0, "start_source": "nwissite", "start_id": "USGS-02465200", "geometry_length_km": 2.0479156603944846 }, "geometry": { "type": "LineString", "coordinates": [ [ -87.681208901, 33.259654798 ], [ -87.681345001, 33.259333998 ], [ -87.681344606, 33.258715495 ], [ -87.6806354, 33.2584408 ], [ -87.680635303, 33.258165896 ], [ -87.680826001, 33.257845096 ], [ -87.680853106, 33.257547095 ], [ -87.680280104, 33.257089294 ], [ -87.679870605, 33.256333396 ], [ -87.679515906, 33.256058596 ], [ -87.6793795, 33.255783796 ], [ -87.679379202, 33.255371399 ], [ -87.679188304, 33.2552111 ], [ -87.679133505, 33.254867494 ], [ -87.6785881, 33.254798993 ], [ -87.678096704, 33.253951594 ], [ -87.6777694, 33.253745496 ], [ -87.677659802, 33.252875 ], [ -87.678041101, 33.252233393 ], [ -87.678095505, 33.251935497 ], [ -87.677359201, 33.251729496 ], [ -87.677250005, 33.251500495 ], [ -87.6772497, 33.250859 ], [ -87.677440204, 33.250515297 ], [ -87.677440204, 33.250309095 ], [ -87.677200601, 33.250124596 ], [ -87.676519006, 33.250124998 ], [ -87.676355302, 33.249987595 ], [ -87.676354803, 33.249185793 ], [ -87.676654503, 33.248933598 ], [ -87.676790603, 33.248658597 ], [ -87.6767902, 33.247902595 ], [ -87.6768988, 33.247192293 ], [ -87.677334405, 33.246229999 ], [ -87.677606501, 33.245359294 ], [ -87.677606106, 33.244717799 ], [ -87.677469507, 33.244374193 ] ] } },
{ "type": "Feature", "properties": { "site_no": "02465200", "nhdplus_comid": "18205054", "navigation_mode": "DM", "requested_distance_km": 12.0, "start_source": "nwissite", "start_id": "USGS-02465200", "geometry_length_km": 2.6618284031042951 }, "geometry": { "type": "LineString", "coordinates": [ [ -87.677469507, 33.244374193 ], [ -87.677278601, 33.244282596 ], [ -87.677169204, 33.243709899 ], [ -87.676787302, 33.243435197 ], [ -87.676678002, 33.243068695 ], [ -87.675887406, 33.243046097 ], [ -87.675805703, 33.243114896 ], [ -87.675805807, 33.243321098 ], [ -87.675669506, 33.243435696 ], [ -87.675315, 33.243504494 ], [ -87.675015002, 33.243206896 ], [ -87.673842706, 33.243344799 ], [ -87.673488103, 33.243069999 ], [ -87.673269905, 33.243024297 ], [ -87.673024707, 33.243207693 ], [ -87.6730249, 33.243734695 ], [ -87.672670506, 33.243780598 ], [ -87.672343202, 33.243528694 ], [ -87.671334304, 33.243208393 ], [ -87.670297906, 33.242567398 ], [ -87.6696162, 33.242338493 ], [ -87.669479705, 33.242224097 ], [ -87.669206701, 33.241422296 ], [ -87.668879405, 33.241193399 ], [ -87.668197706, 33.241033196 ], [ -87.667516306, 33.2412626 ], [ -87.666998304, 33.241193995 ], [ -87.665825605, 33.240484193 ], [ -87.6647892, 33.239957698 ], [ -87.664789304, 33.239820197 ], [ -87.664952703, 33.239636794 ], [ -87.664843507, 33.239361994 ], [ -87.664952502, 33.239224494 ], [ -87.664952405, 33.238995396 ], [ -87.664025404, 33.238972798 ], [ -87.663671106, 33.239156194 ], [ -87.663425706, 33.239133298 ], [ -87.663343906, 33.238972999 ], [ -87.662934907, 33.238927297 ], [ -87.662771307, 33.238744095 ], [ -87.662743904, 33.238469198 ], [ -87.662907302, 33.238285899 ], [ -87.662879802, 33.2376443 ], [ -87.662716001, 33.237438194 ], [ -87.662770204, 33.236842498 ], [ -87.662579305, 33.2366594 ], [ -87.662442707, 33.235949196 ], [ -87.662551701, 33.235857598 ], [ -87.6624422, 33.235009894 ], [ -87.662333205, 33.234918296 ], [ -87.6615972, 33.235239297 ], [ -87.661379106, 33.235101894 ], [ -87.661269903, 33.234895699 ], [ -87.660588302, 33.234643899 ], [ -87.660234004, 33.2349189 ], [ -87.659879602, 33.235056594 ] ] } },
{ "type": "Feature", "properties": { "site_no": "02465200", "nhdplus_comid": "18205058", "navigation_mode": "DM", "requested_distance_km": 12.0, "start_source": "nwissite", "start_id": "USGS-02465200", "geometry_length_km": 0.74250943098554811 }, "geometry": { "type": "LineString", "coordinates": [ [ -87.659879602, 33.235056594 ], [ -87.659688905, 33.235033698 ], [ -87.659688704, 33.2346671 ], [ -87.660233602, 33.234140098 ], [ -87.660288103, 33.233865097 ], [ -87.659906201, 33.233361199 ], [ -87.659469903, 33.233338393 ], [ -87.659360901, 33.233177997 ], [ -87.659306102, 33.2326741 ], [ -87.658570006, 33.232376494 ], [ -87.658569902, 33.232193194 ], [ -87.6586788, 33.232078597 ], [ -87.659660205, 33.232009597 ], [ -87.660913907, 33.231161498 ], [ -87.661295407, 33.2310469 ] ] } },
{ "type": "Feature", "properties": { "site_no": "02465200", "nhdplus_comid": "18205068", "navigation_mode": "DM", "requested_distance_km": 12.0, "start_source": "nwissite", "start_id": "USGS-02465200", "geometry_length_km": 0.53966409836156859 }, "geometry": { "type": "LineString", "coordinates": [ [ -87.661295407, 33.2310469 ], [ -87.662112802, 33.230107196 ], [ -87.662576102, 33.229992598 ], [ -87.662712403, 33.229900897 ], [ -87.662903003, 33.229328096 ], [ -87.663747802, 33.228869595 ], [ -87.663884006, 33.2286634 ], [ -87.664047003, 33.227609493 ], [ -87.663856007, 33.227242894 ] ] } },
{ "type": "Feature", "properties": { "site_no": "02465200", "nhdplus_comid": "18205086", "navigation_mode": "DM", "requested_distance_km": 12.0, "start_source": "nwissite", "start_id": "USGS-02465200", "geometry_length_km": 0.9216418760482451 }, "geometry": { "type": "LineString", "coordinates": [ [ -87.663856007, 33.227242894 ], [ -87.663937502, 33.226647295 ], [ -87.663392, 33.225983098 ], [ -87.663391605, 33.225089595 ], [ -87.662927806, 33.224287897 ], [ -87.662873201, 33.223944195 ], [ -87.662791006, 33.223119393 ], [ -87.662572801, 33.222798795 ], [ -87.6614822, 33.222111799 ], [ -87.661046103, 33.222226493 ], [ -87.660937004, 33.222134896 ], [ -87.660827607, 33.221401796 ], [ -87.660636701, 33.2212644 ], [ -87.659737207, 33.2211731 ], [ -87.659546405, 33.221264794 ] ] } },
{ "type": "Feature", "properties": { "site_no": "02465200", "nhdplus_comid": "18205112", "navigation_mode": "DM", "requested_distance_km": 12.0, "start_source": "nwissite", "start_id": "USGS-02465200", "geometry_length_km": 1.7372230812685843 }, "geometry": { "type": "LineString", "coordinates": [ [ -87.659546405, 33.221264794 ], [ -87.659573205, 33.220302597 ], [ -87.659409605, 33.220004797 ], [ -87.659382202, 33.219798595 ], [ -87.659164101, 33.219638295 ], [ -87.658537202, 33.219753094 ], [ -87.658019304, 33.219432496 ], [ -87.657745905, 33.217645496 ], [ -87.657473102, 33.216912493 ], [ -87.657282107, 33.216614798 ], [ -87.657281905, 33.215996198 ], [ -87.657172807, 33.215858795 ], [ -87.657172807, 33.2156526 ], [ -87.657417901, 33.215400398 ], [ -87.657554001, 33.214988098 ], [ -87.657417603, 33.214850694 ], [ -87.657499202, 33.214254893 ], [ -87.658071302, 33.213773698 ], [ -87.658098407, 33.213292599 ], [ -87.658507101, 33.213177897 ], [ -87.658697806, 33.212696694 ], [ -87.659215607, 33.212490395 ], [ -87.659487903, 33.212077998 ], [ -87.659514904, 33.211596794 ], [ -87.660496004, 33.211504899 ], [ -87.660550505, 33.211367399 ], [ -87.660196103, 33.211115494 ], [ -87.660196006, 33.210863493 ], [ -87.660277702, 33.210794799 ], [ -87.660959005, 33.210679896 ], [ -87.661122501, 33.210542396 ], [ -87.661476806, 33.210450694 ], [ -87.661885604, 33.210633896 ], [ -87.661940001, 33.210290194 ], [ -87.661776304, 33.209946595 ] ] } },
{ "type": "Feature", "properties": { "site_no": "02465200", "nhdplus_comid": "18205124", "navigation_mode": "DM", "requested_distance_km": 12.0, "start_source": "nwissite", "start_id": "USGS-02465200", "geometry_length_km": 0.23768407621928567 }, "geometry": { "type": "LineString", "coordinates": [ [ -87.661776304, 33.209946595 ], [ -87.662021406, 33.209625699 ], [ -87.663274802, 33.209075496 ], [ -87.663956106, 33.208983697 ] ] } }
]
}
