{
"type": "FeatureCollection",
"name": "USGS_03571850_DM_12km",
"crs": { "type": "name", "properties": { "name": "urn:ogc:def:crs:OGC:1.3:CRS84" } },
"features": [
{ "type": "Feature", "properties": { "site_no": "03571850", "nhdplus_comid": "19643650", "navigation_mode": "DM", "requested_distance_km": 12.0, "start_source": "nwissite", "start_id": "USGS-03571850", "geometry_length_km": 0.31490072365053473 }, "geometry": { "type": "LineString", "coordinates": [ [ -85.695536923, 35.011001674 ], [ -85.696028002, 35.009075597 ], [ -85.696465105, 35.008304998 ] ] } },
{ "type": "Feature", "properties": { "site_no": "03571850", "nhdplus_comid": "19643658", "navigation_mode": "DM", "requested_distance_km": 12.0, "start_source": "nwissite", "start_id": "USGS-03571850", "geometry_length_km": 0.39116079387588087 }, "geometry": { "type": "LineString", "coordinates": [ [ -85.696465105, 35.008304998 ], [ -85.696601905, 35.004810698 ] ] } },
{ "type": "Feature", "properties": { "site_no": "03571850", "nhdplus_comid": "19643660", "navigation_mode": "DM", "requested_distance_km": 12.0, "start_source": "nwissite", "start_id": "USGS-03571850", "geometry_length_km": 0.53139639031138364 }, "geometry": { "type": "LineString", "coordinates": [ [ -85.696601905, 35.004810698 ], [ -85.6973138, 35.000096299 ] ] } },
{ "type": "Feature", "properties": { "site_no": "03571850", "nhdplus_comid": "19646244", "navigation_mode": "DM", "requested_distance_km": 12.0, "start_source": "nwissite", "start_id": "USGS-03571850", "geometry_length_km": 1.2064114987990286 }, "geometry": { "type": "LineString", "coordinates": [ [ -85.6973138, 35.000096299 ], [ -85.698129304, 34.994696096 ], [ -85.699096307, 34.993702397 ], [ -85.700457707, 34.9897765 ] ] } },
{ "type": "Feature", "properties": { "site_no": "03571850", "nhdplus_comid": "19646248", "navigation_mode": "DM", "requested_distance_km": 12.0, "start_source": "nwissite", "start_id": "USGS-03571850", "geometry_length_km": 2.0803062550518514 }, "geometry": { "type": "LineString", "coordinates": [ [ -85.700457707, 34.9897765 ], [ -85.700468801, 34.987215094 ], [ -85.701450907, 34.978670597 ], [ -85.703753807, 34.971456096 ] ] } },
{ "type": "Feature", "properties": { "site_no": "03571850", "nhdplus_comid": "19646256", "navigation_mode": "DM", "requested_distance_km": 12.0, "start_source": "nwissite", "start_id": "USGS-03571850", "geometry_length_km": 1.732339061566553 }, "geometry": { "type": "LineString", "coordinates": [ [ -85.703753807, 34.971456096 ], [ -85.704391606, 34.9642298 ], [ -85.703901604, 34.959196694 ], [ -85.703533001, 34.958220296 ], [ -85.703622602, 34.957553796 ], [ -85.703107305, 34.956429593 ], [ -85.703307703, 34.956177495 ] ] } },
{ "type": "Feature", "properties": { "site_no": "03571850", "nhdplus_comid": "19646260", "navigation_mode": "DM", "requested_distance_km": 12.0, "start_source": "nwissite", "start_id": "USGS-03571850", "geometry_length_km": 0.15443643349971481 }, "geometry": { "type": "LineString", "coordinates": [ [ -85.703307703, 34.956177495 ], [ -85.702645704, 34.954905398 ] ] } },
{ "type": "Feature", "properties": { "site_no": "03571850", "nhdplus_comid": "19646264", "navigation_mode": "DM", "requested_distance_km": 12.0, "start_source": "nwissite", "start_id": "USGS-03571850", "geometry_length_km": 0.94243185884319658 }, "geometry": { "type": "LineString", "coordinates": [ [ -85.702645704, 34.954905398 ], [ -85.702681504, 34.954638794 ], [ -85.702094607, 34.954047695 ], [ -85.701228701, 34.951813594 ], [ -85.7006597, 34.951089196 ], [ -85.698856406, 34.947154194 ] ] } },
{ "type": "Feature", "properties": { "site_no": "03571850", "nhdplus_comid": "19646280", "navigation_mode": "DM", "requested_distance_km": 12.0, "start_source": "nwissite", "start_id": "USGS-03571850", "geometry_length_km": 2.0329136527481002 }, "geometry": { "type": "LineString", "coordinates": [ [ -85.698856406, 34.947154194 ], [ -85.698892206, 34.946887597 ], [ -85.697239205, 34.944314398 ], [ -85.694624506, 34.937745199 ], [ -85.693677403, 34.932401896 ], [ -85.693799503, 34.930254795 ], [ -85.694035806, 34.929736197 ] ] } },
{ "type": "Feature", "properties": { "site_no": "03571850", "nhdplus_comid": "19646286", "navigation_mode": "DM", "requested_distance_km": 12.0, "start_source": "nwissite", "start_id": "USGS-03571850", "geometry_length_km": 0.65955979657711128 }, "geometry": { "type": "LineString", "coordinates": [ [ -85.694035806, 34.929736197 ], [ -85.693742402, 34.929440595 ], [ -85.694226302, 34.925841793 ], [ -85.6941479, 34.923946798 ] ] } },
{ "type": "Feature", "properties": { "site_no": "03571850", "nhdplus_comid": "19646288", "navigation_mode": "DM", "requested_distance_km": 12.0, "start_source": "nwissite", "start_id": "USGS-03571850", "geometry_length_km": 1.5004734427772537 }, "geometry": { "type": "LineString", "coordinates": [ [ -85.6941479, 34.923946798 ], [ -85.696857303, 34.918655999 ], [ -85.698732406, 34.915854193 ], [ -85.701738, 34.912072994 ] ] } }
]
}
