{
"type": "FeatureCollection",
"name": "USGS_02462951_UM_12km",
"crs": { "type": "name", "properties": { "name": "urn:ogc:def:crs:OGC:1.3:CRS84" } },
"features": [
{ "type": "Feature", "properties": { "site_no": "02462951", "nhdplus_comid": "18232675", "navigation_mode": "UM", "requested_distance_km": 12.0, "start_source": "nwissite", "start_id": "USGS-02462951", "geometry_length_km": 0.029595923666954925 }, "geometry": { "type": "LineString", "coordinates": [ [ -87.4489123, 33.254032798 ], [ -87.449231578, 33.254018996 ] ] } },
{ "type": "Feature", "properties": { "site_no": "02462951", "nhdplus_comid": "18229843", "navigation_mode": "UM", "requested_distance_km": 12.0, "start_source": "nwissite", "start_id": "USGS-02462951", "geometry_length_km": 0.64259274678820566 }, "geometry": { "type": "LineString", "coordinates": [ [ -87.442140803, 33.254786 ], [ -87.445221201, 33.254387096 ], [ -87.446878105, 33.254511096 ], [ -87.447206505, 33.254283793 ], [ -87.448904201, 33.254033096 ], [ -87.4489123, 33.254032798 ] ] } },
{ "type": "Feature", "properties": { "site_no": "02462951", "nhdplus_comid": "18229837", "navigation_mode": "UM", "requested_distance_km": 12.0, "start_source": "nwissite", "start_id": "USGS-02462951", "geometry_length_km": 1.1633638875226653 }, "geometry": { "type": "LineString", "coordinates": [ [ -87.429816306, 33.2538222 ], [ -87.430241607, 33.253894493 ], [ -87.432719603, 33.253450796 ], [ -87.439018406, 33.254174493 ], [ -87.439744405, 33.254480697 ], [ -87.442140803, 33.254786 ] ] } },
{ "type": "Feature", "properties": { "site_no": "02462951", "nhdplus_comid": "18229831", "navigation_mode": "UM", "requested_distance_km": 12.0, "start_source": "nwissite", "start_id": "USGS-02462951", "geometry_length_km": 1.8716699937406927 }, "geometry": { "type": "LineString", "coordinates": [ [ -87.420951106, 33.268054999 ], [ -87.421701707, 33.262571298 ], [ -87.422399707, 33.261742294 ], [ -87.422454305, 33.261242799 ], [ -87.423384503, 33.259675696 ], [ -87.424561702, 33.258630894 ], [ -87.426162705, 33.256484598 ], [ -87.429816306, 33.2538222 ] ] } },
{ "type": "Feature", "properties": { "site_no": "02462951", "nhdplus_comid": "18229811", "navigation_mode": "UM", "requested_distance_km": 12.0, "start_source": "nwissite", "start_id": "USGS-02462951", "geometry_length_km": 1.7610127304701595 }, "geometry": { "type": "LineString", "coordinates": [ [ -87.417971507, 33.281429298 ], [ -87.418124706, 33.281255297 ], [ -87.421736903, 33.2789419 ], [ -87.4232013, 33.276659593 ], [ -87.423542202, 33.273537494 ], [ -87.423199303, 33.272504494 ], [ -87.421993405, 33.271028996 ], [ -87.421431005, 33.2692241 ], [ -87.421157002, 33.268951796 ], [ -87.421225205, 33.268327296 ], [ -87.420951106, 33.268054999 ] ] } },
{ "type": "Feature", "properties": { "site_no": "02462951", "nhdplus_comid": "18229771", "navigation_mode": "UM", "requested_distance_km": 12.0, "start_source": "nwissite", "start_id": "USGS-02462951", "geometry_length_km": 2.3776521042921934 }, "geometry": { "type": "LineString", "coordinates": [ [ -87.393961102, 33.287053294 ], [ -87.395933606, 33.285690896 ], [ -87.400138602, 33.2847481 ], [ -87.401344001, 33.284838796 ], [ -87.402741104, 33.284566097 ], [ -87.407261401, 33.284905799 ], [ -87.409452803, 33.284314997 ], [ -87.410836205, 33.284167193 ], [ -87.411644205, 33.283724196 ], [ -87.416054204, 33.282292694 ], [ -87.417971507, 33.281429298 ] ] } },
{ "type": "Feature", "properties": { "site_no": "02462951", "nhdplus_comid": "18229751", "navigation_mode": "UM", "requested_distance_km": 12.0, "start_source": "nwissite", "start_id": "USGS-02462951", "geometry_length_km": 1.5797761202217593 }, "geometry": { "type": "LineString", "coordinates": [ [ -87.392757304, 33.300812498 ], [ -87.392483301, 33.300540097 ], [ -87.392236501, 33.298632897 ], [ -87.3923866, 33.293104298 ], [ -87.393112101, 33.287870795 ], [ -87.393961102, 33.287053294 ] ] } },
{ "type": "Feature", "properties": { "site_no": "02462951", "nhdplus_comid": "18229719", "navigation_mode": "UM", "requested_distance_km": 12.0, "start_source": "nwissite", "start_id": "USGS-02462951", "geometry_length_km": 0.65868839265689727 }, "geometry": { "type": "LineString", "coordinates": [ [ -87.3945802, 33.306363598 ], [ -87.393319406, 33.304002397 ], [ -87.392949305, 33.301834196 ], [ -87.392565504, 33.301175795 ], [ -87.392757304, 33.300812498 ] ] } },
{ "type": "Feature", "properties": { "site_no": "02462951", "nhdplus_comid": "18229693", "navigation_mode": "UM", "requested_distance_km": 12.0, "start_source": "nwissite", "start_id": "USGS-02462951", "geometry_length_km": 1.1765185513592371 }, "geometry": { "type": "LineString", "coordinates": [ [ -87.405076802, 33.311811194 ], [ -87.4032268, 33.3106649 ], [ -87.399801105, 33.310029693 ], [ -87.396649405, 33.308281898 ], [ -87.3945802, 33.306363598 ] ] } },
{ "type": "Feature", "properties": { "site_no": "02462951", "nhdplus_comid": "18229669", "navigation_mode": "UM", "requested_distance_km": 12.0, "start_source": "nwissite", "start_id": "USGS-02462951", "geometry_length_km": 0.89697877240643675 }, "geometry": { "type": "LineString", "coordinates": [ [ -87.4115052, 33.317644797 ], [ -87.405967504, 33.312004 ], [ -87.405076802, 33.311811194 ] ] } }
]
}
