{
"type": "FeatureCollection",
"name": "USGS_02372755_UM_12km",
"crs": { "type": "name", "properties": { "name": "urn:ogc:def:crs:OGC:1.3:CRS84" } },
"features": [
{ "type": "Feature", "properties": { "site_no": "02372755", "nhdplus_comid": "2399623", "navigation_mode": "UM", "requested_distance_km": 12.0, "start_source": "nwissite", "start_id": "USGS-02372755", "geometry_length_km": 1.9828310911499245 }, "geometry": { "type": "LineString", "coordinates": [ [ -86.639174804, 31.835637793 ], [ -86.638664804, 31.835339896 ], [ -86.638288803, 31.834881693 ], [ -86.638181403, 31.834537894 ], [ -86.6376177, 31.834033899 ], [ -86.637537107, 31.833644293 ], [ -86.637805507, 31.833117194 ], [ -86.638369001, 31.832681693 ], [ -86.638798401, 31.832039997 ], [ -86.638798103, 31.829954699 ], [ -86.639495701, 31.827663094 ], [ -86.639441803, 31.826723494 ], [ -86.638958506, 31.825738199 ], [ -86.637884803, 31.824729994 ], [ -86.637535803, 31.824294694 ], [ -86.637455307, 31.823813394 ], [ -86.637133002, 31.823217697 ], [ -86.636300907, 31.822530299 ], [ -86.635442004, 31.822026193 ], [ -86.634529501, 31.821865894 ], [ -86.633563206, 31.821132593 ], [ -86.633518753, 31.821063605 ] ] } }
]
}
