{
"type": "FeatureCollection",
"name": "USGS_02449882_UM_12km",
"crs": { "type": "name", "properties": { "name": "urn:ogc:def:crs:OGC:1.3:CRS84" } },
"features": [
{ "type": "Feature", "properties": { "site_no": "02449882", "nhdplus_comid": "18588844", "navigation_mode": "UM", "requested_distance_km": 12.0, "start_source": "nwissite", "start_id": "USGS-02449882", "geometry_length_km": 1.1595904486967457 }, "geometry": { "type": "LineString", "coordinates": [ [ -86.5963879, 34.084176093 ], [ -86.596415505, 34.0840616 ], [ -86.598756202, 34.082985394 ], [ -86.602253005, 34.0814972 ], [ -86.6039325, 34.080924898 ], [ -86.607677005, 34.079802997 ], [ -86.607757661, 34.079775713 ] ] } },
{ "type": "Feature", "properties": { "site_no": "02449882", "nhdplus_comid": "18588818", "navigation_mode": "UM", "requested_distance_km": 12.0, "start_source": "nwissite", "start_id": "USGS-02449882", "geometry_length_km": 0.50415599153440549 }, "geometry": { "type": "LineString", "coordinates": [ [ -86.592257001, 34.087130196 ], [ -86.592477307, 34.087038599 ], [ -86.594928406, 34.085046299 ], [ -86.5963879, 34.084176093 ] ] } },
{ "type": "Feature", "properties": { "site_no": "02449882", "nhdplus_comid": "18588808", "navigation_mode": "UM", "requested_distance_km": 12.0, "start_source": "nwissite", "start_id": "USGS-02449882", "geometry_length_km": 0.48773027692957388 }, "geometry": { "type": "LineString", "coordinates": [ [ -86.588731602, 34.0901758 ], [ -86.589530602, 34.088801697 ], [ -86.590026304, 34.088481098 ], [ -86.590852506, 34.088252299 ], [ -86.592202, 34.087198898 ], [ -86.592257001, 34.087130196 ] ] } },
{ "type": "Feature", "properties": { "site_no": "02449882", "nhdplus_comid": "18588796", "navigation_mode": "UM", "requested_distance_km": 12.0, "start_source": "nwissite", "start_id": "USGS-02449882", "geometry_length_km": 1.2650016105807902 }, "geometry": { "type": "LineString", "coordinates": [ [ -86.581760406, 34.099863499 ], [ -86.581870705, 34.099794798 ], [ -86.583248504, 34.097802296 ], [ -86.584102705, 34.096817598 ], [ -86.5849571, 34.0952373 ], [ -86.586086705, 34.093748599 ], [ -86.5868579, 34.093084596 ], [ -86.587822206, 34.091893598 ], [ -86.588373207, 34.091046199 ], [ -86.588731602, 34.0901758 ] ] } },
{ "type": "Feature", "properties": { "site_no": "02449882", "nhdplus_comid": "18588770", "navigation_mode": "UM", "requested_distance_km": 12.0, "start_source": "nwissite", "start_id": "USGS-02449882", "geometry_length_km": 1.0482814417830995 }, "geometry": { "type": "LineString", "coordinates": [ [ -86.573000401, 34.105266199 ], [ -86.574735604, 34.104992099 ], [ -86.575314, 34.104808994 ], [ -86.576691307, 34.104053698 ], [ -86.578757204, 34.103092298 ], [ -86.5798591, 34.1022681 ], [ -86.581126504, 34.101031594 ], [ -86.581650205, 34.100161299 ], [ -86.581760406, 34.099863499 ] ] } },
{ "type": "Feature", "properties": { "site_no": "02449882", "nhdplus_comid": "18588738", "navigation_mode": "UM", "requested_distance_km": 12.0, "start_source": "nwissite", "start_id": "USGS-02449882", "geometry_length_km": 0.74565877006382386 }, "geometry": { "type": "LineString", "coordinates": [ [ -86.566416107, 34.108951196 ], [ -86.568730704, 34.107165597 ], [ -86.569777705, 34.106432997 ], [ -86.571099803, 34.105906799 ], [ -86.572174005, 34.105769798 ], [ -86.573000401, 34.105266199 ] ] } },
{ "type": "Feature", "properties": { "site_no": "02449882", "nhdplus_comid": "18588712", "navigation_mode": "UM", "requested_distance_km": 12.0, "start_source": "nwissite", "start_id": "USGS-02449882", "geometry_length_km": 0.32849130773638674 }, "geometry": { "type": "LineString", "coordinates": [ [ -86.564321406, 34.1113327 ], [ -86.5652586, 34.110187694 ], [ -86.566361003, 34.109042794 ], [ -86.566416107, 34.108951196 ] ] } },
{ "type": "Feature", "properties": { "site_no": "02449882", "nhdplus_comid": "18588694", "navigation_mode": "UM", "requested_distance_km": 12.0, "start_source": "nwissite", "start_id": "USGS-02449882", "geometry_length_km": 0.19721404939852583 }, "geometry": { "type": "LineString", "coordinates": [ [ -86.563081101, 34.112775199 ], [ -86.564321406, 34.1113327 ] ] } },
{ "type": "Feature", "properties": { "site_no": "02449882", "nhdplus_comid": "18588690", "navigation_mode": "UM", "requested_distance_km": 12.0, "start_source": "nwissite", "start_id": "USGS-02449882", "geometry_length_km": 0.67240507734152322 }, "geometry": { "type": "LineString", "coordinates": [ [ -86.5582854, 34.117102198 ], [ -86.559222005, 34.116804898 ], [ -86.560021207, 34.116324194 ], [ -86.561757602, 34.114675798 ], [ -86.563053407, 34.112958498 ], [ -86.563081101, 34.112775199 ] ] } },
{ "type": "Feature", "properties": { "site_no": "02449882", "nhdplus_comid": "18588672", "navigation_mode": "UM", "requested_distance_km": 12.0, "start_source": "nwissite", "start_id": "USGS-02449882", "geometry_length_km": 0.50574303597403247 }, "geometry": { "type": "LineString", "coordinates": [ [ -86.554894805, 34.120604999 ], [ -86.555032603, 34.120559394 ], [ -86.556879804, 34.118361294 ], [ -86.557706401, 34.117766194 ], [ -86.558257803, 34.117239594 ], [ -86.5582854, 34.117102198 ] ] } },
{ "type": "Feature", "properties": { "site_no": "02449882", "nhdplus_comid": "18588654", "navigation_mode": "UM", "requested_distance_km": 12.0, "start_source": "nwissite", "start_id": "USGS-02449882", "geometry_length_km": 1.0349229179576569 }, "geometry": { "type": "LineString", "coordinates": [ [ -86.5484154, 34.127885699 ], [ -86.549214803, 34.127267793 ], [ -86.549573302, 34.126763999 ], [ -86.550153203, 34.125115 ], [ -86.550511904, 34.124473795 ], [ -86.550842702, 34.124153294 ], [ -86.551641807, 34.123878896 ], [ -86.552248307, 34.123306595 ], [ -86.553681903, 34.121726796 ], [ -86.554591604, 34.120902695 ], [ -86.554894805, 34.120604999 ] ] } },
{ "type": "Feature", "properties": { "site_no": "02449882", "nhdplus_comid": "18588620", "navigation_mode": "UM", "requested_distance_km": 12.0, "start_source": "nwissite", "start_id": "USGS-02449882", "geometry_length_km": 1.3444476494133886 }, "geometry": { "type": "LineString", "coordinates": [ [ -86.539399505, 34.136034697 ], [ -86.539427102, 34.136034697 ], [ -86.540143505, 34.135989398 ], [ -86.540804505, 34.136150196 ], [ -86.540997505, 34.136012897 ], [ -86.541439101, 34.135211393 ], [ -86.541688204, 34.1339975 ], [ -86.542019904, 34.1329211 ], [ -86.542792, 34.132028297 ], [ -86.543894805, 34.131089799 ], [ -86.545217402, 34.130655393 ], [ -86.546209902, 34.129808493 ], [ -86.546430603, 34.129464999 ], [ -86.547230102, 34.128709599 ], [ -86.548167206, 34.128206298 ], [ -86.5484154, 34.127885699 ] ] } },
{ "type": "Feature", "properties": { "site_no": "02449882", "nhdplus_comid": "18588584", "navigation_mode": "UM", "requested_distance_km": 12.0, "start_source": "nwissite", "start_id": "USGS-02449882", "geometry_length_km": 0.10077534330696478 }, "geometry": { "type": "LineString", "coordinates": [ [ -86.5384349, 34.136469297 ], [ -86.539399505, 34.136034697 ] ] } },
{ "type": "Feature", "properties": { "site_no": "02449882", "nhdplus_comid": "18588580", "navigation_mode": "UM", "requested_distance_km": 12.0, "start_source": "nwissite", "start_id": "USGS-02449882", "geometry_length_km": 0.20279157792236563 }, "geometry": { "type": "LineString", "coordinates": [ [ -86.537248701, 34.137980193 ], [ -86.537662305, 34.137614094 ], [ -86.538379602, 34.136652395 ], [ -86.5384349, 34.136469297 ] ] } },
{ "type": "Feature", "properties": { "site_no": "02449882", "nhdplus_comid": "18588572", "navigation_mode": "UM", "requested_distance_km": 12.0, "start_source": "nwissite", "start_id": "USGS-02449882", "geometry_length_km": 1.964767009963605 }, "geometry": { "type": "LineString", "coordinates": [ [ -86.526652701, 34.152724497 ], [ -86.528116405, 34.149793498 ], [ -86.528861806, 34.148557097 ], [ -86.530268304, 34.147344097 ], [ -86.5305444, 34.146794595 ], [ -86.530546106, 34.145328395 ], [ -86.530767307, 34.144687295 ], [ -86.531512402, 34.1434967 ], [ -86.5323954, 34.142214499 ], [ -86.534850106, 34.139833994 ], [ -86.5364215, 34.138735496 ], [ -86.537193604, 34.138048895 ], [ -86.537248701, 34.137980193 ] ] } },
{ "type": "Feature", "properties": { "site_no": "02449882", "nhdplus_comid": "18589334", "navigation_mode": "UM", "requested_distance_km": 12.0, "start_source": "nwissite", "start_id": "USGS-02449882", "geometry_length_km": 0.16967284161970322 }, "geometry": { "type": "LineString", "coordinates": [ [ -86.525576606, 34.153960593 ], [ -86.526652701, 34.152724497 ] ] } }
]
}
