{
"type": "FeatureCollection",
"name": "USGS_02397530_DM_12km",
"crs": { "type": "name", "properties": { "name": "urn:ogc:def:crs:OGC:1.3:CRS84" } },
"features": [
{ "type": "Feature", "properties": { "site_no": "02397530", "nhdplus_comid": "15823427", "navigation_mode": "DM", "requested_distance_km": 12.0, "start_source": "nwissite", "start_id": "USGS-02397530", "geometry_length_km": 0.10207943118314906 }, "geometry": { "type": "LineString", "coordinates": [ [ -85.453746392, 34.201742981 ], [ -85.454488501, 34.201690398 ], [ -85.4548278, 34.201567098 ] ] } },
{ "type": "Feature", "properties": { "site_no": "02397530", "nhdplus_comid": "15823411", "navigation_mode": "DM", "requested_distance_km": 12.0, "start_source": "nwissite", "start_id": "USGS-02397530", "geometry_length_km": 0.0005464771258267072 }, "geometry": { "type": "LineString", "coordinates": [ [ -85.4548278, 34.201567098 ], [ -85.454833306, 34.201565199 ] ] } },
{ "type": "Feature", "properties": { "site_no": "02397530", "nhdplus_comid": "15823433", "navigation_mode": "DM", "requested_distance_km": 12.0, "start_source": "nwissite", "start_id": "USGS-02397530", "geometry_length_km": 1.1025505633503305 }, "geometry": { "type": "LineString", "coordinates": [ [ -85.454833306, 34.201565199 ], [ -85.456432804, 34.200985499 ], [ -85.458174102, 34.200640097 ], [ -85.465730906, 34.198304199 ], [ -85.466152906, 34.198393397 ] ] } },
{ "type": "Feature", "properties": { "site_no": "02397530", "nhdplus_comid": "15823437", "navigation_mode": "DM", "requested_distance_km": 12.0, "start_source": "nwissite", "start_id": "USGS-02397530", "geometry_length_km": 0.70739720311870591 }, "geometry": { "type": "LineString", "coordinates": [ [ -85.466152906, 34.198393397 ], [ -85.466778904, 34.198525697 ], [ -85.468621701, 34.197433293 ], [ -85.469703406, 34.1974058 ], [ -85.470109105, 34.197820798 ], [ -85.470041402, 34.198318593 ], [ -85.470446907, 34.198733598 ], [ -85.471359804, 34.198816694 ], [ -85.472260207, 34.198816299 ] ] } },
{ "type": "Feature", "properties": { "site_no": "02397530", "nhdplus_comid": "15823447", "navigation_mode": "DM", "requested_distance_km": 12.0, "start_source": "nwissite", "start_id": "USGS-02397530", "geometry_length_km": 1.6611001781857782 }, "geometry": { "type": "LineString", "coordinates": [ [ -85.472260207, 34.198816299 ], [ -85.471748702, 34.198221996 ], [ -85.471360005, 34.197682597 ], [ -85.471410803, 34.197309196 ], [ -85.471748903, 34.197087899 ], [ -85.473997004, 34.1975445 ], [ -85.474656306, 34.197226495 ], [ -85.476634003, 34.197406396 ], [ -85.477918707, 34.197019294 ], [ -85.479135707, 34.197129995 ], [ -85.479828805, 34.197696999 ], [ -85.480893701, 34.197793894 ], [ -85.481400907, 34.197462 ], [ -85.484899901, 34.196645997 ], [ -85.485728204, 34.196217194 ], [ -85.486319803, 34.196396999 ] ] } },
{ "type": "Feature", "properties": { "site_no": "02397530", "nhdplus_comid": "15823449", "navigation_mode": "DM", "requested_distance_km": 12.0, "start_source": "nwissite", "start_id": "USGS-02397530", "geometry_length_km": 1.4798656254229619 }, "geometry": { "type": "LineString", "coordinates": [ [ -85.486319803, 34.196396999 ], [ -85.491644502, 34.196880795 ], [ -85.493554503, 34.196424298 ], [ -85.497357905, 34.196769699 ], [ -85.4979157, 34.197198398 ], [ -85.501414903, 34.197515994 ], [ -85.502114601, 34.197376899 ] ] } },
{ "type": "Feature", "properties": { "site_no": "02397530", "nhdplus_comid": "15823451", "navigation_mode": "DM", "requested_distance_km": 12.0, "start_source": "nwissite", "start_id": "USGS-02397530", "geometry_length_km": 0.08570843278580767 }, "geometry": { "type": "LineString", "coordinates": [ [ -85.502114601, 34.197376899 ], [ -85.503025204, 34.197195895 ] ] } },
{ "type": "Feature", "properties": { "site_no": "02397530", "nhdplus_comid": "15823459", "navigation_mode": "DM", "requested_distance_km": 12.0, "start_source": "nwissite", "start_id": "USGS-02397530", "geometry_length_km": 1.1037565072764268 }, "geometry": { "type": "LineString", "coordinates": [ [ -85.503025204, 34.197195895 ], [ -85.503155902, 34.1971699 ], [ -85.503662907, 34.196837895 ], [ -85.507466301, 34.197182998 ], [ -85.509207301, 34.196836896 ], [ -85.514853202, 34.197222695 ] ] } },
{ "type": "Feature", "properties": { "site_no": "02397530", "nhdplus_comid": "15823461", "navigation_mode": "DM", "requested_distance_km": 12.0, "start_source": "nwissite", "start_id": "USGS-02397530", "geometry_length_km": 1.3729298972701631 }, "geometry": { "type": "LineString", "coordinates": [ [ -85.514853202, 34.197222695 ], [ -85.515749201, 34.19743 ], [ -85.520078607, 34.201854393 ], [ -85.520400301, 34.202891596 ], [ -85.5240537, 34.206624597 ] ] } },
{ "type": "Feature", "properties": { "site_no": "02397530", "nhdplus_comid": "15823423", "navigation_mode": "DM", "requested_distance_km": 12.0, "start_source": "nwissite", "start_id": "USGS-02397530", "geometry_length_km": 1.9634133492579782 }, "geometry": { "type": "LineString", "coordinates": [ [ -85.5240537, 34.206624597 ], [ -85.5324056, 34.2075065 ], [ -85.536716707, 34.207518399 ], [ -85.541281603, 34.207931198 ], [ -85.545356303, 34.208551496 ] ] } },
{ "type": "Feature", "properties": { "site_no": "02397530", "nhdplus_comid": "15823489", "navigation_mode": "DM", "requested_distance_km": 12.0, "start_source": "nwissite", "start_id": "USGS-02397530", "geometry_length_km": 5.2471409578715411 }, "geometry": { "type": "LineString", "coordinates": [ [ -85.545356303, 34.208551496 ], [ -85.546776302, 34.208301798 ], [ -85.549836405, 34.208452195 ], [ -85.551104203, 34.208188698 ], [ -85.552253306, 34.207662493 ], [ -85.553960703, 34.2075646 ], [ -85.556529701, 34.206788599 ], [ -85.558101706, 34.206552498 ], [ -85.560518503, 34.205762595 ], [ -85.562545806, 34.204433493 ], [ -85.565047503, 34.204155199 ], [ -85.573614903, 34.201147698 ], [ -85.576334305, 34.199250795 ], [ -85.577194206, 34.1974383 ], [ -85.5777485, 34.194464296 ], [ -85.587408304, 34.187900499 ], [ -85.592323303, 34.1883744 ] ] } }
]
}
