{
"type": "FeatureCollection",
"name": "USGS_02449000_DM_12km",
"crs": { "type": "name", "properties": { "name": "urn:ogc:def:crs:OGC:1.3:CRS84" } },
"features": [
{ "type": "Feature", "properties": { "site_no": "02449000", "nhdplus_comid": "18634054", "navigation_mode": "DM", "requested_distance_km": 12.0, "start_source": "nwissite", "start_id": "USGS-02449000", "geometry_length_km": 0.87089061626606401 }, "geometry": { "type": "LineString", "coordinates": [ [ -88.156626975, 32.824873495 ], [ -88.156321101, 32.824698299 ], [ -88.154272005, 32.824053295 ], [ -88.150524504, 32.823794499 ], [ -88.148688406, 32.824045397 ], [ -88.147726901, 32.824608497 ] ] } },
{ "type": "Feature", "properties": { "site_no": "02449000", "nhdplus_comid": "18634050", "navigation_mode": "DM", "requested_distance_km": 12.0, "start_source": "nwissite", "start_id": "USGS-02449000", "geometry_length_km": 0.58824153642107024 }, "geometry": { "type": "LineString", "coordinates": [ [ -88.147726901, 32.824608497 ], [ -88.147402301, 32.824837893 ], [ -88.146466501, 32.8266619 ], [ -88.145606101, 32.829246499 ], [ -88.145581305, 32.8294966 ] ] } },
{ "type": "Feature", "properties": { "site_no": "02449000", "nhdplus_comid": "18634042", "navigation_mode": "DM", "requested_distance_km": 12.0, "start_source": "nwissite", "start_id": "USGS-02449000", "geometry_length_km": 1.3426090758583136 }, "geometry": { "type": "LineString", "coordinates": [ [ -88.145581305, 32.8294966 ], [ -88.144520402, 32.831060097 ], [ -88.140024506, 32.833771199 ], [ -88.1380134, 32.834261596 ], [ -88.136214405, 32.834137194 ], [ -88.134615004, 32.833522893 ], [ -88.133553103, 32.833575293 ] ] } },
{ "type": "Feature", "properties": { "site_no": "02449000", "nhdplus_comid": "18634060", "navigation_mode": "DM", "requested_distance_km": 12.0, "start_source": "nwissite", "start_id": "USGS-02449000", "geometry_length_km": 1.9840844982460044 }, "geometry": { "type": "LineString", "coordinates": [ [ -88.133553103, 32.833575293 ], [ -88.129691407, 32.829908498 ], [ -88.126067102, 32.825376496 ], [ -88.123992406, 32.821958996 ], [ -88.123567201, 32.820166796 ], [ -88.122829705, 32.818478793 ] ] } },
{ "type": "Feature", "properties": { "site_no": "02449000", "nhdplus_comid": "18634066", "navigation_mode": "DM", "requested_distance_km": 12.0, "start_source": "nwissite", "start_id": "USGS-02449000", "geometry_length_km": 2.8698907386336869 }, "geometry": { "type": "LineString", "coordinates": [ [ -88.122829705, 32.818478793 ], [ -88.121555001, 32.816124 ], [ -88.117744602, 32.811956398 ], [ -88.115508601, 32.810164399 ], [ -88.110949606, 32.807455599 ], [ -88.109151103, 32.805819698 ], [ -88.107065104, 32.802526794 ], [ -88.105322704, 32.798061594 ] ] } },
{ "type": "Feature", "properties": { "site_no": "02449000", "nhdplus_comid": "18634076", "navigation_mode": "DM", "requested_distance_km": 12.0, "start_source": "nwissite", "start_id": "USGS-02449000", "geometry_length_km": 2.8406435056198913 }, "geometry": { "type": "LineString", "coordinates": [ [ -88.105322704, 32.798061594 ], [ -88.103605606, 32.796368293 ], [ -88.102331907, 32.795524195 ], [ -88.099946901, 32.795232497 ], [ -88.099484906, 32.7953263 ], [ -88.096175902, 32.796733096 ], [ -88.093366206, 32.797670893 ], [ -88.090681404, 32.798869096 ], [ -88.088121302, 32.8003278 ], [ -88.081951804, 32.803172 ], [ -88.079603903, 32.804015696 ], [ -88.078954406, 32.804474093 ] ] } }
]
}
