{
"type": "FeatureCollection",
"name": "USGS_02465500_DM_12km",
"crs": { "type": "name", "properties": { "name": "urn:ogc:def:crs:OGC:1.3:CRS84" } },
"features": [
{ "type": "Feature", "properties": { "site_no": "02465500", "nhdplus_comid": "18208932", "navigation_mode": "DM", "requested_distance_km": 12.0, "start_source": "nwissite", "start_id": "USGS-02465500", "geometry_length_km": 0.13014647659213732 }, "geometry": { "type": "LineString", "coordinates": [ [ -87.604333359, 32.829336783 ], [ -87.605005905, 32.8294577 ], [ -87.605711505, 32.829388998 ] ] } },
{ "type": "Feature", "properties": { "site_no": "02465500", "nhdplus_comid": "18208926", "navigation_mode": "DM", "requested_distance_km": 12.0, "start_source": "nwissite", "start_id": "USGS-02465500", "geometry_length_km": 0.17036169687021457 }, "geometry": { "type": "LineString", "coordinates": [ [ -87.605711505, 32.829388998 ], [ -87.6067973, 32.828587398 ], [ -87.606987305, 32.828312397 ] ] } },
{ "type": "Feature", "properties": { "site_no": "02465500", "nhdplus_comid": "18208928", "navigation_mode": "DM", "requested_distance_km": 12.0, "start_source": "nwissite", "start_id": "USGS-02465500", "geometry_length_km": 0.64923172484095371 }, "geometry": { "type": "LineString", "coordinates": [ [ -87.606987305, 32.828312397 ], [ -87.607665606, 32.828358397 ], [ -87.608371101, 32.828633294 ], [ -87.608778201, 32.828633398 ], [ -87.610135205, 32.827854596 ], [ -87.610569306, 32.827877499 ], [ -87.610894904, 32.828060895 ], [ -87.611057706, 32.828450397 ], [ -87.611491904, 32.828908697 ], [ -87.612088904, 32.828839995 ], [ -87.612550206, 32.828473397 ], [ -87.612604603, 32.828312993 ] ] } },
{ "type": "Feature", "properties": { "site_no": "02465500", "nhdplus_comid": "18208930", "navigation_mode": "DM", "requested_distance_km": 12.0, "start_source": "nwissite", "start_id": "USGS-02465500", "geometry_length_km": 1.4125348030866791 }, "geometry": { "type": "LineString", "coordinates": [ [ -87.612604603, 32.828312993 ], [ -87.614015706, 32.827625796 ], [ -87.6156983, 32.827328093 ], [ -87.617624901, 32.827396899 ], [ -87.618466102, 32.827603094 ], [ -87.619036004, 32.827901095 ], [ -87.619226001, 32.828175999 ], [ -87.619307302, 32.828657195 ], [ -87.619497307, 32.828863293 ], [ -87.619551502, 32.829206996 ], [ -87.620067105, 32.829756998 ], [ -87.6205284, 32.830031998 ], [ -87.621478304, 32.830283999 ], [ -87.621939503, 32.830329895 ], [ -87.622265205, 32.830192395 ], [ -87.623513602, 32.829069696 ], [ -87.623513602, 32.828978099 ], [ -87.623866305, 32.828565598 ], [ -87.624490403, 32.8283365 ], [ -87.6246804, 32.8283365 ] ] } },
{ "type": "Feature", "properties": { "site_no": "02465500", "nhdplus_comid": "18208924", "navigation_mode": "DM", "requested_distance_km": 12.0, "start_source": "nwissite", "start_id": "USGS-02465500", "geometry_length_km": 0.79261835222921828 }, "geometry": { "type": "LineString", "coordinates": [ [ -87.6246804, 32.8283365 ], [ -87.625006102, 32.828359395 ], [ -87.625440307, 32.828542694 ], [ -87.626308605, 32.8292071 ], [ -87.627258405, 32.829344593 ], [ -87.6275841, 32.829573698 ], [ -87.627855502, 32.830238096 ], [ -87.628398307, 32.830810897 ], [ -87.629103906, 32.831223197 ], [ -87.631600603, 32.831681393 ] ] } },
{ "type": "Feature", "properties": { "site_no": "02465500", "nhdplus_comid": "18208904", "navigation_mode": "DM", "requested_distance_km": 12.0, "start_source": "nwissite", "start_id": "USGS-02465500", "geometry_length_km": 0.22284951601975883 }, "geometry": { "type": "LineString", "coordinates": [ [ -87.631600603, 32.831681393 ], [ -87.633228905, 32.832918599 ], [ -87.633418903, 32.832941398 ] ] } },
{ "type": "Feature", "properties": { "site_no": "02465500", "nhdplus_comid": "18208892", "navigation_mode": "DM", "requested_distance_km": 12.0, "start_source": "nwissite", "start_id": "USGS-02465500", "geometry_length_km": 2.5014031735862075 }, "geometry": { "type": "LineString", "coordinates": [ [ -87.633418903, 32.832941398 ], [ -87.633581802, 32.833422594 ], [ -87.633527905, 32.836217798 ], [ -87.633962102, 32.836698897 ], [ -87.634152107, 32.836767599 ], [ -87.634803504, 32.836744599 ], [ -87.635726206, 32.836469598 ], [ -87.636730306, 32.836583994 ], [ -87.636893205, 32.836744398 ], [ -87.636893302, 32.837065093 ], [ -87.636431903, 32.837592199 ], [ -87.636404902, 32.838073298 ], [ -87.636513501, 32.838210799 ], [ -87.637029201, 32.838348195 ], [ -87.637354806, 32.838279493 ], [ -87.6380876, 32.838279299 ], [ -87.638277501, 32.838393897 ], [ -87.638386205, 32.838645898 ], [ -87.638304703, 32.838806294 ], [ -87.6375449, 32.839058399 ], [ -87.637382105, 32.839241698 ], [ -87.637382105, 32.839424998 ], [ -87.6375992, 32.839516595 ], [ -87.638114907, 32.839539394 ], [ -87.638114907, 32.839699797 ], [ -87.637762204, 32.840135194 ], [ -87.637762204, 32.840433098 ], [ -87.638087906, 32.840318494 ], [ -87.638630606, 32.839928895 ], [ -87.638847806, 32.8400205 ], [ -87.638956405, 32.840157993 ], [ -87.638766401, 32.840547495 ], [ -87.638413705, 32.841028698 ], [ -87.6383323, 32.841349393 ], [ -87.638522305, 32.841441095 ], [ -87.638875104, 32.841395296 ], [ -87.639363602, 32.841028593 ], [ -87.639797904, 32.841051497 ], [ -87.6399066, 32.841486797 ], [ -87.639743805, 32.841876298 ], [ -87.639798202, 32.842334598 ], [ -87.640151106, 32.842884295 ], [ -87.640476905, 32.843227997 ], [ -87.6417256, 32.844052598 ], [ -87.642567106, 32.844671093 ], [ -87.642675705, 32.844900198 ], [ -87.642757304, 32.845518798 ], [ -87.642893001, 32.845610395 ] ] } },
{ "type": "Feature", "properties": { "site_no": "02465500", "nhdplus_comid": "18208854", "navigation_mode": "DM", "requested_distance_km": 12.0, "start_source": "nwissite", "start_id": "USGS-02465500", "geometry_length_km": 0.20155657690670986 }, "geometry": { "type": "LineString", "coordinates": [ [ -87.642893001, 32.845610395 ], [ -87.642947406, 32.845885299 ], [ -87.643354602, 32.846732996 ], [ -87.643354706, 32.8468704 ], [ -87.643436104, 32.846916296 ], [ -87.643517703, 32.8473057 ] ] } },
{ "type": "Feature", "properties": { "site_no": "02465500", "nhdplus_comid": "18208840", "navigation_mode": "DM", "requested_distance_km": 12.0, "start_source": "nwissite", "start_id": "USGS-02465500", "geometry_length_km": 1.4832686010596512 }, "geometry": { "type": "LineString", "coordinates": [ [ -87.643517703, 32.8473057 ], [ -87.644223504, 32.847763896 ], [ -87.644657902, 32.848611496 ], [ -87.645146601, 32.849092595 ], [ -87.645472504, 32.8499633 ], [ -87.645906903, 32.850352697 ], [ -87.646259807, 32.850444198 ], [ -87.647209801, 32.850466996 ], [ -87.647427, 32.850650199 ], [ -87.647454306, 32.851154298 ], [ -87.647671506, 32.851429194 ], [ -87.647861503, 32.851474993 ], [ -87.648485906, 32.851406097 ], [ -87.648866005, 32.851795495 ], [ -87.649436004, 32.851932794 ], [ -87.650901802, 32.851932496 ], [ -87.651390404, 32.8521844 ], [ -87.651716202, 32.852138497 ], [ -87.6520961, 32.851794794 ], [ -87.652557507, 32.851634294 ], [ -87.652774602, 32.851657197 ], [ -87.652991906, 32.851863295 ], [ -87.653996304, 32.852046393 ], [ -87.654322103, 32.8523212 ], [ -87.655245006, 32.852320999 ], [ -87.655570701, 32.852527097 ] ] } },
{ "type": "Feature", "properties": { "site_no": "02465500", "nhdplus_comid": "18208822", "navigation_mode": "DM", "requested_distance_km": 12.0, "start_source": "nwissite", "start_id": "USGS-02465500", "geometry_length_km": 0.81347640660880005 }, "geometry": { "type": "LineString", "coordinates": [ [ -87.655570701, 32.852527097 ], [ -87.6558965, 32.852549896 ], [ -87.656846702, 32.852893293 ], [ -87.657525405, 32.853374295 ], [ -87.657525502, 32.853695095 ], [ -87.657118604, 32.854084596 ], [ -87.657146007, 32.854611695 ], [ -87.657254502, 32.854772098 ], [ -87.657960303, 32.854771897 ], [ -87.658096105, 32.854863495 ], [ -87.658178106, 32.856283896 ], [ -87.658313803, 32.856398493 ], [ -87.658422604, 32.856971197 ], [ -87.658504002, 32.857039899 ], [ -87.659345604, 32.856970996 ], [ -87.659508504, 32.857062593 ] ] } },
{ "type": "Feature", "properties": { "site_no": "02465500", "nhdplus_comid": "18208800", "navigation_mode": "DM", "requested_distance_km": 12.0, "start_source": "nwissite", "start_id": "USGS-02465500", "geometry_length_km": 2.6047896947734617 }, "geometry": { "type": "LineString", "coordinates": [ [ -87.659508504, 32.857062593 ], [ -87.6594273, 32.857749894 ], [ -87.659617402, 32.857933097 ], [ -87.659726202, 32.858345494 ], [ -87.659916304, 32.858574599 ], [ -87.660893604, 32.858734697 ], [ -87.661328003, 32.858963698 ], [ -87.661626607, 32.8590094 ], [ -87.6626039, 32.8589174 ], [ -87.662929706, 32.859100595 ], [ -87.662929803, 32.859398499 ], [ -87.662604302, 32.859833896 ], [ -87.662604503, 32.860360794 ], [ -87.6623061, 32.860796198 ], [ -87.662306204, 32.860979497 ], [ -87.662659302, 32.861277297 ], [ -87.662822202, 32.861529298 ], [ -87.662849501, 32.861781195 ], [ -87.663636804, 32.862010099 ], [ -87.663555503, 32.862376697 ], [ -87.663257204, 32.862926595 ], [ -87.663284503, 32.863224596 ], [ -87.663746104, 32.863613896 ], [ -87.663855001, 32.864278294 ], [ -87.664018005, 32.864530295 ], [ -87.664452404, 32.864667594 ], [ -87.664588302, 32.864827998 ], [ -87.664643005, 32.865652695 ], [ -87.664860204, 32.865950495 ], [ -87.665973604, 32.866339698 ], [ -87.666462407, 32.866820596 ], [ -87.666598402, 32.867278799 ], [ -87.667060107, 32.8676681 ], [ -87.667250402, 32.868194997 ], [ -87.667956606, 32.868675895 ], [ -87.6679295, 32.868927896 ], [ -87.667305306, 32.869477995 ], [ -87.667305507, 32.8697301 ], [ -87.667441301, 32.869890399 ], [ -87.667712905, 32.870004795 ], [ -87.667930007, 32.869890198 ], [ -87.668011203, 32.8695236 ], [ -87.668500006, 32.869546399 ], [ -87.6694232, 32.869935393 ], [ -87.669504702, 32.870141596 ], [ -87.6694507, 32.870531194 ], [ -87.669152305, 32.870966494 ], [ -87.669043906, 32.871333197 ], [ -87.669098504, 32.871951796 ], [ -87.669288605, 32.8721122 ], [ -87.669777401, 32.8722037 ], [ -87.670157604, 32.872501396 ], [ -87.670157604, 32.872615896 ] ] } },
{ "type": "Feature", "properties": { "site_no": "02465500", "nhdplus_comid": "18208724", "navigation_mode": "DM", "requested_distance_km": 12.0, "start_source": "nwissite", "start_id": "USGS-02465500", "geometry_length_km": 1.1736213461796583 }, "geometry": { "type": "LineString", "coordinates": [ [ -87.670157604, 32.872615896 ], [ -87.670592204, 32.872776099 ], [ -87.670972303, 32.872775897 ], [ -87.671162203, 32.872638397 ], [ -87.671297804, 32.872386396 ], [ -87.671351805, 32.871836498 ], [ -87.6715689, 32.871653095 ], [ -87.671840504, 32.871675894 ], [ -87.6721121, 32.871859096 ], [ -87.672574006, 32.872454599 ], [ -87.672954105, 32.872546099 ], [ -87.673877105, 32.872454099 ], [ -87.674148805, 32.872705996 ], [ -87.6742303, 32.8729579 ], [ -87.6745563, 32.873209797 ], [ -87.675262302, 32.873324096 ], [ -87.6755611, 32.873553097 ], [ -87.675615802, 32.874240398 ], [ -87.675805904, 32.874354899 ], [ -87.676864602, 32.874148197 ], [ -87.678901002, 32.8743077 ], [ -87.679498501, 32.874467798 ], [ -87.679797105, 32.874444693 ] ] } }
]
}
