{
"type": "FeatureCollection",
"name": "USGS_02374500_DM_12km",
"crs": { "type": "name", "properties": { "name": "urn:ogc:def:crs:OGC:1.3:CRS84" } },
"features": [
{ "type": "Feature", "properties": { "site_no": "02374500", "nhdplus_comid": "933140017", "navigation_mode": "DM", "requested_distance_km": 12.0, "start_source": "nwissite", "start_id": "USGS-02374500", "geometry_length_km": 0.68405611794547405 }, "geometry": { "type": "LineString", "coordinates": [ [ -86.986822512, 31.418236734 ], [ -86.986729302, 31.418175399 ], [ -86.986514904, 31.417694293 ], [ -86.986327305, 31.417144395 ], [ -86.985819004, 31.416732393 ], [ -86.985658303, 31.416411594 ], [ -86.985657901, 31.416067794 ], [ -86.985871404, 31.415792696 ], [ -86.985897802, 31.415517695 ], [ -86.985630207, 31.415174097 ], [ -86.985787705, 31.412859298 ], [ -86.985719204, 31.412532195 ] ] } },
{ "type": "Feature", "properties": { "site_no": "02374500", "nhdplus_comid": "933140016", "navigation_mode": "DM", "requested_distance_km": 12.0, "start_source": "nwissite", "start_id": "USGS-02374500", "geometry_length_km": 1.1877874501477774 }, "geometry": { "type": "LineString", "coordinates": [ [ -86.985719204, 31.412532195 ], [ -86.9856534, 31.412217699 ], [ -86.985492706, 31.412034497 ], [ -86.984423302, 31.411508299 ], [ -86.983915105, 31.411073297 ], [ -86.983913906, 31.410202496 ], [ -86.984127402, 31.409950197 ], [ -86.984821901, 31.409720398 ], [ -86.984901801, 31.409491099 ], [ -86.984714605, 31.409307994 ], [ -86.984073102, 31.409102298 ], [ -86.9838055, 31.408827499 ], [ -86.983618006, 31.408437997 ], [ -86.983376205, 31.407292396 ], [ -86.983215705, 31.407155 ], [ -86.9832156, 31.407063298 ], [ -86.982680701, 31.4066054 ], [ -86.982653901, 31.4064679 ], [ -86.982867301, 31.406192698 ], [ -86.982866406, 31.405436493 ], [ -86.982705802, 31.405321993 ], [ -86.982144803, 31.405368298 ], [ -86.981850602, 31.405116498 ], [ -86.981796704, 31.4047499 ], [ -86.981716506, 31.404681094 ] ] } },
{ "type": "Feature", "properties": { "site_no": "02374500", "nhdplus_comid": "2409954", "navigation_mode": "DM", "requested_distance_km": 12.0, "start_source": "nwissite", "start_id": "USGS-02374500", "geometry_length_km": 0.88235350315400385 }, "geometry": { "type": "LineString", "coordinates": [ [ -86.981716506, 31.404681094 ], [ -86.9817423, 31.403878994 ], [ -86.981581405, 31.403306194 ], [ -86.980992906, 31.402733698 ], [ -86.9808321, 31.4022526 ], [ -86.980991803, 31.4017483 ], [ -86.981205106, 31.401404396 ], [ -86.981204405, 31.400877297 ], [ -86.981097102, 31.400487699 ], [ -86.981177203, 31.400350198 ], [ -86.982085504, 31.400303595 ], [ -86.9820318, 31.400051497 ], [ -86.981630601, 31.399639294 ], [ -86.981095903, 31.399387695 ], [ -86.980801806, 31.399158694 ], [ -86.980774805, 31.398975395 ], [ -86.980534203, 31.398861095 ], [ -86.980213307, 31.398517497 ] ] } },
{ "type": "Feature", "properties": { "site_no": "02374500", "nhdplus_comid": "2409968", "navigation_mode": "DM", "requested_distance_km": 12.0, "start_source": "nwissite", "start_id": "USGS-02374500", "geometry_length_km": 0.97908633918242594 }, "geometry": { "type": "LineString", "coordinates": [ [ -86.980213307, 31.398517497 ], [ -86.980319902, 31.398265295 ], [ -86.980346106, 31.397852793 ], [ -86.9802659, 31.397784196 ], [ -86.980372407, 31.397531994 ], [ -86.980773002, 31.3973483 ], [ -86.9808257, 31.396775298 ], [ -86.980451204, 31.396385998 ], [ -86.980450906, 31.396088094 ], [ -86.9810917, 31.395766698 ], [ -86.981438704, 31.3954226 ], [ -86.981999502, 31.395215899 ], [ -86.982239701, 31.394940898 ], [ -86.982292704, 31.3946658 ], [ -86.982025005, 31.394138895 ], [ -86.982104905, 31.393886693 ], [ -86.982451804, 31.393496796 ], [ -86.982932203, 31.393129699 ], [ -86.983359501, 31.392945997 ], [ -86.983786605, 31.3926249 ], [ -86.983812906, 31.392258197 ], [ -86.983652405, 31.392097794 ], [ -86.9835985, 31.391685396 ] ] } },
{ "type": "Feature", "properties": { "site_no": "02374500", "nhdplus_comid": "2409982", "navigation_mode": "DM", "requested_distance_km": 12.0, "start_source": "nwissite", "start_id": "USGS-02374500", "geometry_length_km": 1.8007982170942225 }, "geometry": { "type": "LineString", "coordinates": [ [ -86.9835985, 31.391685396 ], [ -86.983972102, 31.391387098 ], [ -86.984051906, 31.391112097 ], [ -86.984292001, 31.390813895 ], [ -86.9856271, 31.390171096 ], [ -86.986668706, 31.389918096 ], [ -86.987470105, 31.389871493 ], [ -86.989047006, 31.390420198 ], [ -86.989581302, 31.390419699 ], [ -86.989954904, 31.390098497 ], [ -86.990061104, 31.389525495 ], [ -86.990194604, 31.389410794 ], [ -86.990595207, 31.389318697 ], [ -86.9907552, 31.389089495 ], [ -86.991128907, 31.388836995 ], [ -86.991181903, 31.388493195 ], [ -86.990994707, 31.388287097 ], [ -86.990326501, 31.388104297 ], [ -86.990272701, 31.387737699 ], [ -86.990432605, 31.387416698 ], [ -86.9906727, 31.387210295 ], [ -86.991100103, 31.387095295 ], [ -86.991981603, 31.387025699 ], [ -86.992568903, 31.386727296 ], [ -86.993715703, 31.3851678 ], [ -86.993741401, 31.384457298 ], [ -86.9947014, 31.383104399 ] ] } },
{ "type": "Feature", "properties": { "site_no": "02374500", "nhdplus_comid": "2409984", "navigation_mode": "DM", "requested_distance_km": 12.0, "start_source": "nwissite", "start_id": "USGS-02374500", "geometry_length_km": 0.63228746314157702 }, "geometry": { "type": "LineString", "coordinates": [ [ -86.9947014, 31.383104399 ], [ -86.995609805, 31.383218095 ], [ -86.995903507, 31.383126199 ], [ -86.996063404, 31.382828094 ], [ -86.996383801, 31.382621594 ], [ -86.996650301, 31.382162996 ], [ -86.997291006, 31.381864399 ], [ -86.997531004, 31.381497599 ], [ -86.997984804, 31.381290793 ], [ -86.998331703, 31.380969599 ], [ -86.9988648, 31.380052395 ], [ -86.998917706, 31.379708596 ], [ -86.999024503, 31.379570998 ] ] } },
{ "type": "Feature", "properties": { "site_no": "02374500", "nhdplus_comid": "2410000", "navigation_mode": "DM", "requested_distance_km": 12.0, "start_source": "nwissite", "start_id": "USGS-02374500", "geometry_length_km": 0.91063833948846351 }, "geometry": { "type": "LineString", "coordinates": [ [ -86.999024503, 31.379570998 ], [ -86.998916902, 31.379112795 ], [ -86.998676002, 31.378814995 ], [ -86.9983555, 31.378792495 ], [ -86.997821406, 31.378907494 ], [ -86.997554101, 31.378816098 ], [ -86.997340105, 31.378610097 ], [ -86.997205302, 31.377601795 ], [ -86.997285001, 31.377303794 ], [ -86.998673804, 31.3770504 ], [ -86.998726703, 31.376683697 ], [ -86.999046803, 31.376316696 ], [ -86.999073103, 31.376018696 ], [ -86.998484902, 31.375629693 ], [ -86.998484403, 31.375262998 ], [ -86.998698004, 31.375148199 ], [ -86.998884603, 31.374918893 ], [ -86.998910002, 31.373979196 ] ] } },
{ "type": "Feature", "properties": { "site_no": "02374500", "nhdplus_comid": "2410944", "navigation_mode": "DM", "requested_distance_km": 12.0, "start_source": "nwissite", "start_id": "USGS-02374500", "geometry_length_km": 0.15891690856081331 }, "geometry": { "type": "LineString", "coordinates": [ [ -86.998910002, 31.373979196 ], [ -86.999417201, 31.373703696 ], [ -86.999657102, 31.373290896 ], [ -86.999973007, 31.372923896 ] ] } },
{ "type": "Feature", "properties": { "site_no": "02374500", "nhdplus_comid": "2412410", "navigation_mode": "DM", "requested_distance_km": 12.0, "start_source": "nwissite", "start_id": "USGS-02374500", "geometry_length_km": 0.93905757823985347 }, "geometry": { "type": "LineString", "coordinates": [ [ -86.999973007, 31.372923896 ], [ -87.000449404, 31.3731765 ], [ -87.000796601, 31.373153895 ], [ -87.001090705, 31.372924998 ], [ -87.001705103, 31.372925594 ], [ -87.001812004, 31.372856997 ], [ -87.0017066, 31.3717568 ], [ -87.001787007, 31.371573597 ], [ -87.002027601, 31.371367499 ], [ -87.002802201, 31.3713682 ], [ -87.003789805, 31.371896297 ], [ -87.004030205, 31.371919498 ], [ -87.004163906, 31.371827893 ], [ -87.004190907, 31.371598698 ], [ -87.004057802, 31.371254899 ], [ -87.005927704, 31.371119097 ], [ -87.006328404, 31.370981894 ], [ -87.006542407, 31.370798796 ], [ -87.006836303, 31.370684497 ] ] } },
{ "type": "Feature", "properties": { "site_no": "02374500", "nhdplus_comid": "2412498", "navigation_mode": "DM", "requested_distance_km": 12.0, "start_source": "nwissite", "start_id": "USGS-02374500", "geometry_length_km": 3.1333090755401183 }, "geometry": { "type": "LineString", "coordinates": [ [ -87.006836303, 31.370684497 ], [ -87.006836504, 31.370501198 ], [ -87.007211603, 31.369653493 ], [ -87.007186301, 31.368461795 ], [ -87.007480502, 31.368141197 ], [ -87.007134005, 31.367522098 ], [ -87.009032205, 31.365965396 ], [ -87.009513304, 31.365736693 ], [ -87.011383601, 31.365165398 ], [ -87.011410601, 31.3649363 ], [ -87.011303902, 31.364798695 ], [ -87.010609604, 31.364683397 ], [ -87.0104772, 31.3637437 ], [ -87.010611206, 31.363399997 ], [ -87.010958403, 31.363331594 ], [ -87.011278801, 31.3634464 ], [ -87.0116795, 31.363446899 ], [ -87.011920102, 31.363194898 ], [ -87.012000702, 31.362828299 ], [ -87.012455307, 31.362347499 ], [ -87.012456402, 31.361384898 ], [ -87.012350604, 31.360514 ], [ -87.0124842, 31.360399395 ], [ -87.012884706, 31.360514395 ], [ -87.013445601, 31.360469095 ], [ -87.0139274, 31.359529898 ], [ -87.014008, 31.359163299 ], [ -87.014195107, 31.359025896 ], [ -87.014862604, 31.359141096 ], [ -87.014969505, 31.359049499 ], [ -87.014996603, 31.358774498 ], [ -87.014783204, 31.358476393 ], [ -87.014170803, 31.357009098 ], [ -87.013877504, 31.356596299 ], [ -87.013851002, 31.356344193 ], [ -87.014252603, 31.355404899 ], [ -87.014413901, 31.354511298 ], [ -87.014814705, 31.354396999 ], [ -87.014815003, 31.354053199 ], [ -87.014201403, 31.353525698 ], [ -87.014121503, 31.353342198 ], [ -87.014388703, 31.353250794 ], [ -87.014388904, 31.352998696 ], [ -87.013535306, 31.352172896 ], [ -87.013188705, 31.351691395 ], [ -87.0130824, 31.351141296 ], [ -87.011935502, 31.350040093 ] ] } },
{ "type": "Feature", "properties": { "site_no": "02374500", "nhdplus_comid": "2412514", "navigation_mode": "DM", "requested_distance_km": 12.0, "start_source": "nwissite", "start_id": "USGS-02374500", "geometry_length_km": 0.52924797557889824 }, "geometry": { "type": "LineString", "coordinates": [ [ -87.011935502, 31.350040093 ], [ -87.011802204, 31.349833794 ], [ -87.011775807, 31.349581599 ], [ -87.011695705, 31.349535793 ], [ -87.011616006, 31.3492378 ], [ -87.011242606, 31.348847896 ], [ -87.0112698, 31.348458298 ], [ -87.011430301, 31.348183393 ], [ -87.011457607, 31.347747996 ], [ -87.011377707, 31.347610399 ], [ -87.010897301, 31.347334996 ], [ -87.0110313, 31.3468538 ], [ -87.0119664, 31.346442096 ], [ -87.012073502, 31.346258894 ] ] } },
{ "type": "Feature", "properties": { "site_no": "02374500", "nhdplus_comid": "2412538", "navigation_mode": "DM", "requested_distance_km": 12.0, "start_source": "nwissite", "start_id": "USGS-02374500", "geometry_length_km": 1.1922467233317313 }, "geometry": { "type": "LineString", "coordinates": [ [ -87.012073502, 31.346258894 ], [ -87.011726506, 31.346052296 ], [ -87.011058703, 31.346189193 ], [ -87.0109521, 31.346074499 ], [ -87.010899104, 31.3457307 ], [ -87.011007003, 31.344859898 ], [ -87.011435106, 31.344149895 ], [ -87.011489004, 31.343668595 ], [ -87.011729904, 31.343210496 ], [ -87.012746006, 31.3420197 ], [ -87.012746401, 31.341584198 ], [ -87.012346104, 31.341446295 ], [ -87.011945501, 31.341468893 ], [ -87.011678107, 31.341766596 ], [ -87.011384204, 31.341949694 ], [ -87.011304103, 31.341880798 ], [ -87.011278003, 31.341468394 ], [ -87.011385702, 31.340689294 ], [ -87.011039302, 31.3400473 ], [ -87.011039905, 31.339611799 ], [ -87.011574507, 31.339153998 ], [ -87.0116015, 31.338924795 ] ] } }
]
}
