{
"type": "FeatureCollection",
"name": "USGS_02399500_UM_12km",
"crs": { "type": "name", "properties": { "name": "urn:ogc:def:crs:OGC:1.3:CRS84" } },
"features": [
{ "type": "Feature", "properties": { "site_no": "02399500", "nhdplus_comid": "15823591", "navigation_mode": "UM", "requested_distance_km": 12.0, "start_source": "nwissite", "start_id": "USGS-02399500", "geometry_length_km": 1.1922758519155439 }, "geometry": { "type": "LineString", "coordinates": [ [ -85.743195407, 34.183131799 ], [ -85.743324906, 34.1824288 ], [ -85.745011203, 34.181318596 ], [ -85.745599501, 34.180362999 ], [ -85.748128802, 34.178697497 ], [ -85.749699704, 34.178458795 ], [ -85.7528373, 34.176847197 ], [ -85.752915123, 34.176748187 ] ] } },
{ "type": "Feature", "properties": { "site_no": "02399500", "nhdplus_comid": "15823563", "navigation_mode": "UM", "requested_distance_km": 12.0, "start_source": "nwissite", "start_id": "USGS-02399500", "geometry_length_km": 0.063769284496932033 }, "geometry": { "type": "LineString", "coordinates": [ [ -85.743091501, 34.183695897 ], [ -85.743195407, 34.183131799 ] ] } },
{ "type": "Feature", "properties": { "site_no": "02399500", "nhdplus_comid": "15823557", "navigation_mode": "UM", "requested_distance_km": 12.0, "start_source": "nwissite", "start_id": "USGS-02399500", "geometry_length_km": 0.19306130282035974 }, "geometry": { "type": "LineString", "coordinates": [ [ -85.742776901, 34.185403697 ], [ -85.743091501, 34.183695897 ] ] } },
{ "type": "Feature", "properties": { "site_no": "02399500", "nhdplus_comid": "15823547", "navigation_mode": "UM", "requested_distance_km": 12.0, "start_source": "nwissite", "start_id": "USGS-02399500", "geometry_length_km": 1.0774622075147056 }, "geometry": { "type": "LineString", "coordinates": [ [ -85.731832802, 34.187834099 ], [ -85.734197706, 34.187414095 ], [ -85.736784406, 34.187643595 ], [ -85.740416005, 34.186957896 ], [ -85.742776901, 34.185403697 ] ] } },
{ "type": "Feature", "properties": { "site_no": "02399500", "nhdplus_comid": "15823525", "navigation_mode": "UM", "requested_distance_km": 12.0, "start_source": "nwissite", "start_id": "USGS-02399500", "geometry_length_km": 1.7775238133289801 }, "geometry": { "type": "LineString", "coordinates": [ [ -85.713385902, 34.191108294 ], [ -85.715225004, 34.190012097 ], [ -85.7163397, 34.1897332 ], [ -85.717252605, 34.189814396 ], [ -85.719683804, 34.188896693 ], [ -85.7217279, 34.188574396 ], [ -85.725379705, 34.188898794 ], [ -85.726984002, 34.1884114 ], [ -85.730397403, 34.188210599 ], [ -85.731832802, 34.187834099 ] ] } },
{ "type": "Feature", "properties": { "site_no": "02399500", "nhdplus_comid": "15823509", "navigation_mode": "UM", "requested_distance_km": 12.0, "start_source": "nwissite", "start_id": "USGS-02399500", "geometry_length_km": 0.20872952584202184 }, "geometry": { "type": "LineString", "coordinates": [ [ -85.711172007, 34.190659493 ], [ -85.711288705, 34.190669894 ], [ -85.713385902, 34.191108294 ] ] } },
{ "type": "Feature", "properties": { "site_no": "02399500", "nhdplus_comid": "15823511", "navigation_mode": "UM", "requested_distance_km": 12.0, "start_source": "nwissite", "start_id": "USGS-02399500", "geometry_length_km": 0.10529568917747803 }, "geometry": { "type": "LineString", "coordinates": [ [ -85.710027605, 34.190557696 ], [ -85.711172007, 34.190659493 ] ] } },
{ "type": "Feature", "properties": { "site_no": "02399500", "nhdplus_comid": "15823513", "navigation_mode": "UM", "requested_distance_km": 12.0, "start_source": "nwissite", "start_id": "USGS-02399500", "geometry_length_km": 3.1541176799701245 }, "geometry": { "type": "LineString", "coordinates": [ [ -85.681115806, 34.196423195 ], [ -85.682369202, 34.197416894 ], [ -85.683249004, 34.197747298 ], [ -85.684770703, 34.197882995 ], [ -85.686040804, 34.198752098 ], [ -85.688240506, 34.199578099 ], [ -85.692213602, 34.199806094 ], [ -85.695101805, 34.198929593 ], [ -85.695776805, 34.198485799 ], [ -85.69799, 34.198052995 ], [ -85.700405106, 34.197260194 ], [ -85.703104705, 34.195484795 ], [ -85.703878805, 34.194293894 ], [ -85.704891101, 34.193628095 ], [ -85.706002705, 34.192215294 ], [ -85.708397701, 34.1904127 ], [ -85.710027605, 34.190557696 ] ] } },
{ "type": "Feature", "properties": { "site_no": "02399500", "nhdplus_comid": "15823497", "navigation_mode": "UM", "requested_distance_km": 12.0, "start_source": "nwissite", "start_id": "USGS-02399500", "geometry_length_km": 0.7805249988599422 }, "geometry": { "type": "LineString", "coordinates": [ [ -85.674466804, 34.192050494 ], [ -85.678440407, 34.194546796 ], [ -85.681115806, 34.196423195 ] ] } },
{ "type": "Feature", "properties": { "site_no": "02399500", "nhdplus_comid": "15823499", "navigation_mode": "UM", "requested_distance_km": 12.0, "start_source": "nwissite", "start_id": "USGS-02399500", "geometry_length_km": 2.6407672333588845 }, "geometry": { "type": "LineString", "coordinates": [ [ -85.647206806, 34.196157195 ], [ -85.647324301, 34.195797995 ], [ -85.647830702, 34.195465297 ], [ -85.648962401, 34.195062697 ], [ -85.649739802, 34.195006199 ], [ -85.650246203, 34.194673598 ], [ -85.651175804, 34.194630697 ], [ -85.655381307, 34.193117097 ], [ -85.656142101, 34.193185098 ], [ -85.658186607, 34.192863993 ], [ -85.662071005, 34.1914474 ], [ -85.664571904, 34.1911669 ], [ -85.674466804, 34.192050494 ] ] } },
{ "type": "Feature", "properties": { "site_no": "02399500", "nhdplus_comid": "15823475", "navigation_mode": "UM", "requested_distance_km": 12.0, "start_source": "nwissite", "start_id": "USGS-02399500", "geometry_length_km": 0.099451666328246077 }, "geometry": { "type": "LineString", "coordinates": [ [ -85.646925606, 34.197016597 ], [ -85.647206806, 34.196157195 ] ] } },
{ "type": "Feature", "properties": { "site_no": "02399500", "nhdplus_comid": "15823473", "navigation_mode": "UM", "requested_distance_km": 12.0, "start_source": "nwissite", "start_id": "USGS-02399500", "geometry_length_km": 1.5309982377462121 }, "geometry": { "type": "LineString", "coordinates": [ [ -85.632729404, 34.195286296 ], [ -85.632752806, 34.195374995 ], [ -85.635056205, 34.197723195 ], [ -85.639468901, 34.198118493 ], [ -85.640788406, 34.198614597 ], [ -85.643984005, 34.1989007 ], [ -85.646803707, 34.197389193 ], [ -85.646925606, 34.197016597 ] ] } }
]
}
