{
"type": "FeatureCollection",
"name": "USGS_02405200_DM_12km",
"crs": { "type": "name", "properties": { "name": "urn:ogc:def:crs:OGC:1.3:CRS84" } },
"features": [
{ "type": "Feature", "properties": { "site_no": "02405200", "nhdplus_comid": "22206197", "navigation_mode": "DM", "requested_distance_km": 12.0, "start_source": "nwissite", "start_id": "USGS-02405200", "geometry_length_km": 0.036520985305238556 }, "geometry": { "type": "LineString", "coordinates": [ [ -86.336749728, 33.425610792 ], [ -86.336919904, 33.425315596 ] ] } },
{ "type": "Feature", "properties": { "site_no": "02405200", "nhdplus_comid": "22206681", "navigation_mode": "DM", "requested_distance_km": 12.0, "start_source": "nwissite", "start_id": "USGS-02405200", "geometry_length_km": 0.40923178598184834 }, "geometry": { "type": "LineString", "coordinates": [ [ -86.336919904, 33.425315596 ], [ -86.336901501, 33.425190195 ], [ -86.3369295, 33.425053298 ], [ -86.336957507, 33.424916498 ], [ -86.337029606, 33.424867794 ], [ -86.337159805, 33.424780197 ], [ -86.337289907, 33.424692497 ], [ -86.3373041, 33.4245767 ], [ -86.337321207, 33.424438596 ], [ -86.337338105, 33.424300499 ], [ -86.337355204, 33.424162395 ], [ -86.337372303, 33.424024299 ], [ -86.337389305, 33.423886299 ], [ -86.3374063, 33.423748195 ], [ -86.337423407, 33.423610099 ], [ -86.337440401, 33.423471995 ], [ -86.337457404, 33.423333898 ], [ -86.337474503, 33.423195794 ], [ -86.337483302, 33.423184298 ], [ -86.3375732, 33.423067093 ], [ -86.337663107, 33.422949895 ], [ -86.337753005, 33.422832698 ], [ -86.337842904, 33.4227155 ], [ -86.337932803, 33.422598295 ], [ -86.338022605, 33.422481097 ], [ -86.338112503, 33.4223639 ], [ -86.338202402, 33.422246695 ], [ -86.338292204, 33.422129497 ], [ -86.338382207, 33.422012299 ] ] } },
{ "type": "Feature", "properties": { "site_no": "02405200", "nhdplus_comid": "22206685", "navigation_mode": "DM", "requested_distance_km": 12.0, "start_source": "nwissite", "start_id": "USGS-02405200", "geometry_length_km": 0.14459034989442965 }, "geometry": { "type": "LineString", "coordinates": [ [ -86.338382207, 33.422012299 ], [ -86.338480607, 33.421831496 ], [ -86.339274503, 33.420953393 ] ] } },
{ "type": "Feature", "properties": { "site_no": "02405200", "nhdplus_comid": "22206691", "navigation_mode": "DM", "requested_distance_km": 12.0, "start_source": "nwissite", "start_id": "USGS-02405200", "geometry_length_km": 1.3296161650893281 }, "geometry": { "type": "LineString", "coordinates": [ [ -86.339274503, 33.420953393 ], [ -86.339683704, 33.4201058 ], [ -86.339822106, 33.418983296 ], [ -86.3406405, 33.417288095 ], [ -86.344119906, 33.412540898 ], [ -86.346310303, 33.410835296 ] ] } },
{ "type": "Feature", "properties": { "site_no": "02405200", "nhdplus_comid": "22206715", "navigation_mode": "DM", "requested_distance_km": 12.0, "start_source": "nwissite", "start_id": "USGS-02405200", "geometry_length_km": 1.4202755281312289 }, "geometry": { "type": "LineString", "coordinates": [ [ -86.346310303, 33.410835296 ], [ -86.349269703, 33.409068495 ], [ -86.353238203, 33.4077648 ], [ -86.357265204, 33.407221898 ], [ -86.360295601, 33.407351196 ], [ -86.3605818, 33.407501295 ] ] } },
{ "type": "Feature", "properties": { "site_no": "02405200", "nhdplus_comid": "22206741", "navigation_mode": "DM", "requested_distance_km": 12.0, "start_source": "nwissite", "start_id": "USGS-02405200", "geometry_length_km": 2.5768413051774428 }, "geometry": { "type": "LineString", "coordinates": [ [ -86.3605818, 33.407501295 ], [ -86.361080006, 33.4071652 ], [ -86.361532301, 33.407203294 ], [ -86.363116503, 33.406706594 ], [ -86.365411103, 33.405387498 ], [ -86.366647705, 33.4052395 ], [ -86.372294307, 33.401429996 ], [ -86.373004504, 33.400607593 ], [ -86.373806603, 33.399036899 ], [ -86.374246001, 33.397939697 ], [ -86.374460503, 33.3961934 ], [ -86.375382602, 33.394884795 ], [ -86.377285704, 33.393028498 ], [ -86.377875701, 33.391943999 ], [ -86.378389105, 33.391483098 ] ] } },
{ "type": "Feature", "properties": { "site_no": "02405200", "nhdplus_comid": "22206745", "navigation_mode": "DM", "requested_distance_km": 12.0, "start_source": "nwissite", "start_id": "USGS-02405200", "geometry_length_km": 0.25355985443066054 }, "geometry": { "type": "LineString", "coordinates": [ [ -86.378389105, 33.391483098 ], [ -86.378966205, 33.389263198 ] ] } },
{ "type": "Feature", "properties": { "site_no": "02405200", "nhdplus_comid": "22206751", "navigation_mode": "DM", "requested_distance_km": 12.0, "start_source": "nwissite", "start_id": "USGS-02405200", "geometry_length_km": 2.1412742011091708 }, "geometry": { "type": "LineString", "coordinates": [ [ -86.378966205, 33.389263198 ], [ -86.378695406, 33.388988398 ], [ -86.378667101, 33.387977898 ], [ -86.378186807, 33.3869294 ], [ -86.375900306, 33.384468697 ], [ -86.375057302, 33.383893698 ], [ -86.371488802, 33.381955296 ], [ -86.366668805, 33.380289398 ], [ -86.361639701, 33.377849497 ] ] } },
{ "type": "Feature", "properties": { "site_no": "02405200", "nhdplus_comid": "22206771", "navigation_mode": "DM", "requested_distance_km": 12.0, "start_source": "nwissite", "start_id": "USGS-02405200", "geometry_length_km": 1.2994668379423699 }, "geometry": { "type": "LineString", "coordinates": [ [ -86.361639701, 33.377849497 ], [ -86.361338302, 33.377824098 ], [ -86.360510804, 33.377124295 ], [ -86.358222507, 33.375923298 ], [ -86.356823005, 33.374923199 ], [ -86.356010906, 33.374098599 ], [ -86.356013604, 33.372838594 ], [ -86.355398305, 33.371652499 ], [ -86.352931604, 33.369428098 ] ] } },
{ "type": "Feature", "properties": { "site_no": "02405200", "nhdplus_comid": "22206789", "navigation_mode": "DM", "requested_distance_km": 12.0, "start_source": "nwissite", "start_id": "USGS-02405200", "geometry_length_km": 2.2695308384293864 }, "geometry": { "type": "LineString", "coordinates": [ [ -86.352931604, 33.369428098 ], [ -86.351157002, 33.367766097 ], [ -86.350013107, 33.367165498 ], [ -86.349065803, 33.366203398 ], [ -86.347743407, 33.364579499 ], [ -86.347263604, 33.3635308 ], [ -86.345070906, 33.360321097 ], [ -86.342681706, 33.3574728 ], [ -86.341181107, 33.354825497 ], [ -86.340735205, 33.352267198 ] ] } },
{ "type": "Feature", "properties": { "site_no": "02405200", "nhdplus_comid": "22206793", "navigation_mode": "DM", "requested_distance_km": 12.0, "start_source": "nwissite", "start_id": "USGS-02405200", "geometry_length_km": 0.71580398533510281 }, "geometry": { "type": "LineString", "coordinates": [ [ -86.340735205, 33.352267198 ], [ -86.342413604, 33.349762298 ], [ -86.344224207, 33.348654896 ], [ -86.346123904, 33.348059095 ] ] } }
]
}
