{
"type": "FeatureCollection",
"name": "USGS_023432415_UM_12km",
"crs": { "type": "name", "properties": { "name": "urn:ogc:def:crs:OGC:1.3:CRS84" } },
"features": [
{ "type": "Feature", "properties": { "site_no": "023432415", "nhdplus_comid": "2306737", "navigation_mode": "UM", "requested_distance_km": 12.0, "start_source": "nwissite", "start_id": "USGS-023432415", "geometry_length_km": 0.55444496446632419 }, "geometry": { "type": "LineString", "coordinates": [ [ -85.064165004, 31.625319198 ], [ -85.064060502, 31.625213094 ], [ -85.063142106, 31.624016598 ], [ -85.060606904, 31.622682899 ], [ -85.059574151, 31.622581551 ] ] } },
{ "type": "Feature", "properties": { "site_no": "023432415", "nhdplus_comid": "3443790", "navigation_mode": "UM", "requested_distance_km": 12.0, "start_source": "nwissite", "start_id": "USGS-023432415", "geometry_length_km": 0.37332885202652061 }, "geometry": { "type": "LineString", "coordinates": [ [ -85.066697501, 31.627892993 ], [ -85.064165004, 31.625319198 ] ] } },
{ "type": "Feature", "properties": { "site_no": "023432415", "nhdplus_comid": "3443786", "navigation_mode": "UM", "requested_distance_km": 12.0, "start_source": "nwissite", "start_id": "USGS-023432415", "geometry_length_km": 0.90461684485434379 }, "geometry": { "type": "LineString", "coordinates": [ [ -85.072646402, 31.634259298 ], [ -85.066697501, 31.627892993 ] ] } },
{ "type": "Feature", "properties": { "site_no": "023432415", "nhdplus_comid": "3443826", "navigation_mode": "UM", "requested_distance_km": 12.0, "start_source": "nwissite", "start_id": "USGS-023432415", "geometry_length_km": 0.32574708364241045 }, "geometry": { "type": "LineString", "coordinates": [ [ -85.074788906, 31.636551596 ], [ -85.072646402, 31.634259298 ] ] } },
{ "type": "Feature", "properties": { "site_no": "023432415", "nhdplus_comid": "3443782", "navigation_mode": "UM", "requested_distance_km": 12.0, "start_source": "nwissite", "start_id": "USGS-023432415", "geometry_length_km": 1.6018109406649346 }, "geometry": { "type": "LineString", "coordinates": [ [ -85.077930607, 31.649877898 ], [ -85.077900305, 31.648925699 ], [ -85.077499904, 31.648343995 ], [ -85.077682003, 31.647005796 ], [ -85.077020705, 31.645991795 ], [ -85.076954007, 31.645307198 ], [ -85.0761168, 31.644411497 ], [ -85.076724, 31.638775393 ], [ -85.074788906, 31.636551596 ] ] } },
{ "type": "Feature", "properties": { "site_no": "023432415", "nhdplus_comid": "3443774", "navigation_mode": "UM", "requested_distance_km": 12.0, "start_source": "nwissite", "start_id": "USGS-023432415", "geometry_length_km": 3.1544676629965882 }, "geometry": { "type": "LineString", "coordinates": [ [ -85.091682903, 31.6745473 ], [ -85.090207703, 31.671284296 ], [ -85.090159103, 31.670465894 ], [ -85.0887812, 31.668839596 ], [ -85.088835806, 31.668438099 ], [ -85.081510507, 31.659991995 ], [ -85.081637904, 31.6590553 ], [ -85.080539502, 31.657727294 ], [ -85.080667004, 31.656790495 ], [ -85.080005601, 31.655776598 ], [ -85.079696201, 31.654525794 ], [ -85.0798418, 31.653455198 ], [ -85.078743607, 31.652127199 ], [ -85.078871101, 31.651190497 ], [ -85.077930607, 31.649877898 ] ] } },
{ "type": "Feature", "properties": { "site_no": "023432415", "nhdplus_comid": "3443760", "navigation_mode": "UM", "requested_distance_km": 12.0, "start_source": "nwissite", "start_id": "USGS-023432415", "geometry_length_km": 1.6130164352380867 }, "geometry": { "type": "LineString", "coordinates": [ [ -85.102119401, 31.686007999 ], [ -85.093322001, 31.676605895 ], [ -85.091682903, 31.6745473 ] ] } },
{ "type": "Feature", "properties": { "site_no": "023432415", "nhdplus_comid": "3443736", "navigation_mode": "UM", "requested_distance_km": 12.0, "start_source": "nwissite", "start_id": "USGS-023432415", "geometry_length_km": 1.4020539464522026 }, "geometry": { "type": "LineString", "coordinates": [ [ -85.109632201, 31.696639694 ], [ -85.109668501, 31.696371995 ], [ -85.103419401, 31.689389199 ], [ -85.102119401, 31.686007999 ] ] } },
{ "type": "Feature", "properties": { "site_no": "023432415", "nhdplus_comid": "3443712", "navigation_mode": "UM", "requested_distance_km": 12.0, "start_source": "nwissite", "start_id": "USGS-023432415", "geometry_length_km": 1.4650427975385474 }, "geometry": { "type": "LineString", "coordinates": [ [ -85.117584206, 31.707584396 ], [ -85.117304802, 31.707286 ], [ -85.117116101, 31.706318498 ], [ -85.116697006, 31.7058708 ], [ -85.116581, 31.7043681 ], [ -85.109632201, 31.696639694 ] ] } }
]
}
