{
"type": "FeatureCollection",
"name": "USGS_02428500_UM_12km",
"crs": { "type": "name", "properties": { "name": "urn:ogc:def:crs:OGC:1.3:CRS84" } },
"features": [
{ "type": "Feature", "properties": { "site_no": "02428500", "nhdplus_comid": "18238835", "navigation_mode": "UM", "requested_distance_km": 12.0, "start_source": "nwissite", "start_id": "USGS-02428500", "geometry_length_km": 3.0437530891187095 }, "geometry": { "type": "LineString", "coordinates": [ [ -87.394992501, 31.617564894 ], [ -87.395072803, 31.617496096 ], [ -87.396036804, 31.617449999 ], [ -87.396251, 31.617289595 ], [ -87.3965187, 31.616899997 ], [ -87.396866806, 31.616739497 ], [ -87.400455303, 31.616761699 ], [ -87.402062505, 31.617403097 ], [ -87.403428301, 31.617769398 ], [ -87.404446006, 31.6177691 ], [ -87.405677803, 31.617654294 ], [ -87.406079404, 31.617493697 ], [ -87.406186506, 31.617310397 ], [ -87.405998901, 31.616898 ], [ -87.405998804, 31.616347998 ], [ -87.406320006, 31.616279095 ], [ -87.407873504, 31.616805695 ], [ -87.408141501, 31.617195196 ], [ -87.407981001, 31.617974393 ], [ -87.408489801, 31.617997199 ], [ -87.408677205, 31.617836699 ], [ -87.408837706, 31.617286697 ], [ -87.409266204, 31.617286496 ], [ -87.409400202, 31.617492795 ], [ -87.409454003, 31.617905296 ], [ -87.409587905, 31.618088596 ], [ -87.410016403, 31.618088394 ], [ -87.410310805, 31.617882095 ], [ -87.410819501, 31.617263198 ], [ -87.410980001, 31.616919398 ], [ -87.411006607, 31.616346493 ], [ -87.410738602, 31.615842395 ], [ -87.410711601, 31.6152924 ], [ -87.411273405, 31.614398494 ], [ -87.411407202, 31.613940097 ], [ -87.411353104, 31.612542197 ], [ -87.411781207, 31.611900494 ], [ -87.412530802, 31.611121096 ], [ -87.412851803, 31.6104564 ], [ -87.412797503, 31.608691894 ], [ -87.41290163, 31.608587829 ] ] } },
{ "type": "Feature", "properties": { "site_no": "02428500", "nhdplus_comid": "18238773", "navigation_mode": "UM", "requested_distance_km": 12.0, "start_source": "nwissite", "start_id": "USGS-02428500", "geometry_length_km": 0.78491633242922743 }, "geometry": { "type": "LineString", "coordinates": [ [ -87.391993903, 31.620933995 ], [ -87.392074101, 31.620269395 ], [ -87.392502502, 31.619536094 ], [ -87.392770201, 31.619398497 ], [ -87.392957605, 31.619535893 ], [ -87.393011503, 31.620429695 ], [ -87.393332906, 31.620635897 ], [ -87.393654205, 31.6206358 ], [ -87.394082703, 31.620314993 ], [ -87.394136205, 31.620085798 ], [ -87.394002207, 31.619833693 ], [ -87.393975303, 31.619306594 ], [ -87.394109204, 31.619054593 ], [ -87.394778602, 31.618573196 ], [ -87.394912407, 31.618298195 ], [ -87.394992501, 31.617564894 ] ] } },
{ "type": "Feature", "properties": { "site_no": "02428500", "nhdplus_comid": "18238755", "navigation_mode": "UM", "requested_distance_km": 12.0, "start_source": "nwissite", "start_id": "USGS-02428500", "geometry_length_km": 0.49596057503630175 }, "geometry": { "type": "LineString", "coordinates": [ [ -87.3897717, 31.624761395 ], [ -87.390146606, 31.624646693 ], [ -87.391351603, 31.623225696 ], [ -87.391619302, 31.622675695 ], [ -87.391993903, 31.620933995 ] ] } },
{ "type": "Feature", "properties": { "site_no": "02428500", "nhdplus_comid": "18238747", "navigation_mode": "UM", "requested_distance_km": 12.0, "start_source": "nwissite", "start_id": "USGS-02428500", "geometry_length_km": 1.8501923747461084 }, "geometry": { "type": "LineString", "coordinates": [ [ -87.379514202, 31.6265269 ], [ -87.380103402, 31.626389295 ], [ -87.380478404, 31.6260456 ], [ -87.3804783, 31.625724696 ], [ -87.380237304, 31.625610195 ], [ -87.3794339, 31.625587299 ], [ -87.3791392, 31.625472695 ], [ -87.379192702, 31.625174895 ], [ -87.379353501, 31.6249457 ], [ -87.379648104, 31.624876894 ], [ -87.380023003, 31.624899797 ], [ -87.380880006, 31.625174694 ], [ -87.381442606, 31.625747696 ], [ -87.381737202, 31.626228794 ], [ -87.382031806, 31.626182996 ], [ -87.382567406, 31.625609994 ], [ -87.382808402, 31.625632994 ], [ -87.382888801, 31.625839099 ], [ -87.383022703, 31.625930794 ], [ -87.383478001, 31.625907794 ], [ -87.384656407, 31.625518098 ], [ -87.385513507, 31.6254493 ], [ -87.385888301, 31.625174299 ], [ -87.385995403, 31.624899194 ], [ -87.386290103, 31.624761693 ], [ -87.387227401, 31.624761596 ], [ -87.387441605, 31.624646999 ], [ -87.3875487, 31.624303296 ], [ -87.387682602, 31.624165796 ], [ -87.388512805, 31.623844795 ], [ -87.388539501, 31.623661496 ], [ -87.388405606, 31.623455293 ], [ -87.388405502, 31.623088598 ], [ -87.388485901, 31.622928195 ], [ -87.388860807, 31.622836396 ], [ -87.389316104, 31.623065598 ], [ -87.389610805, 31.623455197 ], [ -87.389610901, 31.6239364 ], [ -87.389369905, 31.624119796 ], [ -87.389370002, 31.624646798 ], [ -87.3897717, 31.624761395 ] ] } },
{ "type": "Feature", "properties": { "site_no": "02428500", "nhdplus_comid": "18238723", "navigation_mode": "UM", "requested_distance_km": 12.0, "start_source": "nwissite", "start_id": "USGS-02428500", "geometry_length_km": 1.8008210316702338 }, "geometry": { "type": "LineString", "coordinates": [ [ -87.374157906, 31.634364396 ], [ -87.374988206, 31.634043597 ], [ -87.375175707, 31.633951895 ], [ -87.375390001, 31.633631095 ], [ -87.375497103, 31.633103997 ], [ -87.375898801, 31.633012399 ], [ -87.376595207, 31.633562297 ], [ -87.3768363, 31.633562297 ], [ -87.377050601, 31.633447699 ], [ -87.377130903, 31.632989399 ], [ -87.377077304, 31.631820694 ], [ -87.377184503, 31.631728999 ], [ -87.377854005, 31.631797694 ], [ -87.378175505, 31.631408095 ], [ -87.378229007, 31.631224796 ], [ -87.378282502, 31.630743593 ], [ -87.378095105, 31.630651899 ], [ -87.376889803, 31.630789496 ], [ -87.376675501, 31.630697794 ], [ -87.376648702, 31.630353995 ], [ -87.377639703, 31.629804 ], [ -87.378121801, 31.6296665 ], [ -87.379059203, 31.629849799 ], [ -87.3795681, 31.629368499 ], [ -87.380103603, 31.628405996 ], [ -87.380880304, 31.628062196 ], [ -87.381094605, 31.627855897 ], [ -87.381228402, 31.627466395 ], [ -87.380987301, 31.627283096 ], [ -87.3794607, 31.627008095 ], [ -87.3794071, 31.626870699 ], [ -87.379514202, 31.6265269 ] ] } },
{ "type": "Feature", "properties": { "site_no": "02428500", "nhdplus_comid": "18238695", "navigation_mode": "UM", "requested_distance_km": 12.0, "start_source": "nwissite", "start_id": "USGS-02428500", "geometry_length_km": 1.1500784905879382 }, "geometry": { "type": "LineString", "coordinates": [ [ -87.377747506, 31.642614193 ], [ -87.377988607, 31.6419954 ], [ -87.377854601, 31.6414226 ], [ -87.377640307, 31.641055897 ], [ -87.377586603, 31.6398184 ], [ -87.3769705, 31.638397694 ], [ -87.376354404, 31.637458093 ], [ -87.376033001, 31.637251899 ], [ -87.374961503, 31.637389399 ], [ -87.374800801, 31.637274794 ], [ -87.374881104, 31.636633098 ], [ -87.374961503, 31.636587299 ], [ -87.375256002, 31.635991499 ], [ -87.375336401, 31.635647699 ], [ -87.374988206, 31.635258198 ], [ -87.374184705, 31.634662397 ], [ -87.374157906, 31.634364396 ] ] } },
{ "type": "Feature", "properties": { "site_no": "02428500", "nhdplus_comid": "18238655", "navigation_mode": "UM", "requested_distance_km": 12.0, "start_source": "nwissite", "start_id": "USGS-02428500", "geometry_length_km": 3.2729161979531098 }, "geometry": { "type": "LineString", "coordinates": [ [ -87.369362801, 31.654805794 ], [ -87.369577102, 31.654416196 ], [ -87.369737901, 31.653705798 ], [ -87.369550303, 31.653132893 ], [ -87.369228803, 31.652811997 ], [ -87.368666202, 31.653018296 ], [ -87.367996506, 31.653086998 ], [ -87.3678893, 31.6529724 ], [ -87.367675006, 31.651941195 ], [ -87.367112406, 31.651643299 ], [ -87.367085703, 31.651345298 ], [ -87.368505605, 31.650818296 ], [ -87.368746705, 31.651070394 ], [ -87.3688538, 31.651734993 ], [ -87.369014502, 31.651826598 ], [ -87.369577102, 31.651757896 ], [ -87.370139703, 31.651551694 ], [ -87.370514803, 31.651230894 ], [ -87.370675601, 31.650864199 ], [ -87.370809503, 31.650085099 ], [ -87.370970301, 31.649947599 ], [ -87.371586405, 31.649855897 ], [ -87.371586405, 31.649649695 ], [ -87.371318504, 31.649122499 ], [ -87.371291704, 31.648526698 ], [ -87.371586502, 31.647380896 ], [ -87.371050701, 31.646716394 ], [ -87.371050701, 31.646326795 ], [ -87.371854402, 31.646143496 ], [ -87.371988304, 31.645639293 ], [ -87.372416906, 31.645318493 ], [ -87.372524001, 31.645089298 ], [ -87.371934704, 31.644585095 ], [ -87.371988207, 31.644332998 ], [ -87.372336507, 31.644287296 ], [ -87.373300903, 31.644745596 ], [ -87.373541906, 31.644974798 ], [ -87.373568803, 31.645524696 ], [ -87.373702802, 31.645662196 ], [ -87.373943806, 31.645730995 ], [ -87.374560006, 31.645662293 ], [ -87.374667101, 31.6455018 ], [ -87.3741045, 31.644791394 ], [ -87.3741045, 31.644287199 ], [ -87.374291904, 31.643989295 ], [ -87.374988504, 31.643714398 ], [ -87.375979602, 31.643347599 ], [ -87.376140304, 31.643439196 ], [ -87.376167104, 31.6437601 ], [ -87.375899203, 31.643989198 ], [ -87.375122301, 31.644195594 ], [ -87.375068903, 31.6445622 ], [ -87.375176005, 31.644653894 ], [ -87.375631407, 31.644630797 ], [ -87.376060002, 31.644378796 ], [ -87.376943901, 31.643668398 ], [ -87.377747506, 31.642614193 ] ] } }
]
}
