{
"type": "FeatureCollection",
"name": "USGS_02340750_DM_12km",
"crs": { "type": "name", "properties": { "name": "urn:ogc:def:crs:OGC:1.3:CRS84" } },
"features": [
{ "type": "Feature", "properties": { "site_no": "02340750", "nhdplus_comid": "3297420", "navigation_mode": "DM", "requested_distance_km": 12.0, "start_source": "nwissite", "start_id": "USGS-02340750", "geometry_length_km": 1.119124972614264 }, "geometry": { "type": "LineString", "coordinates": [ [ -85.193080573, 32.784447483 ], [ -85.193029404, 32.784199998 ], [ -85.192893706, 32.784062594 ], [ -85.1919716, 32.783788197 ], [ -85.191998504, 32.783467598 ], [ -85.192377806, 32.783192493 ], [ -85.192621604, 32.782780096 ], [ -85.192702301, 32.781863898 ], [ -85.193081401, 32.781291097 ], [ -85.193162203, 32.780535199 ], [ -85.193053007, 32.779504493 ], [ -85.193134204, 32.779275395 ], [ -85.193106502, 32.778588295 ], [ -85.192943506, 32.778084494 ], [ -85.192075506, 32.777626894 ], [ -85.190963604, 32.777283899 ], [ -85.190204106, 32.776871994 ], [ -85.190149806, 32.776711598 ] ] } },
{ "type": "Feature", "properties": { "site_no": "02340750", "nhdplus_comid": "3297504", "navigation_mode": "DM", "requested_distance_km": 12.0, "start_source": "nwissite", "start_id": "USGS-02340750", "geometry_length_km": 4.8246725701889606 }, "geometry": { "type": "LineString", "coordinates": [ [ -85.190149806, 32.776711598 ], [ -85.189580403, 32.776689097 ], [ -85.188279405, 32.777353995 ], [ -85.187683105, 32.777537398 ], [ -85.187493302, 32.777491793 ], [ -85.1873575, 32.777239896 ], [ -85.187248707, 32.776736096 ], [ -85.187113106, 32.776598595 ], [ -85.186163902, 32.776186898 ], [ -85.185621403, 32.775774799 ], [ -85.185105607, 32.774858899 ], [ -85.184644505, 32.774584197 ], [ -85.184292004, 32.774561495 ], [ -85.184102401, 32.774698995 ], [ -85.183722906, 32.774813697 ], [ -85.182882205, 32.774539299 ], [ -85.182258204, 32.774104394 ], [ -85.182284504, 32.772707194 ], [ -85.182013005, 32.772020198 ], [ -85.181470402, 32.771516494 ], [ -85.180005006, 32.769043498 ], [ -85.180086106, 32.768676996 ], [ -85.180519506, 32.7680583 ], [ -85.180492006, 32.767623097 ], [ -85.180112407, 32.767348498 ], [ -85.179136403, 32.767188594 ], [ -85.178485304, 32.766616195 ], [ -85.177943006, 32.7663875 ], [ -85.177671805, 32.766318895 ], [ -85.177455105, 32.766571 ], [ -85.177075602, 32.766708493 ], [ -85.175584704, 32.766823694 ], [ -85.174364604, 32.766526394 ], [ -85.173036307, 32.766549796 ], [ -85.171681002, 32.766825095 ], [ -85.171165802, 32.766779497 ], [ -85.171084404, 32.766665094 ], [ -85.1709757, 32.766092397 ], [ -85.170731403, 32.765474096 ], [ -85.170378901, 32.765336797 ], [ -85.169403002, 32.765245594 ], [ -85.168182805, 32.764742099 ], [ -85.167776205, 32.764696397 ], [ -85.167532206, 32.764879696 ], [ -85.167640902, 32.765268996 ], [ -85.167668201, 32.765772998 ], [ -85.167478606, 32.766047895 ], [ -85.166367605, 32.766987294 ], [ -85.1658796, 32.767124899 ], [ -85.164415404, 32.766598493 ], [ -85.162761204, 32.7652248 ], [ -85.161649503, 32.7647212 ], [ -85.161595203, 32.764606699 ], [ -85.161676303, 32.763942495 ], [ -85.162896104, 32.763873398 ], [ -85.164386906, 32.763483599 ], [ -85.164793402, 32.763208598 ], [ -85.164793305, 32.762956597 ], [ -85.164576307, 32.762750596 ], [ -85.163708806, 32.762544699 ], [ -85.162651502, 32.762086898 ], [ -85.162109107, 32.761606097 ], [ -85.161810607, 32.761056393 ], [ -85.161539406, 32.760758795 ] ] } },
{ "type": "Feature", "properties": { "site_no": "02340750", "nhdplus_comid": "3298428", "navigation_mode": "DM", "requested_distance_km": 12.0, "start_source": "nwissite", "start_id": "USGS-02340750", "geometry_length_km": 1.9763586581077714 }, "geometry": { "type": "LineString", "coordinates": [ [ -85.161539406, 32.760758795 ], [ -85.161593705, 32.760644294 ], [ -85.161430806, 32.760117494 ], [ -85.161403507, 32.759705193 ], [ -85.1614848, 32.7594762 ], [ -85.161999606, 32.759224094 ], [ -85.162297703, 32.758971997 ], [ -85.162297606, 32.758559793 ], [ -85.1614298, 32.757849999 ], [ -85.161429703, 32.757643797 ], [ -85.1615922, 32.7573919 ], [ -85.161592007, 32.756842196 ], [ -85.161483407, 32.756407 ], [ -85.161510102, 32.755651094 ], [ -85.161564305, 32.755261794 ], [ -85.161835305, 32.755124196 ], [ -85.162567101, 32.755101196 ], [ -85.162973404, 32.7545055 ], [ -85.163162805, 32.753726698 ], [ -85.163108505, 32.753428996 ], [ -85.162484907, 32.7531313 ], [ -85.162186801, 32.753085598 ], [ -85.160425201, 32.753567196 ], [ -85.159964301, 32.753452696 ], [ -85.159476206, 32.753017694 ], [ -85.159367703, 32.752696998 ], [ -85.1605599, 32.751665995 ], [ -85.160858005, 32.751528494 ], [ -85.1613186, 32.751093194 ], [ -85.161372706, 32.750932895 ], [ -85.161562406, 32.750818297 ], [ -85.161724903, 32.750383094 ], [ -85.161571503, 32.750162594 ], [ -85.161273204, 32.749567099 ], [ -85.161272906, 32.748490594 ] ] } },
{ "type": "Feature", "properties": { "site_no": "02340750", "nhdplus_comid": "3297578", "navigation_mode": "DM", "requested_distance_km": 12.0, "start_source": "nwissite", "start_id": "USGS-02340750", "geometry_length_km": 2.0125205977331482 }, "geometry": { "type": "LineString", "coordinates": [ [ -85.161272906, 32.748490594 ], [ -85.161082901, 32.747803599 ], [ -85.160432406, 32.747231096 ], [ -85.159483701, 32.746773094 ], [ -85.158833005, 32.746429697 ], [ -85.158615902, 32.745650999 ], [ -85.158670001, 32.745169997 ], [ -85.1591307, 32.7450554 ], [ -85.159374706, 32.744849198 ], [ -85.159428701, 32.744070396 ], [ -85.159320205, 32.743841395 ], [ -85.159238704, 32.743291698 ], [ -85.159591004, 32.742879398 ], [ -85.160078704, 32.742673196 ], [ -85.160268404, 32.742421195 ], [ -85.160268307, 32.741940193 ], [ -85.160105601, 32.741734095 ], [ -85.159482203, 32.741596796 ], [ -85.159292504, 32.741276093 ], [ -85.159373507, 32.740153894 ], [ -85.159048207, 32.739718698 ], [ -85.158506103, 32.739650093 ], [ -85.158397704, 32.739718899 ], [ -85.158072703, 32.740360193 ], [ -85.157693304, 32.740887098 ], [ -85.157205604, 32.741070397 ], [ -85.156446703, 32.741047598 ], [ -85.155660801, 32.740910299 ], [ -85.155227102, 32.740612596 ], [ -85.155037306, 32.7400859 ], [ -85.154305302, 32.738917798 ], [ -85.154250905, 32.738093294 ], [ -85.154332206, 32.7380016 ] ] } },
{ "type": "Feature", "properties": { "site_no": "02340750", "nhdplus_comid": "3297594", "navigation_mode": "DM", "requested_distance_km": 12.0, "start_source": "nwissite", "start_id": "USGS-02340750", "geometry_length_km": 2.7482932385071361 }, "geometry": { "type": "LineString", "coordinates": [ [ -85.154332206, 32.7380016 ], [ -85.1547115, 32.737199895 ], [ -85.154792704, 32.736650199 ], [ -85.154630005, 32.736489899 ], [ -85.154033706, 32.736421295 ], [ -85.153708607, 32.736604594 ], [ -85.1533022, 32.7370627 ], [ -85.152922802, 32.737154394 ], [ -85.1524349, 32.736742094 ], [ -85.152462006, 32.736490197 ], [ -85.152326405, 32.736169599 ], [ -85.151703, 32.735528298 ], [ -85.1505647, 32.7350474 ], [ -85.150510602, 32.735299394 ], [ -85.150862902, 32.7357575 ], [ -85.150808804, 32.736032397 ], [ -85.150321104, 32.736627899 ], [ -85.1499146, 32.737360895 ], [ -85.1496979, 32.737521194 ], [ -85.147475705, 32.7379108 ], [ -85.147123404, 32.737819195 ], [ -85.1469879, 32.737636 ], [ -85.147069201, 32.737315297 ], [ -85.147448502, 32.737017497 ], [ -85.147448502, 32.736765593 ], [ -85.147340007, 32.736490794 ], [ -85.146825105, 32.735757895 ], [ -85.146310203, 32.735505894 ], [ -85.144304603, 32.735139698 ], [ -85.142868407, 32.735116899 ], [ -85.142028302, 32.734979495 ], [ -85.141621806, 32.734819196 ], [ -85.141486302, 32.734613098 ], [ -85.141404904, 32.734154999 ], [ -85.142082401, 32.733467795 ], [ -85.142299101, 32.732895195 ], [ -85.142515905, 32.732666098 ], [ -85.142868303, 32.732505694 ], [ -85.144087702, 32.7325515 ], [ -85.145794801, 32.732161999 ], [ -85.146960206, 32.732138999 ] ] } }
]
}
