{
"type": "FeatureCollection",
"name": "USGS_03572690_DM_12km",
"crs": { "type": "name", "properties": { "name": "urn:ogc:def:crs:OGC:1.3:CRS84" } },
"features": [
{ "type": "Feature", "properties": { "site_no": "03572690", "nhdplus_comid": "19647854", "navigation_mode": "DM", "requested_distance_km": 12.0, "start_source": "nwissite", "start_id": "USGS-03572690", "geometry_length_km": 0.26059563999953156 }, "geometry": { "type": "LineString", "coordinates": [ [ -85.929510378, 34.498549826 ], [ -85.929566801, 34.498527199 ], [ -85.930120006, 34.498504095 ], [ -85.930562705, 34.498710096 ], [ -85.930645905, 34.499557398 ], [ -85.9304801, 34.500103399 ] ] } },
{ "type": "Feature", "properties": { "site_no": "03572690", "nhdplus_comid": "19645964", "navigation_mode": "DM", "requested_distance_km": 12.0, "start_source": "nwissite", "start_id": "USGS-03572690", "geometry_length_km": 1.1412530738363202 }, "geometry": { "type": "LineString", "coordinates": [ [ -85.9304801, 34.500103399 ], [ -85.930619001, 34.500932895 ], [ -85.931117304, 34.501482494 ], [ -85.931587607, 34.501711294 ], [ -85.932417303, 34.501596399 ], [ -85.933715306, 34.500588 ], [ -85.9345714, 34.500175394 ], [ -85.9350686, 34.500243895 ], [ -85.936868206, 34.5017775 ], [ -85.937448502, 34.502074994 ], [ -85.937890805, 34.502074696 ], [ -85.940072604, 34.501638398 ] ] } },
{ "type": "Feature", "properties": { "site_no": "03572690", "nhdplus_comid": "19645950", "navigation_mode": "DM", "requested_distance_km": 12.0, "start_source": "nwissite", "start_id": "USGS-03572690", "geometry_length_km": 0.55756522519576623 }, "geometry": { "type": "LineString", "coordinates": [ [ -85.940072604, 34.501638398 ], [ -85.9405981, 34.501500696 ], [ -85.941732407, 34.501454294 ], [ -85.942064404, 34.501614399 ], [ -85.942119904, 34.501774698 ], [ -85.941982605, 34.503080294 ], [ -85.942231804, 34.503332093 ], [ -85.942508504, 34.503423594 ], [ -85.943421505, 34.503400199 ], [ -85.944030002, 34.503285296 ] ] } },
{ "type": "Feature", "properties": { "site_no": "03572690", "nhdplus_comid": "19645966", "navigation_mode": "DM", "requested_distance_km": 12.0, "start_source": "nwissite", "start_id": "USGS-03572690", "geometry_length_km": 0.48218810199149142 }, "geometry": { "type": "LineString", "coordinates": [ [ -85.944030002, 34.503285296 ], [ -85.944085404, 34.503147796 ], [ -85.945635706, 34.502482697 ], [ -85.946191303, 34.501864098 ], [ -85.946581304, 34.500672795 ], [ -85.947162002, 34.500103295 ] ] } },
{ "type": "Feature", "properties": { "site_no": "03572690", "nhdplus_comid": "19647842", "navigation_mode": "DM", "requested_distance_km": 12.0, "start_source": "nwissite", "start_id": "USGS-03572690", "geometry_length_km": 0.74147158808375957 }, "geometry": { "type": "LineString", "coordinates": [ [ -85.947162002, 34.500103295 ], [ -85.947438702, 34.499847494 ], [ -85.948019907, 34.4996868 ], [ -85.950869404, 34.499799795 ], [ -85.951920904, 34.499707498 ], [ -85.953000002, 34.499294698 ], [ -85.953636006, 34.4992944 ], [ -85.954327501, 34.499774896 ], [ -85.954548702, 34.500102393 ] ] } },
{ "type": "Feature", "properties": { "site_no": "03572690", "nhdplus_comid": "19645968", "navigation_mode": "DM", "requested_distance_km": 12.0, "start_source": "nwissite", "start_id": "USGS-03572690", "geometry_length_km": 0.61027933700173764 }, "geometry": { "type": "LineString", "coordinates": [ [ -85.954548702, 34.500102393 ], [ -85.954742603, 34.500553198 ], [ -85.956094801, 34.5016976 ], [ -85.956618704, 34.501926199 ], [ -85.958055504, 34.502314597 ], [ -85.960102901, 34.502175793 ] ] } },
{ "type": "Feature", "properties": { "site_no": "03572690", "nhdplus_comid": "19646242", "navigation_mode": "DM", "requested_distance_km": 12.0, "start_source": "nwissite", "start_id": "USGS-03572690", "geometry_length_km": 0.27252779562876661 }, "geometry": { "type": "LineString", "coordinates": [ [ -85.960102901, 34.502175793 ], [ -85.960766107, 34.501350798 ], [ -85.961042203, 34.500846699 ], [ -85.9616585, 34.500101097 ] ] } },
{ "type": "Feature", "properties": { "site_no": "03572690", "nhdplus_comid": "19648270", "navigation_mode": "DM", "requested_distance_km": 12.0, "start_source": "nwissite", "start_id": "USGS-03572690", "geometry_length_km": 0.62237015118637073 }, "geometry": { "type": "LineString", "coordinates": [ [ -85.9616585, 34.500101097 ], [ -85.962103203, 34.499884598 ], [ -85.96305, 34.499815196 ], [ -85.9641288, 34.499699995 ], [ -85.965538904, 34.498897396 ], [ -85.967198007, 34.498094596 ], [ -85.9678066, 34.497979693 ] ] } },
{ "type": "Feature", "properties": { "site_no": "03572690", "nhdplus_comid": "19647870", "navigation_mode": "DM", "requested_distance_km": 12.0, "start_source": "nwissite", "start_id": "USGS-03572690", "geometry_length_km": 1.4862473723818326 }, "geometry": { "type": "LineString", "coordinates": [ [ -85.9678066, 34.497979693 ], [ -85.969438307, 34.497497499 ], [ -85.970793106, 34.496855296 ], [ -85.971622303, 34.4961446 ], [ -85.973003902, 34.494654894 ], [ -85.974578403, 34.492661096 ], [ -85.9755456, 34.491904497 ], [ -85.976485804, 34.491537295 ], [ -85.977674901, 34.491215795 ], [ -85.979417503, 34.491031095 ], [ -85.9806071, 34.491213396 ] ] } },
{ "type": "Feature", "properties": { "site_no": "03572690", "nhdplus_comid": "19647896", "navigation_mode": "DM", "requested_distance_km": 12.0, "start_source": "nwissite", "start_id": "USGS-03572690", "geometry_length_km": 0.80388420907001945 }, "geometry": { "type": "LineString", "coordinates": [ [ -85.9806071, 34.491213396 ], [ -85.981575303, 34.491212599 ], [ -85.982322402, 34.491326496 ], [ -85.983705305, 34.491210997 ], [ -85.984202906, 34.490935698 ], [ -85.984534405, 34.490568995 ], [ -85.984727502, 34.4901108 ], [ -85.9847541, 34.489240199 ], [ -85.984615006, 34.488621995 ], [ -85.983922102, 34.4875919 ], [ -85.983755507, 34.487065293 ] ] } },
{ "type": "Feature", "properties": { "site_no": "03572690", "nhdplus_comid": "19647900", "navigation_mode": "DM", "requested_distance_km": 12.0, "start_source": "nwissite", "start_id": "USGS-03572690", "geometry_length_km": 0.56125493928814074 }, "geometry": { "type": "LineString", "coordinates": [ [ -85.983755507, 34.487065293 ], [ -85.984252706, 34.486515194 ], [ -85.985026807, 34.486148 ], [ -85.985635102, 34.486033 ], [ -85.986409806, 34.4861468 ], [ -85.987987101, 34.486626498 ], [ -85.989287406, 34.486854397 ] ] } },
{ "type": "Feature", "properties": { "site_no": "03572690", "nhdplus_comid": "19647908", "navigation_mode": "DM", "requested_distance_km": 12.0, "start_source": "nwissite", "start_id": "USGS-03572690", "geometry_length_km": 1.2288550279174359 }, "geometry": { "type": "LineString", "coordinates": [ [ -85.989287406, 34.486854397 ], [ -85.990227506, 34.486532897 ], [ -85.9905314, 34.486257799 ], [ -85.990889803, 34.485295594 ], [ -85.991248406, 34.484631099 ], [ -85.991801105, 34.484172493 ], [ -85.992160402, 34.483988896 ], [ -85.992796406, 34.483919598 ], [ -85.994373605, 34.484305799 ], [ -85.995258801, 34.484350599 ], [ -85.996972702, 34.483615294 ], [ -85.998934902, 34.482467696 ], [ -85.999976404, 34.482077293 ] ] } },
{ "type": "Feature", "properties": { "site_no": "03572690", "nhdplus_comid": "19648790", "navigation_mode": "DM", "requested_distance_km": 12.0, "start_source": "nwissite", "start_id": "USGS-03572690", "geometry_length_km": 1.5823219947568248 }, "geometry": { "type": "LineString", "coordinates": [ [ -85.999976404, 34.482077293 ], [ -86.001061201, 34.481620297 ], [ -86.003829606, 34.480039597 ], [ -86.0045764, 34.479994595 ], [ -86.005129106, 34.480269998 ], [ -86.0059577, 34.481095396 ], [ -86.006455302, 34.481256194 ], [ -86.0080043, 34.481211998 ], [ -86.009996407, 34.480755895 ], [ -86.011517704, 34.480665796 ], [ -86.013094202, 34.480758898 ], [ -86.014172502, 34.480988994 ], [ -86.015554704, 34.481539994 ], [ -86.015582204, 34.481654599 ] ] } },
{ "type": "Feature", "properties": { "site_no": "03572690", "nhdplus_comid": "19648798", "navigation_mode": "DM", "requested_distance_km": 12.0, "start_source": "nwissite", "start_id": "USGS-03572690", "geometry_length_km": 1.112214254268292 }, "geometry": { "type": "LineString", "coordinates": [ [ -86.015582204, 34.481654599 ], [ -86.017158806, 34.481610194 ], [ -86.020090505, 34.481750295 ], [ -86.021114103, 34.481636696 ], [ -86.021501407, 34.481522493 ], [ -86.022581205, 34.480630197 ], [ -86.023052603, 34.479760297 ], [ -86.023303106, 34.478477895 ], [ -86.023469403, 34.478157394 ], [ -86.024327807, 34.4773793 ], [ -86.024549104, 34.477310799 ] ] } }
]
}
