{
"type": "FeatureCollection",
"name": "USGS_02423130_UM_12km",
"crs": { "type": "name", "properties": { "name": "urn:ogc:def:crs:OGC:1.3:CRS84" } },
"features": [
{ "type": "Feature", "properties": { "site_no": "02423130", "nhdplus_comid": "21654166", "navigation_mode": "UM", "requested_distance_km": 12.0, "start_source": "nwissite", "start_id": "USGS-02423130", "geometry_length_km": 2.7422069997406919 }, "geometry": { "type": "LineString", "coordinates": [ [ -86.596309505, 33.643467896 ], [ -86.596173003, 33.642093293 ], [ -86.595954105, 33.641657896 ], [ -86.595488705, 33.641039297 ], [ -86.595488906, 33.640420794 ], [ -86.5958452, 33.639710695 ], [ -86.596639901, 33.638588399 ], [ -86.597461805, 33.637901299 ], [ -86.598393202, 33.637282893 ], [ -86.598913707, 33.636710398 ], [ -86.599927306, 33.636298195 ], [ -86.6002561, 33.6358172 ], [ -86.600229003, 33.634671696 ], [ -86.600311302, 33.634396799 ], [ -86.600749701, 33.633824199 ], [ -86.600804605, 33.632953599 ], [ -86.601380005, 33.6319227 ], [ -86.601900406, 33.631464697 ], [ -86.602585204, 33.631144099 ], [ -86.6028044, 33.630960897 ], [ -86.6028319, 33.630365297 ], [ -86.602749906, 33.629838295 ], [ -86.602175102, 33.628646895 ], [ -86.6019288, 33.627776295 ], [ -86.601765305, 33.625095896 ], [ -86.601683207, 33.624775097 ], [ -86.599616101, 33.622102385 ] ] } },
{ "type": "Feature", "properties": { "site_no": "02423130", "nhdplus_comid": "21654118", "navigation_mode": "UM", "requested_distance_km": 12.0, "start_source": "nwissite", "start_id": "USGS-02423130", "geometry_length_km": 1.743601640748943 }, "geometry": { "type": "LineString", "coordinates": [ [ -86.589374304, 33.656684697 ], [ -86.589265302, 33.655401796 ], [ -86.589457206, 33.655081093 ], [ -86.590799905, 33.653935999 ], [ -86.591265805, 33.653363496 ], [ -86.591430306, 33.6529053 ], [ -86.591430604, 33.652195096 ], [ -86.591129705, 33.650980696 ], [ -86.5911301, 33.650247596 ], [ -86.591294602, 33.649926998 ], [ -86.591568604, 33.6497209 ], [ -86.593595907, 33.648965493 ], [ -86.594061702, 33.648644798 ], [ -86.594390504, 33.648278393 ], [ -86.594774306, 33.647476695 ], [ -86.595322907, 33.645552397 ], [ -86.596035503, 33.644155197 ], [ -86.596309505, 33.643467896 ] ] } },
{ "type": "Feature", "properties": { "site_no": "02423130", "nhdplus_comid": "21654096", "navigation_mode": "UM", "requested_distance_km": 12.0, "start_source": "nwissite", "start_id": "USGS-02423130", "geometry_length_km": 0.41797299606344734 }, "geometry": { "type": "LineString", "coordinates": [ [ -86.589400202, 33.660258494 ], [ -86.589235902, 33.660097994 ], [ -86.589017004, 33.659502394 ], [ -86.588770904, 33.658448495 ], [ -86.588908106, 33.657852896 ], [ -86.589374304, 33.656684697 ] ] } },
{ "type": "Feature", "properties": { "site_no": "02423130", "nhdplus_comid": "21654088", "navigation_mode": "UM", "requested_distance_km": 12.0, "start_source": "nwissite", "start_id": "USGS-02423130", "geometry_length_km": 0.94989940731947264 }, "geometry": { "type": "LineString", "coordinates": [ [ -86.590602405, 33.668070897 ], [ -86.590629905, 33.667910494 ], [ -86.591644406, 33.6661468 ], [ -86.591918603, 33.665482499 ], [ -86.591918804, 33.6650014 ], [ -86.591343805, 33.664291099 ], [ -86.590741307, 33.663420394 ], [ -86.590577006, 33.662962198 ], [ -86.589400202, 33.660258494 ] ] } },
{ "type": "Feature", "properties": { "site_no": "02423130", "nhdplus_comid": "21654074", "navigation_mode": "UM", "requested_distance_km": 12.0, "start_source": "nwissite", "start_id": "USGS-02423130", "geometry_length_km": 2.4396219433510491 }, "geometry": { "type": "LineString", "coordinates": [ [ -86.600076504, 33.687431596 ], [ -86.600241102, 33.686927594 ], [ -86.600268707, 33.686079994 ], [ -86.6000496, 33.685850896 ], [ -86.599693306, 33.685644597 ], [ -86.599200301, 33.685025997 ], [ -86.599200606, 33.6840638 ], [ -86.599337801, 33.683376595 ], [ -86.599201106, 33.682528898 ], [ -86.598845102, 33.681704 ], [ -86.598598801, 33.6805126 ], [ -86.598297507, 33.680008695 ], [ -86.5974757, 33.679252394 ], [ -86.597037502, 33.678656697 ], [ -86.596791103, 33.678038098 ], [ -86.595969506, 33.676686294 ], [ -86.595531605, 33.675311595 ], [ -86.595203005, 33.674578398 ], [ -86.595039003, 33.673524499 ], [ -86.594710506, 33.672791295 ], [ -86.593587704, 33.671164498 ], [ -86.593094602, 33.670751996 ], [ -86.592135906, 33.670270696 ], [ -86.591396406, 33.669514395 ], [ -86.591150202, 33.668529294 ], [ -86.590602405, 33.668070897 ] ] } }
]
}
