{
"type": "FeatureCollection",
"name": "USGS_02413300_UM_12km",
"crs": { "type": "name", "properties": { "name": "urn:ogc:def:crs:OGC:1.3:CRS84" } },
"features": [
{ "type": "Feature", "properties": { "site_no": "02413300", "nhdplus_comid": "15811667", "navigation_mode": "UM", "requested_distance_km": 12.0, "start_source": "nwissite", "start_id": "USGS-02413300", "geometry_length_km": 1.2800865365719984 }, "geometry": { "type": "LineString", "coordinates": [ [ -85.391912401, 33.443592399 ], [ -85.392568104, 33.443569496 ], [ -85.396229006, 33.443042397 ], [ -85.398387201, 33.442629896 ], [ -85.399070203, 33.442377895 ], [ -85.399261303, 33.442171693 ], [ -85.399397902, 33.441736497 ], [ -85.399451807, 33.438300796 ], [ -85.399397105, 33.437682398 ], [ -85.399094442, 33.43710275 ] ] } },
{ "type": "Feature", "properties": { "site_no": "02413300", "nhdplus_comid": "15811619", "navigation_mode": "UM", "requested_distance_km": 12.0, "start_source": "nwissite", "start_id": "USGS-02413300", "geometry_length_km": 1.5834325618813316 }, "geometry": { "type": "LineString", "coordinates": [ [ -85.376995407, 33.444417194 ], [ -85.377514504, 33.443638496 ], [ -85.3796729, 33.441897899 ], [ -85.380601704, 33.441393994 ], [ -85.381967805, 33.441050395 ], [ -85.383251801, 33.441096298 ], [ -85.3844539, 33.441187896 ], [ -85.385601304, 33.441393897 ], [ -85.389644802, 33.442882597 ], [ -85.391912401, 33.443592399 ] ] } },
{ "type": "Feature", "properties": { "site_no": "02413300", "nhdplus_comid": "15811609", "navigation_mode": "UM", "requested_distance_km": 12.0, "start_source": "nwissite", "start_id": "USGS-02413300", "geometry_length_km": 0.094475529455105234 }, "geometry": { "type": "LineString", "coordinates": [ [ -85.377514407, 33.445081398 ], [ -85.377022706, 33.444714993 ], [ -85.376995407, 33.444417194 ] ] } },
{ "type": "Feature", "properties": { "site_no": "02413300", "nhdplus_comid": "15811605", "navigation_mode": "UM", "requested_distance_km": 12.0, "start_source": "nwissite", "start_id": "USGS-02413300", "geometry_length_km": 5.3139857731715354 }, "geometry": { "type": "LineString", "coordinates": [ [ -85.373249806, 33.468557499 ], [ -85.373851001, 33.468351498 ], [ -85.373987705, 33.468168199 ], [ -85.374124303, 33.467916295 ], [ -85.374233805, 33.467183396 ], [ -85.3737147, 33.465373896 ], [ -85.373332202, 33.464778394 ], [ -85.3721027, 33.463266693 ], [ -85.371365003, 33.462533697 ], [ -85.370518006, 33.461938098 ], [ -85.370135501, 33.461548693 ], [ -85.370108202, 33.461365499 ], [ -85.370244801, 33.461159393 ], [ -85.370900802, 33.4606326 ], [ -85.374207303, 33.459235698 ], [ -85.374945, 33.459075496 ], [ -85.375191003, 33.4590296 ], [ -85.376639307, 33.458938099 ], [ -85.378251404, 33.459304698 ], [ -85.379754201, 33.460335396 ], [ -85.380000107, 33.460747696 ], [ -85.380574003, 33.461136997 ], [ -85.381448403, 33.461389095 ], [ -85.382814705, 33.461686797 ], [ -85.383634403, 33.461686797 ], [ -85.384481601, 33.461274497 ], [ -85.384645604, 33.460999697 ], [ -85.384563506, 33.460221 ], [ -85.384372301, 33.459258996 ], [ -85.383880407, 33.458571896 ], [ -85.382732704, 33.456487596 ], [ -85.3827601, 33.456396095 ], [ -85.382268205, 33.4552508 ], [ -85.382350206, 33.4545637 ], [ -85.382678002, 33.4538996 ], [ -85.383197203, 33.453555994 ], [ -85.383771002, 33.453372695 ], [ -85.384563304, 33.453670494 ], [ -85.386175402, 33.453899495 ], [ -85.386667304, 33.453784995 ], [ -85.387760207, 33.453120694 ], [ -85.388142705, 33.452777095 ], [ -85.388306603, 33.4524564 ], [ -85.388361201, 33.451860994 ], [ -85.388197303, 33.451608993 ], [ -85.387541503, 33.451036394 ], [ -85.385137103, 33.449204095 ], [ -85.381885804, 33.4473949 ], [ -85.3813667, 33.446982495 ], [ -85.378989801, 33.445562497 ], [ -85.377514407, 33.445081398 ] ] } },
{ "type": "Feature", "properties": { "site_no": "02413300", "nhdplus_comid": "15811541", "navigation_mode": "UM", "requested_distance_km": 12.0, "start_source": "nwissite", "start_id": "USGS-02413300", "geometry_length_km": 2.5721608831020975 }, "geometry": { "type": "LineString", "coordinates": [ [ -85.348437302, 33.465209 ], [ -85.348546706, 33.464865394 ], [ -85.348792903, 33.464476198 ], [ -85.349066205, 33.464247197 ], [ -85.349366903, 33.464178599 ], [ -85.350050002, 33.464293294 ], [ -85.351279706, 33.464041695 ], [ -85.352509603, 33.463469394 ], [ -85.3533841, 33.463355094 ], [ -85.354012601, 33.463401094 ], [ -85.3543678, 33.463446997 ], [ -85.356963202, 33.465852298 ], [ -85.360078007, 33.467318796 ], [ -85.361307703, 33.467754297 ], [ -85.363193102, 33.468327098 ], [ -85.365543202, 33.4687398 ], [ -85.369697005, 33.468763299 ], [ -85.373249806, 33.468557499 ] ] } }
]
}
