{
"type": "FeatureCollection",
"name": "USGS_02423647_UM_12km",
"crs": { "type": "name", "properties": { "name": "urn:ogc:def:crs:OGC:1.3:CRS84" } },
"features": [
{ "type": "Feature", "properties": { "site_no": "02423647", "nhdplus_comid": "21658214", "navigation_mode": "UM", "requested_distance_km": 12.0, "start_source": "nwissite", "start_id": "USGS-02423647", "geometry_length_km": 0.58912555459408711 }, "geometry": { "type": "LineString", "coordinates": [ [ -87.049113803, 33.100280598 ], [ -87.0516771, 33.098402999 ], [ -87.052471101, 33.0980874 ], [ -87.054053873, 33.096999041 ] ] } },
{ "type": "Feature", "properties": { "site_no": "02423647", "nhdplus_comid": "21658206", "navigation_mode": "UM", "requested_distance_km": 12.0, "start_source": "nwissite", "start_id": "USGS-02423647", "geometry_length_km": 0.2313830592212989 }, "geometry": { "type": "LineString", "coordinates": [ [ -87.047780804, 33.102002695 ], [ -87.048452906, 33.101425596 ], [ -87.049113803, 33.100280598 ] ] } },
{ "type": "Feature", "properties": { "site_no": "02423647", "nhdplus_comid": "21658202", "navigation_mode": "UM", "requested_distance_km": 12.0, "start_source": "nwissite", "start_id": "USGS-02423647", "geometry_length_km": 1.0841592087674721 }, "geometry": { "type": "LineString", "coordinates": [ [ -87.039184906, 33.108256795 ], [ -87.039213404, 33.108006999 ], [ -87.039928205, 33.107055299 ], [ -87.040915206, 33.106376998 ], [ -87.043132804, 33.105543293 ], [ -87.046422407, 33.103281893 ], [ -87.047780804, 33.102002695 ] ] } },
{ "type": "Feature", "properties": { "site_no": "02423647", "nhdplus_comid": "21658198", "navigation_mode": "UM", "requested_distance_km": 12.0, "start_source": "nwissite", "start_id": "USGS-02423647", "geometry_length_km": 0.0013335515444308252 }, "geometry": { "type": "LineString", "coordinates": [ [ -87.039183602, 33.108268693 ], [ -87.039184906, 33.108256795 ] ] } },
{ "type": "Feature", "properties": { "site_no": "02423647", "nhdplus_comid": "21658196", "navigation_mode": "UM", "requested_distance_km": 12.0, "start_source": "nwissite", "start_id": "USGS-02423647", "geometry_length_km": 0.39718305910300328 }, "geometry": { "type": "LineString", "coordinates": [ [ -87.037824005, 33.111552395 ], [ -87.037942104, 33.111182697 ], [ -87.039014407, 33.109755196 ], [ -87.039183602, 33.108268693 ] ] } },
{ "type": "Feature", "properties": { "site_no": "02423647", "nhdplus_comid": "25382423", "navigation_mode": "UM", "requested_distance_km": 12.0, "start_source": "nwissite", "start_id": "USGS-02423647", "geometry_length_km": 0.955188869994402 }, "geometry": { "type": "LineString", "coordinates": [ [ -87.032827504, 33.117242895 ], [ -87.032027602, 33.116513096 ], [ -87.032334507, 33.115151398 ], [ -87.033815004, 33.114133894 ], [ -87.036154807, 33.113561995 ], [ -87.037470907, 33.112657495 ], [ -87.037824005, 33.111552395 ] ] } },
{ "type": "Feature", "properties": { "site_no": "02423647", "nhdplus_comid": "21658188", "navigation_mode": "UM", "requested_distance_km": 12.0, "start_source": "nwissite", "start_id": "USGS-02423647", "geometry_length_km": 0.28409669578139224 }, "geometry": { "type": "LineString", "coordinates": [ [ -87.035282604, 33.118678793 ], [ -87.035135105, 33.118521199 ], [ -87.033538707, 33.117891699 ], [ -87.032827504, 33.117242895 ] ] } },
{ "type": "Feature", "properties": { "site_no": "02423647", "nhdplus_comid": "25382406", "navigation_mode": "UM", "requested_distance_km": 12.0, "start_source": "nwissite", "start_id": "USGS-02423647", "geometry_length_km": 0.6918043761373206 }, "geometry": { "type": "LineString", "coordinates": [ [ -87.040331602, 33.123183399 ], [ -87.0391386, 33.121985294 ], [ -87.037298203, 33.120832898 ], [ -87.035282604, 33.118678793 ] ] } },
{ "type": "Feature", "properties": { "site_no": "02423647", "nhdplus_comid": "21658186", "navigation_mode": "UM", "requested_distance_km": 12.0, "start_source": "nwissite", "start_id": "USGS-02423647", "geometry_length_km": 0.17815499528591647 }, "geometry": { "type": "LineString", "coordinates": [ [ -87.041274905, 33.124534994 ], [ -87.041287802, 33.124421798 ], [ -87.040907905, 33.123762093 ], [ -87.040331602, 33.123183399 ] ] } },
{ "type": "Feature", "properties": { "site_no": "02423647", "nhdplus_comid": "21658184", "navigation_mode": "UM", "requested_distance_km": 12.0, "start_source": "nwissite", "start_id": "USGS-02423647", "geometry_length_km": 0.22631113132469596 }, "geometry": { "type": "LineString", "coordinates": [ [ -87.040323004, 33.126235798 ], [ -87.041145705, 33.1256705 ], [ -87.041274905, 33.124534994 ] ] } },
{ "type": "Feature", "properties": { "site_no": "02423647", "nhdplus_comid": "21658182", "navigation_mode": "UM", "requested_distance_km": 12.0, "start_source": "nwissite", "start_id": "USGS-02423647", "geometry_length_km": 1.7012230300659001 }, "geometry": { "type": "LineString", "coordinates": [ [ -87.026669607, 33.131587595 ], [ -87.026289806, 33.130927794 ], [ -87.026611, 33.129441299 ], [ -87.029916301, 33.127055593 ], [ -87.032356106, 33.125609696 ], [ -87.0343813, 33.125138998 ], [ -87.0376883, 33.125398897 ], [ -87.039721705, 33.126188494 ], [ -87.040323004, 33.126235798 ] ] } },
{ "type": "Feature", "properties": { "site_no": "02423647", "nhdplus_comid": "21658170", "navigation_mode": "UM", "requested_distance_km": 12.0, "start_source": "nwissite", "start_id": "USGS-02423647", "geometry_length_km": 0.19844073547775862 }, "geometry": { "type": "LineString", "coordinates": [ [ -87.028033607, 33.1329576 ], [ -87.026669607, 33.131587595 ] ] } },
{ "type": "Feature", "properties": { "site_no": "02423647", "nhdplus_comid": "21658164", "navigation_mode": "UM", "requested_distance_km": 12.0, "start_source": "nwissite", "start_id": "USGS-02423647", "geometry_length_km": 0.96196968242075931 }, "geometry": { "type": "LineString", "coordinates": [ [ -87.028304607, 33.141026795 ], [ -87.0276701, 33.140106998 ], [ -87.027454801, 33.139334194 ], [ -87.027611405, 33.137960799 ], [ -87.0287982, 33.135534495 ], [ -87.028804407, 33.134149194 ], [ -87.028574906, 33.133501194 ], [ -87.028033607, 33.1329576 ] ] } },
{ "type": "Feature", "properties": { "site_no": "02423647", "nhdplus_comid": "21658160", "navigation_mode": "UM", "requested_distance_km": 12.0, "start_source": "nwissite", "start_id": "USGS-02423647", "geometry_length_km": 0.17252573367486218 }, "geometry": { "type": "LineString", "coordinates": [ [ -87.029229701, 33.142367899 ], [ -87.028304607, 33.141026795 ] ] } },
{ "type": "Feature", "properties": { "site_no": "02423647", "nhdplus_comid": "21658156", "navigation_mode": "UM", "requested_distance_km": 12.0, "start_source": "nwissite", "start_id": "USGS-02423647", "geometry_length_km": 0.98587765932480675 }, "geometry": { "type": "LineString", "coordinates": [ [ -87.035926506, 33.148747094 ], [ -87.033187807, 33.147595696 ], [ -87.032234907, 33.1466389 ], [ -87.031081006, 33.144784495 ], [ -87.029189505, 33.142746098 ], [ -87.029232301, 33.142371498 ], [ -87.029229701, 33.142367899 ] ] } },
{ "type": "Feature", "properties": { "site_no": "02423647", "nhdplus_comid": "21658148", "navigation_mode": "UM", "requested_distance_km": 12.0, "start_source": "nwissite", "start_id": "USGS-02423647", "geometry_length_km": 0.37362899136468058 }, "geometry": { "type": "LineString", "coordinates": [ [ -87.039412007, 33.150190897 ], [ -87.039017402, 33.149691299 ], [ -87.037241504, 33.149299897 ], [ -87.035926506, 33.148747094 ] ] } },
{ "type": "Feature", "properties": { "site_no": "02423647", "nhdplus_comid": "21658146", "navigation_mode": "UM", "requested_distance_km": 12.0, "start_source": "nwissite", "start_id": "USGS-02423647", "geometry_length_km": 0.22546786959680748 }, "geometry": { "type": "LineString", "coordinates": [ [ -87.040114805, 33.152045093 ], [ -87.040078104, 33.1510344 ], [ -87.039412007, 33.150190897 ] ] } },
{ "type": "Feature", "properties": { "site_no": "02423647", "nhdplus_comid": "21658142", "navigation_mode": "UM", "requested_distance_km": 12.0, "start_source": "nwissite", "start_id": "USGS-02423647", "geometry_length_km": 0.083571532819617544 }, "geometry": { "type": "LineString", "coordinates": [ [ -87.039637402, 33.152680196 ], [ -87.040114805, 33.152045093 ] ] } },
{ "type": "Feature", "properties": { "site_no": "02423647", "nhdplus_comid": "21658140", "navigation_mode": "UM", "requested_distance_km": 12.0, "start_source": "nwissite", "start_id": "USGS-02423647", "geometry_length_km": 0.16515525494643304 }, "geometry": { "type": "LineString", "coordinates": [ [ -87.038471602, 33.153778099 ], [ -87.039220706, 33.153234594 ], [ -87.039637402, 33.152680196 ] ] } },
{ "type": "Feature", "properties": { "site_no": "02423647", "nhdplus_comid": "21658138", "navigation_mode": "UM", "requested_distance_km": 12.0, "start_source": "nwissite", "start_id": "USGS-02423647", "geometry_length_km": 0.13567449301085677 }, "geometry": { "type": "LineString", "coordinates": [ [ -87.037369303, 33.154577799 ], [ -87.038471602, 33.153778099 ] ] } },
{ "type": "Feature", "properties": { "site_no": "02423647", "nhdplus_comid": "21658136", "navigation_mode": "UM", "requested_distance_km": 12.0, "start_source": "nwissite", "start_id": "USGS-02423647", "geometry_length_km": 0.12676438419986627 }, "geometry": { "type": "LineString", "coordinates": [ [ -87.036339402, 33.155324996 ], [ -87.037369303, 33.154577799 ] ] } },
{ "type": "Feature", "properties": { "site_no": "02423647", "nhdplus_comid": "21658134", "navigation_mode": "UM", "requested_distance_km": 12.0, "start_source": "nwissite", "start_id": "USGS-02423647", "geometry_length_km": 0.1381297601502314 }, "geometry": { "type": "LineString", "coordinates": [ [ -87.035603203, 33.156393595 ], [ -87.036243707, 33.155394398 ], [ -87.036339402, 33.155324996 ] ] } },
{ "type": "Feature", "properties": { "site_no": "02423647", "nhdplus_comid": "21658132", "navigation_mode": "UM", "requested_distance_km": 12.0, "start_source": "nwissite", "start_id": "USGS-02423647", "geometry_length_km": 0.12049628750815165 }, "geometry": { "type": "LineString", "coordinates": [ [ -87.035102502, 33.157385498 ], [ -87.035321102, 33.156833597 ], [ -87.035603203, 33.156393595 ] ] } },
{ "type": "Feature", "properties": { "site_no": "02423647", "nhdplus_comid": "21658130", "navigation_mode": "UM", "requested_distance_km": 12.0, "start_source": "nwissite", "start_id": "USGS-02423647", "geometry_length_km": 0.15382677455937221 }, "geometry": { "type": "LineString", "coordinates": [ [ -87.034583807, 33.158694498 ], [ -87.035102502, 33.157385498 ] ] } },
{ "type": "Feature", "properties": { "site_no": "02423647", "nhdplus_comid": "21658128", "navigation_mode": "UM", "requested_distance_km": 12.0, "start_source": "nwissite", "start_id": "USGS-02423647", "geometry_length_km": 3.9063919507494202 }, "geometry": { "type": "LineString", "coordinates": [ [ -87.024480104, 33.180042796 ], [ -87.026992805, 33.177972794 ], [ -87.027887307, 33.176783398 ], [ -87.0280075, 33.174399294 ], [ -87.028336801, 33.174173295 ], [ -87.028930403, 33.172960199 ], [ -87.029782206, 33.1721453 ], [ -87.030166604, 33.168774195 ], [ -87.029347904, 33.165308498 ], [ -87.029167205, 33.162900798 ], [ -87.028092302, 33.161682494 ], [ -87.025735103, 33.159733497 ], [ -87.025613204, 33.159471996 ], [ -87.025906004, 33.1582352 ], [ -87.027237207, 33.157206096 ], [ -87.028891407, 33.157336198 ], [ -87.029844403, 33.158292897 ], [ -87.030167401, 33.159452096 ], [ -87.030848101, 33.1601355 ], [ -87.031270802, 33.160420597 ], [ -87.032774702, 33.1605388 ], [ -87.034256205, 33.159521393 ], [ -87.034583807, 33.158694498 ] ] } }
]
}
