{
"type": "FeatureCollection",
"name": "USGS_02457700_UM_12km",
"crs": { "type": "name", "properties": { "name": "urn:ogc:def:crs:OGC:1.3:CRS84" } },
"features": [
{ "type": "Feature", "properties": { "site_no": "02457700", "nhdplus_comid": "18565921", "navigation_mode": "UM", "requested_distance_km": 12.0, "start_source": "nwissite", "start_id": "USGS-02457700", "geometry_length_km": 4.6044447084121272 }, "geometry": { "type": "LineString", "coordinates": [ [ -86.947805502, 33.6517924 ], [ -86.9495316, 33.652112193 ], [ -86.950846806, 33.652523696 ], [ -86.951449804, 33.652912796 ], [ -86.951916002, 33.653485298 ], [ -86.9521081, 33.653851695 ], [ -86.952108905, 33.654745199 ], [ -86.951780602, 33.655272298 ], [ -86.949946702, 33.656831294 ], [ -86.949755102, 33.6571064 ], [ -86.949782901, 33.6575187 ], [ -86.950057201, 33.657953799 ], [ -86.950523302, 33.658342995 ], [ -86.951372907, 33.658823594 ], [ -86.952277206, 33.659120798 ], [ -86.952743001, 33.659189299 ], [ -86.953893602, 33.659073994 ], [ -86.956413403, 33.658430994 ], [ -86.957864702, 33.657765694 ], [ -86.958549105, 33.657306999 ], [ -86.963092901, 33.653592594 ], [ -86.963421606, 33.653500699 ], [ -86.964572303, 33.653706096 ], [ -86.965147905, 33.654003493 ], [ -86.965614304, 33.654644594 ], [ -86.965615004, 33.655308999 ], [ -86.965478607, 33.655790195 ], [ -86.965095706, 33.656454794 ], [ -86.964630507, 33.656936198 ], [ -86.959703401, 33.661040597 ], [ -86.959539607, 33.661613397 ], [ -86.959622204, 33.662071496 ], [ -86.959951602, 33.662666999 ], [ -86.961323105, 33.664269798 ], [ -86.9615153, 33.664590299 ], [ -86.962118603, 33.665231496 ], [ -86.962201104, 33.665529199 ], [ -86.9620919, 33.665895797 ], [ -86.961873107, 33.666239597 ], [ -86.961489804, 33.666537695 ], [ -86.9607777, 33.666858993 ], [ -86.959611079, 33.667281735 ] ] } }
]
}
