{
"type": "FeatureCollection",
"name": "USGS_02413475_UM_12km",
"crs": { "type": "name", "properties": { "name": "urn:ogc:def:crs:OGC:1.3:CRS84" } },
"features": [
{ "type": "Feature", "properties": { "site_no": "02413475", "nhdplus_comid": "15812117", "navigation_mode": "UM", "requested_distance_km": 12.0, "start_source": "nwissite", "start_id": "USGS-02413475", "geometry_length_km": 0.97350938240678564 }, "geometry": { "type": "LineString", "coordinates": [ [ -85.476062305, 33.320856594 ], [ -85.476472005, 33.321337298 ], [ -85.476990603, 33.321520098 ], [ -85.477891207, 33.321771294 ], [ -85.479584403, 33.323167093 ], [ -85.479994603, 33.324037194 ], [ -85.481169201, 33.325250193 ], [ -85.481633402, 33.325547598 ], [ -85.482561007, 33.325500995 ], [ -85.483379506, 33.325385794 ], [ -85.483937936, 33.325338412 ] ] } },
{ "type": "Feature", "properties": { "site_no": "02413475", "nhdplus_comid": "15811991", "navigation_mode": "UM", "requested_distance_km": 12.0, "start_source": "nwissite", "start_id": "USGS-02413475", "geometry_length_km": 0.85278597076611162 }, "geometry": { "type": "LineString", "coordinates": [ [ -85.480231106, 33.316272199 ], [ -85.4800677, 33.3165472 ], [ -85.479604207, 33.316799596 ], [ -85.478922404, 33.316914596 ], [ -85.4778312, 33.316961296 ], [ -85.4771768, 33.317328393 ], [ -85.475622304, 33.317741796 ], [ -85.475431502, 33.317902394 ], [ -85.475923106, 33.318451695 ], [ -85.475651503, 33.319482595 ], [ -85.475979902, 33.320398495 ], [ -85.476062305, 33.320856594 ] ] } },
{ "type": "Feature", "properties": { "site_no": "02413475", "nhdplus_comid": "15812167", "navigation_mode": "UM", "requested_distance_km": 12.0, "start_source": "nwissite", "start_id": "USGS-02413475", "geometry_length_km": 0.31197476900031956 }, "geometry": { "type": "LineString", "coordinates": [ [ -85.481077805, 33.313843593 ], [ -85.4813786, 33.3150068 ], [ -85.480258606, 33.316113494 ], [ -85.480231106, 33.316272199 ] ] } },
{ "type": "Feature", "properties": { "site_no": "02413475", "nhdplus_comid": "15812169", "navigation_mode": "UM", "requested_distance_km": 12.0, "start_source": "nwissite", "start_id": "USGS-02413475", "geometry_length_km": 0.1680963948564772 }, "geometry": { "type": "LineString", "coordinates": [ [ -85.4794368, 33.313684493 ], [ -85.479608707, 33.313523196 ], [ -85.479757406, 33.313469693 ], [ -85.481077805, 33.313843593 ] ] } },
{ "type": "Feature", "properties": { "site_no": "02413475", "nhdplus_comid": "15812023", "navigation_mode": "UM", "requested_distance_km": 12.0, "start_source": "nwissite", "start_id": "USGS-02413475", "geometry_length_km": 5.4708394815785457 }, "geometry": { "type": "LineString", "coordinates": [ [ -85.457793303, 33.302751996 ], [ -85.460086405, 33.304720193 ], [ -85.460086703, 33.305017993 ], [ -85.458013907, 33.305362999 ], [ -85.457495801, 33.305523694 ], [ -85.457196206, 33.305936195 ], [ -85.457223803, 33.306348495 ], [ -85.457333103, 33.306577496 ], [ -85.457715407, 33.306989498 ], [ -85.457688406, 33.307310097 ], [ -85.457470506, 33.3076538 ], [ -85.457416303, 33.308066197 ], [ -85.460145406, 33.309346996 ], [ -85.460690804, 33.309186295 ], [ -85.461454302, 33.3088651 ], [ -85.462681502, 33.3085436 ], [ -85.463908702, 33.308130495 ], [ -85.464481004, 33.307626098 ], [ -85.465626404, 33.307350494 ], [ -85.466935605, 33.307166293 ], [ -85.467835501, 33.306867898 ], [ -85.468707703, 33.306134298 ], [ -85.469307005, 33.305469595 ], [ -85.472415306, 33.304138795 ], [ -85.474051602, 33.303725198 ], [ -85.4743516, 33.303747796 ], [ -85.474706501, 33.303907894 ], [ -85.474952407, 33.304365799 ], [ -85.474898405, 33.304732293 ], [ -85.473536901, 33.307023995 ], [ -85.472529002, 33.308215797 ], [ -85.4719567, 33.308788799 ], [ -85.471411802, 33.309476398 ], [ -85.471140303, 33.310598895 ], [ -85.470922202, 33.310782395 ], [ -85.470240407, 33.310989 ], [ -85.466666907, 33.311037496 ], [ -85.466776602, 33.311632894 ], [ -85.466586106, 33.312045299 ], [ -85.4666958, 33.312640794 ], [ -85.467323802, 33.313189998 ], [ -85.467624001, 33.313304298 ], [ -85.469042704, 33.3134178 ], [ -85.469670303, 33.3136006 ], [ -85.470352806, 33.313966595 ], [ -85.470762305, 33.314332798 ], [ -85.471281007, 33.314630099 ], [ -85.472863905, 33.315247297 ], [ -85.473655, 33.315155096 ], [ -85.477145903, 33.314213298 ], [ -85.478673406, 33.314051799 ], [ -85.4794368, 33.313684493 ] ] } },
{ "type": "Feature", "properties": { "site_no": "02413475", "nhdplus_comid": "15812035", "navigation_mode": "UM", "requested_distance_km": 12.0, "start_source": "nwissite", "start_id": "USGS-02413475", "geometry_length_km": 1.7805970714883059 }, "geometry": { "type": "LineString", "coordinates": [ [ -85.447776407, 33.295245297 ], [ -85.448049404, 33.295382597 ], [ -85.448131405, 33.295611598 ], [ -85.448377006, 33.295817599 ], [ -85.449877404, 33.296114497 ], [ -85.450559601, 33.296480596 ], [ -85.451678701, 33.2974419 ], [ -85.451678902, 33.297670893 ], [ -85.450724505, 33.298015095 ], [ -85.450506605, 33.298267193 ], [ -85.450561702, 33.299000099 ], [ -85.450725801, 33.299549699 ], [ -85.450863004, 33.300603293 ], [ -85.450999603, 33.300763495 ], [ -85.451326802, 33.300740398 ], [ -85.451790102, 33.300144598 ], [ -85.451926604, 33.300281897 ], [ -85.451981403, 33.300579697 ], [ -85.451654501, 33.301083796 ], [ -85.451763906, 33.301495999 ], [ -85.452582203, 33.301358096 ], [ -85.453509606, 33.3013805 ], [ -85.454000503, 33.301334396 ], [ -85.454327904, 33.301494494 ], [ -85.454928502, 33.301952094 ], [ -85.455446802, 33.302112199 ], [ -85.455856301, 33.302478299 ], [ -85.456838302, 33.3025693 ], [ -85.457302302, 33.302706495 ], [ -85.457793303, 33.302751996 ] ] } },
{ "type": "Feature", "properties": { "site_no": "02413475", "nhdplus_comid": "15812033", "navigation_mode": "UM", "requested_distance_km": 12.0, "start_source": "nwissite", "start_id": "USGS-02413475", "geometry_length_km": 0.21088672469326067 }, "geometry": { "type": "LineString", "coordinates": [ [ -85.4457312, 33.2956817 ], [ -85.445812903, 33.2955442 ], [ -85.446958505, 33.295635097 ], [ -85.447776407, 33.295245297 ] ] } },
{ "type": "Feature", "properties": { "site_no": "02413475", "nhdplus_comid": "15812031", "navigation_mode": "UM", "requested_distance_km": 12.0, "start_source": "nwissite", "start_id": "USGS-02413475", "geometry_length_km": 6.3193786771257257 }, "geometry": { "type": "LineString", "coordinates": [ [ -85.420972504, 33.308931999 ], [ -85.422064006, 33.309572898 ], [ -85.423128106, 33.310122199 ], [ -85.424929507, 33.311793596 ], [ -85.4255023, 33.311747499 ], [ -85.425638601, 33.311632894 ], [ -85.425747603, 33.311289296 ], [ -85.425474204, 33.310098395 ], [ -85.424928106, 33.309159495 ], [ -85.423317805, 33.307579793 ], [ -85.423099406, 33.3071905 ], [ -85.423153602, 33.306571998 ], [ -85.423344404, 33.306274094 ], [ -85.424517006, 33.305792697 ], [ -85.425689802, 33.305563197 ], [ -85.426153407, 33.305333897 ], [ -85.426589802, 33.305035993 ], [ -85.427135102, 33.304829597 ], [ -85.4273258, 33.304394297 ], [ -85.427598402, 33.304119393 ], [ -85.427898407, 33.303958997 ], [ -85.428771302, 33.303866893 ], [ -85.429889902, 33.304301694 ], [ -85.430435605, 33.304690793 ], [ -85.433601804, 33.307689898 ], [ -85.4340114, 33.308353998 ], [ -85.434257001, 33.308559999 ], [ -85.4346117, 33.308559895 ], [ -85.434720807, 33.308513999 ], [ -85.435074702, 33.307437293 ], [ -85.435019903, 33.307047993 ], [ -85.433381706, 33.304895595 ], [ -85.433354102, 33.304277197 ], [ -85.433898702, 33.302925594 ], [ -85.433843903, 33.302513294 ], [ -85.432151005, 33.299765594 ], [ -85.432014406, 33.2993991 ], [ -85.431741305, 33.298918195 ], [ -85.431031905, 33.2984147 ], [ -85.430868104, 33.2981399 ], [ -85.430840507, 33.297658898 ], [ -85.431167305, 33.296902895 ], [ -85.431630604, 33.296307199 ], [ -85.4320397, 33.296284094 ], [ -85.432776503, 33.2968335 ], [ -85.434577003, 33.297451094 ], [ -85.436923504, 33.298595197 ], [ -85.438424006, 33.299189895 ], [ -85.441370904, 33.300585695 ], [ -85.442953601, 33.301478095 ], [ -85.443663202, 33.302027397 ], [ -85.444399707, 33.302004099 ], [ -85.444917701, 33.301774696 ], [ -85.445245005, 33.301522598 ], [ -85.4461447, 33.301041193 ], [ -85.446444504, 33.300789095 ], [ -85.446415201, 33.2982466 ], [ -85.445732206, 33.296964295 ], [ -85.4457312, 33.2956817 ] ] } }
]
}
