{
"type": "FeatureCollection",
"name": "USGS_02400000_DM_12km",
"crs": { "type": "name", "properties": { "name": "urn:ogc:def:crs:OGC:1.3:CRS84" } },
"features": [
{ "type": "Feature", "properties": { "site_no": "02400000", "nhdplus_comid": "15824321", "navigation_mode": "DM", "requested_distance_km": 12.0, "start_source": "comid_position_fallback", "start_id": "15824321", "geometry_length_km": 0.61711059570803151 }, "geometry": { "type": "LineString", "coordinates": [ [ -85.574906401, 33.956760697 ], [ -85.575620502, 33.957402393 ], [ -85.576307602, 33.957425594 ], [ -85.577160001, 33.956922099 ], [ -85.577572301, 33.956876494 ], [ -85.577902101, 33.957014099 ], [ -85.579083204, 33.958205499 ], [ -85.579989806, 33.958938897 ] ] } },
{ "type": "Feature", "properties": { "site_no": "02400000", "nhdplus_comid": "15824309", "navigation_mode": "DM", "requested_distance_km": 12.0, "start_source": "comid_position_fallback", "start_id": "15824321", "geometry_length_km": 1.0100125190559568 }, "geometry": { "type": "LineString", "coordinates": [ [ -85.579989806, 33.958938897 ], [ -85.5799895, 33.9592136 ], [ -85.581885107, 33.961069696 ], [ -85.582626507, 33.962192297 ], [ -85.585263707, 33.965124995 ], [ -85.585318603, 33.965285398 ], [ -85.586142704, 33.966339193 ] ] } },
{ "type": "Feature", "properties": { "site_no": "02400000", "nhdplus_comid": "15824277", "navigation_mode": "DM", "requested_distance_km": 12.0, "start_source": "comid_position_fallback", "start_id": "15824321", "geometry_length_km": 0.53864870691524669 }, "geometry": { "type": "LineString", "coordinates": [ [ -85.586142704, 33.966339193 ], [ -85.5860596, 33.967369795 ], [ -85.586389303, 33.967782296 ], [ -85.588010505, 33.968859397 ], [ -85.588505305, 33.968996994 ], [ -85.589907303, 33.969066195 ] ] } },
{ "type": "Feature", "properties": { "site_no": "02400000", "nhdplus_comid": "15824263", "navigation_mode": "DM", "requested_distance_km": 12.0, "start_source": "comid_position_fallback", "start_id": "15824321", "geometry_length_km": 0.28450745781883063 }, "geometry": { "type": "LineString", "coordinates": [ [ -85.589907303, 33.969066195 ], [ -85.591089301, 33.969181098 ], [ -85.592353307, 33.9700519 ], [ -85.592600606, 33.970120594 ] ] } },
{ "type": "Feature", "properties": { "site_no": "02400000", "nhdplus_comid": "15824245", "navigation_mode": "DM", "requested_distance_km": 12.0, "start_source": "comid_position_fallback", "start_id": "15824321", "geometry_length_km": 0.44205174501050898 }, "geometry": { "type": "LineString", "coordinates": [ [ -85.592600606, 33.970120594 ], [ -85.592628002, 33.970349699 ], [ -85.593589805, 33.971105799 ], [ -85.594167002, 33.971403696 ], [ -85.595046706, 33.971495695 ], [ -85.596118502, 33.972022697 ], [ -85.596503302, 33.972068697 ] ] } },
{ "type": "Feature", "properties": { "site_no": "02400000", "nhdplus_comid": "15824233", "navigation_mode": "DM", "requested_distance_km": 12.0, "start_source": "comid_position_fallback", "start_id": "15824321", "geometry_length_km": 0.48709079607542599 }, "geometry": { "type": "LineString", "coordinates": [ [ -85.596503302, 33.972068697 ], [ -85.596200302, 33.9736261 ], [ -85.596529804, 33.974588193 ], [ -85.595897101, 33.975458294 ], [ -85.596254304, 33.975778997 ], [ -85.596611604, 33.975939393 ] ] } },
{ "type": "Feature", "properties": { "site_no": "02400000", "nhdplus_comid": "15824223", "navigation_mode": "DM", "requested_distance_km": 12.0, "start_source": "comid_position_fallback", "start_id": "15824321", "geometry_length_km": 0.29178145247148485 }, "geometry": { "type": "LineString", "coordinates": [ [ -85.596611604, 33.975939393 ], [ -85.597436406, 33.975802295 ], [ -85.598701306, 33.975184299 ], [ -85.599141106, 33.975115597 ], [ -85.599526003, 33.975253195 ] ] } },
{ "type": "Feature", "properties": { "site_no": "02400000", "nhdplus_comid": "15824221", "navigation_mode": "DM", "requested_distance_km": 12.0, "start_source": "comid_position_fallback", "start_id": "15824321", "geometry_length_km": 3.3238449314721628 }, "geometry": { "type": "LineString", "coordinates": [ [ -85.599526003, 33.975253195 ], [ -85.599553101, 33.976054795 ], [ -85.599415503, 33.976352498 ], [ -85.599525303, 33.976925097 ], [ -85.600019805, 33.977474995 ], [ -85.601668604, 33.978803799 ], [ -85.601723403, 33.979238994 ], [ -85.601640701, 33.979445197 ], [ -85.601585105, 33.980384193 ], [ -85.601695001, 33.980567396 ], [ -85.602822006, 33.981117398 ], [ -85.603124104, 33.981460996 ], [ -85.603068702, 33.982193895 ], [ -85.602766, 33.982743494 ], [ -85.601692706, 33.984140493 ], [ -85.600344405, 33.985422693 ], [ -85.599986501, 33.9859723 ], [ -85.5989407, 33.987025596 ], [ -85.597564302, 33.988834597 ], [ -85.597234204, 33.988926098 ], [ -85.596986905, 33.988857299 ], [ -85.596299402, 33.988948695 ], [ -85.595941603, 33.989360899 ], [ -85.595968001, 33.990620695 ], [ -85.596297204, 33.991491094 ], [ -85.596433707, 33.992682099 ], [ -85.596708007, 33.9936442 ], [ -85.596982807, 33.993919097 ], [ -85.597147502, 33.9943543 ], [ -85.596926905, 33.995453693 ], [ -85.596486405, 33.996209294 ], [ -85.593487002, 33.999872893 ], [ -85.5933768, 34.000112593 ] ] } },
{ "type": "Feature", "properties": { "site_no": "02400000", "nhdplus_comid": "15822751", "navigation_mode": "DM", "requested_distance_km": 12.0, "start_source": "comid_position_fallback", "start_id": "15824321", "geometry_length_km": 1.2888397549985386 }, "geometry": { "type": "LineString", "coordinates": [ [ -85.5933768, 34.000112593 ], [ -85.592193402, 34.001249798 ], [ -85.591064602, 34.0026237 ], [ -85.589659102, 34.0048908 ], [ -85.589272805, 34.005646497 ], [ -85.588610001, 34.0076847 ], [ -85.588086702, 34.008394495 ], [ -85.586050406, 34.009630695 ] ] } },
{ "type": "Feature", "properties": { "site_no": "02400000", "nhdplus_comid": "15822679", "navigation_mode": "DM", "requested_distance_km": 12.0, "start_source": "comid_position_fallback", "start_id": "15824321", "geometry_length_km": 1.5963120565797255 }, "geometry": { "type": "LineString", "coordinates": [ [ -85.586050406, 34.009630695 ], [ -85.585170202, 34.010134295 ], [ -85.583767407, 34.010568894 ], [ -85.582914606, 34.010912195 ], [ -85.582694404, 34.011232696 ], [ -85.582501501, 34.011988595 ], [ -85.582198702, 34.012538098 ], [ -85.581841007, 34.012858696 ], [ -85.580988206, 34.0132019 ], [ -85.5799978, 34.013453394 ], [ -85.578952506, 34.013911098 ], [ -85.578154504, 34.014552094 ], [ -85.577466406, 34.0155138 ], [ -85.577108204, 34.016750395 ], [ -85.576227002, 34.0186968 ], [ -85.575538702, 34.019795798 ] ] } },
{ "type": "Feature", "properties": { "site_no": "02400000", "nhdplus_comid": "15822613", "navigation_mode": "DM", "requested_distance_km": 12.0, "start_source": "comid_position_fallback", "start_id": "15824321", "geometry_length_km": 1.419898258655649 }, "geometry": { "type": "LineString", "coordinates": [ [ -85.575538702, 34.019795798 ], [ -85.575263202, 34.020505793 ], [ -85.575317703, 34.021421894 ], [ -85.575647406, 34.021994598 ], [ -85.577572607, 34.022499293 ], [ -85.579112604, 34.023141094 ], [ -85.5797178, 34.023026794 ], [ -85.5802681, 34.022637695 ], [ -85.580625705, 34.022683598 ], [ -85.581065707, 34.022889897 ], [ -85.581477903, 34.023577094 ], [ -85.581559502, 34.025180496 ], [ -85.581944302, 34.025936395 ], [ -85.581888705, 34.026966996 ], [ -85.581668004, 34.028249495 ] ] } },
{ "type": "Feature", "properties": { "site_no": "02400000", "nhdplus_comid": "15822635", "navigation_mode": "DM", "requested_distance_km": 12.0, "start_source": "comid_position_fallback", "start_id": "15824321", "geometry_length_km": 1.6900684435875863 }, "geometry": { "type": "LineString", "coordinates": [ [ -85.581668004, 34.028249495 ], [ -85.581777707, 34.028936699 ], [ -85.5819977, 34.029188596 ], [ -85.582437702, 34.029371999 ], [ -85.583262905, 34.029418096 ], [ -85.583675705, 34.029166296 ], [ -85.584391303, 34.028250396 ], [ -85.585245505, 34.025296196 ], [ -85.586374007, 34.023761995 ], [ -85.5868145, 34.0229377 ], [ -85.587366, 34.019868799 ], [ -85.587806702, 34.0184718 ], [ -85.588137001, 34.017784894 ], [ -85.588604704, 34.017441399 ] ] } }
]
}
