{
"type": "FeatureCollection",
"name": "USGS_02456330_DM_12km",
"crs": { "type": "name", "properties": { "name": "urn:ogc:def:crs:OGC:1.3:CRS84" } },
"features": [
{ "type": "Feature", "properties": { "site_no": "02456330", "nhdplus_comid": "18566299", "navigation_mode": "DM", "requested_distance_km": 12.0, "start_source": "nwissite", "start_id": "USGS-02456330", "geometry_length_km": 5.5018470999845359 }, "geometry": { "type": "LineString", "coordinates": [ [ -86.866469378, 33.736556843 ], [ -86.867645502, 33.737425499 ], [ -86.867947206, 33.737562999 ], [ -86.868523106, 33.738021195 ], [ -86.869674802, 33.738410793 ], [ -86.870003805, 33.738662794 ], [ -86.869948901, 33.739075199 ], [ -86.869373001, 33.739579096 ], [ -86.869235903, 33.739876993 ], [ -86.869235903, 33.740128994 ], [ -86.869537607, 33.740289293 ], [ -86.8700037, 33.7401748 ], [ -86.871073201, 33.739281394 ], [ -86.871429704, 33.739258498 ], [ -86.871649005, 33.739327297 ], [ -86.871841006, 33.740426898 ], [ -86.872471601, 33.740999699 ], [ -86.872553803, 33.741297595 ], [ -86.871539101, 33.742145099 ], [ -86.871265002, 33.742694899 ], [ -86.871292301, 33.7432677 ], [ -86.8716214, 33.743542597 ], [ -86.871977903, 33.743496798 ], [ -86.872252107, 33.7432677 ], [ -86.872499004, 33.742671996 ], [ -86.872910306, 33.742305599 ], [ -86.873513602, 33.742397197 ], [ -86.8736232, 33.742649198 ], [ -86.874254003, 33.743428096 ], [ -86.874555603, 33.743519694 ], [ -86.874994405, 33.743519694 ], [ -86.876009002, 33.743542597 ], [ -86.876338102, 33.743794598 ], [ -86.8764752, 33.744092599 ], [ -86.876941405, 33.744527899 ], [ -86.877352707, 33.744802698 ], [ -86.879162803, 33.745329596 ], [ -86.879574105, 33.745696098 ], [ -86.879574105, 33.745948099 ], [ -86.879382201, 33.746360496 ], [ -86.879272506, 33.746704198 ], [ -86.879272506, 33.7470707 ], [ -86.879738703, 33.747437298 ], [ -86.8803147, 33.747757994 ], [ -86.882344, 33.747895397 ], [ -86.882673107, 33.748124495 ], [ -86.882673204, 33.748330593 ], [ -86.8821522, 33.748765998 ], [ -86.882069901, 33.748926297 ], [ -86.882124804, 33.749567695 ], [ -86.882261902, 33.749888398 ], [ -86.882481404, 33.7500946 ], [ -86.883497402, 33.750975095 ], [ -86.884073406, 33.751662195 ], [ -86.885143101, 33.752647199 ], [ -86.885774106, 33.753426194 ], [ -86.885883704, 33.753792696 ], [ -86.886322707, 33.754342496 ], [ -86.886816405, 33.754617393 ], [ -86.888297305, 33.754273593 ], [ -86.888818502, 33.754250593 ], [ -86.889312103, 33.7544339 ], [ -86.889421903, 33.754617095 ], [ -86.889422007, 33.755212799 ], [ -86.889202602, 33.7559231 ], [ -86.889230102, 33.756312497 ], [ -86.889806204, 33.756930999 ], [ -86.889916107, 33.757182993 ], [ -86.889888704, 33.757572398 ], [ -86.889669307, 33.757870294 ], [ -86.8884627, 33.758511797 ], [ -86.888133503, 33.758763894 ], [ -86.888106205, 33.759290799 ], [ -86.888654806, 33.759886399 ], [ -86.889093705, 33.760023795 ], [ -86.889834307, 33.759932093 ], [ -86.8915895, 33.759519495 ], [ -86.895374402, 33.758785896 ], [ -86.896389201, 33.758739896 ] ] } },
{ "type": "Feature", "properties": { "site_no": "02456330", "nhdplus_comid": "18566337", "navigation_mode": "DM", "requested_distance_km": 12.0, "start_source": "nwissite", "start_id": "USGS-02456330", "geometry_length_km": 3.8763455879121156 }, "geometry": { "type": "LineString", "coordinates": [ [ -86.896389201, 33.758739896 ], [ -86.897019304, 33.756334297 ], [ -86.897129007, 33.756036498 ], [ -86.897156306, 33.755647093 ], [ -86.898005605, 33.752164595 ], [ -86.898634501, 33.750092998 ], [ -86.899155304, 33.749061897 ], [ -86.899950303, 33.748076595 ], [ -86.900416501, 33.747847497 ], [ -86.901239201, 33.747916095 ], [ -86.901678003, 33.748099297 ], [ -86.904942207, 33.750091694 ], [ -86.906068005, 33.750834197 ], [ -86.907083102, 33.751635797 ], [ -86.907851405, 33.752574794 ], [ -86.9081534, 33.753399596 ], [ -86.908126205, 33.754063897 ], [ -86.907824807, 33.754774198 ], [ -86.905823402, 33.756721996 ], [ -86.905384906, 33.757294796 ], [ -86.905056104, 33.758188397 ], [ -86.905056506, 33.759150594 ], [ -86.905440703, 33.759975299 ], [ -86.905907206, 33.760547794 ], [ -86.9068674, 33.761257797 ], [ -86.907964803, 33.761761598 ], [ -86.908924706, 33.761692695 ], [ -86.909857206, 33.761394493 ], [ -86.912572101, 33.760271199 ] ] } },
{ "type": "Feature", "properties": { "site_no": "02456330", "nhdplus_comid": "18565557", "navigation_mode": "DM", "requested_distance_km": 12.0, "start_source": "nwissite", "start_id": "USGS-02456330", "geometry_length_km": 0.3547530428025138 }, "geometry": { "type": "LineString", "coordinates": [ [ -86.912572101, 33.760271199 ], [ -86.912709102, 33.760133699 ], [ -86.913641505, 33.759698197 ], [ -86.914765701, 33.759033397 ], [ -86.915369004, 33.758529194 ], [ -86.915478505, 33.7582772 ] ] } },
{ "type": "Feature", "properties": { "site_no": "02456330", "nhdplus_comid": "18566301", "navigation_mode": "DM", "requested_distance_km": 12.0, "start_source": "nwissite", "start_id": "USGS-02456330", "geometry_length_km": 2.5310452622212818 }, "geometry": { "type": "LineString", "coordinates": [ [ -86.915478505, 33.7582772 ], [ -86.9155882, 33.758254297 ], [ -86.916054204, 33.7578189 ], [ -86.921590604, 33.750875294 ], [ -86.921480604, 33.7503943 ], [ -86.9213695, 33.750109799 ], [ -86.921067506, 33.749353893 ], [ -86.919969603, 33.747498699 ], [ -86.919503003, 33.746811494 ], [ -86.918212801, 33.744406395 ], [ -86.917938404, 33.744039997 ], [ -86.917910904, 33.743879698 ], [ -86.917362005, 33.743055098 ], [ -86.917224802, 33.742711499 ], [ -86.917141803, 33.741153598 ], [ -86.917251006, 33.740283094 ], [ -86.917880602, 33.738060698 ] ] } }
]
}
