{
"type": "FeatureCollection",
"name": "USGS_02449500_DM_12km",
"crs": { "type": "name", "properties": { "name": "urn:ogc:def:crs:OGC:1.3:CRS84" } },
"features": [
{ "type": "Feature", "properties": { "site_no": "02449500", "nhdplus_comid": "18634132", "navigation_mode": "DM", "requested_distance_km": 12.0, "start_source": "nwissite", "start_id": "USGS-02449500", "geometry_length_km": 1.1067677802720564 }, "geometry": { "type": "LineString", "coordinates": [ [ -88.114540112, 32.694675422 ], [ -88.114499107, 32.694619 ], [ -88.111331001, 32.691628098 ], [ -88.108500004, 32.6897939 ], [ -88.105469607, 32.688449599 ] ] } },
{ "type": "Feature", "properties": { "site_no": "02449500", "nhdplus_comid": "18634140", "navigation_mode": "DM", "requested_distance_km": 12.0, "start_source": "nwissite", "start_id": "USGS-02449500", "geometry_length_km": 1.0426757385059466 }, "geometry": { "type": "LineString", "coordinates": [ [ -88.105469607, 32.688449599 ], [ -88.101129904, 32.686636195 ], [ -88.096890301, 32.685333394 ], [ -88.095306806, 32.684593298 ] ] } },
{ "type": "Feature", "properties": { "site_no": "02449500", "nhdplus_comid": "18634142", "navigation_mode": "DM", "requested_distance_km": 12.0, "start_source": "nwissite", "start_id": "USGS-02449500", "geometry_length_km": 2.3952156564088858 }, "geometry": { "type": "LineString", "coordinates": [ [ -88.095306806, 32.684593298 ], [ -88.094271801, 32.684395194 ], [ -88.0928379, 32.683665596 ], [ -88.085930005, 32.683435693 ], [ -88.081403606, 32.6834976 ], [ -88.080929801, 32.683716394 ], [ -88.080181606, 32.683664195 ], [ -88.076802306, 32.684309795 ], [ -88.070498303, 32.6863252 ] ] } },
{ "type": "Feature", "properties": { "site_no": "02449500", "nhdplus_comid": "18634130", "navigation_mode": "DM", "requested_distance_km": 12.0, "start_source": "nwissite", "start_id": "USGS-02449500", "geometry_length_km": 1.7026921395780152 }, "geometry": { "type": "LineString", "coordinates": [ [ -88.070498303, 32.6863252 ], [ -88.069930807, 32.686726399 ], [ -88.066588201, 32.688507795 ], [ -88.063782007, 32.689444996 ], [ -88.062559903, 32.689611398 ], [ -88.060052902, 32.690569393 ], [ -88.057769902, 32.6922988 ], [ -88.056185007, 32.694580793 ], [ -88.056159906, 32.694830894 ] ] } },
{ "type": "Feature", "properties": { "site_no": "02449500", "nhdplus_comid": "18634122", "navigation_mode": "DM", "requested_distance_km": 12.0, "start_source": "nwissite", "start_id": "USGS-02449500", "geometry_length_km": 1.7392101798599637 }, "geometry": { "type": "LineString", "coordinates": [ [ -88.056159906, 32.694830894 ], [ -88.0558355, 32.695060097 ], [ -88.055261202, 32.696279295 ], [ -88.053801507, 32.697310597 ], [ -88.052442104, 32.697341293 ], [ -88.0517314, 32.696913697 ], [ -88.049686603, 32.696266696 ], [ -88.046544902, 32.694535099 ], [ -88.045659602, 32.694347098 ], [ -88.041621402, 32.691041097 ] ] } },
{ "type": "Feature", "properties": { "site_no": "02449500", "nhdplus_comid": "18634128", "navigation_mode": "DM", "requested_distance_km": 12.0, "start_source": "nwissite", "start_id": "USGS-02449500", "geometry_length_km": 0.24816892728307055 }, "geometry": { "type": "LineString", "coordinates": [ [ -88.041621402, 32.691041097 ], [ -88.040687002, 32.689841993 ], [ -88.040463105, 32.689070597 ] ] } },
{ "type": "Feature", "properties": { "site_no": "02449500", "nhdplus_comid": "18634148", "navigation_mode": "DM", "requested_distance_km": 12.0, "start_source": "nwissite", "start_id": "USGS-02449500", "geometry_length_km": 2.7046173385292196 }, "geometry": { "type": "LineString", "coordinates": [ [ -88.040463105, 32.689070597 ], [ -88.041075304, 32.6874763 ], [ -88.0425978, 32.685819797 ], [ -88.046328001, 32.683184594 ], [ -88.049346507, 32.681632899 ], [ -88.056992903, 32.675997198 ], [ -88.058078505, 32.674183995 ], [ -88.058516406, 32.671317793 ] ] } },
{ "type": "Feature", "properties": { "site_no": "02449500", "nhdplus_comid": "18634154", "navigation_mode": "DM", "requested_distance_km": 12.0, "start_source": "nwissite", "start_id": "USGS-02449500", "geometry_length_km": 2.8751716844445512 }, "geometry": { "type": "LineString", "coordinates": [ [ -88.058516406, 32.671317793 ], [ -88.058242202, 32.671046697 ], [ -88.0581678, 32.670285799 ], [ -88.057669707, 32.669243298 ], [ -88.053421706, 32.663529798 ], [ -88.052712202, 32.6615908 ], [ -88.052563503, 32.660068996 ], [ -88.052864403, 32.657067195 ], [ -88.054437906, 32.651887394 ], [ -88.054777205, 32.646998897 ] ] } }
]
}
