{
"type": "FeatureCollection",
"name": "USGS_03591570_UM_12km",
"crs": { "type": "name", "properties": { "name": "urn:ogc:def:crs:OGC:1.3:CRS84" } },
"features": [
{ "type": "Feature", "properties": { "site_no": "03591570", "nhdplus_comid": "19569114", "navigation_mode": "UM", "requested_distance_km": 12.0, "start_source": "nwissite", "start_id": "USGS-03591570", "geometry_length_km": 0.042056570983299187 }, "geometry": { "type": "LineString", "coordinates": [ [ -87.579053901, 34.327142298 ], [ -87.579478936, 34.326997364 ] ] } },
{ "type": "Feature", "properties": { "site_no": "03591570", "nhdplus_comid": "19569014", "navigation_mode": "UM", "requested_distance_km": 12.0, "start_source": "nwissite", "start_id": "USGS-03591570", "geometry_length_km": 3.4837580075040249 }, "geometry": { "type": "LineString", "coordinates": [ [ -87.555247106, 34.335561 ], [ -87.556268804, 34.335698895 ], [ -87.557318501, 34.335103996 ], [ -87.557539605, 34.334829196 ], [ -87.557678007, 34.334439896 ], [ -87.558258004, 34.334142394 ], [ -87.5585621, 34.333890595 ], [ -87.558672607, 34.333661593 ], [ -87.559335701, 34.333180897 ], [ -87.5598884, 34.332448095 ], [ -87.560579002, 34.331967399 ], [ -87.560883202, 34.331394896 ], [ -87.561712004, 34.330845594 ], [ -87.561712205, 34.330524899 ], [ -87.561491504, 34.3303416 ], [ -87.558979705, 34.329149097 ], [ -87.558621004, 34.328782499 ], [ -87.558566205, 34.328392997 ], [ -87.558787204, 34.328278698 ], [ -87.559449807, 34.328210294 ], [ -87.561382405, 34.328463197 ], [ -87.562072806, 34.328257397 ], [ -87.562431902, 34.328051396 ], [ -87.562708303, 34.327639297 ], [ -87.565940402, 34.325235598 ], [ -87.566631004, 34.324617498 ], [ -87.567183405, 34.324365698 ], [ -87.568094403, 34.324343294 ], [ -87.569253705, 34.324985199 ], [ -87.569557302, 34.325008199 ], [ -87.571959801, 34.324276194 ], [ -87.572981402, 34.324253798 ], [ -87.5733402, 34.324368395 ], [ -87.574554302, 34.325491294 ], [ -87.574995905, 34.325789295 ], [ -87.575492904, 34.325972699 ], [ -87.577232204, 34.326179594 ], [ -87.578005202, 34.326385997 ], [ -87.579053901, 34.327142298 ] ] } },
{ "type": "Feature", "properties": { "site_no": "03591570", "nhdplus_comid": "19568970", "navigation_mode": "UM", "requested_distance_km": 12.0, "start_source": "nwissite", "start_id": "USGS-03591570", "geometry_length_km": 0.43643539920025315 }, "geometry": { "type": "LineString", "coordinates": [ [ -87.551823601, 34.334917597 ], [ -87.551934205, 34.334734499 ], [ -87.552320905, 34.334551394 ], [ -87.552569404, 34.334597297 ], [ -87.552735001, 34.334734894 ], [ -87.552762002, 34.335467897 ], [ -87.552927703, 34.335559696 ], [ -87.553977102, 34.335468598 ], [ -87.554419003, 34.3353085 ], [ -87.554805607, 34.335331693 ], [ -87.555247203, 34.335492298 ], [ -87.555247106, 34.335561 ] ] } },
{ "type": "Feature", "properties": { "site_no": "03591570", "nhdplus_comid": "19568968", "navigation_mode": "UM", "requested_distance_km": 12.0, "start_source": "nwissite", "start_id": "USGS-03591570", "geometry_length_km": 0.47017933579405186 }, "geometry": { "type": "LineString", "coordinates": [ [ -87.552676506, 34.338743493 ], [ -87.5530634, 34.338468798 ], [ -87.553201705, 34.338125296 ], [ -87.553091705, 34.337529697 ], [ -87.552402407, 34.336269394 ], [ -87.552264802, 34.335788295 ], [ -87.551961303, 34.335329995 ], [ -87.551823601, 34.334917597 ] ] } },
{ "type": "Feature", "properties": { "site_no": "03591570", "nhdplus_comid": "19568946", "navigation_mode": "UM", "requested_distance_km": 12.0, "start_source": "nwissite", "start_id": "USGS-03591570", "geometry_length_km": 2.020877645344084 }, "geometry": { "type": "LineString", "coordinates": [ [ -87.536681801, 34.344711795 ], [ -87.536295503, 34.344344996 ], [ -87.536323801, 34.343772396 ], [ -87.536434405, 34.343612097 ], [ -87.536655501, 34.343497798 ], [ -87.537235506, 34.3433607 ], [ -87.537704803, 34.343475595 ], [ -87.5383121, 34.343773797 ], [ -87.539554, 34.344622195 ], [ -87.540106207, 34.344759993 ], [ -87.540630803, 34.344783299 ], [ -87.541017607, 34.344668999 ], [ -87.541211002, 34.344485894 ], [ -87.541377105, 34.344119497 ], [ -87.541461103, 34.342951298 ], [ -87.541682802, 34.342218399 ], [ -87.542070001, 34.341577299 ], [ -87.543037102, 34.340913594 ], [ -87.543534406, 34.340707794 ], [ -87.546379201, 34.340114094 ], [ -87.548782602, 34.339084797 ], [ -87.5504122, 34.3387651 ], [ -87.552676506, 34.338743493 ] ] } },
{ "type": "Feature", "properties": { "site_no": "03591570", "nhdplus_comid": "19568934", "navigation_mode": "UM", "requested_distance_km": 12.0, "start_source": "nwissite", "start_id": "USGS-03591570", "geometry_length_km": 1.4344103655431066 }, "geometry": { "type": "LineString", "coordinates": [ [ -87.537140004, 34.355890393 ], [ -87.537251003, 34.355340794 ], [ -87.537555002, 34.355157696 ], [ -87.537776202, 34.354905896 ], [ -87.537804201, 34.354539394 ], [ -87.537556201, 34.353920795 ], [ -87.537446506, 34.353210598 ], [ -87.537336305, 34.353004396 ], [ -87.536398202, 34.352064595 ], [ -87.536371, 34.351697996 ], [ -87.536509402, 34.351331599 ], [ -87.537090205, 34.3505532 ], [ -87.5379472, 34.349660397 ], [ -87.538085707, 34.349248193 ], [ -87.538445406, 34.348698698 ], [ -87.5385838, 34.348309398 ], [ -87.538529105, 34.347759597 ], [ -87.538418807, 34.347507596 ], [ -87.538391501, 34.347118095 ], [ -87.538253807, 34.346797295 ], [ -87.537619203, 34.346338794 ], [ -87.537592001, 34.345880598 ], [ -87.537481703, 34.345766097 ], [ -87.537316702, 34.345010094 ], [ -87.537151203, 34.344849497 ], [ -87.536681801, 34.344711795 ] ] } },
{ "type": "Feature", "properties": { "site_no": "03591570", "nhdplus_comid": "19568874", "navigation_mode": "UM", "requested_distance_km": 12.0, "start_source": "nwissite", "start_id": "USGS-03591570", "geometry_length_km": 1.7951573786521344 }, "geometry": { "type": "LineString", "coordinates": [ [ -87.533313401, 34.370272793 ], [ -87.5333689, 34.369929299 ], [ -87.533728406, 34.3695402 ], [ -87.533756301, 34.369311199 ], [ -87.533618301, 34.369173594 ], [ -87.533618607, 34.368944496 ], [ -87.534282103, 34.368349299 ], [ -87.534283303, 34.367318593 ], [ -87.534394205, 34.3669293 ], [ -87.534423001, 34.365783997 ], [ -87.534976706, 34.364593297 ], [ -87.535060003, 34.3642039 ], [ -87.5348671, 34.363837294 ], [ -87.534977704, 34.3634708 ], [ -87.535337403, 34.362967193 ], [ -87.535421006, 34.362257093 ], [ -87.5357529, 34.3617993 ], [ -87.536003001, 34.3604251 ], [ -87.536610901, 34.360150695 ], [ -87.536832102, 34.3599675 ], [ -87.536970705, 34.359371997 ], [ -87.537413105, 34.359074496 ], [ -87.537440903, 34.358868398 ], [ -87.537082203, 34.358432993 ], [ -87.537054807, 34.358295493 ], [ -87.536420003, 34.357836895 ], [ -87.536420502, 34.3572414 ], [ -87.537029102, 34.356302597 ], [ -87.537140004, 34.355890393 ] ] } }
]
}
