{
"type": "FeatureCollection",
"name": "USGS_02376293_UM_12km",
"crs": { "type": "name", "properties": { "name": "urn:ogc:def:crs:OGC:1.3:CRS84" } },
"features": [
{ "type": "Feature", "properties": { "site_no": "02376293", "nhdplus_comid": "2171877", "navigation_mode": "UM", "requested_distance_km": 12.0, "start_source": "nwissite", "start_id": "USGS-02376293", "geometry_length_km": 1.0591739158375266 }, "geometry": { "type": "LineString", "coordinates": [ [ -87.529382005, 30.986781597 ], [ -87.528799601, 30.983824596 ], [ -87.529280201, 30.981968597 ], [ -87.529307805, 30.980868496 ], [ -87.529122002, 30.980478793 ], [ -87.528617106, 30.979997195 ], [ -87.5280056, 30.979629993 ], [ -87.527819805, 30.979286097 ], [ -87.528539203, 30.978003196 ], [ -87.528540613, 30.977988732 ] ] } },
{ "type": "Feature", "properties": { "site_no": "02376293", "nhdplus_comid": "2171015", "navigation_mode": "UM", "requested_distance_km": 12.0, "start_source": "nwissite", "start_id": "USGS-02376293", "geometry_length_km": 0.33921711528428794 }, "geometry": { "type": "LineString", "coordinates": [ [ -87.5302305, 30.989715695 ], [ -87.530151404, 30.988913499 ], [ -87.529753402, 30.987835996 ], [ -87.529753603, 30.987583898 ], [ -87.529382005, 30.986781597 ] ] } },
{ "type": "Feature", "properties": { "site_no": "02376293", "nhdplus_comid": "2171011", "navigation_mode": "UM", "requested_distance_km": 12.0, "start_source": "nwissite", "start_id": "USGS-02376293", "geometry_length_km": 1.1437380040427592 }, "geometry": { "type": "LineString", "coordinates": [ [ -87.5343187, 30.999252595 ], [ -87.533442907, 30.996868499 ], [ -87.533177204, 30.996364094 ], [ -87.532567106, 30.994507395 ], [ -87.532434903, 30.9935904 ], [ -87.532116704, 30.992490098 ], [ -87.531558804, 30.991664596 ], [ -87.530708306, 30.990816094 ], [ -87.5302305, 30.989715695 ] ] } },
{ "type": "Feature", "properties": { "site_no": "02376293", "nhdplus_comid": "2172299", "navigation_mode": "UM", "requested_distance_km": 12.0, "start_source": "nwissite", "start_id": "USGS-02376293", "geometry_length_km": 0.074677001057379247 }, "geometry": { "type": "LineString", "coordinates": [ [ -87.534294903, 30.999923795 ], [ -87.5343187, 30.999252595 ] ] } },
{ "type": "Feature", "properties": { "site_no": "02376293", "nhdplus_comid": "2172297", "navigation_mode": "UM", "requested_distance_km": 12.0, "start_source": "nwissite", "start_id": "USGS-02376293", "geometry_length_km": 0.030262069449373121 }, "geometry": { "type": "LineString", "coordinates": [ [ -87.534285307, 31.000195794 ], [ -87.534294903, 30.999923795 ] ] } },
{ "type": "Feature", "properties": { "site_no": "02376293", "nhdplus_comid": "2170229", "navigation_mode": "UM", "requested_distance_km": 12.0, "start_source": "nwissite", "start_id": "USGS-02376293", "geometry_length_km": 0.069551773102649969 }, "geometry": { "type": "LineString", "coordinates": [ [ -87.534045301, 31.000786498 ], [ -87.534285307, 31.000195794 ] ] } },
{ "type": "Feature", "properties": { "site_no": "02376293", "nhdplus_comid": "2170209", "navigation_mode": "UM", "requested_distance_km": 12.0, "start_source": "nwissite", "start_id": "USGS-02376293", "geometry_length_km": 0.84665672729724517 }, "geometry": { "type": "LineString", "coordinates": [ [ -87.537524901, 31.007343493 ], [ -87.537391901, 31.007320493 ], [ -87.536966704, 31.006747298 ], [ -87.536701106, 31.006128296 ], [ -87.536621802, 31.005601197 ], [ -87.536542006, 31.005532399 ], [ -87.536516003, 31.004936494 ], [ -87.536383003, 31.004775897 ], [ -87.536197402, 31.004042499 ], [ -87.5359051, 31.003721394 ], [ -87.535613105, 31.002964899 ], [ -87.535134904, 31.002231196 ], [ -87.534762703, 31.001864195 ], [ -87.534284003, 31.001703493 ], [ -87.533965006, 31.0013595 ], [ -87.534045301, 31.000786498 ] ] } },
{ "type": "Feature", "properties": { "site_no": "02376293", "nhdplus_comid": "2170157", "navigation_mode": "UM", "requested_distance_km": 12.0, "start_source": "nwissite", "start_id": "USGS-02376293", "geometry_length_km": 1.4301876418290154 }, "geometry": { "type": "LineString", "coordinates": [ [ -87.5380999, 31.0190093 ], [ -87.5373023, 31.018160693 ], [ -87.5363186, 31.0172434 ], [ -87.536079407, 31.016876496 ], [ -87.536026701, 31.016280599 ], [ -87.536560401, 31.014676698 ], [ -87.536720306, 31.014401793 ], [ -87.537201703, 31.011674896 ], [ -87.538054407, 31.010368995 ], [ -87.5382144, 31.009864993 ], [ -87.538216002, 31.008123197 ], [ -87.537551306, 31.0075498 ], [ -87.537524901, 31.007343493 ] ] } },
{ "type": "Feature", "properties": { "site_no": "02376293", "nhdplus_comid": "2170119", "navigation_mode": "UM", "requested_distance_km": 12.0, "start_source": "nwissite", "start_id": "USGS-02376293", "geometry_length_km": 0.35655245659497942 }, "geometry": { "type": "LineString", "coordinates": [ [ -87.538762502, 31.022103697 ], [ -87.538842604, 31.021805793 ], [ -87.538816907, 31.020774394 ], [ -87.5380999, 31.0190093 ] ] } },
{ "type": "Feature", "properties": { "site_no": "02376293", "nhdplus_comid": "2170113", "navigation_mode": "UM", "requested_distance_km": 12.0, "start_source": "nwissite", "start_id": "USGS-02376293", "geometry_length_km": 0.84022911424875035 }, "geometry": { "type": "LineString", "coordinates": [ [ -87.535589501, 31.028839499 ], [ -87.536388904, 31.027762897 ], [ -87.536815107, 31.0273965 ], [ -87.537480801, 31.026984394 ], [ -87.537800901, 31.026021995 ], [ -87.537935905, 31.023890793 ], [ -87.538602404, 31.022561997 ], [ -87.538762502, 31.022103697 ] ] } },
{ "type": "Feature", "properties": { "site_no": "02376293", "nhdplus_comid": "2170093", "navigation_mode": "UM", "requested_distance_km": 12.0, "start_source": "nwissite", "start_id": "USGS-02376293", "geometry_length_km": 0.38266147431274555 }, "geometry": { "type": "LineString", "coordinates": [ [ -87.534947701, 31.0321621 ], [ -87.535294205, 31.031566396 ], [ -87.535321601, 31.030855998 ], [ -87.535241902, 31.030695595 ], [ -87.535322607, 31.029641397 ], [ -87.535589501, 31.028839499 ] ] } },
{ "type": "Feature", "properties": { "site_no": "02376293", "nhdplus_comid": "2170075", "navigation_mode": "UM", "requested_distance_km": 12.0, "start_source": "nwissite", "start_id": "USGS-02376293", "geometry_length_km": 0.43225803211604996 }, "geometry": { "type": "LineString", "coordinates": [ [ -87.533134602, 31.0356673 ], [ -87.533560805, 31.035255097 ], [ -87.533854105, 31.034705296 ], [ -87.534814604, 31.032253593 ], [ -87.534947701, 31.0321621 ] ] } },
{ "type": "Feature", "properties": { "site_no": "02376293", "nhdplus_comid": "2170059", "navigation_mode": "UM", "requested_distance_km": 12.0, "start_source": "nwissite", "start_id": "USGS-02376293", "geometry_length_km": 0.52754454888107216 }, "geometry": { "type": "LineString", "coordinates": [ [ -87.5308422, 31.0392868 ], [ -87.531188302, 31.039218195 ], [ -87.531295002, 31.038943298 ], [ -87.532440007, 31.038485698 ], [ -87.532706805, 31.037844196 ], [ -87.532787301, 31.037110895 ], [ -87.532628104, 31.036537893 ], [ -87.532628402, 31.036171198 ], [ -87.532868303, 31.035781696 ], [ -87.533134602, 31.0356673 ] ] } },
{ "type": "Feature", "properties": { "site_no": "02376293", "nhdplus_comid": "2170047", "navigation_mode": "UM", "requested_distance_km": 12.0, "start_source": "nwissite", "start_id": "USGS-02376293", "geometry_length_km": 1.0397487312288207 }, "geometry": { "type": "LineString", "coordinates": [ [ -87.5208055, 31.041410394 ], [ -87.521657705, 31.040975697 ], [ -87.522935502, 31.040655896 ], [ -87.524000503, 31.040450498 ], [ -87.527487107, 31.040659398 ], [ -87.527859904, 31.040567994 ], [ -87.529324904, 31.039445996 ], [ -87.529964104, 31.039148599 ], [ -87.530549601, 31.039126098 ], [ -87.5308422, 31.0392868 ] ] } },
{ "type": "Feature", "properties": { "site_no": "02376293", "nhdplus_comid": "2170043", "navigation_mode": "UM", "requested_distance_km": 12.0, "start_source": "nwissite", "start_id": "USGS-02376293", "geometry_length_km": 1.0494819888683726 }, "geometry": { "type": "LineString", "coordinates": [ [ -87.5114052, 31.045069493 ], [ -87.511645004, 31.0448405 ], [ -87.512017705, 31.044772096 ], [ -87.512656301, 31.044978894 ], [ -87.513428204, 31.044956699 ], [ -87.514653407, 31.044384696 ], [ -87.515665002, 31.044294 ], [ -87.516224407, 31.043996498 ], [ -87.517688707, 31.043585196 ], [ -87.518221401, 31.043333493 ], [ -87.519073807, 31.042738296 ], [ -87.519952402, 31.042555697 ], [ -87.520272106, 31.042303897 ], [ -87.5208055, 31.041410394 ] ] } },
{ "type": "Feature", "properties": { "site_no": "02376293", "nhdplus_comid": "2170343", "navigation_mode": "UM", "requested_distance_km": 12.0, "start_source": "nwissite", "start_id": "USGS-02376293", "geometry_length_km": 2.2738424122389325 }, "geometry": { "type": "LineString", "coordinates": [ [ -87.490338907, 31.042108096 ], [ -87.492043301, 31.042885795 ], [ -87.492655806, 31.043068498 ], [ -87.493774503, 31.043640494 ], [ -87.495743804, 31.043249093 ], [ -87.497261107, 31.043385096 ], [ -87.497926503, 31.043315694 ], [ -87.498378702, 31.043109 ], [ -87.499149807, 31.042512394 ], [ -87.499975003, 31.042603299 ], [ -87.501346201, 31.042814299 ], [ -87.501798503, 31.042975195 ], [ -87.503207907, 31.044099599 ], [ -87.5035538, 31.044168599 ], [ -87.504112907, 31.044077396 ], [ -87.505017802, 31.044215798 ], [ -87.505470105, 31.044376597 ], [ -87.506667905, 31.044377699 ], [ -87.507040404, 31.044492699 ], [ -87.507359602, 31.044699199 ], [ -87.507651307, 31.045662098 ], [ -87.5078374, 31.045822695 ], [ -87.508476101, 31.045960695 ], [ -87.509328, 31.045938596 ], [ -87.510126807, 31.045664296 ], [ -87.511272103, 31.045069396 ], [ -87.5114052, 31.045069493 ] ] } }
]
}
