{
"type": "FeatureCollection",
"name": "USGS_02429500_DM_12km",
"crs": { "type": "name", "properties": { "name": "urn:ogc:def:crs:OGC:1.3:CRS84" } },
"features": [
{ "type": "Feature", "properties": { "site_no": "02429500", "nhdplus_comid": "18239683", "navigation_mode": "DM", "requested_distance_km": 12.0, "start_source": "nwissite", "start_id": "USGS-02429500", "geometry_length_km": 2.6484444523472144 }, "geometry": { "type": "LineString", "coordinates": [ [ -87.51685925, 31.548092795 ], [ -87.517669804, 31.546736494 ], [ -87.519997902, 31.544388294 ], [ -87.522702202, 31.542699896 ], [ -87.525019206, 31.5418659 ], [ -87.526841104, 31.541499294 ], [ -87.527591504, 31.541429996 ], [ -87.531116806, 31.541823894 ], [ -87.533544205, 31.542765699 ], [ -87.536874704, 31.546427295 ], [ -87.5386599, 31.547825299 ] ] } },
{ "type": "Feature", "properties": { "site_no": "02429500", "nhdplus_comid": "18239679", "navigation_mode": "DM", "requested_distance_km": 12.0, "start_source": "nwissite", "start_id": "USGS-02429500", "geometry_length_km": 1.7075441720176534 }, "geometry": { "type": "LineString", "coordinates": [ [ -87.5386599, 31.547825299 ], [ -87.542485803, 31.551019296 ], [ -87.546833403, 31.553495094 ], [ -87.5485503, 31.5541301 ], [ -87.551755004, 31.554751597 ], [ -87.553914405, 31.555420093 ] ] } },
{ "type": "Feature", "properties": { "site_no": "02429500", "nhdplus_comid": "18239689", "navigation_mode": "DM", "requested_distance_km": 12.0, "start_source": "nwissite", "start_id": "USGS-02429500", "geometry_length_km": 4.8564191528811804 }, "geometry": { "type": "LineString", "coordinates": [ [ -87.553914405, 31.555420093 ], [ -87.555362806, 31.555782199 ], [ -87.559196904, 31.556072295 ], [ -87.560563505, 31.555796899 ], [ -87.563509703, 31.554630898 ], [ -87.572184101, 31.549857594 ], [ -87.576519303, 31.546776094 ], [ -87.578233004, 31.5460217 ], [ -87.580159605, 31.544652097 ], [ -87.581978001, 31.542895496 ], [ -87.584867604, 31.540840998 ], [ -87.588785701, 31.537475094 ], [ -87.590135202, 31.535935596 ], [ -87.591753401, 31.534668796 ], [ -87.594573505, 31.531851195 ] ] } },
{ "type": "Feature", "properties": { "site_no": "02429500", "nhdplus_comid": "18239693", "navigation_mode": "DM", "requested_distance_km": 12.0, "start_source": "nwissite", "start_id": "USGS-02429500", "geometry_length_km": 1.7412576347894322 }, "geometry": { "type": "LineString", "coordinates": [ [ -87.594573505, 31.531851195 ], [ -87.597406507, 31.528908297 ], [ -87.599826902, 31.5270705 ], [ -87.601219006, 31.526544094 ], [ -87.603950903, 31.5259922 ], [ -87.609813802, 31.523908295 ] ] } },
{ "type": "Feature", "properties": { "site_no": "02429500", "nhdplus_comid": "18239697", "navigation_mode": "DM", "requested_distance_km": 12.0, "start_source": "nwissite", "start_id": "USGS-02429500", "geometry_length_km": 1.7652032911572373 }, "geometry": { "type": "LineString", "coordinates": [ [ -87.609813802, 31.523908295 ], [ -87.610108607, 31.523930497 ], [ -87.611058302, 31.523370594 ], [ -87.615060605, 31.522030294 ], [ -87.616426401, 31.521754198 ], [ -87.619301401, 31.519823894 ], [ -87.621196605, 31.517314993 ], [ -87.6214009, 31.513921499 ], [ -87.621574402, 31.513681993 ] ] } }
]
}
