{
"type": "FeatureCollection",
"name": "USGS_02342200_DM_12km",
"crs": { "type": "name", "properties": { "name": "urn:ogc:def:crs:OGC:1.3:CRS84" } },
"features": [
{ "type": "Feature", "properties": { "site_no": "02342200", "nhdplus_comid": "3431386", "navigation_mode": "DM", "requested_distance_km": 12.0, "start_source": "nwissite", "start_id": "USGS-02342200", "geometry_length_km": 0.75715147699784258 }, "geometry": { "type": "LineString", "coordinates": [ [ -85.276462866, 32.564158157 ], [ -85.276460603, 32.564133897 ], [ -85.276542902, 32.563126095 ], [ -85.276732706, 32.5626681 ], [ -85.2771658, 32.562416494 ], [ -85.277274206, 32.562233299 ], [ -85.277301803, 32.561683595 ], [ -85.277059101, 32.5610421 ], [ -85.277087204, 32.560057096 ], [ -85.276925303, 32.559782095 ], [ -85.276926301, 32.558865897 ], [ -85.276656903, 32.557903595 ], [ -85.276548907, 32.557720296 ] ] } },
{ "type": "Feature", "properties": { "site_no": "02342200", "nhdplus_comid": "3431092", "navigation_mode": "DM", "requested_distance_km": 12.0, "start_source": "nwissite", "start_id": "USGS-02342200", "geometry_length_km": 0.63198620845447451 }, "geometry": { "type": "LineString", "coordinates": [ [ -85.276548907, 32.557720296 ], [ -85.276576601, 32.557170495 ], [ -85.276253402, 32.555818893 ], [ -85.276227206, 32.555131599 ], [ -85.277229704, 32.553528994 ], [ -85.277663402, 32.552613094 ], [ -85.277609602, 32.552361093 ] ] } },
{ "type": "Feature", "properties": { "site_no": "02342200", "nhdplus_comid": "3431102", "navigation_mode": "DM", "requested_distance_km": 12.0, "start_source": "nwissite", "start_id": "USGS-02342200", "geometry_length_km": 0.35583321186688593 }, "geometry": { "type": "LineString", "coordinates": [ [ -85.277609602, 32.552361093 ], [ -85.277934805, 32.551811598 ], [ -85.279343203, 32.549888596 ], [ -85.2793165, 32.549567893 ] ] } },
{ "type": "Feature", "properties": { "site_no": "02342200", "nhdplus_comid": "3431162", "navigation_mode": "DM", "requested_distance_km": 12.0, "start_source": "nwissite", "start_id": "USGS-02342200", "geometry_length_km": 3.1331725816593323 }, "geometry": { "type": "LineString", "coordinates": [ [ -85.2793165, 32.549567893 ], [ -85.278749101, 32.549109295 ], [ -85.278397605, 32.548971593 ], [ -85.277101003, 32.547642097 ], [ -85.276344106, 32.547297895 ], [ -85.276371405, 32.5470917 ], [ -85.276588202, 32.546610899 ], [ -85.276805207, 32.546107098 ], [ -85.276724607, 32.545626 ], [ -85.276427701, 32.545144796 ], [ -85.276509106, 32.544824198 ], [ -85.276915401, 32.544274695 ], [ -85.277322702, 32.542763196 ], [ -85.277133703, 32.542534098 ], [ -85.276620202, 32.542258695 ], [ -85.276295602, 32.542235598 ], [ -85.275970802, 32.542578898 ], [ -85.275619403, 32.542418197 ], [ -85.274510801, 32.542279899 ], [ -85.2742946, 32.542142294 ], [ -85.274295002, 32.541752897 ], [ -85.274430506, 32.541569799 ], [ -85.2744046, 32.540493198 ], [ -85.274242803, 32.540103696 ], [ -85.2739456, 32.539897293 ], [ -85.2733237, 32.539827995 ], [ -85.273215905, 32.539553098 ], [ -85.2730546, 32.538613796 ], [ -85.272919707, 32.5383159 ], [ -85.272649504, 32.538155295 ], [ -85.271513306, 32.538566798 ], [ -85.270647302, 32.539069995 ], [ -85.270241506, 32.5392529 ], [ -85.270052306, 32.539138198 ], [ -85.2695392, 32.538542196 ], [ -85.268918604, 32.537465096 ], [ -85.269055106, 32.536365695 ], [ -85.269271903, 32.535953596 ], [ -85.2694619, 32.535449795 ], [ -85.269381404, 32.534831293 ], [ -85.269058406, 32.533616997 ], [ -85.268518701, 32.5327003 ], [ -85.267330803, 32.531095795 ], [ -85.266871601, 32.530797593 ], [ -85.2667908, 32.530499794 ] ] } },
{ "type": "Feature", "properties": { "site_no": "02342200", "nhdplus_comid": "3431198", "navigation_mode": "DM", "requested_distance_km": 12.0, "start_source": "nwissite", "start_id": "USGS-02342200", "geometry_length_km": 0.92434128116335657 }, "geometry": { "type": "LineString", "coordinates": [ [ -85.2667908, 32.530499794 ], [ -85.266682804, 32.530430995 ], [ -85.266332507, 32.529376999 ], [ -85.266170405, 32.529308096 ], [ -85.266116604, 32.529010296 ], [ -85.264739804, 32.527245395 ], [ -85.2646861, 32.526947498 ], [ -85.263309501, 32.525022194 ], [ -85.262743004, 32.523967996 ], [ -85.262446202, 32.523532599 ], [ -85.262094803, 32.523417696 ] ] } },
{ "type": "Feature", "properties": { "site_no": "02342200", "nhdplus_comid": "3431196", "navigation_mode": "DM", "requested_distance_km": 12.0, "start_source": "nwissite", "start_id": "USGS-02342200", "geometry_length_km": 1.4282298342826383 }, "geometry": { "type": "LineString", "coordinates": [ [ -85.262094803, 32.523417696 ], [ -85.261878401, 32.523554899 ], [ -85.261607401, 32.524058595 ], [ -85.261147305, 32.524401695 ], [ -85.260930404, 32.5248826 ], [ -85.260632701, 32.525065593 ], [ -85.2604158, 32.525569297 ], [ -85.259522207, 32.5265764 ], [ -85.255978607, 32.527832896 ], [ -85.254517704, 32.528518595 ], [ -85.254058205, 32.528357893 ], [ -85.253653303, 32.527876496 ], [ -85.2534374, 32.527578399 ], [ -85.253222503, 32.526547499 ], [ -85.253033705, 32.526203699 ], [ -85.252980001, 32.525882997 ], [ -85.252899006, 32.525814198 ], [ -85.252818502, 32.525310196 ], [ -85.252629504, 32.525103897 ], [ -85.252278201, 32.5250348 ] ] } },
{ "type": "Feature", "properties": { "site_no": "02342200", "nhdplus_comid": "3431392", "navigation_mode": "DM", "requested_distance_km": 12.0, "start_source": "nwissite", "start_id": "USGS-02342200", "geometry_length_km": 2.1701335702415294 }, "geometry": { "type": "LineString", "coordinates": [ [ -85.252278201, 32.5250348 ], [ -85.251628406, 32.525652595 ], [ -85.250409402, 32.527277693 ], [ -85.249938406, 32.527632698 ], [ -85.2489115, 32.5280689 ], [ -85.248533405, 32.528389998 ], [ -85.247993, 32.5287112 ], [ -85.247533806, 32.529055193 ], [ -85.2469934, 32.529238999 ], [ -85.245966204, 32.529469095 ], [ -85.245696001, 32.5296297 ], [ -85.245561101, 32.529858895 ], [ -85.245237, 32.530134097 ], [ -85.244047403, 32.530180998 ], [ -85.2430747, 32.530731693 ], [ -85.2428855, 32.530800596 ], [ -85.242398702, 32.530732296 ], [ -85.241884701, 32.530618198 ], [ -85.241613701, 32.530183293 ], [ -85.241046004, 32.530206598 ], [ -85.240992703, 32.530802198 ], [ -85.2404254, 32.5312609 ], [ -85.240318105, 32.531925298 ], [ -85.2406158, 32.532154098 ], [ -85.241129406, 32.532061994 ], [ -85.242562905, 32.532289699 ], [ -85.2425633, 32.532587498 ], [ -85.242077105, 32.532977298 ], [ -85.241482601, 32.533252798 ], [ -85.240807205, 32.533826098 ], [ -85.240239806, 32.5341243 ], [ -85.239699602, 32.5346516 ] ] } },
{ "type": "Feature", "properties": { "site_no": "02342200", "nhdplus_comid": "3431166", "navigation_mode": "DM", "requested_distance_km": 12.0, "start_source": "nwissite", "start_id": "USGS-02342200", "geometry_length_km": 2.0076443501936221 }, "geometry": { "type": "LineString", "coordinates": [ [ -85.239699602, 32.5346516 ], [ -85.239023902, 32.534881294 ], [ -85.238807902, 32.535110496 ], [ -85.238402903, 32.535683498 ], [ -85.238186806, 32.535821095 ], [ -85.237916403, 32.535844393 ], [ -85.237727001, 32.535730094 ], [ -85.237780303, 32.535157397 ], [ -85.237861305, 32.534996897 ], [ -85.2375625, 32.533829093 ], [ -85.237480506, 32.533210598 ], [ -85.237344503, 32.532569297 ], [ -85.237451404, 32.531423993 ], [ -85.237288602, 32.531103499 ], [ -85.2365577, 32.5303711 ], [ -85.2362056, 32.529844597 ], [ -85.236178204, 32.529592693 ], [ -85.236097105, 32.529523998 ], [ -85.236151002, 32.529386498 ], [ -85.235826105, 32.529066198 ], [ -85.2353663, 32.528883293 ], [ -85.234987602, 32.528814897 ], [ -85.234447002, 32.529090196 ], [ -85.230639301, 32.5331477 ], [ -85.230342202, 32.533399999 ], [ -85.229720406, 32.5334922 ], [ -85.229206905, 32.533767499 ], [ -85.228693604, 32.534134395 ], [ -85.228612706, 32.534317695 ] ] } }
]
}
