{
"type": "FeatureCollection",
"name": "USGS_02425655_UM_12km",
"crs": { "type": "name", "properties": { "name": "urn:ogc:def:crs:OGC:1.3:CRS84" } },
"features": [
{ "type": "Feature", "properties": { "site_no": "02425655", "nhdplus_comid": "21452904", "navigation_mode": "UM", "requested_distance_km": 12.0, "start_source": "nwissite", "start_id": "USGS-02425655", "geometry_length_km": 0.049614208754366493 }, "geometry": { "type": "LineString", "coordinates": [ [ -86.992595501, 32.244584598 ], [ -86.992649503, 32.244699195 ], [ -86.993015364, 32.244793432 ] ] } },
{ "type": "Feature", "properties": { "site_no": "02425655", "nhdplus_comid": "21452906", "navigation_mode": "UM", "requested_distance_km": 12.0, "start_source": "nwissite", "start_id": "USGS-02425655", "geometry_length_km": 0.31476113310494314 }, "geometry": { "type": "LineString", "coordinates": [ [ -86.990035303, 32.245618097 ], [ -86.990439706, 32.245526098 ], [ -86.9914634, 32.244837798 ], [ -86.991678506, 32.2443792 ], [ -86.992082804, 32.244287193 ], [ -86.992595501, 32.244584598 ] ] } },
{ "type": "Feature", "properties": { "site_no": "02425655", "nhdplus_comid": "21452908", "navigation_mode": "UM", "requested_distance_km": 12.0, "start_source": "nwissite", "start_id": "USGS-02425655", "geometry_length_km": 1.2992075326486603 }, "geometry": { "type": "LineString", "coordinates": [ [ -86.978897706, 32.2439778 ], [ -86.981351405, 32.244067498 ], [ -86.981728703, 32.243906796 ], [ -86.981917404, 32.243929498 ], [ -86.982511103, 32.244364396 ], [ -86.983374201, 32.244592793 ], [ -86.984075002, 32.244363099 ], [ -86.984290503, 32.244225398 ], [ -86.984560207, 32.244270995 ], [ -86.985558301, 32.244682595 ], [ -86.986044005, 32.245003 ], [ -86.986449003, 32.245483793 ], [ -86.987016901, 32.246812396 ], [ -86.987286806, 32.246995397 ], [ -86.987745106, 32.2469263 ], [ -86.989280403, 32.245733298 ], [ -86.989550002, 32.2456185 ], [ -86.990035303, 32.245618097 ] ] } },
{ "type": "Feature", "properties": { "site_no": "02425655", "nhdplus_comid": "21452910", "navigation_mode": "UM", "requested_distance_km": 12.0, "start_source": "nwissite", "start_id": "USGS-02425655", "geometry_length_km": 0.17507673291469994 }, "geometry": { "type": "LineString", "coordinates": [ [ -86.977063902, 32.243681394 ], [ -86.978897706, 32.2439778 ] ] } },
{ "type": "Feature", "properties": { "site_no": "02425655", "nhdplus_comid": "21452914", "navigation_mode": "UM", "requested_distance_km": 12.0, "start_source": "nwissite", "start_id": "USGS-02425655", "geometry_length_km": 0.52910360123503497 }, "geometry": { "type": "LineString", "coordinates": [ [ -86.972235605, 32.241806194 ], [ -86.972775102, 32.2420808 ], [ -86.974042602, 32.242285997 ], [ -86.974393204, 32.242468998 ], [ -86.9749064, 32.243201993 ], [ -86.975311004, 32.243476599 ], [ -86.976632304, 32.243567199 ], [ -86.977063902, 32.243681394 ] ] } },
{ "type": "Feature", "properties": { "site_no": "02425655", "nhdplus_comid": "21452918", "navigation_mode": "UM", "requested_distance_km": 12.0, "start_source": "nwissite", "start_id": "USGS-02425655", "geometry_length_km": 0.33521922613930144 }, "geometry": { "type": "LineString", "coordinates": [ [ -86.970399603, 32.2394474 ], [ -86.971451804, 32.240088195 ], [ -86.971856505, 32.240454599 ], [ -86.971965402, 32.241393998 ], [ -86.972235605, 32.241806194 ] ] } },
{ "type": "Feature", "properties": { "site_no": "02425655", "nhdplus_comid": "21452922", "navigation_mode": "UM", "requested_distance_km": 12.0, "start_source": "nwissite", "start_id": "USGS-02425655", "geometry_length_km": 2.0000489635856855 }, "geometry": { "type": "LineString", "coordinates": [ [ -86.954461806, 32.235402294 ], [ -86.954489201, 32.235860594 ], [ -86.954839706, 32.235952094 ], [ -86.955432802, 32.235860094 ], [ -86.956861407, 32.235423699 ], [ -86.957211502, 32.235056899 ], [ -86.957292005, 32.234667294 ], [ -86.957534403, 32.234392196 ], [ -86.9580198, 32.234552294 ], [ -86.959341802, 32.235490896 ], [ -86.959611706, 32.235880196 ], [ -86.9607988, 32.236818895 ], [ -86.961149506, 32.236956298 ], [ -86.962120004, 32.236863896 ], [ -86.963306904, 32.237504698 ], [ -86.963630505, 32.237573296 ], [ -86.964169607, 32.237504095 ], [ -86.964843206, 32.237113997 ], [ -86.965382002, 32.236655399 ], [ -86.966271304, 32.236219399 ], [ -86.967187904, 32.236127093 ], [ -86.9677542, 32.236332893 ], [ -86.968321003, 32.236951098 ], [ -86.968456402, 32.237500995 ], [ -86.970345505, 32.239286996 ], [ -86.970399603, 32.2394474 ] ] } },
{ "type": "Feature", "properties": { "site_no": "02425655", "nhdplus_comid": "21452924", "navigation_mode": "UM", "requested_distance_km": 12.0, "start_source": "nwissite", "start_id": "USGS-02425655", "geometry_length_km": 0.369140972970885 }, "geometry": { "type": "LineString", "coordinates": [ [ -86.953354001, 32.2325387 ], [ -86.953947201, 32.232675895 ], [ -86.954055205, 32.232790396 ], [ -86.954380207, 32.234554596 ], [ -86.9544883, 32.234829493 ], [ -86.954461806, 32.235402294 ] ] } },
{ "type": "Feature", "properties": { "site_no": "02425655", "nhdplus_comid": "21452928", "navigation_mode": "UM", "requested_distance_km": 12.0, "start_source": "nwissite", "start_id": "USGS-02425655", "geometry_length_km": 0.11939946401095268 }, "geometry": { "type": "LineString", "coordinates": [ [ -86.9521676, 32.232241496 ], [ -86.952653103, 32.232493296 ], [ -86.953354001, 32.2325387 ] ] } },
{ "type": "Feature", "properties": { "site_no": "02425655", "nhdplus_comid": "21452932", "navigation_mode": "UM", "requested_distance_km": 12.0, "start_source": "nwissite", "start_id": "USGS-02425655", "geometry_length_km": 1.021803701760897 }, "geometry": { "type": "LineString", "coordinates": [ [ -86.943645507, 32.228465497 ], [ -86.944023207, 32.228671499 ], [ -86.945182405, 32.228693798 ], [ -86.945506006, 32.228762396 ], [ -86.946530305, 32.228670195 ], [ -86.946881004, 32.228899099 ], [ -86.947231904, 32.229540497 ], [ -86.947501503, 32.229654893 ], [ -86.948364303, 32.229700297 ], [ -86.949038707, 32.2302498 ], [ -86.949659005, 32.230524495 ], [ -86.950521603, 32.230455197 ], [ -86.951654203, 32.230889894 ], [ -86.951762207, 32.231027395 ], [ -86.951924704, 32.231920898 ], [ -86.9521676, 32.232241496 ] ] } },
{ "type": "Feature", "properties": { "site_no": "02425655", "nhdplus_comid": "21452936", "navigation_mode": "UM", "requested_distance_km": 12.0, "start_source": "nwissite", "start_id": "USGS-02425655", "geometry_length_km": 0.36353827739594236 }, "geometry": { "type": "LineString", "coordinates": [ [ -86.941729501, 32.225716695 ], [ -86.943132304, 32.227045096 ], [ -86.943645507, 32.228465497 ] ] } },
{ "type": "Feature", "properties": { "site_no": "02425655", "nhdplus_comid": "21452946", "navigation_mode": "UM", "requested_distance_km": 12.0, "start_source": "nwissite", "start_id": "USGS-02425655", "geometry_length_km": 2.4360140973980737 }, "geometry": { "type": "LineString", "coordinates": [ [ -86.925360106, 32.214266799 ], [ -86.925522201, 32.214885399 ], [ -86.925954007, 32.215847693 ], [ -86.926574603, 32.216901593 ], [ -86.927033007, 32.217336796 ], [ -86.927679904, 32.217290699 ], [ -86.9281113, 32.217588298 ], [ -86.928138606, 32.218275793 ], [ -86.928327501, 32.218458995 ], [ -86.928812802, 32.218619198 ], [ -86.929378703, 32.218435593 ], [ -86.929675303, 32.218458399 ], [ -86.929917902, 32.218618698 ], [ -86.929783501, 32.219237499 ], [ -86.929810606, 32.219512396 ], [ -86.930188105, 32.219695598 ], [ -86.930592403, 32.219626695 ], [ -86.930942602, 32.219259895 ], [ -86.931373902, 32.219305493 ], [ -86.931778505, 32.219740696 ], [ -86.931967601, 32.220244795 ], [ -86.932291105, 32.220519595 ], [ -86.932615004, 32.221092299 ], [ -86.932777204, 32.221756794 ], [ -86.933316603, 32.222123094 ], [ -86.9345567, 32.222397596 ], [ -86.934907302, 32.222626597 ], [ -86.935204007, 32.222947299 ], [ -86.935446702, 32.2230158 ], [ -86.936066702, 32.222900994 ], [ -86.936390102, 32.222923793 ], [ -86.936821707, 32.223335996 ], [ -86.936929703, 32.223633796 ], [ -86.9371996, 32.224000297 ], [ -86.937469207, 32.224091895 ], [ -86.938169904, 32.223862395 ], [ -86.938736103, 32.223907895 ], [ -86.939194605, 32.224320099 ], [ -86.939275704, 32.224640898 ], [ -86.939626403, 32.225053295 ], [ -86.939707607, 32.2254657 ], [ -86.939869404, 32.225671798 ], [ -86.940166004, 32.225740395 ], [ -86.940839805, 32.225579597 ], [ -86.941217206, 32.225579396 ], [ -86.941729501, 32.225716695 ] ] } },
{ "type": "Feature", "properties": { "site_no": "02425655", "nhdplus_comid": "21452992", "navigation_mode": "UM", "requested_distance_km": 12.0, "start_source": "nwissite", "start_id": "USGS-02425655", "geometry_length_km": 2.3801455059724055 }, "geometry": { "type": "LineString", "coordinates": [ [ -86.912821107, 32.201415896 ], [ -86.913306303, 32.201690696 ], [ -86.913683601, 32.201576099 ], [ -86.913980007, 32.201598898 ], [ -86.914707802, 32.201896593 ], [ -86.915004306, 32.201896399 ], [ -86.915570103, 32.201460898 ], [ -86.915893503, 32.2015066 ], [ -86.916082203, 32.201621197 ], [ -86.916109204, 32.201804399 ], [ -86.916190103, 32.201850295 ], [ -86.916433103, 32.202675097 ], [ -86.9164607, 32.204187497 ], [ -86.916568607, 32.204301998 ], [ -86.917646602, 32.204141296 ], [ -86.918104902, 32.204530694 ], [ -86.918590404, 32.205401197 ], [ -86.919048704, 32.205813497 ], [ -86.9191567, 32.206042595 ], [ -86.919022307, 32.206867598 ], [ -86.919049501, 32.207348794 ], [ -86.919238202, 32.207417496 ], [ -86.919858105, 32.2073486 ], [ -86.920127705, 32.207600497 ], [ -86.920127802, 32.2077839 ], [ -86.920262605, 32.207989998 ], [ -86.921044305, 32.208081394 ], [ -86.921314001, 32.208379194 ], [ -86.921287201, 32.208699994 ], [ -86.920721501, 32.209318899 ], [ -86.920586906, 32.209800199 ], [ -86.920371503, 32.209960595 ], [ -86.920371607, 32.210327394 ], [ -86.9208031, 32.210762493 ], [ -86.921126805, 32.211220793 ], [ -86.921746701, 32.211357996 ], [ -86.922205202, 32.211861998 ], [ -86.9226906, 32.212182596 ], [ -86.924308106, 32.212640293 ], [ -86.924443007, 32.2129381 ], [ -86.924443305, 32.2133964 ], [ -86.925279304, 32.214266896 ], [ -86.925360106, 32.214266799 ] ] } },
{ "type": "Feature", "properties": { "site_no": "02425655", "nhdplus_comid": "21452990", "navigation_mode": "UM", "requested_distance_km": 12.0, "start_source": "nwissite", "start_id": "USGS-02425655", "geometry_length_km": 0.86813171018635227 }, "geometry": { "type": "LineString", "coordinates": [ [ -86.904763706, 32.203617796 ], [ -86.9051679, 32.203571893 ], [ -86.905626103, 32.2032739 ], [ -86.9059764, 32.203227997 ], [ -86.906569302, 32.203388199 ], [ -86.9069736, 32.203411095 ], [ -86.907701202, 32.203319199 ], [ -86.9082672, 32.2034107 ], [ -86.909533605, 32.202333398 ], [ -86.910099201, 32.2016 ], [ -86.911231101, 32.201576799 ], [ -86.912821107, 32.201415896 ] ] } }
]
}
