{
"type": "FeatureCollection",
"name": "USGS_02439000_UM_12km",
"crs": { "type": "name", "properties": { "name": "urn:ogc:def:crs:OGC:1.3:CRS84" } },
"features": [
{ "type": "Feature", "properties": { "site_no": "02439000", "nhdplus_comid": "18673930", "navigation_mode": "UM", "requested_distance_km": 12.0, "start_source": "nwissite", "start_id": "USGS-02439000", "geometry_length_km": 0.48848501470895317 }, "geometry": { "type": "LineString", "coordinates": [ [ -88.144872606, 33.922103398 ], [ -88.144872501, 33.921691194 ], [ -88.145146906, 33.920499995 ], [ -88.145421401, 33.919858597 ], [ -88.1456412, 33.919514999 ], [ -88.145970806, 33.919240095 ], [ -88.1467949, 33.918827593 ], [ -88.147397329, 33.918754183 ] ] } },
{ "type": "Feature", "properties": { "site_no": "02439000", "nhdplus_comid": "18673010", "navigation_mode": "UM", "requested_distance_km": 12.0, "start_source": "nwissite", "start_id": "USGS-02439000", "geometry_length_km": 0.17014314325504898 }, "geometry": { "type": "LineString", "coordinates": [ [ -88.143911302, 33.923294798 ], [ -88.144186206, 33.923248798 ], [ -88.144323401, 33.923065595 ], [ -88.144543007, 33.922721997 ], [ -88.144735202, 33.922217995 ], [ -88.144872606, 33.922103398 ] ] } },
{ "type": "Feature", "properties": { "site_no": "02439000", "nhdplus_comid": "18673006", "navigation_mode": "UM", "requested_distance_km": 12.0, "start_source": "nwissite", "start_id": "USGS-02439000", "geometry_length_km": 1.8968323325775003 }, "geometry": { "type": "LineString", "coordinates": [ [ -88.130531505, 33.932000495 ], [ -88.130586401, 33.931885995 ], [ -88.131685503, 33.9309697 ], [ -88.132646903, 33.929892994 ], [ -88.132921703, 33.929595195 ], [ -88.133196406, 33.9289767 ], [ -88.133416101, 33.928633198 ], [ -88.133828305, 33.928289495 ], [ -88.134103104, 33.928106196 ], [ -88.134790003, 33.928060398 ], [ -88.135064706, 33.928106099 ], [ -88.135476902, 33.928106099 ], [ -88.135806605, 33.927831195 ], [ -88.1362186, 33.927029394 ], [ -88.1364934, 33.926502593 ], [ -88.137042701, 33.925998598 ], [ -88.137317501, 33.925815299 ], [ -88.137537301, 33.925700694 ], [ -88.137592204, 33.925425895 ], [ -88.137125, 33.925128199 ], [ -88.137125, 33.924853295 ], [ -88.1373173, 33.9246701 ], [ -88.138004206, 33.924624093 ], [ -88.138553806, 33.924967594 ], [ -88.138636202, 33.925082199 ], [ -88.139048405, 33.925425798 ], [ -88.139103502, 33.925540298 ], [ -88.139378302, 33.925654799 ], [ -88.139790401, 33.925585896 ], [ -88.140752003, 33.925310999 ], [ -88.141851, 33.924738094 ], [ -88.143719003, 33.923523799 ], [ -88.143911302, 33.923294798 ] ] } },
{ "type": "Feature", "properties": { "site_no": "02439000", "nhdplus_comid": "18672982", "navigation_mode": "UM", "requested_distance_km": 12.0, "start_source": "nwissite", "start_id": "USGS-02439000", "geometry_length_km": 1.6742405663140381 }, "geometry": { "type": "LineString", "coordinates": [ [ -88.123716302, 33.929595798 ], [ -88.123991102, 33.9292522 ], [ -88.124403201, 33.9289544 ], [ -88.125035204, 33.928679496 ], [ -88.125722304, 33.928496294 ], [ -88.125997104, 33.928564899 ], [ -88.125997104, 33.928793997 ], [ -88.125035502, 33.929595694 ], [ -88.124898002, 33.929756097 ], [ -88.124760605, 33.9299393 ], [ -88.124760605, 33.930557698 ], [ -88.125035502, 33.930901296 ], [ -88.125365302, 33.931130394 ], [ -88.125777401, 33.931199096 ], [ -88.126739107, 33.930969998 ], [ -88.127233803, 33.930740893 ], [ -88.127426103, 33.930397198 ], [ -88.127426103, 33.929939196 ], [ -88.127233706, 33.929710098 ], [ -88.126821503, 33.929366596 ], [ -88.126684107, 33.929183297 ], [ -88.126684107, 33.928793997 ], [ -88.126876406, 33.928610697 ], [ -88.127288505, 33.928496197 ], [ -88.127838105, 33.928564794 ], [ -88.128112905, 33.928679399 ], [ -88.128250301, 33.9287939 ], [ -88.1284701, 33.929137394 ], [ -88.128607705, 33.930397294 ], [ -88.128662705, 33.930511795 ], [ -88.128745206, 33.930809595 ], [ -88.128937505, 33.931153096 ], [ -88.129762001, 33.931771494 ], [ -88.129762001, 33.931885995 ], [ -88.129981905, 33.932115093 ], [ -88.130531505, 33.932000495 ] ] } },
{ "type": "Feature", "properties": { "site_no": "02439000", "nhdplus_comid": "18672980", "navigation_mode": "UM", "requested_distance_km": 12.0, "start_source": "nwissite", "start_id": "USGS-02439000", "geometry_length_km": 1.9872014712407291 }, "geometry": { "type": "LineString", "coordinates": [ [ -88.116434403, 33.936352894 ], [ -88.116379507, 33.935940497 ], [ -88.1158299, 33.935551099 ], [ -88.115610003, 33.935321994 ], [ -88.115610003, 33.935024299 ], [ -88.115747407, 33.934795193 ], [ -88.116434507, 33.934749395 ], [ -88.116791703, 33.934520297 ], [ -88.116791703, 33.934222594 ], [ -88.116571903, 33.934062295 ], [ -88.116654202, 33.933535397 ], [ -88.116791703, 33.933260493 ], [ -88.116984002, 33.933146097 ], [ -88.117533602, 33.933077298 ], [ -88.118440606, 33.933260597 ], [ -88.118990101, 33.933146194 ], [ -88.119319804, 33.932962894 ], [ -88.119457304, 33.932848394 ], [ -88.1194572, 33.932275794 ], [ -88.1191274, 33.932115294 ], [ -88.118907601, 33.931886196 ], [ -88.118907504, 33.931657299 ], [ -88.119869404, 33.931428298 ], [ -88.120089203, 33.931244999 ], [ -88.120144203, 33.930970095 ], [ -88.120006703, 33.930901393 ], [ -88.119539604, 33.930740997 ], [ -88.1191274, 33.930557698 ], [ -88.119045004, 33.930397399 ], [ -88.1191824, 33.930282898 ], [ -88.119677, 33.930168398 ], [ -88.120006703, 33.930282898 ], [ -88.120638803, 33.930557899 ], [ -88.121050902, 33.930741094 ], [ -88.121243306, 33.930741094 ], [ -88.121380702, 33.9306724 ], [ -88.121380702, 33.930328794 ], [ -88.120913602, 33.929985195 ], [ -88.120776102, 33.929756097 ], [ -88.120776102, 33.929412499 ], [ -88.120831102, 33.929297999 ], [ -88.121188305, 33.929137595 ], [ -88.121600501, 33.929068998 ], [ -88.121792905, 33.929137699 ], [ -88.122012705, 33.929366693 ], [ -88.1220676, 33.929595895 ], [ -88.1222874, 33.929824896 ], [ -88.1223424, 33.929939397 ], [ -88.122617304, 33.930328794 ], [ -88.123167001, 33.930397496 ], [ -88.123441704, 33.930214196 ], [ -88.123661503, 33.929870598 ], [ -88.123716302, 33.929595798 ] ] } },
{ "type": "Feature", "properties": { "site_no": "02439000", "nhdplus_comid": "18672940", "navigation_mode": "UM", "requested_distance_km": 12.0, "start_source": "nwissite", "start_id": "USGS-02439000", "geometry_length_km": 1.0167616496346128 }, "geometry": { "type": "LineString", "coordinates": [ [ -88.110113405, 33.939673796 ], [ -88.110937901, 33.939788297 ], [ -88.111350201, 33.939788297 ], [ -88.111570001, 33.939605094 ], [ -88.111570001, 33.939261496 ], [ -88.111432604, 33.939215697 ], [ -88.111432701, 33.938986599 ], [ -88.111487702, 33.938803397 ], [ -88.111762404, 33.938757695 ], [ -88.112037301, 33.938803397 ], [ -88.1121746, 33.938986696 ], [ -88.112312004, 33.939605094 ], [ -88.1124494, 33.939673893 ], [ -88.112861603, 33.939719699 ], [ -88.113081604, 33.9395594 ], [ -88.113356404, 33.939376198 ], [ -88.113686107, 33.939032599 ], [ -88.114593007, 33.938689098 ], [ -88.114922903, 33.938460097 ], [ -88.114922807, 33.938231096 ], [ -88.114648104, 33.937841594 ], [ -88.114593104, 33.937383495 ], [ -88.114730604, 33.937154397 ], [ -88.115829803, 33.936581798 ], [ -88.116434403, 33.936352894 ] ] } },
{ "type": "Feature", "properties": { "site_no": "02439000", "nhdplus_comid": "18672942", "navigation_mode": "UM", "requested_distance_km": 12.0, "start_source": "nwissite", "start_id": "USGS-02439000", "geometry_length_km": 7.6920954590181694 }, "geometry": { "type": "LineString", "coordinates": [ [ -88.077399105, 33.961930797 ], [ -88.077536605, 33.961999595 ], [ -88.078443602, 33.9621602 ], [ -88.078718506, 33.962343596 ], [ -88.078718305, 33.962572694 ], [ -88.078855701, 33.962962098 ], [ -88.079048105, 33.963030897 ], [ -88.079405501, 33.9630768 ], [ -88.079597905, 33.962847799 ], [ -88.079598203, 33.962504193 ], [ -88.079406001, 33.961542197 ], [ -88.079323605, 33.961427495 ], [ -88.079269007, 33.960557096 ], [ -88.079599306, 33.959709696 ], [ -88.079956904, 33.959137298 ], [ -88.080507204, 33.958037995 ], [ -88.080507301, 33.957694396 ], [ -88.080370001, 33.957533993 ], [ -88.079820201, 33.957464993 ], [ -88.078995407, 33.957808293 ], [ -88.078088202, 33.957991295 ], [ -88.077621102, 33.957807899 ], [ -88.077621207, 33.9574643 ], [ -88.077896401, 33.956548095 ], [ -88.078034006, 33.956273295 ], [ -88.078171507, 33.9559756 ], [ -88.0782267, 33.955586195 ], [ -88.078364305, 33.955357194 ], [ -88.078776605, 33.955288693 ], [ -88.079683505, 33.955632493 ], [ -88.079875901, 33.955632493 ], [ -88.079958506, 33.955518097 ], [ -88.0800137, 33.955014199 ], [ -88.079876907, 33.953639798 ], [ -88.079959504, 33.953181699 ], [ -88.080289602, 33.952723697 ], [ -88.080152303, 33.952380098 ], [ -88.080097407, 33.952311397 ], [ -88.079602607, 33.952265397 ], [ -88.078640506, 33.952654496 ], [ -88.078448005, 33.952654399 ], [ -88.078310706, 33.952539898 ], [ -88.078448206, 33.9521963 ], [ -88.0791905, 33.951738499 ], [ -88.080372706, 33.951280698 ], [ -88.081197403, 33.950822897 ], [ -88.081664801, 33.950479396 ], [ -88.082214803, 33.949861199 ], [ -88.083122104, 33.949403197 ], [ -88.083589502, 33.948991098 ], [ -88.083672002, 33.948830798 ], [ -88.083122402, 33.948532894 ], [ -88.083177507, 33.948143497 ], [ -88.083452404, 33.948029093 ], [ -88.0838098, 33.947960496 ], [ -88.084277101, 33.9478461 ], [ -88.084277205, 33.947571196 ], [ -88.084139705, 33.947456598 ], [ -88.083535105, 33.947273195 ], [ -88.083122805, 33.947158597 ], [ -88.083123006, 33.9469295 ], [ -88.083260506, 33.946700498 ], [ -88.083727702, 33.946586095 ], [ -88.084634706, 33.946540594 ], [ -88.085102007, 33.946700998 ], [ -88.085871406, 33.947342597 ], [ -88.086283602, 33.947457194 ], [ -88.086750902, 33.947388597 ], [ -88.086970903, 33.946884796 ], [ -88.086833701, 33.946472399 ], [ -88.0864764, 33.945899695 ], [ -88.086009502, 33.945281096 ], [ -88.086009704, 33.944822997 ], [ -88.086147204, 33.944639795 ], [ -88.086477004, 33.9445941 ], [ -88.086751707, 33.944754496 ], [ -88.087108903, 33.9450524 ], [ -88.087521106, 33.945212796 ], [ -88.088070802, 33.945441999 ], [ -88.088757806, 33.945556797 ], [ -88.089444906, 33.945556894 ], [ -88.089719906, 33.945327997 ], [ -88.090049803, 33.944709599 ], [ -88.090269804, 33.944526397 ], [ -88.090682104, 33.944411993 ], [ -88.0910943, 33.944641098 ], [ -88.091423906, 33.945099294 ], [ -88.091506205, 33.945397094 ], [ -88.091698706, 33.945442997 ], [ -88.091918506, 33.945397198 ], [ -88.092248403, 33.944939099 ], [ -88.092386104, 33.944412299 ], [ -88.092386201, 33.943839699 ], [ -88.092111401, 33.943725094 ], [ -88.090462506, 33.943335399 ], [ -88.089912906, 33.9431061 ], [ -88.089913003, 33.9428083 ], [ -88.090188004, 33.942464799 ], [ -88.090875201, 33.942006893 ], [ -88.091150105, 33.941731997 ], [ -88.091012903, 33.941205196 ], [ -88.091013007, 33.940815799 ], [ -88.091700204, 33.940289199 ], [ -88.092525005, 33.939373098 ], [ -88.092662401, 33.9393273 ], [ -88.092937402, 33.938800499 ], [ -88.093074806, 33.938571498 ], [ -88.093487106, 33.938571595 ], [ -88.094448902, 33.938800998 ], [ -88.094861105, 33.938800998 ], [ -88.094943501, 33.938686594 ], [ -88.095273502, 33.937999398 ], [ -88.0955486, 33.937266499 ], [ -88.0955486, 33.937083296 ], [ -88.095823504, 33.936693996 ], [ -88.095906004, 33.936579399 ], [ -88.096235804, 33.936510697 ], [ -88.096922703, 33.936923198 ], [ -88.097279906, 33.936968997 ], [ -88.097609706, 33.936969198 ], [ -88.098104402, 33.936740197 ], [ -88.098516703, 33.936694399 ], [ -88.1004951, 33.937496394 ], [ -88.100852504, 33.937542297 ], [ -88.101457104, 33.937313296 ], [ -88.102226503, 33.937267698 ], [ -88.102556303, 33.937496796 ], [ -88.103243202, 33.938000798 ], [ -88.1047545, 33.938688196 ], [ -88.104754604, 33.938756898 ], [ -88.105991103, 33.939329699 ], [ -88.106485806, 33.939444199 ], [ -88.106815606, 33.939444296 ], [ -88.107722506, 33.939215399 ], [ -88.107915007, 33.939146698 ], [ -88.108189702, 33.938871898 ], [ -88.108189702, 33.938688599 ], [ -88.108409606, 33.938459598 ], [ -88.109014302, 33.938459694 ], [ -88.109151706, 33.938642897 ], [ -88.109234102, 33.939100996 ], [ -88.109426506, 33.9393759 ], [ -88.109976105, 33.939559199 ], [ -88.110113405, 33.939673796 ] ] } }
]
}
