{
"type": "FeatureCollection",
"name": "USGS_02400033_UM_12km",
"crs": { "type": "name", "properties": { "name": "urn:ogc:def:crs:OGC:1.3:CRS84" } },
"features": [
{ "type": "Feature", "properties": { "site_no": "02400033", "nhdplus_comid": "15824847", "navigation_mode": "UM", "requested_distance_km": 12.0, "start_source": "nwissite", "start_id": "USGS-02400033", "geometry_length_km": 0.27529365385417498 }, "geometry": { "type": "LineString", "coordinates": [ [ -85.670173906, 33.846184596 ], [ -85.669377804, 33.846184798 ], [ -85.667291306, 33.845612898 ], [ -85.667290435, 33.845612703 ] ] } },
{ "type": "Feature", "properties": { "site_no": "02400033", "nhdplus_comid": "15824859", "navigation_mode": "UM", "requested_distance_km": 12.0, "start_source": "nwissite", "start_id": "USGS-02400033", "geometry_length_km": 0.77982103231399924 }, "geometry": { "type": "LineString", "coordinates": [ [ -85.677336507, 33.842746295 ], [ -85.675662503, 33.843594298 ], [ -85.674482606, 33.844488099 ], [ -85.673906304, 33.844740197 ], [ -85.672808506, 33.845038399 ], [ -85.672259904, 33.845634095 ], [ -85.670338504, 33.846092895 ], [ -85.670173906, 33.846184596 ] ] } },
{ "type": "Feature", "properties": { "site_no": "02400033", "nhdplus_comid": "15824861", "navigation_mode": "UM", "requested_distance_km": 12.0, "start_source": "nwissite", "start_id": "USGS-02400033", "geometry_length_km": 0.062403844170060702 }, "geometry": { "type": "LineString", "coordinates": [ [ -85.677967906, 33.842952095 ], [ -85.677336507, 33.842746295 ] ] } },
{ "type": "Feature", "properties": { "site_no": "02400033", "nhdplus_comid": "15824871", "navigation_mode": "UM", "requested_distance_km": 12.0, "start_source": "nwissite", "start_id": "USGS-02400033", "geometry_length_km": 2.5001595750530896 }, "geometry": { "type": "LineString", "coordinates": [ [ -85.703108504, 33.839274399 ], [ -85.702037901, 33.839320898 ], [ -85.701159902, 33.839596294 ], [ -85.699376404, 33.8404219 ], [ -85.698443405, 33.840674393 ], [ -85.695561603, 33.841156997 ], [ -85.691197202, 33.841021895 ], [ -85.688287102, 33.840290494 ], [ -85.687106401, 33.839718394 ], [ -85.6837577, 33.839788698 ], [ -85.683126606, 33.840178393 ], [ -85.681151405, 33.841851294 ], [ -85.680575103, 33.842057697 ], [ -85.6794772, 33.842287198 ], [ -85.677967906, 33.842952095 ] ] } },
{ "type": "Feature", "properties": { "site_no": "02400033", "nhdplus_comid": "15824873", "navigation_mode": "UM", "requested_distance_km": 12.0, "start_source": "nwissite", "start_id": "USGS-02400033", "geometry_length_km": 1.0228988441218476 }, "geometry": { "type": "LineString", "coordinates": [ [ -85.709510207, 33.845798299 ], [ -85.709097803, 33.845203094 ], [ -85.708877601, 33.844630495 ], [ -85.708877303, 33.844264098 ], [ -85.708684802, 33.843851998 ], [ -85.708437607, 33.843691699 ], [ -85.707833804, 33.8437609 ], [ -85.707476802, 33.843600795 ], [ -85.706927106, 33.842799395 ], [ -85.706212804, 33.842158593 ], [ -85.7057181, 33.841586299 ], [ -85.705305301, 33.840418294 ], [ -85.704728305, 33.8397315 ], [ -85.703822203, 33.839365594 ], [ -85.703108504, 33.839274399 ] ] } }
]
}
