{
"type": "FeatureCollection",
"name": "USGS_02422500_DM_12km",
"crs": { "type": "name", "properties": { "name": "urn:ogc:def:crs:OGC:1.3:CRS84" } },
"features": [
{ "type": "Feature", "properties": { "site_no": "02422500", "nhdplus_comid": "21676818", "navigation_mode": "DM", "requested_distance_km": 12.0, "start_source": "nwissite", "start_id": "USGS-02422500", "geometry_length_km": 0.52230594698481647 }, "geometry": { "type": "LineString", "coordinates": [ [ -86.903717297, 32.583140374 ], [ -86.902971305, 32.582824796 ], [ -86.902484104, 32.582527094 ], [ -86.902240403, 32.5821376 ], [ -86.902050503, 32.580533698 ], [ -86.9018609, 32.580235898 ], [ -86.901211306, 32.579571597 ], [ -86.900940605, 32.579525799 ] ] } },
{ "type": "Feature", "properties": { "site_no": "02422500", "nhdplus_comid": "21677018", "navigation_mode": "DM", "requested_distance_km": 12.0, "start_source": "nwissite", "start_id": "USGS-02422500", "geometry_length_km": 2.5578948824337875 }, "geometry": { "type": "LineString", "coordinates": [ [ -86.900940605, 32.579525799 ], [ -86.900913507, 32.579365395 ], [ -86.899343602, 32.578288697 ], [ -86.899127007, 32.578013897 ], [ -86.899153903, 32.5771202 ], [ -86.899532601, 32.576524399 ], [ -86.899992503, 32.576020196 ], [ -86.901480503, 32.574736796 ], [ -86.901534505, 32.574278496 ], [ -86.901263602, 32.573705696 ], [ -86.901047006, 32.572720394 ], [ -86.901100405, 32.570910193 ], [ -86.900965005, 32.5703374 ], [ -86.900910601, 32.5694438 ], [ -86.900775202, 32.569191799 ], [ -86.900342107, 32.568779394 ], [ -86.899394907, 32.568275496 ], [ -86.898528904, 32.567679897 ], [ -86.898285203, 32.567061394 ], [ -86.898285002, 32.5665344 ], [ -86.899204604, 32.564746998 ], [ -86.899366803, 32.563944899 ], [ -86.899393603, 32.563028298 ], [ -86.899852805, 32.5605307 ], [ -86.9002854, 32.559453696 ], [ -86.900447704, 32.559361994 ] ] } },
{ "type": "Feature", "properties": { "site_no": "02422500", "nhdplus_comid": "21677114", "navigation_mode": "DM", "requested_distance_km": 12.0, "start_source": "nwissite", "start_id": "USGS-02422500", "geometry_length_km": 1.4562270682001064 }, "geometry": { "type": "LineString", "coordinates": [ [ -86.900447704, 32.559361994 ], [ -86.900664106, 32.558720298 ], [ -86.900690906, 32.558124594 ], [ -86.900582604, 32.557712093 ], [ -86.8999331, 32.557231098 ], [ -86.899905905, 32.556818694 ], [ -86.900068201, 32.5564062 ], [ -86.900636204, 32.555947796 ], [ -86.902529903, 32.555282898 ], [ -86.903422505, 32.554572396 ], [ -86.904044703, 32.554251499 ], [ -86.904693902, 32.553770095 ], [ -86.904720701, 32.553426497 ], [ -86.904585302, 32.553059794 ], [ -86.904287606, 32.552670397 ], [ -86.903962702, 32.551639393 ], [ -86.903935403, 32.551181093 ], [ -86.904097602, 32.5506998 ], [ -86.905206203, 32.549118593 ] ] } },
{ "type": "Feature", "properties": { "site_no": "02422500", "nhdplus_comid": "21677162", "navigation_mode": "DM", "requested_distance_km": 12.0, "start_source": "nwissite", "start_id": "USGS-02422500", "geometry_length_km": 0.71381314221374703 }, "geometry": { "type": "LineString", "coordinates": [ [ -86.905206203, 32.549118593 ], [ -86.905287005, 32.548293695 ], [ -86.905828007, 32.547628894 ], [ -86.906044103, 32.546941496 ], [ -86.906043805, 32.545864597 ], [ -86.906178802, 32.545337498 ], [ -86.906611204, 32.543870993 ], [ -86.906611003, 32.543229394 ], [ -86.906502604, 32.542954497 ] ] } },
{ "type": "Feature", "properties": { "site_no": "02422500", "nhdplus_comid": "21677172", "navigation_mode": "DM", "requested_distance_km": 12.0, "start_source": "nwissite", "start_id": "USGS-02422500", "geometry_length_km": 0.42482362446255434 }, "geometry": { "type": "LineString", "coordinates": [ [ -86.906502604, 32.542954497 ], [ -86.905555703, 32.542542197 ], [ -86.904879406, 32.542404994 ], [ -86.904311202, 32.542107195 ], [ -86.903878205, 32.541740693 ], [ -86.903824106, 32.541557394 ], [ -86.903418101, 32.541053399 ], [ -86.903390907, 32.540595099 ] ] } },
{ "type": "Feature", "properties": { "site_no": "02422500", "nhdplus_comid": "21677298", "navigation_mode": "DM", "requested_distance_km": 12.0, "start_source": "nwissite", "start_id": "USGS-02422500", "geometry_length_km": 2.8544147194121829 }, "geometry": { "type": "LineString", "coordinates": [ [ -86.903390907, 32.540595099 ], [ -86.903499, 32.5402743 ], [ -86.903661303, 32.540090993 ], [ -86.904012904, 32.5399305 ], [ -86.905230202, 32.539930195 ], [ -86.905744106, 32.539838396 ], [ -86.906393103, 32.539357096 ], [ -86.906609401, 32.538967498 ], [ -86.906798102, 32.5370427 ], [ -86.906635806, 32.536767796 ], [ -86.906094603, 32.536584593 ], [ -86.904228404, 32.536997497 ], [ -86.903471, 32.536997698 ], [ -86.902875803, 32.536791593 ], [ -86.902524106, 32.536493696 ], [ -86.902361706, 32.536149994 ], [ -86.902145304, 32.535921 ], [ -86.9020366, 32.534775294 ], [ -86.901792906, 32.534087993 ], [ -86.901441105, 32.5334922 ], [ -86.9012786, 32.532644495 ], [ -86.901467703, 32.532209098 ], [ -86.901981607, 32.531773597 ], [ -86.903333701, 32.5311317 ], [ -86.903712407, 32.530787997 ], [ -86.9037662, 32.530283898 ], [ -86.903387502, 32.529986098 ], [ -86.902170204, 32.529528096 ], [ -86.901683204, 32.529115796 ], [ -86.901547901, 32.5288179 ], [ -86.901520707, 32.528428294 ], [ -86.9013042, 32.527763896 ], [ -86.900898404, 32.527443193 ], [ -86.900411405, 32.5268934 ], [ -86.900113702, 32.526297696 ], [ -86.899978504, 32.526183099 ], [ -86.8995184, 32.5253582 ], [ -86.899302006, 32.525197893 ], [ -86.899274901, 32.525060393 ], [ -86.897814102, 32.523754597 ], [ -86.897624701, 32.523685895 ] ] } },
{ "type": "Feature", "properties": { "site_no": "02422500", "nhdplus_comid": "21677372", "navigation_mode": "DM", "requested_distance_km": 12.0, "start_source": "nwissite", "start_id": "USGS-02422500", "geometry_length_km": 1.1976946059083438 }, "geometry": { "type": "LineString", "coordinates": [ [ -86.897624701, 32.523685895 ], [ -86.895135902, 32.521601297 ], [ -86.894865401, 32.521120094 ], [ -86.894865103, 32.520066097 ], [ -86.895054504, 32.519768097 ], [ -86.895108305, 32.5187141 ], [ -86.895324402, 32.517705895 ], [ -86.895270005, 32.516124897 ], [ -86.895053506, 32.515483297 ], [ -86.894728802, 32.514910497 ], [ -86.894187801, 32.514291897 ], [ -86.894160807, 32.514154397 ] ] } },
{ "type": "Feature", "properties": { "site_no": "02422500", "nhdplus_comid": "21677576", "navigation_mode": "DM", "requested_distance_km": 12.0, "start_source": "nwissite", "start_id": "USGS-02422500", "geometry_length_km": 2.1438578506762846 }, "geometry": { "type": "LineString", "coordinates": [ [ -86.894160807, 32.514154397 ], [ -86.893971503, 32.514154397 ], [ -86.8930519, 32.513742097 ], [ -86.891672701, 32.513627797 ], [ -86.891348206, 32.5135132 ], [ -86.890915401, 32.513146698 ], [ -86.890888304, 32.512802899 ], [ -86.891023502, 32.512459196 ], [ -86.891807407, 32.511450894 ], [ -86.891807303, 32.510900997 ], [ -86.891509801, 32.510625996 ], [ -86.891158201, 32.5104886 ], [ -86.890157707, 32.510580398 ], [ -86.889995404, 32.510488793 ], [ -86.8898331, 32.509893097 ], [ -86.889833003, 32.509228595 ], [ -86.890022203, 32.508793198 ], [ -86.890400507, 32.507372394 ], [ -86.890454203, 32.505103998 ], [ -86.8905892, 32.503981195 ], [ -86.890345506, 32.502216794 ], [ -86.890021004, 32.501712799 ], [ -86.889642403, 32.5015295 ], [ -86.888669103, 32.5015525 ], [ -86.887965903, 32.501277596 ], [ -86.887587406, 32.500888094 ], [ -86.887316801, 32.500140496 ] ] } }
]
}
