{
"type": "FeatureCollection",
"name": "USGS_02409000_UM_12km",
"crs": { "type": "name", "properties": { "name": "urn:ogc:def:crs:OGC:1.3:CRS84" } },
"features": [
{ "type": "Feature", "properties": { "site_no": "02409000", "nhdplus_comid": "22274074", "navigation_mode": "UM", "requested_distance_km": 12.0, "start_source": "nwissite", "start_id": "USGS-02409000", "geometry_length_km": 0.61985549222466907 }, "geometry": { "type": "LineString", "coordinates": [ [ -86.3014687, 32.981700793 ], [ -86.302746706, 32.981357999 ], [ -86.303779602, 32.981496096 ], [ -86.304404505, 32.981840096 ], [ -86.305273704, 32.982573695 ], [ -86.306007303, 32.983032398 ], [ -86.307205575, 32.983601385 ] ] } },
{ "type": "Feature", "properties": { "site_no": "02409000", "nhdplus_comid": "22274064", "navigation_mode": "UM", "requested_distance_km": 12.0, "start_source": "nwissite", "start_id": "USGS-02409000", "geometry_length_km": 1.4505882613151482 }, "geometry": { "type": "LineString", "coordinates": [ [ -86.301485106, 32.994232997 ], [ -86.301377103, 32.993385196 ], [ -86.302141704, 32.989536695 ], [ -86.302415803, 32.986925095 ], [ -86.302253202, 32.986191794 ], [ -86.301683106, 32.985275097 ], [ -86.301629007, 32.985068798 ], [ -86.301140301, 32.984312497 ], [ -86.301113404, 32.983945794 ], [ -86.300896406, 32.983510397 ], [ -86.300869904, 32.982616894 ], [ -86.3014687, 32.981700793 ] ] } },
{ "type": "Feature", "properties": { "site_no": "02409000", "nhdplus_comid": "22273968", "navigation_mode": "UM", "requested_distance_km": 12.0, "start_source": "nwissite", "start_id": "USGS-02409000", "geometry_length_km": 0.82612784646263604 }, "geometry": { "type": "LineString", "coordinates": [ [ -86.304854505, 33.000137396 ], [ -86.304555602, 32.999962494 ], [ -86.3038489, 32.999412194 ], [ -86.303631604, 32.999091297 ], [ -86.303468704, 32.9985414 ], [ -86.303278401, 32.998335093 ], [ -86.303251304, 32.997968599 ], [ -86.303387307, 32.997739494 ], [ -86.303333104, 32.997166693 ], [ -86.303034, 32.996960297 ], [ -86.302571706, 32.996478893 ], [ -86.302136704, 32.996386997 ], [ -86.301729001, 32.995768197 ], [ -86.301702, 32.995241098 ], [ -86.302028604, 32.994851999 ], [ -86.302055903, 32.994576998 ], [ -86.301784106, 32.994324796 ], [ -86.301485106, 32.994232997 ] ] } },
{ "type": "Feature", "properties": { "site_no": "02409000", "nhdplus_comid": "22273092", "navigation_mode": "UM", "requested_distance_km": 12.0, "start_source": "nwissite", "start_id": "USGS-02409000", "geometry_length_km": 2.288389731191756 }, "geometry": { "type": "LineString", "coordinates": [ [ -86.302995205, 33.016655296 ], [ -86.303240404, 33.0161056 ], [ -86.303213604, 33.015326597 ], [ -86.303051002, 33.014570497 ], [ -86.303350702, 33.013745897 ], [ -86.303568907, 33.012692094 ], [ -86.303406402, 33.0115465 ], [ -86.303134806, 33.010881998 ], [ -86.302781701, 33.010308899 ], [ -86.302782103, 33.009759098 ], [ -86.302891001, 33.009232193 ], [ -86.302782603, 33.008773997 ], [ -86.302483805, 33.008200996 ], [ -86.302457005, 33.007444896 ], [ -86.302810602, 33.006963894 ], [ -86.303137004, 33.0067579 ], [ -86.3059109, 33.005774498 ], [ -86.3068083, 33.005293794 ], [ -86.307896607, 33.004194699 ], [ -86.308060206, 33.003621995 ], [ -86.308060803, 33.0027055 ], [ -86.3078437, 33.002201296 ], [ -86.307245903, 33.001696996 ], [ -86.305859804, 33.000894293 ], [ -86.304854505, 33.000137396 ] ] } },
{ "type": "Feature", "properties": { "site_no": "02409000", "nhdplus_comid": "22272960", "navigation_mode": "UM", "requested_distance_km": 12.0, "start_source": "nwissite", "start_id": "USGS-02409000", "geometry_length_km": 0.32026116592199294 }, "geometry": { "type": "LineString", "coordinates": [ [ -86.300084405, 33.017799094 ], [ -86.300384, 33.017318197 ], [ -86.300710507, 33.0170893 ], [ -86.301281705, 33.016906299 ], [ -86.302451104, 33.016838297 ], [ -86.302995205, 33.016655296 ] ] } },
{ "type": "Feature", "properties": { "site_no": "02409000", "nhdplus_comid": "22272946", "navigation_mode": "UM", "requested_distance_km": 12.0, "start_source": "nwissite", "start_id": "USGS-02409000", "geometry_length_km": 3.1055269492624 }, "geometry": { "type": "LineString", "coordinates": [ [ -86.296475306, 33.039630696 ], [ -86.296040103, 33.039630398 ], [ -86.295577802, 33.0394926 ], [ -86.295224607, 33.039148696 ], [ -86.295197606, 33.038919598 ], [ -86.295415603, 33.038484395 ], [ -86.295443304, 33.037865795 ], [ -86.2952803, 33.037705399 ], [ -86.294546001, 33.037613198 ], [ -86.294274107, 33.037475593 ], [ -86.294083901, 33.037223496 ], [ -86.293839805, 33.036375597 ], [ -86.293459401, 33.036008798 ], [ -86.293214902, 33.035642095 ], [ -86.293161005, 33.035252593 ], [ -86.2940327, 33.033718199 ], [ -86.294904105, 33.032641895 ], [ -86.295122303, 33.031885996 ], [ -86.295394801, 33.031382196 ], [ -86.2958031, 33.031038694 ], [ -86.296782605, 33.030626997 ], [ -86.297109306, 33.0302606 ], [ -86.297381803, 33.029710993 ], [ -86.297436506, 33.029367298 ], [ -86.298525907, 33.027649693 ], [ -86.298363701, 33.026504099 ], [ -86.298173405, 33.026389495 ], [ -86.296895407, 33.026090793 ], [ -86.296542101, 33.025884293 ], [ -86.296080105, 33.025425896 ], [ -86.295727007, 33.024898693 ], [ -86.295645803, 33.024600796 ], [ -86.2955641, 33.024554998 ], [ -86.295537204, 33.0243029 ], [ -86.296163604, 33.023272298 ], [ -86.296708502, 33.022241697 ], [ -86.297007807, 33.021921098 ], [ -86.298395306, 33.021372095 ], [ -86.298994005, 33.020868495 ], [ -86.299647301, 33.020112798 ], [ -86.300164901, 33.019082196 ], [ -86.300192602, 33.0184865 ], [ -86.300084405, 33.017799094 ] ] } },
{ "type": "Feature", "properties": { "site_no": "02409000", "nhdplus_comid": "22272854", "navigation_mode": "UM", "requested_distance_km": 12.0, "start_source": "nwissite", "start_id": "USGS-02409000", "geometry_length_km": 2.6806485779858886 }, "geometry": { "type": "LineString", "coordinates": [ [ -86.290688604, 33.060612798 ], [ -86.291425407, 33.058436796 ], [ -86.292024501, 33.057818696 ], [ -86.292297207, 33.057062797 ], [ -86.292515203, 33.056765094 ], [ -86.293086603, 33.056719698 ], [ -86.293766707, 33.056811698 ], [ -86.293767206, 33.0562848 ], [ -86.293414801, 33.054886997 ], [ -86.293416001, 33.053512394 ], [ -86.294424206, 33.051771894 ], [ -86.296576105, 33.048726194 ], [ -86.297039002, 33.048222497 ], [ -86.297883004, 33.0475128 ], [ -86.298237301, 33.046733998 ], [ -86.298346803, 33.046000995 ], [ -86.298592106, 33.045428395 ], [ -86.298538402, 33.044580594 ], [ -86.298348702, 33.043847397 ], [ -86.2977238, 33.042930596 ], [ -86.297561705, 33.0416933 ], [ -86.297045507, 33.040913999 ], [ -86.296964206, 33.040524498 ], [ -86.296583802, 33.039951496 ], [ -86.296475306, 33.039630696 ] ] } },
{ "type": "Feature", "properties": { "site_no": "02409000", "nhdplus_comid": "22272748", "navigation_mode": "UM", "requested_distance_km": 12.0, "start_source": "nwissite", "start_id": "USGS-02409000", "geometry_length_km": 0.80465635908716082 }, "geometry": { "type": "LineString", "coordinates": [ [ -86.287771001, 33.067117296 ], [ -86.288343102, 33.066522099 ], [ -86.289051101, 33.0658582 ], [ -86.289296404, 33.0654459 ], [ -86.289324701, 33.0642775 ], [ -86.289788604, 33.062926099 ], [ -86.289816804, 33.061895199 ], [ -86.289898701, 33.061620295 ], [ -86.290579602, 33.060864694 ], [ -86.290688604, 33.060612798 ] ] } }
]
}
