{
"type": "FeatureCollection",
"name": "USGS_03574500_DM_12km",
"crs": { "type": "name", "properties": { "name": "urn:ogc:def:crs:OGC:1.3:CRS84" } },
"features": [
{ "type": "Feature", "properties": { "site_no": "03574500", "nhdplus_comid": "19621426", "navigation_mode": "DM", "requested_distance_km": 12.0, "start_source": "nwissite", "start_id": "USGS-03574500", "geometry_length_km": 1.751754729586193 }, "geometry": { "type": "LineString", "coordinates": [ [ -86.306573284, 34.623815734 ], [ -86.306687601, 34.623552494 ], [ -86.307464607, 34.622247398 ], [ -86.307908304, 34.621720798 ], [ -86.309294701, 34.620438896 ], [ -86.3094889, 34.620141298 ], [ -86.309961006, 34.618789993 ], [ -86.310349204, 34.6183322 ], [ -86.311263904, 34.617760099 ], [ -86.3149499, 34.616273195 ], [ -86.316141702, 34.615540899 ], [ -86.316945702, 34.614808299 ], [ -86.318552904, 34.614190698 ], [ -86.319356702, 34.613801695 ], [ -86.320077002, 34.613664694 ] ] } },
{ "type": "Feature", "properties": { "site_no": "03574500", "nhdplus_comid": "19621434", "navigation_mode": "DM", "requested_distance_km": 12.0, "start_source": "nwissite", "start_id": "USGS-03574500", "geometry_length_km": 2.2144491510797542 }, "geometry": { "type": "LineString", "coordinates": [ [ -86.320077002, 34.613664694 ], [ -86.320132501, 34.613573 ], [ -86.320880704, 34.613275595 ], [ -86.321490504, 34.6128636 ], [ -86.321934007, 34.612451598 ], [ -86.3222946, 34.611718595 ], [ -86.322406203, 34.610687993 ], [ -86.322960407, 34.610367596 ], [ -86.3260637, 34.609521396 ], [ -86.329610102, 34.608583897 ], [ -86.330690801, 34.608171999 ], [ -86.330968, 34.607851394 ], [ -86.331328601, 34.606935397 ], [ -86.331606202, 34.605790094 ], [ -86.3316622, 34.604851 ], [ -86.331413604, 34.603522494 ], [ -86.331053905, 34.602858 ], [ -86.3305832, 34.602376796 ], [ -86.328201801, 34.600795396 ], [ -86.328201801, 34.600657895 ] ] } },
{ "type": "Feature", "properties": { "site_no": "03574500", "nhdplus_comid": "19620584", "navigation_mode": "DM", "requested_distance_km": 12.0, "start_source": "nwissite", "start_id": "USGS-03574500", "geometry_length_km": 2.4150818069149111 }, "geometry": { "type": "LineString", "coordinates": [ [ -86.328201801, 34.600657895 ], [ -86.3279249, 34.600589097 ], [ -86.326125406, 34.598916195 ], [ -86.325267106, 34.598389097 ], [ -86.3242146, 34.598228395 ], [ -86.323245004, 34.598365396 ], [ -86.321859702, 34.598891497 ], [ -86.319809802, 34.599279895 ], [ -86.317621402, 34.599622399 ], [ -86.316014707, 34.5996674 ], [ -86.315100901, 34.599277593 ], [ -86.314464204, 34.598796196 ], [ -86.312803507, 34.597077295 ], [ -86.311557904, 34.595908597 ], [ -86.310838103, 34.595450096 ], [ -86.309231907, 34.595013894 ], [ -86.307459503, 34.594669394 ], [ -86.3055766, 34.594118498 ] ] } },
{ "type": "Feature", "properties": { "site_no": "03574500", "nhdplus_comid": "19620668", "navigation_mode": "DM", "requested_distance_km": 12.0, "start_source": "nwissite", "start_id": "USGS-03574500", "geometry_length_km": 2.3573281748035284 }, "geometry": { "type": "LineString", "coordinates": [ [ -86.3055766, 34.594118498 ], [ -86.3036386, 34.593155399 ], [ -86.303278804, 34.592857398 ], [ -86.303140506, 34.5926283 ], [ -86.3031132, 34.592170097 ], [ -86.305525206, 34.5894458 ], [ -86.306163207, 34.588209294 ], [ -86.306468807, 34.587132894 ], [ -86.3071355, 34.5846138 ], [ -86.307137005, 34.582941599 ], [ -86.306943603, 34.582346 ], [ -86.306805201, 34.582231395 ], [ -86.306306802, 34.582070693 ], [ -86.303647906, 34.5823441 ], [ -86.302512705, 34.582182899 ], [ -86.302069701, 34.582045197 ], [ -86.300409302, 34.580761597 ], [ -86.2999392, 34.5799824 ], [ -86.299995206, 34.579386897 ] ] } },
{ "type": "Feature", "properties": { "site_no": "03574500", "nhdplus_comid": "19620734", "navigation_mode": "DM", "requested_distance_km": 12.0, "start_source": "nwissite", "start_id": "USGS-03574500", "geometry_length_km": 3.5081149601209902 }, "geometry": { "type": "LineString", "coordinates": [ [ -86.299995206, 34.579386897 ], [ -86.3006045, 34.579204097 ], [ -86.301490501, 34.579456598 ], [ -86.302930504, 34.579457499 ], [ -86.303373605, 34.579389095 ], [ -86.306392901, 34.578405894 ], [ -86.307943903, 34.578086093 ], [ -86.309772104, 34.577537499 ], [ -86.311738506, 34.577194899 ], [ -86.312874101, 34.576829098 ], [ -86.317942403, 34.575915493 ], [ -86.319880903, 34.575801797 ], [ -86.320351601, 34.575893797 ], [ -86.3210437, 34.576168895 ], [ -86.321957506, 34.576283894 ], [ -86.322428301, 34.576146699 ], [ -86.322816201, 34.5758949 ], [ -86.3239801, 34.574566893 ], [ -86.324950106, 34.573215999 ], [ -86.325587302, 34.572735198 ], [ -86.326168902, 34.572506398 ], [ -86.326362804, 34.572346196 ], [ -86.327082902, 34.5720945 ], [ -86.328218304, 34.571980394 ], [ -86.328605905, 34.572072193 ], [ -86.329242602, 34.572370097 ], [ -86.3301282, 34.573263794 ], [ -86.330432706, 34.5733556 ], [ -86.3309035, 34.573355794 ], [ -86.331180401, 34.573241293 ], [ -86.331568502, 34.572691798 ], [ -86.331569202, 34.5713403 ], [ -86.331791103, 34.570561595 ] ] } }
]
}
