{
"type": "FeatureCollection",
"name": "USGS_02419875_DM_12km",
"crs": { "type": "name", "properties": { "name": "urn:ogc:def:crs:OGC:1.3:CRS84" } },
"features": [
{ "type": "Feature", "properties": { "site_no": "02419875", "nhdplus_comid": "21718780", "navigation_mode": "DM", "requested_distance_km": 12.0, "start_source": "nwissite", "start_id": "USGS-02419875", "geometry_length_km": 0.097492076068581832 }, "geometry": { "type": "LineString", "coordinates": [ [ -86.183590793, 32.37162256 ], [ -86.184118502, 32.372027293 ], [ -86.184415504, 32.372141697 ] ] } },
{ "type": "Feature", "properties": { "site_no": "02419875", "nhdplus_comid": "21718760", "navigation_mode": "DM", "requested_distance_km": 12.0, "start_source": "nwissite", "start_id": "USGS-02419875", "geometry_length_km": 0.30686435088463987 }, "geometry": { "type": "LineString", "coordinates": [ [ -86.184415504, 32.372141697 ], [ -86.184740007, 32.372920595 ], [ -86.185011007, 32.374386899 ], [ -86.185308203, 32.374753393 ] ] } },
{ "type": "Feature", "properties": { "site_no": "02419875", "nhdplus_comid": "21718756", "navigation_mode": "DM", "requested_distance_km": 12.0, "start_source": "nwissite", "start_id": "USGS-02419875", "geometry_length_km": 0.23039824865010586 }, "geometry": { "type": "LineString", "coordinates": [ [ -86.185308203, 32.374753393 ], [ -86.1854164, 32.375142798 ], [ -86.185578503, 32.375326097 ], [ -86.1859845, 32.376723498 ] ] } },
{ "type": "Feature", "properties": { "site_no": "02419875", "nhdplus_comid": "21718752", "navigation_mode": "DM", "requested_distance_km": 12.0, "start_source": "nwissite", "start_id": "USGS-02419875", "geometry_length_km": 2.474567133776242 }, "geometry": { "type": "LineString", "coordinates": [ [ -86.1859845, 32.376723498 ], [ -86.186254807, 32.377158694 ], [ -86.186498307, 32.377983399 ], [ -86.186690301, 32.382611595 ], [ -86.186906703, 32.383046895 ], [ -86.187825404, 32.384077497 ], [ -86.188528307, 32.385268696 ], [ -86.188663602, 32.385703899 ], [ -86.188745506, 32.387055799 ], [ -86.188368, 32.387926497 ], [ -86.188368902, 32.3893243 ], [ -86.187937401, 32.3898286 ], [ -86.187640503, 32.390011996 ], [ -86.187424704, 32.390539095 ], [ -86.1869388, 32.390814297 ], [ -86.186642304, 32.3916163 ], [ -86.186453804, 32.392464198 ], [ -86.1873466, 32.395075798 ], [ -86.1879142, 32.395717099 ], [ -86.188076504, 32.396037795 ], [ -86.188023105, 32.397160493 ], [ -86.188212506, 32.3974583 ] ] } },
{ "type": "Feature", "properties": { "site_no": "02419875", "nhdplus_comid": "21718698", "navigation_mode": "DM", "requested_distance_km": 12.0, "start_source": "nwissite", "start_id": "USGS-02419875", "geometry_length_km": 1.6585051330252147 }, "geometry": { "type": "LineString", "coordinates": [ [ -86.188212506, 32.3974583 ], [ -86.1879429, 32.398122899 ], [ -86.187484302, 32.398833394 ], [ -86.187349506, 32.399222896 ], [ -86.187349707, 32.399681196 ], [ -86.187755503, 32.400711998 ], [ -86.188107006, 32.401307598 ], [ -86.188134305, 32.401811697 ], [ -86.188675001, 32.402544595 ], [ -86.188675106, 32.402819499 ], [ -86.188432403, 32.403346695 ], [ -86.187919602, 32.403828099 ], [ -86.187730804, 32.404171795 ], [ -86.1877582, 32.404790498 ], [ -86.186624303, 32.405569993 ], [ -86.186192803, 32.4062576 ], [ -86.185707502, 32.407792896 ], [ -86.185357302, 32.409167796 ], [ -86.185357705, 32.409923896 ], [ -86.185438804, 32.410038397 ], [ -86.185412101, 32.410473794 ], [ -86.184845105, 32.410794795 ] ] } },
{ "type": "Feature", "properties": { "site_no": "02419875", "nhdplus_comid": "21718670", "navigation_mode": "DM", "requested_distance_km": 12.0, "start_source": "nwissite", "start_id": "USGS-02419875", "geometry_length_km": 0.19581830919317975 }, "geometry": { "type": "LineString", "coordinates": [ [ -86.184845105, 32.410794795 ], [ -86.184926406, 32.411161393 ], [ -86.185250707, 32.411459096 ], [ -86.1852239, 32.412008993 ], [ -86.185494207, 32.412260897 ], [ -86.1856023, 32.412260897 ] ] } },
{ "type": "Feature", "properties": { "site_no": "02419875", "nhdplus_comid": "21718664", "navigation_mode": "DM", "requested_distance_km": 12.0, "start_source": "nwissite", "start_id": "USGS-02419875", "geometry_length_km": 0.23087556412346152 }, "geometry": { "type": "LineString", "coordinates": [ [ -86.1856023, 32.412260897 ], [ -86.185197502, 32.412994295 ], [ -86.185278706, 32.413223393 ], [ -86.185224906, 32.413567096 ], [ -86.184658006, 32.414048493 ] ] } },
{ "type": "Feature", "properties": { "site_no": "02419875", "nhdplus_comid": "21718654", "navigation_mode": "DM", "requested_distance_km": 12.0, "start_source": "nwissite", "start_id": "USGS-02419875", "geometry_length_km": 0.68581329478980246 }, "geometry": { "type": "LineString", "coordinates": [ [ -86.184658006, 32.414048493 ], [ -86.1849287, 32.414827295 ], [ -86.184848905, 32.416866496 ], [ -86.184687406, 32.4176687 ], [ -86.184040301, 32.419662297 ], [ -86.1837973, 32.420028999 ] ] } },
{ "type": "Feature", "properties": { "site_no": "02419875", "nhdplus_comid": "21718650", "navigation_mode": "DM", "requested_distance_km": 12.0, "start_source": "nwissite", "start_id": "USGS-02419875", "geometry_length_km": 2.6725372336427835 }, "geometry": { "type": "LineString", "coordinates": [ [ -86.1837973, 32.420028999 ], [ -86.183824703, 32.420533098 ], [ -86.1836356, 32.420670599 ], [ -86.183365904, 32.421151899 ], [ -86.183393002, 32.4214269 ], [ -86.183501102, 32.421587199 ], [ -86.183474503, 32.422137097 ], [ -86.183690801, 32.422503494 ], [ -86.183718003, 32.422732696 ], [ -86.183799103, 32.422778495 ], [ -86.183745101, 32.4228701 ], [ -86.1844749, 32.423419699 ], [ -86.185502201, 32.424748197 ], [ -86.186556406, 32.425664194 ], [ -86.186718702, 32.425916098 ], [ -86.1867458, 32.426122293 ], [ -86.186448701, 32.426282898 ], [ -86.186448805, 32.426466197 ], [ -86.186746106, 32.426672198 ], [ -86.1866659, 32.428024098 ], [ -86.186693303, 32.428596899 ], [ -86.186504804, 32.429398894 ], [ -86.186802201, 32.429765396 ], [ -86.186964706, 32.430429697 ], [ -86.187262103, 32.430635795 ], [ -86.187559307, 32.430704497 ], [ -86.188639604, 32.430245697 ], [ -86.189801306, 32.430199295 ], [ -86.190233603, 32.430382393 ], [ -86.1908013, 32.430817395 ], [ -86.191746801, 32.430771194 ], [ -86.192530602, 32.431274794 ], [ -86.193557702, 32.431755498 ], [ -86.193963304, 32.4322135 ], [ -86.193963602, 32.432648793 ], [ -86.193693601, 32.432809398 ], [ -86.193693705, 32.432946898 ], [ -86.193991102, 32.433313295 ], [ -86.193937302, 32.433611199 ], [ -86.192937605, 32.433634594 ], [ -86.192748703, 32.433749296 ], [ -86.192721903, 32.434230395 ], [ -86.193316601, 32.4347113 ], [ -86.193344101, 32.435284093 ], [ -86.193560407, 32.435513094 ], [ -86.193533607, 32.435742199 ], [ -86.193209402, 32.435948595 ] ] } },
{ "type": "Feature", "properties": { "site_no": "02419875", "nhdplus_comid": "21719270", "navigation_mode": "DM", "requested_distance_km": 12.0, "start_source": "nwissite", "start_id": "USGS-02419875", "geometry_length_km": 0.065148476993034221 }, "geometry": { "type": "LineString", "coordinates": [ [ -86.193209402, 32.435948595 ], [ -86.193136901, 32.435968794 ], [ -86.192772307, 32.436389595 ] ] } },
{ "type": "Feature", "properties": { "site_no": "02419875", "nhdplus_comid": "21719268", "navigation_mode": "DM", "requested_distance_km": 12.0, "start_source": "nwissite", "start_id": "USGS-02419875", "geometry_length_km": 0.55035669269454524 }, "geometry": { "type": "LineString", "coordinates": [ [ -86.192772307, 32.436389595 ], [ -86.194861606, 32.438969396 ], [ -86.1950977, 32.439494796 ], [ -86.194943503, 32.4407437 ] ] } },
{ "type": "Feature", "properties": { "site_no": "02419875", "nhdplus_comid": "21719252", "navigation_mode": "DM", "requested_distance_km": 12.0, "start_source": "nwissite", "start_id": "USGS-02419875", "geometry_length_km": 1.6387969793788069 }, "geometry": { "type": "LineString", "coordinates": [ [ -86.194943503, 32.4407437 ], [ -86.193495505, 32.441501595 ], [ -86.191498205, 32.441832997 ], [ -86.188366003, 32.442823097 ], [ -86.187919304, 32.442784294 ], [ -86.185423404, 32.444713295 ], [ -86.182917506, 32.445505194 ], [ -86.180976301, 32.446598694 ], [ -86.180888601, 32.447916493 ] ] } },
{ "type": "Feature", "properties": { "site_no": "02419875", "nhdplus_comid": "21719242", "navigation_mode": "DM", "requested_distance_km": 12.0, "start_source": "nwissite", "start_id": "USGS-02419875", "geometry_length_km": 1.2371457671549981 }, "geometry": { "type": "LineString", "coordinates": [ [ -86.180888601, 32.447916493 ], [ -86.181889601, 32.448950298 ], [ -86.183183506, 32.4494415 ], [ -86.183866307, 32.450005695 ], [ -86.184462003, 32.450057499 ], [ -86.1860791, 32.451586597 ], [ -86.186982706, 32.452801198 ], [ -86.187911704, 32.455027796 ], [ -86.188815303, 32.456242293 ] ] } }
]
}
