{
"type": "FeatureCollection",
"name": "USGS_02399000_DM_12km",
"crs": { "type": "name", "properties": { "name": "urn:ogc:def:crs:OGC:1.3:CRS84" } },
"features": [
{ "type": "Feature", "properties": { "site_no": "02399000", "nhdplus_comid": "15820609", "navigation_mode": "DM", "requested_distance_km": 12.0, "start_source": "nwissite", "start_id": "USGS-02399000", "geometry_length_km": 0.20338941072578989 }, "geometry": { "type": "LineString", "coordinates": [ [ -85.626574493, 34.397712184 ], [ -85.626814902, 34.397621498 ], [ -85.627284706, 34.3971406 ], [ -85.627561003, 34.3961787 ] ] } },
{ "type": "Feature", "properties": { "site_no": "02399000", "nhdplus_comid": "15820685", "navigation_mode": "DM", "requested_distance_km": 12.0, "start_source": "nwissite", "start_id": "USGS-02399000", "geometry_length_km": 2.5084521553243246 }, "geometry": { "type": "LineString", "coordinates": [ [ -85.627561003, 34.3961787 ], [ -85.6272294, 34.394644298 ], [ -85.626594007, 34.393659495 ], [ -85.626069106, 34.393201396 ], [ -85.624964103, 34.392560095 ], [ -85.6242458, 34.392170794 ], [ -85.623251304, 34.391231693 ], [ -85.622588307, 34.390155293 ], [ -85.622146301, 34.389765896 ], [ -85.621345304, 34.389422394 ], [ -85.620544106, 34.388826795 ], [ -85.620323107, 34.388506196 ], [ -85.620185107, 34.388048097 ], [ -85.620157503, 34.387177899 ], [ -85.620350905, 34.386971794 ], [ -85.621732406, 34.385986999 ], [ -85.622091502, 34.385574795 ], [ -85.623528004, 34.384727493 ], [ -85.623970002, 34.3839489 ], [ -85.624080703, 34.383170195 ], [ -85.624439806, 34.382666394 ], [ -85.624937005, 34.382368699 ], [ -85.627975605, 34.382162698 ], [ -85.628832005, 34.381796293 ], [ -85.629909307, 34.380834393 ] ] } },
{ "type": "Feature", "properties": { "site_no": "02399000", "nhdplus_comid": "15820721", "navigation_mode": "DM", "requested_distance_km": 12.0, "start_source": "nwissite", "start_id": "USGS-02399000", "geometry_length_km": 1.8058590052439876 }, "geometry": { "type": "LineString", "coordinates": [ [ -85.629909307, 34.380834393 ], [ -85.630268402, 34.380101494 ], [ -85.630240805, 34.379139498 ], [ -85.629771106, 34.378269196 ], [ -85.629273802, 34.377627999 ], [ -85.628666103, 34.3759562 ], [ -85.628583305, 34.375910297 ], [ -85.628390007, 34.375085898 ], [ -85.628279507, 34.3739409 ], [ -85.628610902, 34.372933194 ], [ -85.629163302, 34.372383498 ], [ -85.630295806, 34.372223198 ], [ -85.630931005, 34.372016996 ], [ -85.632008202, 34.3714903 ], [ -85.633389205, 34.370665699 ], [ -85.634107307, 34.370070294 ], [ -85.634880602, 34.3691542 ], [ -85.635626301, 34.3680548 ] ] } },
{ "type": "Feature", "properties": { "site_no": "02399000", "nhdplus_comid": "15820731", "navigation_mode": "DM", "requested_distance_km": 12.0, "start_source": "nwissite", "start_id": "USGS-02399000", "geometry_length_km": 0.76555155058077007 }, "geometry": { "type": "LineString", "coordinates": [ [ -85.635626301, 34.3680548 ], [ -85.635791801, 34.367298998 ], [ -85.636068001, 34.366886698 ], [ -85.636620402, 34.366611898 ], [ -85.6375871, 34.366428599 ], [ -85.640680306, 34.366313897 ], [ -85.641232602, 34.366359599 ], [ -85.641785204, 34.366886295 ], [ -85.641840503, 34.367481798 ] ] } },
{ "type": "Feature", "properties": { "site_no": "02399000", "nhdplus_comid": "15820749", "navigation_mode": "DM", "requested_distance_km": 12.0, "start_source": "nwissite", "start_id": "USGS-02399000", "geometry_length_km": 2.4426901248065178 }, "geometry": { "type": "LineString", "coordinates": [ [ -85.641840503, 34.367481798 ], [ -85.642033905, 34.367916897 ], [ -85.643028401, 34.369061895 ], [ -85.643497907, 34.369245097 ], [ -85.644658104, 34.369473994 ], [ -85.645486705, 34.3694968 ], [ -85.646066606, 34.369382195 ], [ -85.646453306, 34.369175993 ], [ -85.646674104, 34.368832394 ], [ -85.646784402, 34.367824696 ], [ -85.646563306, 34.367252097 ], [ -85.646507807, 34.366244495 ], [ -85.646783702, 34.365122199 ], [ -85.647335902, 34.364297599 ], [ -85.647777706, 34.363999896 ], [ -85.648274906, 34.363885298 ], [ -85.649821505, 34.364045396 ], [ -85.65123, 34.364113897 ], [ -85.6524451, 34.363792993 ], [ -85.652831703, 34.363541 ], [ -85.654129602, 34.363036893 ], [ -85.655952401, 34.362944894 ], [ -85.657333203, 34.362692699 ], [ -85.660315804, 34.362439997 ], [ -85.661393002, 34.362714499 ] ] } },
{ "type": "Feature", "properties": { "site_no": "02399000", "nhdplus_comid": "15820799", "navigation_mode": "DM", "requested_distance_km": 12.0, "start_source": "nwissite", "start_id": "USGS-02399000", "geometry_length_km": 1.76356089484296 }, "geometry": { "type": "LineString", "coordinates": [ [ -85.661393002, 34.362714499 ], [ -85.662000604, 34.362714395 ], [ -85.662773803, 34.362576798 ], [ -85.6641545, 34.361912198 ], [ -85.666694202, 34.359712794 ], [ -85.668406002, 34.358589999 ], [ -85.668902606, 34.3577196 ], [ -85.668874204, 34.356047697 ], [ -85.668735802, 34.355498098 ], [ -85.668570101, 34.355315 ], [ -85.668569602, 34.354490399 ], [ -85.668652207, 34.354169697 ], [ -85.669011205, 34.353940599 ], [ -85.670198604, 34.353619598 ], [ -85.671358101, 34.353115298 ], [ -85.6717996, 34.352634296 ], [ -85.672130503, 34.351809695 ] ] } },
{ "type": "Feature", "properties": { "site_no": "02399000", "nhdplus_comid": "15820807", "navigation_mode": "DM", "requested_distance_km": 12.0, "start_source": "nwissite", "start_id": "USGS-02399000", "geometry_length_km": 0.092319677665186173 }, "geometry": { "type": "LineString", "coordinates": [ [ -85.672130503, 34.351809695 ], [ -85.672185406, 34.350985199 ] ] } },
{ "type": "Feature", "properties": { "site_no": "02399000", "nhdplus_comid": "15822903", "navigation_mode": "DM", "requested_distance_km": 12.0, "start_source": "nwissite", "start_id": "USGS-02399000", "geometry_length_km": 1.6375212815361753 }, "geometry": { "type": "LineString", "coordinates": [ [ -85.672185406, 34.350985199 ], [ -85.672930203, 34.3496795 ], [ -85.673703, 34.349129595 ], [ -85.675856203, 34.347869098 ], [ -85.676463403, 34.347342096 ], [ -85.676463, 34.346632093 ], [ -85.675937906, 34.345830694 ], [ -85.675716601, 34.345166594 ], [ -85.675522804, 34.344067395 ], [ -85.675163306, 34.343082696 ], [ -85.674748905, 34.3426935 ], [ -85.674113706, 34.342464693 ], [ -85.673119605, 34.342396393 ], [ -85.672098204, 34.342717394 ], [ -85.670938604, 34.342923895 ], [ -85.670496903, 34.342832498 ], [ -85.669557802, 34.342351794 ] ] } },
{ "type": "Feature", "properties": { "site_no": "02399000", "nhdplus_comid": "15820871", "navigation_mode": "DM", "requested_distance_km": 12.0, "start_source": "nwissite", "start_id": "USGS-02399000", "geometry_length_km": 0.93803911715186239 }, "geometry": { "type": "LineString", "coordinates": [ [ -85.669557802, 34.342351794 ], [ -85.669364206, 34.341710694 ], [ -85.669280805, 34.3405426 ], [ -85.669556007, 34.339053795 ], [ -85.669554703, 34.336328499 ], [ -85.669720002, 34.335664198 ], [ -85.670464702, 34.334129497 ] ] } }
]
}
