{
"type": "FeatureCollection",
"name": "USGS_02420000_UM_12km",
"crs": { "type": "name", "properties": { "name": "urn:ogc:def:crs:OGC:1.3:CRS84" } },
"features": [
{ "type": "Feature", "properties": { "site_no": "02420000", "nhdplus_comid": "21687086", "navigation_mode": "UM", "requested_distance_km": 12.0, "start_source": "nwissite", "start_id": "USGS-02420000", "geometry_length_km": 0.39214091465028211 }, "geometry": { "type": "LineString", "coordinates": [ [ -86.404132105, 32.412105195 ], [ -86.404460005, 32.411880597 ], [ -86.406887203, 32.4117084 ], [ -86.4081787, 32.411434128 ] ] } },
{ "type": "Feature", "properties": { "site_no": "02420000", "nhdplus_comid": "25380586", "navigation_mode": "UM", "requested_distance_km": 12.0, "start_source": "nwissite", "start_id": "USGS-02420000", "geometry_length_km": 0.21047199562911093 }, "geometry": { "type": "LineString", "coordinates": [ [ -86.401914001, 32.411790393 ], [ -86.404132105, 32.412105195 ] ] } },
{ "type": "Feature", "properties": { "site_no": "02420000", "nhdplus_comid": "25380584", "navigation_mode": "UM", "requested_distance_km": 12.0, "start_source": "nwissite", "start_id": "USGS-02420000", "geometry_length_km": 0.8200363533895344 }, "geometry": { "type": "LineString", "coordinates": [ [ -86.395801805, 32.4163187 ], [ -86.396250606, 32.415094793 ], [ -86.396981902, 32.414021194 ], [ -86.398964703, 32.412549198 ], [ -86.400231101, 32.412025899 ], [ -86.401914001, 32.411790393 ] ] } },
{ "type": "Feature", "properties": { "site_no": "02420000", "nhdplus_comid": "21687062", "navigation_mode": "UM", "requested_distance_km": 12.0, "start_source": "nwissite", "start_id": "USGS-02420000", "geometry_length_km": 1.8225245828256871 }, "geometry": { "type": "LineString", "coordinates": [ [ -86.393637903, 32.427997895 ], [ -86.394591704, 32.427574299 ], [ -86.397748902, 32.4275904 ], [ -86.398896903, 32.426804595 ], [ -86.399479501, 32.425718397 ], [ -86.399615303, 32.424594097 ], [ -86.398471504, 32.4228561 ], [ -86.396196902, 32.420517094 ], [ -86.3958278, 32.418592699 ], [ -86.395801805, 32.4163187 ] ] } },
{ "type": "Feature", "properties": { "site_no": "02420000", "nhdplus_comid": "21687034", "navigation_mode": "UM", "requested_distance_km": 12.0, "start_source": "nwissite", "start_id": "USGS-02420000", "geometry_length_km": 0.88668940913948846 }, "geometry": { "type": "LineString", "coordinates": [ [ -86.3847038, 32.427237295 ], [ -86.385135405, 32.427400298 ], [ -86.386505701, 32.427264594 ], [ -86.387623601, 32.4267288 ], [ -86.391048305, 32.427020296 ], [ -86.392312907, 32.427758999 ], [ -86.393637903, 32.427997895 ] ] } },
{ "type": "Feature", "properties": { "site_no": "02420000", "nhdplus_comid": "21687028", "navigation_mode": "UM", "requested_distance_km": 12.0, "start_source": "nwissite", "start_id": "USGS-02420000", "geometry_length_km": 1.651329470483953 }, "geometry": { "type": "LineString", "coordinates": [ [ -86.369738206, 32.4265927 ], [ -86.370273203, 32.427143194 ], [ -86.3707477, 32.428193294 ], [ -86.372650705, 32.429870099 ], [ -86.375628807, 32.430124 ], [ -86.3783115, 32.429090597 ], [ -86.3847038, 32.427237295 ] ] } },
{ "type": "Feature", "properties": { "site_no": "02420000", "nhdplus_comid": "21687032", "navigation_mode": "UM", "requested_distance_km": 12.0, "start_source": "nwissite", "start_id": "USGS-02420000", "geometry_length_km": 0.11294747467084734 }, "geometry": { "type": "LineString", "coordinates": [ [ -86.369546406, 32.425692894 ], [ -86.369917504, 32.426355593 ], [ -86.369738206, 32.4265927 ] ] } },
{ "type": "Feature", "properties": { "site_no": "02420000", "nhdplus_comid": "21687042", "navigation_mode": "UM", "requested_distance_km": 12.0, "start_source": "nwissite", "start_id": "USGS-02420000", "geometry_length_km": 0.23759061193592548 }, "geometry": { "type": "LineString", "coordinates": [ [ -86.369193107, 32.423643395 ], [ -86.369460605, 32.423918597 ], [ -86.369546406, 32.425692894 ] ] } },
{ "type": "Feature", "properties": { "site_no": "02420000", "nhdplus_comid": "21687052", "navigation_mode": "UM", "requested_distance_km": 12.0, "start_source": "nwissite", "start_id": "USGS-02420000", "geometry_length_km": 0.61774744838485385 }, "geometry": { "type": "LineString", "coordinates": [ [ -86.368191205, 32.418257095 ], [ -86.369064406, 32.420981996 ], [ -86.369372204, 32.423406295 ], [ -86.369193107, 32.423643395 ] ] } },
{ "type": "Feature", "properties": { "site_no": "02420000", "nhdplus_comid": "21687124", "navigation_mode": "UM", "requested_distance_km": 12.0, "start_source": "nwissite", "start_id": "USGS-02420000", "geometry_length_km": 5.8950498912358631 }, "geometry": { "type": "LineString", "coordinates": [ [ -86.327582106, 32.383608297 ], [ -86.329185501, 32.385260396 ], [ -86.332082607, 32.387401998 ], [ -86.333078802, 32.387865998 ], [ -86.334700704, 32.388131194 ], [ -86.335800104, 32.388982698 ], [ -86.338120505, 32.389686294 ], [ -86.340261802, 32.390626997 ], [ -86.342597507, 32.391205594 ], [ -86.344456404, 32.391995795 ], [ -86.345349401, 32.392072193 ], [ -86.349480607, 32.395202398 ], [ -86.351753101, 32.397542395 ], [ -86.352585502, 32.398118399 ], [ -86.354162104, 32.398758098 ], [ -86.356349304, 32.399323694 ], [ -86.359071203, 32.400439799 ], [ -86.363783702, 32.403745197 ], [ -86.365789406, 32.405809596 ], [ -86.3662486, 32.406984694 ], [ -86.366455302, 32.407759696 ], [ -86.365822002, 32.411744393 ], [ -86.366311505, 32.412669696 ], [ -86.367108703, 32.416019194 ], [ -86.367865704, 32.417219698 ], [ -86.368191205, 32.418257095 ] ] } }
]
}
