{
"type": "FeatureCollection",
"name": "USGS_02410000_DM_12km",
"crs": { "type": "name", "properties": { "name": "urn:ogc:def:crs:OGC:1.3:CRS84" } },
"features": [
{ "type": "Feature", "properties": { "site_no": "02410000", "nhdplus_comid": "22275908", "navigation_mode": "DM", "requested_distance_km": 12.0, "start_source": "nwissite", "start_id": "USGS-02410000", "geometry_length_km": 2.5605118706421903 }, "geometry": { "type": "LineString", "coordinates": [ [ -86.12764668, 32.681975678 ], [ -86.1277555, 32.681877196 ], [ -86.127945103, 32.6813045 ], [ -86.127972201, 32.680800393 ], [ -86.128812104, 32.679357 ], [ -86.129408002, 32.678807095 ], [ -86.129976906, 32.678486399 ], [ -86.130762503, 32.678371795 ], [ -86.131385602, 32.678669699 ], [ -86.132577606, 32.678371795 ], [ -86.133119404, 32.677821897 ], [ -86.133281901, 32.676836796 ], [ -86.133688301, 32.676172294 ], [ -86.133959107, 32.675393298 ], [ -86.133959107, 32.674889199 ], [ -86.134500802, 32.673560396 ], [ -86.134825803, 32.673124999 ], [ -86.135584205, 32.672575198 ], [ -86.136044703, 32.672414795 ], [ -86.137372106, 32.672162697 ], [ -86.137967907, 32.671841897 ], [ -86.137995005, 32.671704397 ], [ -86.138428405, 32.671269096 ], [ -86.1385637, 32.670375496 ], [ -86.138699107, 32.670146398 ], [ -86.138699003, 32.668840498 ], [ -86.139132202, 32.667969793 ], [ -86.139565505, 32.667351097 ], [ -86.139511101, 32.665495194 ], [ -86.139619403, 32.665174499 ], [ -86.139538005, 32.664372593 ] ] } },
{ "type": "Feature", "properties": { "site_no": "02410000", "nhdplus_comid": "22275916", "navigation_mode": "DM", "requested_distance_km": 12.0, "start_source": "nwissite", "start_id": "USGS-02410000", "geometry_length_km": 0.89656122688463702 }, "geometry": { "type": "LineString", "coordinates": [ [ -86.139538005, 32.664372593 ], [ -86.139646403, 32.664212197 ], [ -86.139971405, 32.664005995 ], [ -86.140106805, 32.663730994 ], [ -86.140702605, 32.663066499 ], [ -86.141433902, 32.662676997 ], [ -86.1418401, 32.662585296 ], [ -86.142815307, 32.6628372 ], [ -86.143709101, 32.663226597 ], [ -86.144765705, 32.663936697 ], [ -86.146147102, 32.663982399 ], [ -86.146634705, 32.664211497 ], [ -86.147203602, 32.6649215 ] ] } },
{ "type": "Feature", "properties": { "site_no": "02410000", "nhdplus_comid": "22275902", "navigation_mode": "DM", "requested_distance_km": 12.0, "start_source": "nwissite", "start_id": "USGS-02410000", "geometry_length_km": 0.46407950819189625 }, "geometry": { "type": "LineString", "coordinates": [ [ -86.147203602, 32.6649215 ], [ -86.148016207, 32.665035993 ], [ -86.150047705, 32.6651503 ], [ -86.152133301, 32.664851993 ] ] } },
{ "type": "Feature", "properties": { "site_no": "02410000", "nhdplus_comid": "22275946", "navigation_mode": "DM", "requested_distance_km": 12.0, "start_source": "nwissite", "start_id": "USGS-02410000", "geometry_length_km": 1.7924785767759734 }, "geometry": { "type": "LineString", "coordinates": [ [ -86.152133301, 32.664851993 ], [ -86.152133301, 32.664760396 ], [ -86.152675003, 32.664393693 ], [ -86.152918607, 32.664004199 ], [ -86.153297402, 32.662766896 ], [ -86.1549493, 32.661323197 ], [ -86.155274205, 32.6608878 ], [ -86.155355401, 32.660566993 ], [ -86.155301005, 32.660085894 ], [ -86.154433802, 32.658436395 ], [ -86.154515006, 32.6580927 ], [ -86.1547857, 32.657748997 ], [ -86.155706502, 32.657496795 ], [ -86.157412805, 32.6574964 ], [ -86.158008605, 32.657335997 ], [ -86.158739701, 32.656923294 ], [ -86.158983402, 32.656694196 ], [ -86.159064502, 32.656304695 ], [ -86.158956103, 32.656052597 ], [ -86.158251606, 32.655228093 ], [ -86.158007801, 32.654815599 ], [ -86.157980606, 32.654517896 ], [ -86.158549003, 32.653601199 ], [ -86.158928007, 32.653188698 ] ] } },
{ "type": "Feature", "properties": { "site_no": "02410000", "nhdplus_comid": "22275948", "navigation_mode": "DM", "requested_distance_km": 12.0, "start_source": "nwissite", "start_id": "USGS-02410000", "geometry_length_km": 2.7125798848564728 }, "geometry": { "type": "LineString", "coordinates": [ [ -86.158928007, 32.653188698 ], [ -86.159523904, 32.653050996 ], [ -86.160336405, 32.653234199 ], [ -86.1617449, 32.653898194 ], [ -86.163586706, 32.654332995 ], [ -86.1646972, 32.654355593 ], [ -86.165347107, 32.654217996 ], [ -86.166863501, 32.653575994 ], [ -86.168217503, 32.6533693 ], [ -86.168677904, 32.653415099 ], [ -86.169273905, 32.653643996 ], [ -86.1698163, 32.655087195 ], [ -86.170249902, 32.655591093 ], [ -86.171279401, 32.656163596 ], [ -86.171523102, 32.656369694 ], [ -86.171713606, 32.658179596 ], [ -86.172147207, 32.658637695 ], [ -86.172607601, 32.658637494 ], [ -86.172878407, 32.658431195 ], [ -86.1732032, 32.657926999 ], [ -86.173419602, 32.657377094 ], [ -86.1733924, 32.657102197 ], [ -86.173554607, 32.656804197 ], [ -86.173933804, 32.656597897 ], [ -86.175017104, 32.656437196 ], [ -86.175287902, 32.656643294 ], [ -86.175397702, 32.659255095 ], [ -86.175479203, 32.659919493 ], [ -86.175777502, 32.660354696 ], [ -86.176184006, 32.660652399 ], [ -86.176671602, 32.6608584 ], [ -86.176861301, 32.661018796 ], [ -86.176888503, 32.661339499 ] ] } },
{ "type": "Feature", "properties": { "site_no": "02410000", "nhdplus_comid": "22275928", "navigation_mode": "DM", "requested_distance_km": 12.0, "start_source": "nwissite", "start_id": "USGS-02410000", "geometry_length_km": 1.0326019278681471 }, "geometry": { "type": "LineString", "coordinates": [ [ -86.176888503, 32.661339499 ], [ -86.176969804, 32.661385298 ], [ -86.177024104, 32.661637299 ], [ -86.177457601, 32.662026599 ], [ -86.178486906, 32.662071995 ], [ -86.179299101, 32.661315598 ], [ -86.180707105, 32.660444394 ], [ -86.181790203, 32.660008699 ], [ -86.182738103, 32.659733295 ], [ -86.183848403, 32.659641199 ], [ -86.184254706, 32.659709699 ], [ -86.184932105, 32.660007298 ], [ -86.185907505, 32.6607401 ], [ -86.185934804, 32.660923295 ] ] } },
{ "type": "Feature", "properties": { "site_no": "02410000", "nhdplus_comid": "22275944", "navigation_mode": "DM", "requested_distance_km": 12.0, "start_source": "nwissite", "start_id": "USGS-02410000", "geometry_length_km": 1.8166788296908876 }, "geometry": { "type": "LineString", "coordinates": [ [ -86.185934804, 32.660923295 ], [ -86.186639205, 32.661243699 ], [ -86.187370606, 32.661357999 ], [ -86.188129306, 32.661678299 ], [ -86.189104602, 32.661906995 ], [ -86.189835802, 32.661906697 ], [ -86.190458402, 32.661310598 ], [ -86.191676505, 32.660279095 ], [ -86.192380004, 32.6593851 ], [ -86.1940853, 32.657780394 ], [ -86.194274604, 32.657436594 ], [ -86.194220103, 32.656978399 ], [ -86.193759404, 32.656634994 ], [ -86.193759106, 32.656153798 ], [ -86.194083907, 32.655809999 ], [ -86.199201301, 32.654088795 ], [ -86.199769907, 32.654019795 ] ] } }
]
}
