{
"type": "FeatureCollection",
"name": "USGS_03575980_UM_12km",
"crs": { "type": "name", "properties": { "name": "urn:ogc:def:crs:OGC:1.3:CRS84" } },
"features": [
{ "type": "Feature", "properties": { "site_no": "03575980", "nhdplus_comid": "19620232", "navigation_mode": "UM", "requested_distance_km": 12.0, "start_source": "nwissite", "start_id": "USGS-03575980", "geometry_length_km": 3.1283454032545288 }, "geometry": { "type": "LineString", "coordinates": [ [ -86.642856702, 34.715793796 ], [ -86.6424684, 34.715747997 ], [ -86.642218605, 34.715014994 ], [ -86.642135404, 34.714969195 ], [ -86.641691402, 34.713938594 ], [ -86.640692607, 34.713068195 ], [ -86.639887907, 34.711693995 ], [ -86.639527202, 34.710571699 ], [ -86.639416002, 34.709036998 ], [ -86.6387503, 34.708097897 ], [ -86.638195202, 34.706219696 ], [ -86.638333805, 34.705624193 ], [ -86.638333805, 34.704936996 ], [ -86.637778804, 34.703585595 ], [ -86.637529202, 34.703287795 ], [ -86.636364102, 34.702326 ], [ -86.633867905, 34.700997598 ], [ -86.630733803, 34.698546797 ], [ -86.629485704, 34.697126694 ], [ -86.628792301, 34.695866793 ], [ -86.628376305, 34.692889094 ], [ -86.628154404, 34.692591295 ], [ -86.627632904, 34.692488768 ] ] } },
{ "type": "Feature", "properties": { "site_no": "03575980", "nhdplus_comid": "19619954", "navigation_mode": "UM", "requested_distance_km": 12.0, "start_source": "nwissite", "start_id": "USGS-03575980", "geometry_length_km": 0.24952971497916049 }, "geometry": { "type": "LineString", "coordinates": [ [ -86.6451592, 34.715747699 ], [ -86.644798502, 34.715266697 ], [ -86.644243605, 34.715358399 ], [ -86.642856702, 34.715793796 ] ] } },
{ "type": "Feature", "properties": { "site_no": "03575980", "nhdplus_comid": "19621342", "navigation_mode": "UM", "requested_distance_km": 12.0, "start_source": "nwissite", "start_id": "USGS-03575980", "geometry_length_km": 5.1349901530287489 }, "geometry": { "type": "LineString", "coordinates": [ [ -86.666068904, 34.7545297 ], [ -86.665957503, 34.753773898 ], [ -86.665763006, 34.753292896 ], [ -86.665619105, 34.750101298 ], [ -86.665618904, 34.749757797 ], [ -86.664758205, 34.748498097 ], [ -86.664175205, 34.747994393 ], [ -86.663148105, 34.747330494 ], [ -86.662648305, 34.746551894 ], [ -86.661732204, 34.745887898 ], [ -86.660677306, 34.7446054 ], [ -86.660344101, 34.7440558 ], [ -86.659427606, 34.742383897 ], [ -86.658733003, 34.740139298 ], [ -86.658344403, 34.739566796 ], [ -86.657872505, 34.739062995 ], [ -86.657761402, 34.738765299 ], [ -86.657122903, 34.737917997 ], [ -86.655874103, 34.737414293 ], [ -86.654459007, 34.737185493 ], [ -86.654320203, 34.737025194 ], [ -86.654264607, 34.736727498 ], [ -86.655040905, 34.734780297 ], [ -86.655401103, 34.733566299 ], [ -86.6554287, 34.732878998 ], [ -86.655317605, 34.732581295 ], [ -86.654540502, 34.732031696 ], [ -86.6541242, 34.731619596 ], [ -86.653596804, 34.730772197 ], [ -86.653319106, 34.730016395 ], [ -86.653263502, 34.729420893 ], [ -86.653873503, 34.728206694 ], [ -86.654039606, 34.727588199 ], [ -86.6539561, 34.726557396 ], [ -86.653734006, 34.725893296 ], [ -86.653511606, 34.724358596 ], [ -86.652817607, 34.723098993 ], [ -86.652151503, 34.722389095 ], [ -86.652095906, 34.722228698 ], [ -86.651679702, 34.721770696 ], [ -86.648655303, 34.719549395 ], [ -86.647684202, 34.718747899 ], [ -86.646851704, 34.717556998 ], [ -86.645880602, 34.716801196 ], [ -86.645408906, 34.716320194 ], [ -86.6451592, 34.715747699 ] ] } }
]
}
