{
"type": "FeatureCollection",
"name": "USGS_02413400_UM_12km",
"crs": { "type": "name", "properties": { "name": "urn:ogc:def:crs:OGC:1.3:CRS84" } },
"features": [
{ "type": "Feature", "properties": { "site_no": "02413400", "nhdplus_comid": "15812011", "navigation_mode": "UM", "requested_distance_km": 12.0, "start_source": "nwissite", "start_id": "USGS-02413400", "geometry_length_km": 0.49750508006726712 }, "geometry": { "type": "LineString", "coordinates": [ [ -85.337522104, 33.322423898 ], [ -85.338476703, 33.323157199 ], [ -85.339513503, 33.3231804 ], [ -85.340140902, 33.3233409 ], [ -85.341886804, 33.323501796 ], [ -85.342445758, 33.323736498 ] ] } },
{ "type": "Feature", "properties": { "site_no": "02413400", "nhdplus_comid": "15811993", "navigation_mode": "UM", "requested_distance_km": 12.0, "start_source": "nwissite", "start_id": "USGS-02413400", "geometry_length_km": 8.4456777030007366 }, "geometry": { "type": "LineString", "coordinates": [ [ -85.3073503, 33.353811398 ], [ -85.306996003, 33.353307396 ], [ -85.306669302, 33.352184899 ], [ -85.306123905, 33.351497494 ], [ -85.305988505, 33.350397997 ], [ -85.306043804, 33.349481896 ], [ -85.305744, 33.349069394 ], [ -85.305444807, 33.347763799 ], [ -85.305446707, 33.345542096 ], [ -85.305284001, 33.344488494 ], [ -85.305475503, 33.343824394 ], [ -85.305394106, 33.343320496 ], [ -85.305257902, 33.3430226 ], [ -85.305340402, 33.342198193 ], [ -85.305505, 33.3411218 ], [ -85.304986902, 33.340526 ], [ -85.3031874, 33.338875897 ], [ -85.302806206, 33.337913699 ], [ -85.302342802, 33.337409496 ], [ -85.302234001, 33.337020099 ], [ -85.301934406, 33.336470194 ], [ -85.3005981, 33.335621998 ], [ -85.300216407, 33.335232295 ], [ -85.299889602, 33.334567994 ], [ -85.299918003, 33.333308198 ], [ -85.299782, 33.332758494 ], [ -85.3000286, 33.331613496 ], [ -85.300602302, 33.330743499 ], [ -85.300876103, 33.329735897 ], [ -85.301313207, 33.329117797 ], [ -85.301969007, 33.328018799 ], [ -85.302815706, 33.326828398 ], [ -85.302680202, 33.325912096 ], [ -85.302898705, 33.325614497 ], [ -85.303499103, 33.325408593 ], [ -85.303472601, 33.324446797 ], [ -85.304183401, 33.322683498 ], [ -85.3045386, 33.322156899 ], [ -85.305220902, 33.321790896 ], [ -85.305357404, 33.321607798 ], [ -85.306094401, 33.321127295 ], [ -85.308496006, 33.320166595 ], [ -85.308932707, 33.319846295 ], [ -85.309561104, 33.318678498 ], [ -85.309889503, 33.3171442 ], [ -85.309863001, 33.316182196 ], [ -85.310545705, 33.315220594 ], [ -85.3124016, 33.314030595 ], [ -85.314339601, 33.312405296 ], [ -85.314967304, 33.311924696 ], [ -85.316304304, 33.311444394 ], [ -85.317150004, 33.311421894 ], [ -85.318049803, 33.312063597 ], [ -85.319495201, 33.312705599 ], [ -85.320422404, 33.313026696 ], [ -85.320858501, 33.313484997 ], [ -85.322113305, 33.313691698 ], [ -85.322877102, 33.313714899 ], [ -85.3233409, 33.3136006 ], [ -85.323859304, 33.313303098 ], [ -85.323914103, 33.313074097 ], [ -85.324350901, 33.312478699 ], [ -85.324623801, 33.312295698 ], [ -85.325196601, 33.312295899 ], [ -85.326014906, 33.3126169 ], [ -85.327132903, 33.313350298 ], [ -85.328687303, 33.314152494 ], [ -85.329914607, 33.314565293 ], [ -85.3323422, 33.315161593 ], [ -85.332969606, 33.315367997 ], [ -85.332942203, 33.315688595 ], [ -85.332150705, 33.3163983 ], [ -85.331932306, 33.3166961 ], [ -85.3325314, 33.318734795 ], [ -85.333022304, 33.319215894 ], [ -85.334440403, 33.320201196 ], [ -85.335449502, 33.320636794 ], [ -85.3365677, 33.321324199 ], [ -85.337358601, 33.322080299 ], [ -85.337522104, 33.322423898 ] ] } }
]
}
