{
"type": "FeatureCollection",
"name": "USGS_03585300_UM_12km",
"crs": { "type": "name", "properties": { "name": "urn:ogc:def:crs:OGC:1.3:CRS84" } },
"features": [
{ "type": "Feature", "properties": { "site_no": "03585300", "nhdplus_comid": "19598066", "navigation_mode": "UM", "requested_distance_km": 12.0, "start_source": "nwissite", "start_id": "USGS-03585300", "geometry_length_km": 0.21627837093569433 }, "geometry": { "type": "LineString", "coordinates": [ [ -87.155417904, 34.947297394 ], [ -87.155668005, 34.946862198 ], [ -87.155723505, 34.946426898 ], [ -87.155500606, 34.945464998 ], [ -87.155500066, 34.945428158 ] ] } },
{ "type": "Feature", "properties": { "site_no": "03585300", "nhdplus_comid": "19598052", "navigation_mode": "UM", "requested_distance_km": 12.0, "start_source": "nwissite", "start_id": "USGS-03585300", "geometry_length_km": 0.87940051185716139 }, "geometry": { "type": "LineString", "coordinates": [ [ -87.149466, 34.951169699 ], [ -87.149521701, 34.951077998 ], [ -87.149382301, 34.950390995 ], [ -87.149437703, 34.949589193 ], [ -87.149632402, 34.949337296 ], [ -87.150021806, 34.949199796 ], [ -87.150800705, 34.949314095 ], [ -87.151663207, 34.9496575 ], [ -87.152525507, 34.949794695 ], [ -87.152942806, 34.949680097 ], [ -87.153554603, 34.9491532 ], [ -87.155056201, 34.947503693 ], [ -87.155417904, 34.947297394 ] ] } },
{ "type": "Feature", "properties": { "site_no": "03585300", "nhdplus_comid": "19598044", "navigation_mode": "UM", "requested_distance_km": 12.0, "start_source": "nwissite", "start_id": "USGS-03585300", "geometry_length_km": 2.422442321199298 }, "geometry": { "type": "LineString", "coordinates": [ [ -87.157456204, 34.966536798 ], [ -87.158290103, 34.964681193 ], [ -87.158289701, 34.963833697 ], [ -87.158094704, 34.9631695 ], [ -87.158011004, 34.962528199 ], [ -87.157899506, 34.962207593 ], [ -87.157537706, 34.961795494 ], [ -87.157481901, 34.961474799 ], [ -87.157593101, 34.9611312 ], [ -87.158177003, 34.960214898 ], [ -87.158399306, 34.959664993 ], [ -87.158454701, 34.959092394 ], [ -87.1583433, 34.958794698 ], [ -87.157619603, 34.957878694 ], [ -87.156979501, 34.957489498 ], [ -87.156562202, 34.957397997 ], [ -87.155671902, 34.957375295 ], [ -87.152667403, 34.957742497 ], [ -87.151860602, 34.957673997 ], [ -87.151498802, 34.957536697 ], [ -87.151081301, 34.957147397 ], [ -87.150942102, 34.956781 ], [ -87.150914006, 34.956116699 ], [ -87.151136607, 34.955704398 ], [ -87.1515816, 34.955337897 ], [ -87.151720606, 34.955039993 ], [ -87.151720405, 34.954421595 ], [ -87.151497602, 34.953780398 ], [ -87.150078304, 34.952131599 ], [ -87.149549507, 34.951192595 ], [ -87.149466, 34.951169699 ] ] } },
{ "type": "Feature", "properties": { "site_no": "03585300", "nhdplus_comid": "19598002", "navigation_mode": "UM", "requested_distance_km": 12.0, "start_source": "nwissite", "start_id": "USGS-03585300", "geometry_length_km": 2.8464093871840119 }, "geometry": { "type": "LineString", "coordinates": [ [ -87.176302105, 34.980799593 ], [ -87.175995804, 34.980616398 ], [ -87.175522506, 34.9804793 ], [ -87.174159005, 34.980571397 ], [ -87.173324101, 34.980457298 ], [ -87.172656007, 34.980251297 ], [ -87.172127001, 34.979747698 ], [ -87.171681404, 34.979037799 ], [ -87.171235703, 34.978373796 ], [ -87.170873806, 34.978099093 ], [ -87.170038901, 34.977893293 ], [ -87.169036806, 34.977366798 ], [ -87.168647006, 34.977069199 ], [ -87.1685635, 34.976863094 ], [ -87.168145806, 34.976496793 ], [ -87.167867601, 34.976451099 ], [ -87.167199902, 34.976794794 ], [ -87.166838102, 34.976794995 ], [ -87.164583601, 34.975925393 ], [ -87.163553901, 34.975673795 ], [ -87.163053006, 34.975650996 ], [ -87.162329607, 34.975742899 ], [ -87.160715304, 34.975125 ], [ -87.159991607, 34.974666998 ], [ -87.158655703, 34.974186495 ], [ -87.158210404, 34.9738888 ], [ -87.156901605, 34.9717362 ], [ -87.1565115, 34.970339097 ], [ -87.156316407, 34.969331399 ], [ -87.156232305, 34.967728093 ], [ -87.156427003, 34.967361599 ], [ -87.157456204, 34.966536798 ] ] } },
{ "type": "Feature", "properties": { "site_no": "03585300", "nhdplus_comid": "19597974", "navigation_mode": "UM", "requested_distance_km": 12.0, "start_source": "nwissite", "start_id": "USGS-03585300", "geometry_length_km": 0.17321679328386583 }, "geometry": { "type": "LineString", "coordinates": [ [ -87.177249007, 34.982081793 ], [ -87.177082106, 34.982036099 ], [ -87.176803604, 34.981761299 ], [ -87.176775701, 34.981601 ], [ -87.176302105, 34.980799593 ] ] } },
{ "type": "Feature", "properties": { "site_no": "03585300", "nhdplus_comid": "19597972", "navigation_mode": "UM", "requested_distance_km": 12.0, "start_source": "nwissite", "start_id": "USGS-03585300", "geometry_length_km": 0.78595614048556273 }, "geometry": { "type": "LineString", "coordinates": [ [ -87.183512107, 34.984094493 ], [ -87.182816304, 34.984117799 ], [ -87.182315201, 34.983888894 ], [ -87.181702502, 34.983224995 ], [ -87.181340702, 34.983202294 ], [ -87.181034707, 34.983339794 ], [ -87.180756405, 34.983339898 ], [ -87.180450104, 34.983133994 ], [ -87.1801714, 34.982653096 ], [ -87.179447703, 34.982378498 ], [ -87.179002002, 34.981622897 ], [ -87.178862706, 34.981508493 ], [ -87.178640202, 34.981485695 ], [ -87.178528801, 34.9815773 ], [ -87.178529106, 34.982081197 ], [ -87.1783344, 34.9821501 ], [ -87.177249007, 34.982081793 ] ] } },
{ "type": "Feature", "properties": { "site_no": "03585300", "nhdplus_comid": "19597966", "navigation_mode": "UM", "requested_distance_km": 12.0, "start_source": "nwissite", "start_id": "USGS-03585300", "geometry_length_km": 0.12351971402606131 }, "geometry": { "type": "LineString", "coordinates": [ [ -87.184764102, 34.9837045 ], [ -87.184124105, 34.983796395 ], [ -87.183512107, 34.984094493 ] ] } },
{ "type": "Feature", "properties": { "site_no": "03585300", "nhdplus_comid": "19597968", "navigation_mode": "UM", "requested_distance_km": 12.0, "start_source": "nwissite", "start_id": "USGS-03585300", "geometry_length_km": 1.4383146017676431 }, "geometry": { "type": "LineString", "coordinates": [ [ -87.191397004, 34.995107397 ], [ -87.190421507, 34.993619099 ], [ -87.189780802, 34.992955297 ], [ -87.189223506, 34.992153898 ], [ -87.188080907, 34.990138896 ], [ -87.187439501, 34.988467194 ], [ -87.187327601, 34.987803094 ], [ -87.1864914, 34.985971093 ], [ -87.186407305, 34.985261098 ], [ -87.186212204, 34.9848032 ], [ -87.185738705, 34.984299496 ], [ -87.184764102, 34.9837045 ] ] } },
{ "type": "Feature", "properties": { "site_no": "03585300", "nhdplus_comid": "19597944", "navigation_mode": "UM", "requested_distance_km": 12.0, "start_source": "nwissite", "start_id": "USGS-03585300", "geometry_length_km": 0.6030261632922771 }, "geometry": { "type": "LineString", "coordinates": [ [ -87.193293206, 35.000099599 ], [ -87.193070002, 34.999481097 ], [ -87.192596301, 34.998862997 ], [ -87.192512706, 34.9986111 ], [ -87.191649102, 34.997535095 ], [ -87.191314302, 34.996298395 ], [ -87.191285804, 34.995336495 ], [ -87.191397004, 34.995107397 ] ] } },
{ "type": "Feature", "properties": { "site_no": "03585300", "nhdplus_comid": "19596718", "navigation_mode": "UM", "requested_distance_km": 12.0, "start_source": "nwissite", "start_id": "USGS-03585300", "geometry_length_km": 0.35493956328614773 }, "geometry": { "type": "LineString", "coordinates": [ [ -87.194241501, 35.003001094 ], [ -87.194073103, 35.000848196 ], [ -87.193961605, 35.000550494 ], [ -87.193293206, 35.000099599 ] ] } },
{ "type": "Feature", "properties": { "site_no": "03585300", "nhdplus_comid": "19596694", "navigation_mode": "UM", "requested_distance_km": 12.0, "start_source": "nwissite", "start_id": "USGS-03585300", "geometry_length_km": 0.43424147364407339 }, "geometry": { "type": "LineString", "coordinates": [ [ -87.192156203, 35.006094299 ], [ -87.192155607, 35.005384296 ], [ -87.192322105, 35.004765794 ], [ -87.192933604, 35.003666095 ], [ -87.193239607, 35.003299497 ], [ -87.193629101, 35.003070198 ], [ -87.194241501, 35.003001094 ] ] } },
{ "type": "Feature", "properties": { "site_no": "03585300", "nhdplus_comid": "19596682", "navigation_mode": "UM", "requested_distance_km": 12.0, "start_source": "nwissite", "start_id": "USGS-03585300", "geometry_length_km": 0.44617818563095274 }, "geometry": { "type": "LineString", "coordinates": [ [ -87.1937178, 35.009460494 ], [ -87.193494603, 35.008819297 ], [ -87.193160303, 35.008475997 ], [ -87.1928818, 35.008384496 ], [ -87.192101903, 35.007835194 ], [ -87.191906907, 35.007560395 ], [ -87.1919064, 35.007010698 ], [ -87.192156203, 35.006094299 ] ] } },
{ "type": "Feature", "properties": { "site_no": "03585300", "nhdplus_comid": "19596658", "navigation_mode": "UM", "requested_distance_km": 12.0, "start_source": "nwissite", "start_id": "USGS-03585300", "geometry_length_km": 0.043632226790399749 }, "geometry": { "type": "LineString", "coordinates": [ [ -87.193746001, 35.009849794 ], [ -87.1937178, 35.009460494 ] ] } },
{ "type": "Feature", "properties": { "site_no": "03585300", "nhdplus_comid": "19596652", "navigation_mode": "UM", "requested_distance_km": 12.0, "start_source": "nwissite", "start_id": "USGS-03585300", "geometry_length_km": 1.3349013411402526 }, "geometry": { "type": "LineString", "coordinates": [ [ -87.200937301, 35.0194197 ], [ -87.200296603, 35.0191909 ], [ -87.199098803, 35.018481694 ], [ -87.198402204, 35.017909497 ], [ -87.196646802, 35.016192794 ], [ -87.195894301, 35.0153457 ], [ -87.195002303, 35.013994895 ], [ -87.194305502, 35.013124898 ], [ -87.193329901, 35.011522099 ], [ -87.193329304, 35.010903694 ], [ -87.193495803, 35.0102394 ], [ -87.193746001, 35.009849794 ] ] } }
]
}
