{
"type": "FeatureCollection",
"name": "USGS_0357587090_UM_12km",
"crs": { "type": "name", "properties": { "name": "urn:ogc:def:crs:OGC:1.3:CRS84" } },
"features": [
{ "type": "Feature", "properties": { "site_no": "0357587090", "nhdplus_comid": "19619594", "navigation_mode": "UM", "requested_distance_km": 12.0, "start_source": "nwissite", "start_id": "USGS-0357587090", "geometry_length_km": 3.4902213822163923 }, "geometry": { "type": "LineString", "coordinates": [ [ -86.628800005, 34.8068517 ], [ -86.627911404, 34.806439497 ], [ -86.626578301, 34.805385798 ], [ -86.625662006, 34.805340096 ], [ -86.6249955, 34.805019297 ], [ -86.621191204, 34.803163998 ], [ -86.618664302, 34.801743798 ], [ -86.617775805, 34.801148199 ], [ -86.616692901, 34.800575495 ], [ -86.6157488, 34.800277695 ], [ -86.6153045, 34.800025694 ], [ -86.614693806, 34.799361393 ], [ -86.613860905, 34.798582494 ], [ -86.6130834, 34.798170097 ], [ -86.612500302, 34.798078395 ], [ -86.610306807, 34.797528498 ], [ -86.610029206, 34.797345296 ], [ -86.609779403, 34.796726696 ], [ -86.608974203, 34.796291493 ], [ -86.608197004, 34.795306399 ], [ -86.606753305, 34.794504493 ], [ -86.605420806, 34.793267496 ], [ -86.605143301, 34.792603195 ], [ -86.604588203, 34.792145096 ], [ -86.601451203, 34.790472396 ], [ -86.598747642, 34.788666831 ] ] } }
]
}
