{
"type": "FeatureCollection",
"name": "USGS_02455185_DM_12km",
"crs": { "type": "name", "properties": { "name": "urn:ogc:def:crs:OGC:1.3:CRS84" } },
"features": [
{ "type": "Feature", "properties": { "site_no": "02455185", "nhdplus_comid": "18565189", "navigation_mode": "DM", "requested_distance_km": 12.0, "start_source": "nwissite", "start_id": "USGS-02455185", "geometry_length_km": 1.660198202858836 }, "geometry": { "type": "LineString", "coordinates": [ [ -86.445934597, 33.860072391 ], [ -86.446129307, 33.859909795 ], [ -86.446513601, 33.859795094 ], [ -86.4486828, 33.859770894 ], [ -86.449533805, 33.859472595 ], [ -86.450549006, 33.858670197 ], [ -86.451234907, 33.857959598 ], [ -86.451838605, 33.857478194 ], [ -86.452552207, 33.857157096 ], [ -86.453293405, 33.856996194 ], [ -86.454693906, 33.8571558 ], [ -86.456781507, 33.857864499 ], [ -86.458979003, 33.858779393 ], [ -86.460132606, 33.8590535 ], [ -86.460928805, 33.859052993 ], [ -86.462081701, 33.858708598 ] ] } },
{ "type": "Feature", "properties": { "site_no": "02455185", "nhdplus_comid": "18566421", "navigation_mode": "DM", "requested_distance_km": 12.0, "start_source": "nwissite", "start_id": "USGS-02455185", "geometry_length_km": 0.60596719519137521 }, "geometry": { "type": "LineString", "coordinates": [ [ -86.462081701, 33.858708598 ], [ -86.462094404, 33.858690999 ], [ -86.464772701, 33.856930599 ], [ -86.465530902, 33.8569934 ], [ -86.466864102, 33.858614795 ] ] } },
{ "type": "Feature", "properties": { "site_no": "02455185", "nhdplus_comid": "18566417", "navigation_mode": "DM", "requested_distance_km": 12.0, "start_source": "nwissite", "start_id": "USGS-02455185", "geometry_length_km": 0.22695803965057848 }, "geometry": { "type": "LineString", "coordinates": [ [ -86.466864102, 33.858614795 ], [ -86.467288502, 33.858901799 ], [ -86.468653306, 33.859014697 ], [ -86.469138704, 33.858802997 ] ] } },
{ "type": "Feature", "properties": { "site_no": "02455185", "nhdplus_comid": "18566413", "navigation_mode": "DM", "requested_distance_km": 12.0, "start_source": "nwissite", "start_id": "USGS-02455185", "geometry_length_km": 0.28958520946110078 }, "geometry": { "type": "LineString", "coordinates": [ [ -86.469138704, 33.858802997 ], [ -86.470048502, 33.8588783 ], [ -86.4710337, 33.859589398 ], [ -86.471928306, 33.859789297 ] ] } },
{ "type": "Feature", "properties": { "site_no": "02455185", "nhdplus_comid": "18566427", "navigation_mode": "DM", "requested_distance_km": 12.0, "start_source": "nwissite", "start_id": "USGS-02455185", "geometry_length_km": 3.4859442332644868 }, "geometry": { "type": "LineString", "coordinates": [ [ -86.471928306, 33.859789297 ], [ -86.476464905, 33.856512494 ], [ -86.478132904, 33.856650397 ], [ -86.479452707, 33.855877995 ], [ -86.481379002, 33.855155699 ], [ -86.482743703, 33.855268493 ], [ -86.483319804, 33.855567895 ], [ -86.487596102, 33.855669193 ], [ -86.489596605, 33.858100995 ], [ -86.490976602, 33.858089 ], [ -86.491810903, 33.857528195 ], [ -86.492145203, 33.856044695 ], [ -86.491933301, 33.855271697 ], [ -86.491024107, 33.853937395 ], [ -86.488174804, 33.850931898 ], [ -86.488311805, 33.8498099 ], [ -86.489312902, 33.849136993 ], [ -86.489631407, 33.849037297 ], [ -86.491435707, 33.849312194 ] ] } },
{ "type": "Feature", "properties": { "site_no": "02455185", "nhdplus_comid": "18566425", "navigation_mode": "DM", "requested_distance_km": 12.0, "start_source": "nwissite", "start_id": "USGS-02455185", "geometry_length_km": 1.1518415088313028 }, "geometry": { "type": "LineString", "coordinates": [ [ -86.491435707, 33.849312194 ], [ -86.492284507, 33.849886 ], [ -86.493012205, 33.850197896 ], [ -86.496317603, 33.850722499 ], [ -86.4978339, 33.850847498 ], [ -86.4989409, 33.850561097 ], [ -86.499441504, 33.850224599 ], [ -86.501261003, 33.850374594 ], [ -86.5016855, 33.850661494 ], [ -86.503204204, 33.850884497 ] ] } },
{ "type": "Feature", "properties": { "site_no": "02455185", "nhdplus_comid": "18566435", "navigation_mode": "DM", "requested_distance_km": 12.0, "start_source": "nwissite", "start_id": "USGS-02455185", "geometry_length_km": 3.3691960206287872 }, "geometry": { "type": "LineString", "coordinates": [ [ -86.503204204, 33.850884497 ], [ -86.503641501, 33.850948595 ], [ -86.505628206, 33.849727295 ], [ -86.505947001, 33.848368399 ], [ -86.504249506, 33.845961899 ], [ -86.504386701, 33.843580596 ], [ -86.506570503, 33.841997698 ], [ -86.508329406, 33.841387093 ], [ -86.510331005, 33.8400409 ], [ -86.511998706, 33.840178296 ], [ -86.513090201, 33.841275595 ], [ -86.513408303, 33.842435099 ], [ -86.514651403, 33.843544893 ], [ -86.519973204, 33.843857095 ], [ -86.524961703, 33.840615794 ] ] } },
{ "type": "Feature", "properties": { "site_no": "02455185", "nhdplus_comid": "18566443", "navigation_mode": "DM", "requested_distance_km": 12.0, "start_source": "nwissite", "start_id": "USGS-02455185", "geometry_length_km": 1.3952578106721858 }, "geometry": { "type": "LineString", "coordinates": [ [ -86.524961703, 33.840615794 ], [ -86.525598504, 33.840416297 ], [ -86.527599804, 33.839069799 ], [ -86.529570706, 33.8354543 ], [ -86.530540802, 33.832511894 ], [ -86.531086601, 33.831801198 ], [ -86.5329208, 33.830566898 ] ] } }
]
}
