{
"type": "FeatureCollection",
"name": "USGS_02364570_DM_12km",
"crs": { "type": "name", "properties": { "name": "urn:ogc:def:crs:OGC:1.3:CRS84" } },
"features": [
{ "type": "Feature", "properties": { "site_no": "02364570", "nhdplus_comid": "2214030", "navigation_mode": "DM", "requested_distance_km": 12.0, "start_source": "nwissite", "start_id": "USGS-02364570", "geometry_length_km": 1.1755048147736336 }, "geometry": { "type": "LineString", "coordinates": [ [ -86.186643607, 31.121449328 ], [ -86.186292104, 31.121694393 ], [ -86.185226902, 31.122267798 ], [ -86.183895104, 31.122566298 ], [ -86.182323501, 31.122658595 ], [ -86.181204706, 31.122636199 ], [ -86.180831701, 31.122544698 ], [ -86.179366201, 31.121743195 ], [ -86.178140804, 31.121720798 ], [ -86.176116101, 31.121538199 ], [ -86.175130501, 31.121676095 ], [ -86.174970701, 31.121767797 ] ] } },
{ "type": "Feature", "properties": { "site_no": "02364570", "nhdplus_comid": "2214046", "navigation_mode": "DM", "requested_distance_km": 12.0, "start_source": "nwissite", "start_id": "USGS-02364570", "geometry_length_km": 2.213715008382823 }, "geometry": { "type": "LineString", "coordinates": [ [ -86.174970701, 31.121767797 ], [ -86.173319101, 31.121745594 ], [ -86.172839604, 31.121676996 ], [ -86.172200203, 31.121402197 ], [ -86.171640806, 31.121379495 ], [ -86.171267904, 31.121494196 ], [ -86.170761801, 31.121517293 ], [ -86.170149006, 31.1214028 ], [ -86.169403106, 31.121448897 ], [ -86.168604203, 31.121632494 ], [ -86.167325504, 31.121724598 ], [ -86.165540606, 31.121381395 ], [ -86.162743405, 31.121107094 ], [ -86.161970802, 31.120603196 ], [ -86.161304802, 31.120442897 ], [ -86.1606654, 31.120420195 ], [ -86.1594133, 31.1201685 ], [ -86.157415204, 31.119275197 ], [ -86.155097604, 31.1188403 ], [ -86.154005304, 31.118382193 ], [ -86.153286003, 31.117878094 ], [ -86.152833104, 31.117763594 ] ] } },
{ "type": "Feature", "properties": { "site_no": "02364570", "nhdplus_comid": "2214058", "navigation_mode": "DM", "requested_distance_km": 12.0, "start_source": "nwissite", "start_id": "USGS-02364570", "geometry_length_km": 0.45631768931158956 }, "geometry": { "type": "LineString", "coordinates": [ [ -86.152833104, 31.117763594 ], [ -86.151661001, 31.117305495 ], [ -86.151527703, 31.1170993 ], [ -86.151554205, 31.116824396 ], [ -86.151847206, 31.116663896 ], [ -86.151873805, 31.116526395 ], [ -86.150115401, 31.115128696 ] ] } },
{ "type": "Feature", "properties": { "site_no": "02364570", "nhdplus_comid": "2214074", "navigation_mode": "DM", "requested_distance_km": 12.0, "start_source": "nwissite", "start_id": "USGS-02364570", "geometry_length_km": 0.34564655387426046 }, "geometry": { "type": "LineString", "coordinates": [ [ -86.150115401, 31.115128696 ], [ -86.149982102, 31.114830896 ], [ -86.149609104, 31.1137539 ], [ -86.149236105, 31.113410197 ], [ -86.148676604, 31.113158196 ], [ -86.148836203, 31.112516597 ] ] } },
{ "type": "Feature", "properties": { "site_no": "02364570", "nhdplus_comid": "2214084", "navigation_mode": "DM", "requested_distance_km": 12.0, "start_source": "nwissite", "start_id": "USGS-02364570", "geometry_length_km": 0.51447133560080538 }, "geometry": { "type": "LineString", "coordinates": [ [ -86.148836203, 31.112516597 ], [ -86.148756206, 31.112012394 ], [ -86.148330003, 31.111737497 ], [ -86.147690602, 31.111508399 ], [ -86.147078104, 31.1111876 ], [ -86.146518603, 31.110614799 ], [ -86.145452805, 31.109171197 ] ] } },
{ "type": "Feature", "properties": { "site_no": "02364570", "nhdplus_comid": "2214094", "navigation_mode": "DM", "requested_distance_km": 12.0, "start_source": "nwissite", "start_id": "USGS-02364570", "geometry_length_km": 1.2309563643679253 }, "geometry": { "type": "LineString", "coordinates": [ [ -86.145452805, 31.109171197 ], [ -86.1450532, 31.109148294 ], [ -86.144600406, 31.1088963 ], [ -86.144680202, 31.108415097 ], [ -86.144626901, 31.108117193 ], [ -86.1443073, 31.107865095 ], [ -86.143614806, 31.107658893 ], [ -86.142948806, 31.107017398 ], [ -86.142256305, 31.106925793 ], [ -86.141883306, 31.106742494 ], [ -86.141670205, 31.106421694 ], [ -86.141616903, 31.105940498 ], [ -86.141323805, 31.1055509 ], [ -86.1408711, 31.105505094 ], [ -86.1402051, 31.105138496 ], [ -86.139725603, 31.104565695 ], [ -86.1390597, 31.104130395 ], [ -86.138846606, 31.103832394 ], [ -86.138607003, 31.103671998 ], [ -86.138074301, 31.103603296 ], [ -86.137728006, 31.103190899 ], [ -86.137435101, 31.103030495 ], [ -86.136342905, 31.102755494 ] ] } },
{ "type": "Feature", "properties": { "site_no": "02364570", "nhdplus_comid": "2214114", "navigation_mode": "DM", "requested_distance_km": 12.0, "start_source": "nwissite", "start_id": "USGS-02364570", "geometry_length_km": 1.4378309392895294 }, "geometry": { "type": "LineString", "coordinates": [ [ -86.136342905, 31.102755494 ], [ -86.135970004, 31.102320097 ], [ -86.135570601, 31.102136798 ], [ -86.134558603, 31.102205597 ], [ -86.1342123, 31.102113999 ], [ -86.133946002, 31.101816095 ], [ -86.133360006, 31.101586893 ], [ -86.132933803, 31.1010141 ], [ -86.132427901, 31.100532897 ], [ -86.132348001, 31.100120395 ], [ -86.132188201, 31.099868298 ], [ -86.132268004, 31.0996392 ], [ -86.132587604, 31.099364199 ], [ -86.132614106, 31.099112093 ], [ -86.131974906, 31.0986996 ], [ -86.131628707, 31.098676696 ], [ -86.131309107, 31.098791294 ], [ -86.131282501, 31.098882996 ], [ -86.130936302, 31.098997593 ], [ -86.130723201, 31.098905899 ], [ -86.130829707, 31.097737096 ], [ -86.131175905, 31.097324595 ], [ -86.131175905, 31.0969579 ], [ -86.130962804, 31.096591197 ], [ -86.130483404, 31.0961788 ], [ -86.130616501, 31.095514193 ], [ -86.130483501, 31.095216297 ], [ -86.129364803, 31.094757996 ] ] } },
{ "type": "Feature", "properties": { "site_no": "02364570", "nhdplus_comid": "2214158", "navigation_mode": "DM", "requested_distance_km": 12.0, "start_source": "nwissite", "start_id": "USGS-02364570", "geometry_length_km": 1.9267757403873753 }, "geometry": { "type": "LineString", "coordinates": [ [ -86.129364803, 31.094757996 ], [ -86.129098505, 31.094024599 ], [ -86.129205003, 31.093726695 ], [ -86.129551202, 31.093451694 ], [ -86.129391402, 31.092993297 ], [ -86.129338101, 31.092420496 ], [ -86.129098505, 31.091985099 ], [ -86.129071802, 31.091732994 ], [ -86.129577801, 31.091274597 ], [ -86.129577801, 31.090770498 ], [ -86.129844002, 31.089876696 ], [ -86.129737407, 31.089807995 ], [ -86.129737407, 31.089647599 ], [ -86.129524402, 31.089510098 ], [ -86.1289386, 31.089326799 ], [ -86.128406003, 31.088730998 ], [ -86.128485903, 31.088295497 ], [ -86.128485903, 31.087791398 ], [ -86.128059804, 31.087035097 ], [ -86.127367407, 31.086874694 ], [ -86.126249, 31.087264299 ], [ -86.125982806, 31.087058 ], [ -86.1259562, 31.086737193 ], [ -86.126275703, 31.085935093 ], [ -86.125822902, 31.085591398 ], [ -86.125822902, 31.085316397 ], [ -86.126462005, 31.084903896 ], [ -86.126488701, 31.084812194 ], [ -86.126355506, 31.084651798 ], [ -86.126382105, 31.084376797 ], [ -86.126488701, 31.084193394 ], [ -86.1273406, 31.083826698 ], [ -86.1273406, 31.083712198 ], [ -86.127207607, 31.083620496 ], [ -86.126701705, 31.083574697 ], [ -86.126595207, 31.083482996 ], [ -86.126435407, 31.082841299 ], [ -86.1264088, 31.082085095 ] ] } },
{ "type": "Feature", "properties": { "site_no": "02364570", "nhdplus_comid": "2214242", "navigation_mode": "DM", "requested_distance_km": 12.0, "start_source": "nwissite", "start_id": "USGS-02364570", "geometry_length_km": 3.555116454315467 }, "geometry": { "type": "LineString", "coordinates": [ [ -86.1264088, 31.082085095 ], [ -86.126914702, 31.0807788 ], [ -86.127021104, 31.080114193 ], [ -86.1272607, 31.079610094 ], [ -86.127953, 31.079357997 ], [ -86.1280329, 31.079266295 ], [ -86.1280329, 31.078968398 ], [ -86.128139406, 31.078830898 ], [ -86.128725201, 31.078716293 ], [ -86.128964804, 31.077982895 ], [ -86.1294972, 31.077478796 ], [ -86.130003102, 31.0768601 ], [ -86.129949801, 31.076653898 ], [ -86.129470602, 31.076355994 ], [ -86.1294972, 31.075691395 ], [ -86.129204303, 31.075393394 ], [ -86.128485404, 31.075164296 ], [ -86.127899602, 31.074843496 ], [ -86.127553403, 31.074430898 ], [ -86.127127402, 31.073376797 ], [ -86.126728103, 31.072712198 ], [ -86.126142405, 31.072826795 ], [ -86.1259294, 31.072368495 ], [ -86.125370204, 31.072024696 ], [ -86.125104003, 31.071703896 ], [ -86.125024103, 31.071153797 ], [ -86.125423506, 31.070787199 ], [ -86.125982605, 31.070695497 ], [ -86.126089104, 31.070603795 ], [ -86.126115605, 31.070191398 ], [ -86.125929303, 31.070008099 ], [ -86.125716306, 31.069962196 ], [ -86.125423402, 31.070214197 ], [ -86.125103906, 31.070305899 ], [ -86.1250773, 31.069939293 ], [ -86.1255299, 31.069412194 ], [ -86.125636406, 31.069160096 ], [ -86.1255299, 31.068976797 ], [ -86.124944203, 31.068793394 ], [ -86.124624804, 31.068701796 ], [ -86.124411806, 31.0685184 ], [ -86.1244651, 31.067853794 ], [ -86.124358602, 31.0675788 ], [ -86.124119006, 31.067418493 ], [ -86.123586506, 31.067395493 ], [ -86.123586506, 31.067074694 ], [ -86.123746201, 31.066937193 ], [ -86.123826101, 31.066570498 ], [ -86.123666406, 31.066410199 ], [ -86.123613104, 31.066089295 ], [ -86.123693004, 31.065997697 ], [ -86.124358602, 31.066066399 ], [ -86.124678105, 31.066180997 ], [ -86.124811202, 31.066112295 ], [ -86.124837801, 31.065905996 ], [ -86.124358505, 31.065447599 ], [ -86.1242254, 31.065126799 ], [ -86.1237728, 31.0649205 ], [ -86.123426706, 31.064645499 ], [ -86.123293601, 31.064393394 ], [ -86.123027407, 31.064141296 ], [ -86.122122303, 31.063889198 ], [ -86.121909402, 31.063751698 ], [ -86.121829502, 31.063224599 ], [ -86.121749602, 31.0631558 ], [ -86.121749602, 31.062995397 ], [ -86.121430203, 31.062285095 ], [ -86.121430203, 31.061459996 ], [ -86.121749602, 31.060428798 ], [ -86.122255504, 31.059764199 ], [ -86.122468501, 31.059649698 ] ] } }
]
}
