{
"type": "FeatureCollection",
"name": "USGS_0357526200_UM_12km",
"crs": { "type": "name", "properties": { "name": "urn:ogc:def:crs:OGC:1.3:CRS84" } },
"features": [
{ "type": "Feature", "properties": { "site_no": "0357526200", "nhdplus_comid": "19620014", "navigation_mode": "UM", "requested_distance_km": 12.0, "start_source": "nwissite", "start_id": "USGS-0357526200", "geometry_length_km": 0.25870117085326477 }, "geometry": { "type": "LineString", "coordinates": [ [ -86.512132101, 34.707586296 ], [ -86.512299605, 34.706807494 ], [ -86.512523606, 34.705296099 ] ] } },
{ "type": "Feature", "properties": { "site_no": "0357526200", "nhdplus_comid": "19620000", "navigation_mode": "UM", "requested_distance_km": 12.0, "start_source": "nwissite", "start_id": "USGS-0357526200", "geometry_length_km": 5.228989056200767 }, "geometry": { "type": "LineString", "coordinates": [ [ -86.533697903, 34.744184598 ], [ -86.532866403, 34.743336596 ], [ -86.5325891, 34.743198894 ], [ -86.5319231, 34.743129693 ], [ -86.531174302, 34.742808394 ], [ -86.530204102, 34.741960198 ], [ -86.529760405, 34.741776496 ], [ -86.527929105, 34.741683394 ], [ -86.527430005, 34.741430998 ], [ -86.526847802, 34.740995295 ], [ -86.525544502, 34.740307197 ], [ -86.525433704, 34.740146697 ], [ -86.525491305, 34.738360196 ], [ -86.525215, 34.737397894 ], [ -86.524384506, 34.735885397 ], [ -86.523830205, 34.735358194 ], [ -86.5226935, 34.734669998 ], [ -86.522167005, 34.7340969 ], [ -86.521751903, 34.7333178 ], [ -86.521558501, 34.732722096 ], [ -86.520505302, 34.7318049 ], [ -86.518176705, 34.730268195 ], [ -86.516929105, 34.729648598 ], [ -86.516152605, 34.729418799 ], [ -86.516125001, 34.7292585 ], [ -86.515488103, 34.728364699 ], [ -86.513271503, 34.726301 ], [ -86.512552105, 34.724903196 ], [ -86.511695504, 34.722451493 ], [ -86.511585906, 34.721397698 ], [ -86.511253603, 34.721007995 ], [ -86.510977603, 34.720045693 ], [ -86.510451302, 34.7194039 ], [ -86.509898402, 34.718143597 ], [ -86.509456404, 34.7168146 ], [ -86.509124607, 34.7160355 ], [ -86.508212, 34.714133397 ], [ -86.508185305, 34.713354595 ], [ -86.508770205, 34.711637296 ], [ -86.50891, 34.710881598 ], [ -86.509577505, 34.709599495 ], [ -86.510549307, 34.7089362 ], [ -86.511493005, 34.708410293 ], [ -86.511937305, 34.708044194 ], [ -86.512132101, 34.707586296 ] ] } }
]
}
