{
"type": "FeatureCollection",
"name": "USGS_02454055_DM_12km",
"crs": { "type": "name", "properties": { "name": "urn:ogc:def:crs:OGC:1.3:CRS84" } },
"features": [
{ "type": "Feature", "properties": { "site_no": "02454055", "nhdplus_comid": "18591980", "navigation_mode": "DM", "requested_distance_km": 12.0, "start_source": "nwissite", "start_id": "USGS-02454055", "geometry_length_km": 0.0089949647062322544 }, "geometry": { "type": "LineString", "coordinates": [ [ -87.327074921, 33.741571994 ], [ -87.326991804, 33.741614394 ] ] } },
{ "type": "Feature", "properties": { "site_no": "02454055", "nhdplus_comid": "18591758", "navigation_mode": "DM", "requested_distance_km": 12.0, "start_source": "nwissite", "start_id": "USGS-02454055", "geometry_length_km": 5.7751763731283345 }, "geometry": { "type": "LineString", "coordinates": [ [ -87.326991804, 33.741614394 ], [ -87.325401105, 33.741957396 ], [ -87.322879001, 33.740925498 ], [ -87.320109703, 33.740557797 ], [ -87.318821006, 33.740190595 ], [ -87.318327606, 33.739915393 ], [ -87.3182455, 33.739777893 ], [ -87.318190902, 33.7392511 ], [ -87.320003003, 33.735311396 ], [ -87.321705602, 33.731005296 ], [ -87.3217609, 33.730272196 ], [ -87.3214048, 33.729767993 ], [ -87.320856504, 33.729584396 ], [ -87.319485605, 33.729560897 ], [ -87.318635605, 33.729629293 ], [ -87.3164692, 33.730178095 ], [ -87.313370705, 33.730543293 ], [ -87.312219106, 33.730611295 ], [ -87.311780505, 33.730404899 ], [ -87.311753407, 33.730152994 ], [ -87.311945505, 33.729809396 ], [ -87.312137604, 33.729626194 ], [ -87.312549405, 33.728732899 ], [ -87.312659502, 33.728183195 ], [ -87.312797606, 33.726740099 ], [ -87.312579207, 33.725388199 ], [ -87.312250704, 33.724540398 ], [ -87.311620802, 33.723554999 ], [ -87.311182402, 33.723165393 ], [ -87.310497306, 33.722775497 ], [ -87.304987803, 33.721489497 ], [ -87.304658905, 33.721306093 ], [ -87.304385006, 33.7210081 ], [ -87.304138601, 33.7205498 ], [ -87.303919405, 33.720320694 ], [ -87.302906506, 33.718716398 ], [ -87.301373005, 33.716607794 ], [ -87.299976602, 33.714568093 ], [ -87.298361704, 33.711542994 ], [ -87.298170403, 33.710878499 ] ] } }
]
}
