{
"type": "FeatureCollection",
"name": "USGS_02419976_DM_12km",
"crs": { "type": "name", "properties": { "name": "urn:ogc:def:crs:OGC:1.3:CRS84" } },
"features": [
{ "type": "Feature", "properties": { "site_no": "02419976", "nhdplus_comid": "21681504", "navigation_mode": "DM", "requested_distance_km": 12.0, "start_source": "nwissite", "start_id": "USGS-02419976", "geometry_length_km": 2.2979553985277028 }, "geometry": { "type": "LineString", "coordinates": [ [ -86.254713566, 32.41054981 ], [ -86.254718401, 32.410633899 ], [ -86.255445004, 32.4127426 ], [ -86.255820803, 32.414507195 ], [ -86.2557372, 32.416340195 ], [ -86.255655706, 32.416683696 ], [ -86.255572103, 32.418608293 ], [ -86.255245805, 32.420211896 ], [ -86.255216606, 32.421930298 ], [ -86.254564606, 32.424587496 ], [ -86.255075105, 32.426673099 ], [ -86.255965501, 32.427430093 ], [ -86.256069504, 32.430523299 ], [ -86.256150506, 32.430569299 ] ] } },
{ "type": "Feature", "properties": { "site_no": "02419976", "nhdplus_comid": "21681176", "navigation_mode": "DM", "requested_distance_km": 12.0, "start_source": "nwissite", "start_id": "USGS-02419976", "geometry_length_km": 3.2138383363378575 }, "geometry": { "type": "LineString", "coordinates": [ [ -86.256150506, 32.430569299 ], [ -86.256041907, 32.431004599 ], [ -86.256040506, 32.432081498 ], [ -86.255684905, 32.435288794 ], [ -86.254033506, 32.437807597 ], [ -86.252056107, 32.441334099 ], [ -86.251811706, 32.442250498 ], [ -86.251728207, 32.4439459 ], [ -86.2514017, 32.445572294 ], [ -86.251400903, 32.446236797 ], [ -86.2515622, 32.446809694 ], [ -86.254639506, 32.449058197 ], [ -86.255422302, 32.449792199 ], [ -86.256635107, 32.452084593 ], [ -86.256634906, 32.452222094 ], [ -86.2571209, 32.452612095 ], [ -86.257417701, 32.453024797 ], [ -86.257633105, 32.453574896 ], [ -86.257875904, 32.453895897 ], [ -86.258335203, 32.453942195 ], [ -86.258956201, 32.454423897 ], [ -86.2594155, 32.454515994 ], [ -86.259685203, 32.454859994 ], [ -86.260333002, 32.455456294 ] ] } },
{ "type": "Feature", "properties": { "site_no": "02419976", "nhdplus_comid": "21680968", "navigation_mode": "DM", "requested_distance_km": 12.0, "start_source": "nwissite", "start_id": "USGS-02419976", "geometry_length_km": 4.347175876886423 }, "geometry": { "type": "LineString", "coordinates": [ [ -86.260333002, 32.455456294 ], [ -86.261035703, 32.455411099 ], [ -86.261441402, 32.455090798 ], [ -86.262279302, 32.455022797 ], [ -86.263496004, 32.454542696 ], [ -86.264144905, 32.454199597 ], [ -86.264388204, 32.454177 ], [ -86.264793202, 32.454406396 ], [ -86.264793001, 32.454612598 ], [ -86.264441304, 32.454932995 ], [ -86.264089003, 32.455643095 ], [ -86.264060706, 32.456696995 ], [ -86.263735704, 32.457292497 ], [ -86.263680607, 32.458117299 ], [ -86.262867503, 32.460064098 ], [ -86.262839504, 32.460797295 ], [ -86.262108006, 32.462171294 ], [ -86.261594102, 32.462514497 ], [ -86.261512503, 32.462926894 ], [ -86.260809101, 32.463499099 ], [ -86.2607278, 32.463682294 ], [ -86.260754205, 32.4640489 ], [ -86.261186004, 32.464644998 ], [ -86.261753306, 32.464760095 ], [ -86.262428604, 32.465127394 ], [ -86.263184607, 32.465746693 ], [ -86.2632377, 32.4663883 ], [ -86.263399601, 32.466640495 ], [ -86.263399005, 32.467236198 ], [ -86.263317302, 32.4676027 ], [ -86.2639926, 32.467969894 ], [ -86.264668502, 32.467810199 ], [ -86.266262904, 32.467994899 ], [ -86.266965404, 32.4682246 ], [ -86.268425003, 32.468111299 ], [ -86.269586802, 32.468433194 ], [ -86.269964904, 32.468639694 ], [ -86.270829901, 32.468525894 ], [ -86.271667607, 32.468778595 ], [ -86.271775506, 32.468893297 ], [ -86.271774702, 32.469488993 ], [ -86.272071905, 32.469672598 ], [ -86.272450306, 32.469627097 ], [ -86.272720806, 32.469443999 ], [ -86.273585305, 32.469857194 ], [ -86.274180003, 32.469743095 ], [ -86.276234202, 32.4696531 ], [ -86.277422905, 32.4701811 ], [ -86.278287202, 32.470777497 ], [ -86.279286906, 32.4711449 ], [ -86.279475905, 32.4713054 ], [ -86.279637605, 32.471740894 ], [ -86.2797179, 32.472474195 ], [ -86.279933505, 32.4730471 ], [ -86.280041203, 32.473459594 ], [ -86.280365206, 32.473826498 ], [ -86.2804728, 32.474238999 ], [ -86.281012706, 32.4749038 ], [ -86.281039305, 32.475293398 ] ] } }
]
}
