{
"type": "FeatureCollection",
"name": "USGS_02414500_UM_12km",
"crs": { "type": "name", "properties": { "name": "urn:ogc:def:crs:OGC:1.3:CRS84" } },
"features": [
{ "type": "Feature", "properties": { "site_no": "02414500", "nhdplus_comid": "22042575", "navigation_mode": "UM", "requested_distance_km": 12.0, "start_source": "nwissite", "start_id": "USGS-02414500", "geometry_length_km": 0.7587207274053106 }, "geometry": { "type": "LineString", "coordinates": [ [ -85.559633404, 33.122970499 ], [ -85.558931604, 33.121391997 ], [ -85.559079506, 33.119134299 ], [ -85.560861506, 33.117152393 ], [ -85.560980105, 33.116785731 ] ] } },
{ "type": "Feature", "properties": { "site_no": "02414500", "nhdplus_comid": "22035671", "navigation_mode": "UM", "requested_distance_km": 12.0, "start_source": "nwissite", "start_id": "USGS-02414500", "geometry_length_km": 1.1171324981979438 }, "geometry": { "type": "LineString", "coordinates": [ [ -85.559242606, 33.132776894 ], [ -85.559592403, 33.132430494 ], [ -85.559824206, 33.130685098 ], [ -85.559036307, 33.126322798 ], [ -85.559633404, 33.122970499 ] ] } },
{ "type": "Feature", "properties": { "site_no": "02414500", "nhdplus_comid": "22035665", "navigation_mode": "UM", "requested_distance_km": 12.0, "start_source": "nwissite", "start_id": "USGS-02414500", "geometry_length_km": 1.7714037954097597 }, "geometry": { "type": "LineString", "coordinates": [ [ -85.565644503, 33.147495396 ], [ -85.5643088, 33.146111295 ], [ -85.562787704, 33.142691396 ], [ -85.561434403, 33.140296198 ], [ -85.561100006, 33.139382295 ], [ -85.560797602, 33.137083396 ], [ -85.559477605, 33.134438798 ], [ -85.559242606, 33.132776894 ] ] } },
{ "type": "Feature", "properties": { "site_no": "02414500", "nhdplus_comid": "22035657", "navigation_mode": "UM", "requested_distance_km": 12.0, "start_source": "nwissite", "start_id": "USGS-02414500", "geometry_length_km": 1.5982175738338134 }, "geometry": { "type": "LineString", "coordinates": [ [ -85.580511704, 33.152829893 ], [ -85.579743907, 33.152318098 ], [ -85.578993201, 33.1522495 ], [ -85.577757701, 33.151253298 ], [ -85.5755044, 33.149911597 ], [ -85.573269002, 33.149581 ], [ -85.571234703, 33.1500258 ], [ -85.569283001, 33.149847195 ], [ -85.566996805, 33.148754694 ], [ -85.565644503, 33.147495396 ] ] } },
{ "type": "Feature", "properties": { "site_no": "02414500", "nhdplus_comid": "22035649", "navigation_mode": "UM", "requested_distance_km": 12.0, "start_source": "nwissite", "start_id": "USGS-02414500", "geometry_length_km": 1.0201868022109501 }, "geometry": { "type": "LineString", "coordinates": [ [ -85.584525302, 33.160956293 ], [ -85.584588505, 33.158186294 ], [ -85.581931204, 33.154158294 ], [ -85.580511704, 33.152829893 ] ] } },
{ "type": "Feature", "properties": { "site_no": "02414500", "nhdplus_comid": "22035647", "navigation_mode": "UM", "requested_distance_km": 12.0, "start_source": "nwissite", "start_id": "USGS-02414500", "geometry_length_km": 0.79516188112374242 }, "geometry": { "type": "LineString", "coordinates": [ [ -85.583099104, 33.167702399 ], [ -85.583265103, 33.167023599 ], [ -85.584164605, 33.165970199 ], [ -85.584863007, 33.164141499 ], [ -85.584978603, 33.163268797 ], [ -85.584525302, 33.160956293 ] ] } },
{ "type": "Feature", "properties": { "site_no": "02414500", "nhdplus_comid": "22035639", "navigation_mode": "UM", "requested_distance_km": 12.0, "start_source": "nwissite", "start_id": "USGS-02414500", "geometry_length_km": 3.5367250267672032 }, "geometry": { "type": "LineString", "coordinates": [ [ -85.576958805, 33.195087798 ], [ -85.577357106, 33.193231694 ], [ -85.577989705, 33.191901594 ], [ -85.578906104, 33.190723695 ], [ -85.582973905, 33.1875626 ], [ -85.585057303, 33.185608096 ], [ -85.586506806, 33.183847897 ], [ -85.587322302, 33.182282194 ], [ -85.587421507, 33.181534193 ], [ -85.587136105, 33.180246495 ], [ -85.585632801, 33.178973697 ], [ -85.583778106, 33.176911794 ], [ -85.583576903, 33.176136397 ], [ -85.5837752, 33.174640395 ], [ -85.5835381, 33.171843 ], [ -85.583270803, 33.1715663 ], [ -85.583068207, 33.169655196 ], [ -85.5827334, 33.168741398 ], [ -85.5828491, 33.167868793 ], [ -85.583099104, 33.167702399 ] ] } },
{ "type": "Feature", "properties": { "site_no": "02414500", "nhdplus_comid": "22035629", "navigation_mode": "UM", "requested_distance_km": 12.0, "start_source": "nwissite", "start_id": "USGS-02414500", "geometry_length_km": 1.2031211019682153 }, "geometry": { "type": "LineString", "coordinates": [ [ -85.575185202, 33.205586798 ], [ -85.5749337, 33.204617493 ], [ -85.575363904, 33.201376498 ], [ -85.576895304, 33.197857693 ], [ -85.577093802, 33.196361795 ], [ -85.576958805, 33.195087798 ] ] } }
]
}
