{
"type": "FeatureCollection",
"name": "USGS_02405000_DM_12km",
"crs": { "type": "name", "properties": { "name": "urn:ogc:def:crs:OGC:1.3:CRS84" } },
"features": [
{ "type": "Feature", "properties": { "site_no": "02405000", "nhdplus_comid": "26132779", "navigation_mode": "DM", "requested_distance_km": 12.0, "start_source": "nwissite", "start_id": "USGS-02405000", "geometry_length_km": 1.8957525143791591 }, "geometry": { "type": "LineString", "coordinates": [ [ -86.225507134, 33.522170954 ], [ -86.225696504, 33.5220147 ], [ -86.227106206, 33.5196964 ], [ -86.228700101, 33.514017895 ], [ -86.230588704, 33.509892695 ], [ -86.230928302, 33.506404094 ], [ -86.2308852, 33.505986497 ] ] } },
{ "type": "Feature", "properties": { "site_no": "02405000", "nhdplus_comid": "26132777", "navigation_mode": "DM", "requested_distance_km": 12.0, "start_source": "nwissite", "start_id": "USGS-02405000", "geometry_length_km": 8.5642759699485218 }, "geometry": { "type": "LineString", "coordinates": [ [ -86.2308852, 33.505986497 ], [ -86.230502002, 33.5022645 ], [ -86.230616003, 33.500114799 ], [ -86.230687104, 33.498774998 ], [ -86.232558101, 33.4965887 ], [ -86.237516001, 33.494292296 ], [ -86.240765303, 33.493277997 ], [ -86.244471706, 33.492912799 ], [ -86.247408904, 33.492284298 ], [ -86.2520665, 33.488951094 ], [ -86.255769402, 33.488973394 ], [ -86.260844305, 33.490943 ], [ -86.263756104, 33.493287496 ], [ -86.265267402, 33.497045599 ], [ -86.265584603, 33.500113294 ], [ -86.265695304, 33.501185194 ], [ -86.263036005, 33.505435795 ], [ -86.262235902, 33.508792296 ], [ -86.262524806, 33.511121094 ], [ -86.264359206, 33.513200499 ], [ -86.267280601, 33.514510699 ], [ -86.273304902, 33.513899796 ], [ -86.277794503, 33.512245394 ], [ -86.282000005, 33.509516694 ] ] } }
]
}
