{
"type": "FeatureCollection",
"name": "USGS_03575000_DM_12km",
"crs": { "type": "name", "properties": { "name": "urn:ogc:def:crs:OGC:1.3:CRS84" } },
"features": [
{ "type": "Feature", "properties": { "site_no": "03575000", "nhdplus_comid": "19621280", "navigation_mode": "DM", "requested_distance_km": 12.0, "start_source": "nwissite", "start_id": "USGS-03575000", "geometry_length_km": 1.1250322139041242 }, "geometry": { "type": "LineString", "coordinates": [ [ -86.482982706, 34.822859388 ], [ -86.482224301, 34.821328796 ], [ -86.481722601, 34.819909096 ], [ -86.481500104, 34.819703199 ], [ -86.481166102, 34.819084994 ], [ -86.480553806, 34.8180549 ], [ -86.478885107, 34.816177994 ], [ -86.478078507, 34.815399997 ], [ -86.477271803, 34.814278297 ], [ -86.477077201, 34.814140998 ] ] } },
{ "type": "Feature", "properties": { "site_no": "03575000", "nhdplus_comid": "19619432", "navigation_mode": "DM", "requested_distance_km": 12.0, "start_source": "nwissite", "start_id": "USGS-03575000", "geometry_length_km": 0.81892539743631831 }, "geometry": { "type": "LineString", "coordinates": [ [ -86.477077201, 34.814140998 ], [ -86.477049202, 34.813911997 ], [ -86.475491002, 34.811439499 ], [ -86.474962801, 34.810935996 ], [ -86.473099701, 34.808944799 ], [ -86.472738102, 34.808418199 ], [ -86.4727097, 34.8078686 ] ] } },
{ "type": "Feature", "properties": { "site_no": "03575000", "nhdplus_comid": "19619502", "navigation_mode": "DM", "requested_distance_km": 12.0, "start_source": "nwissite", "start_id": "USGS-03575000", "geometry_length_km": 1.5371216601316195 }, "geometry": { "type": "LineString", "coordinates": [ [ -86.4727097, 34.8078686 ], [ -86.4726777, 34.804341294 ], [ -86.472815804, 34.803699896 ], [ -86.472815007, 34.803035595 ], [ -86.473118603, 34.801431999 ], [ -86.473617703, 34.800836094 ], [ -86.4749768, 34.799621098 ], [ -86.477445006, 34.7971683 ], [ -86.4784154, 34.796045095 ], [ -86.478803806, 34.795838699 ] ] } },
{ "type": "Feature", "properties": { "site_no": "03575000", "nhdplus_comid": "19619562", "navigation_mode": "DM", "requested_distance_km": 12.0, "start_source": "nwissite", "start_id": "USGS-03575000", "geometry_length_km": 1.3844471797608977 }, "geometry": { "type": "LineString", "coordinates": [ [ -86.478803806, 34.795838699 ], [ -86.478886805, 34.795609497 ], [ -86.480134703, 34.794302896 ], [ -86.480717503, 34.794050395 ], [ -86.481411502, 34.794026993 ], [ -86.482133903, 34.794369899 ], [ -86.483743802, 34.794093594 ], [ -86.4841877, 34.793749698 ], [ -86.484686002, 34.792672694 ], [ -86.484989405, 34.791114897 ], [ -86.485598505, 34.789946198 ], [ -86.485625602, 34.789465196 ], [ -86.485291407, 34.788640998 ], [ -86.484596007, 34.787633799 ], [ -86.484512307, 34.787267298 ] ] } },
{ "type": "Feature", "properties": { "site_no": "03575000", "nhdplus_comid": "19619580", "navigation_mode": "DM", "requested_distance_km": 12.0, "start_source": "nwissite", "start_id": "USGS-03575000", "geometry_length_km": 1.64834613957341 }, "geometry": { "type": "LineString", "coordinates": [ [ -86.484512307, 34.787267298 ], [ -86.484317906, 34.787267499 ], [ -86.483845301, 34.786786899 ], [ -86.483289704, 34.7865813 ], [ -86.482817702, 34.786535896 ], [ -86.482234903, 34.786673799 ], [ -86.481374905, 34.787155598 ], [ -86.480792105, 34.787293494 ], [ -86.479876004, 34.787363 ], [ -86.477904104, 34.786791898 ], [ -86.475515202, 34.785740294 ], [ -86.474459901, 34.785443395 ], [ -86.4722386, 34.7851016 ], [ -86.470517203, 34.785011195 ], [ -86.467518501, 34.784669898 ] ] } },
{ "type": "Feature", "properties": { "site_no": "03575000", "nhdplus_comid": "19619576", "navigation_mode": "DM", "requested_distance_km": 12.0, "start_source": "nwissite", "start_id": "USGS-03575000", "geometry_length_km": 0.19153639411780177 }, "geometry": { "type": "LineString", "coordinates": [ [ -86.467518501, 34.784669898 ], [ -86.465408601, 34.784694396 ] ] } },
{ "type": "Feature", "properties": { "site_no": "03575000", "nhdplus_comid": "19619574", "navigation_mode": "DM", "requested_distance_km": 12.0, "start_source": "nwissite", "start_id": "USGS-03575000", "geometry_length_km": 0.15609490114448757 }, "geometry": { "type": "LineString", "coordinates": [ [ -86.465408601, 34.784694396 ], [ -86.465353407, 34.784877695 ], [ -86.464826107, 34.785084195 ], [ -86.464299202, 34.785496898 ], [ -86.464299306, 34.785634294 ] ] } },
{ "type": "Feature", "properties": { "site_no": "03575000", "nhdplus_comid": "19619570", "navigation_mode": "DM", "requested_distance_km": 12.0, "start_source": "nwissite", "start_id": "USGS-03575000", "geometry_length_km": 0.38266284974210729 }, "geometry": { "type": "LineString", "coordinates": [ [ -86.464299306, 34.785634294 ], [ -86.463966206, 34.785657398 ], [ -86.463605404, 34.785840996 ], [ -86.462939404, 34.7860246 ], [ -86.462467402, 34.786024995 ], [ -86.461412102, 34.785705097 ], [ -86.460801005, 34.785361893 ], [ -86.460689701, 34.785041295 ] ] } },
{ "type": "Feature", "properties": { "site_no": "03575000", "nhdplus_comid": "19619596", "navigation_mode": "DM", "requested_distance_km": 12.0, "start_source": "nwissite", "start_id": "USGS-03575000", "geometry_length_km": 0.46699801970023186 }, "geometry": { "type": "LineString", "coordinates": [ [ -86.460689701, 34.785041295 ], [ -86.460439801, 34.784995697 ], [ -86.457078807, 34.783371694 ], [ -86.456356704, 34.7830972 ], [ -86.456245601, 34.782982796 ] ] } },
{ "type": "Feature", "properties": { "site_no": "03575000", "nhdplus_comid": "19619624", "navigation_mode": "DM", "requested_distance_km": 12.0, "start_source": "nwissite", "start_id": "USGS-03575000", "geometry_length_km": 0.71790145481075607 }, "geometry": { "type": "LineString", "coordinates": [ [ -86.456245601, 34.782982796 ], [ -86.455912404, 34.782983094 ], [ -86.455412604, 34.782800093 ], [ -86.454857104, 34.782479897 ], [ -86.454273604, 34.781930499 ], [ -86.4541343, 34.781518295 ], [ -86.454050303, 34.7808083 ], [ -86.4539112, 34.780396193 ], [ -86.453716703, 34.780212998 ], [ -86.453494601, 34.780190296 ], [ -86.453217104, 34.780304797 ], [ -86.452856205, 34.780305095 ], [ -86.452661701, 34.780099094 ], [ -86.452077307, 34.7785419 ] ] } },
{ "type": "Feature", "properties": { "site_no": "03575000", "nhdplus_comid": "19619672", "navigation_mode": "DM", "requested_distance_km": 12.0, "start_source": "nwissite", "start_id": "USGS-03575000", "geometry_length_km": 1.0863431713092073 }, "geometry": { "type": "LineString", "coordinates": [ [ -86.452077307, 34.7785419 ], [ -86.451715901, 34.777877897 ], [ -86.449965201, 34.775954999 ], [ -86.447965205, 34.774398699 ], [ -86.447131902, 34.773666099 ], [ -86.446770601, 34.773208193 ], [ -86.446187302, 34.772796296 ], [ -86.444327101, 34.772247598 ], [ -86.443743907, 34.7719272 ] ] } },
{ "type": "Feature", "properties": { "site_no": "03575000", "nhdplus_comid": "19619678", "navigation_mode": "DM", "requested_distance_km": 12.0, "start_source": "nwissite", "start_id": "USGS-03575000", "geometry_length_km": 0.16475928767961609 }, "geometry": { "type": "LineString", "coordinates": [ [ -86.443743907, 34.7719272 ], [ -86.443716004, 34.771629497 ], [ -86.443549007, 34.771171495 ], [ -86.443021104, 34.770622097 ] ] } },
{ "type": "Feature", "properties": { "site_no": "03575000", "nhdplus_comid": "19619710", "navigation_mode": "DM", "requested_distance_km": 12.0, "start_source": "nwissite", "start_id": "USGS-03575000", "geometry_length_km": 0.60654841699340112 }, "geometry": { "type": "LineString", "coordinates": [ [ -86.443021104, 34.770622097 ], [ -86.442798302, 34.769820593 ], [ -86.442685604, 34.767690398 ], [ -86.442378901, 34.765926898 ], [ -86.442295603, 34.765881196 ], [ -86.4421563, 34.765285797 ] ] } },
{ "type": "Feature", "properties": { "site_no": "03575000", "nhdplus_comid": "19619732", "navigation_mode": "DM", "requested_distance_km": 12.0, "start_source": "nwissite", "start_id": "USGS-03575000", "geometry_length_km": 0.80891525389888408 }, "geometry": { "type": "LineString", "coordinates": [ [ -86.4421563, 34.765285797 ], [ -86.442072906, 34.7651942 ], [ -86.441821501, 34.763178594 ], [ -86.442070507, 34.762193598 ], [ -86.442625001, 34.761391595 ], [ -86.443207502, 34.761093594 ], [ -86.443734802, 34.761024594 ], [ -86.444095701, 34.761207595 ], [ -86.444984004, 34.761436194 ], [ -86.445677802, 34.761458695 ], [ -86.446288303, 34.7613438 ] ] } },
{ "type": "Feature", "properties": { "site_no": "03575000", "nhdplus_comid": "19621328", "navigation_mode": "DM", "requested_distance_km": 12.0, "start_source": "nwissite", "start_id": "USGS-03575000", "geometry_length_km": 2.5630195047751529 }, "geometry": { "type": "LineString", "coordinates": [ [ -86.446288303, 34.7613438 ], [ -86.446288303, 34.761275098 ], [ -86.446898602, 34.760977 ], [ -86.447591901, 34.760403894 ], [ -86.448174201, 34.759716496 ], [ -86.448811404, 34.758410498 ], [ -86.449778207, 34.753485397 ], [ -86.449777104, 34.752385996 ], [ -86.449249007, 34.751424193 ], [ -86.447632402, 34.750084095 ], [ -86.447132707, 34.749763593 ], [ -86.4462163, 34.749054 ], [ -86.445772104, 34.748802297 ], [ -86.445633203, 34.748642094 ], [ -86.444939204, 34.748298794 ], [ -86.443357304, 34.748024896 ], [ -86.441941507, 34.747246794 ], [ -86.439081706, 34.744980596 ], [ -86.438276306, 34.744041897 ], [ -86.438220605, 34.743766993 ] ] } }
]
}
