{
"type": "FeatureCollection",
"name": "USGS_02399000_UM_12km",
"crs": { "type": "name", "properties": { "name": "urn:ogc:def:crs:OGC:1.3:CRS84" } },
"features": [
{ "type": "Feature", "properties": { "site_no": "02399000", "nhdplus_comid": "15820609", "navigation_mode": "UM", "requested_distance_km": 12.0, "start_source": "nwissite", "start_id": "USGS-02399000", "geometry_length_km": 0.087033005266007851 }, "geometry": { "type": "LineString", "coordinates": [ [ -85.625626907, 34.397736095 ], [ -85.626511104, 34.397736095 ], [ -85.626574493, 34.397712184 ] ] } },
{ "type": "Feature", "properties": { "site_no": "02399000", "nhdplus_comid": "15820625", "navigation_mode": "UM", "requested_distance_km": 12.0, "start_source": "nwissite", "start_id": "USGS-02399000", "geometry_length_km": 1.4656435457864379 }, "geometry": { "type": "LineString", "coordinates": [ [ -85.614271604, 34.397093795 ], [ -85.614465103, 34.395650893 ], [ -85.614769302, 34.394643396 ], [ -85.615487702, 34.393887699 ], [ -85.616675705, 34.393406898 ], [ -85.617532201, 34.393521495 ], [ -85.618830703, 34.3939339 ], [ -85.623996802, 34.396613695 ], [ -85.624963902, 34.397300899 ], [ -85.625626907, 34.397736095 ] ] } },
{ "type": "Feature", "properties": { "site_no": "02399000", "nhdplus_comid": "15820601", "navigation_mode": "UM", "requested_distance_km": 12.0, "start_source": "nwissite", "start_id": "USGS-02399000", "geometry_length_km": 2.7759611182779498 }, "geometry": { "type": "LineString", "coordinates": [ [ -85.599151701, 34.416511595 ], [ -85.599124201, 34.415755793 ], [ -85.599345505, 34.415435195 ], [ -85.600064203, 34.414954394 ], [ -85.601667106, 34.414359398 ], [ -85.604071707, 34.4132379 ], [ -85.605149604, 34.412436597 ], [ -85.606227502, 34.412001595 ], [ -85.606973805, 34.411429197 ], [ -85.607443802, 34.410604894 ], [ -85.608135, 34.408704095 ], [ -85.608936705, 34.407398894 ], [ -85.609351307, 34.407078199 ], [ -85.610760704, 34.406551793 ], [ -85.611092202, 34.406231195 ], [ -85.611396402, 34.405475497 ], [ -85.611590207, 34.403116599 ], [ -85.612087801, 34.401902899 ], [ -85.612695903, 34.401009798 ], [ -85.613773704, 34.399796195 ], [ -85.614188306, 34.398948796 ], [ -85.614354201, 34.398147196 ], [ -85.614271604, 34.397093795 ] ] } },
{ "type": "Feature", "properties": { "site_no": "02399000", "nhdplus_comid": "15820513", "navigation_mode": "UM", "requested_distance_km": 12.0, "start_source": "nwissite", "start_id": "USGS-02399000", "geometry_length_km": 0.58738098932602401 }, "geometry": { "type": "LineString", "coordinates": [ [ -85.600697607, 34.420932099 ], [ -85.601167902, 34.4196954 ], [ -85.6012512, 34.418481596 ], [ -85.601168506, 34.418046497 ], [ -85.600919902, 34.417611293 ], [ -85.600422502, 34.417198993 ], [ -85.599151701, 34.416511595 ] ] } },
{ "type": "Feature", "properties": { "site_no": "02399000", "nhdplus_comid": "15820491", "navigation_mode": "UM", "requested_distance_km": 12.0, "start_source": "nwissite", "start_id": "USGS-02399000", "geometry_length_km": 2.4872912372401559 }, "geometry": { "type": "LineString", "coordinates": [ [ -85.583777703, 34.432583593 ], [ -85.586597405, 34.431783095 ], [ -85.589168601, 34.430524498 ], [ -85.589942701, 34.429929294 ], [ -85.590523601, 34.429104999 ], [ -85.590523906, 34.428234793 ], [ -85.590303205, 34.427455999 ], [ -85.5899994, 34.426997796 ], [ -85.588866703, 34.426127195 ], [ -85.588728607, 34.425875194 ], [ -85.588646106, 34.425256893 ], [ -85.588784404, 34.424913399 ], [ -85.589420401, 34.424203694 ], [ -85.591769703, 34.423929594 ], [ -85.592543602, 34.423746698 ], [ -85.595418401, 34.422625296 ], [ -85.596496306, 34.422556899 ], [ -85.598182201, 34.422282495 ], [ -85.5990666, 34.421962194 ], [ -85.600697607, 34.420932099 ] ] } },
{ "type": "Feature", "properties": { "site_no": "02399000", "nhdplus_comid": "15820449", "navigation_mode": "UM", "requested_distance_km": 12.0, "start_source": "nwissite", "start_id": "USGS-02399000", "geometry_length_km": 0.087958463043807888 }, "geometry": { "type": "LineString", "coordinates": [ [ -85.5833074, 34.433270395 ], [ -85.583777703, 34.432583593 ] ] } },
{ "type": "Feature", "properties": { "site_no": "02399000", "nhdplus_comid": "15820439", "navigation_mode": "UM", "requested_distance_km": 12.0, "start_source": "nwissite", "start_id": "USGS-02399000", "geometry_length_km": 0.95793058296301037 }, "geometry": { "type": "LineString", "coordinates": [ [ -85.579377703, 34.441032499 ], [ -85.579461202, 34.440162294 ], [ -85.579627305, 34.439704195 ], [ -85.581508301, 34.437437795 ], [ -85.582366206, 34.435743496 ], [ -85.582449704, 34.434781596 ], [ -85.582643501, 34.434163295 ], [ -85.5833074, 34.433270395 ] ] } },
{ "type": "Feature", "properties": { "site_no": "02399000", "nhdplus_comid": "15820409", "navigation_mode": "UM", "requested_distance_km": 12.0, "start_source": "nwissite", "start_id": "USGS-02399000", "geometry_length_km": 1.609359991475686 }, "geometry": { "type": "LineString", "coordinates": [ [ -85.582825005, 34.454889394 ], [ -85.581195205, 34.452758893 ], [ -85.580670506, 34.451728098 ], [ -85.5802017, 34.449758299 ], [ -85.579623505, 34.445979297 ], [ -85.579377703, 34.441032499 ] ] } },
{ "type": "Feature", "properties": { "site_no": "02399000", "nhdplus_comid": "15820339", "navigation_mode": "UM", "requested_distance_km": 12.0, "start_source": "nwissite", "start_id": "USGS-02399000", "geometry_length_km": 0.58380396643074906 }, "geometry": { "type": "LineString", "coordinates": [ [ -85.582297303, 34.459148794 ], [ -85.5835694, 34.458828695 ], [ -85.583818406, 34.458508097 ], [ -85.583901607, 34.457958594 ], [ -85.583487406, 34.457065195 ], [ -85.583460003, 34.456744596 ], [ -85.582825005, 34.454889394 ] ] } },
{ "type": "Feature", "properties": { "site_no": "02399000", "nhdplus_comid": "15820317", "navigation_mode": "UM", "requested_distance_km": 12.0, "start_source": "nwissite", "start_id": "USGS-02399000", "geometry_length_km": 2.9247945367950368 }, "geometry": { "type": "LineString", "coordinates": [ [ -85.5701802, 34.468578696 ], [ -85.570513107, 34.467181794 ], [ -85.570734605, 34.466815494 ], [ -85.5710942, 34.466586694 ], [ -85.571868502, 34.466541193 ], [ -85.572283, 34.466793396 ], [ -85.572780401, 34.467297494 ], [ -85.573553607, 34.468763493 ], [ -85.574603602, 34.469725899 ], [ -85.576511204, 34.470345095 ], [ -85.578806102, 34.470712595 ], [ -85.5796635, 34.470529795 ], [ -85.580272004, 34.470300995 ], [ -85.580880903, 34.469545498 ], [ -85.581130005, 34.469087593 ], [ -85.581103101, 34.467827998 ], [ -85.580965005, 34.467553094 ], [ -85.579306804, 34.466247 ], [ -85.578698903, 34.465559699 ], [ -85.5782298, 34.464162499 ], [ -85.578092203, 34.4630403 ], [ -85.578203805, 34.461528793 ], [ -85.578370102, 34.460933499 ], [ -85.578896001, 34.459925994 ], [ -85.579394005, 34.459445298 ], [ -85.579725802, 34.459330894 ], [ -85.580472402, 34.4591939 ], [ -85.582297303, 34.459148794 ] ] } }
]
}
