{
"type": "FeatureCollection",
"name": "USGS_02464360_DM_12km",
"crs": { "type": "name", "properties": { "name": "urn:ogc:def:crs:OGC:1.3:CRS84" } },
"features": [
{ "type": "Feature", "properties": { "site_no": "02464360", "nhdplus_comid": "18227431", "navigation_mode": "DM", "requested_distance_km": 12.0, "start_source": "nwissite", "start_id": "USGS-02464360", "geometry_length_km": 0.73880461669280351 }, "geometry": { "type": "LineString", "coordinates": [ [ -87.642437576, 33.425001773 ], [ -87.642358504, 33.424983695 ], [ -87.641538806, 33.424502693 ], [ -87.6408557, 33.424365297 ], [ -87.640391201, 33.424090497 ], [ -87.639844701, 33.423998997 ], [ -87.639325507, 33.423678294 ], [ -87.638232701, 33.423472196 ], [ -87.6369486, 33.423472397 ], [ -87.634954207, 33.423174798 ] ] } },
{ "type": "Feature", "properties": { "site_no": "02464360", "nhdplus_comid": "18227465", "navigation_mode": "DM", "requested_distance_km": 12.0, "start_source": "nwissite", "start_id": "USGS-02464360", "geometry_length_km": 1.1691744987579813 }, "geometry": { "type": "LineString", "coordinates": [ [ -87.634954207, 33.423174798 ], [ -87.634407707, 33.422487594 ], [ -87.6338339, 33.422052398 ], [ -87.631976105, 33.421273597 ], [ -87.631702803, 33.4210217 ], [ -87.631402202, 33.420448899 ], [ -87.631183602, 33.419578396 ], [ -87.631484106, 33.419234693 ], [ -87.6318665, 33.419142999 ], [ -87.632331006, 33.419417895 ], [ -87.632686101, 33.419440798 ], [ -87.633369103, 33.419349097 ], [ -87.633369103, 33.419165894 ], [ -87.632576704, 33.418638997 ], [ -87.632221602, 33.418249495 ], [ -87.632194303, 33.418089099 ], [ -87.631975606, 33.417882897 ], [ -87.631456606, 33.417745493 ], [ -87.631128706, 33.417378999 ], [ -87.630882807, 33.416943796 ] ] } },
{ "type": "Feature", "properties": { "site_no": "02464360", "nhdplus_comid": "18227501", "navigation_mode": "DM", "requested_distance_km": 12.0, "start_source": "nwissite", "start_id": "USGS-02464360", "geometry_length_km": 1.0326625594536432 }, "geometry": { "type": "LineString", "coordinates": [ [ -87.630882807, 33.416943796 ], [ -87.630937502, 33.416645899 ], [ -87.631046705, 33.416554295 ], [ -87.631046601, 33.416210599 ], [ -87.629899204, 33.415546298 ], [ -87.629953705, 33.414836094 ], [ -87.629243404, 33.414263494 ], [ -87.628669702, 33.414080195 ], [ -87.628123403, 33.414263494 ], [ -87.627904907, 33.414148994 ], [ -87.627932101, 33.413942799 ], [ -87.628123306, 33.413713694 ], [ -87.628177904, 33.413415894 ], [ -87.6277408, 33.413026497 ], [ -87.6277408, 33.412659898 ], [ -87.628123306, 33.412499495 ], [ -87.628341801, 33.411835 ], [ -87.628014006, 33.411582999 ], [ -87.627986602, 33.411445595 ], [ -87.628095903, 33.411308095 ], [ -87.628451005, 33.411308095 ], [ -87.629133902, 33.411514193 ], [ -87.629461706, 33.411468394 ] ] } },
{ "type": "Feature", "properties": { "site_no": "02464360", "nhdplus_comid": "18227539", "navigation_mode": "DM", "requested_distance_km": 12.0, "start_source": "nwissite", "start_id": "USGS-02464360", "geometry_length_km": 1.2195622275064109 }, "geometry": { "type": "LineString", "coordinates": [ [ -87.629461706, 33.411468394 ], [ -87.629461706, 33.411308095 ], [ -87.6285602, 33.410735399 ], [ -87.628095806, 33.410552099 ], [ -87.625009, 33.410300195 ], [ -87.624298804, 33.4103003 ], [ -87.624162205, 33.410391897 ], [ -87.624162301, 33.410735495 ], [ -87.623643301, 33.410895899 ], [ -87.623534001, 33.4107126 ], [ -87.622905701, 33.410597995 ], [ -87.622605301, 33.410346098 ], [ -87.622386701, 33.409750395 ], [ -87.621676505, 33.408627793 ], [ -87.621539906, 33.407803096 ], [ -87.621184804, 33.4072304 ], [ -87.620720506, 33.406817995 ], [ -87.6204198, 33.406703494 ] ] } },
{ "type": "Feature", "properties": { "site_no": "02464360", "nhdplus_comid": "18227543", "navigation_mode": "DM", "requested_distance_km": 12.0, "start_source": "nwissite", "start_id": "USGS-02464360", "geometry_length_km": 0.37845122186277957 }, "geometry": { "type": "LineString", "coordinates": [ [ -87.6204198, 33.406703494 ], [ -87.620283306, 33.407024197 ], [ -87.620092101, 33.407184497 ], [ -87.619682401, 33.407184593 ], [ -87.619136102, 33.406749196 ], [ -87.618098103, 33.4064743 ], [ -87.617360607, 33.406451397 ], [ -87.616978206, 33.4065888 ] ] } },
{ "type": "Feature", "properties": { "site_no": "02464360", "nhdplus_comid": "18230169", "navigation_mode": "DM", "requested_distance_km": 12.0, "start_source": "nwissite", "start_id": "USGS-02464360", "geometry_length_km": 0.010324697058129946 }, "geometry": { "type": "LineString", "coordinates": [ [ -87.616978206, 33.4065888 ], [ -87.616869405, 33.4065677 ] ] } },
{ "type": "Feature", "properties": { "site_no": "02464360", "nhdplus_comid": "18229471", "navigation_mode": "DM", "requested_distance_km": 12.0, "start_source": "nwissite", "start_id": "USGS-02464360", "geometry_length_km": 0.18434003385901335 }, "geometry": { "type": "LineString", "coordinates": [ [ -87.616869405, 33.4065677 ], [ -87.6158958, 33.408008598 ] ] } },
{ "type": "Feature", "properties": { "site_no": "02464360", "nhdplus_comid": "18229465", "navigation_mode": "DM", "requested_distance_km": 12.0, "start_source": "nwissite", "start_id": "USGS-02464360", "geometry_length_km": 0.48062575520553091 }, "geometry": { "type": "LineString", "coordinates": [ [ -87.6158958, 33.408008598 ], [ -87.615957402, 33.410278596 ], [ -87.614958204, 33.4110865 ], [ -87.6139016, 33.4110092 ] ] } },
{ "type": "Feature", "properties": { "site_no": "02464360", "nhdplus_comid": "18229503", "navigation_mode": "DM", "requested_distance_km": 12.0, "start_source": "nwissite", "start_id": "USGS-02464360", "geometry_length_km": 2.65579531134208 }, "geometry": { "type": "LineString", "coordinates": [ [ -87.6139016, 33.4110092 ], [ -87.613928303, 33.410759397 ], [ -87.613418005, 33.409840994 ], [ -87.613689005, 33.408728093 ], [ -87.612135604, 33.407607496 ], [ -87.610652901, 33.407247297 ], [ -87.609965004, 33.406567596 ], [ -87.609619103, 33.405535296 ], [ -87.608199306, 33.403165899 ], [ -87.608262204, 33.401156694 ], [ -87.608768404, 33.400690295 ], [ -87.608848602, 33.399940997 ], [ -87.609408304, 33.398975097 ], [ -87.611051105, 33.397836797 ], [ -87.611104503, 33.397337295 ], [ -87.611446403, 33.396984696 ], [ -87.611620001, 33.3953612 ], [ -87.610710606, 33.393910095 ], [ -87.609335005, 33.392550699 ], [ -87.609304301, 33.391415693 ], [ -87.608931303, 33.391101293 ] ] } },
{ "type": "Feature", "properties": { "site_no": "02464360", "nhdplus_comid": "25813555", "navigation_mode": "DM", "requested_distance_km": 12.0, "start_source": "nwissite", "start_id": "USGS-02464360", "geometry_length_km": 0.021134201545100033 }, "geometry": { "type": "LineString", "coordinates": [ [ -87.608931303, 33.391101293 ], [ -87.608802304, 33.3910392 ], [ -87.608731404, 33.391009495 ] ] } },
{ "type": "Feature", "properties": { "site_no": "02464360", "nhdplus_comid": "18227651", "navigation_mode": "DM", "requested_distance_km": 12.0, "start_source": "nwissite", "start_id": "USGS-02464360", "geometry_length_km": 0.074784166794668053 }, "geometry": { "type": "LineString", "coordinates": [ [ -87.608731404, 33.391009495 ], [ -87.6079394, 33.390871897 ] ] } },
{ "type": "Feature", "properties": { "site_no": "02464360", "nhdplus_comid": "18229511", "navigation_mode": "DM", "requested_distance_km": 12.0, "start_source": "nwissite", "start_id": "USGS-02464360", "geometry_length_km": 1.8964094613461364 }, "geometry": { "type": "LineString", "coordinates": [ [ -87.6079394, 33.390871897 ], [ -87.607880302, 33.390814498 ], [ -87.606943205, 33.390739299 ], [ -87.605567805, 33.389379799 ], [ -87.604977503, 33.389210694 ], [ -87.603850506, 33.388372898 ], [ -87.600039802, 33.384191699 ], [ -87.596143305, 33.383654095 ], [ -87.592980601, 33.380526997 ] ] } },
{ "type": "Feature", "properties": { "site_no": "02464360", "nhdplus_comid": "18229529", "navigation_mode": "DM", "requested_distance_km": 12.0, "start_source": "nwissite", "start_id": "USGS-02464360", "geometry_length_km": 0.68774416306892594 }, "geometry": { "type": "LineString", "coordinates": [ [ -87.592980601, 33.380526997 ], [ -87.592018105, 33.379575297 ], [ -87.591397502, 33.378270999 ], [ -87.590435006, 33.377319299 ], [ -87.589254804, 33.376980796 ], [ -87.588292301, 33.376029097 ] ] } },
{ "type": "Feature", "properties": { "site_no": "02464360", "nhdplus_comid": "18229585", "navigation_mode": "DM", "requested_distance_km": 12.0, "start_source": "nwissite", "start_id": "USGS-02464360", "geometry_length_km": 3.112434120636324 }, "geometry": { "type": "LineString", "coordinates": [ [ -87.588292301, 33.376029097 ], [ -87.587370105, 33.374702595 ], [ -87.587490603, 33.373578697 ], [ -87.587091602, 33.373045899 ], [ -87.587030903, 33.370775796 ], [ -87.586356901, 33.369971 ], [ -87.586557806, 33.3680977 ], [ -87.588364504, 33.366845898 ], [ -87.590131104, 33.365968697 ], [ -87.592048407, 33.365102597 ], [ -87.593446307, 33.364827596 ], [ -87.595514402, 33.3639725 ], [ -87.598745503, 33.362195693 ], [ -87.599663906, 33.362137198 ], [ -87.602633201, 33.359963499 ], [ -87.603356905, 33.358883694 ], [ -87.603845604, 33.357157394 ], [ -87.604351602, 33.356690995 ] ] } }
]
}
