{
"type": "FeatureCollection",
"name": "USGS_02464000_UM_12km",
"crs": { "type": "name", "properties": { "name": "urn:ogc:def:crs:OGC:1.3:CRS84" } },
"features": [
{ "type": "Feature", "properties": { "site_no": "02464000", "nhdplus_comid": "18229143", "navigation_mode": "UM", "requested_distance_km": 12.0, "start_source": "nwissite", "start_id": "USGS-02464000", "geometry_length_km": 1.3952704970517134 }, "geometry": { "type": "LineString", "coordinates": [ [ -87.588811904, 33.489036098 ], [ -87.590233803, 33.488440797 ], [ -87.593297005, 33.485806994 ], [ -87.594172001, 33.484936498 ], [ -87.595348202, 33.483333096 ], [ -87.596032105, 33.482096195 ], [ -87.596606605, 33.480790399 ], [ -87.596661605, 33.4795992 ], [ -87.596609825, 33.479026025 ] ] } },
{ "type": "Feature", "properties": { "site_no": "02464000", "nhdplus_comid": "18226931", "navigation_mode": "UM", "requested_distance_km": 12.0, "start_source": "nwissite", "start_id": "USGS-02464000", "geometry_length_km": 0.31354387556299368 }, "geometry": { "type": "LineString", "coordinates": [ [ -87.585503303, 33.489630796 ], [ -87.5856947, 33.489539295 ], [ -87.588811904, 33.489036098 ] ] } },
{ "type": "Feature", "properties": { "site_no": "02464000", "nhdplus_comid": "18226921", "navigation_mode": "UM", "requested_distance_km": 12.0, "start_source": "nwissite", "start_id": "USGS-02464000", "geometry_length_km": 1.3015996148205022 }, "geometry": { "type": "LineString", "coordinates": [ [ -87.581585802, 33.500128895 ], [ -87.581914604, 33.498793498 ], [ -87.581835106, 33.495013393 ], [ -87.581918105, 33.4939138 ], [ -87.582165003, 33.492997497 ], [ -87.582466304, 33.4925166 ], [ -87.584245205, 33.490317695 ], [ -87.584874302, 33.489790998 ], [ -87.585503303, 33.489630796 ] ] } },
{ "type": "Feature", "properties": { "site_no": "02464000", "nhdplus_comid": "18224323", "navigation_mode": "UM", "requested_distance_km": 12.0, "start_source": "nwissite", "start_id": "USGS-02464000", "geometry_length_km": 6.815264169544367 }, "geometry": { "type": "LineString", "coordinates": [ [ -87.576319501, 33.524206296 ], [ -87.576264806, 33.5240459 ], [ -87.576046102, 33.523862496 ], [ -87.576019004, 33.523358494 ], [ -87.576265506, 33.522992097 ], [ -87.577059001, 33.522396594 ], [ -87.579466507, 33.521274999 ], [ -87.581463501, 33.520496793 ], [ -87.5815458, 33.520061493 ], [ -87.581327103, 33.519809499 ], [ -87.580999002, 33.519740693 ], [ -87.579112105, 33.519625396 ], [ -87.574791007, 33.519005194 ], [ -87.574216805, 33.518798798 ], [ -87.574052803, 33.518569693 ], [ -87.573998302, 33.518317595 ], [ -87.574464001, 33.517378494 ], [ -87.575257801, 33.5163479 ], [ -87.576845504, 33.514492795 ], [ -87.577530101, 33.513416395 ], [ -87.577530406, 33.512981094 ], [ -87.577339105, 33.5127519 ], [ -87.575972103, 33.511949599 ], [ -87.573265307, 33.511032194 ], [ -87.572035007, 33.510527596 ], [ -87.568891205, 33.508830793 ], [ -87.566922806, 33.508050993 ], [ -87.566485606, 33.507753 ], [ -87.566294305, 33.507500894 ], [ -87.566267602, 33.5066991 ], [ -87.566404805, 33.506034799 ], [ -87.567418106, 33.504248396 ], [ -87.568485402, 33.5031491 ], [ -87.569224305, 33.502233095 ], [ -87.569963805, 33.500744298 ], [ -87.570319504, 33.500446595 ], [ -87.571003102, 33.500424094 ], [ -87.571467705, 33.500722095 ], [ -87.572287604, 33.501684599 ], [ -87.572396606, 33.502051197 ], [ -87.573134303, 33.503242694 ], [ -87.573243402, 33.5036093 ], [ -87.573734306, 33.505602799 ], [ -87.573951505, 33.507847898 ], [ -87.574470401, 33.508787394 ], [ -87.574989706, 33.509131193 ], [ -87.575618602, 33.509406395 ], [ -87.576192901, 33.509383798 ], [ -87.579229601, 33.507666796 ], [ -87.580105305, 33.506933995 ], [ -87.580652706, 33.506292693 ], [ -87.581337102, 33.504895493 ], [ -87.581557006, 33.503062695 ], [ -87.581530705, 33.500955097 ], [ -87.581585802, 33.500128895 ] ] } }
]
}
