{
"type": "FeatureCollection",
"name": "USGS_03592300_DM_12km",
"crs": { "type": "name", "properties": { "name": "urn:ogc:def:crs:OGC:1.3:CRS84" } },
"features": [
{ "type": "Feature", "properties": { "site_no": "03592300", "nhdplus_comid": "19569742", "navigation_mode": "DM", "requested_distance_km": 12.0, "start_source": "nwissite", "start_id": "USGS-03592300", "geometry_length_km": 0.19074278356248575 }, "geometry": { "type": "LineString", "coordinates": [ [ -88.035499885, 34.488558889 ], [ -88.036228701, 34.488830097 ], [ -88.037501305, 34.488647796 ] ] } },
{ "type": "Feature", "properties": { "site_no": "03592300", "nhdplus_comid": "19569734", "navigation_mode": "DM", "requested_distance_km": 12.0, "start_source": "nwissite", "start_id": "USGS-03592300", "geometry_length_km": 1.0106276359915645 }, "geometry": { "type": "LineString", "coordinates": [ [ -88.037501305, 34.488647796 ], [ -88.037694901, 34.488693595 ], [ -88.0379159, 34.4889457 ], [ -88.038219102, 34.490091197 ], [ -88.038384706, 34.490480594 ], [ -88.038467102, 34.491076097 ], [ -88.038134001, 34.492266998 ], [ -88.038051002, 34.492358498 ], [ -88.038078204, 34.492770799 ], [ -88.038161106, 34.492931098 ], [ -88.038548201, 34.493091695 ], [ -88.038630806, 34.4934811 ], [ -88.038768902, 34.493710198 ], [ -88.039598204, 34.494306296 ], [ -88.039874405, 34.494764693 ], [ -88.040206105, 34.495154195 ], [ -88.040178105, 34.495589294 ], [ -88.039928705, 34.495978594 ], [ -88.039375007, 34.496505 ] ] } },
{ "type": "Feature", "properties": { "site_no": "03592300", "nhdplus_comid": "19569702", "navigation_mode": "DM", "requested_distance_km": 12.0, "start_source": "nwissite", "start_id": "USGS-03592300", "geometry_length_km": 0.45680090015003022 }, "geometry": { "type": "LineString", "coordinates": [ [ -88.039375007, 34.496505 ], [ -88.039458007, 34.496940196 ], [ -88.039320104, 34.497329496 ], [ -88.039266102, 34.497924894 ], [ -88.0389909, 34.498336993 ], [ -88.039046906, 34.498611994 ], [ -88.039434202, 34.498726696 ], [ -88.039490603, 34.4992994 ], [ -88.0393802, 34.499619894 ], [ -88.038854502, 34.5001105 ] ] } },
{ "type": "Feature", "properties": { "site_no": "03592300", "nhdplus_comid": "19567818", "navigation_mode": "DM", "requested_distance_km": 12.0, "start_source": "nwissite", "start_id": "USGS-03592300", "geometry_length_km": 0.68004012981387529 }, "geometry": { "type": "LineString", "coordinates": [ [ -88.038854502, 34.5001105 ], [ -88.038965002, 34.500329196 ], [ -88.038881801, 34.500695497 ], [ -88.038964905, 34.501016296 ], [ -88.039325006, 34.501382999 ], [ -88.039796203, 34.501726896 ], [ -88.041346602, 34.502117395 ], [ -88.042814702, 34.502278693 ], [ -88.044808701, 34.502417497 ] ] } },
{ "type": "Feature", "properties": { "site_no": "03592300", "nhdplus_comid": "19567812", "navigation_mode": "DM", "requested_distance_km": 12.0, "start_source": "nwissite", "start_id": "USGS-03592300", "geometry_length_km": 2.1827921486747202 }, "geometry": { "type": "LineString", "coordinates": [ [ -88.044808701, 34.502417497 ], [ -88.045223705, 34.502417699 ], [ -88.045389704, 34.502349094 ], [ -88.045583606, 34.502188899 ], [ -88.045888402, 34.501593694 ], [ -88.046303801, 34.501135796 ], [ -88.047549106, 34.500861794 ], [ -88.0482134, 34.500427097 ], [ -88.048462406, 34.500335597 ], [ -88.048822001, 34.500381596 ], [ -88.049043201, 34.500542097 ], [ -88.049181201, 34.501000196 ], [ -88.049291305, 34.501549996 ], [ -88.049318403, 34.502122596 ], [ -88.0493735, 34.5023975 ], [ -88.049345307, 34.503015898 ], [ -88.049234502, 34.503221899 ], [ -88.048736103, 34.503610998 ], [ -88.048209906, 34.504137397 ], [ -88.0482646, 34.504824497 ], [ -88.048375003, 34.505191095 ], [ -88.048457801, 34.505351499 ], [ -88.048485301, 34.505557597 ], [ -88.048568301, 34.5056035 ], [ -88.048568204, 34.505695097 ], [ -88.048899703, 34.506176196 ], [ -88.049286507, 34.506840795 ], [ -88.049590603, 34.507184394 ], [ -88.050005205, 34.5074367 ], [ -88.050365001, 34.5073452 ], [ -88.050558701, 34.507207893 ], [ -88.0508084, 34.5065668 ], [ -88.051307, 34.505994499 ], [ -88.051722206, 34.505742796 ], [ -88.052054301, 34.505651399 ], [ -88.052662902, 34.505697593 ], [ -88.053437404, 34.505904295 ], [ -88.053852007, 34.506225199 ], [ -88.053906307, 34.507324599 ], [ -88.054016702, 34.5076911 ], [ -88.054099701, 34.507759795 ], [ -88.054348104, 34.5084012 ], [ -88.054292001, 34.509294495 ] ] } },
{ "type": "Feature", "properties": { "site_no": "03592300", "nhdplus_comid": "19567778", "navigation_mode": "DM", "requested_distance_km": 12.0, "start_source": "nwissite", "start_id": "USGS-03592300", "geometry_length_km": 1.2634575944472417 }, "geometry": { "type": "LineString", "coordinates": [ [ -88.054292001, 34.509294495 ], [ -88.053405501, 34.510668196 ], [ -88.053267002, 34.510965899 ], [ -88.053128004, 34.511652894 ], [ -88.052490801, 34.5127289 ], [ -88.0515211, 34.514079697 ], [ -88.051050305, 34.514629096 ], [ -88.050552003, 34.514949396 ], [ -88.050274804, 34.515384495 ], [ -88.050219104, 34.515796699 ], [ -88.050523207, 34.516163297 ], [ -88.050495304, 34.516438097 ], [ -88.050162703, 34.517033398 ], [ -88.0501623, 34.517491497 ], [ -88.050411001, 34.5178352 ], [ -88.051129803, 34.518499896 ], [ -88.0516828, 34.5191186 ] ] } },
{ "type": "Feature", "properties": { "site_no": "03592300", "nhdplus_comid": "19567748", "navigation_mode": "DM", "requested_distance_km": 12.0, "start_source": "nwissite", "start_id": "USGS-03592300", "geometry_length_km": 0.49549140255370427 }, "geometry": { "type": "LineString", "coordinates": [ [ -88.0516828, 34.5191186 ], [ -88.052982703, 34.519760594 ], [ -88.053204, 34.519806594 ], [ -88.054144904, 34.519761294 ], [ -88.055030406, 34.519693196 ], [ -88.0556667, 34.519853793 ], [ -88.056054004, 34.520060197 ], [ -88.056551807, 34.520495594 ] ] } },
{ "type": "Feature", "properties": { "site_no": "03592300", "nhdplus_comid": "19567740", "navigation_mode": "DM", "requested_distance_km": 12.0, "start_source": "nwissite", "start_id": "USGS-03592300", "geometry_length_km": 0.77706480899519381 }, "geometry": { "type": "LineString", "coordinates": [ [ -88.056551807, 34.520495594 ], [ -88.056606904, 34.520770498 ], [ -88.056662105, 34.520839296 ], [ -88.056910604, 34.521503493 ], [ -88.057297803, 34.5218473 ], [ -88.057435803, 34.522236899 ], [ -88.057463102, 34.522786498 ], [ -88.057601206, 34.523176 ], [ -88.057600901, 34.523382097 ], [ -88.0576839, 34.523404993 ], [ -88.057683706, 34.523656994 ], [ -88.057932407, 34.5240236 ], [ -88.058402501, 34.524458997 ], [ -88.0585123, 34.525535598 ], [ -88.058788806, 34.525833398 ], [ -88.058927104, 34.525879294 ], [ -88.059453003, 34.525742196 ], [ -88.059729904, 34.525604896 ], [ -88.060034402, 34.525582097 ] ] } },
{ "type": "Feature", "properties": { "site_no": "03592300", "nhdplus_comid": "19567704", "navigation_mode": "DM", "requested_distance_km": 12.0, "start_source": "nwissite", "start_id": "USGS-03592300", "geometry_length_km": 1.5944954638873752 }, "geometry": { "type": "LineString", "coordinates": [ [ -88.060034402, 34.525582097 ], [ -88.060698703, 34.5252847 ], [ -88.061113901, 34.525170393 ], [ -88.061695002, 34.525170796 ], [ -88.062276103, 34.525262699 ], [ -88.062829405, 34.525468998 ], [ -88.063133605, 34.525743999 ], [ -88.063327007, 34.526248097 ], [ -88.063409403, 34.526980996 ], [ -88.063519806, 34.527393296 ], [ -88.063685603, 34.527759798 ], [ -88.064155802, 34.528149396 ], [ -88.064847402, 34.528401695 ], [ -88.066065006, 34.528654195 ], [ -88.066673502, 34.528906494 ], [ -88.067116201, 34.529135697 ], [ -88.067337401, 34.529341996 ], [ -88.067586303, 34.529616997 ], [ -88.067586303, 34.529731393 ], [ -88.067696907, 34.529868998 ], [ -88.067724302, 34.530258298 ], [ -88.0674472, 34.530784994 ], [ -88.066533007, 34.532227397 ], [ -88.066532306, 34.533166498 ], [ -88.066891603, 34.533945397 ], [ -88.067333907, 34.534632698 ], [ -88.067389101, 34.5348159 ] ] } },
{ "type": "Feature", "properties": { "site_no": "03592300", "nhdplus_comid": "19567678", "navigation_mode": "DM", "requested_distance_km": 12.0, "start_source": "nwissite", "start_id": "USGS-03592300", "geometry_length_km": 0.97736793286184143 }, "geometry": { "type": "LineString", "coordinates": [ [ -88.067389101, 34.5348159 ], [ -88.068080604, 34.535480499 ], [ -88.0689383, 34.535938896 ], [ -88.069491602, 34.536076598 ], [ -88.070211306, 34.536077 ], [ -88.071373902, 34.535710998 ], [ -88.073118001, 34.5349788 ], [ -88.073948406, 34.534727193 ], [ -88.075692005, 34.534636296 ], [ -88.077186607, 34.534568198 ] ] } },
{ "type": "Feature", "properties": { "site_no": "03592300", "nhdplus_comid": "19567680", "navigation_mode": "DM", "requested_distance_km": 12.0, "start_source": "nwissite", "start_id": "USGS-03592300", "geometry_length_km": 2.1361195809651132 }, "geometry": { "type": "LineString", "coordinates": [ [ -88.077186607, 34.534568198 ], [ -88.077823207, 34.534591399 ], [ -88.078459606, 34.534774795 ], [ -88.078902304, 34.534981094 ], [ -88.079566203, 34.535645597 ], [ -88.079787403, 34.535943396 ], [ -88.079842605, 34.536218293 ], [ -88.079953201, 34.536470294 ], [ -88.080063105, 34.537752897 ], [ -88.080007702, 34.537936099 ], [ -88.079868503, 34.539470494 ], [ -88.079951502, 34.5395393 ], [ -88.079979002, 34.539768293 ], [ -88.080145001, 34.5399516 ], [ -88.080144905, 34.540088996 ], [ -88.080559805, 34.540593095 ], [ -88.0808364, 34.540822193 ], [ -88.082247801, 34.541280799 ], [ -88.083160907, 34.542059794 ], [ -88.083852701, 34.542311899 ], [ -88.085209005, 34.542197898 ], [ -88.086316302, 34.541900493 ], [ -88.087285005, 34.541877896 ], [ -88.088226005, 34.542084396 ], [ -88.088917807, 34.5423823 ], [ -88.089194506, 34.542588495 ], [ -88.089554407, 34.542657293 ], [ -88.090163305, 34.5425888 ], [ -88.090800002, 34.542199597 ], [ -88.091159903, 34.5419477 ], [ -88.093263805, 34.541169599 ] ] } }
]
}
