{
"type": "FeatureCollection",
"name": "USGS_02372755_DM_12km",
"crs": { "type": "name", "properties": { "name": "urn:ogc:def:crs:OGC:1.3:CRS84" } },
"features": [
{ "type": "Feature", "properties": { "site_no": "02372755", "nhdplus_comid": "2399623", "navigation_mode": "DM", "requested_distance_km": 12.0, "start_source": "nwissite", "start_id": "USGS-02372755", "geometry_length_km": 0.32355291922088791 }, "geometry": { "type": "LineString", "coordinates": [ [ -86.633518753, 31.821063605 ], [ -86.633267902, 31.8206743 ], [ -86.633294806, 31.820582598 ], [ -86.632999502, 31.820147298 ], [ -86.631281801, 31.818978697 ] ] } },
{ "type": "Feature", "properties": { "site_no": "02372755", "nhdplus_comid": "2399657", "navigation_mode": "DM", "requested_distance_km": 12.0, "start_source": "nwissite", "start_id": "USGS-02372755", "geometry_length_km": 1.6427260708101867 }, "geometry": { "type": "LineString", "coordinates": [ [ -86.631281801, 31.818978697 ], [ -86.629295804, 31.817901693 ], [ -86.627953902, 31.817512095 ], [ -86.625538401, 31.817053795 ], [ -86.625001706, 31.816824697 ], [ -86.624277003, 31.816435099 ], [ -86.623498805, 31.815724693 ], [ -86.623123005, 31.815151796 ], [ -86.622801006, 31.814303897 ], [ -86.622693703, 31.813341498 ], [ -86.622586302, 31.813043498 ], [ -86.622103304, 31.812355995 ], [ -86.621781304, 31.811576895 ], [ -86.621432506, 31.810087398 ], [ -86.621352002, 31.810018599 ], [ -86.621244706, 31.809445694 ], [ -86.621164203, 31.809377 ], [ -86.621110603, 31.808964498 ], [ -86.621030107, 31.8088957 ] ] } },
{ "type": "Feature", "properties": { "site_no": "02372755", "nhdplus_comid": "2399729", "navigation_mode": "DM", "requested_distance_km": 12.0, "start_source": "nwissite", "start_id": "USGS-02372755", "geometry_length_km": 2.7527917676373996 }, "geometry": { "type": "LineString", "coordinates": [ [ -86.621030107, 31.8088957 ], [ -86.6208691, 31.8073375 ], [ -86.620681107, 31.806993693 ], [ -86.619285904, 31.805297799 ], [ -86.618910305, 31.804610394 ], [ -86.6183469, 31.803831197 ], [ -86.617541902, 31.803051993 ], [ -86.615878403, 31.801264495 ], [ -86.615690604, 31.800851993 ], [ -86.615207702, 31.799614497 ], [ -86.615207702, 31.798629194 ], [ -86.615073703, 31.797391593 ], [ -86.614590906, 31.796154194 ], [ -86.6141349, 31.795489497 ], [ -86.613383703, 31.794618599 ], [ -86.611532606, 31.792808093 ], [ -86.610674307, 31.791822597 ], [ -86.609225504, 31.790401593 ], [ -86.608072005, 31.789622493 ], [ -86.606757604, 31.788293198 ], [ -86.606623404, 31.788247295 ] ] } },
{ "type": "Feature", "properties": { "site_no": "02372755", "nhdplus_comid": "2399747", "navigation_mode": "DM", "requested_distance_km": 12.0, "start_source": "nwissite", "start_id": "USGS-02372755", "geometry_length_km": 0.91806716477666916 }, "geometry": { "type": "LineString", "coordinates": [ [ -86.606623404, 31.788247295 ], [ -86.606301807, 31.786918096 ], [ -86.605738603, 31.785955496 ], [ -86.605765507, 31.785359599 ], [ -86.606007107, 31.784901395 ], [ -86.606382802, 31.784718096 ], [ -86.607348606, 31.784511998 ], [ -86.607670605, 31.784351595 ], [ -86.608153604, 31.7833663 ], [ -86.608448803, 31.783022597 ], [ -86.609548807, 31.782587394 ], [ -86.610005006, 31.782266594 ], [ -86.610192701, 31.782220796 ] ] } },
{ "type": "Feature", "properties": { "site_no": "02372755", "nhdplus_comid": "2399853", "navigation_mode": "DM", "requested_distance_km": 12.0, "start_source": "nwissite", "start_id": "USGS-02372755", "geometry_length_km": 2.7572178784110375 }, "geometry": { "type": "LineString", "coordinates": [ [ -86.610192701, 31.782220796 ], [ -86.610246502, 31.781945795 ], [ -86.6108099, 31.7809605 ], [ -86.610836804, 31.780204296 ], [ -86.610649101, 31.779768795 ], [ -86.610595502, 31.779241793 ], [ -86.611185804, 31.7781877 ], [ -86.612098105, 31.777339898 ], [ -86.612232201, 31.777019098 ], [ -86.612125203, 31.775552496 ], [ -86.611991003, 31.775231697 ], [ -86.6119643, 31.774521299 ], [ -86.612581506, 31.773879595 ], [ -86.612876505, 31.773444295 ], [ -86.613118105, 31.7727338 ], [ -86.613252304, 31.771633893 ], [ -86.613091506, 31.771335997 ], [ -86.612367205, 31.770465098 ], [ -86.611616306, 31.769181699 ], [ -86.6114555, 31.768287897 ], [ -86.6123408, 31.767142296 ], [ -86.613360204, 31.766683996 ], [ -86.613708906, 31.766386196 ], [ -86.613896705, 31.765744597 ], [ -86.613789506, 31.7654237 ], [ -86.613306805, 31.764896594 ], [ -86.613387205, 31.764598794 ], [ -86.614138305, 31.763911299 ], [ -86.614379801, 31.763177998 ], [ -86.614674903, 31.762444794 ], [ -86.614675, 31.762009397 ], [ -86.614567704, 31.761642598 ], [ -86.613843605, 31.760794699 ], [ -86.613575406, 31.760359295 ] ] } },
{ "type": "Feature", "properties": { "site_no": "02372755", "nhdplus_comid": "2401145", "navigation_mode": "DM", "requested_distance_km": 12.0, "start_source": "nwissite", "start_id": "USGS-02372755", "geometry_length_km": 2.1666637523680898 }, "geometry": { "type": "LineString", "coordinates": [ [ -86.613575406, 31.760359295 ], [ -86.614031501, 31.759534396 ], [ -86.614058502, 31.758090697 ], [ -86.613414906, 31.7570135 ], [ -86.6131199, 31.756348997 ], [ -86.613120206, 31.754996896 ], [ -86.613012902, 31.7543552 ], [ -86.612691201, 31.753690697 ], [ -86.6118064, 31.752407297 ], [ -86.611243106, 31.751788497 ], [ -86.610787302, 31.751123898 ], [ -86.610703506, 31.750159599 ], [ -86.610757306, 31.748945095 ], [ -86.609658107, 31.746790893 ], [ -86.609604605, 31.746470094 ], [ -86.609497301, 31.746401295 ], [ -86.6092024, 31.745759599 ], [ -86.608907707, 31.744522199 ], [ -86.608613104, 31.742024198 ] ] } }
]
}
