{
"type": "FeatureCollection",
"name": "USGS_02398300_DM_12km",
"crs": { "type": "name", "properties": { "name": "urn:ogc:def:crs:OGC:1.3:CRS84" } },
"features": [
{ "type": "Feature", "properties": { "site_no": "02398300", "nhdplus_comid": "15822925", "navigation_mode": "DM", "requested_distance_km": 12.0, "start_source": "nwissite", "start_id": "USGS-02398300", "geometry_length_km": 0.14402351160862492 }, "geometry": { "type": "LineString", "coordinates": [ [ -85.509391318, 34.290373958 ], [ -85.510511801, 34.2894677 ] ] } },
{ "type": "Feature", "properties": { "site_no": "02398300", "nhdplus_comid": "15821291", "navigation_mode": "DM", "requested_distance_km": 12.0, "start_source": "nwissite", "start_id": "USGS-02398300", "geometry_length_km": 3.8631603111582566 }, "geometry": { "type": "LineString", "coordinates": [ [ -85.510511801, 34.2894677 ], [ -85.513245806, 34.287706897 ], [ -85.516558707, 34.286289997 ], [ -85.518408202, 34.285581596 ], [ -85.519594803, 34.285376593 ], [ -85.521940902, 34.284691595 ], [ -85.524065904, 34.284326993 ], [ -85.524673201, 34.2840527 ], [ -85.525143005, 34.283411793 ], [ -85.525585704, 34.282358699 ], [ -85.5266634, 34.2809854 ], [ -85.527935401, 34.278513096 ], [ -85.5283508, 34.277116396 ], [ -85.528435402, 34.275513299 ], [ -85.528079405, 34.2732687 ], [ -85.527584001, 34.272191897 ], [ -85.527529702, 34.271481797 ], [ -85.527612805, 34.271252893 ], [ -85.528026901, 34.270886794 ], [ -85.529931203, 34.270201296 ], [ -85.531559803, 34.269263595 ], [ -85.531946503, 34.268782899 ], [ -85.532527506, 34.267225996 ], [ -85.532639407, 34.265760399 ], [ -85.532777905, 34.265233897 ] ] } },
{ "type": "Feature", "properties": { "site_no": "02398300", "nhdplus_comid": "15821295", "navigation_mode": "DM", "requested_distance_km": 12.0, "start_source": "nwissite", "start_id": "USGS-02398300", "geometry_length_km": 1.0894889360692541 }, "geometry": { "type": "LineString", "coordinates": [ [ -85.532777905, 34.265233897 ], [ -85.533551104, 34.264501497 ], [ -85.533965006, 34.264341496 ], [ -85.534930401, 34.264388099 ], [ -85.5363646, 34.264640994 ], [ -85.538763806, 34.265421398 ], [ -85.540417902, 34.2662699 ], [ -85.541051805, 34.266842999 ], [ -85.541575201, 34.2675533 ], [ -85.541712806, 34.267873995 ], [ -85.542263903, 34.268492699 ] ] } },
{ "type": "Feature", "properties": { "site_no": "02398300", "nhdplus_comid": "15823195", "navigation_mode": "DM", "requested_distance_km": 12.0, "start_source": "nwissite", "start_id": "USGS-02398300", "geometry_length_km": 0.00068988265429528468 }, "geometry": { "type": "LineString", "coordinates": [ [ -85.542263903, 34.268492699 ], [ -85.542261906, 34.2684948 ], [ -85.542264506, 34.268497594 ] ] } },
{ "type": "Feature", "properties": { "site_no": "02398300", "nhdplus_comid": "15823193", "navigation_mode": "DM", "requested_distance_km": 12.0, "start_source": "nwissite", "start_id": "USGS-02398300", "geometry_length_km": 0.21621297330152844 }, "geometry": { "type": "LineString", "coordinates": [ [ -85.542264506, 34.268497594 ], [ -85.543272905, 34.269596897 ], [ -85.543848403, 34.269900799 ] ] } },
{ "type": "Feature", "properties": { "site_no": "02398300", "nhdplus_comid": "15823237", "navigation_mode": "DM", "requested_distance_km": 12.0, "start_source": "nwissite", "start_id": "USGS-02398300", "geometry_length_km": 4.6104359271109896 }, "geometry": { "type": "LineString", "coordinates": [ [ -85.543848403, 34.269900799 ], [ -85.544880703, 34.270245999 ], [ -85.5471818, 34.270327799 ], [ -85.548331901, 34.269801594 ], [ -85.548618801, 34.268819593 ], [ -85.547670506, 34.267852098 ], [ -85.54569, 34.266539395 ], [ -85.544335403, 34.265157193 ], [ -85.543809503, 34.263345793 ], [ -85.544247702, 34.2612435 ], [ -85.545566805, 34.260606699 ], [ -85.548645802, 34.260632694 ], [ -85.551452905, 34.2592481 ], [ -85.552975506, 34.259385496 ], [ -85.556361102, 34.261706799 ], [ -85.558597006, 34.264554195 ], [ -85.559358403, 34.264622897 ], [ -85.562621102, 34.262145296 ], [ -85.565122306, 34.259598896 ], [ -85.565375306, 34.258865796 ], [ -85.566304505, 34.2576897 ], [ -85.566573001, 34.255697995 ], [ -85.566200204, 34.255034499 ], [ -85.566233002, 34.254892394 ] ] } },
{ "type": "Feature", "properties": { "site_no": "02398300", "nhdplus_comid": "15823239", "navigation_mode": "DM", "requested_distance_km": 12.0, "start_source": "nwissite", "start_id": "USGS-02398300", "geometry_length_km": 0.027529936249207153 }, "geometry": { "type": "LineString", "coordinates": [ [ -85.566233002, 34.254892394 ], [ -85.566288806, 34.254650399 ] ] } },
{ "type": "Feature", "properties": { "site_no": "02398300", "nhdplus_comid": "15823243", "navigation_mode": "DM", "requested_distance_km": 12.0, "start_source": "nwissite", "start_id": "USGS-02398300", "geometry_length_km": 0.63426296877175092 }, "geometry": { "type": "LineString", "coordinates": [ [ -85.566288806, 34.254650399 ], [ -85.566570707, 34.253429994 ], [ -85.566942304, 34.252959497 ], [ -85.568768106, 34.251990095 ], [ -85.570459604, 34.252016596 ], [ -85.571135804, 34.251573496 ] ] } },
{ "type": "Feature", "properties": { "site_no": "02398300", "nhdplus_comid": "15823247", "navigation_mode": "DM", "requested_distance_km": 12.0, "start_source": "nwissite", "start_id": "USGS-02398300", "geometry_length_km": 0.029216301710973339 }, "geometry": { "type": "LineString", "coordinates": [ [ -85.571135804, 34.251573496 ], [ -85.571256801, 34.251331598 ] ] } },
{ "type": "Feature", "properties": { "site_no": "02398300", "nhdplus_comid": "15823249", "navigation_mode": "DM", "requested_distance_km": 12.0, "start_source": "nwissite", "start_id": "USGS-02398300", "geometry_length_km": 0.029082418374233868 }, "geometry": { "type": "LineString", "coordinates": [ [ -85.571256801, 34.251331598 ], [ -85.571377203, 34.251090795 ] ] } },
{ "type": "Feature", "properties": { "site_no": "02398300", "nhdplus_comid": "15823287", "navigation_mode": "DM", "requested_distance_km": 12.0, "start_source": "nwissite", "start_id": "USGS-02398300", "geometry_length_km": 0.95489697940068086 }, "geometry": { "type": "LineString", "coordinates": [ [ -85.571377203, 34.251090795 ], [ -85.571557805, 34.250729598 ], [ -85.571556501, 34.249595597 ], [ -85.570794001, 34.248392999 ], [ -85.570861101, 34.247895099 ], [ -85.570488207, 34.247231498 ], [ -85.570436604, 34.246470898 ], [ -85.569759302, 34.245779999 ], [ -85.569741204, 34.2447704 ], [ -85.569841906, 34.244023494 ], [ -85.570818506, 34.243383497 ] ] } },
{ "type": "Feature", "properties": { "site_no": "02398300", "nhdplus_comid": "15823289", "navigation_mode": "DM", "requested_distance_km": 12.0, "start_source": "nwissite", "start_id": "USGS-02398300", "geometry_length_km": 0.028453001120471704 }, "geometry": { "type": "LineString", "coordinates": [ [ -85.570818506, 34.243383497 ], [ -85.570856005, 34.243358999 ], [ -85.571117707, 34.243382499 ] ] } },
{ "type": "Feature", "properties": { "site_no": "02398300", "nhdplus_comid": "15823291", "navigation_mode": "DM", "requested_distance_km": 12.0, "start_source": "nwissite", "start_id": "USGS-02398300", "geometry_length_km": 0.077327329212222448 }, "geometry": { "type": "LineString", "coordinates": [ [ -85.571117707, 34.243382499 ], [ -85.571312703, 34.243400097 ], [ -85.5718197, 34.243067794 ] ] } },
{ "type": "Feature", "properties": { "site_no": "02398300", "nhdplus_comid": "15823297", "navigation_mode": "DM", "requested_distance_km": 12.0, "start_source": "nwissite", "start_id": "USGS-02398300", "geometry_length_km": 0.93932060076233792 }, "geometry": { "type": "LineString", "coordinates": [ [ -85.5718197, 34.243067794 ], [ -85.573171802, 34.242181696 ], [ -85.574998602, 34.242346197 ], [ -85.576285005, 34.243091993 ], [ -85.579044804, 34.245482296 ], [ -85.580146402, 34.2455815 ] ] } }
]
}
