{
"type": "FeatureCollection",
"name": "USGS_03573000_DM_12km",
"crs": { "type": "name", "properties": { "name": "urn:ogc:def:crs:OGC:1.3:CRS84" } },
"features": [
{ "type": "Feature", "properties": { "site_no": "03573000", "nhdplus_comid": "19650054", "navigation_mode": "DM", "requested_distance_km": 12.0, "start_source": "nwissite", "start_id": "USGS-03573000", "geometry_length_km": 0.96383616634427816 }, "geometry": { "type": "LineString", "coordinates": [ [ -86.18099856, 34.301426919 ], [ -86.181063302, 34.301480599 ], [ -86.181284301, 34.3017096 ], [ -86.181229703, 34.302763298 ], [ -86.180210806, 34.306268193 ], [ -86.180045307, 34.306520298 ], [ -86.179714806, 34.307459496 ], [ -86.179494604, 34.308536194 ], [ -86.179467507, 34.309314996 ], [ -86.179550603, 34.309772998 ] ] } },
{ "type": "Feature", "properties": { "site_no": "03573000", "nhdplus_comid": "19649322", "navigation_mode": "DM", "requested_distance_km": 12.0, "start_source": "nwissite", "start_id": "USGS-03573000", "geometry_length_km": 2.5808771749039607 }, "geometry": { "type": "LineString", "coordinates": [ [ -86.179550603, 34.309772998 ], [ -86.179744206, 34.310254 ], [ -86.180186301, 34.3109181 ], [ -86.180738606, 34.311307199 ], [ -86.181594506, 34.311604597 ], [ -86.183720201, 34.311947197 ], [ -86.186618902, 34.312243499 ], [ -86.187309206, 34.3124265 ], [ -86.188137807, 34.313090295 ], [ -86.188663103, 34.314120799 ], [ -86.188857004, 34.315013997 ], [ -86.189327106, 34.316204794 ], [ -86.189879604, 34.316731393 ], [ -86.1908186, 34.3170745 ], [ -86.191536106, 34.316913694 ], [ -86.1920605, 34.316592798 ], [ -86.192860804, 34.316340394 ], [ -86.194241002, 34.316179395 ], [ -86.194737703, 34.315972999 ], [ -86.196696207, 34.314208195 ], [ -86.197495706, 34.313153997 ], [ -86.197606005, 34.312947795 ], [ -86.198268004, 34.312397696 ], [ -86.198875003, 34.312099598 ], [ -86.199482203, 34.311938897 ], [ -86.199951507, 34.311938599 ], [ -86.2002277, 34.312075794 ], [ -86.200420901, 34.312075794 ] ] } },
{ "type": "Feature", "properties": { "site_no": "03573000", "nhdplus_comid": "19649316", "navigation_mode": "DM", "requested_distance_km": 12.0, "start_source": "nwissite", "start_id": "USGS-03573000", "geometry_length_km": 1.008902865947674 }, "geometry": { "type": "LineString", "coordinates": [ [ -86.200420901, 34.312075794 ], [ -86.200421005, 34.312213197 ], [ -86.2007524, 34.312396295 ], [ -86.203182101, 34.312967293 ], [ -86.203624107, 34.313196093 ], [ -86.204481103, 34.314546995 ], [ -86.204592206, 34.315234095 ], [ -86.204262607, 34.317020893 ], [ -86.203987204, 34.317731194 ], [ -86.2039048, 34.318189293 ], [ -86.204347201, 34.318944894 ] ] } },
{ "type": "Feature", "properties": { "site_no": "03573000", "nhdplus_comid": "19649294", "navigation_mode": "DM", "requested_distance_km": 12.0, "start_source": "nwissite", "start_id": "USGS-03573000", "geometry_length_km": 0.39948713077269132 }, "geometry": { "type": "LineString", "coordinates": [ [ -86.204347201, 34.318944894 ], [ -86.204679407, 34.320044197 ], [ -86.204680502, 34.321074896 ], [ -86.204570703, 34.321739294 ], [ -86.204460405, 34.321853794 ], [ -86.204267606, 34.322426595 ] ] } },
{ "type": "Feature", "properties": { "site_no": "03573000", "nhdplus_comid": "19649280", "navigation_mode": "DM", "requested_distance_km": 12.0, "start_source": "nwissite", "start_id": "USGS-03573000", "geometry_length_km": 0.22704186269403839 }, "geometry": { "type": "LineString", "coordinates": [ [ -86.204267606, 34.322426595 ], [ -86.203688405, 34.322953798 ], [ -86.203109004, 34.323343597 ], [ -86.202308603, 34.323618896 ] ] } },
{ "type": "Feature", "properties": { "site_no": "03573000", "nhdplus_comid": "19650468", "navigation_mode": "DM", "requested_distance_km": 12.0, "start_source": "nwissite", "start_id": "USGS-03573000", "geometry_length_km": 1.9871583586191051 }, "geometry": { "type": "LineString", "coordinates": [ [ -86.202308603, 34.323618896 ], [ -86.201369807, 34.323527895 ], [ -86.2007071, 34.323390894 ], [ -86.199933805, 34.323070593 ], [ -86.198829606, 34.323139995 ], [ -86.197615005, 34.323346794 ], [ -86.196345404, 34.323828593 ], [ -86.195434801, 34.324447498 ], [ -86.193752207, 34.326189294 ], [ -86.193255804, 34.326968394 ], [ -86.192815103, 34.328205496 ], [ -86.192595705, 34.330083795 ], [ -86.192485601, 34.330496199 ], [ -86.192237407, 34.330954395 ], [ -86.191796005, 34.331389897 ], [ -86.191106007, 34.331779599 ], [ -86.190691903, 34.331894398 ], [ -86.188372806, 34.332032993 ], [ -86.187765501, 34.332216494 ], [ -86.1871856, 34.332262598 ] ] } },
{ "type": "Feature", "properties": { "site_no": "03573000", "nhdplus_comid": "19650404", "navigation_mode": "DM", "requested_distance_km": 12.0, "start_source": "nwissite", "start_id": "USGS-03573000", "geometry_length_km": 0.019289907452098867 }, "geometry": { "type": "LineString", "coordinates": [ [ -86.1871856, 34.332262598 ], [ -86.187083103, 34.3322341 ], [ -86.187085301, 34.332318194 ] ] } },
{ "type": "Feature", "properties": { "site_no": "03573000", "nhdplus_comid": "19650402", "navigation_mode": "DM", "requested_distance_km": 12.0, "start_source": "nwissite", "start_id": "USGS-03573000", "geometry_length_km": 0.8650473777615808 }, "geometry": { "type": "LineString", "coordinates": [ [ -86.187085301, 34.332318194 ], [ -86.187107503, 34.333173096 ], [ -86.186549604, 34.333665393 ], [ -86.185771406, 34.335892498 ], [ -86.186103307, 34.338483393 ], [ -86.186694704, 34.339679897 ] ] } },
{ "type": "Feature", "properties": { "site_no": "03573000", "nhdplus_comid": "19650396", "navigation_mode": "DM", "requested_distance_km": 12.0, "start_source": "nwissite", "start_id": "USGS-03573000", "geometry_length_km": 0.74011212112181068 }, "geometry": { "type": "LineString", "coordinates": [ [ -86.186694704, 34.339679897 ], [ -86.188655503, 34.341801599 ], [ -86.192667805, 34.344029196 ] ] } },
{ "type": "Feature", "properties": { "site_no": "03573000", "nhdplus_comid": "19650372", "navigation_mode": "DM", "requested_distance_km": 12.0, "start_source": "nwissite", "start_id": "USGS-03573000", "geometry_length_km": 1.489040303659259 }, "geometry": { "type": "LineString", "coordinates": [ [ -86.192667805, 34.344029196 ], [ -86.195045903, 34.346118599 ], [ -86.195581302, 34.347107999 ], [ -86.195287801, 34.350724898 ], [ -86.195563905, 34.351152897 ], [ -86.195608906, 34.352100894 ], [ -86.195405804, 34.353702195 ], [ -86.195648104, 34.354397096 ], [ -86.197096601, 34.356003195 ] ] } },
{ "type": "Feature", "properties": { "site_no": "03573000", "nhdplus_comid": "19650366", "navigation_mode": "DM", "requested_distance_km": 12.0, "start_source": "nwissite", "start_id": "USGS-03573000", "geometry_length_km": 1.4305183799499501 }, "geometry": { "type": "LineString", "coordinates": [ [ -86.197096601, 34.356003195 ], [ -86.201538302, 34.357457399 ], [ -86.206115507, 34.357843995 ], [ -86.208043307, 34.358276494 ], [ -86.211312801, 34.358552396 ], [ -86.212276705, 34.358768597 ] ] } },
{ "type": "Feature", "properties": { "site_no": "03573000", "nhdplus_comid": "19650360", "navigation_mode": "DM", "requested_distance_km": 12.0, "start_source": "nwissite", "start_id": "USGS-03573000", "geometry_length_km": 1.1689648092116256 }, "geometry": { "type": "LineString", "coordinates": [ [ -86.212276705, 34.358768597 ], [ -86.216166906, 34.363277897 ], [ -86.217125505, 34.364842296 ], [ -86.217232905, 34.366604693 ], [ -86.218422703, 34.367649093 ] ] } }
]
}
