{
"type": "FeatureCollection",
"name": "USGS_03586500_DM_12km",
"crs": { "type": "name", "properties": { "name": "urn:ogc:def:crs:OGC:1.3:CRS84" } },
"features": [
{ "type": "Feature", "properties": { "site_no": "03586500", "nhdplus_comid": "19581387", "navigation_mode": "DM", "requested_distance_km": 12.0, "start_source": "nwissite", "start_id": "USGS-03586500", "geometry_length_km": 3.5246835591651178 }, "geometry": { "type": "LineString", "coordinates": [ [ -87.317711583, 34.669618763 ], [ -87.317495503, 34.669717796 ], [ -87.317356601, 34.670084193 ], [ -87.317383803, 34.670817196 ], [ -87.317382701, 34.672466397 ], [ -87.316716202, 34.674229793 ], [ -87.316216506, 34.675099999 ], [ -87.314967901, 34.676427893 ], [ -87.314107902, 34.677114598 ], [ -87.311666906, 34.678579494 ], [ -87.311306201, 34.678876996 ], [ -87.311195105, 34.679174699 ], [ -87.311194703, 34.679678597 ], [ -87.311471507, 34.680365995 ], [ -87.311914705, 34.6810534 ], [ -87.312080704, 34.681488596 ], [ -87.3124962, 34.682015695 ], [ -87.3126899, 34.6825426 ], [ -87.313327007, 34.683367498 ], [ -87.313936301, 34.6844901 ], [ -87.314185001, 34.685773 ], [ -87.314433903, 34.686643496 ], [ -87.314433001, 34.687949099 ], [ -87.314016104, 34.689162895 ], [ -87.314043507, 34.689781293 ], [ -87.3143204, 34.690239497 ], [ -87.314569801, 34.6904459 ], [ -87.315262906, 34.690720998 ], [ -87.316094801, 34.690927595 ], [ -87.3181189, 34.691203296 ], [ -87.318978302, 34.691638894 ], [ -87.319948301, 34.692624293 ], [ -87.320419304, 34.693334594 ], [ -87.320723802, 34.694159299 ], [ -87.320751004, 34.694823496 ], [ -87.320639901, 34.695212893 ], [ -87.320695303, 34.695258796 ] ] } },
{ "type": "Feature", "properties": { "site_no": "03586500", "nhdplus_comid": "19580263", "navigation_mode": "DM", "requested_distance_km": 12.0, "start_source": "nwissite", "start_id": "USGS-03586500", "geometry_length_km": 0.16019831380146446 }, "geometry": { "type": "LineString", "coordinates": [ [ -87.320695303, 34.695258796 ], [ -87.320390105, 34.695693798 ], [ -87.319835104, 34.696037099 ], [ -87.319419101, 34.696174398 ] ] } },
{ "type": "Feature", "properties": { "site_no": "03586500", "nhdplus_comid": "19580259", "navigation_mode": "DM", "requested_distance_km": 12.0, "start_source": "nwissite", "start_id": "USGS-03586500", "geometry_length_km": 0.20213322004344986 }, "geometry": { "type": "LineString", "coordinates": [ [ -87.319419101, 34.696174398 ], [ -87.319335707, 34.696472093 ], [ -87.319557302, 34.696884498 ], [ -87.319529302, 34.697251 ], [ -87.318835802, 34.697639994 ] ] } },
{ "type": "Feature", "properties": { "site_no": "03586500", "nhdplus_comid": "19581377", "navigation_mode": "DM", "requested_distance_km": 12.0, "start_source": "nwissite", "start_id": "USGS-03586500", "geometry_length_km": 10.267015964924976 }, "geometry": { "type": "LineString", "coordinates": [ [ -87.318835802, 34.697639994 ], [ -87.318723701, 34.699289195 ], [ -87.318834305, 34.699770197 ], [ -87.319333002, 34.700617999 ], [ -87.319776006, 34.701786295 ], [ -87.320080705, 34.702244498 ], [ -87.320690505, 34.702954896 ], [ -87.3208009, 34.703802496 ], [ -87.320661902, 34.704397999 ], [ -87.320439704, 34.704810195 ], [ -87.320272803, 34.705611795 ], [ -87.320411205, 34.706047095 ], [ -87.320632905, 34.706390694 ], [ -87.320826501, 34.707215399 ], [ -87.321075805, 34.707673594 ], [ -87.321796604, 34.708223693 ], [ -87.323682107, 34.709300995 ], [ -87.324236505, 34.7098509 ], [ -87.324375004, 34.710331999 ], [ -87.324319303, 34.710721396 ], [ -87.324014001, 34.710858695 ], [ -87.323209703, 34.710720897 ], [ -87.322294407, 34.710766293 ], [ -87.321961306, 34.710972294 ], [ -87.321461804, 34.711498998 ], [ -87.320990004, 34.7117965 ], [ -87.320157804, 34.711704597 ], [ -87.319492407, 34.711360693 ], [ -87.317690305, 34.710008495 ], [ -87.316719703, 34.7096873 ], [ -87.316026203, 34.709778696 ], [ -87.315443501, 34.710121997 ], [ -87.315249205, 34.710327998 ], [ -87.314943403, 34.711358599 ], [ -87.315052904, 34.713397197 ], [ -87.315274402, 34.713901199 ], [ -87.315856405, 34.714634493 ], [ -87.316660404, 34.715207495 ], [ -87.317603007, 34.716192797 ], [ -87.318074301, 34.7165595 ], [ -87.322594404, 34.7188062 ], [ -87.324008703, 34.719608396 ], [ -87.324813001, 34.7202731 ], [ -87.326005101, 34.721510395 ], [ -87.329194002, 34.7240998 ], [ -87.330441907, 34.724878997 ], [ -87.331163004, 34.725520596 ], [ -87.332216606, 34.726895295 ], [ -87.332576901, 34.727468096 ], [ -87.333048001, 34.728544794 ], [ -87.333158702, 34.7293007 ], [ -87.333269507, 34.729483999 ], [ -87.333685502, 34.729644395 ], [ -87.334268205, 34.729552999 ], [ -87.335045204, 34.729209796 ], [ -87.335322604, 34.729209796 ], [ -87.3357943, 34.729347393 ], [ -87.335988402, 34.729553595 ], [ -87.336515002, 34.730698995 ], [ -87.336930901, 34.731180094 ], [ -87.338179007, 34.732256994 ], [ -87.338594906, 34.732829794 ], [ -87.338539302, 34.733196199 ], [ -87.337901004, 34.733516693 ], [ -87.337734506, 34.733677 ], [ -87.337678902, 34.733906098 ], [ -87.337900706, 34.7345016 ], [ -87.337983504, 34.7352117 ], [ -87.338787906, 34.735853299 ], [ -87.339425705, 34.736746795 ], [ -87.339730807, 34.736998796 ], [ -87.340258002, 34.737250894 ], [ -87.340590902, 34.737319693 ], [ -87.341784, 34.737319998 ], [ -87.342699505, 34.737434797 ], [ -87.345252, 34.738191299 ], [ -87.345806904, 34.738076799 ], [ -87.346140005, 34.737595893 ], [ -87.346334502, 34.7370691 ], [ -87.346944906, 34.737046398 ], [ -87.347277701, 34.737229593 ], [ -87.347777106, 34.737802394 ], [ -87.347804703, 34.738008499 ], [ -87.348165303, 34.738466695 ], [ -87.348664604, 34.738833293 ], [ -87.349940903, 34.739429094 ], [ -87.3503846, 34.739933096 ], [ -87.350661904, 34.740505695 ], [ -87.351466402, 34.741261698 ], [ -87.351743802, 34.741628297 ], [ -87.353491604, 34.743094496 ], [ -87.353852205, 34.743552595 ], [ -87.353990704, 34.744743794 ], [ -87.3543512, 34.745705798 ], [ -87.3547673, 34.746095195 ], [ -87.355516501, 34.746484697 ], [ -87.356959403, 34.747011699 ], [ -87.357875101, 34.747217998 ], [ -87.358374506, 34.747538693 ], [ -87.358568802, 34.747790694 ], [ -87.358568706, 34.748248793 ], [ -87.358263306, 34.748500794 ], [ -87.357930407, 34.748592295 ], [ -87.356737107, 34.748592198 ], [ -87.356182106, 34.748729497 ], [ -87.3560156, 34.748889796 ], [ -87.3559044, 34.749256298 ], [ -87.355932102, 34.750080794 ], [ -87.3563447, 34.750547297 ], [ -87.357676603, 34.751028493 ], [ -87.358925201, 34.751921996 ], [ -87.360839702, 34.753525496 ] ] } }
]
}
