{
"type": "FeatureCollection",
"name": "USGS_02424940_UM_12km",
"crs": { "type": "name", "properties": { "name": "urn:ogc:def:crs:OGC:1.3:CRS84" } },
"features": [
{ "type": "Feature", "properties": { "site_no": "02424940", "nhdplus_comid": "21661304", "navigation_mode": "UM", "requested_distance_km": 12.0, "start_source": "nwissite", "start_id": "USGS-02424940", "geometry_length_km": 0.33951938755502747 }, "geometry": { "type": "LineString", "coordinates": [ [ -87.087529905, 32.534772493 ], [ -87.088611901, 32.534681194 ], [ -87.089396507, 32.534337796 ], [ -87.089667104, 32.533994094 ], [ -87.089640304, 32.533421196 ], [ -87.089444886, 32.533048608 ] ] } },
{ "type": "Feature", "properties": { "site_no": "02424940", "nhdplus_comid": "21661296", "navigation_mode": "UM", "requested_distance_km": 12.0, "start_source": "nwissite", "start_id": "USGS-02424940", "geometry_length_km": 0.48986888739850731 }, "geometry": { "type": "LineString", "coordinates": [ [ -87.084228605, 32.537704594 ], [ -87.084607303, 32.537544295 ], [ -87.0850133, 32.537063293 ], [ -87.085554503, 32.536719695 ], [ -87.086582504, 32.536422193 ], [ -87.0869883, 32.5361702 ], [ -87.087069601, 32.536032699 ], [ -87.087042801, 32.535436995 ], [ -87.087124005, 32.535184897 ], [ -87.087529905, 32.534772493 ] ] } },
{ "type": "Feature", "properties": { "site_no": "02424940", "nhdplus_comid": "21661788", "navigation_mode": "UM", "requested_distance_km": 12.0, "start_source": "nwissite", "start_id": "USGS-02424940", "geometry_length_km": 2.4652795359543922 }, "geometry": { "type": "LineString", "coordinates": [ [ -87.078540206, 32.553237997 ], [ -87.078378007, 32.5531234 ], [ -87.077431105, 32.552962594 ], [ -87.077187702, 32.552802198 ], [ -87.077160805, 32.552504197 ], [ -87.077296101, 32.552298099 ], [ -87.078270301, 32.551909 ], [ -87.078513905, 32.551725693 ], [ -87.078622304, 32.551404893 ], [ -87.078649804, 32.550534293 ], [ -87.078568801, 32.550236396 ], [ -87.078055002, 32.549686193 ], [ -87.077703707, 32.549044497 ], [ -87.0777582, 32.548357196 ], [ -87.078245401, 32.547692798 ], [ -87.078462102, 32.547211796 ], [ -87.078462407, 32.546615995 ], [ -87.077813804, 32.545401298 ], [ -87.077759802, 32.545057595 ], [ -87.078057706, 32.544576496 ], [ -87.0791943, 32.543591596 ], [ -87.079789706, 32.543225199 ], [ -87.080006301, 32.542973295 ], [ -87.080087602, 32.542583697 ], [ -87.079601407, 32.541048296 ], [ -87.079574704, 32.5401318 ], [ -87.080684602, 32.538619898 ], [ -87.080711901, 32.5379325 ], [ -87.081117906, 32.537634797 ], [ -87.081523903, 32.536947496 ], [ -87.081821606, 32.536787197 ], [ -87.082038, 32.536787294 ], [ -87.083660707, 32.537406497 ], [ -87.0838769, 32.537612796 ], [ -87.084228605, 32.537704594 ] ] } },
{ "type": "Feature", "properties": { "site_no": "02424940", "nhdplus_comid": "21661250", "navigation_mode": "UM", "requested_distance_km": 12.0, "start_source": "nwissite", "start_id": "USGS-02424940", "geometry_length_km": 2.7159640071811104 }, "geometry": { "type": "LineString", "coordinates": [ [ -87.081048205, 32.570286699 ], [ -87.080940403, 32.569095097 ], [ -87.080778107, 32.568911798 ], [ -87.080426507, 32.56882 ], [ -87.079993404, 32.569094799 ], [ -87.079560407, 32.569163397 ], [ -87.0793982, 32.568979993 ], [ -87.0793982, 32.568705 ], [ -87.080427006, 32.5676056 ], [ -87.080643803, 32.567124493 ], [ -87.0805085, 32.566986993 ], [ -87.080183901, 32.566895194 ], [ -87.079642504, 32.567146994 ], [ -87.0791554, 32.567238495 ], [ -87.078966103, 32.567078099 ], [ -87.0789662, 32.566871896 ], [ -87.079155803, 32.566597 ], [ -87.079183005, 32.566413596 ], [ -87.079724304, 32.565932594 ], [ -87.0812141, 32.562816799 ], [ -87.081539206, 32.561854593 ], [ -87.081566505, 32.561304696 ], [ -87.080971904, 32.560112998 ], [ -87.080890901, 32.559723496 ], [ -87.080485404, 32.559058793 ], [ -87.0796469, 32.558394 ], [ -87.0783756, 32.557958193 ], [ -87.077347502, 32.557453796 ], [ -87.077050105, 32.557132795 ], [ -87.077050507, 32.556422494 ], [ -87.077348404, 32.555849798 ], [ -87.077321604, 32.555299796 ], [ -87.076753601, 32.555070497 ], [ -87.076429106, 32.554818295 ], [ -87.076537505, 32.554428898 ], [ -87.0768352, 32.554314293 ], [ -87.077890404, 32.554200098 ], [ -87.078269303, 32.553948194 ], [ -87.078540005, 32.553558797 ], [ -87.078540206, 32.553237997 ] ] } },
{ "type": "Feature", "properties": { "site_no": "02424940", "nhdplus_comid": "21661210", "navigation_mode": "UM", "requested_distance_km": 12.0, "start_source": "nwissite", "start_id": "USGS-02424940", "geometry_length_km": 0.24872846306407959 }, "geometry": { "type": "LineString", "coordinates": [ [ -87.0815612, 32.572417699 ], [ -87.081453003, 32.572348997 ], [ -87.081129305, 32.570332497 ], [ -87.081048205, 32.570286699 ] ] } },
{ "type": "Feature", "properties": { "site_no": "02424940", "nhdplus_comid": "21661776", "navigation_mode": "UM", "requested_distance_km": 12.0, "start_source": "nwissite", "start_id": "USGS-02424940", "geometry_length_km": 0.91086748829202335 }, "geometry": { "type": "LineString", "coordinates": [ [ -87.086185805, 32.5791329 ], [ -87.085969605, 32.578445494 ], [ -87.085239306, 32.577643298 ], [ -87.085077107, 32.577253699 ], [ -87.084915206, 32.576039195 ], [ -87.084726103, 32.5753517 ], [ -87.083482005, 32.573724397 ], [ -87.0827244, 32.573540896 ], [ -87.082345702, 32.5733575 ], [ -87.081777602, 32.5727387 ], [ -87.0815612, 32.572417699 ] ] } },
{ "type": "Feature", "properties": { "site_no": "02424940", "nhdplus_comid": "21661190", "navigation_mode": "UM", "requested_distance_km": 12.0, "start_source": "nwissite", "start_id": "USGS-02424940", "geometry_length_km": 0.79488274710857543 }, "geometry": { "type": "LineString", "coordinates": [ [ -87.0845052, 32.585456498 ], [ -87.084667802, 32.584998295 ], [ -87.084695205, 32.584104694 ], [ -87.084830604, 32.583715193 ], [ -87.084749602, 32.583348595 ], [ -87.084208801, 32.582363196 ], [ -87.084263302, 32.581561193 ], [ -87.084398806, 32.581148796 ], [ -87.084750704, 32.580851093 ], [ -87.084967405, 32.580530293 ], [ -87.085265502, 32.579659693 ], [ -87.085996203, 32.579384893 ], [ -87.086185805, 32.5791329 ] ] } },
{ "type": "Feature", "properties": { "site_no": "02424940", "nhdplus_comid": "21661768", "navigation_mode": "UM", "requested_distance_km": 12.0, "start_source": "nwissite", "start_id": "USGS-02424940", "geometry_length_km": 1.6484608324880456 }, "geometry": { "type": "LineString", "coordinates": [ [ -87.084607802, 32.598219395 ], [ -87.084580906, 32.597829893 ], [ -87.084256306, 32.597325593 ], [ -87.083715104, 32.597027496 ], [ -87.083715104, 32.596867099 ], [ -87.083958901, 32.596569397 ], [ -87.084013201, 32.596225694 ], [ -87.083580203, 32.596042298 ], [ -87.0834179, 32.595835999 ], [ -87.083391003, 32.595606893 ], [ -87.083201505, 32.595492199 ], [ -87.082958005, 32.595262997 ], [ -87.082958505, 32.594231896 ], [ -87.082986005, 32.593384095 ], [ -87.082850806, 32.592879996 ], [ -87.082580306, 32.592559099 ], [ -87.082174405, 32.592421494 ], [ -87.081930801, 32.592238098 ], [ -87.081903905, 32.592008896 ], [ -87.082012303, 32.591756999 ], [ -87.081552304, 32.591413096 ], [ -87.081552505, 32.591046497 ], [ -87.0817964, 32.590473697 ], [ -87.082906701, 32.589030497 ], [ -87.0833131, 32.587953798 ], [ -87.083719306, 32.587495595 ], [ -87.084396407, 32.586395994 ], [ -87.084423907, 32.585685596 ], [ -87.0845052, 32.585456498 ] ] } },
{ "type": "Feature", "properties": { "site_no": "02424940", "nhdplus_comid": "21661752", "navigation_mode": "UM", "requested_distance_km": 12.0, "start_source": "nwissite", "start_id": "USGS-02424940", "geometry_length_km": 2.1076846011681183 }, "geometry": { "type": "LineString", "coordinates": [ [ -87.088282503, 32.614718199 ], [ -87.0882015, 32.614213996 ], [ -87.088282906, 32.613847494 ], [ -87.088228904, 32.613274597 ], [ -87.087552704, 32.612082899 ], [ -87.0868496, 32.610226698 ], [ -87.086660206, 32.609997593 ], [ -87.086389706, 32.609355897 ], [ -87.086308703, 32.608760096 ], [ -87.086011201, 32.608026795 ], [ -87.085037202, 32.606880799 ], [ -87.084712602, 32.606262095 ], [ -87.084523402, 32.605620295 ], [ -87.084496804, 32.604772598 ], [ -87.084226102, 32.6041767 ], [ -87.084145203, 32.6037414 ], [ -87.083766401, 32.603214197 ], [ -87.083712503, 32.6028248 ], [ -87.084010504, 32.602183297 ], [ -87.083875306, 32.601701997 ], [ -87.083361305, 32.601128995 ], [ -87.083334602, 32.600349896 ], [ -87.082766905, 32.598745793 ], [ -87.0829565, 32.598425098 ], [ -87.084310003, 32.598425597 ], [ -87.084607802, 32.598219395 ] ] } },
{ "type": "Feature", "properties": { "site_no": "02424940", "nhdplus_comid": "21661114", "navigation_mode": "UM", "requested_distance_km": 12.0, "start_source": "nwissite", "start_id": "USGS-02424940", "geometry_length_km": 0.56509254456232327 }, "geometry": { "type": "LineString", "coordinates": [ [ -87.086737506, 32.619048394 ], [ -87.087658204, 32.618773699 ], [ -87.088037401, 32.618452899 ], [ -87.088281304, 32.617925994 ], [ -87.088281706, 32.616849095 ], [ -87.088173606, 32.616459593 ], [ -87.088119805, 32.6154055 ], [ -87.088282503, 32.614718199 ] ] } }
]
}
