{
"type": "FeatureCollection",
"name": "USGS_02469800_DM_12km",
"crs": { "type": "name", "properties": { "name": "urn:ogc:def:crs:OGC:1.3:CRS84" } },
"features": [
{ "type": "Feature", "properties": { "site_no": "02469800", "nhdplus_comid": "21640642", "navigation_mode": "DM", "requested_distance_km": 12.0, "start_source": "nwissite", "start_id": "USGS-02469800", "geometry_length_km": 0.31833215249095953 }, "geometry": { "type": "LineString", "coordinates": [ [ -88.022402815, 31.743672645 ], [ -88.022776507, 31.743651599 ], [ -88.022964306, 31.743537195 ], [ -88.022991501, 31.743239298 ], [ -88.022643305, 31.742826596 ], [ -88.022616707, 31.742574595 ], [ -88.023153305, 31.742185399 ], [ -88.0232879, 31.7417273 ], [ -88.023422107, 31.741544098 ] ] } },
{ "type": "Feature", "properties": { "site_no": "02469800", "nhdplus_comid": "21639650", "navigation_mode": "DM", "requested_distance_km": 12.0, "start_source": "nwissite", "start_id": "USGS-02469800", "geometry_length_km": 0.31837332364032361 }, "geometry": { "type": "LineString", "coordinates": [ [ -88.023422107, 31.741544098 ], [ -88.023770705, 31.741521396 ], [ -88.024467602, 31.741773896 ], [ -88.025137901, 31.741866 ], [ -88.025942206, 31.741866693 ], [ -88.0266129, 31.7415234 ] ] } },
{ "type": "Feature", "properties": { "site_no": "02469800", "nhdplus_comid": "21639696", "navigation_mode": "DM", "requested_distance_km": 12.0, "start_source": "nwissite", "start_id": "USGS-02469800", "geometry_length_km": 2.6184144122887005 }, "geometry": { "type": "LineString", "coordinates": [ [ -88.0266129, 31.7415234 ], [ -88.026668206, 31.739736199 ], [ -88.026775904, 31.7394154 ], [ -88.0268033, 31.738682196 ], [ -88.026991203, 31.738476098 ], [ -88.027232602, 31.738315895 ], [ -88.027340107, 31.738132596 ], [ -88.027394004, 31.737834796 ], [ -88.027447701, 31.737766095 ], [ -88.027608901, 31.737445399 ], [ -88.027877301, 31.737239398 ], [ -88.027877405, 31.737124793 ], [ -88.027984604, 31.737056099 ], [ -88.027959101, 31.735795796 ], [ -88.028093204, 31.7356584 ], [ -88.028468803, 31.735475399 ], [ -88.029675402, 31.735384598 ], [ -88.029916406, 31.735545196 ], [ -88.0302919, 31.735522494 ], [ -88.031150304, 31.734996095 ], [ -88.031874403, 31.7347674 ], [ -88.032035306, 31.734675899 ], [ -88.032142803, 31.734469794 ], [ -88.032170102, 31.733988598 ], [ -88.032277703, 31.733484499 ], [ -88.032438703, 31.733232595 ], [ -88.033243805, 31.7324083 ], [ -88.033781201, 31.731194094 ], [ -88.0338616, 31.731148399 ], [ -88.034076504, 31.730598599 ], [ -88.034103803, 31.730117396 ], [ -88.034023605, 31.729888193 ], [ -88.033728905, 31.729590096 ], [ -88.033487901, 31.729246199 ], [ -88.033461504, 31.728879593 ], [ -88.034454301, 31.7280095 ], [ -88.034561604, 31.727849193 ], [ -88.034588806, 31.7274139 ], [ -88.034401305, 31.7272304 ], [ -88.033865407, 31.7270009 ], [ -88.033490203, 31.726748593 ], [ -88.033410005, 31.726542398 ], [ -88.033436902, 31.726221494 ], [ -88.033678606, 31.725946799 ], [ -88.034375802, 31.725649297 ], [ -88.034590401, 31.725466199 ], [ -88.034590803, 31.725053698 ], [ -88.034483805, 31.7248016 ], [ -88.033975005, 31.724159695 ], [ -88.033975102, 31.724090993 ], [ -88.033760905, 31.723861694 ], [ -88.033520006, 31.723380297 ] ] } },
{ "type": "Feature", "properties": { "site_no": "02469800", "nhdplus_comid": "21639744", "navigation_mode": "DM", "requested_distance_km": 12.0, "start_source": "nwissite", "start_id": "USGS-02469800", "geometry_length_km": 2.3680003251171602 }, "geometry": { "type": "LineString", "coordinates": [ [ -88.033520006, 31.723380297 ], [ -88.033573903, 31.7231512 ], [ -88.034030005, 31.722693294 ], [ -88.034110606, 31.722487099 ], [ -88.033441506, 31.721340895 ], [ -88.033414803, 31.721043095 ], [ -88.033629507, 31.720882796 ], [ -88.034407206, 31.720562495 ], [ -88.034648605, 31.720379397 ], [ -88.034890205, 31.720058799 ], [ -88.035132103, 31.719325595 ], [ -88.035319902, 31.719142497 ], [ -88.035722002, 31.719051093 ], [ -88.036016703, 31.719280295 ], [ -88.036097102, 31.719394997 ], [ -88.036150604, 31.719463699 ], [ -88.036204003, 31.719647199 ], [ -88.036311202, 31.719761796 ], [ -88.036686502, 31.719761997 ], [ -88.036847405, 31.7196704 ], [ -88.036954805, 31.719464295 ], [ -88.037036002, 31.718524896 ], [ -88.038027905, 31.718479596 ], [ -88.038349703, 31.718273595 ], [ -88.038537703, 31.717998698 ], [ -88.038591601, 31.717540495 ], [ -88.038538001, 31.717402898 ], [ -88.038029104, 31.7169443 ], [ -88.037922107, 31.716692299 ], [ -88.037895501, 31.716394395 ], [ -88.037976205, 31.716050699 ], [ -88.037976801, 31.715477899 ], [ -88.037896506, 31.715317398 ], [ -88.037387401, 31.715110898 ], [ -88.037119605, 31.714835696 ], [ -88.037093006, 31.714560695 ], [ -88.037549101, 31.714033999 ], [ -88.038139604, 31.713117898 ], [ -88.038167104, 31.712361693 ], [ -88.038059905, 31.712292895 ], [ -88.038060106, 31.712132499 ], [ -88.037845805, 31.711926199 ], [ -88.037176006, 31.711673699 ], [ -88.036908202, 31.711261094 ], [ -88.037015602, 31.710940398 ], [ -88.037579, 31.710322 ], [ -88.037552506, 31.710024096 ], [ -88.0373649, 31.709932297 ], [ -88.035890803, 31.709771 ], [ -88.035167307, 31.709564298 ] ] } },
{ "type": "Feature", "properties": { "site_no": "02469800", "nhdplus_comid": "21639762", "navigation_mode": "DM", "requested_distance_km": 12.0, "start_source": "nwissite", "start_id": "USGS-02469800", "geometry_length_km": 0.92226878326533279 }, "geometry": { "type": "LineString", "coordinates": [ [ -88.035167307, 31.709564298 ], [ -88.034980401, 31.708785094 ], [ -88.034418002, 31.708303496 ], [ -88.0343647, 31.707936898 ], [ -88.034445301, 31.707730696 ], [ -88.034579404, 31.707570396 ], [ -88.034847602, 31.707433097 ], [ -88.035115704, 31.7073875 ], [ -88.035356902, 31.707502194 ], [ -88.0355976, 31.707960598 ], [ -88.035624102, 31.708327293 ], [ -88.035757907, 31.708487697 ], [ -88.0361064, 31.7085796 ], [ -88.0365889, 31.708534099 ], [ -88.038305104, 31.7075729 ], [ -88.038573407, 31.707297996 ], [ -88.039029703, 31.706610799 ], [ -88.039003305, 31.705992095 ] ] } },
{ "type": "Feature", "properties": { "site_no": "02469800", "nhdplus_comid": "21639772", "navigation_mode": "DM", "requested_distance_km": 12.0, "start_source": "nwissite", "start_id": "USGS-02469800", "geometry_length_km": 0.65232781457905842 }, "geometry": { "type": "LineString", "coordinates": [ [ -88.039003305, 31.705992095 ], [ -88.039191104, 31.7058319 ], [ -88.039244905, 31.705648594 ], [ -88.040720105, 31.704320498 ], [ -88.040934801, 31.704022698 ], [ -88.040908307, 31.7036561 ], [ -88.040533401, 31.703037098 ], [ -88.040105201, 31.702349499 ], [ -88.040105306, 31.702257797 ], [ -88.040024906, 31.702211894 ], [ -88.039971404, 31.702074394 ], [ -88.039864503, 31.701707795 ], [ -88.039864905, 31.701295294 ], [ -88.039945401, 31.701180793 ], [ -88.040159807, 31.701135099 ] ] } },
{ "type": "Feature", "properties": { "site_no": "02469800", "nhdplus_comid": "21639814", "navigation_mode": "DM", "requested_distance_km": 12.0, "start_source": "nwissite", "start_id": "USGS-02469800", "geometry_length_km": 3.2319456713322792 }, "geometry": { "type": "LineString", "coordinates": [ [ -88.040159807, 31.701135099 ], [ -88.040293805, 31.7011123 ], [ -88.041097507, 31.701616898 ], [ -88.042356707, 31.702167593 ], [ -88.0425978, 31.702419698 ], [ -88.042597301, 31.702923797 ], [ -88.042704403, 31.703221798 ], [ -88.042918704, 31.703405194 ], [ -88.043749206, 31.703657798 ], [ -88.044392601, 31.703681 ], [ -88.044526607, 31.703497797 ], [ -88.044553705, 31.703245796 ], [ -88.044607401, 31.703039698 ], [ -88.044822, 31.702879295 ], [ -88.045518801, 31.702833898 ], [ -88.045760207, 31.702673696 ], [ -88.045948006, 31.702421695 ], [ -88.045948505, 31.701825999 ], [ -88.045707904, 31.700932197 ], [ -88.045574203, 31.7004968 ], [ -88.045494102, 31.700175896 ], [ -88.045467302, 31.700130098 ], [ -88.045334503, 31.698594697 ], [ -88.045254201, 31.698342696 ], [ -88.045201205, 31.697586499 ], [ -88.045308605, 31.697380297 ], [ -88.0456037, 31.697105497 ], [ -88.046059206, 31.697128698 ], [ -88.046327002, 31.697380893 ], [ -88.046702206, 31.697518595 ], [ -88.047077402, 31.697427094 ], [ -88.0474528, 31.697129495 ], [ -88.048042901, 31.696533993 ], [ -88.0482575, 31.696236193 ], [ -88.048418507, 31.695938393 ], [ -88.048445702, 31.695434295 ], [ -88.048338905, 31.694975995 ], [ -88.0482051, 31.694586299 ], [ -88.047723405, 31.693784095 ], [ -88.047723502, 31.693715394 ], [ -88.047536105, 31.693371594 ], [ -88.047536403, 31.692798696 ], [ -88.047724307, 31.692500994 ], [ -88.048609205, 31.691768199 ], [ -88.048931003, 31.691401795 ], [ -88.049091905, 31.691264294 ], [ -88.049279705, 31.690943696 ], [ -88.049360402, 31.690531299 ], [ -88.049280703, 31.6896834 ], [ -88.049173705, 31.689454198 ], [ -88.049200803, 31.688950099 ], [ -88.050300606, 31.687621795 ], [ -88.050917007, 31.687438793 ], [ -88.052069306, 31.687393598 ], [ -88.054105803, 31.687486298 ], [ -88.054454304, 31.687325999 ], [ -88.054776102, 31.687074095 ] ] } }
]
}
