{
"type": "FeatureCollection",
"name": "USGS_03575890_UM_12km",
"crs": { "type": "name", "properties": { "name": "urn:ogc:def:crs:OGC:1.3:CRS84" } },
"features": [
{ "type": "Feature", "properties": { "site_no": "03575890", "nhdplus_comid": "19619900", "navigation_mode": "UM", "requested_distance_km": 12.0, "start_source": "nwissite", "start_id": "USGS-03575890", "geometry_length_km": 1.8396509038000797 }, "geometry": { "type": "LineString", "coordinates": [ [ -86.590833902, 34.741718493 ], [ -86.591278307, 34.740573399 ], [ -86.591861203, 34.740069598 ], [ -86.592277601, 34.739840694 ], [ -86.593304604, 34.739016294 ], [ -86.5935544, 34.738649897 ], [ -86.593721107, 34.738146 ], [ -86.595580705, 34.736497395 ], [ -86.596135907, 34.735695697 ], [ -86.596691005, 34.735191993 ], [ -86.596941002, 34.734504893 ], [ -86.5968858, 34.733886495 ], [ -86.5961373, 34.7320996 ], [ -86.595582701, 34.731343493 ], [ -86.594695605, 34.729717098 ], [ -86.594224103, 34.729144394 ], [ -86.593919203, 34.728548698 ], [ -86.593390574, 34.727661803 ] ] } },
{ "type": "Feature", "properties": { "site_no": "03575890", "nhdplus_comid": "19619826", "navigation_mode": "UM", "requested_distance_km": 12.0, "start_source": "nwissite", "start_id": "USGS-03575890", "geometry_length_km": 0.68461089268393505 }, "geometry": { "type": "LineString", "coordinates": [ [ -86.591358505, 34.747811496 ], [ -86.591303505, 34.746574596 ], [ -86.590916403, 34.743505195 ], [ -86.590889402, 34.741810098 ], [ -86.590833902, 34.741718493 ] ] } },
{ "type": "Feature", "properties": { "site_no": "03575890", "nhdplus_comid": "19619814", "navigation_mode": "UM", "requested_distance_km": 12.0, "start_source": "nwissite", "start_id": "USGS-03575890", "geometry_length_km": 0.26017885827759374 }, "geometry": { "type": "LineString", "coordinates": [ [ -86.590941206, 34.750101894 ], [ -86.591247402, 34.747994699 ], [ -86.591358505, 34.747811496 ] ] } },
{ "type": "Feature", "properties": { "site_no": "03575890", "nhdplus_comid": "19619804", "navigation_mode": "UM", "requested_distance_km": 12.0, "start_source": "nwissite", "start_id": "USGS-03575890", "geometry_length_km": 2.7346075508772159 }, "geometry": { "type": "LineString", "coordinates": [ [ -86.5924896, 34.773887098 ], [ -86.592379302, 34.772031799 ], [ -86.5911595, 34.768229097 ], [ -86.591076307, 34.768183298 ], [ -86.591076404, 34.767954193 ], [ -86.590771504, 34.767037995 ], [ -86.590494305, 34.765686497 ], [ -86.590189204, 34.765159599 ], [ -86.5898844, 34.764105894 ], [ -86.589857101, 34.762914799 ], [ -86.590079501, 34.762342297 ], [ -86.590579204, 34.761792697 ], [ -86.590579502, 34.761220098 ], [ -86.590440802, 34.760968097 ], [ -86.590330005, 34.760601498 ], [ -86.590080403, 34.760212094 ], [ -86.589830801, 34.7595248 ], [ -86.589831002, 34.758997999 ], [ -86.590109304, 34.757211499 ], [ -86.590276003, 34.756890796 ], [ -86.590303905, 34.756593093 ], [ -86.590526104, 34.756020598 ], [ -86.5906929, 34.755195998 ], [ -86.590721503, 34.753111698 ], [ -86.590941206, 34.750101894 ] ] } },
{ "type": "Feature", "properties": { "site_no": "03575890", "nhdplus_comid": "19619662", "navigation_mode": "UM", "requested_distance_km": 12.0, "start_source": "nwissite", "start_id": "USGS-03575890", "geometry_length_km": 0.69117505651529398 }, "geometry": { "type": "LineString", "coordinates": [ [ -86.593570001, 34.779888496 ], [ -86.593542501, 34.779292896 ], [ -86.592849001, 34.778032996 ], [ -86.592599407, 34.7773 ], [ -86.592405602, 34.776200399 ], [ -86.592406303, 34.774001598 ], [ -86.5924896, 34.773887098 ] ] } },
{ "type": "Feature", "properties": { "site_no": "03575890", "nhdplus_comid": "19619618", "navigation_mode": "UM", "requested_distance_km": 12.0, "start_source": "nwissite", "start_id": "USGS-03575890", "geometry_length_km": 0.4508328479510551 }, "geometry": { "type": "LineString", "coordinates": [ [ -86.593401901, 34.783896796 ], [ -86.593457602, 34.783415794 ], [ -86.593624406, 34.782957695 ], [ -86.593570001, 34.779888496 ] ] } },
{ "type": "Feature", "properties": { "site_no": "03575890", "nhdplus_comid": "19619592", "navigation_mode": "UM", "requested_distance_km": 12.0, "start_source": "nwissite", "start_id": "USGS-03575890", "geometry_length_km": 3.4844827626272723 }, "geometry": { "type": "LineString", "coordinates": [ [ -86.597890504, 34.811246395 ], [ -86.597752005, 34.810559295 ], [ -86.598002002, 34.810215697 ], [ -86.598002203, 34.809894994 ], [ -86.596086502, 34.808520399 ], [ -86.595892102, 34.808245398 ], [ -86.595698006, 34.807604 ], [ -86.595559202, 34.807489499 ], [ -86.594587401, 34.807191499 ], [ -86.594365403, 34.806916498 ], [ -86.594060004, 34.806275196 ], [ -86.593782403, 34.806000195 ], [ -86.592671901, 34.805289894 ], [ -86.592311203, 34.804442294 ], [ -86.592283703, 34.803846799 ], [ -86.591757104, 34.801464498 ], [ -86.591674402, 34.799929798 ], [ -86.591452502, 34.799150996 ], [ -86.590786502, 34.798234597 ], [ -86.590092905, 34.796631098 ], [ -86.589648806, 34.796379 ], [ -86.588982806, 34.795668796 ], [ -86.588816404, 34.795027398 ], [ -86.588789202, 34.793790594 ], [ -86.588956006, 34.793355294 ], [ -86.589983702, 34.792279094 ], [ -86.590039507, 34.791820996 ], [ -86.590289705, 34.791111097 ], [ -86.590623006, 34.790744595 ], [ -86.5907069, 34.789301597 ], [ -86.591346003, 34.788202398 ], [ -86.591873705, 34.787629999 ], [ -86.592207007, 34.786919996 ], [ -86.5922352, 34.785614394 ], [ -86.592707604, 34.784652494 ], [ -86.593040802, 34.784286097 ], [ -86.593179807, 34.783988297 ], [ -86.593401901, 34.783896796 ] ] } },
{ "type": "Feature", "properties": { "site_no": "03575890", "nhdplus_comid": "19619414", "navigation_mode": "UM", "requested_distance_km": 12.0, "start_source": "nwissite", "start_id": "USGS-03575890", "geometry_length_km": 1.561895289137107 }, "geometry": { "type": "LineString", "coordinates": [ [ -86.612275504, 34.815898493 ], [ -86.611220203, 34.815692194 ], [ -86.6096927, 34.8155775 ], [ -86.607831903, 34.814981699 ], [ -86.607471004, 34.814958796 ], [ -86.607248701, 34.815027393 ], [ -86.606720902, 34.815577097 ], [ -86.606276505, 34.815714493 ], [ -86.605387904, 34.815118894 ], [ -86.602888502, 34.814797699 ], [ -86.602583103, 34.814591594 ], [ -86.602166802, 34.813698098 ], [ -86.6016948, 34.813148297 ], [ -86.600528501, 34.812667094 ], [ -86.599362105, 34.812414899 ], [ -86.597890504, 34.811246395 ] ] } }
]
}
