{
"type": "FeatureCollection",
"name": "USGS_02400680_UM_12km",
"crs": { "type": "name", "properties": { "name": "urn:ogc:def:crs:OGC:1.3:CRS84" } },
"features": [
{ "type": "Feature", "properties": { "site_no": "02400680", "nhdplus_comid": "22198487", "navigation_mode": "UM", "requested_distance_km": 12.0, "start_source": "nwissite", "start_id": "USGS-02400680", "geometry_length_km": 1.5224872533332856 }, "geometry": { "type": "LineString", "coordinates": [ [ -85.755408004, 34.439725094 ], [ -85.756956704, 34.439268596 ], [ -85.757896706, 34.439292394 ], [ -85.758338504, 34.439544797 ], [ -85.759166904, 34.440209799 ], [ -85.762730904, 34.441701993 ], [ -85.764333203, 34.442505099 ], [ -85.764692605, 34.442482598 ], [ -85.765107505, 34.442322694 ], [ -85.766048804, 34.441384494 ], [ -85.766630702, 34.440285698 ], [ -85.766992204, 34.438705698 ], [ -85.767319565, 34.43813103 ] ] } },
{ "type": "Feature", "properties": { "site_no": "02400680", "nhdplus_comid": "22198481", "navigation_mode": "UM", "requested_distance_km": 12.0, "start_source": "nwissite", "start_id": "USGS-02400680", "geometry_length_km": 1.0975657815736581 }, "geometry": { "type": "LineString", "coordinates": [ [ -85.753214605, 34.446066797 ], [ -85.754348502, 34.445770197 ], [ -85.754929706, 34.4453815 ], [ -85.755234502, 34.444900796 ], [ -85.755290501, 34.444351196 ], [ -85.754766107, 34.443778098 ], [ -85.753523201, 34.443089694 ], [ -85.7526673, 34.442355998 ], [ -85.752447203, 34.441714495 ], [ -85.752530403, 34.441508397 ], [ -85.753083706, 34.441257 ], [ -85.754272804, 34.440983497 ], [ -85.7544953, 34.440044694 ], [ -85.754855104, 34.439839095 ], [ -85.755408004, 34.439725094 ] ] } },
{ "type": "Feature", "properties": { "site_no": "02400680", "nhdplus_comid": "22199617", "navigation_mode": "UM", "requested_distance_km": 12.0, "start_source": "nwissite", "start_id": "USGS-02400680", "geometry_length_km": 5.7926181801514902 }, "geometry": { "type": "LineString", "coordinates": [ [ -85.737500407, 34.464611098 ], [ -85.7382183, 34.463763095 ], [ -85.738272503, 34.462938495 ], [ -85.737774007, 34.462366499 ], [ -85.737607501, 34.461885594 ], [ -85.737192102, 34.461382098 ], [ -85.736334205, 34.460856095 ], [ -85.735919006, 34.4604671 ], [ -85.735918604, 34.460192293 ], [ -85.736194901, 34.459985897 ], [ -85.739458203, 34.460418195 ], [ -85.740979001, 34.460462697 ], [ -85.741614603, 34.4602331 ], [ -85.741724506, 34.459706299 ], [ -85.741530403, 34.459271297 ], [ -85.740672506, 34.4586308 ], [ -85.740506202, 34.458378993 ], [ -85.7404503, 34.457897998 ], [ -85.740837, 34.457599998 ], [ -85.741306804, 34.457370497 ], [ -85.742329702, 34.457323894 ], [ -85.743657604, 34.457849398 ], [ -85.744127706, 34.457871899 ], [ -85.744348504, 34.457642697 ], [ -85.744431205, 34.4573448 ], [ -85.744098701, 34.456864096 ], [ -85.744070806, 34.456635199 ], [ -85.743710905, 34.456314899 ], [ -85.743516907, 34.455971494 ], [ -85.743378505, 34.455880098 ], [ -85.742879704, 34.4550789 ], [ -85.7428241, 34.4548041 ], [ -85.742685802, 34.454735599 ], [ -85.742657103, 34.454002693 ], [ -85.742767505, 34.453773499 ], [ -85.743126705, 34.453635797 ], [ -85.744121701, 34.453405797 ], [ -85.745309703, 34.452717699 ], [ -85.746056102, 34.452625394 ], [ -85.7474114, 34.453059293 ], [ -85.748323806, 34.453058399 ], [ -85.748738207, 34.452874795 ], [ -85.748931505, 34.452714294 ], [ -85.749013901, 34.452370599 ], [ -85.747631103, 34.451959699 ], [ -85.747299001, 34.451753899 ], [ -85.747326002, 34.451272994 ], [ -85.7474913, 34.450860493 ], [ -85.747490004, 34.449967295 ], [ -85.747074604, 34.449440897 ], [ -85.745164402, 34.4475189 ], [ -85.744002007, 34.4465352 ], [ -85.742287301, 34.446101598 ], [ -85.741098404, 34.446033999 ], [ -85.740876906, 34.445759296 ], [ -85.740876503, 34.445461594 ], [ -85.741014406, 34.4451866 ], [ -85.742008701, 34.444521494 ], [ -85.742837101, 34.443810798 ], [ -85.743582003, 34.4426421 ], [ -85.744272701, 34.442389496 ], [ -85.746954203, 34.442364097 ], [ -85.747313403, 34.442157693 ], [ -85.748059504, 34.4420195 ], [ -85.7493046, 34.442728296 ], [ -85.749968201, 34.442796394 ], [ -85.750372201, 34.442811593 ], [ -85.7507312, 34.443040997 ], [ -85.750811607, 34.444712996 ], [ -85.751031801, 34.445285797 ], [ -85.751611404, 34.445881896 ], [ -85.752108805, 34.446042694 ], [ -85.753214605, 34.446066797 ] ] } },
{ "type": "Feature", "properties": { "site_no": "02400680", "nhdplus_comid": "22198465", "navigation_mode": "UM", "requested_distance_km": 12.0, "start_source": "nwissite", "start_id": "USGS-02400680", "geometry_length_km": 0.37024647886728157 }, "geometry": { "type": "LineString", "coordinates": [ [ -85.733852006, 34.465965293 ], [ -85.734211102, 34.465644397 ], [ -85.736339502, 34.465047196 ], [ -85.737500407, 34.464611098 ] ] } },
{ "type": "Feature", "properties": { "site_no": "02400680", "nhdplus_comid": "22198461", "navigation_mode": "UM", "requested_distance_km": 12.0, "start_source": "nwissite", "start_id": "USGS-02400680", "geometry_length_km": 1.6886422860795709 }, "geometry": { "type": "LineString", "coordinates": [ [ -85.725955106, 34.476392195 ], [ -85.726645701, 34.475658797 ], [ -85.727805406, 34.474077694 ], [ -85.728108801, 34.473413296 ], [ -85.728135101, 34.472199395 ], [ -85.728466205, 34.471557893 ], [ -85.728825301, 34.471214093 ], [ -85.729627103, 34.471007295 ], [ -85.733360201, 34.470889799 ], [ -85.733719505, 34.470774993 ], [ -85.733830005, 34.470660396 ], [ -85.733940005, 34.470156498 ], [ -85.733551703, 34.4692178 ], [ -85.733467802, 34.468439199 ], [ -85.7341858, 34.467591196 ], [ -85.734323703, 34.4672933 ], [ -85.733963601, 34.4668127 ], [ -85.733769506, 34.466285996 ], [ -85.733852006, 34.465965293 ] ] } }
]
}
