{
"type": "FeatureCollection",
"name": "USGS_02407950_UM_12km",
"crs": { "type": "name", "properties": { "name": "urn:ogc:def:crs:OGC:1.3:CRS84" } },
"features": [
{ "type": "Feature", "properties": { "site_no": "02407950", "nhdplus_comid": "22276352", "navigation_mode": "UM", "requested_distance_km": 12.0, "start_source": "nwissite", "start_id": "USGS-02407950", "geometry_length_km": 1.7072736126721269 }, "geometry": { "type": "LineString", "coordinates": [ [ -86.511557005, 32.978104599 ], [ -86.511654504, 32.977923594 ], [ -86.512667105, 32.976431996 ], [ -86.513851903, 32.975396097 ], [ -86.514421903, 32.974434994 ], [ -86.514902003, 32.972962096 ], [ -86.515457004, 32.972125798 ], [ -86.515787303, 32.969379596 ], [ -86.516237304, 32.968156293 ], [ -86.516972207, 32.967082895 ], [ -86.517346351, 32.963970146 ] ] } },
{ "type": "Feature", "properties": { "site_no": "02407950", "nhdplus_comid": "22276350", "navigation_mode": "UM", "requested_distance_km": 12.0, "start_source": "nwissite", "start_id": "USGS-02407950", "geometry_length_km": 1.8699776402981594 }, "geometry": { "type": "LineString", "coordinates": [ [ -86.516053505, 32.993608497 ], [ -86.514298901, 32.991823293 ], [ -86.511030406, 32.986255698 ], [ -86.511451103, 32.982760593 ], [ -86.511001401, 32.9814623 ], [ -86.511557005, 32.978104599 ] ] } },
{ "type": "Feature", "properties": { "site_no": "02407950", "nhdplus_comid": "22276326", "navigation_mode": "UM", "requested_distance_km": 12.0, "start_source": "nwissite", "start_id": "USGS-02407950", "geometry_length_km": 0.86477895082397926 }, "geometry": { "type": "LineString", "coordinates": [ [ -86.520641506, 33.000130795 ], [ -86.520605303, 33.000082299 ], [ -86.520511501, 32.999956697 ], [ -86.520417802, 32.999831095 ], [ -86.520324007, 32.999705493 ], [ -86.520230204, 32.999579996 ], [ -86.520136505, 32.999454394 ], [ -86.520042703, 32.9993288 ], [ -86.5199489, 32.999203198 ], [ -86.519855201, 32.999077596 ], [ -86.519761503, 32.998952098 ], [ -86.519667603, 32.998826496 ], [ -86.519643404, 32.998773493 ], [ -86.5195802, 32.9986353 ], [ -86.5195169, 32.998497099 ], [ -86.519453704, 32.998358995 ], [ -86.519390501, 32.998220794 ], [ -86.519327201, 32.998082593 ], [ -86.519264005, 32.997944497 ], [ -86.519200802, 32.997806296 ], [ -86.519137502, 32.997668095 ], [ -86.519074306, 32.997529998 ], [ -86.519011103, 32.997391798 ], [ -86.518947802, 32.997253597 ], [ -86.518903002, 32.997207999 ], [ -86.518790506, 32.997093596 ], [ -86.518678106, 32.996979095 ], [ -86.518565506, 32.996864699 ], [ -86.518453002, 32.996750295 ], [ -86.518340506, 32.996635795 ], [ -86.518228106, 32.996521398 ], [ -86.518115506, 32.996406995 ], [ -86.518003106, 32.996292494 ], [ -86.517890602, 32.996178098 ], [ -86.517778106, 32.996063598 ], [ -86.517665602, 32.995949194 ], [ -86.517553002, 32.995834798 ], [ -86.517440706, 32.995720297 ], [ -86.517328203, 32.995605893 ], [ -86.517215706, 32.995491497 ], [ -86.517103203, 32.995376997 ], [ -86.516990706, 32.995262593 ], [ -86.516878106, 32.9951481 ], [ -86.516765706, 32.995033696 ], [ -86.516653307, 32.9949193 ], [ -86.516540803, 32.9948048 ], [ -86.516428307, 32.994690396 ], [ -86.516315803, 32.994575895 ], [ -86.516203307, 32.994461499 ], [ -86.516090803, 32.994347095 ], [ -86.515978403, 32.994232595 ], [ -86.515982702, 32.994196996 ], [ -86.516000405, 32.994049795 ], [ -86.5160181, 32.993902698 ], [ -86.516035803, 32.993755594 ], [ -86.516053505, 32.993608497 ] ] } },
{ "type": "Feature", "properties": { "site_no": "02407950", "nhdplus_comid": "22273656", "navigation_mode": "UM", "requested_distance_km": 12.0, "start_source": "nwissite", "start_id": "USGS-02407950", "geometry_length_km": 2.0705347556793159 }, "geometry": { "type": "LineString", "coordinates": [ [ -86.518270306, 33.017998897 ], [ -86.518323407, 33.017939493 ], [ -86.518423103, 33.017828196 ], [ -86.518522903, 33.017716795 ], [ -86.518622704, 33.017605394 ], [ -86.518722303, 33.017493993 ], [ -86.518822007, 33.017382599 ], [ -86.5189218, 33.017271295 ], [ -86.519021504, 33.017159894 ], [ -86.5191212, 33.017048493 ], [ -86.519220904, 33.016937099 ], [ -86.5193206, 33.016825698 ], [ -86.519331902, 33.016748793 ], [ -86.519352101, 33.016610898 ], [ -86.519372404, 33.0164731 ], [ -86.519392602, 33.016335197 ], [ -86.519412801, 33.016197294 ], [ -86.519433104, 33.016059496 ], [ -86.519453302, 33.0159216 ], [ -86.519473605, 33.015783794 ], [ -86.519493803, 33.015645899 ], [ -86.519514002, 33.015507996 ], [ -86.519534305, 33.015370198 ], [ -86.519554503, 33.015232295 ], [ -86.519574702, 33.015094496 ], [ -86.519595005, 33.014956594 ], [ -86.519615203, 33.014818698 ], [ -86.519635402, 33.0146809 ], [ -86.519655704, 33.014542997 ], [ -86.519675903, 33.014405198 ], [ -86.519696102, 33.014267296 ], [ -86.519716404, 33.0141294 ], [ -86.519736603, 33.013991594 ], [ -86.519756801, 33.013853699 ], [ -86.519777, 33.013715893 ], [ -86.519797303, 33.013577998 ], [ -86.519817501, 33.013440199 ], [ -86.5198377, 33.013302296 ], [ -86.519858003, 33.013164394 ], [ -86.519878201, 33.013026595 ], [ -86.519898407, 33.0128887 ], [ -86.519918606, 33.012750894 ], [ -86.519938901, 33.012612998 ], [ -86.519959107, 33.012475096 ], [ -86.519979306, 33.012337297 ], [ -86.519999601, 33.012199394 ], [ -86.520019807, 33.012061596 ], [ -86.520040005, 33.011923693 ], [ -86.520060301, 33.011785798 ], [ -86.520080507, 33.011647999 ], [ -86.520100705, 33.011510096 ], [ -86.520120904, 33.011372298 ], [ -86.520141207, 33.011234395 ], [ -86.520161405, 33.0110965 ], [ -86.520179205, 33.011057794 ], [ -86.520239003, 33.010928199 ], [ -86.520298705, 33.010798499 ], [ -86.520358406, 33.010668799 ], [ -86.520418204, 33.0105391 ], [ -86.520477906, 33.0104094 ], [ -86.520537704, 33.0102797 ], [ -86.520597406, 33.010149993 ], [ -86.5206571, 33.010020398 ], [ -86.520716906, 33.009890698 ], [ -86.520776607, 33.009760998 ], [ -86.520782404, 33.009719893 ], [ -86.520801805, 33.009581894 ], [ -86.520821303, 33.009443998 ], [ -86.520840704, 33.009306096 ], [ -86.520860203, 33.009168096 ], [ -86.520879604, 33.009030193 ], [ -86.520899005, 33.008892193 ], [ -86.520918503, 33.008754298 ], [ -86.520937905, 33.008616395 ], [ -86.520957306, 33.008478396 ], [ -86.520976804, 33.008340493 ], [ -86.520996206, 33.008202493 ], [ -86.521015607, 33.008064598 ], [ -86.521035105, 33.007926695 ], [ -86.521054402, 33.007788695 ], [ -86.5210739, 33.0076508 ], [ -86.521093406, 33.007512793 ], [ -86.521112807, 33.007374898 ], [ -86.521132201, 33.007236995 ], [ -86.521151707, 33.007098995 ], [ -86.5211711, 33.0069611 ], [ -86.521190502, 33.0068231 ], [ -86.52121, 33.006685197 ], [ -86.521229401, 33.006547295 ], [ -86.521248803, 33.006409295 ], [ -86.521268301, 33.0062714 ], [ -86.521287702, 33.0061334 ], [ -86.5213072, 33.005995497 ], [ -86.521326602, 33.005857594 ], [ -86.521346003, 33.005719595 ], [ -86.521365404, 33.005581699 ], [ -86.521384902, 33.0054437 ], [ -86.521404304, 33.005305797 ], [ -86.521423705, 33.005167894 ], [ -86.521443203, 33.005029894 ], [ -86.521462604, 33.004891999 ], [ -86.521482006, 33.004753999 ], [ -86.521501407, 33.004616097 ], [ -86.521520905, 33.004478194 ], [ -86.521540307, 33.004340194 ], [ -86.5215597, 33.004202299 ], [ -86.521579206, 33.004064299 ], [ -86.5215986, 33.003926396 ], [ -86.521618001, 33.003788397 ], [ -86.521637507, 33.003650494 ], [ -86.521656901, 33.003512599 ], [ -86.521676302, 33.003374599 ], [ -86.5216958, 33.003236696 ], [ -86.521715201, 33.003098696 ], [ -86.521734603, 33.002960794 ], [ -86.521754101, 33.002822898 ], [ -86.521773502, 33.002684899 ], [ -86.521792904, 33.002546996 ], [ -86.521812402, 33.002408996 ], [ -86.521804206, 33.002391197 ], [ -86.521744803, 33.0022614 ], [ -86.521685407, 33.002131596 ], [ -86.521625906, 33.0020018 ], [ -86.521566503, 33.001871996 ], [ -86.521507107, 33.001742199 ], [ -86.521447703, 33.001612395 ], [ -86.5213883, 33.001482598 ], [ -86.521328904, 33.001352794 ], [ -86.521269403, 33.001222998 ], [ -86.521210104, 33.001093298 ], [ -86.521150701, 33.000963494 ], [ -86.521091305, 33.000833698 ], [ -86.521031901, 33.000703894 ], [ -86.520972505, 33.000574097 ], [ -86.5209269, 33.000512995 ], [ -86.520838805, 33.000395097 ], [ -86.520750701, 33.000277095 ], [ -86.520662703, 33.0001591 ], [ -86.520641506, 33.000130795 ] ] } },
{ "type": "Feature", "properties": { "site_no": "02407950", "nhdplus_comid": "22273630", "navigation_mode": "UM", "requested_distance_km": 12.0, "start_source": "nwissite", "start_id": "USGS-02407950", "geometry_length_km": 0.098008215990756736 }, "geometry": { "type": "LineString", "coordinates": [ [ -86.518165104, 33.018872693 ], [ -86.518270306, 33.017998897 ] ] } },
{ "type": "Feature", "properties": { "site_no": "02407950", "nhdplus_comid": "22273624", "navigation_mode": "UM", "requested_distance_km": 12.0, "start_source": "nwissite", "start_id": "USGS-02407950", "geometry_length_km": 0.96937686697571857 }, "geometry": { "type": "LineString", "coordinates": [ [ -86.5168586, 33.0272104 ], [ -86.516378805, 33.024901293 ], [ -86.516664207, 33.022529699 ], [ -86.517384604, 33.021581195 ], [ -86.517609902, 33.019708894 ], [ -86.518165104, 33.018872693 ] ] } },
{ "type": "Feature", "properties": { "site_no": "02407950", "nhdplus_comid": "22273612", "navigation_mode": "UM", "requested_distance_km": 12.0, "start_source": "nwissite", "start_id": "USGS-02407950", "geometry_length_km": 1.0349979364908708 }, "geometry": { "type": "LineString", "coordinates": [ [ -86.516812302, 33.036409497 ], [ -86.517187901, 33.033289097 ], [ -86.516708001, 33.030979894 ], [ -86.517038502, 33.028233998 ], [ -86.5168586, 33.0272104 ] ] } },
{ "type": "Feature", "properties": { "site_no": "02407950", "nhdplus_comid": "22273604", "navigation_mode": "UM", "requested_distance_km": 12.0, "start_source": "nwissite", "start_id": "USGS-02407950", "geometry_length_km": 0.92976173516742822 }, "geometry": { "type": "LineString", "coordinates": [ [ -86.517981805, 33.044322893 ], [ -86.518011801, 33.044073299 ], [ -86.516946405, 33.042849995 ], [ -86.516241305, 33.041152395 ], [ -86.516676806, 33.0387934 ], [ -86.516812302, 33.036409497 ] ] } },
{ "type": "Feature", "properties": { "site_no": "02407950", "nhdplus_comid": "22273592", "navigation_mode": "UM", "requested_distance_km": 12.0, "start_source": "nwissite", "start_id": "USGS-02407950", "geometry_length_km": 2.7552607529078785 }, "geometry": { "type": "LineString", "coordinates": [ [ -86.509497404, 33.063156098 ], [ -86.509652302, 33.062983297 ], [ -86.510338306, 33.062469795 ], [ -86.511074103, 33.061396495 ], [ -86.512725703, 33.060273394 ], [ -86.514286906, 33.059899196 ], [ -86.515352905, 33.059861898 ], [ -86.516508803, 33.059075698 ], [ -86.518250205, 33.058464296 ], [ -86.520396903, 33.057004094 ], [ -86.520772502, 33.053883798 ], [ -86.519496806, 33.0518867 ], [ -86.519932501, 33.048267193 ], [ -86.519272305, 33.046195194 ], [ -86.517981805, 33.044322893 ] ] } }
]
}
