{
"type": "FeatureCollection",
"name": "USGS_02467500_DM_12km",
"crs": { "type": "name", "properties": { "name": "urn:ogc:def:crs:OGC:1.3:CRS84" } },
"features": [
{ "type": "Feature", "properties": { "site_no": "02467500", "nhdplus_comid": "18531726", "navigation_mode": "DM", "requested_distance_km": 12.0, "start_source": "nwissite", "start_id": "USGS-02467500", "geometry_length_km": 1.7354396947296957 }, "geometry": { "type": "LineString", "coordinates": [ [ -88.193753692, 32.573224039 ], [ -88.193556406, 32.573057197 ], [ -88.192743905, 32.5721642 ], [ -88.192418806, 32.571637399 ], [ -88.192174703, 32.570881598 ], [ -88.1921193, 32.569232099 ], [ -88.1919837, 32.568842694 ], [ -88.191631801, 32.568522096 ], [ -88.191171601, 32.5682704 ], [ -88.190062001, 32.567881495 ], [ -88.189575002, 32.567858793 ], [ -88.1891964, 32.567950599 ], [ -88.189007103, 32.568134099 ], [ -88.188818, 32.568454899 ], [ -88.188818, 32.568546593 ], [ -88.1887099, 32.568684094 ], [ -88.188304804, 32.569760993 ], [ -88.187980607, 32.570288196 ], [ -88.187574901, 32.570517398 ], [ -88.186925501, 32.570609398 ], [ -88.186303206, 32.570540994 ], [ -88.185518406, 32.570335194 ], [ -88.183867604, 32.569694594 ], [ -88.182027102, 32.568664499 ] ] } },
{ "type": "Feature", "properties": { "site_no": "02467500", "nhdplus_comid": "18531742", "navigation_mode": "DM", "requested_distance_km": 12.0, "start_source": "nwissite", "start_id": "USGS-02467500", "geometry_length_km": 0.66469856744609912 }, "geometry": { "type": "LineString", "coordinates": [ [ -88.182027102, 32.568664499 ], [ -88.180213802, 32.567863494 ], [ -88.179050304, 32.567612 ], [ -88.176534005, 32.567315295 ], [ -88.175830401, 32.567063399 ], [ -88.175397307, 32.5667658 ] ] } },
{ "type": "Feature", "properties": { "site_no": "02467500", "nhdplus_comid": "18531778", "navigation_mode": "DM", "requested_distance_km": 12.0, "start_source": "nwissite", "start_id": "USGS-02467500", "geometry_length_km": 1.0917483072376546 }, "geometry": { "type": "LineString", "coordinates": [ [ -88.175397307, 32.5667658 ], [ -88.175207801, 32.566513896 ], [ -88.174747601, 32.5661017 ], [ -88.1740169, 32.565712497 ], [ -88.173259206, 32.565575294 ], [ -88.171798304, 32.5654843 ], [ -88.170797303, 32.565347195 ], [ -88.170229003, 32.565118395 ], [ -88.169660404, 32.5646604 ], [ -88.169119, 32.563973196 ], [ -88.168983504, 32.563560896 ], [ -88.168848202, 32.563423499 ], [ -88.168820702, 32.562530093 ], [ -88.168766007, 32.561430395 ], [ -88.168603607, 32.5612242 ], [ -88.168278806, 32.560926497 ], [ -88.168035306, 32.560857899 ] ] } },
{ "type": "Feature", "properties": { "site_no": "02467500", "nhdplus_comid": "18531802", "navigation_mode": "DM", "requested_distance_km": 12.0, "start_source": "nwissite", "start_id": "USGS-02467500", "geometry_length_km": 1.5191391371444143 }, "geometry": { "type": "LineString", "coordinates": [ [ -88.168035306, 32.560857899 ], [ -88.167927004, 32.560674593 ], [ -88.166844606, 32.560148098 ], [ -88.166195303, 32.559965 ], [ -88.165600106, 32.559942298 ], [ -88.165059105, 32.560079999 ], [ -88.164247707, 32.560561299 ], [ -88.163571507, 32.5608823 ], [ -88.163301006, 32.560951099 ], [ -88.162786901, 32.5609513 ], [ -88.162435107, 32.560722299 ], [ -88.161785603, 32.560058095 ], [ -88.160269901, 32.558340199 ], [ -88.160053402, 32.557950795 ], [ -88.159945101, 32.557859197 ], [ -88.1598638, 32.557653099 ], [ -88.159647301, 32.557423994 ], [ -88.158916801, 32.557172194 ], [ -88.157591105, 32.556989297 ], [ -88.1552376, 32.557104498 ], [ -88.154669501, 32.557081699 ] ] } },
{ "type": "Feature", "properties": { "site_no": "02467500", "nhdplus_comid": "18531918", "navigation_mode": "DM", "requested_distance_km": 12.0, "start_source": "nwissite", "start_id": "USGS-02467500", "geometry_length_km": 2.0988274414248189 }, "geometry": { "type": "LineString", "coordinates": [ [ -88.154669501, 32.557081699 ], [ -88.154615402, 32.557035893 ], [ -88.154615402, 32.556852594 ], [ -88.1554536, 32.555867299 ], [ -88.155724004, 32.555386096 ], [ -88.155723803, 32.554813296 ], [ -88.155453004, 32.554126099 ], [ -88.155182302, 32.553645 ], [ -88.155182302, 32.553553395 ], [ -88.154803306, 32.552957796 ], [ -88.154072702, 32.551949896 ], [ -88.153342105, 32.551377296 ], [ -88.152773902, 32.551148295 ], [ -88.152638704, 32.550965093 ], [ -88.153152406, 32.550346397 ], [ -88.153314501, 32.549865298 ], [ -88.153693005, 32.549063295 ], [ -88.153936401, 32.548879996 ], [ -88.154341802, 32.548123896 ], [ -88.154530801, 32.547115698 ], [ -88.154720105, 32.5467491 ], [ -88.154909201, 32.5463138 ], [ -88.155720405, 32.5453972 ], [ -88.156207003, 32.544709794 ], [ -88.156558402, 32.544045299 ], [ -88.156612404, 32.543586895 ], [ -88.156503901, 32.542807996 ], [ -88.1562602, 32.542166598 ], [ -88.155692004, 32.5415482 ], [ -88.155340306, 32.541410796 ], [ -88.154528804, 32.541342199 ] ] } },
{ "type": "Feature", "properties": { "site_no": "02467500", "nhdplus_comid": "18531970", "navigation_mode": "DM", "requested_distance_km": 12.0, "start_source": "nwissite", "start_id": "USGS-02467500", "geometry_length_km": 1.0743883412136011 }, "geometry": { "type": "LineString", "coordinates": [ [ -88.154528804, 32.541342199 ], [ -88.153149307, 32.540998995 ], [ -88.152554207, 32.540747099 ], [ -88.1519861, 32.540289 ], [ -88.151553102, 32.539670594 ], [ -88.1513905, 32.539097793 ], [ -88.151282206, 32.538502194 ], [ -88.151254706, 32.537081793 ], [ -88.151335701, 32.536577694 ], [ -88.151308306, 32.5353176 ], [ -88.151281103, 32.534996897 ], [ -88.151145905, 32.534836493 ], [ -88.151145801, 32.534767695 ], [ -88.150956504, 32.534447096 ], [ -88.150280103, 32.533897296 ], [ -88.149901502, 32.533691294 ] ] } },
{ "type": "Feature", "properties": { "site_no": "02467500", "nhdplus_comid": "18532044", "navigation_mode": "DM", "requested_distance_km": 12.0, "start_source": "nwissite", "start_id": "USGS-02467500", "geometry_length_km": 1.0528963636994468 }, "geometry": { "type": "LineString", "coordinates": [ [ -88.149901502, 32.533691294 ], [ -88.149522804, 32.533393398 ], [ -88.149360307, 32.533072695 ], [ -88.149333201, 32.5324542 ], [ -88.149603404, 32.531835496 ], [ -88.1499549, 32.531400196 ], [ -88.152712807, 32.528993994 ], [ -88.153172307, 32.528398193 ], [ -88.1533885, 32.527985796 ], [ -88.153442301, 32.527115196 ], [ -88.153388202, 32.527069293 ], [ -88.153361201, 32.5269548 ], [ -88.152766004, 32.526405096 ], [ -88.152279101, 32.526015699 ] ] } },
{ "type": "Feature", "properties": { "site_no": "02467500", "nhdplus_comid": "18532094", "navigation_mode": "DM", "requested_distance_km": 12.0, "start_source": "nwissite", "start_id": "USGS-02467500", "geometry_length_km": 1.5998194993770112 }, "geometry": { "type": "LineString", "coordinates": [ [ -88.152279101, 32.526015699 ], [ -88.152225003, 32.525901198 ], [ -88.152224906, 32.525465898 ], [ -88.152414002, 32.525030494 ], [ -88.152900606, 32.524526395 ], [ -88.1535495, 32.524090894 ], [ -88.154333606, 32.523815796 ], [ -88.155604601, 32.523746796 ], [ -88.157578707, 32.524067096 ], [ -88.158038504, 32.524112694 ], [ -88.158471204, 32.523998097 ], [ -88.158687502, 32.523768999 ], [ -88.158957705, 32.523173198 ], [ -88.158984102, 32.5217527 ], [ -88.158929907, 32.521225795 ], [ -88.1587945, 32.520630196 ], [ -88.158442602, 32.519713894 ], [ -88.157793105, 32.518637195 ], [ -88.157495402, 32.518201999 ], [ -88.157252006, 32.517949998 ], [ -88.1571979, 32.517812595 ], [ -88.157035701, 32.517698094 ], [ -88.156792104, 32.517216995 ], [ -88.156683706, 32.516804598 ] ] } },
{ "type": "Feature", "properties": { "site_no": "02467500", "nhdplus_comid": "18532286", "navigation_mode": "DM", "requested_distance_km": 12.0, "start_source": "nwissite", "start_id": "USGS-02467500", "geometry_length_km": 2.5263152206779447 }, "geometry": { "type": "LineString", "coordinates": [ [ -88.156683706, 32.516804598 ], [ -88.156656601, 32.516461 ], [ -88.156899802, 32.515865199 ], [ -88.157440305, 32.515177794 ], [ -88.158143103, 32.514604799 ], [ -88.160278901, 32.513642095 ], [ -88.160900705, 32.513344094 ], [ -88.162009001, 32.512679294 ], [ -88.162576601, 32.512197994 ], [ -88.162928, 32.5117855 ], [ -88.163360201, 32.510891795 ], [ -88.163224705, 32.510044195 ], [ -88.1629811, 32.509654798 ], [ -88.162845805, 32.509379894 ], [ -88.162276901, 32.508692794 ], [ -88.1608954, 32.507181093 ], [ -88.160353705, 32.506700195 ], [ -88.159758106, 32.506219193 ], [ -88.1587568, 32.505692497 ], [ -88.157295801, 32.505142994 ], [ -88.156700604, 32.504822396 ], [ -88.156240501, 32.5044102 ], [ -88.156132102, 32.504181094 ], [ -88.156077802, 32.503860399 ], [ -88.156158604, 32.503585294 ], [ -88.157455504, 32.502622798 ], [ -88.157752506, 32.502256095 ], [ -88.158049606, 32.501774997 ], [ -88.158103503, 32.5015001 ], [ -88.158075802, 32.500629395 ], [ -88.1579675, 32.5003087 ], [ -88.157940403, 32.500262894 ], [ -88.157940403, 32.5001508 ] ] } }
]
}
