{
"type": "FeatureCollection",
"name": "USGS_02446500_DM_12km",
"crs": { "type": "name", "properties": { "name": "urn:ogc:def:crs:OGC:1.3:CRS84" } },
"features": [
{ "type": "Feature", "properties": { "site_no": "02446500", "nhdplus_comid": "166759201", "navigation_mode": "DM", "requested_distance_km": 12.0, "start_source": "nwissite", "start_id": "USGS-02446500", "geometry_length_km": 0.37095509070234478 }, "geometry": { "type": "LineString", "coordinates": [ [ -87.776985924, 33.256915555 ], [ -87.776986301, 33.256586999 ], [ -87.777095601, 33.256358095 ], [ -87.777477503, 33.256152198 ], [ -87.778650306, 33.255969897 ], [ -87.779277705, 33.255718298 ], [ -87.779550605, 33.255489498 ], [ -87.779632606, 33.255260393 ], [ -87.779441901, 33.2550769 ] ] } },
{ "type": "Feature", "properties": { "site_no": "02446500", "nhdplus_comid": "25366064", "navigation_mode": "DM", "requested_distance_km": 12.0, "start_source": "nwissite", "start_id": "USGS-02446500", "geometry_length_km": 0.64031417946710312 }, "geometry": { "type": "LineString", "coordinates": [ [ -87.779441901, 33.2550769 ], [ -87.778896801, 33.254916199 ], [ -87.777942501, 33.254938297 ], [ -87.777096406, 33.255556196 ], [ -87.775814503, 33.255830094 ], [ -87.773523502, 33.256309293 ], [ -87.773059703, 33.256583899 ] ] } },
{ "type": "Feature", "properties": { "site_no": "02446500", "nhdplus_comid": "25366066", "navigation_mode": "DM", "requested_distance_km": 12.0, "start_source": "nwissite", "start_id": "USGS-02446500", "geometry_length_km": 0.55463637052762582 }, "geometry": { "type": "LineString", "coordinates": [ [ -87.773059703, 33.256583899 ], [ -87.772868603, 33.256721199 ], [ -87.772650406, 33.256743893 ], [ -87.772486903, 33.256652094 ], [ -87.772487305, 33.256285593 ], [ -87.772623703, 33.2561941 ], [ -87.772596605, 33.256056599 ], [ -87.773061402, 33.2550947 ], [ -87.773362607, 33.253972396 ], [ -87.773690403, 33.253514595 ], [ -87.774372503, 33.253079794 ], [ -87.774590902, 33.252804995 ] ] } },
{ "type": "Feature", "properties": { "site_no": "02446500", "nhdplus_comid": "18617016", "navigation_mode": "DM", "requested_distance_km": 12.0, "start_source": "nwissite", "start_id": "USGS-02446500", "geometry_length_km": 0.99611728829415169 }, "geometry": { "type": "LineString", "coordinates": [ [ -87.774590902, 33.252804995 ], [ -87.774700001, 33.252805196 ], [ -87.777865306, 33.250699997 ], [ -87.778301701, 33.250562899 ], [ -87.778519705, 33.250746295 ], [ -87.778792404, 33.250723697 ], [ -87.778901502, 33.2506321 ], [ -87.778929107, 33.250380099 ], [ -87.778828606, 33.250122994 ], [ -87.778583504, 33.249802098 ], [ -87.777738504, 33.249572299 ], [ -87.777602606, 33.249091193 ], [ -87.777684703, 33.248862199 ], [ -87.778066806, 33.248449996 ], [ -87.7792124, 33.248061396 ], [ -87.779866807, 33.247993194 ] ] } },
{ "type": "Feature", "properties": { "site_no": "02446500", "nhdplus_comid": "18616234", "navigation_mode": "DM", "requested_distance_km": 12.0, "start_source": "nwissite", "start_id": "USGS-02446500", "geometry_length_km": 1.7095844149505828 }, "geometry": { "type": "LineString", "coordinates": [ [ -87.779866807, 33.247993194 ], [ -87.7798943, 33.247718297 ], [ -87.780495003, 33.246962696 ], [ -87.780550003, 33.246458694 ], [ -87.780414, 33.246137895 ], [ -87.779869303, 33.245610595 ], [ -87.779760405, 33.245450094 ], [ -87.779516101, 33.244418994 ], [ -87.779243603, 33.244212598 ], [ -87.778862506, 33.243639499 ], [ -87.778317504, 33.243341297 ], [ -87.778290801, 33.242745697 ], [ -87.777991101, 33.242562197 ], [ -87.777445905, 33.242470197 ], [ -87.776873104, 33.242698796 ], [ -87.776573002, 33.242973499 ], [ -87.776354402, 33.243362799 ], [ -87.776136301, 33.243408397 ], [ -87.776054502, 33.243316799 ], [ -87.776000403, 33.242973097 ], [ -87.776273906, 33.242217295 ], [ -87.776274405, 33.241690293 ], [ -87.7755934, 33.241231695 ], [ -87.775021501, 33.2404752 ], [ -87.774995305, 33.239512995 ], [ -87.774723105, 33.239214994 ], [ -87.774696104, 33.238962993 ], [ -87.774560004, 33.2387795 ], [ -87.774015106, 33.238504194 ], [ -87.772515506, 33.238503098 ] ] } },
{ "type": "Feature", "properties": { "site_no": "02446500", "nhdplus_comid": "18616252", "navigation_mode": "DM", "requested_distance_km": 12.0, "start_source": "nwissite", "start_id": "USGS-02446500", "geometry_length_km": 0.80610929993451019 }, "geometry": { "type": "LineString", "coordinates": [ [ -87.772515506, 33.238503098 ], [ -87.772516206, 33.237838693 ], [ -87.772652701, 33.237678498 ], [ -87.773470901, 33.237472899 ], [ -87.774125502, 33.237129696 ], [ -87.775379807, 33.236970298 ], [ -87.7756254, 33.236741394 ], [ -87.775653303, 33.236099996 ], [ -87.776226304, 33.235573493 ], [ -87.7764723, 33.235092498 ], [ -87.776309207, 33.234519698 ], [ -87.776528202, 33.233740896 ], [ -87.776828401, 33.233443297 ] ] } },
{ "type": "Feature", "properties": { "site_no": "02446500", "nhdplus_comid": "18616266", "navigation_mode": "DM", "requested_distance_km": 12.0, "start_source": "nwissite", "start_id": "USGS-02446500", "geometry_length_km": 1.1800304240637189 }, "geometry": { "type": "LineString", "coordinates": [ [ -87.776828401, 33.233443297 ], [ -87.7768289, 33.232962295 ], [ -87.777019903, 33.232824899 ], [ -87.777265504, 33.232435696 ], [ -87.777293205, 33.232069097 ], [ -87.777211607, 33.232000396 ], [ -87.777212501, 33.231038198 ], [ -87.777485304, 33.230923794 ], [ -87.7779487, 33.2309241 ], [ -87.778874807, 33.231612094 ], [ -87.7790929, 33.231543593 ], [ -87.779257104, 33.231039599 ], [ -87.779366203, 33.230902299 ], [ -87.779693305, 33.230856694 ], [ -87.7804019, 33.231086299 ], [ -87.780538201, 33.231040597 ], [ -87.780675307, 33.230193093 ], [ -87.7809209, 33.230055794 ], [ -87.781466104, 33.229987398 ], [ -87.781711601, 33.229872994 ], [ -87.7817121, 33.229346097 ], [ -87.781440005, 33.228841893 ], [ -87.781304806, 33.227787994 ], [ -87.781359904, 33.227283999 ] ] } },
{ "type": "Feature", "properties": { "site_no": "02446500", "nhdplus_comid": "18616288", "navigation_mode": "DM", "requested_distance_km": 12.0, "start_source": "nwissite", "start_id": "USGS-02446500", "geometry_length_km": 1.8424283478673016 }, "geometry": { "type": "LineString", "coordinates": [ [ -87.781359904, 33.227283999 ], [ -87.782232605, 33.226757698 ], [ -87.7826147, 33.226345599 ], [ -87.782861903, 33.224352695 ], [ -87.783053301, 33.223780096 ], [ -87.784445405, 33.221741997 ], [ -87.784609705, 33.220963195 ], [ -87.785455003, 33.220574394 ], [ -87.786247, 33.2189942 ], [ -87.786656104, 33.218765296 ], [ -87.787392005, 33.218674093 ], [ -87.7876103, 33.218490995 ], [ -87.788047306, 33.217483394 ], [ -87.788102604, 33.2166586 ], [ -87.788320906, 33.2163838 ], [ -87.789384, 33.216224194 ], [ -87.790855706, 33.216202199 ], [ -87.791646101, 33.216385998 ], [ -87.792000405, 33.216386199 ], [ -87.792191401, 33.216202997 ] ] } },
{ "type": "Feature", "properties": { "site_no": "02446500", "nhdplus_comid": "18616312", "navigation_mode": "DM", "requested_distance_km": 12.0, "start_source": "nwissite", "start_id": "USGS-02446500", "geometry_length_km": 1.1471291842504467 }, "geometry": { "type": "LineString", "coordinates": [ [ -87.792191401, 33.216202997 ], [ -87.792383507, 33.214553699 ], [ -87.792656504, 33.214072794 ], [ -87.792956606, 33.213797994 ], [ -87.793883801, 33.2132717 ], [ -87.794211, 33.212974094 ], [ -87.794456705, 33.212607697 ], [ -87.794566207, 33.212012097 ], [ -87.794894002, 33.211164594 ], [ -87.794949301, 33.210133694 ], [ -87.794840403, 33.209950395 ], [ -87.794105001, 33.209354296 ], [ -87.793941706, 33.209102198 ], [ -87.794023603, 33.208941795 ], [ -87.794596106, 33.208713099 ], [ -87.794841602, 33.2084613 ], [ -87.794950806, 33.208186395 ], [ -87.794978805, 33.207407497 ] ] } },
{ "type": "Feature", "properties": { "site_no": "02446500", "nhdplus_comid": "18617052", "navigation_mode": "DM", "requested_distance_km": 12.0, "start_source": "nwissite", "start_id": "USGS-02446500", "geometry_length_km": 2.3611427838945587 }, "geometry": { "type": "LineString", "coordinates": [ [ -87.794978805, 33.207407497 ], [ -87.795033604, 33.206995197 ], [ -87.795388602, 33.206124797 ], [ -87.795634106, 33.205918796 ], [ -87.796642601, 33.205758996 ], [ -87.796725102, 33.204842694 ], [ -87.796834201, 33.204705298 ], [ -87.7973793, 33.204613999 ], [ -87.798877604, 33.205393799 ], [ -87.799231902, 33.205394 ], [ -87.799450301, 33.204958797 ], [ -87.799505107, 33.204638198 ], [ -87.799369, 33.204271495 ], [ -87.799369305, 33.203996599 ], [ -87.799968906, 33.203996897 ], [ -87.800186701, 33.204111598 ], [ -87.800213002, 33.205256999 ], [ -87.800376303, 33.205623694 ], [ -87.800621502, 33.205761299 ], [ -87.800894007, 33.2057615 ], [ -87.801139504, 33.205440894 ], [ -87.801304005, 33.204226695 ], [ -87.801495001, 33.203883193 ], [ -87.8021494, 33.203310795 ], [ -87.8024766, 33.2031506 ], [ -87.802585803, 33.202967398 ], [ -87.802586101, 33.202532195 ], [ -87.802504502, 33.202348895 ], [ -87.802532107, 33.201821893 ], [ -87.802614003, 33.201707393 ], [ -87.803159006, 33.201684795 ], [ -87.803649202, 33.202097498 ], [ -87.804302901, 33.202487193 ], [ -87.804684505, 33.2024417 ], [ -87.8050934, 33.202098295 ], [ -87.805120803, 33.202006593 ], [ -87.805257104, 33.201983698 ], [ -87.805339001, 33.201800495 ], [ -87.805584304, 33.201708995 ], [ -87.805584401, 33.201617397 ], [ -87.805802405, 33.2015488 ], [ -87.805775203, 33.201502994 ], [ -87.805938706, 33.201411299 ], [ -87.806484006, 33.201022193 ], [ -87.807029501, 33.200495496 ], [ -87.807002403, 33.200312294 ], [ -87.807247907, 33.199854195 ], [ -87.807248205, 33.199373096 ], [ -87.807139404, 33.199189797 ], [ -87.807166904, 33.198868997 ] ] } }
]
}
