{
"type": "FeatureCollection",
"name": "USGS_02425000_UM_12km",
"crs": { "type": "name", "properties": { "name": "urn:ogc:def:crs:OGC:1.3:CRS84" } },
"features": [
{ "type": "Feature", "properties": { "site_no": "02425000", "nhdplus_comid": "21662336", "navigation_mode": "UM", "requested_distance_km": 12.0, "start_source": "nwissite", "start_id": "USGS-02425000", "geometry_length_km": 1.5631058145625529 }, "geometry": { "type": "LineString", "coordinates": [ [ -87.181854606, 32.455317698 ], [ -87.181989603, 32.455157295 ], [ -87.182394907, 32.455019593 ], [ -87.183259405, 32.454560995 ], [ -87.1838805, 32.454079494 ], [ -87.185122602, 32.452451997 ], [ -87.185365401, 32.451833196 ], [ -87.185419001, 32.4512145 ], [ -87.185310602, 32.450733393 ], [ -87.184742801, 32.450321198 ], [ -87.182904504, 32.449382596 ], [ -87.182417907, 32.448993295 ], [ -87.181795903, 32.448260397 ], [ -87.180281103, 32.445832096 ], [ -87.180037402, 32.445282198 ], [ -87.179715639, 32.444351683 ] ] } },
{ "type": "Feature", "properties": { "site_no": "02425000", "nhdplus_comid": "21662306", "navigation_mode": "UM", "requested_distance_km": 12.0, "start_source": "nwissite", "start_id": "USGS-02425000", "geometry_length_km": 0.31420547947864286 }, "geometry": { "type": "LineString", "coordinates": [ [ -87.178693101, 32.456235699 ], [ -87.178882301, 32.456235595 ], [ -87.1801522, 32.455776796 ], [ -87.181854606, 32.455317698 ] ] } },
{ "type": "Feature", "properties": { "site_no": "02425000", "nhdplus_comid": "21662304", "navigation_mode": "UM", "requested_distance_km": 12.0, "start_source": "nwissite", "start_id": "USGS-02425000", "geometry_length_km": 0.4997375179868081 }, "geometry": { "type": "LineString", "coordinates": [ [ -87.175425, 32.459742896 ], [ -87.177018404, 32.457656994 ], [ -87.177801706, 32.456877694 ], [ -87.178693101, 32.456235699 ] ] } },
{ "type": "Feature", "properties": { "site_no": "02425000", "nhdplus_comid": "21662300", "navigation_mode": "UM", "requested_distance_km": 12.0, "start_source": "nwissite", "start_id": "USGS-02425000", "geometry_length_km": 3.736298148007084 }, "geometry": { "type": "LineString", "coordinates": [ [ -87.158862703, 32.472351193 ], [ -87.158862501, 32.471961595 ], [ -87.159266904, 32.469532594 ], [ -87.159239404, 32.468432799 ], [ -87.158644401, 32.467287295 ], [ -87.158617005, 32.466416493 ], [ -87.159184307, 32.465453997 ], [ -87.159913503, 32.464010194 ], [ -87.160318702, 32.463666394 ], [ -87.161021501, 32.463597499 ], [ -87.161859401, 32.463826396 ], [ -87.1647522, 32.465589799 ], [ -87.165455006, 32.465956196 ], [ -87.166049801, 32.4660706 ], [ -87.166590303, 32.466070399 ], [ -87.166968606, 32.465886995 ], [ -87.167265706, 32.465222396 ], [ -87.167265303, 32.464534998 ], [ -87.167021804, 32.463778898 ], [ -87.166670002, 32.463183194 ], [ -87.165588103, 32.461579598 ], [ -87.163749501, 32.459655493 ], [ -87.163722202, 32.459243096 ], [ -87.164100505, 32.458945096 ], [ -87.164992206, 32.458669797 ], [ -87.166586705, 32.458485894 ], [ -87.167370506, 32.458623096 ], [ -87.168100402, 32.458989494 ], [ -87.168884404, 32.459562197 ], [ -87.169749506, 32.459813893 ], [ -87.174587302, 32.459949397 ], [ -87.175425, 32.459742896 ] ] } },
{ "type": "Feature", "properties": { "site_no": "02425000", "nhdplus_comid": "21662280", "navigation_mode": "UM", "requested_distance_km": 12.0, "start_source": "nwissite", "start_id": "USGS-02425000", "geometry_length_km": 1.2607228612452295 }, "geometry": { "type": "LineString", "coordinates": [ [ -87.160651207, 32.483349293 ], [ -87.160597101, 32.483143099 ], [ -87.160245501, 32.482730694 ], [ -87.159569107, 32.481539398 ], [ -87.159217402, 32.480508395 ], [ -87.159189604, 32.478996098 ], [ -87.1593244, 32.478194095 ], [ -87.159269206, 32.4752611 ], [ -87.1591065, 32.473794699 ], [ -87.158998303, 32.473588496 ], [ -87.158862703, 32.472351193 ] ] } },
{ "type": "Feature", "properties": { "site_no": "02425000", "nhdplus_comid": "21662258", "navigation_mode": "UM", "requested_distance_km": 12.0, "start_source": "nwissite", "start_id": "USGS-02425000", "geometry_length_km": 2.3687397315808121 }, "geometry": { "type": "LineString", "coordinates": [ [ -87.1764208, 32.498466797 ], [ -87.174933404, 32.498031996 ], [ -87.173959807, 32.497596994 ], [ -87.173121206, 32.496909998 ], [ -87.172742501, 32.496474795 ], [ -87.1724177, 32.495787397 ], [ -87.171741202, 32.494802497 ], [ -87.171308406, 32.494390197 ], [ -87.170659207, 32.493794598 ], [ -87.169739604, 32.493199199 ], [ -87.168576606, 32.492283098 ], [ -87.167413205, 32.4904963 ], [ -87.166736402, 32.488915294 ], [ -87.166276507, 32.488205194 ], [ -87.166006103, 32.488090694 ], [ -87.164438106, 32.488022499 ], [ -87.164248705, 32.487885095 ], [ -87.1636803, 32.486281298 ], [ -87.163247406, 32.485456496 ], [ -87.162111402, 32.484402895 ], [ -87.161516502, 32.484013498 ], [ -87.160786405, 32.4833721 ], [ -87.160651207, 32.483349293 ] ] } }
]
}
