{
"type": "FeatureCollection",
"name": "USGS_02479431_UM_12km",
"crs": { "type": "name", "properties": { "name": "urn:ogc:def:crs:OGC:1.3:CRS84" } },
"features": [
{ "type": "Feature", "properties": { "site_no": "02479431", "nhdplus_comid": "18092699", "navigation_mode": "UM", "requested_distance_km": 12.0, "start_source": "nwissite", "start_id": "USGS-02479431", "geometry_length_km": 2.9091451503641967 }, "geometry": { "type": "LineString", "coordinates": [ [ -88.382824704, 31.177827395 ], [ -88.382771403, 31.177735694 ], [ -88.382345006, 31.177460797 ], [ -88.380825706, 31.176888198 ], [ -88.380266003, 31.176475696 ], [ -88.3792798, 31.175559193 ], [ -88.378080606, 31.174803093 ], [ -88.377974004, 31.1746886 ], [ -88.377281003, 31.174299099 ], [ -88.375015706, 31.173657596 ], [ -88.3748824, 31.173680499 ], [ -88.374136202, 31.173359796 ], [ -88.373789705, 31.173084795 ], [ -88.373096906, 31.172649495 ], [ -88.3726971, 31.172237098 ], [ -88.372723803, 31.172145396 ], [ -88.372244105, 31.1713662 ], [ -88.371684402, 31.170862198 ], [ -88.370991506, 31.170541398 ], [ -88.370511703, 31.1701748 ], [ -88.3703252, 31.169945598 ], [ -88.370138705, 31.169487394 ], [ -88.3700587, 31.1689604 ], [ -88.3699788, 31.168868795 ], [ -88.369925506, 31.168387599 ], [ -88.369872205, 31.168318793 ], [ -88.369712301, 31.167402193 ], [ -88.369632304, 31.167379394 ], [ -88.369632304, 31.167195998 ], [ -88.369579107, 31.167150199 ], [ -88.369499102, 31.166875295 ], [ -88.369312607, 31.166600294 ], [ -88.368912905, 31.166187793 ], [ -88.367687106, 31.165408693 ], [ -88.366781004, 31.164652497 ], [ -88.365848407, 31.163529694 ], [ -88.365075603, 31.162773594 ], [ -88.3648891, 31.162658997 ], [ -88.364516102, 31.162108898 ], [ -88.363956705, 31.161581896 ], [ -88.363716803, 31.1614445 ], [ -88.362517603, 31.1609632 ], [ -88.361756703, 31.160739301 ] ] } },
{ "type": "Feature", "properties": { "site_no": "02479431", "nhdplus_comid": "18092131", "navigation_mode": "UM", "requested_distance_km": 12.0, "start_source": "nwissite", "start_id": "USGS-02479431", "geometry_length_km": 1.153506664570672 }, "geometry": { "type": "LineString", "coordinates": [ [ -88.3907151, 31.185548298 ], [ -88.390688501, 31.185433693 ], [ -88.388475902, 31.1837155 ], [ -88.387276404, 31.182661697 ], [ -88.386370003, 31.181424394 ], [ -88.386236601, 31.181195296 ], [ -88.385943301, 31.180828698 ], [ -88.384450704, 31.179614596 ], [ -88.384024203, 31.179156296 ], [ -88.383571006, 31.178422995 ], [ -88.383011304, 31.177873097 ], [ -88.382824704, 31.177827395 ] ] } },
{ "type": "Feature", "properties": { "site_no": "02479431", "nhdplus_comid": "18092111", "navigation_mode": "UM", "requested_distance_km": 12.0, "start_source": "nwissite", "start_id": "USGS-02479431", "geometry_length_km": 0.086827635502821313 }, "geometry": { "type": "LineString", "coordinates": [ [ -88.391488202, 31.1858918 ], [ -88.391381606, 31.1859148 ], [ -88.390955105, 31.185617 ], [ -88.3907151, 31.185548298 ] ] } },
{ "type": "Feature", "properties": { "site_no": "02479431", "nhdplus_comid": "18092109", "navigation_mode": "UM", "requested_distance_km": 12.0, "start_source": "nwissite", "start_id": "USGS-02479431", "geometry_length_km": 2.3770187637290685 }, "geometry": { "type": "LineString", "coordinates": [ [ -88.406953402, 31.201698594 ], [ -88.406500205, 31.2014696 ], [ -88.4051136, 31.200415999 ], [ -88.403967105, 31.199499793 ], [ -88.401220605, 31.197392493 ], [ -88.400234006, 31.196567699 ], [ -88.399194002, 31.195353597 ], [ -88.398954101, 31.194964096 ], [ -88.398954004, 31.194849595 ], [ -88.398794107, 31.194712095 ], [ -88.398313805, 31.193497799 ], [ -88.398207106, 31.193337396 ], [ -88.398047104, 31.192856297 ], [ -88.397913702, 31.192329399 ], [ -88.397913501, 31.191962697 ], [ -88.397726804, 31.191412799 ], [ -88.397486702, 31.190817095 ], [ -88.397006601, 31.189923599 ], [ -88.396419905, 31.189052999 ], [ -88.395673402, 31.188319899 ], [ -88.3947137, 31.1877473 ], [ -88.393674105, 31.187334999 ], [ -88.3927145, 31.186853997 ], [ -88.391488202, 31.185960598 ], [ -88.391488202, 31.1858918 ] ] } },
{ "type": "Feature", "properties": { "site_no": "02479431", "nhdplus_comid": "18092667", "navigation_mode": "UM", "requested_distance_km": 12.0, "start_source": "nwissite", "start_id": "USGS-02479431", "geometry_length_km": 1.3720111157044832 }, "geometry": { "type": "LineString", "coordinates": [ [ -88.414022803, 31.211801194 ], [ -88.413969301, 31.211686596 ], [ -88.413915806, 31.211159594 ], [ -88.413809001, 31.210930593 ], [ -88.413755506, 31.210541099 ], [ -88.413675405, 31.210426494 ], [ -88.413648605, 31.209991097 ], [ -88.413461603, 31.209189199 ], [ -88.413408101, 31.208937094 ], [ -88.413301401, 31.2087081 ], [ -88.413274601, 31.208478995 ], [ -88.413061, 31.208020695 ], [ -88.413007602, 31.2078375 ], [ -88.412981004, 31.207791694 ], [ -88.412900902, 31.207608394 ], [ -88.412847504, 31.207470998 ], [ -88.412714101, 31.207379296 ], [ -88.412393905, 31.206783697 ], [ -88.4120204, 31.206096396 ], [ -88.411940403, 31.205913097 ], [ -88.411513604, 31.205409199 ], [ -88.411353506, 31.205157295 ], [ -88.410446703, 31.204126395 ], [ -88.409300007, 31.203003995 ], [ -88.408659905, 31.202500097 ], [ -88.407380104, 31.201904595 ], [ -88.406953402, 31.201698594 ] ] } },
{ "type": "Feature", "properties": { "site_no": "02479431", "nhdplus_comid": "18092077", "navigation_mode": "UM", "requested_distance_km": 12.0, "start_source": "nwissite", "start_id": "USGS-02479431", "geometry_length_km": 0.67254613199742497 }, "geometry": { "type": "LineString", "coordinates": [ [ -88.415092103, 31.217758194 ], [ -88.415011905, 31.217437498 ], [ -88.414931901, 31.217276998 ], [ -88.414664902, 31.216314897 ], [ -88.414450303, 31.213840298 ], [ -88.414076202, 31.212213598 ], [ -88.414022803, 31.211801194 ] ] } },
{ "type": "Feature", "properties": { "site_no": "02479431", "nhdplus_comid": "18092069", "navigation_mode": "UM", "requested_distance_km": 12.0, "start_source": "nwissite", "start_id": "USGS-02479431", "geometry_length_km": 0.68996308539724627 }, "geometry": { "type": "LineString", "coordinates": [ [ -88.417681001, 31.222591899 ], [ -88.417281106, 31.222546197 ], [ -88.416320905, 31.222225897 ], [ -88.415920906, 31.221996896 ], [ -88.4156541, 31.221584596 ], [ -88.415760405, 31.221126296 ], [ -88.415946603, 31.220095098 ], [ -88.415972903, 31.219522297 ], [ -88.415786006, 31.2189494 ], [ -88.4155991, 31.2186746 ], [ -88.415572502, 31.218582898 ], [ -88.415465705, 31.218422495 ], [ -88.415492401, 31.218330793 ], [ -88.415359005, 31.218193494 ], [ -88.415358901, 31.218101799 ], [ -88.415252201, 31.218055993 ], [ -88.415225506, 31.217849799 ], [ -88.415092103, 31.217758194 ] ] } },
{ "type": "Feature", "properties": { "site_no": "02479431", "nhdplus_comid": "18092649", "navigation_mode": "UM", "requested_distance_km": 12.0, "start_source": "nwissite", "start_id": "USGS-02479431", "geometry_length_km": 1.3800437416360281 }, "geometry": { "type": "LineString", "coordinates": [ [ -88.424539201, 31.232029498 ], [ -88.424539104, 31.231846198 ], [ -88.4244055, 31.231456697 ], [ -88.424325205, 31.230860896 ], [ -88.424004801, 31.230356894 ], [ -88.423657507, 31.229142696 ], [ -88.423604101, 31.229096897 ], [ -88.423604101, 31.2290053 ], [ -88.423577406, 31.228959396 ], [ -88.423123106, 31.227424495 ], [ -88.423016205, 31.227080896 ], [ -88.422882706, 31.226737194 ], [ -88.422802605, 31.2264852 ], [ -88.422722407, 31.226164497 ], [ -88.422535501, 31.225820795 ], [ -88.421762004, 31.225271195 ], [ -88.421708301, 31.224721298 ], [ -88.421548106, 31.224446394 ], [ -88.421281204, 31.223919496 ], [ -88.419600807, 31.222751595 ], [ -88.418694004, 31.222408198 ], [ -88.418134101, 31.222385496 ], [ -88.417814307, 31.222477295 ], [ -88.417681001, 31.222591899 ] ] } },
{ "type": "Feature", "properties": { "site_no": "02479431", "nhdplus_comid": "18092617", "navigation_mode": "UM", "requested_distance_km": 12.0, "start_source": "nwissite", "start_id": "USGS-02479431", "geometry_length_km": 2.6116133616234665 }, "geometry": { "type": "LineString", "coordinates": [ [ -88.436272703, 31.2503208 ], [ -88.436232306, 31.250170998 ], [ -88.436178304, 31.249391899 ], [ -88.436070904, 31.248521298 ], [ -88.435990803, 31.248498395 ], [ -88.435935803, 31.246230096 ], [ -88.435828805, 31.245817699 ], [ -88.435668401, 31.245336697 ], [ -88.435534507, 31.244511895 ], [ -88.435400903, 31.244122393 ], [ -88.435373902, 31.243664093 ], [ -88.4352668, 31.243137196 ], [ -88.435160004, 31.242907993 ], [ -88.435159303, 31.241945699 ], [ -88.435052507, 31.2417854 ], [ -88.4347855, 31.241418898 ], [ -88.434705503, 31.241327293 ], [ -88.434518501, 31.240983695 ], [ -88.4343848, 31.2404797 ], [ -88.434331402, 31.240433894 ], [ -88.434224501, 31.240113199 ], [ -88.434037507, 31.239654996 ], [ -88.433504105, 31.239449099 ], [ -88.432997003, 31.238968097 ], [ -88.432810202, 31.2386932 ], [ -88.432596304, 31.237937197 ], [ -88.432543002, 31.237914398 ], [ -88.432569601, 31.237799793 ], [ -88.4322225, 31.237181298 ], [ -88.432089105, 31.237043895 ], [ -88.432088904, 31.236929297 ], [ -88.432035603, 31.236860596 ], [ -88.4319821, 31.236700296 ], [ -88.431715004, 31.236081794 ], [ -88.431181103, 31.235188395 ], [ -88.430967405, 31.234638594 ], [ -88.430913903, 31.234386593 ], [ -88.430833705, 31.2341346 ], [ -88.430646904, 31.233928494 ], [ -88.429926805, 31.233859994 ], [ -88.428593002, 31.233219095 ], [ -88.427659601, 31.232944593 ], [ -88.426806301, 31.232921995 ], [ -88.426033102, 31.232991099 ], [ -88.425659604, 31.232807994 ], [ -88.424699105, 31.232029296 ], [ -88.424539201, 31.232029498 ] ] } }
]
}
