{
"type": "FeatureCollection",
"name": "USGS_02401470_UM_12km",
"crs": { "type": "name", "properties": { "name": "urn:ogc:def:crs:OGC:1.3:CRS84" } },
"features": [
{ "type": "Feature", "properties": { "site_no": "02401470", "nhdplus_comid": "22203003", "navigation_mode": "UM", "requested_distance_km": 12.0, "start_source": "nwissite", "start_id": "USGS-02401470", "geometry_length_km": 3.0197314097612558 }, "geometry": { "type": "LineString", "coordinates": [ [ -86.1898093, 33.983407095 ], [ -86.189726107, 33.982421994 ], [ -86.190466605, 33.979558297 ], [ -86.190493606, 33.978779495 ], [ -86.190355904, 33.978481799 ], [ -86.189612806, 33.977634594 ], [ -86.189612605, 33.977313899 ], [ -86.1898323, 33.976878494 ], [ -86.190271802, 33.976282798 ], [ -86.192085102, 33.974357694 ], [ -86.192579404, 33.973624393 ], [ -86.192661606, 33.973234795 ], [ -86.192469001, 33.973097496 ], [ -86.1918092, 33.973006196 ], [ -86.190929502, 33.973212793 ], [ -86.1900497, 33.973281994 ], [ -86.189252205, 33.9730075 ], [ -86.188619405, 33.972457998 ], [ -86.188151605, 33.971793897 ], [ -86.187766001, 33.970740497 ], [ -86.187463403, 33.970465697 ], [ -86.187188402, 33.970442899 ], [ -86.186803602, 33.970580496 ], [ -86.186501302, 33.970878497 ], [ -86.1861718, 33.971451193 ], [ -86.185759701, 33.971840896 ], [ -86.185265005, 33.972070098 ], [ -86.184687704, 33.972184993 ], [ -86.184137702, 33.972070694 ], [ -86.181552507, 33.9710868 ], [ -86.180645205, 33.970858097 ], [ -86.179737702, 33.970537797 ], [ -86.179050103, 33.970011197 ], [ -86.177894704, 33.968843393 ], [ -86.177818261, 33.968720396 ] ] } },
{ "type": "Feature", "properties": { "site_no": "02401470", "nhdplus_comid": "22204619", "navigation_mode": "UM", "requested_distance_km": 12.0, "start_source": "nwissite", "start_id": "USGS-02401470", "geometry_length_km": 7.2125217170371325 }, "geometry": { "type": "LineString", "coordinates": [ [ -86.252087601, 33.965927996 ], [ -86.251537405, 33.966156393 ], [ -86.250546701, 33.966773897 ], [ -86.249979302, 33.967305094 ], [ -86.248935707, 33.968130894 ], [ -86.2479202, 33.969345897 ], [ -86.247262001, 33.970468998 ], [ -86.246795803, 33.971431494 ], [ -86.245641306, 33.971593 ], [ -86.245009802, 33.972189099 ], [ -86.244817704, 33.972487196 ], [ -86.244515605, 33.972716495 ], [ -86.242262103, 33.9735661 ], [ -86.239624307, 33.974942997 ], [ -86.238992602, 33.975401595 ], [ -86.238498703, 33.976249598 ], [ -86.238142505, 33.977143399 ], [ -86.237895504, 33.977532998 ], [ -86.237511002, 33.977831095 ], [ -86.236906305, 33.9780837 ], [ -86.235092007, 33.978451699 ], [ -86.234514907, 33.978749998 ], [ -86.231740505, 33.980974399 ], [ -86.230614603, 33.982326798 ], [ -86.230147503, 33.982602 ], [ -86.229432702, 33.982625499 ], [ -86.2280569, 33.981939398 ], [ -86.227699406, 33.981848098 ], [ -86.226819605, 33.981940396 ], [ -86.226242505, 33.982215695 ], [ -86.2250337, 33.983178794 ], [ -86.2245664, 33.983385198 ], [ -86.223329201, 33.983615294 ], [ -86.222862102, 33.983890496 ], [ -86.222532406, 33.984211497 ], [ -86.222175606, 33.984761499 ], [ -86.221708603, 33.985220097 ], [ -86.221104003, 33.985609896 ], [ -86.220691703, 33.985747598 ], [ -86.220031805, 33.985816896 ], [ -86.218601801, 33.9857492 ], [ -86.2181895, 33.985863999 ], [ -86.217557505, 33.986276798 ], [ -86.216788203, 33.986941598 ], [ -86.216320902, 33.987148099 ], [ -86.213268802, 33.987379298 ], [ -86.211453803, 33.9872659 ], [ -86.209610604, 33.986534193 ], [ -86.209198102, 33.986488596 ], [ -86.206558406, 33.9866964 ], [ -86.205018803, 33.9870409 ], [ -86.201664805, 33.988050796 ], [ -86.199355602, 33.988991395 ], [ -86.198723003, 33.988831393 ], [ -86.198365204, 33.988465093 ], [ -86.197759405, 33.987434499 ], [ -86.197511107, 33.986426793 ], [ -86.197510704, 33.985877 ], [ -86.197262801, 33.985350296 ], [ -86.197015107, 33.985098496 ], [ -86.196547605, 33.984961294 ], [ -86.194787405, 33.984801896 ], [ -86.193549804, 33.984481797 ], [ -86.1913772, 33.984070599 ], [ -86.1898093, 33.983407095 ] ] } },
{ "type": "Feature", "properties": { "site_no": "02401470", "nhdplus_comid": "22203005", "navigation_mode": "UM", "requested_distance_km": 12.0, "start_source": "nwissite", "start_id": "USGS-02401470", "geometry_length_km": 0.67210971813595666 }, "geometry": { "type": "LineString", "coordinates": [ [ -86.256232001, 33.970742695 ], [ -86.255902305, 33.970581993 ], [ -86.255545206, 33.970329694 ], [ -86.253211506, 33.968105294 ], [ -86.252937302, 33.967624098 ], [ -86.252389506, 33.966294795 ], [ -86.252087601, 33.965927996 ] ] } },
{ "type": "Feature", "properties": { "site_no": "02401470", "nhdplus_comid": "22202993", "navigation_mode": "UM", "requested_distance_km": 12.0, "start_source": "nwissite", "start_id": "USGS-02401470", "geometry_length_km": 2.9853587407635884 }, "geometry": { "type": "LineString", "coordinates": [ [ -86.275236502, 33.988513395 ], [ -86.274604104, 33.988398194 ], [ -86.274219401, 33.988237597 ], [ -86.273422502, 33.987732999 ], [ -86.272791006, 33.986930698 ], [ -86.272214502, 33.986151397 ], [ -86.271198004, 33.985348694 ], [ -86.270813905, 33.984706894 ], [ -86.270732306, 33.983973794 ], [ -86.271366306, 33.982783198 ], [ -86.271367103, 33.982187599 ], [ -86.271257401, 33.981912598 ], [ -86.271065205, 33.9816605 ], [ -86.269774005, 33.9806972 ], [ -86.2690055, 33.979619898 ], [ -86.268456906, 33.978542797 ], [ -86.267718606, 33.975403793 ], [ -86.265988402, 33.973867394 ], [ -86.264861904, 33.973270796 ], [ -86.263900705, 33.972376496 ], [ -86.263680905, 33.972284697 ], [ -86.262636304, 33.972146295 ], [ -86.261674702, 33.971595496 ], [ -86.260520302, 33.9713654 ], [ -86.258210905, 33.9712715 ], [ -86.256232001, 33.970742695 ] ] } }
]
}
