{
"type": "FeatureCollection",
"name": "USGS_02423397_DM_12km",
"crs": { "type": "name", "properties": { "name": "urn:ogc:def:crs:OGC:1.3:CRS84" } },
"features": [
{ "type": "Feature", "properties": { "site_no": "02423397", "nhdplus_comid": "21654312", "navigation_mode": "DM", "requested_distance_km": 12.0, "start_source": "nwissite", "start_id": "USGS-02423397", "geometry_length_km": 0.8737425510894965 }, "geometry": { "type": "LineString", "coordinates": [ [ -86.562486526, 33.534527113 ], [ -86.562752806, 33.533948198 ], [ -86.563218102, 33.533558898 ], [ -86.564230502, 33.533169895 ], [ -86.564613804, 33.532757796 ], [ -86.565052301, 33.531704195 ], [ -86.565572403, 33.531085797 ], [ -86.5663113, 33.530650996 ], [ -86.566667207, 33.530284494 ], [ -86.567077801, 33.5295057 ], [ -86.567215301, 33.528658099 ], [ -86.567516401, 33.528314598 ] ] } },
{ "type": "Feature", "properties": { "site_no": "02423397", "nhdplus_comid": "21654346", "navigation_mode": "DM", "requested_distance_km": 12.0, "start_source": "nwissite", "start_id": "USGS-02423397", "geometry_length_km": 4.3518708364086693 }, "geometry": { "type": "LineString", "coordinates": [ [ -86.567516401, 33.528314598 ], [ -86.569513105, 33.528384298 ], [ -86.570361204, 33.528338894 ], [ -86.570826307, 33.528178699 ], [ -86.5715378, 33.5277666 ], [ -86.572714202, 33.527240194 ], [ -86.573754102, 33.526438795 ], [ -86.575231701, 33.525660597 ], [ -86.575368606, 33.5253627 ], [ -86.575451106, 33.524629697 ], [ -86.575697504, 33.524217397 ], [ -86.576053202, 33.524034299 ], [ -86.577284202, 33.523828596 ], [ -86.5776399, 33.523691297 ], [ -86.577913605, 33.523278996 ], [ -86.577859104, 33.522981197 ], [ -86.577312402, 33.522385299 ], [ -86.577203304, 33.521881297 ], [ -86.576984607, 33.521331199 ], [ -86.576957606, 33.520872995 ], [ -86.577094406, 33.5205753 ], [ -86.577504806, 33.520323396 ], [ -86.578653701, 33.520003095 ], [ -86.579720706, 33.519522399 ], [ -86.580760002, 33.519637398 ], [ -86.581033602, 33.5195916 ], [ -86.581225201, 33.519225098 ], [ -86.5817177, 33.518812999 ], [ -86.5825385, 33.518354997 ], [ -86.582949102, 33.5175533 ], [ -86.583633207, 33.516934998 ], [ -86.584262706, 33.515950099 ], [ -86.584700502, 33.515583798 ], [ -86.586177707, 33.514919795 ], [ -86.586725004, 33.514163993 ], [ -86.587135404, 33.513866298 ], [ -86.587600306, 33.513774797 ], [ -86.5883388, 33.513843797 ], [ -86.588967703, 33.514118895 ], [ -86.590170704, 33.5150126 ], [ -86.590416804, 33.515104398 ], [ -86.590745002, 33.515104495 ], [ -86.591100603, 33.514898397 ], [ -86.5911007, 33.514600493 ], [ -86.590581201, 33.514348395 ], [ -86.590335205, 33.514073394 ], [ -86.590307906, 33.513775595 ], [ -86.590472102, 33.513409093 ], [ -86.590937302, 33.512973897 ], [ -86.592168204, 33.512149394 ], [ -86.592879407, 33.511828899 ], [ -86.593098305, 33.5116456 ], [ -86.5935634, 33.510889798 ], [ -86.593919203, 33.510523297 ], [ -86.594493605, 33.510179795 ], [ -86.595396407, 33.509446897 ], [ -86.596189603, 33.508736894 ], [ -86.597037606, 33.508278899 ], [ -86.597694002, 33.508072898 ] ] } },
{ "type": "Feature", "properties": { "site_no": "02423397", "nhdplus_comid": "21654362", "navigation_mode": "DM", "requested_distance_km": 12.0, "start_source": "nwissite", "start_id": "USGS-02423397", "geometry_length_km": 2.6983428992155858 }, "geometry": { "type": "LineString", "coordinates": [ [ -86.597694002, 33.508072898 ], [ -86.5981315, 33.508210495 ], [ -86.598596402, 33.508462496 ], [ -86.599525906, 33.509172998 ], [ -86.600728907, 33.5103186 ], [ -86.602178305, 33.510868795 ], [ -86.602862, 33.510891795 ], [ -86.603217505, 33.510777295 ], [ -86.603573106, 33.510502495 ], [ -86.6036826, 33.510204598 ], [ -86.603600606, 33.509929694 ], [ -86.602397501, 33.509287998 ], [ -86.602206104, 33.509081796 ], [ -86.602178805, 33.508669496 ], [ -86.602862902, 33.507363699 ], [ -86.6033279, 33.506676495 ], [ -86.603656106, 33.506607793 ], [ -86.604121007, 33.506745398 ], [ -86.604558602, 33.506768398 ], [ -86.604832001, 33.506699696 ], [ -86.605215006, 33.506378993 ], [ -86.605734803, 33.5057147 ], [ -86.606227204, 33.504569195 ], [ -86.606500603, 33.504340194 ], [ -86.607430503, 33.503950894 ], [ -86.607567206, 33.503767595 ], [ -86.607485302, 33.503400996 ], [ -86.607239202, 33.503080197 ], [ -86.607157305, 33.502782397 ], [ -86.607239403, 33.502324194 ], [ -86.607759103, 33.5013621 ], [ -86.608333506, 33.500903994 ], [ -86.609044507, 33.500881195 ], [ -86.609700702, 33.5012936 ], [ -86.610028706, 33.5018664 ], [ -86.610329606, 33.502026796 ], [ -86.610657707, 33.502026893 ], [ -86.6112867, 33.501751997 ], [ -86.612408005, 33.500675395 ], [ -86.612763502, 33.500110999 ] ] } },
{ "type": "Feature", "properties": { "site_no": "02423397", "nhdplus_comid": "21656674", "navigation_mode": "DM", "requested_distance_km": 12.0, "start_source": "nwissite", "start_id": "USGS-02423397", "geometry_length_km": 0.11828747778468354 }, "geometry": { "type": "LineString", "coordinates": [ [ -86.612763502, 33.500110999 ], [ -86.614045307, 33.500110395 ] ] } },
{ "type": "Feature", "properties": { "site_no": "02423397", "nhdplus_comid": "21655328", "navigation_mode": "DM", "requested_distance_km": 12.0, "start_source": "nwissite", "start_id": "USGS-02423397", "geometry_length_km": 1.1295958673295681 }, "geometry": { "type": "LineString", "coordinates": [ [ -86.614045307, 33.500110395 ], [ -86.614947803, 33.499183193 ], [ -86.615276001, 33.498702198 ], [ -86.615412705, 33.498221099 ], [ -86.615522303, 33.497235999 ], [ -86.617299803, 33.494670294 ], [ -86.618311703, 33.492814697 ], [ -86.619022705, 33.491692193 ], [ -86.619679101, 33.491371498 ] ] } },
{ "type": "Feature", "properties": { "site_no": "02423397", "nhdplus_comid": "21656566", "navigation_mode": "DM", "requested_distance_km": 12.0, "start_source": "nwissite", "start_id": "USGS-02423397", "geometry_length_km": 1.1173830238527489 }, "geometry": { "type": "LineString", "coordinates": [ [ -86.619679101, 33.491371498 ], [ -86.619729601, 33.491141796 ], [ -86.620927706, 33.489802696 ], [ -86.620972604, 33.489428394 ], [ -86.619884506, 33.488331594 ], [ -86.619974203, 33.487583198 ], [ -86.621120505, 33.486921094 ], [ -86.621165402, 33.486546896 ], [ -86.622160703, 33.4858725 ], [ -86.622220501, 33.485373497 ], [ -86.621963404, 33.484974593 ], [ -86.6221404, 33.482969098 ] ] } },
{ "type": "Feature", "properties": { "site_no": "02423397", "nhdplus_comid": "21656568", "navigation_mode": "DM", "requested_distance_km": 12.0, "start_source": "nwissite", "start_id": "USGS-02423397", "geometry_length_km": 0.055156209355932136 }, "geometry": { "type": "LineString", "coordinates": [ [ -86.6221404, 33.482969098 ], [ -86.622685201, 33.482766196 ] ] } },
{ "type": "Feature", "properties": { "site_no": "02423397", "nhdplus_comid": "21656572", "navigation_mode": "DM", "requested_distance_km": 12.0, "start_source": "nwissite", "start_id": "USGS-02423397", "geometry_length_km": 4.6625854001630147 }, "geometry": { "type": "LineString", "coordinates": [ [ -86.622685201, 33.482766196 ], [ -86.623017006, 33.482541397 ], [ -86.625553101, 33.4830008 ], [ -86.625884801, 33.482775994 ], [ -86.626019202, 33.481653295 ], [ -86.626516901, 33.481316097 ], [ -86.628387801, 33.480965197 ], [ -86.629051305, 33.480515599 ], [ -86.630786203, 33.480027594 ], [ -86.631932303, 33.479365394 ], [ -86.634271003, 33.478926696 ], [ -86.6367587, 33.477240495 ], [ -86.637526602, 33.475917496 ], [ -86.640405506, 33.4735073 ], [ -86.641490005, 33.472084299 ], [ -86.641549602, 33.471585296 ], [ -86.642527804, 33.469775595 ], [ -86.642889306, 33.469301298 ], [ -86.644381702, 33.468289398 ], [ -86.646343604, 33.468449496 ], [ -86.647597507, 33.469433695 ], [ -86.648322307, 33.469744794 ], [ -86.651340701, 33.469990999 ], [ -86.653827801, 33.468304396 ], [ -86.654731303, 33.467118397 ], [ -86.6564041, 33.465869196 ], [ -86.6572778, 33.464932598 ], [ -86.660111107, 33.462896198 ] ] } }
]
}
