{
"type": "FeatureCollection",
"name": "USGS_02423398_UM_12km",
"crs": { "type": "name", "properties": { "name": "urn:ogc:def:crs:OGC:1.3:CRS84" } },
"features": [
{ "type": "Feature", "properties": { "site_no": "02423398", "nhdplus_comid": "21654346", "navigation_mode": "UM", "requested_distance_km": 12.0, "start_source": "nwissite", "start_id": "USGS-02423398", "geometry_length_km": 0.93793650901373227 }, "geometry": { "type": "LineString", "coordinates": [ [ -86.567516401, 33.528314598 ], [ -86.569513105, 33.528384298 ], [ -86.570361204, 33.528338894 ], [ -86.570826307, 33.528178699 ], [ -86.5715378, 33.5277666 ], [ -86.572714202, 33.527240194 ], [ -86.573754102, 33.526438795 ], [ -86.575231701, 33.525660597 ], [ -86.575368606, 33.5253627 ], [ -86.575451106, 33.524629697 ], [ -86.575520331, 33.524513861 ] ] } },
{ "type": "Feature", "properties": { "site_no": "02423398", "nhdplus_comid": "21654312", "navigation_mode": "UM", "requested_distance_km": 12.0, "start_source": "nwissite", "start_id": "USGS-02423398", "geometry_length_km": 0.91293640278954591 }, "geometry": { "type": "LineString", "coordinates": [ [ -86.562369101, 33.534864299 ], [ -86.5624789, 33.534543693 ], [ -86.562752806, 33.533948198 ], [ -86.563218102, 33.533558898 ], [ -86.564230502, 33.533169895 ], [ -86.564613804, 33.532757796 ], [ -86.565052301, 33.531704195 ], [ -86.565572403, 33.531085797 ], [ -86.5663113, 33.530650996 ], [ -86.566667207, 33.530284494 ], [ -86.567077801, 33.5295057 ], [ -86.567215301, 33.528658099 ], [ -86.567516401, 33.528314598 ] ] } },
{ "type": "Feature", "properties": { "site_no": "02423398", "nhdplus_comid": "21654428", "navigation_mode": "UM", "requested_distance_km": 12.0, "start_source": "nwissite", "start_id": "USGS-02423398", "geometry_length_km": 10.215834585392175 }, "geometry": { "type": "LineString", "coordinates": [ [ -86.487654805, 33.594350398 ], [ -86.488968, 33.5936848 ], [ -86.489597104, 33.593294799 ], [ -86.490937106, 33.592262596 ], [ -86.492605604, 33.591344595 ], [ -86.495886706, 33.588615298 ], [ -86.497034602, 33.587308399 ], [ -86.497608006, 33.586414397 ], [ -86.498428106, 33.585588895 ], [ -86.499247506, 33.584442593 ], [ -86.499985605, 33.583754495 ], [ -86.501078002, 33.582996294 ], [ -86.502037406, 33.581989199 ], [ -86.5020945, 33.580294095 ], [ -86.502259105, 33.580065094 ], [ -86.502505705, 33.579927899 ], [ -86.503244705, 33.579905696 ], [ -86.504256703, 33.580387793 ], [ -86.505268902, 33.580732398 ], [ -86.505871102, 33.580710098 ], [ -86.506665401, 33.580252796 ], [ -86.508363403, 33.579544194 ], [ -86.509102903, 33.579063796 ], [ -86.510911405, 33.577599198 ], [ -86.512335502, 33.5768217 ], [ -86.514471501, 33.575930096 ], [ -86.5149647, 33.575518295 ], [ -86.515184306, 33.575037293 ], [ -86.515622601, 33.574625395 ], [ -86.516553901, 33.574030593 ], [ -86.5172664, 33.573366798 ], [ -86.517979205, 33.572267793 ], [ -86.518609002, 33.571947597 ], [ -86.519649103, 33.571833998 ], [ -86.519922905, 33.571742594 ], [ -86.521457002, 33.570460893 ], [ -86.5225797, 33.5699578 ], [ -86.523072705, 33.569545798 ], [ -86.5234017, 33.569064997 ], [ -86.523594104, 33.568354994 ], [ -86.5243892, 33.5671186 ], [ -86.5243899, 33.566545896 ], [ -86.524773702, 33.565881796 ], [ -86.525431506, 33.565080494 ], [ -86.526362903, 33.564210698 ], [ -86.527541302, 33.562699594 ], [ -86.528638206, 33.560684495 ], [ -86.528830603, 33.5597452 ], [ -86.5292693, 33.558966696 ], [ -86.530913204, 33.5570665 ], [ -86.531570606, 33.556494296 ], [ -86.532665707, 33.555922396 ], [ -86.535731502, 33.554756194 ], [ -86.540221207, 33.552331097 ], [ -86.541535802, 33.551163599 ], [ -86.543206401, 33.549263097 ], [ -86.543480702, 33.548621893 ], [ -86.5438914, 33.548347197 ], [ -86.545095101, 33.548370898 ], [ -86.545916207, 33.548119396 ], [ -86.546710104, 33.547638893 ], [ -86.548900403, 33.545944899 ], [ -86.5507349, 33.5442966 ], [ -86.551145501, 33.544090599 ], [ -86.551802106, 33.544022299 ], [ -86.552321903, 33.544068493 ], [ -86.553799801, 33.543359093 ], [ -86.555031203, 33.543061994 ], [ -86.556727901, 33.542467296 ], [ -86.557987005, 33.541826598 ], [ -86.559027106, 33.541116893 ], [ -86.560286403, 33.539995 ], [ -86.561053105, 33.538849793 ], [ -86.561108001, 33.538551994 ], [ -86.561656006, 33.537567198 ], [ -86.562505506, 33.535551697 ], [ -86.562451206, 33.534978896 ], [ -86.562369101, 33.534864299 ] ] } }
]
}
