{
"type": "FeatureCollection",
"name": "USGS_02463500_DM_12km",
"crs": { "type": "name", "properties": { "name": "urn:ogc:def:crs:OGC:1.3:CRS84" } },
"features": [
{ "type": "Feature", "properties": { "site_no": "02463500", "nhdplus_comid": "18229243", "navigation_mode": "DM", "requested_distance_km": 12.0, "start_source": "nwissite", "start_id": "USGS-02463500", "geometry_length_km": 3.1249431957147404 }, "geometry": { "type": "LineString", "coordinates": [ [ -87.447117551, 33.21105826 ], [ -87.447337702, 33.211123794 ], [ -87.447746806, 33.211352594 ], [ -87.448019803, 33.211993895 ], [ -87.448183805, 33.212520793 ], [ -87.448674701, 33.2129329 ], [ -87.451755904, 33.214305595 ], [ -87.4522193, 33.214396894 ], [ -87.454181701, 33.214372799 ], [ -87.454971701, 33.213982694 ], [ -87.455135003, 33.213615999 ], [ -87.455133207, 33.211851895 ], [ -87.455432504, 33.211210199 ], [ -87.455895007, 33.210430995 ], [ -87.456357501, 33.209491298 ], [ -87.456574902, 33.208780997 ], [ -87.456711002, 33.208574697 ], [ -87.456737801, 33.208253898 ], [ -87.456982605, 33.207612194 ], [ -87.457418002, 33.206947595 ], [ -87.457744807, 33.2066954 ], [ -87.458099, 33.206649199 ], [ -87.458753206, 33.206740394 ], [ -87.459244005, 33.206946298 ], [ -87.459707707, 33.207358398 ], [ -87.459953301, 33.207724795 ], [ -87.460090004, 33.208114095 ], [ -87.460092403, 33.2105655 ], [ -87.460283406, 33.210794598 ], [ -87.460746802, 33.210931696 ], [ -87.461700507, 33.210724793 ], [ -87.462735906, 33.210334599 ], [ -87.463635102, 33.210196599 ], [ -87.464970604, 33.210195497 ], [ -87.465434104, 33.210401498 ], [ -87.465379901, 33.210745096 ], [ -87.464672804, 33.212120295 ], [ -87.464646004, 33.212463893 ] ] } },
{ "type": "Feature", "properties": { "site_no": "02463500", "nhdplus_comid": "18228745", "navigation_mode": "DM", "requested_distance_km": 12.0, "start_source": "nwissite", "start_id": "USGS-02463500", "geometry_length_km": 1.3903461268803821 }, "geometry": { "type": "LineString", "coordinates": [ [ -87.464646004, 33.212463893 ], [ -87.464238003, 33.213357799 ], [ -87.463965707, 33.213632897 ], [ -87.463666104, 33.213793494 ], [ -87.462930404, 33.2139773 ], [ -87.461132303, 33.214734696 ], [ -87.460914403, 33.214918099 ], [ -87.460560806, 33.215605594 ], [ -87.460425101, 33.216201395 ], [ -87.4597449, 33.2174161 ], [ -87.458383605, 33.218975 ], [ -87.458247602, 33.219249994 ], [ -87.458275102, 33.219570696 ], [ -87.458384305, 33.219708197 ], [ -87.459175006, 33.220028296 ], [ -87.4596112, 33.2201197 ], [ -87.460919604, 33.220141694 ], [ -87.461737603, 33.220255598 ] ] } },
{ "type": "Feature", "properties": { "site_no": "02463500", "nhdplus_comid": "18228707", "navigation_mode": "DM", "requested_distance_km": 12.0, "start_source": "nwissite", "start_id": "USGS-02463500", "geometry_length_km": 3.8498072455418706 }, "geometry": { "type": "LineString", "coordinates": [ [ -87.461737603, 33.220255598 ], [ -87.4626645, 33.220392399 ], [ -87.464163803, 33.220482998 ], [ -87.465745002, 33.220756695 ], [ -87.466481306, 33.2210541 ], [ -87.4671361, 33.2216492 ], [ -87.467518404, 33.222221695 ], [ -87.4681205, 33.224558197 ], [ -87.468202807, 33.225039296 ], [ -87.4685039, 33.226115793 ], [ -87.468968503, 33.227238096 ], [ -87.469132707, 33.227810696 ], [ -87.469133504, 33.228497997 ], [ -87.469052002, 33.228749998 ], [ -87.468479902, 33.229185797 ], [ -87.467635207, 33.229484297 ], [ -87.464282706, 33.230059594 ], [ -87.4634922, 33.230060197 ], [ -87.4628378, 33.229923196 ], [ -87.461065203, 33.229351595 ], [ -87.460247606, 33.229443796 ], [ -87.460056804, 33.229581393 ], [ -87.459948003, 33.229833499 ], [ -87.459949002, 33.230772793 ], [ -87.460330904, 33.231001794 ], [ -87.461067207, 33.231207393 ], [ -87.461612903, 33.231688097 ], [ -87.462132104, 33.233016595 ], [ -87.462214001, 33.233062297 ], [ -87.462214105, 33.233199798 ], [ -87.463388301, 33.235008895 ], [ -87.463334307, 33.235581696 ], [ -87.462844901, 33.236796297 ], [ -87.4624639, 33.237460993 ], [ -87.462218605, 33.237552799 ], [ -87.461973205, 33.237530097 ], [ -87.4600095, 33.236775398 ], [ -87.459082402, 33.236592799 ], [ -87.4574195, 33.2366855 ], [ -87.456520006, 33.236915298 ] ] } },
{ "type": "Feature", "properties": { "site_no": "02463500", "nhdplus_comid": "18229205", "navigation_mode": "DM", "requested_distance_km": 12.0, "start_source": "nwissite", "start_id": "USGS-02463500", "geometry_length_km": 3.1527251812437336 }, "geometry": { "type": "LineString", "coordinates": [ [ -87.456520006, 33.236915298 ], [ -87.456356704, 33.237190299 ], [ -87.456411801, 33.237808898 ], [ -87.457612902, 33.239365995 ], [ -87.457995802, 33.240557 ], [ -87.457941905, 33.241267197 ], [ -87.457615301, 33.241794497 ], [ -87.457125001, 33.242367499 ], [ -87.455762506, 33.2431245 ], [ -87.455272205, 33.243605994 ], [ -87.455217801, 33.243743494 ], [ -87.4553544, 33.2440641 ], [ -87.456636302, 33.2444527 ], [ -87.459254302, 33.245069496 ], [ -87.459881403, 33.244977497 ], [ -87.460126504, 33.244725294 ], [ -87.460180804, 33.244473197 ], [ -87.460262604, 33.244427294 ], [ -87.460398301, 33.243900299 ], [ -87.460533306, 33.242525496 ], [ -87.460832804, 33.242135793 ], [ -87.461105406, 33.242066897 ], [ -87.461869001, 33.242318399 ], [ -87.4624964, 33.242661595 ], [ -87.463288002, 33.243485793 ], [ -87.464025207, 33.244493298 ], [ -87.464599401, 33.246073797 ], [ -87.464519106, 33.247517198 ], [ -87.464056805, 33.248663098 ], [ -87.463294804, 33.250129893 ], [ -87.462828405, 33.250743397 ], [ -87.462120004, 33.251385398 ], [ -87.460893802, 33.252210997 ], [ -87.460839503, 33.252417199 ] ] } }
]
}
