{
"type": "FeatureCollection",
"name": "USGS_02371500_UM_12km",
"crs": { "type": "name", "properties": { "name": "urn:ogc:def:crs:OGC:1.3:CRS84" } },
"features": [
{ "type": "Feature", "properties": { "site_no": "02371500", "nhdplus_comid": "2377281", "navigation_mode": "UM", "requested_distance_km": 12.0, "start_source": "nwissite", "start_id": "USGS-02371500", "geometry_length_km": 0.66302632013427865 }, "geometry": { "type": "LineString", "coordinates": [ [ -86.246340901, 31.575417496 ], [ -86.2469832, 31.575325295 ], [ -86.248669602, 31.575438298 ], [ -86.248776503, 31.575300694 ], [ -86.248802602, 31.574727699 ], [ -86.248962902, 31.5745214 ], [ -86.249551401, 31.5742229 ], [ -86.249951802, 31.573374599 ], [ -86.250496604, 31.573026195 ], [ -86.251004905, 31.573187195 ], [ -86.251160125, 31.573611649 ] ] } },
{ "type": "Feature", "properties": { "site_no": "02371500", "nhdplus_comid": "2376927", "navigation_mode": "UM", "requested_distance_km": 12.0, "start_source": "nwissite", "start_id": "USGS-02371500", "geometry_length_km": 0.46389245027204079 }, "geometry": { "type": "LineString", "coordinates": [ [ -86.245409206, 31.579359896 ], [ -86.246290304, 31.577548794 ], [ -86.246583305, 31.576631896 ], [ -86.246636301, 31.576173499 ], [ -86.246340901, 31.575417496 ] ] } },
{ "type": "Feature", "properties": { "site_no": "02371500", "nhdplus_comid": "2376925", "navigation_mode": "UM", "requested_distance_km": 12.0, "start_source": "nwissite", "start_id": "USGS-02371500", "geometry_length_km": 0.6822316507054893 }, "geometry": { "type": "LineString", "coordinates": [ [ -86.242360003, 31.581287697 ], [ -86.242574103, 31.581218697 ], [ -86.242653407, 31.580439493 ], [ -86.242519304, 31.580210499 ], [ -86.242411301, 31.579431497 ], [ -86.242518105, 31.579202197 ], [ -86.243508101, 31.578926295 ], [ -86.243615106, 31.578811593 ], [ -86.243748002, 31.578146994 ], [ -86.243881702, 31.578055196 ], [ -86.244122803, 31.578192495 ], [ -86.244605906, 31.579131596 ], [ -86.244847007, 31.579291694 ], [ -86.245409206, 31.579359896 ] ] } },
{ "type": "Feature", "properties": { "site_no": "02371500", "nhdplus_comid": "2377279", "navigation_mode": "UM", "requested_distance_km": 12.0, "start_source": "nwissite", "start_id": "USGS-02371500", "geometry_length_km": 2.400913878953308 }, "geometry": { "type": "LineString", "coordinates": [ [ -86.222286701, 31.5843063 ], [ -86.222848907, 31.584328696 ], [ -86.223116502, 31.584236898 ], [ -86.223410703, 31.584007494 ], [ -86.2238115, 31.583342597 ], [ -86.224426605, 31.582815096 ], [ -86.225015305, 31.582585499 ], [ -86.225577302, 31.582539193 ], [ -86.225898705, 31.582630694 ], [ -86.226033106, 31.583111696 ], [ -86.226220705, 31.583317898 ], [ -86.226488404, 31.5833406 ], [ -86.226622202, 31.583248794 ], [ -86.226728506, 31.582584195 ], [ -86.226835504, 31.582469493 ], [ -86.227263704, 31.582377493 ], [ -86.227799304, 31.582514599 ], [ -86.229271606, 31.582604997 ], [ -86.229673304, 31.582787998 ], [ -86.230048105, 31.5827877 ], [ -86.231065504, 31.582970195 ], [ -86.231734805, 31.582992598 ], [ -86.232082605, 31.582877696 ], [ -86.232457004, 31.582579494 ], [ -86.233071901, 31.581914499 ], [ -86.233499907, 31.581593193 ], [ -86.234115504, 31.581455298 ], [ -86.2351861, 31.581408598 ], [ -86.235587701, 31.5814998 ], [ -86.2360963, 31.581430696 ], [ -86.236203305, 31.581338897 ], [ -86.236228801, 31.580261894 ], [ -86.236951001, 31.579825796 ], [ -86.2372187, 31.579848498 ], [ -86.237941906, 31.580260396 ], [ -86.238478102, 31.580855794 ], [ -86.239896506, 31.580556594 ], [ -86.2415566, 31.580967493 ], [ -86.242119104, 31.581287898 ], [ -86.242360003, 31.581287697 ] ] } },
{ "type": "Feature", "properties": { "site_no": "02371500", "nhdplus_comid": "2376921", "navigation_mode": "UM", "requested_distance_km": 12.0, "start_source": "nwissite", "start_id": "USGS-02371500", "geometry_length_km": 0.36369812443823707 }, "geometry": { "type": "LineString", "coordinates": [ [ -86.219156407, 31.586095899 ], [ -86.219959401, 31.585889094 ], [ -86.220869102, 31.585475996 ], [ -86.222286701, 31.5843063 ] ] } },
{ "type": "Feature", "properties": { "site_no": "02371500", "nhdplus_comid": "2377275", "navigation_mode": "UM", "requested_distance_km": 12.0, "start_source": "nwissite", "start_id": "USGS-02371500", "geometry_length_km": 2.9270084426992535 }, "geometry": { "type": "LineString", "coordinates": [ [ -86.199327201, 31.595183194 ], [ -86.199648306, 31.595114298 ], [ -86.199887902, 31.593532994 ], [ -86.200529605, 31.592409797 ], [ -86.200422503, 31.5923182 ], [ -86.200422406, 31.592180699 ], [ -86.200181305, 31.591997497 ], [ -86.200020403, 31.5917456 ], [ -86.200207107, 31.590783 ], [ -86.201383702, 31.589315698 ], [ -86.201544106, 31.588880196 ], [ -86.201409705, 31.5882845 ], [ -86.201650307, 31.587917693 ], [ -86.202051602, 31.5875967 ], [ -86.202613503, 31.587321296 ], [ -86.204674803, 31.587228395 ], [ -86.205317505, 31.587480195 ], [ -86.206843704, 31.587685399 ], [ -86.207352504, 31.587891296 ], [ -86.207700707, 31.588166095 ], [ -86.207834907, 31.588555597 ], [ -86.208156407, 31.5888533 ], [ -86.208584704, 31.588830099 ], [ -86.209200203, 31.588623397 ], [ -86.210057005, 31.588714495 ], [ -86.2103246, 31.588622697 ], [ -86.211020701, 31.588599399 ], [ -86.211368807, 31.588759497 ], [ -86.211369202, 31.589080393 ], [ -86.211583607, 31.589401096 ], [ -86.211931705, 31.589446597 ], [ -86.212573804, 31.588987894 ], [ -86.212894604, 31.588575199 ], [ -86.212706804, 31.588185698 ], [ -86.212759703, 31.587543994 ], [ -86.213188, 31.587452099 ], [ -86.2149278, 31.587221697 ], [ -86.215837702, 31.586900294 ], [ -86.219156407, 31.586095899 ] ] } },
{ "type": "Feature", "properties": { "site_no": "02371500", "nhdplus_comid": "2376907", "navigation_mode": "UM", "requested_distance_km": 12.0, "start_source": "nwissite", "start_id": "USGS-02371500", "geometry_length_km": 1.3677586871625229 }, "geometry": { "type": "LineString", "coordinates": [ [ -86.193146005, 31.599769697 ], [ -86.193360202, 31.599677898 ], [ -86.193574101, 31.599356994 ], [ -86.193573803, 31.598898694 ], [ -86.1933861, 31.598577999 ], [ -86.193332307, 31.598142594 ], [ -86.193519704, 31.598073795 ], [ -86.193921506, 31.598394297 ], [ -86.194216006, 31.5983942 ], [ -86.194215506, 31.597752593 ], [ -86.193813205, 31.597019494 ], [ -86.193813004, 31.596607 ], [ -86.193893202, 31.596469499 ], [ -86.194214404, 31.596377693 ], [ -86.194616005, 31.596514896 ], [ -86.1949642, 31.596514799 ], [ -86.195365407, 31.596033394 ], [ -86.1968906, 31.594932593 ], [ -86.197158001, 31.594519995 ], [ -86.197425105, 31.593740597 ], [ -86.197799802, 31.593511194 ], [ -86.198388703, 31.593487993 ], [ -86.198683307, 31.593556598 ], [ -86.198790506, 31.5937398 ], [ -86.1987646, 31.594748199 ], [ -86.199086204, 31.595091596 ], [ -86.199327201, 31.595183194 ] ] } },
{ "type": "Feature", "properties": { "site_no": "02371500", "nhdplus_comid": "2376901", "navigation_mode": "UM", "requested_distance_km": 12.0, "start_source": "nwissite", "start_id": "USGS-02371500", "geometry_length_km": 1.1492297028832215 }, "geometry": { "type": "LineString", "coordinates": [ [ -86.185679302, 31.604700096 ], [ -86.186161004, 31.6043332 ], [ -86.186642803, 31.604057997 ], [ -86.187579803, 31.603965893 ], [ -86.188115202, 31.603759497 ], [ -86.188329101, 31.603484295 ], [ -86.188623101, 31.6026363 ], [ -86.189345002, 31.601146497 ], [ -86.189693101, 31.601146296 ], [ -86.190014705, 31.6015357 ], [ -86.190309301, 31.601627193 ], [ -86.190844804, 31.601627 ], [ -86.191379905, 31.6012142 ], [ -86.1921819, 31.599403493 ], [ -86.1925833, 31.59922 ], [ -86.193146005, 31.599769697 ] ] } },
{ "type": "Feature", "properties": { "site_no": "02371500", "nhdplus_comid": "2376895", "navigation_mode": "UM", "requested_distance_km": 12.0, "start_source": "nwissite", "start_id": "USGS-02371500", "geometry_length_km": 1.0105076567036375 }, "geometry": { "type": "LineString", "coordinates": [ [ -86.184103504, 31.6108879 ], [ -86.184049703, 31.610521294 ], [ -86.183353007, 31.609948695 ], [ -86.183352806, 31.609490395 ], [ -86.183780901, 31.608940296 ], [ -86.1837807, 31.608596593 ], [ -86.183057703, 31.608573996 ], [ -86.182977304, 31.608321898 ], [ -86.183646105, 31.607405096 ], [ -86.183994107, 31.607313298 ], [ -86.184556507, 31.607496299 ], [ -86.184556305, 31.607037999 ], [ -86.184877306, 31.606739894 ], [ -86.185653903, 31.606739499 ], [ -86.185734101, 31.606624894 ], [ -86.1857071, 31.606258295 ], [ -86.185492702, 31.605868794 ], [ -86.1854655, 31.605295993 ], [ -86.185679302, 31.604700096 ] ] } },
{ "type": "Feature", "properties": { "site_no": "02371500", "nhdplus_comid": "2377261", "navigation_mode": "UM", "requested_distance_km": 12.0, "start_source": "nwissite", "start_id": "USGS-02371500", "geometry_length_km": 1.0811251818784584 }, "geometry": { "type": "LineString", "coordinates": [ [ -86.178938001, 31.615266897 ], [ -86.178696901, 31.615083694 ], [ -86.178777002, 31.614716999 ], [ -86.179767802, 31.614602 ], [ -86.179794401, 31.614349894 ], [ -86.179687105, 31.614075094 ], [ -86.179017507, 31.613777399 ], [ -86.179070905, 31.613456495 ], [ -86.179980807, 31.6125855 ], [ -86.180382304, 31.612287298 ], [ -86.180891305, 31.612653799 ], [ -86.181346506, 31.612653598 ], [ -86.181908704, 31.612332597 ], [ -86.182470903, 31.612240598 ], [ -86.182953201, 31.612698793 ], [ -86.183542304, 31.612721398 ], [ -86.183783107, 31.612423398 ], [ -86.184077203, 31.61169 ], [ -86.184023604, 31.611644194 ], [ -86.184103504, 31.6108879 ] ] } }
]
}
