{
"type": "FeatureCollection",
"name": "USGS_0357587728_DM_12km",
"crs": { "type": "name", "properties": { "name": "urn:ogc:def:crs:OGC:1.3:CRS84" } },
"features": [
{ "type": "Feature", "properties": { "site_no": "0357587728", "nhdplus_comid": "19621334", "navigation_mode": "DM", "requested_distance_km": 12.0, "start_source": "nwissite", "start_id": "USGS-0357587728", "geometry_length_km": 1.7712805101527458 }, "geometry": { "type": "LineString", "coordinates": [ [ -86.574904922, 34.745797079 ], [ -86.575930305, 34.746316999 ], [ -86.576679505, 34.746408999 ], [ -86.578844003, 34.746409893 ], [ -86.580398202, 34.745952398 ], [ -86.5818137, 34.745380297 ], [ -86.582146905, 34.744968094 ], [ -86.583674707, 34.741990998 ], [ -86.583980002, 34.741761997 ], [ -86.584618203, 34.741716497 ], [ -86.585395001, 34.742083199 ], [ -86.586477101, 34.742220998 ], [ -86.587170802, 34.742106698 ], [ -86.588114403, 34.742084093 ], [ -86.589612804, 34.742176197 ], [ -86.590223305, 34.742016099 ], [ -86.590833902, 34.741718493 ] ] } },
{ "type": "Feature", "properties": { "site_no": "0357587728", "nhdplus_comid": "19619900", "navigation_mode": "DM", "requested_distance_km": 12.0, "start_source": "nwissite", "start_id": "USGS-0357587728", "geometry_length_km": 2.202846993470164 }, "geometry": { "type": "LineString", "coordinates": [ [ -86.590833902, 34.741718493 ], [ -86.591278307, 34.740573399 ], [ -86.591861203, 34.740069598 ], [ -86.592277601, 34.739840694 ], [ -86.593304604, 34.739016294 ], [ -86.5935544, 34.738649897 ], [ -86.593721107, 34.738146 ], [ -86.595580705, 34.736497395 ], [ -86.596135907, 34.735695697 ], [ -86.596691005, 34.735191993 ], [ -86.596941002, 34.734504893 ], [ -86.5968858, 34.733886495 ], [ -86.5961373, 34.7320996 ], [ -86.595582701, 34.731343493 ], [ -86.594695605, 34.729717098 ], [ -86.594224103, 34.729144394 ], [ -86.593919203, 34.728548698 ], [ -86.592089407, 34.725478798 ], [ -86.591867805, 34.724676996 ] ] } },
{ "type": "Feature", "properties": { "site_no": "0357587728", "nhdplus_comid": "19619926", "navigation_mode": "DM", "requested_distance_km": 12.0, "start_source": "nwissite", "start_id": "USGS-0357587728", "geometry_length_km": 0.73963379066336277 }, "geometry": { "type": "LineString", "coordinates": [ [ -86.591867805, 34.724676996 ], [ -86.592673004, 34.7230739 ], [ -86.593700401, 34.720669098 ], [ -86.594699904, 34.718722396 ], [ -86.594921805, 34.718585096 ] ] } },
{ "type": "Feature", "properties": { "site_no": "0357587728", "nhdplus_comid": "19620058", "navigation_mode": "DM", "requested_distance_km": 12.0, "start_source": "nwissite", "start_id": "USGS-0357587728", "geometry_length_km": 2.3137057217824815 }, "geometry": { "type": "LineString", "coordinates": [ [ -86.594921805, 34.718585096 ], [ -86.594811305, 34.717462599 ], [ -86.594395801, 34.715904996 ], [ -86.594230004, 34.714164093 ], [ -86.594509102, 34.709766194 ], [ -86.594787203, 34.7080255 ], [ -86.594815306, 34.707040593 ], [ -86.595205106, 34.703238398 ], [ -86.595621705, 34.7016121 ], [ -86.595871605, 34.701016694 ], [ -86.596455, 34.698084898 ] ] } },
{ "type": "Feature", "properties": { "site_no": "0357587728", "nhdplus_comid": "19620296", "navigation_mode": "DM", "requested_distance_km": 12.0, "start_source": "nwissite", "start_id": "USGS-0357587728", "geometry_length_km": 4.1527322318547446 }, "geometry": { "type": "LineString", "coordinates": [ [ -86.596455, 34.698084898 ], [ -86.5962888, 34.697649695 ], [ -86.596345402, 34.694053493 ], [ -86.596428804, 34.693709895 ], [ -86.596568801, 34.689861797 ], [ -86.59668, 34.689151794 ], [ -86.597512707, 34.687090397 ], [ -86.598067604, 34.686197199 ], [ -86.598788902, 34.685326993 ], [ -86.599482603, 34.683815397 ], [ -86.599843502, 34.682761796 ], [ -86.5998713, 34.682372399 ], [ -86.600482106, 34.679967396 ], [ -86.601342507, 34.677127294 ], [ -86.601814903, 34.673508398 ], [ -86.601871006, 34.6714468 ], [ -86.602232106, 34.669018894 ], [ -86.602232501, 34.667896494 ], [ -86.602426805, 34.667094797 ], [ -86.603092603, 34.665262498 ], [ -86.603702903, 34.663888194 ], [ -86.604590401, 34.662262097 ], [ -86.604812205, 34.662124798 ] ] } }
]
}
