{
"type": "FeatureCollection",
"name": "USGS_0242354750_UM_12km",
"crs": { "type": "name", "properties": { "name": "urn:ogc:def:crs:OGC:1.3:CRS84" } },
"features": [
{ "type": "Feature", "properties": { "site_no": "0242354750", "nhdplus_comid": "21655846", "navigation_mode": "UM", "requested_distance_km": 12.0, "start_source": "nwissite", "start_id": "USGS-0242354750", "geometry_length_km": 4.2549246995169945 }, "geometry": { "type": "LineString", "coordinates": [ [ -86.779818803, 33.333325796 ], [ -86.780747004, 33.333120294 ], [ -86.781019703, 33.333303794 ], [ -86.781374507, 33.3332811 ], [ -86.781784102, 33.333121099 ], [ -86.7822759, 33.332640298 ], [ -86.7826581, 33.332548998 ], [ -86.783231206, 33.332595296 ], [ -86.783613101, 33.3328017 ], [ -86.783912905, 33.333191395 ], [ -86.784240402, 33.333237395 ], [ -86.784540802, 33.3331002 ], [ -86.785059802, 33.332619399 ], [ -86.785633206, 33.332322098 ], [ -86.786752507, 33.332139596 ], [ -86.787407905, 33.3318194 ], [ -86.787571706, 33.331636198 ], [ -86.787900001, 33.330926195 ], [ -86.788255304, 33.330399498 ], [ -86.788610205, 33.330331095 ], [ -86.789292306, 33.330491893 ], [ -86.789510801, 33.330354594 ], [ -86.789647505, 33.330056794 ], [ -86.790084302, 33.330011293 ], [ -86.790930904, 33.329439096 ], [ -86.791122004, 33.329370499 ], [ -86.7915859, 33.329462498 ], [ -86.791804001, 33.329645894 ], [ -86.792295106, 33.329875395 ], [ -86.792759001, 33.329921499 ], [ -86.793742307, 33.329120293 ], [ -86.794589102, 33.328295998 ], [ -86.795408703, 33.327265598 ], [ -86.795818307, 33.3271055 ], [ -86.796228305, 33.326349698 ], [ -86.796528704, 33.326235399 ], [ -86.796883404, 33.326258495 ], [ -86.797456302, 33.326510794 ], [ -86.798412204, 33.325686693 ], [ -86.798494302, 33.325434797 ], [ -86.797839805, 33.324838698 ], [ -86.797840305, 33.324311793 ], [ -86.798304707, 33.323785096 ], [ -86.799451105, 33.323556699 ], [ -86.799860306, 33.323694497 ], [ -86.800133005, 33.323877797 ], [ -86.8005969, 33.323992699 ], [ -86.800760806, 33.323786698 ], [ -86.800652504, 33.322801396 ], [ -86.8007892, 33.322618194 ], [ -86.801471502, 33.322458297 ], [ -86.801662706, 33.322274998 ], [ -86.801663101, 33.321862593 ], [ -86.801090404, 33.321197897 ], [ -86.801091, 33.320579395 ], [ -86.801473103, 33.320396297 ], [ -86.801528201, 33.319777697 ], [ -86.801719502, 33.319525793 ], [ -86.802047201, 33.319296896 ], [ -86.8029477, 33.319182895 ], [ -86.803029805, 33.318999596 ], [ -86.802893907, 33.318289399 ], [ -86.803221606, 33.318014599 ], [ -86.803631105, 33.317854494 ], [ -86.804804504, 33.3177635 ], [ -86.804968402, 33.317580298 ], [ -86.805023201, 33.317282498 ], [ -86.804805204, 33.316961594 ], [ -86.804368801, 33.316663496 ], [ -86.804369204, 33.316205293 ], [ -86.805106401, 33.315701693 ], [ -86.805434205, 33.315289497 ], [ -86.805926107, 33.314281695 ], [ -86.80604894, 33.314112539 ] ] } },
{ "type": "Feature", "properties": { "site_no": "0242354750", "nhdplus_comid": "21655694", "navigation_mode": "UM", "requested_distance_km": 12.0, "start_source": "nwissite", "start_id": "USGS-0242354750", "geometry_length_km": 0.12056419047508615 }, "geometry": { "type": "LineString", "coordinates": [ [ -86.779162802, 33.334241696 ], [ -86.779381305, 33.334081493 ], [ -86.779818803, 33.333325796 ] ] } },
{ "type": "Feature", "properties": { "site_no": "0242354750", "nhdplus_comid": "21655688", "navigation_mode": "UM", "requested_distance_km": 12.0, "start_source": "nwissite", "start_id": "USGS-0242354750", "geometry_length_km": 0.49757320716163567 }, "geometry": { "type": "LineString", "coordinates": [ [ -86.775121801, 33.335635997 ], [ -86.775558904, 33.335223995 ], [ -86.776051201, 33.3342622 ], [ -86.776215106, 33.334216498 ], [ -86.776706301, 33.334308498 ], [ -86.7773882, 33.334698498 ], [ -86.777715705, 33.334744595 ], [ -86.778453104, 33.334309898 ], [ -86.779162802, 33.334241696 ] ] } },
{ "type": "Feature", "properties": { "site_no": "0242354750", "nhdplus_comid": "21655674", "navigation_mode": "UM", "requested_distance_km": 12.0, "start_source": "nwissite", "start_id": "USGS-0242354750", "geometry_length_km": 1.1503365332367317 }, "geometry": { "type": "LineString", "coordinates": [ [ -86.765126504, 33.340140797 ], [ -86.765181303, 33.339980595 ], [ -86.766329102, 33.338904798 ], [ -86.766684204, 33.3387447 ], [ -86.767803006, 33.338905998 ], [ -86.768458404, 33.338677496 ], [ -86.769469, 33.338082694 ], [ -86.770124204, 33.337899998 ], [ -86.770479105, 33.337991893 ], [ -86.771297805, 33.338015497 ], [ -86.771707505, 33.3378096 ], [ -86.772799507, 33.337627299 ], [ -86.773100004, 33.337421395 ], [ -86.773455307, 33.337032296 ], [ -86.774056807, 33.336070493 ], [ -86.774302803, 33.335818693 ], [ -86.774739705, 33.335658595 ], [ -86.775121801, 33.335635997 ] ] } },
{ "type": "Feature", "properties": { "site_no": "0242354750", "nhdplus_comid": "21655644", "navigation_mode": "UM", "requested_distance_km": 12.0, "start_source": "nwissite", "start_id": "USGS-0242354750", "geometry_length_km": 0.31587742854004464 }, "geometry": { "type": "LineString", "coordinates": [ [ -86.762177005, 33.341466993 ], [ -86.762477301, 33.341398597 ], [ -86.763542704, 33.340712197 ], [ -86.764552906, 33.340483993 ], [ -86.765126504, 33.340140797 ] ] } },
{ "type": "Feature", "properties": { "site_no": "0242354750", "nhdplus_comid": "21655632", "navigation_mode": "UM", "requested_distance_km": 12.0, "start_source": "nwissite", "start_id": "USGS-0242354750", "geometry_length_km": 0.95880139248200147 }, "geometry": { "type": "LineString", "coordinates": [ [ -86.757119901, 33.346891895 ], [ -86.757174805, 33.346639998 ], [ -86.757475704, 33.346181996 ], [ -86.757448904, 33.345746793 ], [ -86.7573127, 33.345586196 ], [ -86.757313505, 33.344990596 ], [ -86.757778205, 33.344555698 ], [ -86.758515403, 33.344350196 ], [ -86.759252101, 33.344602995 ], [ -86.759688802, 33.344649196 ], [ -86.7607539, 33.344214894 ], [ -86.761054605, 33.343963198 ], [ -86.761246204, 33.343505099 ], [ -86.761875004, 33.342772596 ], [ -86.761902601, 33.342589296 ], [ -86.761548206, 33.342222497 ], [ -86.761548303, 33.342039198 ], [ -86.762177005, 33.341466993 ] ] } },
{ "type": "Feature", "properties": { "site_no": "0242354750", "nhdplus_comid": "21656508", "navigation_mode": "UM", "requested_distance_km": 12.0, "start_source": "nwissite", "start_id": "USGS-0242354750", "geometry_length_km": 1.419500104296409 }, "geometry": { "type": "LineString", "coordinates": [ [ -86.745183602, 33.3528938 ], [ -86.745292604, 33.352687493 ], [ -86.7460564, 33.352320097 ], [ -86.746410906, 33.352044895 ], [ -86.747748002, 33.351585396 ], [ -86.748920903, 33.350896895 ], [ -86.749985203, 33.350643799 ], [ -86.750590906, 33.350436598 ], [ -86.750891507, 33.350093395 ], [ -86.7516018, 33.349658795 ], [ -86.751766101, 33.349383995 ], [ -86.751739703, 33.348673694 ], [ -86.752177, 33.348330498 ], [ -86.753132604, 33.348262794 ], [ -86.753569506, 33.348125696 ], [ -86.754334003, 33.348034799 ], [ -86.7553984, 33.348173298 ], [ -86.755944401, 33.348173797 ], [ -86.756190203, 33.348059498 ], [ -86.7564639, 33.3474641 ], [ -86.756655402, 33.3472123 ], [ -86.757119901, 33.346891895 ] ] } }
]
}
