{
"type": "FeatureCollection",
"name": "USGS_02432500_DM_12km",
"crs": { "type": "name", "properties": { "name": "urn:ogc:def:crs:OGC:1.3:CRS84" } },
"features": [
{ "type": "Feature", "properties": { "site_no": "02432500", "nhdplus_comid": "18696119", "navigation_mode": "DM", "requested_distance_km": 12.0, "start_source": "nwissite", "start_id": "USGS-02432500", "geometry_length_km": 1.3993798698766176 }, "geometry": { "type": "LineString", "coordinates": [ [ -88.271760505, 34.239101168 ], [ -88.271777406, 34.238962099 ], [ -88.271915406, 34.238847695 ], [ -88.271943301, 34.238572896 ], [ -88.271805607, 34.238389596 ], [ -88.271502502, 34.238183193 ], [ -88.271254301, 34.238160096 ], [ -88.270951204, 34.237953797 ], [ -88.2709518, 34.237404093 ], [ -88.271311, 34.236877598 ], [ -88.271586902, 34.2366945 ], [ -88.2721937, 34.236511797 ], [ -88.272414505, 34.236328796 ], [ -88.272415504, 34.235458396 ], [ -88.2731058, 34.234565698 ], [ -88.273106106, 34.234290898 ], [ -88.272885703, 34.234153293 ], [ -88.272086002, 34.234129794 ], [ -88.272086404, 34.233809099 ], [ -88.272390001, 34.2335345 ], [ -88.272996902, 34.2333517 ], [ -88.273217902, 34.232962593 ], [ -88.273245804, 34.232687794 ], [ -88.273411602, 34.232412994 ], [ -88.274570204, 34.232001595 ], [ -88.274708301, 34.2318414 ], [ -88.2747913, 34.231520899 ], [ -88.274984702, 34.231131598 ], [ -88.275426105, 34.230903 ], [ -88.276529305, 34.230674699 ] ] } },
{ "type": "Feature", "properties": { "site_no": "02432500", "nhdplus_comid": "18694803", "navigation_mode": "DM", "requested_distance_km": 12.0, "start_source": "nwissite", "start_id": "USGS-02432500", "geometry_length_km": 0.21695345009970785 }, "geometry": { "type": "LineString", "coordinates": [ [ -88.276529305, 34.230674699 ], [ -88.2766122, 34.230514497 ], [ -88.276998505, 34.230331495 ], [ -88.2770814, 34.230125397 ], [ -88.276944101, 34.229575694 ], [ -88.276806504, 34.229392394 ], [ -88.276393101, 34.229162998 ] ] } },
{ "type": "Feature", "properties": { "site_no": "02432500", "nhdplus_comid": "18694855", "navigation_mode": "DM", "requested_distance_km": 12.0, "start_source": "nwissite", "start_id": "USGS-02432500", "geometry_length_km": 1.8192442153477193 }, "geometry": { "type": "LineString", "coordinates": [ [ -88.276393101, 34.229162998 ], [ -88.276421003, 34.228910998 ], [ -88.277027905, 34.2286596 ], [ -88.277413905, 34.228636898 ], [ -88.277551502, 34.228888996 ], [ -88.277772002, 34.228980698 ], [ -88.277992703, 34.228866398 ], [ -88.278076902, 34.227469295 ], [ -88.278380506, 34.227263495 ], [ -88.278518401, 34.227126099 ], [ -88.2785739, 34.226782598 ], [ -88.278905101, 34.226530999 ], [ -88.279236004, 34.226485297 ], [ -88.279401407, 34.226599999 ], [ -88.279455706, 34.227355897 ], [ -88.2795384, 34.227424599 ], [ -88.279786602, 34.227424793 ], [ -88.280034907, 34.227195993 ], [ -88.280558906, 34.227127597 ], [ -88.280889802, 34.226967596 ], [ -88.281523801, 34.227242798 ], [ -88.282075502, 34.2269454 ], [ -88.282103904, 34.2261438 ], [ -88.282766305, 34.225457199 ], [ -88.2827667, 34.225136496 ], [ -88.282215305, 34.224975795 ], [ -88.281857505, 34.224471696 ], [ -88.281857803, 34.2240595 ], [ -88.281996004, 34.2237847 ], [ -88.281968907, 34.223189197 ], [ -88.281721003, 34.222982794 ], [ -88.281694002, 34.222455993 ], [ -88.281528905, 34.222089499 ], [ -88.281832606, 34.221723296 ], [ -88.2818342, 34.220005393 ], [ -88.281586505, 34.219638795 ] ] } },
{ "type": "Feature", "properties": { "site_no": "02432500", "nhdplus_comid": "18694871", "navigation_mode": "DM", "requested_distance_km": 12.0, "start_source": "nwissite", "start_id": "USGS-02432500", "geometry_length_km": 0.49290402243665365 }, "geometry": { "type": "LineString", "coordinates": [ [ -88.281586505, 34.219638795 ], [ -88.2818904, 34.218974799 ], [ -88.282167003, 34.218104698 ], [ -88.2828563, 34.218105197 ], [ -88.282856606, 34.217807494 ], [ -88.282360606, 34.217555098 ], [ -88.282029703, 34.217554994 ], [ -88.281919502, 34.2174633 ], [ -88.282002501, 34.217234194 ], [ -88.282719307, 34.217166096 ], [ -88.282774702, 34.216937095 ] ] } },
{ "type": "Feature", "properties": { "site_no": "02432500", "nhdplus_comid": "18694885", "navigation_mode": "DM", "requested_distance_km": 12.0, "start_source": "nwissite", "start_id": "USGS-02432500", "geometry_length_km": 0.30301209363506548 }, "geometry": { "type": "LineString", "coordinates": [ [ -88.282774702, 34.216937095 ], [ -88.282830305, 34.216524795 ], [ -88.283023506, 34.216272995 ], [ -88.283712804, 34.216273494 ], [ -88.284098901, 34.216090597 ], [ -88.284760602, 34.215999395 ], [ -88.284953907, 34.215678893 ], [ -88.285119407, 34.215587296 ] ] } },
{ "type": "Feature", "properties": { "site_no": "02432500", "nhdplus_comid": "18694899", "navigation_mode": "DM", "requested_distance_km": 12.0, "start_source": "nwissite", "start_id": "USGS-02432500", "geometry_length_km": 0.14674618120950092 }, "geometry": { "type": "LineString", "coordinates": [ [ -88.285119407, 34.215587296 ], [ -88.285119802, 34.215243898 ], [ -88.285533905, 34.214625694 ], [ -88.285837203, 34.214534298 ] ] } },
{ "type": "Feature", "properties": { "site_no": "02432500", "nhdplus_comid": "18694937", "navigation_mode": "DM", "requested_distance_km": 12.0, "start_source": "nwissite", "start_id": "USGS-02432500", "geometry_length_km": 1.3991984706271241 }, "geometry": { "type": "LineString", "coordinates": [ [ -88.285837203, 34.214534298 ], [ -88.286196403, 34.2138016 ], [ -88.286252201, 34.213137396 ], [ -88.286004506, 34.2126792 ], [ -88.286004901, 34.212221198 ], [ -88.286142901, 34.212037995 ], [ -88.286694504, 34.2118093 ], [ -88.286750302, 34.211053498 ], [ -88.286860906, 34.2108704 ], [ -88.287384607, 34.210756198 ], [ -88.287550904, 34.209794298 ], [ -88.2882405, 34.209359698 ], [ -88.288434304, 34.208535194 ], [ -88.288792707, 34.208466798 ], [ -88.288930506, 34.208535597 ], [ -88.289261304, 34.208467096 ], [ -88.289454505, 34.208261095 ], [ -88.289510004, 34.207940497 ], [ -88.289372407, 34.2076426 ], [ -88.289096802, 34.2074821 ], [ -88.288766101, 34.207458995 ], [ -88.288159505, 34.207550198 ], [ -88.287966706, 34.207389697 ], [ -88.287967004, 34.2070233 ], [ -88.2881326, 34.206794299 ], [ -88.289097704, 34.206543095 ], [ -88.289263301, 34.206382893 ], [ -88.289401501, 34.205901995 ], [ -88.289677307, 34.205833398 ], [ -88.289815001, 34.205947995 ] ] } },
{ "type": "Feature", "properties": { "site_no": "02432500", "nhdplus_comid": "18694933", "navigation_mode": "DM", "requested_distance_km": 12.0, "start_source": "nwissite", "start_id": "USGS-02432500", "geometry_length_km": 0.041066677579447167 }, "geometry": { "type": "LineString", "coordinates": [ [ -88.289815001, 34.205947995 ], [ -88.290256202, 34.205879599 ] ] } },
{ "type": "Feature", "properties": { "site_no": "02432500", "nhdplus_comid": "18694947", "navigation_mode": "DM", "requested_distance_km": 12.0, "start_source": "nwissite", "start_id": "USGS-02432500", "geometry_length_km": 0.64807382491702925 }, "geometry": { "type": "LineString", "coordinates": [ [ -88.290256202, 34.205879599 ], [ -88.290229, 34.205261193 ], [ -88.290367, 34.205123797 ], [ -88.290918402, 34.205055498 ], [ -88.291166604, 34.204941094 ], [ -88.2913047, 34.204574794 ], [ -88.291580506, 34.204552099 ], [ -88.291745305, 34.205124795 ], [ -88.291965805, 34.205262296 ], [ -88.292241402, 34.205239594 ], [ -88.2923242, 34.205147997 ], [ -88.292352006, 34.204804495 ], [ -88.292214505, 34.204506598 ], [ -88.292159803, 34.204048499 ], [ -88.292325303, 34.203888297 ], [ -88.292601101, 34.203819796 ], [ -88.2931794, 34.204324 ], [ -88.293510102, 34.204415895 ] ] } },
{ "type": "Feature", "properties": { "site_no": "02432500", "nhdplus_comid": "18694991", "navigation_mode": "DM", "requested_distance_km": 12.0, "start_source": "nwissite", "start_id": "USGS-02432500", "geometry_length_km": 1.9238721422903431 }, "geometry": { "type": "LineString", "coordinates": [ [ -88.293510102, 34.204415895 ], [ -88.293565802, 34.203889094 ], [ -88.293042503, 34.203407794 ], [ -88.293070301, 34.203132898 ], [ -88.293318607, 34.202858195 ], [ -88.293704607, 34.202835597 ], [ -88.294283301, 34.202973299 ], [ -88.2943388, 34.202629797 ], [ -88.293732606, 34.202262998 ], [ -88.293732904, 34.201988198 ], [ -88.294504806, 34.2018971 ], [ -88.2947805, 34.201759793 ], [ -88.294780701, 34.201507799 ], [ -88.294064201, 34.201392896 ], [ -88.293788701, 34.201186597 ], [ -88.293733701, 34.200934596 ], [ -88.293816403, 34.200888798 ], [ -88.293789305, 34.200362094 ], [ -88.293706603, 34.200316198 ], [ -88.293734506, 34.199972697 ], [ -88.294065706, 34.199491896 ], [ -88.294121206, 34.199010998 ], [ -88.294259302, 34.198736198 ], [ -88.295251705, 34.198576495 ], [ -88.295582704, 34.198393494 ], [ -88.295583002, 34.198095694 ], [ -88.295472704, 34.198004097 ], [ -88.294535503, 34.198049299 ], [ -88.2940116, 34.198300898 ], [ -88.293680906, 34.198277794 ], [ -88.293570705, 34.198094495 ], [ -88.293681502, 34.197613694 ], [ -88.293929905, 34.197178498 ], [ -88.294481404, 34.196972795 ], [ -88.294674501, 34.196789697 ], [ -88.295005307, 34.196766995 ], [ -88.295170501, 34.196858697 ], [ -88.295528807, 34.196881793 ], [ -88.295721903, 34.196790293 ], [ -88.295804702, 34.196652897 ], [ -88.295722306, 34.196355097 ], [ -88.295529403, 34.1962405 ], [ -88.295005701, 34.196171395 ], [ -88.295088701, 34.1958737 ], [ -88.296715006, 34.195599996 ] ] } },
{ "type": "Feature", "properties": { "site_no": "02432500", "nhdplus_comid": "18694993", "navigation_mode": "DM", "requested_distance_km": 12.0, "start_source": "nwissite", "start_id": "USGS-02432500", "geometry_length_km": 0.077469890952574116 }, "geometry": { "type": "LineString", "coordinates": [ [ -88.296715006, 34.195599996 ], [ -88.296605401, 34.194912799 ] ] } },
{ "type": "Feature", "properties": { "site_no": "02432500", "nhdplus_comid": "18695001", "navigation_mode": "DM", "requested_distance_km": 12.0, "start_source": "nwissite", "start_id": "USGS-02432500", "geometry_length_km": 1.0135254671928033 }, "geometry": { "type": "LineString", "coordinates": [ [ -88.296605401, 34.194912799 ], [ -88.296274707, 34.194843799 ], [ -88.296275102, 34.194431499 ], [ -88.296744101, 34.193882093 ], [ -88.297240205, 34.1938366 ], [ -88.297433101, 34.193974197 ], [ -88.297488004, 34.194180295 ], [ -88.297708303, 34.1944324 ], [ -88.297901206, 34.194432497 ], [ -88.298039205, 34.194340996 ], [ -88.2980396, 34.193745494 ], [ -88.298480704, 34.193677098 ], [ -88.298645906, 34.193768799 ], [ -88.298755802, 34.194341399 ], [ -88.299307004, 34.194433294 ], [ -88.299527302, 34.194593795 ], [ -88.299802907, 34.194639698 ], [ -88.299996004, 34.194525294 ], [ -88.300161801, 34.193929896 ], [ -88.300713107, 34.193792894 ], [ -88.300685801, 34.193517894 ], [ -88.3004103, 34.193380393 ], [ -88.300355405, 34.193174198 ], [ -88.3005208, 34.193036899 ], [ -88.301347807, 34.193014495 ], [ -88.301816702, 34.192396298 ] ] } },
{ "type": "Feature", "properties": { "site_no": "02432500", "nhdplus_comid": "18695031", "navigation_mode": "DM", "requested_distance_km": 12.0, "start_source": "nwissite", "start_id": "USGS-02432500", "geometry_length_km": 1.7364778082692007 }, "geometry": { "type": "LineString", "coordinates": [ [ -88.301816702, 34.192396298 ], [ -88.301844701, 34.191938296 ], [ -88.302396305, 34.191343099 ], [ -88.303085506, 34.191137299 ], [ -88.3031132, 34.190977 ], [ -88.302755304, 34.190427095 ], [ -88.302755706, 34.189991996 ], [ -88.302866101, 34.189808793 ], [ -88.303114206, 34.189648598 ], [ -88.303803407, 34.189557396 ], [ -88.304106601, 34.189420097 ], [ -88.304327302, 34.189030893 ], [ -88.304603204, 34.188756198 ], [ -88.305182107, 34.188550293 ], [ -88.305430405, 34.188275598 ], [ -88.305375807, 34.187542699 ], [ -88.305486202, 34.187382497 ], [ -88.305872001, 34.187382594 ], [ -88.306009606, 34.187657498 ], [ -88.306202501, 34.187749296 ], [ -88.306450501, 34.187726498 ], [ -88.306506, 34.187268399 ], [ -88.306864306, 34.187199898 ], [ -88.306974404, 34.187383197 ], [ -88.307305001, 34.187635295 ], [ -88.307525501, 34.187635399 ], [ -88.3077185, 34.1874981 ], [ -88.3077185, 34.187200293 ], [ -88.3076085, 34.186994098 ], [ -88.307140306, 34.186535798 ], [ -88.306892306, 34.186421193 ], [ -88.306424201, 34.185871296 ], [ -88.306507103, 34.185527794 ], [ -88.306893006, 34.185550898 ], [ -88.3070582, 34.185757093 ], [ -88.307278603, 34.185871698 ], [ -88.307609305, 34.185848996 ], [ -88.307637103, 34.185551196 ], [ -88.307471901, 34.185207598 ], [ -88.307141401, 34.184955597 ], [ -88.306342401, 34.184634499 ], [ -88.306342602, 34.184496894 ], [ -88.306563102, 34.184290998 ], [ -88.306646101, 34.183993198 ] ] } },
{ "type": "Feature", "properties": { "site_no": "02432500", "nhdplus_comid": "18695047", "navigation_mode": "DM", "requested_distance_km": 12.0, "start_source": "nwissite", "start_id": "USGS-02432500", "geometry_length_km": 0.22641595282469312 }, "geometry": { "type": "LineString", "coordinates": [ [ -88.306646101, 34.183993198 ], [ -88.305626504, 34.183809496 ], [ -88.305461206, 34.183671996 ], [ -88.305461504, 34.183328398 ], [ -88.305378906, 34.1832368 ], [ -88.304745004, 34.183190696 ] ] } },
{ "type": "Feature", "properties": { "site_no": "02432500", "nhdplus_comid": "18695165", "navigation_mode": "DM", "requested_distance_km": 12.0, "start_source": "nwissite", "start_id": "USGS-02432500", "geometry_length_km": 3.1643670207460359 }, "geometry": { "type": "LineString", "coordinates": [ [ -88.304745004, 34.183190696 ], [ -88.304772906, 34.182892896 ], [ -88.304993503, 34.182572395 ], [ -88.304993801, 34.182320394 ], [ -88.304553106, 34.181999594 ], [ -88.304470606, 34.181793399 ], [ -88.304415904, 34.1812208 ], [ -88.304829501, 34.180877395 ], [ -88.304747202, 34.180350594 ], [ -88.304940104, 34.180098794 ], [ -88.305684507, 34.179801494 ], [ -88.305822402, 34.179618299 ], [ -88.305933103, 34.179091498 ], [ -88.306346603, 34.178816997 ], [ -88.306456901, 34.178633697 ], [ -88.306374706, 34.178175695 ], [ -88.3066504, 34.177878 ], [ -88.306954302, 34.176778793 ], [ -88.307174906, 34.176595598 ], [ -88.308112003, 34.176321298 ], [ -88.308553405, 34.175840594 ], [ -88.3089393, 34.1756346 ], [ -88.309352905, 34.175039396 ], [ -88.309463605, 34.174397998 ], [ -88.309574001, 34.174283594 ], [ -88.309822403, 34.173504993 ], [ -88.309960306, 34.173344798 ], [ -88.310291007, 34.173322 ], [ -88.310896903, 34.1738033 ], [ -88.311117306, 34.173849195 ], [ -88.311365403, 34.173711896 ], [ -88.311448306, 34.173528694 ], [ -88.311338201, 34.1731622 ], [ -88.311393507, 34.173024796 ], [ -88.311751805, 34.1729564 ], [ -88.311889507, 34.173025094 ], [ -88.312302902, 34.172933698 ], [ -88.312606305, 34.172521599 ], [ -88.312716603, 34.172269695 ], [ -88.3123587, 34.171971694 ], [ -88.312386505, 34.171559393 ], [ -88.312524401, 34.171307594 ], [ -88.312552206, 34.170918196 ], [ -88.312497206, 34.170712098 ], [ -88.312249407, 34.170482896 ], [ -88.312222004, 34.170093499 ], [ -88.312387504, 34.169841699 ], [ -88.3132146, 34.169154897 ], [ -88.3133526, 34.1687885 ], [ -88.313573301, 34.168490894 ], [ -88.313848801, 34.168468095 ], [ -88.314014107, 34.1685827 ], [ -88.3141241, 34.168903396 ], [ -88.314399302, 34.169361599 ], [ -88.314647205, 34.169361696 ], [ -88.314895406, 34.169132799 ], [ -88.314951003, 34.1683999 ], [ -88.314703502, 34.167643897 ], [ -88.314538606, 34.167025596 ], [ -88.314979903, 34.1663386 ], [ -88.315613702, 34.166224398 ], [ -88.315834202, 34.166064195 ], [ -88.315917104, 34.165674798 ], [ -88.316468105, 34.165583499 ], [ -88.316936903, 34.165102698 ], [ -88.316854507, 34.164529994 ], [ -88.317240305, 34.164484397 ], [ -88.317708604, 34.164576195 ] ] } }
]
}
