{
"type": "FeatureCollection",
"name": "USGS_02462500_UM_12km",
"crs": { "type": "name", "properties": { "name": "urn:ogc:def:crs:OGC:1.3:CRS84" } },
"features": [
{ "type": "Feature", "properties": { "site_no": "02462500", "nhdplus_comid": "18232673", "navigation_mode": "UM", "requested_distance_km": 12.0, "start_source": "nwissite", "start_id": "USGS-02462500", "geometry_length_km": 0.18242890212842383 }, "geometry": { "type": "LineString", "coordinates": [ [ -87.355150402, 33.459991597 ], [ -87.355365403, 33.459642999 ], [ -87.356038302, 33.459064297 ], [ -87.356160976, 33.458636661 ] ] } },
{ "type": "Feature", "properties": { "site_no": "02462500", "nhdplus_comid": "18229349", "navigation_mode": "UM", "requested_distance_km": 12.0, "start_source": "nwissite", "start_id": "USGS-02462500", "geometry_length_km": 2.8010580804662304 }, "geometry": { "type": "LineString", "coordinates": [ [ -87.335475504, 33.478408299 ], [ -87.336437806, 33.476592794 ], [ -87.337344803, 33.475276694 ], [ -87.337839305, 33.474936396 ], [ -87.338787705, 33.473245695 ], [ -87.340958104, 33.4715214 ], [ -87.3411505, 33.471158296 ], [ -87.343636602, 33.469331995 ], [ -87.345614403, 33.467970699 ], [ -87.346410803, 33.4676532 ], [ -87.351698205, 33.4638981 ], [ -87.352811001, 33.462093793 ], [ -87.354623601, 33.460845798 ], [ -87.355150402, 33.459991597 ] ] } },
{ "type": "Feature", "properties": { "site_no": "02462500", "nhdplus_comid": "18229335", "navigation_mode": "UM", "requested_distance_km": 12.0, "start_source": "nwissite", "start_id": "USGS-02462500", "geometry_length_km": 0.050478761744080745 }, "geometry": { "type": "LineString", "coordinates": [ [ -87.335132003, 33.478759997 ], [ -87.335475504, 33.478408299 ] ] } },
{ "type": "Feature", "properties": { "site_no": "02462500", "nhdplus_comid": "18229333", "navigation_mode": "UM", "requested_distance_km": 12.0, "start_source": "nwissite", "start_id": "USGS-02462500", "geometry_length_km": 1.5678685100888488 }, "geometry": { "type": "LineString", "coordinates": [ [ -87.330783807, 33.491900496 ], [ -87.331127502, 33.491548896 ], [ -87.331348605, 33.489551499 ], [ -87.331087902, 33.489154197 ], [ -87.331461005, 33.485783599 ], [ -87.332685106, 33.4829809 ], [ -87.333399706, 33.482027896 ], [ -87.333867505, 33.480552696 ], [ -87.334898107, 33.479497597 ], [ -87.335132003, 33.478759997 ] ] } },
{ "type": "Feature", "properties": { "site_no": "02462500", "nhdplus_comid": "18229287", "navigation_mode": "UM", "requested_distance_km": 12.0, "start_source": "nwissite", "start_id": "USGS-02462500", "geometry_length_km": 0.95710534260693958 }, "geometry": { "type": "LineString", "coordinates": [ [ -87.321142502, 33.492304198 ], [ -87.323929705, 33.493270397 ], [ -87.326497801, 33.493464597 ], [ -87.329629704, 33.4926944 ], [ -87.330783807, 33.491900496 ] ] } },
{ "type": "Feature", "properties": { "site_no": "02462500", "nhdplus_comid": "18229299", "navigation_mode": "UM", "requested_distance_km": 12.0, "start_source": "nwissite", "start_id": "USGS-02462500", "geometry_length_km": 1.0578696939255958 }, "geometry": { "type": "LineString", "coordinates": [ [ -87.312178306, 33.487974897 ], [ -87.313291103, 33.487555698 ], [ -87.315707907, 33.487738699 ], [ -87.317835301, 33.489158593 ], [ -87.320565902, 33.492008798 ], [ -87.321142502, 33.492304198 ] ] } },
{ "type": "Feature", "properties": { "site_no": "02462500", "nhdplus_comid": "18229297", "navigation_mode": "UM", "requested_distance_km": 12.0, "start_source": "nwissite", "start_id": "USGS-02462500", "geometry_length_km": 0.33008019123287463 }, "geometry": { "type": "LineString", "coordinates": [ [ -87.309251606, 33.489641398 ], [ -87.3115464, 33.488178797 ], [ -87.312178306, 33.487974897 ] ] } },
{ "type": "Feature", "properties": { "site_no": "02462500", "nhdplus_comid": "18229291", "navigation_mode": "UM", "requested_distance_km": 12.0, "start_source": "nwissite", "start_id": "USGS-02462500", "geometry_length_km": 0.61986368791049251 }, "geometry": { "type": "LineString", "coordinates": [ [ -87.302713901, 33.490215696 ], [ -87.305803701, 33.4905129 ], [ -87.309251606, 33.489641398 ] ] } },
{ "type": "Feature", "properties": { "site_no": "02462500", "nhdplus_comid": "18229301", "navigation_mode": "UM", "requested_distance_km": 12.0, "start_source": "nwissite", "start_id": "USGS-02462500", "geometry_length_km": 0.54732691302719672 }, "geometry": { "type": "LineString", "coordinates": [ [ -87.300370105, 33.4859467 ], [ -87.3006014, 33.487978399 ], [ -87.300985202, 33.488636896 ], [ -87.302713901, 33.490215696 ] ] } },
{ "type": "Feature", "properties": { "site_no": "02462500", "nhdplus_comid": "18229313", "navigation_mode": "UM", "requested_distance_km": 12.0, "start_source": "nwissite", "start_id": "USGS-02462500", "geometry_length_km": 0.57733265785729559 }, "geometry": { "type": "LineString", "coordinates": [ [ -87.297999606, 33.481234998 ], [ -87.298671506, 33.482041299 ], [ -87.299081504, 33.483834796 ], [ -87.300370105, 33.4859467 ] ] } },
{ "type": "Feature", "properties": { "site_no": "02462500", "nhdplus_comid": "18229319", "navigation_mode": "UM", "requested_distance_km": 12.0, "start_source": "nwissite", "start_id": "USGS-02462500", "geometry_length_km": 1.0443608661005412 }, "geometry": { "type": "LineString", "coordinates": [ [ -87.287510306, 33.479683094 ], [ -87.289694205, 33.479219593 ], [ -87.295145206, 33.4795077 ], [ -87.297176503, 33.480417199 ], [ -87.297999606, 33.481234998 ] ] } },
{ "type": "Feature", "properties": { "site_no": "02462500", "nhdplus_comid": "18229315", "navigation_mode": "UM", "requested_distance_km": 12.0, "start_source": "nwissite", "start_id": "USGS-02462500", "geometry_length_km": 0.41000492953736967 }, "geometry": { "type": "LineString", "coordinates": [ [ -87.284623206, 33.482359096 ], [ -87.285201401, 33.481270097 ], [ -87.287510306, 33.479683094 ] ] } },
{ "type": "Feature", "properties": { "site_no": "02462500", "nhdplus_comid": "18229307", "navigation_mode": "UM", "requested_distance_km": 12.0, "start_source": "nwissite", "start_id": "USGS-02462500", "geometry_length_km": 2.0856391525962588 }, "geometry": { "type": "LineString", "coordinates": [ [ -87.288308807, 33.500124894 ], [ -87.288474403, 33.499771997 ], [ -87.288696602, 33.497774795 ], [ -87.287930802, 33.495073095 ], [ -87.287904702, 33.493938096 ], [ -87.287178904, 33.492246494 ], [ -87.285862803, 33.490384094 ], [ -87.284862801, 33.488419794 ], [ -87.2843576, 33.486115493 ], [ -87.283864506, 33.485070899 ], [ -87.284072906, 33.483198494 ], [ -87.284623206, 33.482359096 ] ] } }
]
}
