{
"type": "FeatureCollection",
"name": "USGS_02446500_UM_12km",
"crs": { "type": "name", "properties": { "name": "urn:ogc:def:crs:OGC:1.3:CRS84" } },
"features": [
{ "type": "Feature", "properties": { "site_no": "02446500", "nhdplus_comid": "166759201", "navigation_mode": "UM", "requested_distance_km": 12.0, "start_source": "nwissite", "start_id": "USGS-02446500", "geometry_length_km": 1.5164618189040793 }, "geometry": { "type": "LineString", "coordinates": [ [ -87.772778206, 33.264166795 ], [ -87.773024, 33.263823293 ], [ -87.773051903, 33.263342194 ], [ -87.772534601, 33.262631595 ], [ -87.772534803, 33.262379594 ], [ -87.772698604, 33.262265198 ], [ -87.773135006, 33.262173899 ], [ -87.773571201, 33.262288794 ], [ -87.774252303, 33.2629079 ], [ -87.774606705, 33.262931198 ], [ -87.775207601, 33.262106895 ], [ -87.775262505, 33.261763297 ], [ -87.775180906, 33.261556998 ], [ -87.774636202, 33.260960996 ], [ -87.774500206, 33.260708794 ], [ -87.774473205, 33.260433897 ], [ -87.774773307, 33.260342598 ], [ -87.776054405, 33.260824598 ], [ -87.776790604, 33.260848194 ], [ -87.777554303, 33.260688297 ], [ -87.777909204, 33.260344997 ], [ -87.777964205, 33.259863995 ], [ -87.777773902, 33.259336896 ], [ -87.777120806, 33.258167997 ], [ -87.776985303, 33.257457696 ], [ -87.776985924, 33.256915555 ] ] } },
{ "type": "Feature", "properties": { "site_no": "02446500", "nhdplus_comid": "18616198", "navigation_mode": "UM", "requested_distance_km": 12.0, "start_source": "nwissite", "start_id": "USGS-02446500", "geometry_length_km": 2.8821290604260272 }, "geometry": { "type": "LineString", "coordinates": [ [ -87.7600132, 33.265988298 ], [ -87.760122307, 33.265873797 ], [ -87.761705004, 33.265142195 ], [ -87.762414105, 33.265074193 ], [ -87.762850903, 33.264776699 ], [ -87.762851104, 33.2646164 ], [ -87.762142703, 33.264088698 ], [ -87.762170702, 33.263561897 ], [ -87.7626618, 33.263356097 ], [ -87.763343602, 33.263287999 ], [ -87.764052302, 33.263540596 ], [ -87.764816001, 33.263541393 ], [ -87.765416205, 33.2632671 ], [ -87.766098902, 33.262580194 ], [ -87.7664534, 33.262534797 ], [ -87.766725905, 33.262787096 ], [ -87.766725302, 33.263199493 ], [ -87.766124405, 33.264023699 ], [ -87.765959807, 33.264802493 ], [ -87.766068101, 33.2654211 ], [ -87.766285807, 33.265719093 ], [ -87.766558506, 33.265810996 ], [ -87.767213002, 33.265811495 ], [ -87.768031001, 33.265926793 ], [ -87.768767506, 33.265744194 ], [ -87.768931404, 33.265515193 ], [ -87.768169105, 33.264391996 ], [ -87.767515905, 33.263360493 ], [ -87.767516404, 33.262971096 ], [ -87.767598301, 33.262902394 ], [ -87.768443801, 33.262742698 ], [ -87.770162605, 33.262125596 ], [ -87.770435005, 33.262332097 ], [ -87.770489, 33.262813196 ], [ -87.770297602, 33.263294198 ], [ -87.769997202, 33.263614595 ], [ -87.769205704, 33.2641638 ], [ -87.769177906, 33.2645761 ], [ -87.769532003, 33.264919996 ], [ -87.770104401, 33.265172593 ], [ -87.770731606, 33.265241794 ], [ -87.771522805, 33.264944695 ], [ -87.772396207, 33.264349699 ], [ -87.772778206, 33.264166795 ] ] } },
{ "type": "Feature", "properties": { "site_no": "02446500", "nhdplus_comid": "18616190", "navigation_mode": "UM", "requested_distance_km": 12.0, "start_source": "nwissite", "start_id": "USGS-02446500", "geometry_length_km": 0.084555998247818287 }, "geometry": { "type": "LineString", "coordinates": [ [ -87.760312207, 33.266698897 ], [ -87.760230906, 33.266378097 ], [ -87.7600132, 33.265988298 ] ] } },
{ "type": "Feature", "properties": { "site_no": "02446500", "nhdplus_comid": "18616186", "navigation_mode": "UM", "requested_distance_km": 12.0, "start_source": "nwissite", "start_id": "USGS-02446500", "geometry_length_km": 0.30181551028688602 }, "geometry": { "type": "LineString", "coordinates": [ [ -87.759791002, 33.268966399 ], [ -87.759982102, 33.268920794 ], [ -87.760255106, 33.268623196 ], [ -87.760255404, 33.268394098 ], [ -87.759874202, 33.268027194 ], [ -87.759847902, 33.267271198 ], [ -87.759957202, 33.267065093 ], [ -87.760312207, 33.266698897 ] ] } },
{ "type": "Feature", "properties": { "site_no": "02446500", "nhdplus_comid": "18617000", "navigation_mode": "UM", "requested_distance_km": 12.0, "start_source": "nwissite", "start_id": "USGS-02446500", "geometry_length_km": 2.3615335540061078 }, "geometry": { "type": "LineString", "coordinates": [ [ -87.751568101, 33.279038794 ], [ -87.751513802, 33.2788326 ], [ -87.751323104, 33.278671995 ], [ -87.750587106, 33.278464995 ], [ -87.750314601, 33.278235599 ], [ -87.7500071, 33.277359799 ], [ -87.7499246, 33.276924595 ], [ -87.750006303, 33.276809894 ], [ -87.750835106, 33.2766096 ], [ -87.750917204, 33.276472196 ], [ -87.750453703, 33.276288494 ], [ -87.750154004, 33.276127793 ], [ -87.750208803, 33.275875896 ], [ -87.750809103, 33.275738999 ], [ -87.751272604, 33.275831096 ], [ -87.7518453, 33.275831595 ], [ -87.752118401, 33.275602899 ], [ -87.752119102, 33.275075898 ], [ -87.751547605, 33.274227694 ], [ -87.751548104, 33.273906998 ], [ -87.751766302, 33.273838498 ], [ -87.752284102, 33.274068095 ], [ -87.752856307, 33.274503894 ], [ -87.753510803, 33.274550296 ], [ -87.753811203, 33.274252795 ], [ -87.754030406, 33.273565695 ], [ -87.754603602, 33.273176894 ], [ -87.754767805, 33.272810496 ], [ -87.754660502, 33.271481596 ], [ -87.754960805, 33.271206997 ], [ -87.755452007, 33.271115899 ], [ -87.755670004, 33.271184795 ], [ -87.756269507, 33.271597698 ], [ -87.756733105, 33.271643899 ], [ -87.757060707, 33.271392293 ], [ -87.757088706, 33.2708195 ], [ -87.757771, 33.270430796 ], [ -87.757935002, 33.270155996 ], [ -87.757908404, 33.269629098 ], [ -87.7574725, 33.269307896 ], [ -87.757445902, 33.268895499 ], [ -87.757555105, 33.268758096 ], [ -87.757964402, 33.268598095 ], [ -87.759109803, 33.268599294 ], [ -87.759382404, 33.2687141 ], [ -87.759600103, 33.268966295 ], [ -87.759791002, 33.268966399 ] ] } },
{ "type": "Feature", "properties": { "site_no": "02446500", "nhdplus_comid": "18616168", "navigation_mode": "UM", "requested_distance_km": 12.0, "start_source": "nwissite", "start_id": "USGS-02446500", "geometry_length_km": 2.837872956497113 }, "geometry": { "type": "LineString", "coordinates": [ [ -87.756675504, 33.294255696 ], [ -87.756375805, 33.294003494 ], [ -87.756349005, 33.293659799 ], [ -87.756540306, 33.293339297 ], [ -87.756595604, 33.292812295 ], [ -87.756323405, 33.292330995 ], [ -87.756078906, 33.291643493 ], [ -87.756161205, 33.291208297 ], [ -87.7564345, 33.290887795 ], [ -87.756353602, 33.290200494 ], [ -87.755863301, 33.289672993 ], [ -87.755290702, 33.289466195 ], [ -87.754499502, 33.289557196 ], [ -87.754336007, 33.289465398 ], [ -87.754527606, 33.288984396 ], [ -87.754910007, 33.288618296 ], [ -87.755320206, 33.2878168 ], [ -87.755348004, 33.287450299 ], [ -87.754530706, 33.286693498 ], [ -87.754094601, 33.286463998 ], [ -87.753249101, 33.286348596 ], [ -87.753167607, 33.286165297 ], [ -87.753249906, 33.285844594 ], [ -87.753933802, 33.284356199 ], [ -87.753934801, 33.283691697 ], [ -87.753744401, 33.283279099 ], [ -87.753745101, 33.282798097 ], [ -87.754154302, 33.282683894 ], [ -87.754317805, 33.282798596 ], [ -87.754671805, 33.283303 ], [ -87.755080901, 33.283280596 ], [ -87.755545303, 33.282753997 ], [ -87.756255105, 33.282273494 ], [ -87.756201103, 33.281929798 ], [ -87.755383305, 33.281562597 ], [ -87.754756607, 33.281103797 ], [ -87.753638506, 33.2808965 ], [ -87.7533933, 33.280690096 ], [ -87.753366604, 33.280277699 ], [ -87.754459605, 33.278858297 ], [ -87.754487202, 33.278629199 ], [ -87.754269101, 33.278491594 ], [ -87.753914505, 33.278537095 ], [ -87.753259204, 33.278971799 ], [ -87.752413407, 33.279245794 ], [ -87.752113305, 33.279245496 ], [ -87.751568101, 33.279038794 ] ] } },
{ "type": "Feature", "properties": { "site_no": "02446500", "nhdplus_comid": "18616122", "navigation_mode": "UM", "requested_distance_km": 12.0, "start_source": "nwissite", "start_id": "USGS-02446500", "geometry_length_km": 0.1312232274251196 }, "geometry": { "type": "LineString", "coordinates": [ [ -87.758039907, 33.294004999 ], [ -87.757030107, 33.294278994 ], [ -87.756675504, 33.294255696 ] ] } },
{ "type": "Feature", "properties": { "site_no": "02446500", "nhdplus_comid": "18616124", "navigation_mode": "UM", "requested_distance_km": 12.0, "start_source": "nwissite", "start_id": "USGS-02446500", "geometry_length_km": 9.2913259506682202 }, "geometry": { "type": "LineString", "coordinates": [ [ -87.761062704, 33.340697497 ], [ -87.760162301, 33.340421699 ], [ -87.759098105, 33.340260394 ], [ -87.759098403, 33.340077095 ], [ -87.7597811, 33.3397341 ], [ -87.760109201, 33.339299098 ], [ -87.760136805, 33.339070097 ], [ -87.759782203, 33.338863499 ], [ -87.758690603, 33.338816598 ], [ -87.758417904, 33.338655993 ], [ -87.7582817, 33.338449799 ], [ -87.758227803, 33.337876998 ], [ -87.758337401, 33.337556295 ], [ -87.758883804, 33.337098598 ], [ -87.758911505, 33.336823694 ], [ -87.758311503, 33.336525299 ], [ -87.758257203, 33.336250395 ], [ -87.758448601, 33.336021498 ], [ -87.758912601, 33.335976094 ], [ -87.759594403, 33.336366095 ], [ -87.759976506, 33.336435199 ], [ -87.760031506, 33.336068794 ], [ -87.759595402, 33.335587293 ], [ -87.758940801, 33.335265994 ], [ -87.758941002, 33.335082695 ], [ -87.759159602, 33.334968299 ], [ -87.760742605, 33.334878094 ], [ -87.761289001, 33.3345121 ], [ -87.761262104, 33.334122598 ], [ -87.760935105, 33.333824493 ], [ -87.759953007, 33.333411194 ], [ -87.759953305, 33.333205 ], [ -87.761482507, 33.332519196 ], [ -87.761755802, 33.332244493 ], [ -87.761838503, 33.331580199 ], [ -87.761621103, 33.330892697 ], [ -87.761348903, 33.330319695 ], [ -87.760667503, 33.329631798 ], [ -87.7602861, 33.329150297 ], [ -87.759986103, 33.329012595 ], [ -87.758949004, 33.329034597 ], [ -87.758294202, 33.328919396 ], [ -87.758157901, 33.328781895 ], [ -87.758131005, 33.3284382 ], [ -87.758213103, 33.328300796 ], [ -87.759087101, 33.327682994 ], [ -87.7590876, 33.327293597 ], [ -87.758460805, 33.326674499 ], [ -87.756851606, 33.325939797 ], [ -87.756906703, 33.325573295 ], [ -87.757835105, 33.325092994 ], [ -87.758108802, 33.324589297 ], [ -87.758327305, 33.324452095 ], [ -87.7599378, 33.3241558 ], [ -87.759964801, 33.324339196 ], [ -87.759636402, 33.325026095 ], [ -87.759826303, 33.325942598 ], [ -87.760153502, 33.326126195 ], [ -87.761136301, 33.325875096 ], [ -87.761218704, 33.325394094 ], [ -87.760865301, 33.324316993 ], [ -87.760841005, 33.322048895 ], [ -87.760705002, 33.3216822 ], [ -87.760241903, 33.321063295 ], [ -87.760078706, 33.3206736 ], [ -87.760134004, 33.320123896 ], [ -87.760325201, 33.319940798 ], [ -87.761745006, 33.319277696 ], [ -87.762127705, 33.318774097 ], [ -87.762183204, 33.318040997 ], [ -87.761719801, 33.317582399 ], [ -87.761501707, 33.317513496 ], [ -87.760137506, 33.317420594 ], [ -87.760110505, 33.317191496 ], [ -87.760657005, 33.316573493 ], [ -87.761176802, 33.315496996 ], [ -87.760986, 33.315313697 ], [ -87.760767706, 33.3152906 ], [ -87.759866603, 33.315770797 ], [ -87.759730406, 33.315679096 ], [ -87.759757906, 33.315404199 ], [ -87.7604957, 33.314740397 ], [ -87.761015207, 33.313893296 ], [ -87.760960802, 33.313664094 ], [ -87.759433806, 33.312883794 ], [ -87.758696705, 33.313203894 ], [ -87.758614905, 33.313134998 ], [ -87.758615404, 33.312814295 ], [ -87.758861303, 33.312516794 ], [ -87.759625904, 33.312059194 ], [ -87.759817205, 33.3118532 ], [ -87.760172904, 33.3110746 ], [ -87.759982303, 33.310707994 ], [ -87.759982802, 33.310364299 ], [ -87.760937802, 33.310319394 ], [ -87.761156306, 33.310204998 ], [ -87.761156805, 33.309815496 ], [ -87.760938801, 33.309563294 ], [ -87.760475107, 33.309402496 ], [ -87.7592474, 33.309378497 ], [ -87.758892804, 33.309263594 ], [ -87.758647703, 33.308965497 ], [ -87.758539006, 33.308644697 ], [ -87.758241005, 33.306949198 ], [ -87.758541301, 33.306880698 ], [ -87.758677602, 33.306949593 ], [ -87.758868806, 33.306789398 ], [ -87.758896306, 33.306583196 ], [ -87.758433007, 33.306216195 ], [ -87.758460604, 33.305987097 ], [ -87.759169906, 33.306010693 ], [ -87.759443201, 33.305644393 ], [ -87.759607404, 33.3052551 ], [ -87.759908006, 33.304934599 ], [ -87.759935506, 33.304705493 ], [ -87.759826601, 33.304568 ], [ -87.759827301, 33.304018199 ], [ -87.760155305, 33.303560294 ], [ -87.759746403, 33.303307898 ], [ -87.758955404, 33.303146794 ], [ -87.758846506, 33.303009294 ], [ -87.758819401, 33.302780099 ], [ -87.761031903, 33.300788999 ], [ -87.7610595, 33.300491199 ], [ -87.760650501, 33.300422095 ], [ -87.759749904, 33.300673299 ], [ -87.759395204, 33.300672896 ], [ -87.758740604, 33.300511993 ], [ -87.758577205, 33.300259896 ], [ -87.7585233, 33.299847499 ], [ -87.759124704, 33.298931599 ], [ -87.759289406, 33.298061199 ], [ -87.759098902, 33.297763199 ], [ -87.758689903, 33.297533698 ], [ -87.757271901, 33.297188796 ], [ -87.756972, 33.2969594 ], [ -87.756999902, 33.296455398 ], [ -87.7572731, 33.296180695 ], [ -87.7572743, 33.295355894 ], [ -87.757438205, 33.295126997 ], [ -87.758366302, 33.294692598 ], [ -87.759348601, 33.294601798 ], [ -87.759703301, 33.2944647 ], [ -87.759730905, 33.294235595 ], [ -87.759594701, 33.294120997 ], [ -87.759158403, 33.293937296 ], [ -87.758531101, 33.293913797 ], [ -87.758039907, 33.294004999 ] ] } }
]
}
