{
"type": "FeatureCollection",
"name": "USGS_02469761_DM_12km",
"crs": { "type": "name", "properties": { "name": "urn:ogc:def:crs:OGC:1.3:CRS84" } },
"features": [
{ "type": "Feature", "properties": { "site_no": "02469761", "nhdplus_comid": "18548516", "navigation_mode": "DM", "requested_distance_km": 12.0, "start_source": "nwissite", "start_id": "USGS-02469761", "geometry_length_km": 0.49034779496936182 }, "geometry": { "type": "LineString", "coordinates": [ [ -88.12872417, 31.758110034 ], [ -88.1278456, 31.758600898 ], [ -88.126329601, 31.7588728 ], [ -88.124000303, 31.759844199 ] ] } },
{ "type": "Feature", "properties": { "site_no": "02469761", "nhdplus_comid": "21640694", "navigation_mode": "DM", "requested_distance_km": 12.0, "start_source": "nwissite", "start_id": "USGS-02469761", "geometry_length_km": 1.5715285838971844 }, "geometry": { "type": "LineString", "coordinates": [ [ -88.124000303, 31.759844199 ], [ -88.121190406, 31.761160098 ], [ -88.117369607, 31.762152597 ], [ -88.112106204, 31.762664795 ], [ -88.107964501, 31.762372896 ] ] } },
{ "type": "Feature", "properties": { "site_no": "02469761", "nhdplus_comid": "21640696", "navigation_mode": "DM", "requested_distance_km": 12.0, "start_source": "nwissite", "start_id": "USGS-02469761", "geometry_length_km": 2.4483002982746029 }, "geometry": { "type": "LineString", "coordinates": [ [ -88.107964501, 31.762372896 ], [ -88.105264902, 31.761047296 ], [ -88.103921302, 31.759564996 ], [ -88.100827307, 31.7531657 ], [ -88.099237405, 31.748133898 ], [ -88.096587807, 31.743279397 ] ] } },
{ "type": "Feature", "properties": { "site_no": "02469761", "nhdplus_comid": "21640704", "navigation_mode": "DM", "requested_distance_km": 12.0, "start_source": "nwissite", "start_id": "USGS-02469761", "geometry_length_km": 0.54033952360528703 }, "geometry": { "type": "LineString", "coordinates": [ [ -88.096587807, 31.743279397 ], [ -88.0960702, 31.742486 ], [ -88.094037101, 31.738936394 ] ] } },
{ "type": "Feature", "properties": { "site_no": "02469761", "nhdplus_comid": "21640706", "navigation_mode": "DM", "requested_distance_km": 12.0, "start_source": "nwissite", "start_id": "USGS-02469761", "geometry_length_km": 2.1387752013229631 }, "geometry": { "type": "LineString", "coordinates": [ [ -88.094037101, 31.738936394 ], [ -88.093310207, 31.737245098 ], [ -88.092916004, 31.7351989 ], [ -88.093076505, 31.730542697 ], [ -88.092743903, 31.729383796 ], [ -88.0928303, 31.726992995 ], [ -88.092584103, 31.724957198 ], [ -88.092867807, 31.720561996 ], [ -88.093077302, 31.719945997 ] ] } },
{ "type": "Feature", "properties": { "site_no": "02469761", "nhdplus_comid": "21640712", "navigation_mode": "DM", "requested_distance_km": 12.0, "start_source": "nwissite", "start_id": "USGS-02469761", "geometry_length_km": 2.1156094714022879 }, "geometry": { "type": "LineString", "coordinates": [ [ -88.093077302, 31.719945997 ], [ -88.092006005, 31.712679498 ], [ -88.088755205, 31.701852597 ], [ -88.088804603, 31.701351397 ] ] } }
]
}
