{
"type": "FeatureCollection",
"name": "USGS_02425200_UM_12km",
"crs": { "type": "name", "properties": { "name": "urn:ogc:def:crs:OGC:1.3:CRS84" } },
"features": [
{ "type": "Feature", "properties": { "site_no": "02425200", "nhdplus_comid": "21455082", "navigation_mode": "UM", "requested_distance_km": 12.0, "start_source": "nwissite", "start_id": "USGS-02425200", "geometry_length_km": 0.39785887702997386 }, "geometry": { "type": "LineString", "coordinates": [ [ -87.164723903, 32.222588696 ], [ -87.164535105, 32.222336695 ], [ -87.164696604, 32.221832395 ], [ -87.164723203, 32.221145093 ], [ -87.164615303, 32.220824197 ], [ -87.164372705, 32.220709793 ], [ -87.163941301, 32.220732793 ], [ -87.162755504, 32.221168496 ], [ -87.162706156, 32.221172706 ] ] } },
{ "type": "Feature", "properties": { "site_no": "02425200", "nhdplus_comid": "21455016", "navigation_mode": "UM", "requested_distance_km": 12.0, "start_source": "nwissite", "start_id": "USGS-02425200", "geometry_length_km": 3.1850712207270835 }, "geometry": { "type": "LineString", "coordinates": [ [ -87.190018006, 32.234906197 ], [ -87.189963907, 32.234654196 ], [ -87.189883001, 32.234608397 ], [ -87.189855807, 32.234264694 ], [ -87.189774901, 32.234218895 ], [ -87.189585701, 32.233646199 ], [ -87.189207904, 32.233210899 ], [ -87.188480005, 32.233211398 ], [ -87.188075505, 32.233119898 ], [ -87.1873473, 32.232661895 ], [ -87.186996803, 32.232616298 ], [ -87.186026506, 32.232937597 ], [ -87.185379505, 32.233029597 ], [ -87.184975006, 32.232754797 ], [ -87.184273407, 32.231815599 ], [ -87.183383502, 32.231518194 ], [ -87.182439901, 32.231403999 ], [ -87.1814695, 32.2314732 ], [ -87.180768706, 32.231656894 ], [ -87.179852106, 32.231771894 ], [ -87.178935401, 32.231497198 ], [ -87.178315103, 32.231107898 ], [ -87.177613907, 32.2308103 ], [ -87.176373601, 32.230421297 ], [ -87.174890503, 32.2298031 ], [ -87.173973903, 32.229688898 ], [ -87.173057206, 32.229368493 ], [ -87.172706701, 32.229345798 ], [ -87.171925001, 32.229460597 ], [ -87.171223901, 32.229208797 ], [ -87.170792401, 32.228933997 ], [ -87.169174202, 32.227559693 ], [ -87.1687425, 32.2270099 ], [ -87.168580607, 32.226620398 ], [ -87.1686344, 32.226253696 ], [ -87.169173107, 32.225451499 ], [ -87.1692269, 32.225176595 ], [ -87.168957204, 32.224970393 ], [ -87.168121502, 32.224901997 ], [ -87.167663105, 32.224718794 ], [ -87.166827202, 32.224054597 ], [ -87.166557506, 32.223688096 ], [ -87.166530401, 32.2235047 ], [ -87.166152805, 32.222908996 ], [ -87.165721305, 32.222702898 ], [ -87.164723903, 32.222588696 ] ] } },
{ "type": "Feature", "properties": { "site_no": "02425200", "nhdplus_comid": "21454978", "navigation_mode": "UM", "requested_distance_km": 12.0, "start_source": "nwissite", "start_id": "USGS-02425200", "geometry_length_km": 0.38214662179126829 }, "geometry": { "type": "LineString", "coordinates": [ [ -87.193819404, 32.234927095 ], [ -87.1929297, 32.234858796 ], [ -87.192444406, 32.234973699 ], [ -87.191905506, 32.235294797 ], [ -87.190935001, 32.235318199 ], [ -87.190449603, 32.235158093 ], [ -87.190018006, 32.234906197 ] ] } },
{ "type": "Feature", "properties": { "site_no": "02425200", "nhdplus_comid": "21456488", "navigation_mode": "UM", "requested_distance_km": 12.0, "start_source": "nwissite", "start_id": "USGS-02425200", "geometry_length_km": 7.5570063192603572 }, "geometry": { "type": "LineString", "coordinates": [ [ -87.216322102, 32.280393697 ], [ -87.216699101, 32.279728897 ], [ -87.217103101, 32.279178694 ], [ -87.217830904, 32.278719798 ], [ -87.217830203, 32.278146997 ], [ -87.217749201, 32.2780784 ], [ -87.217694506, 32.277253494 ], [ -87.217855901, 32.276909694 ], [ -87.218502507, 32.2762217 ], [ -87.219418801, 32.275510699 ], [ -87.220846802, 32.274043098 ], [ -87.221439302, 32.273171797 ], [ -87.2214652, 32.2721406 ], [ -87.221545801, 32.271888494 ], [ -87.223027706, 32.270443797 ], [ -87.223027207, 32.269985497 ], [ -87.222864605, 32.269412793 ], [ -87.223645307, 32.268105999 ], [ -87.223751307, 32.2663415 ], [ -87.224316403, 32.265218399 ], [ -87.224315301, 32.264209993 ], [ -87.224880807, 32.2634077 ], [ -87.2248265, 32.263109796 ], [ -87.224637404, 32.262789093 ], [ -87.224043503, 32.262285493 ], [ -87.223665506, 32.261827499 ], [ -87.223665304, 32.2616212 ], [ -87.224365905, 32.261139497 ], [ -87.224392205, 32.260543697 ], [ -87.224526502, 32.260131195 ], [ -87.224849604, 32.259649694 ], [ -87.224849001, 32.259122595 ], [ -87.224147007, 32.258275397 ], [ -87.224146001, 32.257358797 ], [ -87.223632604, 32.256442599 ], [ -87.223577805, 32.255686499 ], [ -87.223037601, 32.254838996 ], [ -87.222982407, 32.253670394 ], [ -87.223439701, 32.252615996 ], [ -87.223466203, 32.252180599 ], [ -87.223007001, 32.251562193 ], [ -87.222197101, 32.250714995 ], [ -87.221334904, 32.250147194 ], [ -87.220174506, 32.249231599 ], [ -87.218905501, 32.247582696 ], [ -87.218554303, 32.246941298 ], [ -87.218553901, 32.246597596 ], [ -87.218823105, 32.246230796 ], [ -87.218849704, 32.245818295 ], [ -87.218768604, 32.245657898 ], [ -87.218174905, 32.245268896 ], [ -87.218012907, 32.245016895 ], [ -87.217634305, 32.243917294 ], [ -87.217418604, 32.243848696 ], [ -87.216933206, 32.243848994 ], [ -87.216636501, 32.243757598 ], [ -87.216393404, 32.243345395 ], [ -87.216365501, 32.242382795 ], [ -87.216472402, 32.241420299 ], [ -87.216391303, 32.241237193 ], [ -87.215689801, 32.240710594 ], [ -87.214988105, 32.240046598 ], [ -87.214529507, 32.239817798 ], [ -87.213612601, 32.239566296 ], [ -87.213126905, 32.239337593 ], [ -87.212425202, 32.238558896 ], [ -87.211912602, 32.238123998 ], [ -87.210079104, 32.237918995 ], [ -87.209404707, 32.2376903 ], [ -87.208541401, 32.236957595 ], [ -87.207354605, 32.236339696 ], [ -87.203956701, 32.235310696 ], [ -87.2020154, 32.235197395 ], [ -87.201153003, 32.235541694 ], [ -87.200640902, 32.235633597 ], [ -87.199858807, 32.2354277 ], [ -87.199508302, 32.235405095 ], [ -87.199373707, 32.235611297 ], [ -87.199347101, 32.236092597 ], [ -87.199131601, 32.236299098 ], [ -87.198619403, 32.236390896 ], [ -87.196624003, 32.235864997 ], [ -87.196327403, 32.235842295 ], [ -87.195276007, 32.236003295 ], [ -87.194979303, 32.235888794 ], [ -87.194277905, 32.235224798 ], [ -87.193846405, 32.235018693 ], [ -87.193819404, 32.234927095 ] ] } }
]
}
