{
"type": "FeatureCollection",
"name": "USGS_02407500_UM_12km",
"crs": { "type": "name", "properties": { "name": "urn:ogc:def:crs:OGC:1.3:CRS84" } },
"features": [
{ "type": "Feature", "properties": { "site_no": "02407500", "nhdplus_comid": "22273204", "navigation_mode": "UM", "requested_distance_km": 12.0, "start_source": "nwissite", "start_id": "USGS-02407500", "geometry_length_km": 0.92367428924889738 }, "geometry": { "type": "LineString", "coordinates": [ [ -86.5602936, 33.306655094 ], [ -86.558628701, 33.307295799 ], [ -86.558001101, 33.307409994 ], [ -86.556473106, 33.307386197 ], [ -86.554562606, 33.3080725 ], [ -86.553907804, 33.308072098 ], [ -86.553553306, 33.307865694 ], [ -86.552299201, 33.306604996 ], [ -86.551944703, 33.306467198 ], [ -86.551781006, 33.306398399 ], [ -86.55152668, 33.306446467 ] ] } },
{ "type": "Feature", "properties": { "site_no": "02407500", "nhdplus_comid": "166745457", "navigation_mode": "UM", "requested_distance_km": 12.0, "start_source": "nwissite", "start_id": "USGS-02407500", "geometry_length_km": 1.37099036050138 }, "geometry": { "type": "LineString", "coordinates": [ [ -86.564713605, 33.298796996 ], [ -86.564589202, 33.298881799 ], [ -86.564336903, 33.299142696 ], [ -86.564281702, 33.300013296 ], [ -86.564363502, 33.300150797 ], [ -86.565999605, 33.301388696 ], [ -86.566626601, 33.302099198 ], [ -86.566762902, 33.302397199 ], [ -86.566735402, 33.3026262 ], [ -86.566407807, 33.302855097 ], [ -86.565780103, 33.3031068 ], [ -86.564197704, 33.303037293 ], [ -86.563843004, 33.303151697 ], [ -86.563297004, 33.303655498 ], [ -86.561659604, 33.304135799 ], [ -86.561141007, 33.304501995 ], [ -86.560867503, 33.305280797 ], [ -86.560484804, 33.306357399 ], [ -86.560375504, 33.306449093 ], [ -86.5602936, 33.306655094 ] ] } },
{ "type": "Feature", "properties": { "site_no": "02407500", "nhdplus_comid": "166745458", "navigation_mode": "UM", "requested_distance_km": 12.0, "start_source": "nwissite", "start_id": "USGS-02407500", "geometry_length_km": 2.3224599949449183 }, "geometry": { "type": "LineString", "coordinates": [ [ -86.582234204, 33.298875399 ], [ -86.582097903, 33.298623398 ], [ -86.580379702, 33.297591694 ], [ -86.579670504, 33.297385298 ], [ -86.5787974, 33.297385 ], [ -86.578333504, 33.297522195 ], [ -86.5778969, 33.297842793 ], [ -86.5777876, 33.298048995 ], [ -86.577787206, 33.2987592 ], [ -86.5780323, 33.299515299 ], [ -86.577950403, 33.299675696 ], [ -86.577732101, 33.299767196 ], [ -86.576695301, 33.299995899 ], [ -86.576340504, 33.300247796 ], [ -86.576340206, 33.300683096 ], [ -86.576585606, 33.301049799 ], [ -86.5765853, 33.3014393 ], [ -86.576448806, 33.3016911 ], [ -86.576039404, 33.302011698 ], [ -86.575220704, 33.302286297 ], [ -86.574511304, 33.302263096 ], [ -86.573965803, 33.302125394 ], [ -86.573584005, 33.301735796 ], [ -86.573065706, 33.301666796 ], [ -86.572929703, 33.300979495 ], [ -86.570174105, 33.301024094 ], [ -86.568701103, 33.300610997 ], [ -86.567746803, 33.299785793 ], [ -86.566628903, 33.2986857 ], [ -86.564713605, 33.298796996 ] ] } },
{ "type": "Feature", "properties": { "site_no": "02407500", "nhdplus_comid": "22271402", "navigation_mode": "UM", "requested_distance_km": 12.0, "start_source": "nwissite", "start_id": "USGS-02407500", "geometry_length_km": 1.5753024869567744 }, "geometry": { "type": "LineString", "coordinates": [ [ -86.590306304, 33.307217196 ], [ -86.590115406, 33.307010897 ], [ -86.5900883, 33.306369394 ], [ -86.589979306, 33.306163199 ], [ -86.588806406, 33.305590093 ], [ -86.588451803, 33.3053151 ], [ -86.588015504, 33.304627597 ], [ -86.5876882, 33.304329693 ], [ -86.587142602, 33.304214999 ], [ -86.586815104, 33.304421097 ], [ -86.586760402, 33.304718897 ], [ -86.587060302, 33.305291697 ], [ -86.586678207, 33.305360399 ], [ -86.586023703, 33.304810293 ], [ -86.585396603, 33.303847894 ], [ -86.585396707, 33.303733297 ], [ -86.584742203, 33.302977197 ], [ -86.584469505, 33.302587599 ], [ -86.584469907, 33.301946096 ], [ -86.584360801, 33.301854499 ], [ -86.583378606, 33.301808298 ], [ -86.583133101, 33.301647894 ], [ -86.582424402, 33.300387599 ], [ -86.582097203, 33.299997896 ], [ -86.582042806, 33.299516797 ], [ -86.582234204, 33.298875399 ] ] } },
{ "type": "Feature", "properties": { "site_no": "02407500", "nhdplus_comid": "22271362", "navigation_mode": "UM", "requested_distance_km": 12.0, "start_source": "nwissite", "start_id": "USGS-02407500", "geometry_length_km": 0.92574218908551231 }, "geometry": { "type": "LineString", "coordinates": [ [ -86.5942875, 33.314297497 ], [ -86.593660101, 33.313655794 ], [ -86.592923507, 33.313128695 ], [ -86.592132404, 33.312761895 ], [ -86.591777802, 33.312395297 ], [ -86.591477901, 33.311891198 ], [ -86.591396205, 33.311341293 ], [ -86.591150805, 33.310791396 ], [ -86.5911512, 33.309737496 ], [ -86.590933003, 33.309302196 ], [ -86.590796903, 33.308523193 ], [ -86.590360604, 33.308019094 ], [ -86.590306304, 33.307217196 ] ] } },
{ "type": "Feature", "properties": { "site_no": "02407500", "nhdplus_comid": "22273200", "navigation_mode": "UM", "requested_distance_km": 12.0, "start_source": "nwissite", "start_id": "USGS-02407500", "geometry_length_km": 1.0205531500579947 }, "geometry": { "type": "LineString", "coordinates": [ [ -86.602172107, 33.319339499 ], [ -86.601762801, 33.318926997 ], [ -86.601708405, 33.318652093 ], [ -86.601790302, 33.318193898 ], [ -86.601790406, 33.317644097 ], [ -86.601135604, 33.317414798 ], [ -86.600562707, 33.317048199 ], [ -86.599716805, 33.3170022 ], [ -86.599253006, 33.316635497 ], [ -86.598843701, 33.316452093 ], [ -86.597861603, 33.315741695 ], [ -86.596633807, 33.315420695 ], [ -86.595378906, 33.314435296 ], [ -86.594915107, 33.314297594 ], [ -86.5942875, 33.314297497 ] ] } },
{ "type": "Feature", "properties": { "site_no": "02407500", "nhdplus_comid": "22273198", "navigation_mode": "UM", "requested_distance_km": 12.0, "start_source": "nwissite", "start_id": "USGS-02407500", "geometry_length_km": 0.76087566764146131 }, "geometry": { "type": "LineString", "coordinates": [ [ -86.608148701, 33.316866197 ], [ -86.607712202, 33.316728696 ], [ -86.605583601, 33.317163594 ], [ -86.605119705, 33.317346796 ], [ -86.604246207, 33.318125598 ], [ -86.603755005, 33.318400495 ], [ -86.603400402, 33.318377495 ], [ -86.602827303, 33.3180108 ], [ -86.602499902, 33.318056598 ], [ -86.6024452, 33.318537697 ], [ -86.602554202, 33.318995893 ], [ -86.602445006, 33.319247998 ], [ -86.602172107, 33.319339499 ] ] } },
{ "type": "Feature", "properties": { "site_no": "02407500", "nhdplus_comid": "22271294", "navigation_mode": "UM", "requested_distance_km": 12.0, "start_source": "nwissite", "start_id": "USGS-02407500", "geometry_length_km": 1.0211226385425125 }, "geometry": { "type": "LineString", "coordinates": [ [ -86.613633305, 33.3195474 ], [ -86.613415003, 33.319134898 ], [ -86.613224, 33.318997495 ], [ -86.612842001, 33.318951599 ], [ -86.612487301, 33.3190661 ], [ -86.611504607, 33.320119895 ], [ -86.611067906, 33.320394695 ], [ -86.609839901, 33.3204633 ], [ -86.609157704, 33.320715196 ], [ -86.608721003, 33.320715196 ], [ -86.608557403, 33.320623495 ], [ -86.6085575, 33.319729999 ], [ -86.608366504, 33.319455095 ], [ -86.608366601, 33.319157295 ], [ -86.608448505, 33.319088496 ], [ -86.608530506, 33.318584494 ], [ -86.608257607, 33.318194993 ], [ -86.608230606, 33.317163996 ], [ -86.608148701, 33.316866197 ] ] } }
]
}
