{
"type": "FeatureCollection",
"name": "USGS_02451000_UM_12km",
"crs": { "type": "name", "properties": { "name": "urn:ogc:def:crs:OGC:1.3:CRS84" } },
"features": [
{ "type": "Feature", "properties": { "site_no": "02451000", "nhdplus_comid": "18580419", "navigation_mode": "UM", "requested_distance_km": 12.0, "start_source": "comid_position_fallback", "start_id": "18580419", "geometry_length_km": 1.9472242549275378 }, "geometry": { "type": "LineString", "coordinates": [ [ -87.2889558, 34.029008098 ], [ -87.288334206, 34.027179897 ], [ -87.286019705, 34.023820996 ], [ -87.284186803, 34.020971298 ], [ -87.281665906, 34.019456893 ], [ -87.275253601, 34.016823798 ] ] } },
{ "type": "Feature", "properties": { "site_no": "02451000", "nhdplus_comid": "18580427", "navigation_mode": "UM", "requested_distance_km": 12.0, "start_source": "comid_position_fallback", "start_id": "18580419", "geometry_length_km": 1.0170199568283549 }, "geometry": { "type": "LineString", "coordinates": [ [ -87.290622503, 34.035060994 ], [ -87.2905844, 34.035058096 ], [ -87.290099405, 34.034926996 ], [ -87.289829403, 34.034591399 ], [ -87.2895905, 34.0343211 ], [ -87.289379306, 34.034147598 ], [ -87.288849004, 34.034076095 ], [ -87.288277306, 34.034032993 ], [ -87.287543304, 34.033378594 ], [ -87.286563903, 34.032169797 ], [ -87.286498606, 34.031723395 ], [ -87.286925405, 34.0313458 ], [ -87.287698202, 34.031309493 ], [ -87.288412601, 34.031111099 ], [ -87.288822204, 34.030542895 ], [ -87.2889558, 34.029008098 ] ] } },
{ "type": "Feature", "properties": { "site_no": "02451000", "nhdplus_comid": "18580425", "navigation_mode": "UM", "requested_distance_km": 12.0, "start_source": "comid_position_fallback", "start_id": "18580419", "geometry_length_km": 1.3275919750511294 }, "geometry": { "type": "LineString", "coordinates": [ [ -87.299365506, 34.041692398 ], [ -87.297953703, 34.041004494 ], [ -87.296914503, 34.040327199 ], [ -87.296475306, 34.039442897 ], [ -87.296261303, 34.038607098 ], [ -87.295866907, 34.038009897 ], [ -87.295139402, 34.037639797 ], [ -87.294106901, 34.037246697 ], [ -87.293037102, 34.036157295 ], [ -87.292757101, 34.035568699 ], [ -87.292674601, 34.034931898 ], [ -87.292557105, 34.034607798 ], [ -87.291985705, 34.034217894 ], [ -87.291725904, 34.034135297 ], [ -87.291531801, 34.034152195 ], [ -87.291236803, 34.034382194 ], [ -87.291122206, 34.034720294 ], [ -87.290889405, 34.035081096 ], [ -87.290622503, 34.035060994 ] ] } },
{ "type": "Feature", "properties": { "site_no": "02451000", "nhdplus_comid": "933160021", "navigation_mode": "UM", "requested_distance_km": 12.0, "start_source": "comid_position_fallback", "start_id": "18580419", "geometry_length_km": 0.066932916089774031 }, "geometry": { "type": "LineString", "coordinates": [ [ -87.300009504, 34.041963696 ], [ -87.299888201, 34.041875996 ], [ -87.299365506, 34.041692398 ] ] } },
{ "type": "Feature", "properties": { "site_no": "02451000", "nhdplus_comid": "933160020", "navigation_mode": "UM", "requested_distance_km": 12.0, "start_source": "comid_position_fallback", "start_id": "18580419", "geometry_length_km": 0.232666288990165 }, "geometry": { "type": "LineString", "coordinates": [ [ -87.302419603, 34.042175196 ], [ -87.300658405, 34.042288795 ], [ -87.300300702, 34.042173997 ], [ -87.300009504, 34.041963696 ] ] } },
{ "type": "Feature", "properties": { "site_no": "02451000", "nhdplus_comid": "18579969", "navigation_mode": "UM", "requested_distance_km": 12.0, "start_source": "comid_position_fallback", "start_id": "18580419", "geometry_length_km": 1.819581660682333 }, "geometry": { "type": "LineString", "coordinates": [ [ -87.306869201, 34.053013198 ], [ -87.306484006, 34.052944295 ], [ -87.306347504, 34.051546894 ], [ -87.306210004, 34.0514322 ], [ -87.305907302, 34.0514092 ], [ -87.305191502, 34.051729493 ], [ -87.304696105, 34.051729195 ], [ -87.304310903, 34.051614396 ], [ -87.304146007, 34.051431 ], [ -87.3040087, 34.050835393 ], [ -87.304173902, 34.050652198 ], [ -87.304889701, 34.050377697 ], [ -87.305192702, 34.0501718 ], [ -87.305220604, 34.049621999 ], [ -87.305028401, 34.049026199 ], [ -87.305028901, 34.048384793 ], [ -87.305111706, 34.048109993 ], [ -87.305196002, 34.045979597 ], [ -87.305031002, 34.045864895 ], [ -87.303380102, 34.045428693 ], [ -87.301399603, 34.044534199 ], [ -87.300959602, 34.044052795 ], [ -87.3010699, 34.043800898 ], [ -87.301262707, 34.043617696 ], [ -87.302171201, 34.0431602 ], [ -87.302446805, 34.042724997 ], [ -87.302419603, 34.042175196 ] ] } },
{ "type": "Feature", "properties": { "site_no": "02451000", "nhdplus_comid": "18579931", "navigation_mode": "UM", "requested_distance_km": 12.0, "start_source": "comid_position_fallback", "start_id": "18580419", "geometry_length_km": 1.5107747561106313 }, "geometry": { "type": "LineString", "coordinates": [ [ -87.312812202, 34.055421695 ], [ -87.312426805, 34.055513196 ], [ -87.3116832, 34.056383297 ], [ -87.310746901, 34.057024196 ], [ -87.310471706, 34.057069898 ], [ -87.310224004, 34.056932293 ], [ -87.310115106, 34.0553746 ], [ -87.310005203, 34.055099599 ], [ -87.30962, 34.054824494 ], [ -87.309069604, 34.0548013 ], [ -87.308051005, 34.055167295 ], [ -87.307693005, 34.055487797 ], [ -87.307417706, 34.055556394 ], [ -87.307197601, 34.055418797 ], [ -87.307005607, 34.054593995 ], [ -87.307281107, 34.054227598 ], [ -87.308519706, 34.054022096 ], [ -87.308960401, 34.053724594 ], [ -87.308988102, 34.053426795 ], [ -87.309153505, 34.053128995 ], [ -87.309153803, 34.052670799 ], [ -87.308603607, 34.052372798 ], [ -87.307943001, 34.052372396 ], [ -87.307640307, 34.052509598 ], [ -87.307392202, 34.052898996 ], [ -87.307227001, 34.052990496 ], [ -87.306869201, 34.053013198 ] ] } },
{ "type": "Feature", "properties": { "site_no": "02451000", "nhdplus_comid": "18579913", "navigation_mode": "UM", "requested_distance_km": 12.0, "start_source": "comid_position_fallback", "start_id": "18580419", "geometry_length_km": 0.67791954687118305 }, "geometry": { "type": "LineString", "coordinates": [ [ -87.316857703, 34.055744395 ], [ -87.316802606, 34.055904798 ], [ -87.316307105, 34.056225196 ], [ -87.315811604, 34.056293696 ], [ -87.315701805, 34.055835493 ], [ -87.316060007, 34.055217199 ], [ -87.316142805, 34.054713197 ], [ -87.315785207, 34.054438099 ], [ -87.315372504, 34.054346293 ], [ -87.3148221, 34.054323196 ], [ -87.313555807, 34.054643199 ], [ -87.3129225, 34.055124 ], [ -87.312812202, 34.055421695 ] ] } },
{ "type": "Feature", "properties": { "site_no": "02451000", "nhdplus_comid": "18579909", "navigation_mode": "UM", "requested_distance_km": 12.0, "start_source": "comid_position_fallback", "start_id": "18580419", "geometry_length_km": 1.6715251466427843 }, "geometry": { "type": "LineString", "coordinates": [ [ -87.329127803, 34.0654625 ], [ -87.327201404, 34.064637095 ], [ -87.326596104, 34.064270295 ], [ -87.325908504, 34.063491195 ], [ -87.325551003, 34.062826596 ], [ -87.324973203, 34.062459797 ], [ -87.323982306, 34.062390797 ], [ -87.323514603, 34.062023997 ], [ -87.322799601, 34.061038695 ], [ -87.321259007, 34.059778094 ], [ -87.320654005, 34.058724195 ], [ -87.320571706, 34.058334693 ], [ -87.320489205, 34.058288798 ], [ -87.320489302, 34.058151297 ], [ -87.320406705, 34.058105499 ], [ -87.320406802, 34.057967998 ], [ -87.320104405, 34.057372294 ], [ -87.3198018, 34.057097293 ], [ -87.319692001, 34.0568223 ], [ -87.319031805, 34.056203596 ], [ -87.318591505, 34.056020096 ], [ -87.317490704, 34.0557447 ], [ -87.316857703, 34.055744395 ] ] } }
]
}
