{
"type": "FeatureCollection",
"name": "USGS_02421105_DM_12km",
"crs": { "type": "name", "properties": { "name": "urn:ogc:def:crs:OGC:1.3:CRS84" } },
"features": [
{ "type": "Feature", "properties": { "site_no": "02421105", "nhdplus_comid": "21685874", "navigation_mode": "DM", "requested_distance_km": 12.0, "start_source": "nwissite", "start_id": "USGS-02421105", "geometry_length_km": 1.25832842121147 }, "geometry": { "type": "LineString", "coordinates": [ [ -86.354081792, 32.077388016 ], [ -86.353843607, 32.077452898 ], [ -86.351986304, 32.078575298 ], [ -86.351367302, 32.078735493 ], [ -86.350317501, 32.078781195 ], [ -86.347841002, 32.080567993 ], [ -86.347195104, 32.080567896 ], [ -86.346226305, 32.080361493 ], [ -86.344423003, 32.080452599 ], [ -86.343750201, 32.080612898 ], [ -86.342162102, 32.081231095 ] ] } },
{ "type": "Feature", "properties": { "site_no": "02421105", "nhdplus_comid": "21685706", "navigation_mode": "DM", "requested_distance_km": 12.0, "start_source": "nwissite", "start_id": "USGS-02421105", "geometry_length_km": 0.59198903133609837 }, "geometry": { "type": "LineString", "coordinates": [ [ -86.342162102, 32.081231095 ], [ -86.340439007, 32.082582593 ], [ -86.339712307, 32.082925998 ], [ -86.338850804, 32.083567396 ], [ -86.337639101, 32.084689796 ], [ -86.337612204, 32.084827296 ] ] } },
{ "type": "Feature", "properties": { "site_no": "02421105", "nhdplus_comid": "21685656", "navigation_mode": "DM", "requested_distance_km": 12.0, "start_source": "nwissite", "start_id": "USGS-02421105", "geometry_length_km": 0.73427700211758362 }, "geometry": { "type": "LineString", "coordinates": [ [ -86.337612204, 32.084827296 ], [ -86.3361044, 32.085995495 ], [ -86.3360506, 32.086178795 ], [ -86.331688903, 32.089064494 ] ] } },
{ "type": "Feature", "properties": { "site_no": "02421105", "nhdplus_comid": "21685604", "navigation_mode": "DM", "requested_distance_km": 12.0, "start_source": "nwissite", "start_id": "USGS-02421105", "geometry_length_km": 1.012362732534229 }, "geometry": { "type": "LineString", "coordinates": [ [ -86.331688903, 32.089064494 ], [ -86.330988906, 32.089430898 ], [ -86.330638304, 32.090805598 ], [ -86.329668604, 32.092088498 ], [ -86.329237401, 32.0932111 ], [ -86.328564003, 32.094150297 ], [ -86.327890806, 32.0947458 ], [ -86.3273248, 32.095845498 ], [ -86.326867007, 32.096303597 ], [ -86.326624505, 32.096830495 ] ] } },
{ "type": "Feature", "properties": { "site_no": "02421105", "nhdplus_comid": "21685506", "navigation_mode": "DM", "requested_distance_km": 12.0, "start_source": "nwissite", "start_id": "USGS-02421105", "geometry_length_km": 0.99995424891936635 }, "geometry": { "type": "LineString", "coordinates": [ [ -86.326624505, 32.096830495 ], [ -86.326597303, 32.097265795 ], [ -86.326057702, 32.099625699 ], [ -86.326084204, 32.1002445 ], [ -86.326272301, 32.100954793 ], [ -86.326271102, 32.1031546 ], [ -86.326539703, 32.1040942 ], [ -86.326566406, 32.104506597 ], [ -86.326485701, 32.104575396 ], [ -86.3264855, 32.104873195 ], [ -86.327239104, 32.105217293 ], [ -86.327346802, 32.105217293 ] ] } },
{ "type": "Feature", "properties": { "site_no": "02421105", "nhdplus_comid": "21685356", "navigation_mode": "DM", "requested_distance_km": 12.0, "start_source": "nwissite", "start_id": "USGS-02421105", "geometry_length_km": 3.0251138294327902 }, "geometry": { "type": "LineString", "coordinates": [ [ -86.327346802, 32.105217293 ], [ -86.327534907, 32.105790198 ], [ -86.327830702, 32.1063402 ], [ -86.328261204, 32.106821597 ], [ -86.328530103, 32.107348695 ], [ -86.328529604, 32.108586095 ], [ -86.3281525, 32.108929597 ], [ -86.327721603, 32.109158598 ], [ -86.327721402, 32.109662697 ], [ -86.327829003, 32.109823197 ], [ -86.327775002, 32.110098094 ], [ -86.327424802, 32.110533498 ], [ -86.327370502, 32.111197896 ], [ -86.327208802, 32.111495696 ], [ -86.327046804, 32.112435095 ], [ -86.326965801, 32.112801693 ], [ -86.326723404, 32.113030694 ], [ -86.326399706, 32.114245094 ], [ -86.325887702, 32.114955194 ], [ -86.325887404, 32.115573794 ], [ -86.325483404, 32.115779899 ], [ -86.325510107, 32.116123699 ], [ -86.326425202, 32.116811499 ], [ -86.327501304, 32.1183929 ], [ -86.327742904, 32.119676195 ], [ -86.328227304, 32.120065898 ], [ -86.328334905, 32.120363794 ], [ -86.328361303, 32.121417895 ], [ -86.328630306, 32.121738799 ], [ -86.328522101, 32.122655295 ], [ -86.3287642, 32.123136595 ], [ -86.328710102, 32.123823993 ], [ -86.328844704, 32.1240073 ], [ -86.329463705, 32.124465898 ], [ -86.329948001, 32.1251534 ], [ -86.330271006, 32.1254972 ], [ -86.331455402, 32.126162194 ], [ -86.332370505, 32.1268958 ], [ -86.332397304, 32.127056196 ], [ -86.333016306, 32.127927095 ], [ -86.3331507, 32.128408395 ], [ -86.333150506, 32.128797896 ] ] } },
{ "type": "Feature", "properties": { "site_no": "02421105", "nhdplus_comid": "21684914", "navigation_mode": "DM", "requested_distance_km": 12.0, "start_source": "nwissite", "start_id": "USGS-02421105", "geometry_length_km": 0.63542648580543448 }, "geometry": { "type": "LineString", "coordinates": [ [ -86.333150506, 32.128797896 ], [ -86.3333655, 32.129554197 ], [ -86.333877102, 32.1296001 ], [ -86.334146202, 32.130218893 ], [ -86.334361501, 32.1304252 ], [ -86.334927104, 32.130356699 ], [ -86.335061602, 32.130448297 ], [ -86.335061505, 32.130631596 ], [ -86.335223004, 32.130769193 ], [ -86.335384503, 32.130792193 ], [ -86.335707903, 32.130471498 ], [ -86.335896403, 32.130494498 ], [ -86.336273104, 32.131136194 ], [ -86.336703904, 32.131411299 ], [ -86.337430902, 32.131663598 ] ] } },
{ "type": "Feature", "properties": { "site_no": "02421105", "nhdplus_comid": "21684860", "navigation_mode": "DM", "requested_distance_km": 12.0, "start_source": "nwissite", "start_id": "USGS-02421105", "geometry_length_km": 0.65391067644323542 }, "geometry": { "type": "LineString", "coordinates": [ [ -86.337430902, 32.131663598 ], [ -86.3376192, 32.131961495 ], [ -86.3376991, 32.133840494 ], [ -86.337780006, 32.133954994 ], [ -86.337968402, 32.134023897 ], [ -86.338695504, 32.134023994 ], [ -86.339072302, 32.134344995 ], [ -86.340041302, 32.135468096 ], [ -86.340714306, 32.136155695 ] ] } },
{ "type": "Feature", "properties": { "site_no": "02421105", "nhdplus_comid": "21684804", "navigation_mode": "DM", "requested_distance_km": 12.0, "start_source": "nwissite", "start_id": "USGS-02421105", "geometry_length_km": 0.97350166120172865 }, "geometry": { "type": "LineString", "coordinates": [ [ -86.340714306, 32.136155695 ], [ -86.340767905, 32.136957698 ], [ -86.341037005, 32.137370199 ], [ -86.340875104, 32.138057597 ], [ -86.341144301, 32.138355494 ], [ -86.341036402, 32.138974197 ], [ -86.341170907, 32.139088795 ], [ -86.341898106, 32.139203593 ], [ -86.342086606, 32.139318198 ], [ -86.342167303, 32.139501497 ], [ -86.342113301, 32.139890999 ], [ -86.3416555, 32.140005499 ], [ -86.341547705, 32.140188798 ], [ -86.341628402, 32.140440799 ], [ -86.341843702, 32.140624195 ], [ -86.341843605, 32.141036697 ], [ -86.3422205, 32.141426295 ], [ -86.342193507, 32.141586594 ], [ -86.341627806, 32.141655199 ], [ -86.341654703, 32.141930297 ], [ -86.341950804, 32.142228194 ], [ -86.3423547, 32.142480299 ], [ -86.342543103, 32.142869897 ] ] } },
{ "type": "Feature", "properties": { "site_no": "02421105", "nhdplus_comid": "21684700", "navigation_mode": "DM", "requested_distance_km": 12.0, "start_source": "nwissite", "start_id": "USGS-02421105", "geometry_length_km": 0.74989749980025699 }, "geometry": { "type": "LineString", "coordinates": [ [ -86.342543103, 32.142869897 ], [ -86.343243204, 32.143030599 ], [ -86.344482102, 32.143122494 ], [ -86.344670504, 32.143237099 ], [ -86.345101304, 32.143764198 ], [ -86.3460977, 32.143993698 ], [ -86.346474707, 32.144245796 ], [ -86.346447602, 32.144726999 ], [ -86.345316201, 32.145001598 ], [ -86.344993003, 32.145184897 ], [ -86.344939001, 32.1455286 ], [ -86.345100507, 32.146009795 ], [ -86.345262006, 32.146147296 ], [ -86.345235005, 32.146261893 ] ] } }
]
}
