{
"type": "FeatureCollection",
"name": "USGS_03574796_UM_12km",
"crs": { "type": "name", "properties": { "name": "urn:ogc:def:crs:OGC:1.3:CRS84" } },
"features": [
{ "type": "Feature", "properties": { "site_no": "03574796", "nhdplus_comid": "19618552", "navigation_mode": "UM", "requested_distance_km": 12.0, "start_source": "nwissite", "start_id": "USGS-03574796", "geometry_length_km": 1.2445059778155496 }, "geometry": { "type": "LineString", "coordinates": [ [ -86.436227307, 34.970031999 ], [ -86.437062003, 34.969894193 ], [ -86.437506907, 34.9697337 ], [ -86.439065203, 34.96971 ], [ -86.439398907, 34.969618194 ], [ -86.439955205, 34.969251499 ], [ -86.440454602, 34.967304394 ], [ -86.441705406, 34.965769194 ], [ -86.442539603, 34.965104595 ], [ -86.443095803, 34.964829296 ], [ -86.443735607, 34.964691594 ], [ -86.444570206, 34.964645498 ], [ -86.445961803, 34.965308793 ], [ -86.446048071, 34.965364706 ] ] } }
]
}
