{
"type": "FeatureCollection",
"name": "USGS_02370200_DM_12km",
"crs": { "type": "name", "properties": { "name": "urn:ogc:def:crs:OGC:1.3:CRS84" } },
"features": [
{ "type": "Feature", "properties": { "site_no": "02370200", "nhdplus_comid": "791420", "navigation_mode": "DM", "requested_distance_km": 12.0, "start_source": "nwissite", "start_id": "USGS-02370200", "geometry_length_km": 0.60519588470113117 }, "geometry": { "type": "LineString", "coordinates": [ [ -86.904622228, 30.864783973 ], [ -86.904133804, 30.8645401 ], [ -86.904000901, 30.864402696 ], [ -86.904000707, 30.863852598 ], [ -86.903841205, 30.863348395 ], [ -86.903974004, 30.8630962 ], [ -86.904505201, 30.862706393 ], [ -86.904505007, 30.861972995 ], [ -86.905328505, 30.861651897 ], [ -86.905434802, 30.8615373 ], [ -86.9055674, 30.860872597 ], [ -86.906072006, 30.860620297 ] ] } },
{ "type": "Feature", "properties": { "site_no": "02370200", "nhdplus_comid": "791438", "navigation_mode": "DM", "requested_distance_km": 12.0, "start_source": "nwissite", "start_id": "USGS-02370200", "geometry_length_km": 0.82786630435588182 }, "geometry": { "type": "LineString", "coordinates": [ [ -86.906072006, 30.860620297 ], [ -86.905965604, 30.860207893 ], [ -86.905513801, 30.859474495 ], [ -86.905566201, 30.8571826 ], [ -86.905459806, 30.856792994 ], [ -86.905698501, 30.8553719 ], [ -86.905618504, 30.8545468 ], [ -86.905512206, 30.854363494 ], [ -86.905591503, 30.853332095 ] ] } },
{ "type": "Feature", "properties": { "site_no": "02370200", "nhdplus_comid": "791444", "navigation_mode": "DM", "requested_distance_km": 12.0, "start_source": "nwissite", "start_id": "USGS-02370200", "geometry_length_km": 0.21555859034523661 }, "geometry": { "type": "LineString", "coordinates": [ [ -86.905591503, 30.853332095 ], [ -86.905670904, 30.852186099 ], [ -86.905458301, 30.851773597 ], [ -86.905192502, 30.851521596 ] ] } },
{ "type": "Feature", "properties": { "site_no": "02370200", "nhdplus_comid": "791488", "navigation_mode": "DM", "requested_distance_km": 12.0, "start_source": "nwissite", "start_id": "USGS-02370200", "geometry_length_km": 1.4660968448506155 }, "geometry": { "type": "LineString", "coordinates": [ [ -86.905192502, 30.851521596 ], [ -86.905192502, 30.851177797 ], [ -86.905298702, 30.851017199 ], [ -86.906201907, 30.850925393 ], [ -86.906600304, 30.850696094 ], [ -86.906865604, 30.850008495 ], [ -86.906785801, 30.849687599 ], [ -86.906228006, 30.849550299 ], [ -86.905962206, 30.849366896 ], [ -86.905829102, 30.848289795 ], [ -86.905324206, 30.847625196 ], [ -86.905244201, 30.846754298 ], [ -86.905084804, 30.846479297 ], [ -86.905270502, 30.846112497 ], [ -86.905323505, 30.845539495 ], [ -86.904659204, 30.8447375 ], [ -86.904632404, 30.844278999 ], [ -86.904977605, 30.843660198 ], [ -86.904977404, 30.843201794 ], [ -86.904818006, 30.843018398 ], [ -86.9047914, 30.842835099 ], [ -86.905349106, 30.842353694 ], [ -86.905508205, 30.841688998 ], [ -86.905136004, 30.840497196 ] ] } },
{ "type": "Feature", "properties": { "site_no": "02370200", "nhdplus_comid": "791506", "navigation_mode": "DM", "requested_distance_km": 12.0, "start_source": "nwissite", "start_id": "USGS-02370200", "geometry_length_km": 0.73172158217547778 }, "geometry": { "type": "LineString", "coordinates": [ [ -86.905136004, 30.840497196 ], [ -86.905481003, 30.839396998 ], [ -86.904949203, 30.837425999 ], [ -86.904231705, 30.836371899 ], [ -86.904125005, 30.834996693 ], [ -86.9036467, 30.834286295 ] ] } },
{ "type": "Feature", "properties": { "site_no": "02370200", "nhdplus_comid": "791566", "navigation_mode": "DM", "requested_distance_km": 12.0, "start_source": "nwissite", "start_id": "USGS-02370200", "geometry_length_km": 2.825561060000704 }, "geometry": { "type": "LineString", "coordinates": [ [ -86.9036467, 30.834286295 ], [ -86.903088607, 30.833300896 ], [ -86.903168, 30.832544498 ], [ -86.903380305, 30.831971496 ], [ -86.903326705, 30.830527499 ], [ -86.903432906, 30.8301837 ], [ -86.903353103, 30.829610795 ], [ -86.903007701, 30.829175293 ], [ -86.902741902, 30.828579493 ], [ -86.902237102, 30.827846199 ], [ -86.9020776, 30.827364899 ], [ -86.900802203, 30.8254399 ], [ -86.900563002, 30.8244773 ], [ -86.900191106, 30.824087694 ], [ -86.9001645, 30.823675193 ], [ -86.899951905, 30.823262699 ], [ -86.899765603, 30.821773 ], [ -86.899659306, 30.821566693 ], [ -86.899287403, 30.821268797 ], [ -86.898145504, 30.821452394 ], [ -86.896790907, 30.820719197 ], [ -86.895914301, 30.819985896 ], [ -86.895701803, 30.819642097 ], [ -86.8956751, 30.8192067 ], [ -86.895940602, 30.818679497 ], [ -86.8958873, 30.817991897 ], [ -86.895648301, 30.8178773 ], [ -86.894798502, 30.817808695 ], [ -86.894586004, 30.817602396 ], [ -86.894612402, 30.816891998 ], [ -86.894001603, 30.816662699 ], [ -86.893629804, 30.816433594 ], [ -86.893550001, 30.816227295 ], [ -86.892912701, 30.815952398 ], [ -86.892567404, 30.815104395 ], [ -86.891637705, 30.814233594 ] ] } },
{ "type": "Feature", "properties": { "site_no": "02370200", "nhdplus_comid": "791574", "navigation_mode": "DM", "requested_distance_km": 12.0, "start_source": "nwissite", "start_id": "USGS-02370200", "geometry_length_km": 0.58933745001494953 }, "geometry": { "type": "LineString", "coordinates": [ [ -86.891637705, 30.814233594 ], [ -86.891398706, 30.813729398 ], [ -86.891345501, 30.813087694 ], [ -86.891478106, 30.812285393 ], [ -86.890787505, 30.811437495 ], [ -86.890760906, 30.811254099 ], [ -86.890840501, 30.811116599 ], [ -86.891769901, 30.810955994 ], [ -86.891849503, 30.8105205 ], [ -86.891663603, 30.810314298 ], [ -86.891610406, 30.809901796 ] ] } },
{ "type": "Feature", "properties": { "site_no": "02370200", "nhdplus_comid": "791590", "navigation_mode": "DM", "requested_distance_km": 12.0, "start_source": "nwissite", "start_id": "USGS-02370200", "geometry_length_km": 0.52316604754159279 }, "geometry": { "type": "LineString", "coordinates": [ [ -86.891610406, 30.809901796 ], [ -86.8917697, 30.809534997 ], [ -86.891690001, 30.809351698 ], [ -86.890866801, 30.808962196 ], [ -86.890866704, 30.808595493 ], [ -86.891397603, 30.8077932 ], [ -86.891450606, 30.806830496 ], [ -86.891556703, 30.806670099 ], [ -86.891848907, 30.806555398 ], [ -86.892512701, 30.806738697 ] ] } },
{ "type": "Feature", "properties": { "site_no": "02370200", "nhdplus_comid": "791644", "navigation_mode": "DM", "requested_distance_km": 12.0, "start_source": "nwissite", "start_id": "USGS-02370200", "geometry_length_km": 3.3144459459303426 }, "geometry": { "type": "LineString", "coordinates": [ [ -86.892512701, 30.806738697 ], [ -86.892645501, 30.806692898 ], [ -86.892645203, 30.805523999 ], [ -86.8927515, 30.8053177 ], [ -86.893335506, 30.8051342 ], [ -86.893388703, 30.804905094 ], [ -86.892538801, 30.804332197 ], [ -86.892299704, 30.803415395 ], [ -86.891954407, 30.802819498 ], [ -86.891715303, 30.8019486 ], [ -86.891794905, 30.801788196 ], [ -86.892379001, 30.801512994 ], [ -86.892405502, 30.801260896 ], [ -86.892007202, 30.800894193 ], [ -86.891794704, 30.800550498 ], [ -86.8916618, 30.800046295 ], [ -86.892033502, 30.799519099 ], [ -86.892113104, 30.799037695 ], [ -86.891874, 30.798579395 ], [ -86.891661406, 30.797364697 ], [ -86.891395904, 30.797158495 ], [ -86.890519604, 30.797204398 ], [ -86.890174307, 30.796356395 ], [ -86.889377706, 30.795714699 ], [ -86.889324501, 30.795439698 ], [ -86.890280202, 30.794362396 ], [ -86.890280105, 30.793560199 ], [ -86.890811004, 30.792895295 ], [ -86.890837304, 30.791841097 ], [ -86.890624903, 30.791520193 ], [ -86.890571706, 30.791222297 ], [ -86.890731007, 30.790924296 ], [ -86.891607001, 30.790465698 ], [ -86.891660102, 30.790121995 ], [ -86.891208701, 30.7898928 ], [ -86.890996203, 30.789686598 ], [ -86.890996203, 30.789342798 ], [ -86.891155504, 30.789067693 ], [ -86.891235106, 30.788677998 ], [ -86.890889801, 30.788150899 ], [ -86.890863307, 30.7879446 ], [ -86.890996002, 30.787623793 ], [ -86.890969202, 30.786408998 ], [ -86.891447, 30.786110997 ], [ -86.891447, 30.785858899 ], [ -86.891181506, 30.785583898 ], [ -86.891022004, 30.785079695 ], [ -86.891207807, 30.7845755 ], [ -86.891207606, 30.783337794 ], [ -86.891313806, 30.782993898 ], [ -86.891419902, 30.782902196 ], [ -86.891711906, 30.782856397 ], [ -86.892057002, 30.7832231 ], [ -86.892110206, 30.783429295 ], [ -86.892428905, 30.783818997 ] ] } },
{ "type": "Feature", "properties": { "site_no": "02370200", "nhdplus_comid": "791682", "navigation_mode": "DM", "requested_distance_km": 12.0, "start_source": "nwissite", "start_id": "USGS-02370200", "geometry_length_km": 3.1786339486913118 }, "geometry": { "type": "LineString", "coordinates": [ [ -86.892428905, 30.783818997 ], [ -86.892906703, 30.783910498 ], [ -86.893172204, 30.783727199 ], [ -86.893198602, 30.783360399 ], [ -86.892561302, 30.782627098 ], [ -86.892401904, 30.781687394 ], [ -86.892534502, 30.781274796 ], [ -86.8930123, 30.780701697 ], [ -86.893065304, 30.779830799 ], [ -86.893171303, 30.779555798 ], [ -86.893357106, 30.779395297 ], [ -86.89418, 30.779303499 ], [ -86.894657806, 30.778867997 ], [ -86.894737303, 30.778340794 ], [ -86.895055704, 30.777859397 ], [ -86.895984806, 30.777286299 ], [ -86.8966747, 30.776300594 ], [ -86.8965417, 30.774948396 ], [ -86.896435507, 30.774788 ], [ -86.896435402, 30.774191998 ], [ -86.896621101, 30.773618996 ], [ -86.896010302, 30.773343995 ], [ -86.895320304, 30.773642197 ], [ -86.895214103, 30.773573399 ], [ -86.895426303, 30.772564799 ], [ -86.895691603, 30.772152297 ], [ -86.895691507, 30.771625094 ], [ -86.895532101, 30.771327198 ], [ -86.895452306, 30.770249896 ], [ -86.8942312, 30.769929297 ], [ -86.894098505, 30.769745998 ], [ -86.894018807, 30.769287497 ], [ -86.893222205, 30.768095694 ], [ -86.893169105, 30.767751895 ], [ -86.893089503, 30.767706096 ], [ -86.892876901, 30.766445495 ], [ -86.892956302, 30.764864095 ], [ -86.892823607, 30.764726594 ], [ -86.892213106, 30.7646579 ], [ -86.892000705, 30.764451697 ], [ -86.891974106, 30.763993196 ], [ -86.893035404, 30.761884496 ], [ -86.893406905, 30.761769898 ], [ -86.893911101, 30.761425897 ] ] } }
]
}
