{
"type": "FeatureCollection",
"name": "USGS_03576400_DM_12km",
"crs": { "type": "name", "properties": { "name": "urn:ogc:def:crs:OGC:1.3:CRS84" } },
"features": [
{ "type": "Feature", "properties": { "site_no": "03576400", "nhdplus_comid": "19621286", "navigation_mode": "DM", "requested_distance_km": 12.0, "start_source": "nwissite", "start_id": "USGS-03576400", "geometry_length_km": 1.2089101699207658 }, "geometry": { "type": "LineString", "coordinates": [ [ -86.883816897, 34.802760257 ], [ -86.883723401, 34.802611999 ], [ -86.883667804, 34.802245498 ], [ -86.883945502, 34.801649898 ], [ -86.8843619, 34.801168896 ], [ -86.8848617, 34.800779499 ], [ -86.885750301, 34.800527498 ], [ -86.885889105, 34.800344199 ], [ -86.885805607, 34.798672095 ], [ -86.8861387, 34.797549695 ], [ -86.886666104, 34.797183193 ], [ -86.886999205, 34.795534 ], [ -86.886554703, 34.794778198 ], [ -86.886499107, 34.794274196 ], [ -86.886637904, 34.793907799 ], [ -86.886943303, 34.793586999 ], [ -86.887054406, 34.793289199 ] ] } },
{ "type": "Feature", "properties": { "site_no": "03576400", "nhdplus_comid": "19619558", "navigation_mode": "DM", "requested_distance_km": 12.0, "start_source": "nwissite", "start_id": "USGS-03576400", "geometry_length_km": 0.64816931946673806 }, "geometry": { "type": "LineString", "coordinates": [ [ -86.887054406, 34.793289199 ], [ -86.887220904, 34.792922698 ], [ -86.887137607, 34.792327195 ], [ -86.886998601, 34.791983597 ], [ -86.886998504, 34.791365199 ], [ -86.887220606, 34.790929995 ], [ -86.887442701, 34.790746696 ], [ -86.888581105, 34.790723696 ], [ -86.888942003, 34.7905633 ], [ -86.889080904, 34.790151 ], [ -86.889691405, 34.789005697 ], [ -86.889857903, 34.788914099 ] ] } },
{ "type": "Feature", "properties": { "site_no": "03576400", "nhdplus_comid": "19619604", "navigation_mode": "DM", "requested_distance_km": 12.0, "start_source": "nwissite", "start_id": "USGS-03576400", "geometry_length_km": 1.9770025791325163 }, "geometry": { "type": "LineString", "coordinates": [ [ -86.889857903, 34.788914099 ], [ -86.890468501, 34.787425198 ], [ -86.890801601, 34.786944099 ], [ -86.891273402, 34.786508895 ], [ -86.892106406, 34.786165096 ], [ -86.893688805, 34.786141999 ], [ -86.894632801, 34.786325097 ], [ -86.895077102, 34.7862105 ], [ -86.895354606, 34.785981297 ], [ -86.895743102, 34.785271198 ], [ -86.896159306, 34.784148797 ], [ -86.896187, 34.783621997 ], [ -86.896436706, 34.783072196 ], [ -86.8967143, 34.7829118 ], [ -86.897130601, 34.782865897 ], [ -86.897269502, 34.783072099 ], [ -86.897297405, 34.783369794 ], [ -86.897464007, 34.783644594 ], [ -86.897686206, 34.783759095 ], [ -86.898408003, 34.783781894 ], [ -86.898630105, 34.783690199 ], [ -86.898935303, 34.783048898 ], [ -86.899296105, 34.782819696 ], [ -86.899740301, 34.782750897 ], [ -86.9004343, 34.782933898 ], [ -86.901128404, 34.782956794 ], [ -86.904598705, 34.782726899 ], [ -86.9052094, 34.782589294 ] ] } },
{ "type": "Feature", "properties": { "site_no": "03576400", "nhdplus_comid": "19619730", "navigation_mode": "DM", "requested_distance_km": 12.0, "start_source": "nwissite", "start_id": "USGS-03576400", "geometry_length_km": 3.232677811820365 }, "geometry": { "type": "LineString", "coordinates": [ [ -86.9052094, 34.782589294 ], [ -86.905264705, 34.781970896 ], [ -86.905098103, 34.781673096 ], [ -86.904348202, 34.781031996 ], [ -86.903404206, 34.780596994 ], [ -86.903265305, 34.780367993 ], [ -86.903376207, 34.780024394 ], [ -86.904070102, 34.779336996 ], [ -86.904125504, 34.7790621 ], [ -86.904846907, 34.7778937 ], [ -86.906650603, 34.776267096 ], [ -86.906844907, 34.775992095 ], [ -86.906900205, 34.7756944 ], [ -86.907260902, 34.775144599 ], [ -86.908399001, 34.774731994 ], [ -86.909842104, 34.7739527 ], [ -86.911229603, 34.772829898 ], [ -86.911562704, 34.772669598 ], [ -86.912756205, 34.7725088 ], [ -86.914032906, 34.772210598 ], [ -86.915503606, 34.770973295 ], [ -86.915780902, 34.770263098 ], [ -86.915669501, 34.7696447 ], [ -86.9154194, 34.769163795 ], [ -86.914141901, 34.767698199 ], [ -86.912198007, 34.765774794 ], [ -86.911725901, 34.765202299 ], [ -86.911170602, 34.764698595 ], [ -86.910504304, 34.764492698 ], [ -86.908561006, 34.763393797 ], [ -86.907561406, 34.762569398 ], [ -86.907145001, 34.762409195 ] ] } },
{ "type": "Feature", "properties": { "site_no": "03576400", "nhdplus_comid": "19619748", "navigation_mode": "DM", "requested_distance_km": 12.0, "start_source": "nwissite", "start_id": "USGS-03576400", "geometry_length_km": 0.91286320398922371 }, "geometry": { "type": "LineString", "coordinates": [ [ -86.907145001, 34.762409195 ], [ -86.906450704, 34.761286996 ], [ -86.905423507, 34.760622993 ], [ -86.904868305, 34.760462798 ], [ -86.903980203, 34.760508895 ], [ -86.903425001, 34.760257095 ], [ -86.902953006, 34.759890698 ], [ -86.902536601, 34.7594098 ], [ -86.902397707, 34.759043396 ], [ -86.902203307, 34.758722596 ], [ -86.901481703, 34.758470893 ], [ -86.901148506, 34.758173198 ], [ -86.900537603, 34.757280096 ], [ -86.900315605, 34.757188395 ] ] } },
{ "type": "Feature", "properties": { "site_no": "03576400", "nhdplus_comid": "19619754", "navigation_mode": "DM", "requested_distance_km": 12.0, "start_source": "nwissite", "start_id": "USGS-03576400", "geometry_length_km": 0.064237146221339261 }, "geometry": { "type": "LineString", "coordinates": [ [ -86.900315605, 34.757188395 ], [ -86.900259905, 34.7566159 ] ] } },
{ "type": "Feature", "properties": { "site_no": "03576400", "nhdplus_comid": "19619774", "navigation_mode": "DM", "requested_distance_km": 12.0, "start_source": "nwissite", "start_id": "USGS-03576400", "geometry_length_km": 0.71091650253888494 }, "geometry": { "type": "LineString", "coordinates": [ [ -86.900259905, 34.7566159 ], [ -86.900454104, 34.756432496 ], [ -86.900981404, 34.756409496 ], [ -86.901425503, 34.7565239 ], [ -86.902119406, 34.7565009 ], [ -86.903423302, 34.755446896 ], [ -86.903895102, 34.755378097 ], [ -86.904145002, 34.755652897 ], [ -86.904589102, 34.755721495 ], [ -86.905005105, 34.75508 ], [ -86.904977307, 34.754828095 ], [ -86.904561006, 34.754621997 ], [ -86.904782802, 34.754186794 ], [ -86.905143604, 34.7540951 ] ] } },
{ "type": "Feature", "properties": { "site_no": "03576400", "nhdplus_comid": "19619786", "navigation_mode": "DM", "requested_distance_km": 12.0, "start_source": "nwissite", "start_id": "USGS-03576400", "geometry_length_km": 0.26893247584829433 }, "geometry": { "type": "LineString", "coordinates": [ [ -86.905143604, 34.7540951 ], [ -86.905531906, 34.753568195 ], [ -86.9061976, 34.752834998 ], [ -86.906725004, 34.752605796 ], [ -86.907196701, 34.752514094 ] ] } },
{ "type": "Feature", "properties": { "site_no": "03576400", "nhdplus_comid": "19619800", "navigation_mode": "DM", "requested_distance_km": 12.0, "start_source": "nwissite", "start_id": "USGS-03576400", "geometry_length_km": 0.19468415422101082 }, "geometry": { "type": "LineString", "coordinates": [ [ -86.907196701, 34.752514094 ], [ -86.907501802, 34.752193399 ], [ -86.907668203, 34.7517123 ], [ -86.907501303, 34.750887796 ] ] } },
{ "type": "Feature", "properties": { "site_no": "03576400", "nhdplus_comid": "19621360", "navigation_mode": "DM", "requested_distance_km": 12.0, "start_source": "nwissite", "start_id": "USGS-03576400", "geometry_length_km": 3.9120816916103838 }, "geometry": { "type": "LineString", "coordinates": [ [ -86.907501303, 34.750887796 ], [ -86.906613201, 34.750636093 ], [ -86.906169005, 34.750384197 ], [ -86.905945607, 34.750081293 ], [ -86.905751303, 34.749508694 ], [ -86.905668005, 34.749462895 ], [ -86.905556701, 34.748844497 ], [ -86.905528404, 34.747355595 ], [ -86.905250706, 34.746874698 ], [ -86.904334903, 34.746302195 ], [ -86.904085003, 34.745958693 ], [ -86.904084705, 34.745248698 ], [ -86.904500306, 34.743370295 ], [ -86.904833101, 34.742843397 ], [ -86.905721106, 34.742774397 ], [ -86.905915402, 34.7426828 ], [ -86.906220406, 34.742270499 ], [ -86.906164505, 34.741331294 ], [ -86.906386502, 34.741056293 ], [ -86.907052405, 34.740849994 ], [ -86.907468006, 34.739406899 ], [ -86.907051504, 34.738765597 ], [ -86.907023601, 34.738147199 ], [ -86.907411404, 34.736566596 ], [ -86.907661103, 34.736245893 ], [ -86.908659905, 34.736153997 ], [ -86.909159206, 34.7359019 ], [ -86.909547403, 34.735214598 ], [ -86.910351805, 34.734550096 ], [ -86.9104072, 34.734343894 ], [ -86.910323702, 34.733679697 ], [ -86.910018206, 34.733198799 ], [ -86.909241006, 34.732213996 ], [ -86.909018807, 34.731824696 ], [ -86.909018606, 34.731229194 ], [ -86.908851802, 34.730267197 ], [ -86.909073405, 34.729557 ], [ -86.909073107, 34.728778295 ], [ -86.909461401, 34.728342995 ], [ -86.909489006, 34.727999195 ], [ -86.909322307, 34.727426693 ], [ -86.909239002, 34.727380894 ], [ -86.909238905, 34.727220595 ], [ -86.909155704, 34.727151893 ], [ -86.909266502, 34.726670794 ], [ -86.909627102, 34.7261668 ], [ -86.909904405, 34.725960597 ], [ -86.910819501, 34.724929594 ], [ -86.910930201, 34.724517293 ], [ -86.911817707, 34.723692395 ], [ -86.912177801, 34.722432494 ], [ -86.912510201, 34.721516095 ], [ -86.912704304, 34.721401498 ] ] } }
]
}
