{
"type": "FeatureCollection",
"name": "USGS_02423586_UM_12km",
"crs": { "type": "name", "properties": { "name": "urn:ogc:def:crs:OGC:1.3:CRS84" } },
"features": [
{ "type": "Feature", "properties": { "site_no": "02423586", "nhdplus_comid": "21655410", "navigation_mode": "UM", "requested_distance_km": 12.0, "start_source": "nwissite", "start_id": "USGS-02423586", "geometry_length_km": 0.4063531516366784 }, "geometry": { "type": "LineString", "coordinates": [ [ -86.810792603, 33.450554296 ], [ -86.812049806, 33.4505549 ], [ -86.812541805, 33.450348996 ], [ -86.813143604, 33.449593194 ], [ -86.813635804, 33.449226893 ], [ -86.813909501, 33.448631495 ], [ -86.813972308, 33.448617489 ] ] } },
{ "type": "Feature", "properties": { "site_no": "02423586", "nhdplus_comid": "21655380", "navigation_mode": "UM", "requested_distance_km": 12.0, "start_source": "nwissite", "start_id": "USGS-02423586", "geometry_length_km": 5.5740453336497557 }, "geometry": { "type": "LineString", "coordinates": [ [ -86.763452604, 33.475446098 ], [ -86.763726704, 33.474873595 ], [ -86.764383204, 33.474461794 ], [ -86.764656901, 33.474187098 ], [ -86.764985904, 33.473500095 ], [ -86.767147005, 33.472287796 ], [ -86.768650502, 33.472311996 ], [ -86.769361503, 33.472083494 ], [ -86.770209506, 33.471626095 ], [ -86.771057703, 33.471008196 ], [ -86.774641104, 33.468926497 ], [ -86.7753525, 33.4683543 ], [ -86.7758727, 33.467690296 ], [ -86.7762831, 33.467392795 ], [ -86.777623206, 33.466752395 ], [ -86.778963901, 33.465585098 ], [ -86.779893607, 33.465310894 ], [ -86.781041704, 33.4652889 ], [ -86.7823807, 33.465610594 ], [ -86.7829547, 33.465633996 ], [ -86.783911705, 33.465313897 ], [ -86.785169803, 33.464627594 ], [ -86.785963304, 33.463986695 ], [ -86.785909101, 33.463436797 ], [ -86.787167102, 33.462796293 ], [ -86.788315006, 33.462911695 ], [ -86.788561106, 33.462774396 ], [ -86.788588904, 33.4623162 ], [ -86.788671106, 33.462201796 ], [ -86.789464004, 33.461904496 ], [ -86.789573103, 33.4622024 ], [ -86.789737001, 33.462339997 ], [ -86.789955601, 33.462340094 ], [ -86.790994704, 33.461859696 ], [ -86.790967807, 33.461447299 ], [ -86.791077204, 33.461332798 ], [ -86.792006701, 33.461287595 ], [ -86.792745203, 33.460761197 ], [ -86.793510705, 33.460532598 ], [ -86.793729506, 33.460349396 ], [ -86.794385806, 33.4601437 ], [ -86.795807503, 33.459525995 ], [ -86.796573304, 33.459045596 ], [ -86.799417205, 33.4575582 ], [ -86.802342601, 33.456414498 ], [ -86.803436503, 33.455704793 ], [ -86.804612502, 33.454743296 ], [ -86.805077404, 33.454468697 ], [ -86.806608506, 33.453805193 ], [ -86.806963906, 33.453553393 ], [ -86.807949103, 33.451973096 ], [ -86.808304705, 33.4515839 ], [ -86.809343904, 33.4508055 ], [ -86.810027406, 33.450485095 ], [ -86.810601301, 33.450439595 ], [ -86.810792603, 33.450554296 ] ] } },
{ "type": "Feature", "properties": { "site_no": "02423586", "nhdplus_comid": "21656476", "navigation_mode": "UM", "requested_distance_km": 12.0, "start_source": "nwissite", "start_id": "USGS-02423586", "geometry_length_km": 4.1478132574094806 }, "geometry": { "type": "LineString", "coordinates": [ [ -86.734338805, 33.500112399 ], [ -86.734583706, 33.4991147 ], [ -86.734938607, 33.498702094 ], [ -86.735294007, 33.498564295 ], [ -86.736742906, 33.498287998 ], [ -86.737672307, 33.498035297 ], [ -86.738765307, 33.497484393 ], [ -86.739966802, 33.4964066 ], [ -86.740649901, 33.496085197 ], [ -86.741141506, 33.495649494 ], [ -86.741550706, 33.4950305 ], [ -86.742206, 33.494480096 ], [ -86.742943801, 33.494089998 ], [ -86.744090803, 33.493241198 ], [ -86.745374903, 33.492644295 ], [ -86.748434305, 33.490716994 ], [ -86.748980403, 33.490258299 ], [ -86.749990106, 33.488905594 ], [ -86.752008803, 33.487050295 ], [ -86.753186107, 33.485905997 ], [ -86.754337005, 33.484142996 ], [ -86.754884407, 33.483662494 ], [ -86.756170407, 33.482907794 ], [ -86.756882302, 33.482198298 ], [ -86.757538505, 33.4821302 ], [ -86.758249201, 33.482245393 ], [ -86.758850701, 33.482245997 ], [ -86.759288706, 33.481811099 ], [ -86.759562805, 33.481330194 ], [ -86.759563603, 33.480665796 ], [ -86.758771501, 33.480115294 ], [ -86.758772001, 33.479771599 ], [ -86.759100504, 33.479405299 ], [ -86.760304406, 33.478673398 ], [ -86.760906801, 33.477917895 ], [ -86.761919305, 33.477208599 ], [ -86.762193404, 33.476682097 ], [ -86.763041802, 33.475995496 ], [ -86.763452604, 33.475446098 ] ] } }
]
}
