{
"type": "FeatureCollection",
"name": "USGS_02420980_DM_12km",
"crs": { "type": "name", "properties": { "name": "urn:ogc:def:crs:OGC:1.3:CRS84" } },
"features": [
{ "type": "Feature", "properties": { "site_no": "02420980", "nhdplus_comid": "21686572", "navigation_mode": "DM", "requested_distance_km": 12.0, "start_source": "nwissite", "start_id": "USGS-02420980", "geometry_length_km": 3.2807924059792217 }, "geometry": { "type": "LineString", "coordinates": [ [ -86.261126853, 32.316105223 ], [ -86.262049705, 32.315323196 ], [ -86.262914501, 32.3141784 ], [ -86.264400207, 32.312827796 ], [ -86.267884903, 32.309370995 ], [ -86.274420202, 32.303831398 ], [ -86.274636701, 32.303327397 ], [ -86.274825707, 32.303167194 ], [ -86.275527306, 32.303007394 ], [ -86.276040301, 32.302641198 ], [ -86.276634, 32.302481294 ], [ -86.276985005, 32.3022983 ], [ -86.277794503, 32.302092597 ], [ -86.2779833, 32.302207395 ], [ -86.278009802, 32.302596897 ], [ -86.2783335, 32.3027118 ], [ -86.278710902, 32.303009897 ], [ -86.279007703, 32.302941397 ], [ -86.279709205, 32.302941896 ], [ -86.280033104, 32.302735895 ], [ -86.280464806, 32.302644596 ], [ -86.280950002, 32.303126097 ], [ -86.281138204, 32.303699099 ], [ -86.281515904, 32.303699397 ], [ -86.281731904, 32.303584993 ], [ -86.282299906, 32.302233495 ], [ -86.2829476, 32.302004896 ], [ -86.283110105, 32.3014322 ], [ -86.283514701, 32.301363699 ], [ -86.283973306, 32.301455699 ], [ -86.284809202, 32.301891699 ], [ -86.285348706, 32.301983699 ] ] } },
{ "type": "Feature", "properties": { "site_no": "02420980", "nhdplus_comid": "21682350", "navigation_mode": "DM", "requested_distance_km": 12.0, "start_source": "nwissite", "start_id": "USGS-02420980", "geometry_length_km": 1.303674679525787 }, "geometry": { "type": "LineString", "coordinates": [ [ -86.285348706, 32.301983699 ], [ -86.285996102, 32.302007094 ], [ -86.286293104, 32.301846996 ], [ -86.286482401, 32.301342897 ], [ -86.286617406, 32.301205598 ], [ -86.287454002, 32.300954096 ], [ -86.287724003, 32.300793894 ], [ -86.288398303, 32.300908893 ], [ -86.288749106, 32.3008404 ], [ -86.288938403, 32.300336495 ], [ -86.28937, 32.300313897 ], [ -86.289829001, 32.299970396 ], [ -86.291042902, 32.299994193 ], [ -86.291690305, 32.3000862 ], [ -86.292445503, 32.300315894 ], [ -86.292795807, 32.300797194 ], [ -86.293119401, 32.300980799 ], [ -86.294171207, 32.301302299 ], [ -86.294764303, 32.3017838 ], [ -86.295249701, 32.301967494 ], [ -86.2956542, 32.302219696 ], [ -86.296220802, 32.302380495 ], [ -86.297030002, 32.302472599 ] ] } },
{ "type": "Feature", "properties": { "site_no": "02420980", "nhdplus_comid": "21686584", "navigation_mode": "DM", "requested_distance_km": 12.0, "start_source": "nwissite", "start_id": "USGS-02420980", "geometry_length_km": 0.7074785498379198 }, "geometry": { "type": "LineString", "coordinates": [ [ -86.297030002, 32.302472599 ], [ -86.297137402, 32.303068496 ], [ -86.297784306, 32.303710394 ], [ -86.297703207, 32.303916596 ], [ -86.297325402, 32.3041225 ], [ -86.296893306, 32.304557696 ], [ -86.296892703, 32.305313796 ], [ -86.297270201, 32.305520199 ], [ -86.2984569, 32.305956297 ], [ -86.299077004, 32.3065295 ], [ -86.299346402, 32.306896299 ], [ -86.2994541, 32.307194196 ] ] } },
{ "type": "Feature", "properties": { "site_no": "02420980", "nhdplus_comid": "21682252", "navigation_mode": "DM", "requested_distance_km": 12.0, "start_source": "nwissite", "start_id": "USGS-02420980", "geometry_length_km": 0.048869839108647041 }, "geometry": { "type": "LineString", "coordinates": [ [ -86.2994541, 32.307194196 ], [ -86.299777605, 32.3075381 ] ] } },
{ "type": "Feature", "properties": { "site_no": "02420980", "nhdplus_comid": "21682254", "navigation_mode": "DM", "requested_distance_km": 12.0, "start_source": "nwissite", "start_id": "USGS-02420980", "geometry_length_km": 1.631577206256875 }, "geometry": { "type": "LineString", "coordinates": [ [ -86.299777605, 32.3075381 ], [ -86.3010187, 32.307424299 ], [ -86.302152105, 32.307218693 ], [ -86.302718602, 32.307241999 ], [ -86.303528003, 32.307425797 ], [ -86.304013707, 32.307334393 ], [ -86.304445401, 32.307357594 ], [ -86.3050116, 32.307838999 ], [ -86.3056053, 32.307724796 ], [ -86.306388006, 32.307312794 ], [ -86.307953, 32.307038695 ], [ -86.308438607, 32.307084799 ], [ -86.308924101, 32.307291299 ], [ -86.310299203, 32.308506399 ], [ -86.310622901, 32.308712795 ], [ -86.311189301, 32.3088964 ], [ -86.312537804, 32.309584498 ], [ -86.313751802, 32.309882894 ], [ -86.314561002, 32.310227096 ], [ -86.315127403, 32.310708493 ], [ -86.315154307, 32.310823098 ] ] } },
{ "type": "Feature", "properties": { "site_no": "02420980", "nhdplus_comid": "21682216", "navigation_mode": "DM", "requested_distance_km": 12.0, "start_source": "nwissite", "start_id": "USGS-02420980", "geometry_length_km": 1.1723478677003247 }, "geometry": { "type": "LineString", "coordinates": [ [ -86.315154307, 32.310823098 ], [ -86.315720707, 32.311029598 ], [ -86.3165031, 32.311167397 ], [ -86.317339301, 32.311488599 ], [ -86.317851603, 32.3119471 ], [ -86.318283007, 32.312497199 ], [ -86.319011301, 32.312726595 ], [ -86.319739603, 32.3131852 ], [ -86.320225306, 32.313185498 ], [ -86.320522502, 32.312566996 ], [ -86.3208469, 32.311398499 ], [ -86.321305804, 32.311032094 ], [ -86.321737707, 32.310848996 ], [ -86.323329702, 32.310528897 ], [ -86.324436404, 32.309681594 ] ] } },
{ "type": "Feature", "properties": { "site_no": "02420980", "nhdplus_comid": "21682218", "navigation_mode": "DM", "requested_distance_km": 12.0, "start_source": "nwissite", "start_id": "USGS-02420980", "geometry_length_km": 1.8500863475669274 }, "geometry": { "type": "LineString", "coordinates": [ [ -86.324436404, 32.309681594 ], [ -86.325218901, 32.3096819 ], [ -86.325623401, 32.309956998 ], [ -86.325731203, 32.310254894 ], [ -86.325703904, 32.310758993 ], [ -86.324866705, 32.312156394 ], [ -86.324974604, 32.312316798 ], [ -86.325541005, 32.312569097 ], [ -86.326782301, 32.312340498 ], [ -86.326998003, 32.312500894 ], [ -86.327024706, 32.313302897 ], [ -86.327132605, 32.313486196 ], [ -86.327483304, 32.313669696 ], [ -86.3278879, 32.313761495 ], [ -86.328454301, 32.314151198 ], [ -86.328751005, 32.314242899 ], [ -86.329182804, 32.314105697 ], [ -86.330046505, 32.313578896 ], [ -86.330667205, 32.313441694 ], [ -86.330964103, 32.313258499 ], [ -86.331153207, 32.312800296 ], [ -86.331503905, 32.3128234 ], [ -86.331746705, 32.313006699 ], [ -86.331989102, 32.31374 ], [ -86.332205005, 32.313992195 ], [ -86.333337806, 32.314817399 ], [ -86.334632702, 32.315367796 ], [ -86.336332105, 32.316399395 ] ] } }
]
}
