{
"type": "FeatureCollection",
"name": "USGS_02462000_UM_12km",
"crs": { "type": "name", "properties": { "name": "urn:ogc:def:crs:OGC:1.3:CRS84" } },
"features": [
{ "type": "Feature", "properties": { "site_no": "02462000", "nhdplus_comid": "18229157", "navigation_mode": "UM", "requested_distance_km": 12.0, "start_source": "nwissite", "start_id": "USGS-02462000", "geometry_length_km": 0.29199529398117591 }, "geometry": { "type": "LineString", "coordinates": [ [ -87.120378204, 33.445327297 ], [ -87.120678805, 33.446037598 ], [ -87.121143304, 33.446518697 ], [ -87.121626251, 33.447699526 ] ] } },
{ "type": "Feature", "properties": { "site_no": "02462000", "nhdplus_comid": "18227297", "navigation_mode": "UM", "requested_distance_km": 12.0, "start_source": "nwissite", "start_id": "USGS-02462000", "geometry_length_km": 7.1706333000789124 }, "geometry": { "type": "LineString", "coordinates": [ [ -87.091460407, 33.457510993 ], [ -87.091761105, 33.457304895 ], [ -87.092198603, 33.4566864 ], [ -87.093128704, 33.454624794 ], [ -87.093456805, 33.454212397 ], [ -87.094358906, 33.453502394 ], [ -87.0965183, 33.4523803 ], [ -87.096928507, 33.451945193 ], [ -87.096955903, 33.451578595 ], [ -87.096655503, 33.4509371 ], [ -87.095562607, 33.449882999 ], [ -87.094606504, 33.448691398 ], [ -87.0937047, 33.448301695 ], [ -87.092393205, 33.447590999 ], [ -87.091737501, 33.447063997 ], [ -87.091573603, 33.446788996 ], [ -87.091574006, 33.445941299 ], [ -87.092066206, 33.445254199 ], [ -87.094526403, 33.443101294 ], [ -87.095100403, 33.442986794 ], [ -87.095592104, 33.443330698 ], [ -87.095837705, 33.444315895 ], [ -87.096274607, 33.445369795 ], [ -87.0967663, 33.446217597 ], [ -87.097640507, 33.447248794 ], [ -87.099006601, 33.448486194 ], [ -87.099553101, 33.4488758 ], [ -87.1018482, 33.451213196 ], [ -87.1028319, 33.451992199 ], [ -87.103214502, 33.452129796 ], [ -87.104034305, 33.452152796 ], [ -87.104335107, 33.451992497 ], [ -87.104553804, 33.451511398 ], [ -87.104553901, 33.450847097 ], [ -87.104198806, 33.450045094 ], [ -87.104062401, 33.449128695 ], [ -87.104035303, 33.448028997 ], [ -87.104144804, 33.447341695 ], [ -87.104746506, 33.445188299 ], [ -87.105074503, 33.444936298 ], [ -87.106058404, 33.444569893 ], [ -87.107124306, 33.444386698 ], [ -87.108627304, 33.444364093 ], [ -87.1090919, 33.444455698 ], [ -87.110786006, 33.445303693 ], [ -87.111742407, 33.446449295 ], [ -87.112261303, 33.448786199 ], [ -87.112288602, 33.449496396 ], [ -87.112507001, 33.450756498 ], [ -87.112534106, 33.452176899 ], [ -87.112643406, 33.452474795 ], [ -87.112971403, 33.452749699 ], [ -87.113599904, 33.452795595 ], [ -87.1146385, 33.452635296 ], [ -87.115458503, 33.452383399 ], [ -87.117645003, 33.451237999 ], [ -87.118382901, 33.450733997 ], [ -87.118711002, 33.449978098 ], [ -87.118710905, 33.449359395 ], [ -87.118355803, 33.447366193 ], [ -87.118328504, 33.446426898 ], [ -87.1184652, 33.445945799 ], [ -87.118984401, 33.445464693 ], [ -87.119449101, 33.445281394 ], [ -87.1200229, 33.445258699 ], [ -87.120378204, 33.445327297 ] ] } },
{ "type": "Feature", "properties": { "site_no": "02462000", "nhdplus_comid": "18227203", "navigation_mode": "UM", "requested_distance_km": 12.0, "start_source": "nwissite", "start_id": "USGS-02462000", "geometry_length_km": 0.50102812322548174 }, "geometry": { "type": "LineString", "coordinates": [ [ -87.091079205, 33.453776494 ], [ -87.090614207, 33.454555295 ], [ -87.0901765, 33.455700696 ], [ -87.090203606, 33.456502497 ], [ -87.0903126, 33.456891999 ], [ -87.091023102, 33.457510799 ], [ -87.091460407, 33.457510993 ] ] } },
{ "type": "Feature", "properties": { "site_no": "02462000", "nhdplus_comid": "18227295", "navigation_mode": "UM", "requested_distance_km": 12.0, "start_source": "nwissite", "start_id": "USGS-02462000", "geometry_length_km": 2.0362383703731184 }, "geometry": { "type": "LineString", "coordinates": [ [ -87.082010306, 33.443097495 ], [ -87.082092203, 33.443601497 ], [ -87.0826656, 33.444655597 ], [ -87.083157204, 33.445136897 ], [ -87.0847423, 33.444885395 ], [ -87.085206904, 33.444931395 ], [ -87.085562006, 33.445206396 ], [ -87.085753106, 33.445618898 ], [ -87.085698307, 33.446237497 ], [ -87.084905103, 33.447749294 ], [ -87.084877305, 33.4487115 ], [ -87.085204802, 33.4495821 ], [ -87.085450701, 33.449880093 ], [ -87.0858059, 33.450040594 ], [ -87.088156201, 33.450361997 ], [ -87.090178505, 33.450774997 ], [ -87.091107607, 33.450706497 ], [ -87.092091501, 33.450890094 ], [ -87.092310004, 33.451027699 ], [ -87.092419304, 33.451256797 ], [ -87.092255205, 33.451829493 ], [ -87.091079205, 33.453776494 ] ] } },
{ "type": "Feature", "properties": { "site_no": "02462000", "nhdplus_comid": "18227473", "navigation_mode": "UM", "requested_distance_km": 12.0, "start_source": "nwissite", "start_id": "USGS-02462000", "geometry_length_km": 4.5170930660674866 }, "geometry": { "type": "LineString", "coordinates": [ [ -87.077679604, 33.416107595 ], [ -87.078143306, 33.417505294 ], [ -87.078225002, 33.418032199 ], [ -87.078306906, 33.418101095 ], [ -87.078334101, 33.418375999 ], [ -87.0784159, 33.418421894 ], [ -87.079261504, 33.421148494 ], [ -87.079534307, 33.421950497 ], [ -87.079506606, 33.422889799 ], [ -87.0793152, 33.423210397 ], [ -87.079041906, 33.4233936 ], [ -87.078522705, 33.423393495 ], [ -87.077621303, 33.423209898 ], [ -87.076856203, 33.423255295 ], [ -87.076555602, 33.423415594 ], [ -87.076418802, 33.423781998 ], [ -87.0764184, 33.424583897 ], [ -87.076800101, 33.425912894 ], [ -87.0769637, 33.426416896 ], [ -87.077564403, 33.427356593 ], [ -87.078356303, 33.428089999 ], [ -87.079530805, 33.428846493 ], [ -87.080131806, 33.429144494 ], [ -87.081634305, 33.429694898 ], [ -87.082098506, 33.430199094 ], [ -87.082235001, 33.430588596 ], [ -87.082480803, 33.4308865 ], [ -87.0827813, 33.431069896 ], [ -87.083573706, 33.430955596 ], [ -87.0845301, 33.430658095 ], [ -87.085377306, 33.430543795 ], [ -87.086142302, 33.430567093 ], [ -87.086688705, 33.430727594 ], [ -87.087562904, 33.431117296 ], [ -87.088245802, 33.431575693 ], [ -87.089010604, 33.432263196 ], [ -87.089256406, 33.432744399 ], [ -87.089611202, 33.433775499 ], [ -87.0898287, 33.436387293 ], [ -87.089718603, 33.438265897 ], [ -87.089199007, 33.4396175 ], [ -87.088242106, 33.440625198 ], [ -87.087668106, 33.440877095 ], [ -87.084826, 33.441013694 ], [ -87.084443405, 33.441127993 ], [ -87.082010306, 33.443097495 ] ] } }
]
}
