{
"type": "FeatureCollection",
"name": "USGS_02455000_DM_12km",
"crs": { "type": "name", "properties": { "name": "urn:ogc:def:crs:OGC:1.3:CRS84" } },
"features": [
{ "type": "Feature", "properties": { "site_no": "02455000", "nhdplus_comid": "18563487", "navigation_mode": "DM", "requested_distance_km": 12.0, "start_source": "nwissite", "start_id": "USGS-02455000", "geometry_length_km": 1.2188990244677569 }, "geometry": { "type": "LineString", "coordinates": [ [ -86.5752684, 34.024162943 ], [ -86.5754987, 34.024173394 ], [ -86.576296702, 34.023967594 ], [ -86.5774526, 34.023234993 ], [ -86.577920504, 34.022845693 ], [ -86.580177106, 34.021655396 ], [ -86.581277601, 34.021655798 ], [ -86.582322903, 34.021931097 ], [ -86.583175607, 34.0223208 ], [ -86.5839459, 34.022481494 ], [ -86.584853701, 34.022481799 ], [ -86.585321605, 34.022321597 ], [ -86.585927002, 34.021863595 ], [ -86.5865601, 34.021016099 ] ] } },
{ "type": "Feature", "properties": { "site_no": "02455000", "nhdplus_comid": "18563333", "navigation_mode": "DM", "requested_distance_km": 12.0, "start_source": "nwissite", "start_id": "USGS-02455000", "geometry_length_km": 1.8150685812694676 }, "geometry": { "type": "LineString", "coordinates": [ [ -86.5865601, 34.021016099 ], [ -86.586560503, 34.020305999 ], [ -86.586395606, 34.019756198 ], [ -86.586120807, 34.019274995 ], [ -86.585350804, 34.018679097 ], [ -86.584800802, 34.018037595 ], [ -86.583866104, 34.016571097 ], [ -86.583563805, 34.015975393 ], [ -86.583316505, 34.015196398 ], [ -86.583262004, 34.0142572 ], [ -86.583455101, 34.013180599 ], [ -86.583895601, 34.012355998 ], [ -86.584363401, 34.0120354 ], [ -86.586041704, 34.011394598 ], [ -86.587142102, 34.011257499 ], [ -86.587664701, 34.011372194 ], [ -86.588407405, 34.011761993 ], [ -86.588709801, 34.012059793 ], [ -86.588819705, 34.012311898 ], [ -86.589204706, 34.012724295 ], [ -86.5895347, 34.012861796 ], [ -86.590029806, 34.012930699 ], [ -86.590910204, 34.012701899 ] ] } },
{ "type": "Feature", "properties": { "site_no": "02455000", "nhdplus_comid": "18563343", "navigation_mode": "DM", "requested_distance_km": 12.0, "start_source": "nwissite", "start_id": "USGS-02455000", "geometry_length_km": 0.47761223070256553 }, "geometry": { "type": "LineString", "coordinates": [ [ -86.590910204, 34.012701899 ], [ -86.591488205, 34.012037694 ], [ -86.591846004, 34.011419296 ], [ -86.5920939, 34.010548897 ], [ -86.5920396, 34.0086703 ] ] } },
{ "type": "Feature", "properties": { "site_no": "02455000", "nhdplus_comid": "18563357", "navigation_mode": "DM", "requested_distance_km": 12.0, "start_source": "nwissite", "start_id": "USGS-02455000", "geometry_length_km": 0.85232900811919243 }, "geometry": { "type": "LineString", "coordinates": [ [ -86.5920396, 34.0086703 ], [ -86.592067406, 34.008212194 ], [ -86.591737404, 34.007639393 ], [ -86.591737501, 34.007318698 ], [ -86.592315704, 34.0059902 ], [ -86.592645906, 34.005692497 ], [ -86.594434105, 34.004936993 ], [ -86.596249603, 34.004456393 ], [ -86.597570002, 34.0039756 ] ] } },
{ "type": "Feature", "properties": { "site_no": "02455000", "nhdplus_comid": "18563373", "navigation_mode": "DM", "requested_distance_km": 12.0, "start_source": "nwissite", "start_id": "USGS-02455000", "geometry_length_km": 0.27499619886007137 }, "geometry": { "type": "LineString", "coordinates": [ [ -86.597570002, 34.0039756 ], [ -86.597872801, 34.003425896 ], [ -86.597900607, 34.002555296 ], [ -86.5977908, 34.001776397 ], [ -86.597570807, 34.0016848 ] ] } },
{ "type": "Feature", "properties": { "site_no": "02455000", "nhdplus_comid": "18563403", "navigation_mode": "DM", "requested_distance_km": 12.0, "start_source": "nwissite", "start_id": "USGS-02455000", "geometry_length_km": 0.18744233044140571 }, "geometry": { "type": "LineString", "coordinates": [ [ -86.597570807, 34.0016848 ], [ -86.597543202, 34.001547299 ], [ -86.5972405, 34.0012495 ], [ -86.597185202, 34.001089096 ], [ -86.597294502, 34.000109799 ] ] } },
{ "type": "Feature", "properties": { "site_no": "02455000", "nhdplus_comid": "18564589", "navigation_mode": "DM", "requested_distance_km": 12.0, "start_source": "nwissite", "start_id": "USGS-02455000", "geometry_length_km": 0.19252307113495457 }, "geometry": { "type": "LineString", "coordinates": [ [ -86.597294502, 34.000109799 ], [ -86.597487003, 33.999644898 ], [ -86.598228306, 33.998866193 ], [ -86.598503403, 33.998774596 ] ] } },
{ "type": "Feature", "properties": { "site_no": "02455000", "nhdplus_comid": "18564605", "navigation_mode": "DM", "requested_distance_km": 12.0, "start_source": "nwissite", "start_id": "USGS-02455000", "geometry_length_km": 0.82328025987118714 }, "geometry": { "type": "LineString", "coordinates": [ [ -86.598503403, 33.998774596 ], [ -86.598778501, 33.998522699 ], [ -86.599521205, 33.998202093 ], [ -86.601089001, 33.997858897 ], [ -86.602271907, 33.997034393 ], [ -86.603097305, 33.995911993 ], [ -86.604225501, 33.993919298 ], [ -86.604445502, 33.993781894 ] ] } },
{ "type": "Feature", "properties": { "site_no": "02455000", "nhdplus_comid": "18564617", "navigation_mode": "DM", "requested_distance_km": 12.0, "start_source": "nwissite", "start_id": "USGS-02455000", "geometry_length_km": 0.59518264369858376 }, "geometry": { "type": "LineString", "coordinates": [ [ -86.604445502, 33.993781894 ], [ -86.604473107, 33.993484095 ], [ -86.604885802, 33.992819794 ], [ -86.607719302, 33.9896589 ], [ -86.607911907, 33.989338294 ] ] } }
]
}
