{
"type": "FeatureCollection",
"name": "USGS_02421300_DM_12km",
"crs": { "type": "name", "properties": { "name": "urn:ogc:def:crs:OGC:1.3:CRS84" } },
"features": [
{ "type": "Feature", "properties": { "site_no": "02421300", "nhdplus_comid": "21686494", "navigation_mode": "DM", "requested_distance_km": 12.0, "start_source": "nwissite", "start_id": "USGS-02421300", "geometry_length_km": 0.60698032528319168 }, "geometry": { "type": "LineString", "coordinates": [ [ -86.778894282, 32.456864582 ], [ -86.778827302, 32.456737198 ], [ -86.778693803, 32.455247797 ], [ -86.778532304, 32.454628997 ], [ -86.778884105, 32.454170994 ], [ -86.779019907, 32.453575194 ], [ -86.779317506, 32.453231797 ], [ -86.779345006, 32.452842295 ], [ -86.778994501, 32.452017099 ], [ -86.7790488, 32.451787993 ], [ -86.779157005, 32.451742299 ] ] } },
{ "type": "Feature", "properties": { "site_no": "02421300", "nhdplus_comid": "21681024", "navigation_mode": "DM", "requested_distance_km": 12.0, "start_source": "nwissite", "start_id": "USGS-02421300", "geometry_length_km": 0.25285946337128756 }, "geometry": { "type": "LineString", "coordinates": [ [ -86.779157005, 32.451742299 ], [ -86.7790225, 32.4511922 ], [ -86.7792392, 32.450619593 ], [ -86.779104501, 32.450344399 ], [ -86.778483205, 32.4500461 ], [ -86.778456405, 32.449839793 ] ] } },
{ "type": "Feature", "properties": { "site_no": "02421300", "nhdplus_comid": "21681072", "navigation_mode": "DM", "requested_distance_km": 12.0, "start_source": "nwissite", "start_id": "USGS-02421300", "geometry_length_km": 0.55448302883737943 }, "geometry": { "type": "LineString", "coordinates": [ [ -86.778456405, 32.449839793 ], [ -86.779376, 32.449061498 ], [ -86.779565901, 32.448465899 ], [ -86.779701106, 32.448305599 ], [ -86.780728504, 32.447802298 ], [ -86.7807291, 32.447275296 ], [ -86.780405104, 32.446954198 ], [ -86.780324407, 32.446702093 ], [ -86.780838102, 32.4463588 ], [ -86.781000607, 32.446084 ] ] } },
{ "type": "Feature", "properties": { "site_no": "02421300", "nhdplus_comid": "21681080", "navigation_mode": "DM", "requested_distance_km": 12.0, "start_source": "nwissite", "start_id": "USGS-02421300", "geometry_length_km": 0.13391037927702312 }, "geometry": { "type": "LineString", "coordinates": [ [ -86.781000607, 32.446084 ], [ -86.781000704, 32.445900694 ], [ -86.779947303, 32.445395693 ] ] } },
{ "type": "Feature", "properties": { "site_no": "02421300", "nhdplus_comid": "21681086", "navigation_mode": "DM", "requested_distance_km": 12.0, "start_source": "nwissite", "start_id": "USGS-02421300", "geometry_length_km": 0.099172316613217987 }, "geometry": { "type": "LineString", "coordinates": [ [ -86.779947303, 32.445395693 ], [ -86.7799749, 32.444868796 ], [ -86.780110404, 32.444525093 ] ] } },
{ "type": "Feature", "properties": { "site_no": "02421300", "nhdplus_comid": "21681260", "navigation_mode": "DM", "requested_distance_km": 12.0, "start_source": "nwissite", "start_id": "USGS-02421300", "geometry_length_km": 3.3016190839594679 }, "geometry": { "type": "LineString", "coordinates": [ [ -86.780110404, 32.444525093 ], [ -86.780759104, 32.444365099 ], [ -86.780867502, 32.443952799 ], [ -86.780220002, 32.443127394 ], [ -86.780220903, 32.442164995 ], [ -86.780140005, 32.442119099 ], [ -86.780086204, 32.441844195 ], [ -86.780167401, 32.441683799 ], [ -86.780572906, 32.441477895 ], [ -86.780627407, 32.441019699 ], [ -86.781492807, 32.4403558 ], [ -86.781682305, 32.440012194 ], [ -86.781710103, 32.439278997 ], [ -86.781791404, 32.439049996 ], [ -86.782467104, 32.438775398 ], [ -86.782575704, 32.438294299 ], [ -86.782873005, 32.438225798 ], [ -86.783170506, 32.438019894 ], [ -86.783197902, 32.437630296 ], [ -86.783063106, 32.437332399 ], [ -86.782658204, 32.436965398 ], [ -86.782010004, 32.436666995 ], [ -86.782010205, 32.436483696 ], [ -86.782280907, 32.435979798 ], [ -86.782362305, 32.435704999 ], [ -86.782200202, 32.4355902 ], [ -86.781497903, 32.435429297 ], [ -86.781065807, 32.435199894 ], [ -86.781039402, 32.434558198 ], [ -86.780931406, 32.434420593 ], [ -86.780931905, 32.434053995 ], [ -86.781148203, 32.433802098 ], [ -86.781742707, 32.433802493 ], [ -86.781877905, 32.433688097 ], [ -86.781932406, 32.433229797 ], [ -86.781176805, 32.432427399 ], [ -86.781150207, 32.431946099 ], [ -86.781285502, 32.431716993 ], [ -86.781340003, 32.431304693 ], [ -86.781205207, 32.431052499 ], [ -86.781232804, 32.430502594 ], [ -86.781908207, 32.430480197 ], [ -86.782016501, 32.430342793 ], [ -86.781963207, 32.4296095 ], [ -86.781396203, 32.429219499 ], [ -86.781207405, 32.428944394 ], [ -86.781072907, 32.4283944 ], [ -86.781370707, 32.427730098 ], [ -86.7813714, 32.427065596 ], [ -86.781182706, 32.426698796 ], [ -86.7811298, 32.425575994 ], [ -86.780833207, 32.42498 ], [ -86.780212305, 32.424521193 ], [ -86.780187003, 32.422848493 ], [ -86.780376501, 32.422504894 ], [ -86.780565806, 32.422367595 ], [ -86.7812142, 32.422299296 ], [ -86.781672902, 32.422780894 ], [ -86.782213107, 32.422872894 ], [ -86.782321304, 32.422804296 ], [ -86.782483801, 32.422460698 ] ] } },
{ "type": "Feature", "properties": { "site_no": "02421300", "nhdplus_comid": "21681280", "navigation_mode": "DM", "requested_distance_km": 12.0, "start_source": "nwissite", "start_id": "USGS-02421300", "geometry_length_km": 0.90761154298266999 }, "geometry": { "type": "LineString", "coordinates": [ [ -86.782483801, 32.422460698 ], [ -86.781971104, 32.421887495 ], [ -86.782053202, 32.420879297 ], [ -86.781648301, 32.420581095 ], [ -86.781216003, 32.420557894 ], [ -86.780837201, 32.421153396 ], [ -86.780566804, 32.421336494 ], [ -86.780269705, 32.421359099 ], [ -86.779810503, 32.421221294 ], [ -86.779594705, 32.420946196 ], [ -86.779541306, 32.420350395 ], [ -86.779622607, 32.420144297 ], [ -86.780676804, 32.419526398 ], [ -86.780677006, 32.419320196 ], [ -86.780542105, 32.419205397 ], [ -86.780082904, 32.419136398 ], [ -86.779975407, 32.418632194 ], [ -86.7794623, 32.418425597 ] ] } },
{ "type": "Feature", "properties": { "site_no": "02421300", "nhdplus_comid": "21681332", "navigation_mode": "DM", "requested_distance_km": 12.0, "start_source": "nwissite", "start_id": "USGS-02421300", "geometry_length_km": 1.8971339758023751 }, "geometry": { "type": "LineString", "coordinates": [ [ -86.7794623, 32.418425597 ], [ -86.779516704, 32.418104894 ], [ -86.780247204, 32.416982695 ], [ -86.7805987, 32.416685 ], [ -86.781031005, 32.416593693 ], [ -86.781354904, 32.416823097 ], [ -86.781705603, 32.417304493 ], [ -86.782029606, 32.417465098 ], [ -86.7822458, 32.417488195 ], [ -86.7825431, 32.417259298 ], [ -86.782624803, 32.4165949 ], [ -86.782949403, 32.416136697 ], [ -86.782949805, 32.415861793 ], [ -86.781195402, 32.414416894 ], [ -86.781087503, 32.414187595 ], [ -86.781087905, 32.413820997 ], [ -86.781763405, 32.413706996 ], [ -86.783059806, 32.413937099 ], [ -86.783249006, 32.413845599 ], [ -86.783384301, 32.413616493 ], [ -86.783385001, 32.412929095 ], [ -86.783628404, 32.412562698 ], [ -86.783871606, 32.412494093 ], [ -86.784168601, 32.412631795 ], [ -86.784384206, 32.4132277 ], [ -86.784519002, 32.413342394 ], [ -86.784789205, 32.413365498 ], [ -86.785005406, 32.413251095 ], [ -86.785330303, 32.412495196 ], [ -86.785330601, 32.412174396 ], [ -86.784737006, 32.411394894 ], [ -86.7848453, 32.411096998 ], [ -86.7851969, 32.410730697 ], [ -86.785575107, 32.410707995 ], [ -86.785872005, 32.410868697 ], [ -86.786223203, 32.4109376 ] ] } },
{ "type": "Feature", "properties": { "site_no": "02421300", "nhdplus_comid": "21681440", "navigation_mode": "DM", "requested_distance_km": 12.0, "start_source": "nwissite", "start_id": "USGS-02421300", "geometry_length_km": 2.3234373816195157 }, "geometry": { "type": "LineString", "coordinates": [ [ -86.786223203, 32.4109376 ], [ -86.786277503, 32.410616897 ], [ -86.786034904, 32.4101355 ], [ -86.786008105, 32.409883499 ], [ -86.786468707, 32.408463195 ], [ -86.786388204, 32.407958895 ], [ -86.785821706, 32.407179497 ], [ -86.785687402, 32.406468995 ], [ -86.786147006, 32.406010993 ], [ -86.7876871, 32.405485094 ], [ -86.787795201, 32.405370593 ], [ -86.787795603, 32.405072697 ], [ -86.787687607, 32.404935099 ], [ -86.786985606, 32.404705495 ], [ -86.786823802, 32.404361695 ], [ -86.786634907, 32.404201195 ], [ -86.786121704, 32.404269494 ], [ -86.7858788, 32.404063195 ], [ -86.785554707, 32.404017098 ], [ -86.785122402, 32.404154293 ], [ -86.784879506, 32.404016599 ], [ -86.785043605, 32.401885696 ], [ -86.785584107, 32.401679896 ], [ -86.7858814, 32.401405193 ], [ -86.785935603, 32.401175998 ], [ -86.785044804, 32.400625497 ], [ -86.784397505, 32.399731398 ], [ -86.784370705, 32.3994793 ], [ -86.784506105, 32.399204396 ], [ -86.784911506, 32.3989527 ], [ -86.785181902, 32.398471698 ], [ -86.785587303, 32.398334496 ], [ -86.785857603, 32.398105495 ], [ -86.7858309, 32.397761799 ], [ -86.785210006, 32.397555098 ], [ -86.785183102, 32.397348799 ], [ -86.784994304, 32.397050798 ], [ -86.7847514, 32.396958895 ], [ -86.784427203, 32.397050396 ], [ -86.784373105, 32.397141993 ], [ -86.784021802, 32.397279195 ], [ -86.783670902, 32.397164397 ], [ -86.783212103, 32.396774493 ] ] } },
{ "type": "Feature", "properties": { "site_no": "02421300", "nhdplus_comid": "21687202", "navigation_mode": "DM", "requested_distance_km": 12.0, "start_source": "nwissite", "start_id": "USGS-02421300", "geometry_length_km": 0.041949059863736551 }, "geometry": { "type": "LineString", "coordinates": [ [ -86.783212103, 32.396774493 ], [ -86.783131301, 32.396680199 ], [ -86.782931902, 32.396481097 ] ] } },
{ "type": "Feature", "properties": { "site_no": "02421300", "nhdplus_comid": "21687226", "navigation_mode": "DM", "requested_distance_km": 12.0, "start_source": "nwissite", "start_id": "USGS-02421300", "geometry_length_km": 0.58330458680633368 }, "geometry": { "type": "LineString", "coordinates": [ [ -86.782931902, 32.396481097 ], [ -86.782452203, 32.395432696 ], [ -86.783068702, 32.392707497 ], [ -86.782142304, 32.391622595 ] ] } },
{ "type": "Feature", "properties": { "site_no": "02421300", "nhdplus_comid": "21687360", "navigation_mode": "DM", "requested_distance_km": 12.0, "start_source": "nwissite", "start_id": "USGS-02421300", "geometry_length_km": 3.0636740833055844 }, "geometry": { "type": "LineString", "coordinates": [ [ -86.782142304, 32.391622595 ], [ -86.782417603, 32.389247999 ], [ -86.782130301, 32.387836695 ], [ -86.781785004, 32.386925399 ], [ -86.780575402, 32.385691099 ], [ -86.781314306, 32.379317194 ], [ -86.781781904, 32.376579799 ], [ -86.782152005, 32.3759792 ], [ -86.782669507, 32.370217897 ], [ -86.782473102, 32.369318694 ], [ -86.780904204, 32.367298 ], [ -86.7809911, 32.366548099 ], [ -86.780391701, 32.365237497 ] ] } }
]
}
