{
"type": "FeatureCollection",
"name": "USGS_02466030_DM_12km",
"crs": { "type": "name", "properties": { "name": "urn:ogc:def:crs:OGC:1.3:CRS84" } },
"features": [
{ "type": "Feature", "properties": { "site_no": "02466030", "nhdplus_comid": "18215736", "navigation_mode": "DM", "requested_distance_km": 12.0, "start_source": "nwissite", "start_id": "USGS-02466030", "geometry_length_km": 1.7965132860100994 }, "geometry": { "type": "LineString", "coordinates": [ [ -87.84101937, 32.778756118 ], [ -87.8427746, 32.778062299 ], [ -87.844884306, 32.778087899 ], [ -87.8469344, 32.777227394 ], [ -87.848235704, 32.776313193 ], [ -87.848976403, 32.774980895 ], [ -87.850628607, 32.773588099 ], [ -87.852079503, 32.772684596 ], [ -87.853641503, 32.772166893 ], [ -87.856662504, 32.772131599 ], [ -87.8572658, 32.772260696 ] ] } },
{ "type": "Feature", "properties": { "site_no": "02466030", "nhdplus_comid": "18211360", "navigation_mode": "DM", "requested_distance_km": 12.0, "start_source": "nwissite", "start_id": "USGS-02466030", "geometry_length_km": 2.1049548118449875 }, "geometry": { "type": "LineString", "coordinates": [ [ -87.8572658, 32.772260696 ], [ -87.864343204, 32.773486696 ], [ -87.865788206, 32.773390494 ], [ -87.866403304, 32.772835493 ], [ -87.866781205, 32.769933999 ], [ -87.867688306, 32.766537897 ], [ -87.870559007, 32.762765594 ] ] } },
{ "type": "Feature", "properties": { "site_no": "02466030", "nhdplus_comid": "18215742", "navigation_mode": "DM", "requested_distance_km": 12.0, "start_source": "nwissite", "start_id": "USGS-02466030", "geometry_length_km": 5.2633199739509609 }, "geometry": { "type": "LineString", "coordinates": [ [ -87.870559007, 32.762765594 ], [ -87.8704587, 32.762666196 ], [ -87.870548606, 32.761790894 ], [ -87.869727202, 32.760976397 ], [ -87.868118502, 32.760483295 ], [ -87.867844701, 32.760211796 ], [ -87.864366502, 32.758829094 ], [ -87.861089602, 32.756956793 ], [ -87.859891705, 32.756870896 ], [ -87.858967602, 32.757056594 ], [ -87.856430307, 32.758260094 ], [ -87.854556203, 32.758881398 ], [ -87.851633906, 32.759427398 ], [ -87.850273401, 32.759455696 ], [ -87.849648707, 32.7596628 ], [ -87.847402602, 32.759501494 ], [ -87.846478403, 32.759687096 ], [ -87.8428846, 32.759428896 ], [ -87.840886503, 32.759789199 ], [ -87.838927001, 32.759774297 ], [ -87.838002704, 32.759959795 ], [ -87.835606903, 32.7597875 ], [ -87.834455602, 32.7607124 ], [ -87.834326603, 32.761962697 ], [ -87.8347966, 32.763255998 ], [ -87.834745005, 32.763756096 ], [ -87.835142605, 32.764288597 ], [ -87.835834801, 32.7663536 ], [ -87.835628405, 32.768354096 ], [ -87.8346138, 32.769414693 ], [ -87.833364107, 32.7698287 ], [ -87.829620205, 32.769559294 ] ] } },
{ "type": "Feature", "properties": { "site_no": "02466030", "nhdplus_comid": "18210972", "navigation_mode": "DM", "requested_distance_km": 12.0, "start_source": "nwissite", "start_id": "USGS-02466030", "geometry_length_km": 2.6799774841050525 }, "geometry": { "type": "LineString", "coordinates": [ [ -87.829620205, 32.769559294 ], [ -87.8284996, 32.768722996 ], [ -87.824761003, 32.766942397 ], [ -87.823353902, 32.7659593 ], [ -87.814995006, 32.757799499 ], [ -87.814558707, 32.757642098 ], [ -87.811125904, 32.754371494 ], [ -87.8091591, 32.752969995 ] ] } }
]
}
