{
"type": "FeatureCollection",
"name": "USGS_02429650_UM_12km",
"crs": { "type": "name", "properties": { "name": "urn:ogc:def:crs:OGC:1.3:CRS84" } },
"features": [
{ "type": "Feature", "properties": { "site_no": "02429650", "nhdplus_comid": "18241891", "navigation_mode": "UM", "requested_distance_km": 12.0, "start_source": "nwissite", "start_id": "USGS-02429650", "geometry_length_km": 0.72712025411518888 }, "geometry": { "type": "LineString", "coordinates": [ [ -87.813245706, 31.125110395 ], [ -87.8134588, 31.125179298 ], [ -87.813751601, 31.125523098 ], [ -87.813778102, 31.125729397 ], [ -87.8140442, 31.126027398 ], [ -87.814257301, 31.126142099 ], [ -87.814710103, 31.126211099 ], [ -87.8149231, 31.126486197 ], [ -87.815082401, 31.127448797 ], [ -87.815987706, 31.128228299 ], [ -87.8162008, 31.128205493 ], [ -87.816440701, 31.127976395 ], [ -87.817532904, 31.128114395 ], [ -87.818171903, 31.128779195 ], [ -87.818207941, 31.128776826 ] ] } },
{ "type": "Feature", "properties": { "site_no": "02429650", "nhdplus_comid": "18241895", "navigation_mode": "UM", "requested_distance_km": 12.0, "start_source": "nwissite", "start_id": "USGS-02429650", "geometry_length_km": 0.33220859713212264 }, "geometry": { "type": "LineString", "coordinates": [ [ -87.8108759, 31.1232301 ], [ -87.811221607, 31.124146998 ], [ -87.811487906, 31.124284595 ], [ -87.812287003, 31.1244912 ], [ -87.812686406, 31.124720596 ], [ -87.812952705, 31.124995694 ], [ -87.813245706, 31.125110395 ] ] } },
{ "type": "Feature", "properties": { "site_no": "02429650", "nhdplus_comid": "18241913", "navigation_mode": "UM", "requested_distance_km": 12.0, "start_source": "nwissite", "start_id": "USGS-02429650", "geometry_length_km": 1.0709856255993866 }, "geometry": { "type": "LineString", "coordinates": [ [ -87.802620001, 31.1203385 ], [ -87.803126104, 31.120315894 ], [ -87.803126305, 31.120040797 ], [ -87.803046502, 31.119926199 ], [ -87.803179801, 31.119811699 ], [ -87.803526103, 31.119788997 ], [ -87.804591402, 31.120018698 ], [ -87.805363402, 31.120637894 ], [ -87.806109101, 31.120981999 ], [ -87.806561701, 31.121325999 ], [ -87.806774303, 31.122013599 ], [ -87.807013907, 31.122219995 ], [ -87.809358001, 31.122404493 ], [ -87.809517205, 31.123298295 ], [ -87.809703507, 31.123527497 ], [ -87.8108759, 31.1232301 ] ] } },
{ "type": "Feature", "properties": { "site_no": "02429650", "nhdplus_comid": "18241911", "navigation_mode": "UM", "requested_distance_km": 12.0, "start_source": "nwissite", "start_id": "USGS-02429650", "geometry_length_km": 0.17559492784422548 }, "geometry": { "type": "LineString", "coordinates": [ [ -87.800888702, 31.120131299 ], [ -87.801154904, 31.120314799 ], [ -87.801900804, 31.120200597 ], [ -87.802300401, 31.120223694 ], [ -87.802620001, 31.1203385 ] ] } },
{ "type": "Feature", "properties": { "site_no": "02429650", "nhdplus_comid": "18241951", "navigation_mode": "UM", "requested_distance_km": 12.0, "start_source": "nwissite", "start_id": "USGS-02429650", "geometry_length_km": 2.5897979537617557 }, "geometry": { "type": "LineString", "coordinates": [ [ -87.789209202, 31.103119999 ], [ -87.789235704, 31.1032345 ], [ -87.789555006, 31.103532694 ], [ -87.790167302, 31.103853896 ], [ -87.790805906, 31.104587696 ], [ -87.791125104, 31.105092093 ], [ -87.792029902, 31.106009297 ], [ -87.792242706, 31.106376097 ], [ -87.792748407, 31.106811799 ], [ -87.793201007, 31.106995493 ], [ -87.7935469, 31.107453994 ], [ -87.795143902, 31.108784199 ], [ -87.795143805, 31.108921699 ], [ -87.795676105, 31.109471999 ], [ -87.795675002, 31.110755399 ], [ -87.796367005, 31.111397393 ], [ -87.796632901, 31.111993395 ], [ -87.796899103, 31.112268597 ], [ -87.797218606, 31.112406299 ], [ -87.797271401, 31.113025099 ], [ -87.797590807, 31.113323197 ], [ -87.798229806, 31.113667198 ], [ -87.798496, 31.1139194 ], [ -87.798522204, 31.1144007 ], [ -87.798415504, 31.114629798 ], [ -87.7981489, 31.114858799 ], [ -87.797509402, 31.115156397 ], [ -87.797402807, 31.115270898 ], [ -87.797429107, 31.115614697 ], [ -87.797642, 31.115935698 ], [ -87.797588207, 31.116577297 ], [ -87.797374703, 31.117081299 ], [ -87.797507405, 31.117700197 ], [ -87.798093103, 31.118227594 ], [ -87.798599206, 31.118273698 ], [ -87.798625603, 31.118617497 ], [ -87.798492305, 31.118800797 ], [ -87.798385404, 31.119213194 ], [ -87.798411801, 31.119534098 ], [ -87.798598103, 31.119694598 ], [ -87.798944406, 31.119763494 ], [ -87.799344003, 31.119717896 ], [ -87.799929902, 31.119878694 ], [ -87.800516002, 31.119764395 ], [ -87.800808907, 31.119925 ], [ -87.800888702, 31.120131299 ] ] } },
{ "type": "Feature", "properties": { "site_no": "02429650", "nhdplus_comid": "18241959", "navigation_mode": "UM", "requested_distance_km": 12.0, "start_source": "nwissite", "start_id": "USGS-02429650", "geometry_length_km": 0.78762362441450928 }, "geometry": { "type": "LineString", "coordinates": [ [ -87.785911202, 31.098190695 ], [ -87.785937704, 31.098328196 ], [ -87.786576301, 31.098947398 ], [ -87.786975704, 31.099039398 ], [ -87.788652107, 31.100621693 ], [ -87.789450705, 31.101011693 ], [ -87.789583705, 31.101172298 ], [ -87.789557002, 31.101309694 ], [ -87.789157301, 31.1014928 ], [ -87.788944006, 31.1017906 ], [ -87.788943902, 31.101950996 ], [ -87.789529502, 31.102249399 ], [ -87.789609306, 31.102432698 ], [ -87.789582402, 31.102707699 ], [ -87.7892626, 31.102913797 ], [ -87.789209202, 31.103119999 ] ] } },
{ "type": "Feature", "properties": { "site_no": "02429650", "nhdplus_comid": "18241967", "navigation_mode": "UM", "requested_distance_km": 12.0, "start_source": "nwissite", "start_id": "USGS-02429650", "geometry_length_km": 1.7449986005319555 }, "geometry": { "type": "LineString", "coordinates": [ [ -87.776864603, 31.089888394 ], [ -87.776864506, 31.089980096 ], [ -87.776518002, 31.090277798 ], [ -87.776490703, 31.090919398 ], [ -87.776836306, 31.091492496 ], [ -87.777528502, 31.091607593 ], [ -87.777634904, 31.091745198 ], [ -87.777767502, 31.092249498 ], [ -87.777980305, 31.092524596 ], [ -87.778353207, 31.092456095 ], [ -87.778833106, 31.091952294 ], [ -87.779019602, 31.091883697 ], [ -87.779605202, 31.0921591 ], [ -87.780191205, 31.092022099 ], [ -87.7807502, 31.0922058 ], [ -87.7809631, 31.092412196 ], [ -87.780829303, 31.093053699 ], [ -87.780828707, 31.093672499 ], [ -87.780988306, 31.093855999 ], [ -87.781440906, 31.094039597 ], [ -87.782079406, 31.094612993 ], [ -87.7825846, 31.095392495 ], [ -87.783090405, 31.095690794 ], [ -87.784288801, 31.095737495 ], [ -87.784421802, 31.095829196 ], [ -87.784368202, 31.096264593 ], [ -87.783621803, 31.096974596 ], [ -87.783621706, 31.097112097 ], [ -87.784047604, 31.0973415 ], [ -87.784260303, 31.097708397 ], [ -87.784819402, 31.098052397 ], [ -87.785352103, 31.097983994 ], [ -87.785911202, 31.098190695 ] ] } },
{ "type": "Feature", "properties": { "site_no": "02429650", "nhdplus_comid": "18242009", "navigation_mode": "UM", "requested_distance_km": 12.0, "start_source": "nwissite", "start_id": "USGS-02429650", "geometry_length_km": 2.7266422869674907 }, "geometry": { "type": "LineString", "coordinates": [ [ -87.767242804, 31.073311798 ], [ -87.767375506, 31.073701493 ], [ -87.767747603, 31.074297599 ], [ -87.767560504, 31.074916296 ], [ -87.767560206, 31.0752142 ], [ -87.767666504, 31.075397596 ], [ -87.767612703, 31.075833 ], [ -87.767506003, 31.076016299 ], [ -87.767505705, 31.076268397 ], [ -87.767718501, 31.076497696 ], [ -87.768490307, 31.076796293 ], [ -87.768942602, 31.077186197 ], [ -87.768995002, 31.077896595 ], [ -87.768915005, 31.078056894 ], [ -87.768941306, 31.0784695 ], [ -87.769047603, 31.078629993 ], [ -87.769233905, 31.078721799 ], [ -87.769553505, 31.078630395 ], [ -87.769607, 31.078332499 ], [ -87.769926801, 31.078034796 ], [ -87.7703261, 31.078195594 ], [ -87.770991206, 31.0787462 ], [ -87.7709371, 31.079479396 ], [ -87.771256305, 31.079823397 ], [ -87.771708705, 31.080029994 ], [ -87.772081606, 31.079938695 ], [ -87.772507802, 31.079755694 ], [ -87.773067102, 31.079641499 ], [ -87.773546405, 31.079710595 ], [ -87.7741317, 31.080031894 ], [ -87.774184503, 31.0804445 ], [ -87.773625106, 31.0807878 ], [ -87.773225106, 31.0813834 ], [ -87.772931501, 31.082047798 ], [ -87.772876807, 31.083376899 ], [ -87.773036003, 31.083881199 ], [ -87.773807406, 31.084729798 ], [ -87.774446301, 31.084844798 ], [ -87.774978302, 31.085418098 ], [ -87.775377102, 31.086060099 ], [ -87.775909103, 31.086495996 ], [ -87.776201203, 31.087389998 ], [ -87.776653402, 31.087848596 ], [ -87.7775051, 31.088399194 ], [ -87.777584307, 31.089086793 ], [ -87.777424105, 31.089453399 ], [ -87.776864603, 31.089888394 ] ] } },
{ "type": "Feature", "properties": { "site_no": "02429650", "nhdplus_comid": "18242019", "navigation_mode": "UM", "requested_distance_km": 12.0, "start_source": "nwissite", "start_id": "USGS-02429650", "geometry_length_km": 2.0653789077735536 }, "geometry": { "type": "LineString", "coordinates": [ [ -87.751085103, 31.070318393 ], [ -87.7513512, 31.070433199 ], [ -87.751857206, 31.070341997 ], [ -87.7524698, 31.070067599 ], [ -87.752683006, 31.069861494 ], [ -87.752896704, 31.069311693 ], [ -87.754787102, 31.069290496 ], [ -87.755186707, 31.069130398 ], [ -87.755426601, 31.068901397 ], [ -87.755879402, 31.068695597 ], [ -87.756651506, 31.068650499 ], [ -87.756651804, 31.068398394 ], [ -87.756944902, 31.068215296 ], [ -87.757157907, 31.068215497 ], [ -87.7577167, 31.068468094 ], [ -87.758089602, 31.068399698 ], [ -87.758436106, 31.068056196 ], [ -87.758835703, 31.067804493 ], [ -87.759474404, 31.068011299 ], [ -87.759633802, 31.068309397 ], [ -87.759792805, 31.068905398 ], [ -87.7602183, 31.069432899 ], [ -87.760670602, 31.069708198 ], [ -87.761282802, 31.069800399 ], [ -87.761975303, 31.069640599 ], [ -87.762614705, 31.0692515 ], [ -87.763306901, 31.069206297 ], [ -87.763706103, 31.069367096 ], [ -87.763785802, 31.069527499 ], [ -87.765062302, 31.070834994 ], [ -87.766605206, 31.072027899 ], [ -87.766711406, 31.0723259 ], [ -87.767243207, 31.0729222 ], [ -87.767242804, 31.073311798 ] ] } }
]
}
