{
"type": "FeatureCollection",
"name": "USGS_03574100_UM_12km",
"crs": { "type": "name", "properties": { "name": "urn:ogc:def:crs:OGC:1.3:CRS84" } },
"features": [
{ "type": "Feature", "properties": { "site_no": "03574100", "nhdplus_comid": "19618866", "navigation_mode": "UM", "requested_distance_km": 12.0, "start_source": "nwissite", "start_id": "USGS-03574100", "geometry_length_km": 3.1725372584767886 }, "geometry": { "type": "LineString", "coordinates": [ [ -86.156769104, 34.933094099 ], [ -86.1568802, 34.932681799 ], [ -86.157269306, 34.931742698 ], [ -86.157769606, 34.931169897 ], [ -86.1581586, 34.930391096 ], [ -86.158381, 34.930207796 ], [ -86.159854703, 34.929726496 ], [ -86.160077102, 34.929497398 ], [ -86.1605772, 34.9284667 ], [ -86.160854906, 34.927275598 ], [ -86.160576403, 34.926405296 ], [ -86.159658402, 34.925099999 ], [ -86.159602106, 34.92368 ], [ -86.159017906, 34.922809795 ], [ -86.159017704, 34.922191396 ], [ -86.160212606, 34.9201985 ], [ -86.160935201, 34.919190593 ], [ -86.160990506, 34.918824099 ], [ -86.161379501, 34.918159798 ], [ -86.162157804, 34.917380899 ], [ -86.162713505, 34.916601896 ], [ -86.163352601, 34.915364996 ], [ -86.163907804, 34.913486794 ], [ -86.163796104, 34.9121584 ], [ -86.163962707, 34.911883496 ], [ -86.164268605, 34.911745995 ], [ -86.164908007, 34.911814496 ], [ -86.165964805, 34.912203595 ], [ -86.166604303, 34.912226297 ], [ -86.166993506, 34.912134595 ], [ -86.167438202, 34.911836699 ], [ -86.167771503, 34.911263995 ], [ -86.168021403, 34.910599597 ], [ -86.168089245, 34.91047895 ] ] } },
{ "type": "Feature", "properties": { "site_no": "03574100", "nhdplus_comid": "19618708", "navigation_mode": "UM", "requested_distance_km": 12.0, "start_source": "nwissite", "start_id": "USGS-03574100", "geometry_length_km": 0.43186474415985082 }, "geometry": { "type": "LineString", "coordinates": [ [ -86.159495607, 34.935750194 ], [ -86.159495302, 34.9349944 ], [ -86.159244902, 34.934788294 ], [ -86.157742903, 34.934353597 ], [ -86.157214403, 34.933964297 ], [ -86.156964004, 34.933574997 ], [ -86.156769104, 34.933094099 ] ] } },
{ "type": "Feature", "properties": { "site_no": "03574100", "nhdplus_comid": "19618686", "navigation_mode": "UM", "requested_distance_km": 12.0, "start_source": "nwissite", "start_id": "USGS-03574100", "geometry_length_km": 0.94880581567464173 }, "geometry": { "type": "LineString", "coordinates": [ [ -86.152739003, 34.941294298 ], [ -86.152849905, 34.940584399 ], [ -86.153016806, 34.940309398 ], [ -86.153878801, 34.939736694 ], [ -86.155158006, 34.939232595 ], [ -86.155742005, 34.938865997 ], [ -86.156047806, 34.9384766 ], [ -86.156937204, 34.9366211 ], [ -86.157493204, 34.936162993 ], [ -86.157993801, 34.935910895 ], [ -86.159022801, 34.935864896 ], [ -86.159495607, 34.935750194 ] ] } },
{ "type": "Feature", "properties": { "site_no": "03574100", "nhdplus_comid": "19618666", "navigation_mode": "UM", "requested_distance_km": 12.0, "start_source": "nwissite", "start_id": "USGS-03574100", "geometry_length_km": 1.6708705450294354 }, "geometry": { "type": "LineString", "coordinates": [ [ -86.156554006, 34.954944097 ], [ -86.156609505, 34.954646394 ], [ -86.156915203, 34.953775994 ], [ -86.157332301, 34.953020096 ], [ -86.157582305, 34.952355698 ], [ -86.157582201, 34.9517373 ], [ -86.1565523, 34.949996896 ], [ -86.156552106, 34.949332699 ], [ -86.156830102, 34.948737197 ], [ -86.156829804, 34.947821096 ], [ -86.1560781, 34.945599593 ], [ -86.154436201, 34.943126395 ], [ -86.153267704, 34.942187496 ], [ -86.153017305, 34.9418898 ], [ -86.152739003, 34.941294298 ] ] } },
{ "type": "Feature", "properties": { "site_no": "03574100", "nhdplus_comid": "19618600", "navigation_mode": "UM", "requested_distance_km": 12.0, "start_source": "nwissite", "start_id": "USGS-03574100", "geometry_length_km": 0.77643779337646335 }, "geometry": { "type": "LineString", "coordinates": [ [ -86.154942602, 34.961471893 ], [ -86.154998206, 34.961219996 ], [ -86.1553597, 34.960624494 ], [ -86.157083303, 34.9570053 ], [ -86.157110803, 34.956249498 ], [ -86.156888105, 34.955882996 ], [ -86.156554006, 34.954944097 ] ] } },
{ "type": "Feature", "properties": { "site_no": "03574100", "nhdplus_comid": "19618568", "navigation_mode": "UM", "requested_distance_km": 12.0, "start_source": "nwissite", "start_id": "USGS-03574100", "geometry_length_km": 2.3980180197151513 }, "geometry": { "type": "LineString", "coordinates": [ [ -86.146155506, 34.980528995 ], [ -86.146183304, 34.980368599 ], [ -86.147407107, 34.977757499 ], [ -86.148046806, 34.976955794 ], [ -86.148770206, 34.976360194 ], [ -86.149048306, 34.975833498 ], [ -86.149743803, 34.975100495 ], [ -86.150550403, 34.973955095 ], [ -86.152219102, 34.971160598 ], [ -86.152580604, 34.970725395 ], [ -86.152803101, 34.970267199 ], [ -86.152830705, 34.969488494 ], [ -86.153081, 34.968938798 ], [ -86.153748505, 34.968595095 ], [ -86.1540545, 34.968205795 ], [ -86.154082201, 34.967770599 ], [ -86.154026501, 34.9677248 ], [ -86.154026501, 34.967564397 ], [ -86.153302804, 34.966671295 ], [ -86.153302602, 34.966029994 ], [ -86.153858706, 34.964747295 ], [ -86.153886102, 34.963693798 ], [ -86.153997205, 34.962823398 ], [ -86.154330805, 34.961952999 ], [ -86.154775806, 34.961494893 ], [ -86.154942602, 34.961471893 ] ] } },
{ "type": "Feature", "properties": { "site_no": "03574100", "nhdplus_comid": "19618446", "navigation_mode": "UM", "requested_distance_km": 12.0, "start_source": "nwissite", "start_id": "USGS-03574100", "geometry_length_km": 1.5425279543192809 }, "geometry": { "type": "LineString", "coordinates": [ [ -86.152864605, 34.991086498 ], [ -86.1525582, 34.990216099 ], [ -86.151918001, 34.989552096 ], [ -86.151277505, 34.988246694 ], [ -86.150832206, 34.987857394 ], [ -86.150498301, 34.987720095 ], [ -86.149384901, 34.986941494 ], [ -86.1484107, 34.985933796 ], [ -86.146768503, 34.984559797 ], [ -86.1463788, 34.983895794 ], [ -86.145265505, 34.982819393 ], [ -86.145182006, 34.9825674 ], [ -86.1452654, 34.982361294 ], [ -86.145460203, 34.982223794 ], [ -86.145877503, 34.982315399 ], [ -86.146044604, 34.9822696 ], [ -86.146072306, 34.982177995 ], [ -86.146601006, 34.9818573 ], [ -86.146740004, 34.981467895 ], [ -86.1463781, 34.980712198 ], [ -86.146155506, 34.980528995 ] ] } },
{ "type": "Feature", "properties": { "site_no": "03574100", "nhdplus_comid": "19618376", "navigation_mode": "UM", "requested_distance_km": 12.0, "start_source": "nwissite", "start_id": "USGS-03574100", "geometry_length_km": 1.2588389544949223 }, "geometry": { "type": "LineString", "coordinates": [ [ -86.146942906, 35.000095397 ], [ -86.147749603, 34.998736896 ], [ -86.148333706, 34.9980269 ], [ -86.148778901, 34.997637495 ], [ -86.150782004, 34.996881396 ], [ -86.1511712, 34.996560596 ], [ -86.151365705, 34.996171296 ], [ -86.152283303, 34.995392397 ], [ -86.152616404, 34.994430296 ], [ -86.153256007, 34.993697397 ], [ -86.153422505, 34.993353695 ], [ -86.153422102, 34.992689595 ], [ -86.152948603, 34.991933897 ], [ -86.152864605, 34.991086498 ] ] } }
]
}
