{
"type": "FeatureCollection",
"name": "USGS_03577000_UM_12km",
"crs": { "type": "name", "properties": { "name": "urn:ogc:def:crs:OGC:1.3:CRS84" } },
"features": [
{ "type": "Feature", "properties": { "site_no": "03577000", "nhdplus_comid": "19626424", "navigation_mode": "UM", "requested_distance_km": 12.0, "start_source": "nwissite", "start_id": "USGS-03577000", "geometry_length_km": 3.6193957633049965 }, "geometry": { "type": "LineString", "coordinates": [ [ -87.1426863, 34.461289793 ], [ -87.141746007, 34.461221196 ], [ -87.141524501, 34.460740298 ], [ -87.141026601, 34.4605112 ], [ -87.138620704, 34.460488699 ], [ -87.138344206, 34.460626096 ], [ -87.138233602, 34.460992694 ], [ -87.138289005, 34.461771399 ], [ -87.139368005, 34.463443398 ], [ -87.139893606, 34.464130595 ], [ -87.140253305, 34.464863494 ], [ -87.140944801, 34.465436094 ], [ -87.141276702, 34.465527698 ], [ -87.141802207, 34.4654589 ], [ -87.142189302, 34.465252697 ], [ -87.142880507, 34.464565396 ], [ -87.143544205, 34.463809393 ], [ -87.143710002, 34.463534497 ], [ -87.143765204, 34.463236697 ], [ -87.144041702, 34.462870099 ], [ -87.144982204, 34.463602997 ], [ -87.145203501, 34.463992395 ], [ -87.144954801, 34.4646338 ], [ -87.143765904, 34.466122895 ], [ -87.143489502, 34.466626897 ], [ -87.143489607, 34.467428595 ], [ -87.143683501, 34.468001194 ], [ -87.1437665, 34.468046993 ], [ -87.144126303, 34.469490096 ], [ -87.144126602, 34.470131397 ], [ -87.144043602, 34.470245995 ], [ -87.143960707, 34.4708874 ], [ -87.144486405, 34.471345395 ], [ -87.144624807, 34.471734799 ], [ -87.144624904, 34.472238794 ], [ -87.144348405, 34.472628199 ], [ -87.144320905, 34.473132096 ], [ -87.145123102, 34.4736588 ], [ -87.146202102, 34.474551998 ], [ -87.1463129, 34.474758193 ], [ -87.146285303, 34.475033097 ], [ -87.145704605, 34.475903593 ], [ -87.145123906, 34.476407595 ], [ -87.144792005, 34.476545095 ], [ -87.144404702, 34.476499297 ], [ -87.144072704, 34.476293296 ], [ -87.144017301, 34.476064198 ], [ -87.143713005, 34.475903898 ], [ -87.142744802, 34.475720793 ], [ -87.141915105, 34.475812495 ], [ -87.141575105, 34.476072414 ] ] } },
{ "type": "Feature", "properties": { "site_no": "03577000", "nhdplus_comid": "19626420", "navigation_mode": "UM", "requested_distance_km": 12.0, "start_source": "nwissite", "start_id": "USGS-03577000", "geometry_length_km": 1.594575540188383 }, "geometry": { "type": "LineString", "coordinates": [ [ -87.1586169, 34.464058198 ], [ -87.158534005, 34.464035295 ], [ -87.158146605, 34.463691793 ], [ -87.157648705, 34.463462897 ], [ -87.157233901, 34.463417195 ], [ -87.156736203, 34.463600494 ], [ -87.156072505, 34.4637153 ], [ -87.154606603, 34.463715494 ], [ -87.1528918, 34.463395298 ], [ -87.152172707, 34.463120595 ], [ -87.1501256, 34.461471796 ], [ -87.149655506, 34.461288497 ], [ -87.148687504, 34.461540796 ], [ -87.147360004, 34.4611746 ], [ -87.146115504, 34.461174794 ], [ -87.1437096, 34.461564496 ], [ -87.143239401, 34.461495899 ], [ -87.1426863, 34.461289793 ] ] } },
{ "type": "Feature", "properties": { "site_no": "03577000", "nhdplus_comid": "19626422", "navigation_mode": "UM", "requested_distance_km": 12.0, "start_source": "nwissite", "start_id": "USGS-03577000", "geometry_length_km": 0.38622393221030721 }, "geometry": { "type": "LineString", "coordinates": [ [ -87.159251802, 34.460942797 ], [ -87.159252003, 34.461584099 ], [ -87.1594458, 34.462019295 ], [ -87.159501404, 34.462843798 ], [ -87.158976406, 34.463989399 ], [ -87.1586169, 34.464058198 ] ] } },
{ "type": "Feature", "properties": { "site_no": "03577000", "nhdplus_comid": "19626436", "navigation_mode": "UM", "requested_distance_km": 12.0, "start_source": "nwissite", "start_id": "USGS-03577000", "geometry_length_km": 4.4622527959823213 }, "geometry": { "type": "LineString", "coordinates": [ [ -87.185138002, 34.462192595 ], [ -87.184669003, 34.463681594 ], [ -87.184421003, 34.464827098 ], [ -87.184199907, 34.465010494 ], [ -87.183812603, 34.4651023 ], [ -87.183010504, 34.465102598 ], [ -87.182899803, 34.464919299 ], [ -87.182678506, 34.464782096 ], [ -87.182319, 34.464896798 ], [ -87.182180904, 34.465171695 ], [ -87.182126001, 34.465652794 ], [ -87.181905106, 34.466110997 ], [ -87.181379803, 34.466523498 ], [ -87.180937305, 34.4666382 ], [ -87.180550203, 34.466638498 ], [ -87.180467203, 34.466523997 ], [ -87.180438802, 34.465493195 ], [ -87.180162303, 34.465447493 ], [ -87.179913402, 34.465562195 ], [ -87.179692805, 34.466524296 ], [ -87.179444201, 34.466982499 ], [ -87.179001801, 34.467234693 ], [ -87.178476401, 34.467395194 ], [ -87.177674405, 34.467395596 ], [ -87.177314803, 34.467510298 ], [ -87.177093804, 34.467693694 ], [ -87.177038707, 34.468014397 ], [ -87.177315407, 34.468266197 ], [ -87.178504802, 34.468540594 ], [ -87.178505003, 34.468838394 ], [ -87.178394407, 34.468930095 ], [ -87.177592501, 34.4691137 ], [ -87.177592702, 34.469434395 ], [ -87.177952304, 34.469548695 ], [ -87.177952506, 34.4697778 ], [ -87.177620605, 34.469938293 ], [ -87.176155001, 34.470190793 ], [ -87.175491206, 34.470191196 ], [ -87.1752422, 34.470076695 ], [ -87.174771704, 34.469664596 ], [ -87.173914, 34.469138093 ], [ -87.173305206, 34.468611494 ], [ -87.173139006, 34.468153395 ], [ -87.172945201, 34.467924394 ], [ -87.172668301, 34.467328995 ], [ -87.172170207, 34.466870993 ], [ -87.1713126, 34.466481999 ], [ -87.169957303, 34.466299199 ], [ -87.169763602, 34.466138996 ], [ -87.169763304, 34.465543397 ], [ -87.169956803, 34.465222597 ], [ -87.169873402, 34.464604199 ], [ -87.1699562, 34.464214794 ], [ -87.170315601, 34.463825196 ], [ -87.170287602, 34.463344194 ], [ -87.168683, 34.462405697 ], [ -87.168184906, 34.461901896 ], [ -87.166801602, 34.460894495 ], [ -87.166248202, 34.4602305 ], [ -87.165307105, 34.458856396 ], [ -87.164836802, 34.458421297 ], [ -87.164504901, 34.458283998 ], [ -87.163785905, 34.458238393 ], [ -87.163315907, 34.4584447 ], [ -87.161657207, 34.459750898 ], [ -87.1606896, 34.4603009 ], [ -87.159251802, 34.460942797 ] ] } },
{ "type": "Feature", "properties": { "site_no": "03577000", "nhdplus_comid": "19626498", "navigation_mode": "UM", "requested_distance_km": 12.0, "start_source": "nwissite", "start_id": "USGS-03577000", "geometry_length_km": 4.9633614699646715 }, "geometry": { "type": "LineString", "coordinates": [ [ -87.1835493, 34.444990695 ], [ -87.183687806, 34.445311293 ], [ -87.184324101, 34.445860699 ], [ -87.185071006, 34.4463185 ], [ -87.186149806, 34.446844794 ], [ -87.186150305, 34.447509095 ], [ -87.186371706, 34.447737999 ], [ -87.187311903, 34.447874993 ], [ -87.187727004, 34.448355794 ], [ -87.188058905, 34.448447198 ], [ -87.188059203, 34.448859498 ], [ -87.187866502, 34.449867494 ], [ -87.187507607, 34.450738095 ], [ -87.187508002, 34.451219194 ], [ -87.18784, 34.451402299 ], [ -87.188614205, 34.451447695 ], [ -87.188863404, 34.451745398 ], [ -87.188808307, 34.451928593 ], [ -87.188338503, 34.452386998 ], [ -87.187619902, 34.4527997 ], [ -87.187620007, 34.453051694 ], [ -87.187869102, 34.453188896 ], [ -87.188809201, 34.4530968 ], [ -87.189831905, 34.452683896 ], [ -87.190329403, 34.452385895 ], [ -87.1910206, 34.452110693 ], [ -87.191324905, 34.452270798 ], [ -87.191518806, 34.452660196 ], [ -87.191491306, 34.452866293 ], [ -87.191270106, 34.453049697 ], [ -87.189638801, 34.453165099 ], [ -87.189473003, 34.453348398 ], [ -87.189086303, 34.4538984 ], [ -87.189141907, 34.454241998 ], [ -87.189446405, 34.454676993 ], [ -87.189446807, 34.455203898 ], [ -87.189198203, 34.455570497 ], [ -87.1884242, 34.455983296 ], [ -87.188037403, 34.456326999 ], [ -87.186931506, 34.456694096 ], [ -87.186406001, 34.456717297 ], [ -87.185797304, 34.456167795 ], [ -87.185354203, 34.455343395 ], [ -87.185187802, 34.454656295 ], [ -87.184994005, 34.454473197 ], [ -87.184606902, 34.454358898 ], [ -87.183915503, 34.454450794 ], [ -87.183445707, 34.454840399 ], [ -87.1831415, 34.454817593 ], [ -87.182283901, 34.454245299 ], [ -87.182283506, 34.4537872 ], [ -87.182089902, 34.4536727 ], [ -87.181122102, 34.4536274 ], [ -87.180652104, 34.453696296 ], [ -87.179878101, 34.454131894 ], [ -87.178855002, 34.454246894 ], [ -87.1785786, 34.454498999 ], [ -87.178579405, 34.455713093 ], [ -87.178690307, 34.4561482 ], [ -87.178690903, 34.457156099 ], [ -87.178442307, 34.457568496 ], [ -87.177751303, 34.458187297 ], [ -87.177447401, 34.458645597 ], [ -87.177337103, 34.459103696 ], [ -87.177365206, 34.459745094 ], [ -87.177641906, 34.460019797 ], [ -87.178361006, 34.460179798 ], [ -87.180213802, 34.460110299 ], [ -87.180877805, 34.460316196 ], [ -87.182925105, 34.4615293 ], [ -87.183616601, 34.461620599 ], [ -87.184777901, 34.461436793 ], [ -87.185054503, 34.4615741 ], [ -87.185165301, 34.461734399 ], [ -87.185138002, 34.462192595 ] ] } }
]
}
