{
"type": "FeatureCollection",
"name": "USGS_02444160_DM_12km",
"crs": { "type": "name", "properties": { "name": "urn:ogc:def:crs:OGC:1.3:CRS84" } },
"features": [
{ "type": "Feature", "properties": { "site_no": "02444160", "nhdplus_comid": "18631042", "navigation_mode": "DM", "requested_distance_km": 12.0, "start_source": "nwissite", "start_id": "USGS-02444160", "geometry_length_km": 0.03737694414412681 }, "geometry": { "type": "LineString", "coordinates": [ [ -88.288201664, 33.210984005 ], [ -88.288170502, 33.210650198 ] ] } },
{ "type": "Feature", "properties": { "site_no": "02444160", "nhdplus_comid": "18631190", "navigation_mode": "DM", "requested_distance_km": 12.0, "start_source": "nwissite", "start_id": "USGS-02444160", "geometry_length_km": 0.78159486027313207 }, "geometry": { "type": "LineString", "coordinates": [ [ -88.288170502, 33.210650198 ], [ -88.288197704, 33.208797999 ], [ -88.288459405, 33.2072872 ], [ -88.288680606, 33.205030799 ], [ -88.288999505, 33.203698099 ] ] } },
{ "type": "Feature", "properties": { "site_no": "02444160", "nhdplus_comid": "18631194", "navigation_mode": "DM", "requested_distance_km": 12.0, "start_source": "nwissite", "start_id": "USGS-02444160", "geometry_length_km": 0.33399983063814637 }, "geometry": { "type": "LineString", "coordinates": [ [ -88.288999505, 33.203698099 ], [ -88.289285302, 33.202503994 ], [ -88.290611804, 33.201112196 ] ] } },
{ "type": "Feature", "properties": { "site_no": "02444160", "nhdplus_comid": "18631196", "navigation_mode": "DM", "requested_distance_km": 12.0, "start_source": "nwissite", "start_id": "USGS-02444160", "geometry_length_km": 2.9156544419452688 }, "geometry": { "type": "LineString", "coordinates": [ [ -88.290611804, 33.201112196 ], [ -88.291561507, 33.198707394 ], [ -88.292307205, 33.193523698 ], [ -88.292062104, 33.189951994 ], [ -88.291040406, 33.187019095 ], [ -88.289328903, 33.183842197 ], [ -88.286959104, 33.181312099 ], [ -88.284777805, 33.179288395 ], [ -88.282670505, 33.177739598 ] ] } },
{ "type": "Feature", "properties": { "site_no": "02444160", "nhdplus_comid": "18631200", "navigation_mode": "DM", "requested_distance_km": 12.0, "start_source": "nwissite", "start_id": "USGS-02444160", "geometry_length_km": 1.7500017093158837 }, "geometry": { "type": "LineString", "coordinates": [ [ -88.282670505, 33.177739598 ], [ -88.281670302, 33.177004598 ], [ -88.278029807, 33.174091995 ], [ -88.275267802, 33.171930097 ], [ -88.273323305, 33.169922195 ], [ -88.272363007, 33.167585693 ], [ -88.272338502, 33.165411294 ] ] } },
{ "type": "Feature", "properties": { "site_no": "02444160", "nhdplus_comid": "18631204", "navigation_mode": "DM", "requested_distance_km": 12.0, "start_source": "nwissite", "start_id": "USGS-02444160", "geometry_length_km": 1.7932932142314428 }, "geometry": { "type": "LineString", "coordinates": [ [ -88.272338502, 33.165411294 ], [ -88.2734477, 33.1638074 ], [ -88.2745637, 33.160920098 ], [ -88.275737405, 33.157444097 ], [ -88.276291303, 33.154222399 ], [ -88.276312202, 33.150372095 ], [ -88.276286006, 33.149904296 ] ] } },
{ "type": "Feature", "properties": { "site_no": "02444160", "nhdplus_comid": "18631208", "navigation_mode": "DM", "requested_distance_km": 12.0, "start_source": "nwissite", "start_id": "USGS-02444160", "geometry_length_km": 0.60538625298737425 }, "geometry": { "type": "LineString", "coordinates": [ [ -88.276286006, 33.149904296 ], [ -88.275622107, 33.147124596 ], [ -88.277079105, 33.144835196 ] ] } },
{ "type": "Feature", "properties": { "site_no": "02444160", "nhdplus_comid": "18631214", "navigation_mode": "DM", "requested_distance_km": 12.0, "start_source": "nwissite", "start_id": "USGS-02444160", "geometry_length_km": 1.6332693326408771 }, "geometry": { "type": "LineString", "coordinates": [ [ -88.277079105, 33.144835196 ], [ -88.277381405, 33.144321099 ], [ -88.279464103, 33.142486699 ], [ -88.282226704, 33.140994497 ], [ -88.286809303, 33.1391313 ], [ -88.290338106, 33.137098096 ], [ -88.291171104, 33.136380099 ] ] } },
{ "type": "Feature", "properties": { "site_no": "02444160", "nhdplus_comid": "18631216", "navigation_mode": "DM", "requested_distance_km": 12.0, "start_source": "nwissite", "start_id": "USGS-02444160", "geometry_length_km": 1.2287399528290202 }, "geometry": { "type": "LineString", "coordinates": [ [ -88.291171104, 33.136380099 ], [ -88.292675801, 33.135083199 ], [ -88.293525703, 33.132473893 ], [ -88.292041801, 33.129410796 ], [ -88.289545901, 33.126970693 ] ] } },
{ "type": "Feature", "properties": { "site_no": "02444160", "nhdplus_comid": "18631184", "navigation_mode": "DM", "requested_distance_km": 12.0, "start_source": "nwissite", "start_id": "USGS-02444160", "geometry_length_km": 2.5476725284317858 }, "geometry": { "type": "LineString", "coordinates": [ [ -88.289545901, 33.126970693 ], [ -88.287330501, 33.126524694 ], [ -88.281372301, 33.129084997 ], [ -88.278025605, 33.128812693 ], [ -88.2720889, 33.127963096 ], [ -88.268644206, 33.1279274 ], [ -88.265847802, 33.127342895 ], [ -88.263326406, 33.126381896 ] ] } }
]
}
