{
"type": "FeatureCollection",
"name": "USGS_03575340_DM_12km",
"crs": { "type": "name", "properties": { "name": "urn:ogc:def:crs:OGC:1.3:CRS84" } },
"features": [
{ "type": "Feature", "properties": { "site_no": "03575340", "nhdplus_comid": "19620556", "navigation_mode": "DM", "requested_distance_km": 12.0, "start_source": "nwissite", "start_id": "USGS-03575340", "geometry_length_km": 0.23660894842039096 }, "geometry": { "type": "LineString", "coordinates": [ [ -86.41374864, 34.604373965 ], [ -86.414101407, 34.604373895 ], [ -86.415431306, 34.604831494 ], [ -86.416234702, 34.604854293 ] ] } },
{ "type": "Feature", "properties": { "site_no": "03575340", "nhdplus_comid": "19620560", "navigation_mode": "DM", "requested_distance_km": 12.0, "start_source": "nwissite", "start_id": "USGS-03575340", "geometry_length_km": 0.98157294498186043 }, "geometry": { "type": "LineString", "coordinates": [ [ -86.416234702, 34.604854293 ], [ -86.417398103, 34.604670599 ], [ -86.417868905, 34.604441397 ], [ -86.418893807, 34.6043953 ], [ -86.419115402, 34.604326494 ], [ -86.420195505, 34.603661895 ], [ -86.420500003, 34.603363894 ], [ -86.420693502, 34.602585196 ], [ -86.422465101, 34.600293897 ], [ -86.423185207, 34.600110397 ], [ -86.423517406, 34.599766694 ], [ -86.4238775, 34.599720798 ] ] } },
{ "type": "Feature", "properties": { "site_no": "03575340", "nhdplus_comid": "19620574", "navigation_mode": "DM", "requested_distance_km": 12.0, "start_source": "nwissite", "start_id": "USGS-03575340", "geometry_length_km": 0.38193934674060115 }, "geometry": { "type": "LineString", "coordinates": [ [ -86.4238775, 34.599720798 ], [ -86.423877403, 34.599537499 ], [ -86.4237388, 34.599308498 ], [ -86.423738405, 34.598827496 ], [ -86.424181201, 34.5982318 ], [ -86.425427102, 34.597177595 ], [ -86.425620802, 34.596879795 ] ] } },
{ "type": "Feature", "properties": { "site_no": "03575340", "nhdplus_comid": "19620596", "navigation_mode": "DM", "requested_distance_km": 12.0, "start_source": "nwissite", "start_id": "USGS-03575340", "geometry_length_km": 3.300346654764998 }, "geometry": { "type": "LineString", "coordinates": [ [ -86.425620802, 34.596879795 ], [ -86.425925404, 34.596788093 ], [ -86.426146902, 34.5965361 ], [ -86.427226804, 34.5960088 ], [ -86.428583905, 34.595893696 ], [ -86.429387406, 34.596030697 ], [ -86.430190802, 34.596328199 ], [ -86.431852907, 34.596487798 ], [ -86.435259007, 34.595455594 ], [ -86.436754607, 34.595111199 ], [ -86.436976001, 34.594973698 ], [ -86.437169701, 34.594629996 ], [ -86.438498907, 34.594308697 ], [ -86.438748106, 34.594148196 ], [ -86.439080402, 34.594056398 ], [ -86.439662203, 34.594262198 ], [ -86.440825507, 34.594101399 ], [ -86.4411579, 34.594238594 ], [ -86.441435106, 34.594467595 ], [ -86.441878401, 34.594627693 ], [ -86.442100003, 34.5946275 ], [ -86.442238405, 34.594558693 ], [ -86.442543104, 34.594512798 ], [ -86.442737006, 34.594604298 ], [ -86.442958504, 34.594443798 ], [ -86.4430691, 34.594237596 ], [ -86.443456806, 34.594077095 ], [ -86.443761103, 34.593687497 ], [ -86.444508806, 34.593526796 ], [ -86.446669303, 34.593433894 ], [ -86.447887607, 34.592997998 ], [ -86.449106202, 34.592997395 ], [ -86.450352401, 34.592721798 ], [ -86.4506291, 34.592377998 ], [ -86.4509615, 34.592331998 ], [ -86.451349206, 34.592446297 ], [ -86.451820403, 34.592812598 ], [ -86.452457704, 34.592949495 ], [ -86.452956207, 34.592926294 ], [ -86.453620702, 34.592673995 ], [ -86.454036601, 34.593085997 ], [ -86.454479903, 34.593269095 ], [ -86.455587506, 34.593039297 ], [ -86.456695504, 34.593038499 ], [ -86.457637005, 34.592808895 ], [ -86.458689503, 34.592785195 ] ] } },
{ "type": "Feature", "properties": { "site_no": "03575340", "nhdplus_comid": "19620600", "navigation_mode": "DM", "requested_distance_km": 12.0, "start_source": "nwissite", "start_id": "USGS-03575340", "geometry_length_km": 0.32417480256611275 }, "geometry": { "type": "LineString", "coordinates": [ [ -86.458689503, 34.592785195 ], [ -86.459548101, 34.5928763 ], [ -86.460572705, 34.5926008 ], [ -86.461708203, 34.5925771 ], [ -86.461984903, 34.5922563 ] ] } },
{ "type": "Feature", "properties": { "site_no": "03575340", "nhdplus_comid": "19620622", "navigation_mode": "DM", "requested_distance_km": 12.0, "start_source": "nwissite", "start_id": "USGS-03575340", "geometry_length_km": 0.65524965342008978 }, "geometry": { "type": "LineString", "coordinates": [ [ -86.461984903, 34.5922563 ], [ -86.461762704, 34.591683693 ], [ -86.461650006, 34.5897827 ], [ -86.461815506, 34.589209899 ], [ -86.462285705, 34.588522397 ], [ -86.463005506, 34.588246994 ], [ -86.464639604, 34.588154294 ] ] } },
{ "type": "Feature", "properties": { "site_no": "03575340", "nhdplus_comid": "19620628", "navigation_mode": "DM", "requested_distance_km": 12.0, "start_source": "nwissite", "start_id": "USGS-03575340", "geometry_length_km": 0.16822768090852719 }, "geometry": { "type": "LineString", "coordinates": [ [ -86.464639604, 34.588154294 ], [ -86.464888506, 34.587787598 ], [ -86.465414301, 34.587489396 ], [ -86.466106601, 34.587466098 ] ] } },
{ "type": "Feature", "properties": { "site_no": "03575340", "nhdplus_comid": "19620640", "navigation_mode": "DM", "requested_distance_km": 12.0, "start_source": "nwissite", "start_id": "USGS-03575340", "geometry_length_km": 0.285836500302182 }, "geometry": { "type": "LineString", "coordinates": [ [ -86.466106601, 34.587466098 ], [ -86.466715202, 34.586732596 ], [ -86.466908507, 34.586159796 ], [ -86.466935001, 34.585083194 ] ] } },
{ "type": "Feature", "properties": { "site_no": "03575340", "nhdplus_comid": "19620664", "navigation_mode": "DM", "requested_distance_km": 12.0, "start_source": "nwissite", "start_id": "USGS-03575340", "geometry_length_km": 0.38638083899708525 }, "geometry": { "type": "LineString", "coordinates": [ [ -86.466935001, 34.585083194 ], [ -86.466851801, 34.5850145 ], [ -86.466796003, 34.584693894 ], [ -86.466905504, 34.583411098 ], [ -86.467292406, 34.582677796 ], [ -86.467762806, 34.582288198 ], [ -86.468205705, 34.582104497 ] ] } },
{ "type": "Feature", "properties": { "site_no": "03575340", "nhdplus_comid": "19620674", "navigation_mode": "DM", "requested_distance_km": 12.0, "start_source": "nwissite", "start_id": "USGS-03575340", "geometry_length_km": 0.26912464960806559 }, "geometry": { "type": "LineString", "coordinates": [ [ -86.468205705, 34.582104497 ], [ -86.468537204, 34.581302494 ], [ -86.468702205, 34.580317497 ], [ -86.468867801, 34.5797676 ] ] } },
{ "type": "Feature", "properties": { "site_no": "03575340", "nhdplus_comid": "19620704", "navigation_mode": "DM", "requested_distance_km": 12.0, "start_source": "nwissite", "start_id": "USGS-03575340", "geometry_length_km": 0.26303218652494265 }, "geometry": { "type": "LineString", "coordinates": [ [ -86.468867801, 34.5797676 ], [ -86.469197504, 34.577430993 ] ] } },
{ "type": "Feature", "properties": { "site_no": "03575340", "nhdplus_comid": "19620712", "navigation_mode": "DM", "requested_distance_km": 12.0, "start_source": "nwissite", "start_id": "USGS-03575340", "geometry_length_km": 0.31786465865513441 }, "geometry": { "type": "LineString", "coordinates": [ [ -86.469197504, 34.577430993 ], [ -86.469114304, 34.577339396 ], [ -86.469169103, 34.5767667 ], [ -86.469334602, 34.576216795 ], [ -86.469500504, 34.575987697 ], [ -86.469832703, 34.575827099 ], [ -86.470912606, 34.575826295 ], [ -86.4710235, 34.575917795 ] ] } },
{ "type": "Feature", "properties": { "site_no": "03575340", "nhdplus_comid": "19620714", "navigation_mode": "DM", "requested_distance_km": 12.0, "start_source": "nwissite", "start_id": "USGS-03575340", "geometry_length_km": 0.071728783876324254 }, "geometry": { "type": "LineString", "coordinates": [ [ -86.4710235, 34.575917795 ], [ -86.4717988, 34.575802699 ] ] } },
{ "type": "Feature", "properties": { "site_no": "03575340", "nhdplus_comid": "19620776", "navigation_mode": "DM", "requested_distance_km": 12.0, "start_source": "nwissite", "start_id": "USGS-03575340", "geometry_length_km": 2.3226833198799173 }, "geometry": { "type": "LineString", "coordinates": [ [ -86.4717988, 34.575802699 ], [ -86.472296506, 34.575252496 ], [ -86.472489901, 34.574840099 ], [ -86.472710401, 34.573992394 ], [ -86.472844906, 34.570602193 ], [ -86.473259002, 34.569456697 ], [ -86.474916704, 34.566362999 ], [ -86.476934604, 34.563475296 ], [ -86.477597602, 34.562306494 ], [ -86.477624401, 34.561550498 ], [ -86.477208003, 34.5607263 ], [ -86.476736903, 34.560314395 ], [ -86.476182804, 34.560016997 ], [ -86.475601107, 34.559879996 ], [ -86.474909104, 34.559880599 ], [ -86.474272504, 34.5601331 ], [ -86.473801903, 34.560225099 ], [ -86.472278707, 34.559859797 ], [ -86.472278602, 34.559722297 ] ] } }
]
}
