{
"type": "FeatureCollection",
"name": "USGS_02469800_UM_12km",
"crs": { "type": "name", "properties": { "name": "urn:ogc:def:crs:OGC:1.3:CRS84" } },
"features": [
{ "type": "Feature", "properties": { "site_no": "02469800", "nhdplus_comid": "21640642", "navigation_mode": "UM", "requested_distance_km": 12.0, "start_source": "nwissite", "start_id": "USGS-02469800", "geometry_length_km": 1.6030257585772703 }, "geometry": { "type": "LineString", "coordinates": [ [ -88.0163761, 31.751142398 ], [ -88.016161807, 31.7510048 ], [ -88.015893407, 31.751141995 ], [ -88.015276305, 31.7514394 ], [ -88.014874205, 31.751438998 ], [ -88.014767006, 31.751301393 ], [ -88.014767706, 31.750659898 ], [ -88.0148862, 31.750153095 ], [ -88.015235603, 31.749442995 ], [ -88.015584603, 31.749030896 ], [ -88.016067602, 31.748825096 ], [ -88.016309001, 31.748641893 ], [ -88.016389802, 31.7483899 ], [ -88.0162559, 31.748183593 ], [ -88.016175903, 31.747816995 ], [ -88.016229704, 31.747633599 ], [ -88.016471207, 31.747427493 ], [ -88.017544307, 31.747038893 ], [ -88.020493805, 31.747064099 ], [ -88.021164402, 31.746858299 ], [ -88.021754801, 31.746446297 ], [ -88.021996602, 31.745988198 ], [ -88.0220237, 31.745690398 ], [ -88.021943606, 31.745392397 ], [ -88.021729104, 31.745300598 ], [ -88.021649003, 31.745048493 ], [ -88.0216491, 31.744934 ], [ -88.021434806, 31.7447275 ], [ -88.021462202, 31.744154699 ], [ -88.021677002, 31.743879899 ], [ -88.021972202, 31.743696898 ], [ -88.022402815, 31.743672645 ] ] } },
{ "type": "Feature", "properties": { "site_no": "02469800", "nhdplus_comid": "21639640", "navigation_mode": "UM", "requested_distance_km": 12.0, "start_source": "nwissite", "start_id": "USGS-02469800", "geometry_length_km": 1.5289892312512534 }, "geometry": { "type": "LineString", "coordinates": [ [ -88.014541306, 31.760879293 ], [ -88.014836803, 31.76049 ], [ -88.0157222, 31.760192893 ], [ -88.016285606, 31.759941198 ], [ -88.016339503, 31.759757899 ], [ -88.0162322, 31.759643294 ], [ -88.015803501, 31.759344995 ], [ -88.014972903, 31.758725695 ], [ -88.0148926, 31.758565195 ], [ -88.014893003, 31.758244395 ], [ -88.015027404, 31.757992499 ], [ -88.015537404, 31.757626295 ], [ -88.016369, 31.757397793 ], [ -88.016798206, 31.757214896 ], [ -88.016986206, 31.757031798 ], [ -88.017013207, 31.756802693 ], [ -88.016772203, 31.756619096 ], [ -88.015458405, 31.756343096 ], [ -88.015270904, 31.756113693 ], [ -88.0152179, 31.755586699 ], [ -88.015486605, 31.755128697 ], [ -88.015862502, 31.754624896 ], [ -88.0161044, 31.754143894 ], [ -88.016131602, 31.753846094 ], [ -88.015676506, 31.753158294 ], [ -88.015676603, 31.753089495 ], [ -88.0155963, 31.752997793 ], [ -88.015570305, 31.752287395 ], [ -88.015731603, 31.751989596 ], [ -88.016187906, 31.7516234 ], [ -88.016349003, 31.751394399 ], [ -88.0163761, 31.751142398 ] ] } },
{ "type": "Feature", "properties": { "site_no": "02469800", "nhdplus_comid": "21639630", "navigation_mode": "UM", "requested_distance_km": 12.0, "start_source": "nwissite", "start_id": "USGS-02469800", "geometry_length_km": 0.61890857303636493 }, "geometry": { "type": "LineString", "coordinates": [ [ -88.010969907, 31.764679797 ], [ -88.011372201, 31.764611393 ], [ -88.012632906, 31.764497899 ], [ -88.012954906, 31.764291994 ], [ -88.013572901, 31.763330199 ], [ -88.013841406, 31.763124198 ], [ -88.014002606, 31.762895197 ], [ -88.014003605, 31.762001596 ], [ -88.014138103, 31.761680894 ], [ -88.014326103, 31.761497796 ], [ -88.0144604, 31.761245795 ], [ -88.014541306, 31.760879293 ] ] } },
{ "type": "Feature", "properties": { "site_no": "02469800", "nhdplus_comid": "21639622", "navigation_mode": "UM", "requested_distance_km": 12.0, "start_source": "nwissite", "start_id": "USGS-02469800", "geometry_length_km": 1.5412279902239108 }, "geometry": { "type": "LineString", "coordinates": [ [ -88.0000064, 31.764391199 ], [ -88.000269003, 31.764437295 ], [ -88.000832006, 31.764598198 ], [ -88.0010463, 31.764735796 ], [ -88.001341, 31.765033998 ], [ -88.001876704, 31.765561596 ], [ -88.002225101, 31.765745297 ], [ -88.002466001, 31.766112298 ], [ -88.002760701, 31.766341694 ], [ -88.0029485, 31.766410597 ], [ -88.003404506, 31.766319394 ], [ -88.003646202, 31.766067594 ], [ -88.003753804, 31.765861593 ], [ -88.004075907, 31.765610099 ], [ -88.005015001, 31.765359499 ], [ -88.005283602, 31.764970399 ], [ -88.005418003, 31.764741495 ], [ -88.005767107, 31.764467195 ], [ -88.006062202, 31.764376 ], [ -88.006732605, 31.7644227 ], [ -88.007510103, 31.764652893 ], [ -88.007858403, 31.764951199 ], [ -88.008259803, 31.765684895 ], [ -88.008554906, 31.765662298 ], [ -88.008930504, 31.765571199 ], [ -88.0090378, 31.765410796 ], [ -88.009011403, 31.765090197 ], [ -88.008931205, 31.764929697 ], [ -88.0089586, 31.764448598 ], [ -88.009120002, 31.764059395 ], [ -88.009522706, 31.763738997 ], [ -88.009871505, 31.763624795 ], [ -88.010246702, 31.763831295 ], [ -88.010380507, 31.764037699 ], [ -88.010433607, 31.764473096 ], [ -88.010728501, 31.764610894 ], [ -88.010969907, 31.764679797 ] ] } },
{ "type": "Feature", "properties": { "site_no": "02469800", "nhdplus_comid": "21638590", "navigation_mode": "UM", "requested_distance_km": 12.0, "start_source": "nwissite", "start_id": "USGS-02469800", "geometry_length_km": 2.6688411263556087 }, "geometry": { "type": "LineString", "coordinates": [ [ -87.986532703, 31.775513396 ], [ -87.986908503, 31.775788099 ], [ -87.987740502, 31.776131094 ], [ -87.989296503, 31.776404694 ], [ -87.989564605, 31.776312895 ], [ -87.990046702, 31.775693797 ], [ -87.989429004, 31.775006898 ], [ -87.989401601, 31.774571598 ], [ -87.990231805, 31.773517095 ], [ -87.990499802, 31.773402296 ], [ -87.991170406, 31.773378797 ], [ -87.9913579, 31.773241296 ], [ -87.991464406, 31.772553995 ], [ -87.991759002, 31.772278793 ], [ -87.992026605, 31.771751694 ], [ -87.992105603, 31.770651996 ], [ -87.992961906, 31.769002095 ], [ -87.993013807, 31.767696396 ], [ -87.993307605, 31.766848594 ], [ -87.993816406, 31.766252495 ], [ -87.9942175, 31.765267096 ], [ -87.994538903, 31.764946096 ], [ -87.994860701, 31.764808394 ], [ -87.995423801, 31.764807798 ], [ -87.9957458, 31.764944993 ], [ -87.996068001, 31.765196696 ], [ -87.996363804, 31.765815094 ], [ -87.996284105, 31.766387895 ], [ -87.996284805, 31.7669148 ], [ -87.997197002, 31.767120093 ], [ -87.997599103, 31.766959496 ], [ -87.997947305, 31.766661398 ], [ -87.998215005, 31.766248696 ], [ -87.998482004, 31.765354894 ], [ -87.999258801, 31.764575094 ], [ -88.0000064, 31.764391199 ] ] } },
{ "type": "Feature", "properties": { "site_no": "02469800", "nhdplus_comid": "21638574", "navigation_mode": "UM", "requested_distance_km": 12.0, "start_source": "nwissite", "start_id": "USGS-02469800", "geometry_length_km": 1.293414235418836 }, "geometry": { "type": "LineString", "coordinates": [ [ -87.978746705, 31.769241594 ], [ -87.979256205, 31.769149497 ], [ -87.979658306, 31.768988796 ], [ -87.979872905, 31.768988594 ], [ -87.980275504, 31.769171596 ], [ -87.980222203, 31.769354999 ], [ -87.979900606, 31.769653097 ], [ -87.979901001, 31.769973896 ], [ -87.980947301, 31.770224996 ], [ -87.9814035, 31.7704309 ], [ -87.981592104, 31.771118194 ], [ -87.981941104, 31.771461494 ], [ -87.982719101, 31.7715526 ], [ -87.983712107, 31.772010095 ], [ -87.985429205, 31.772398099 ], [ -87.985563405, 31.772558495 ], [ -87.985590503, 31.772787593 ], [ -87.985162601, 31.773796193 ], [ -87.9852437, 31.774323098 ], [ -87.985915206, 31.775009893 ], [ -87.986371405, 31.775261499 ], [ -87.986532703, 31.775513396 ] ] } },
{ "type": "Feature", "properties": { "site_no": "02469800", "nhdplus_comid": "21638572", "navigation_mode": "UM", "requested_distance_km": 12.0, "start_source": "nwissite", "start_id": "USGS-02469800", "geometry_length_km": 1.4192067707392364 }, "geometry": { "type": "LineString", "coordinates": [ [ -87.968264602, 31.774015799 ], [ -87.968505606, 31.773671895 ], [ -87.968451105, 31.772778198 ], [ -87.969254605, 31.771654896 ], [ -87.969683506, 31.771425493 ], [ -87.970166206, 31.771333396 ], [ -87.971185803, 31.771653399 ], [ -87.971856706, 31.772065394 ], [ -87.972259, 31.772019297 ], [ -87.972366102, 31.771835998 ], [ -87.9724188, 31.770896293 ], [ -87.972633004, 31.770598195 ], [ -87.972874306, 31.770460598 ], [ -87.974376306, 31.770505294 ], [ -87.975180604, 31.770229697 ], [ -87.975824304, 31.770137496 ], [ -87.976736605, 31.770388894 ], [ -87.977112107, 31.770411499 ], [ -87.977809206, 31.770181894 ], [ -87.978211202, 31.769906498 ], [ -87.978505701, 31.769425094 ], [ -87.978746705, 31.769241594 ] ] } },
{ "type": "Feature", "properties": { "site_no": "02469800", "nhdplus_comid": "21638560", "navigation_mode": "UM", "requested_distance_km": 12.0, "start_source": "nwissite", "start_id": "USGS-02469800", "geometry_length_km": 0.76258932364033161 }, "geometry": { "type": "LineString", "coordinates": [ [ -87.962280206, 31.771086894 ], [ -87.963193201, 31.772048697 ], [ -87.964804202, 31.773834899 ], [ -87.965341106, 31.774224095 ], [ -87.965931401, 31.774475694 ], [ -87.966709107, 31.7743835 ], [ -87.967245206, 31.773947693 ], [ -87.967674203, 31.773832895 ], [ -87.968264602, 31.774015799 ] ] } },
{ "type": "Feature", "properties": { "site_no": "02469800", "nhdplus_comid": "21638568", "navigation_mode": "UM", "requested_distance_km": 12.0, "start_source": "nwissite", "start_id": "USGS-02469800", "geometry_length_km": 0.2852947591762916 }, "geometry": { "type": "LineString", "coordinates": [ [ -87.959704302, 31.770034693 ], [ -87.960026205, 31.770034395 ], [ -87.960562907, 31.770286098 ], [ -87.961340703, 31.770331398 ], [ -87.961689606, 31.770537399 ], [ -87.961958103, 31.770857997 ], [ -87.962280206, 31.771086894 ] ] } }
]
}
