{
"type": "FeatureCollection",
"name": "USGS_02465493_DM_12km",
"crs": { "type": "name", "properties": { "name": "urn:ogc:def:crs:OGC:1.3:CRS84" } },
"features": [
{ "type": "Feature", "properties": { "site_no": "02465493", "nhdplus_comid": "18208346", "navigation_mode": "DM", "requested_distance_km": 12.0, "start_source": "nwissite", "start_id": "USGS-02465493", "geometry_length_km": 2.7694446980983165 }, "geometry": { "type": "LineString", "coordinates": [ [ -87.621969786, 32.994899102 ], [ -87.622944906, 32.994924799 ], [ -87.625011206, 32.994603999 ], [ -87.625446104, 32.994306199 ], [ -87.6263161, 32.993893795 ], [ -87.626696706, 32.993550099 ], [ -87.627349205, 32.992610693 ], [ -87.628925905, 32.991212897 ], [ -87.630856, 32.990640096 ], [ -87.632351004, 32.989196599 ], [ -87.634009302, 32.987982094 ], [ -87.634607203, 32.987202995 ], [ -87.635014802, 32.986469895 ], [ -87.635014802, 32.985897094 ], [ -87.634878807, 32.985553496 ], [ -87.634253405, 32.9847745 ], [ -87.634117402, 32.984293394 ], [ -87.633899905, 32.983858198 ], [ -87.633682303, 32.983079195 ], [ -87.633763701, 32.981544197 ], [ -87.6338723, 32.9812463 ], [ -87.634714805, 32.980009094 ], [ -87.635122307, 32.978450999 ], [ -87.635339707, 32.978084393 ], [ -87.635366902, 32.977763698 ], [ -87.635122105, 32.977213897 ], [ -87.635067701, 32.976732798 ] ] } },
{ "type": "Feature", "properties": { "site_no": "02465493", "nhdplus_comid": "18208372", "navigation_mode": "DM", "requested_distance_km": 12.0, "start_source": "nwissite", "start_id": "USGS-02465493", "geometry_length_km": 8.5620294257282392 }, "geometry": { "type": "LineString", "coordinates": [ [ -87.635067701, 32.976732798 ], [ -87.635149106, 32.976320297 ], [ -87.635366604, 32.975976594 ], [ -87.635828607, 32.9755871 ], [ -87.636236303, 32.975426696 ], [ -87.6381118, 32.974945299 ], [ -87.642216101, 32.974898897 ], [ -87.643249005, 32.9747383 ], [ -87.6442274, 32.974348597 ], [ -87.645532101, 32.974302597 ], [ -87.646021403, 32.974394098 ], [ -87.6465379, 32.974577397 ], [ -87.647054501, 32.975081295 ], [ -87.648440905, 32.975768298 ], [ -87.6495011, 32.976111695 ], [ -87.650398105, 32.975951098 ], [ -87.650832906, 32.975676097 ], [ -87.651186101, 32.975126199 ], [ -87.651321806, 32.974713698 ], [ -87.651892401, 32.9738888 ], [ -87.652816303, 32.973292895 ], [ -87.653033704, 32.973017894 ], [ -87.653087907, 32.9727659 ], [ -87.653903201, 32.972307399 ], [ -87.6545825, 32.971803196 ], [ -87.656158805, 32.971413299 ], [ -87.656729601, 32.971413098 ], [ -87.657545201, 32.971916899 ], [ -87.658116102, 32.972145796 ], [ -87.658768401, 32.972260199 ], [ -87.6593666, 32.972603694 ], [ -87.6595027, 32.972924493 ], [ -87.659503005, 32.973795198 ], [ -87.6598837, 32.974184498 ], [ -87.660019703, 32.974459395 ], [ -87.660291605, 32.974596798 ], [ -87.6611614, 32.974504896 ], [ -87.661378801, 32.974252798 ], [ -87.664450206, 32.974274598 ], [ -87.665510401, 32.974594995 ], [ -87.665972605, 32.9749614 ], [ -87.666244701, 32.975556999 ], [ -87.666543901, 32.975831896 ], [ -87.667685606, 32.976060495 ], [ -87.668311104, 32.9765414 ], [ -87.668392904, 32.977068298 ], [ -87.668882504, 32.977457598 ], [ -87.669100203, 32.978121996 ], [ -87.669345006, 32.978396796 ], [ -87.669970304, 32.978533998 ], [ -87.670568503, 32.978854597 ], [ -87.670677401, 32.979221098 ], [ -87.670840606, 32.979427196 ], [ -87.670922406, 32.979862496 ], [ -87.671819903, 32.980595298 ], [ -87.672037505, 32.980893098 ], [ -87.672255002, 32.980961695 ], [ -87.672934502, 32.980755299 ], [ -87.673695207, 32.980159298 ], [ -87.674347401, 32.979906999 ], [ -87.675054304, 32.980067 ], [ -87.675706804, 32.980089694 ], [ -87.678398304, 32.980546698 ], [ -87.679295503, 32.980981596 ], [ -87.680219807, 32.981004097 ], [ -87.6806821, 32.981141299 ], [ -87.681878105, 32.981163599 ], [ -87.682530701, 32.981598593 ], [ -87.683020003, 32.981483795 ], [ -87.683210202, 32.981369093 ], [ -87.683454402, 32.980773397 ], [ -87.683508307, 32.980017297 ], [ -87.683616906, 32.979833893 ], [ -87.683970101, 32.979581796 ], [ -87.684459306, 32.979558595 ], [ -87.684731305, 32.979672998 ], [ -87.684812807, 32.979787499 ], [ -87.684813105, 32.980154097 ], [ -87.684922107, 32.980406098 ], [ -87.685248405, 32.980634995 ], [ -87.685901001, 32.980817899 ], [ -87.686281703, 32.981092699 ], [ -87.686118901, 32.981482297 ], [ -87.685901806, 32.981917694 ], [ -87.685929, 32.982077993 ], [ -87.686418705, 32.982467197 ], [ -87.687288806, 32.982787497 ], [ -87.687424801, 32.983039394 ], [ -87.687669605, 32.983153895 ], [ -87.688240506, 32.9831765 ], [ -87.688376501, 32.983313896 ], [ -87.688458301, 32.983634695 ], [ -87.688023701, 32.984070197 ], [ -87.687969707, 32.984574296 ], [ -87.687806703, 32.984734699 ], [ -87.686746702, 32.985056095 ], [ -87.686448306, 32.985812299 ], [ -87.685714602, 32.9862708 ], [ -87.685470507, 32.986981198 ], [ -87.685334705, 32.987187497 ], [ -87.684601001, 32.987485699 ], [ -87.684139103, 32.987944096 ], [ -87.684057802, 32.988287896 ], [ -87.684166804, 32.988677293 ], [ -87.684738107, 32.9892039 ], [ -87.684819907, 32.989662096 ], [ -87.685527101, 32.990119897 ], [ -87.685527302, 32.990349099 ], [ -87.684848204, 32.991151296 ], [ -87.684875704, 32.991517797 ], [ -87.6850117, 32.991723999 ], [ -87.686371304, 32.992021099 ], [ -87.687186904, 32.991974793 ], [ -87.687377103, 32.991860196 ], [ -87.687703103, 32.991470598 ], [ -87.688545607, 32.991240993 ], [ -87.688762903, 32.991057597 ], [ -87.689007305, 32.990645096 ], [ -87.688788205, 32.988468595 ], [ -87.688787207, 32.987094097 ] ] } },
{ "type": "Feature", "properties": { "site_no": "02465493", "nhdplus_comid": "18210792", "navigation_mode": "DM", "requested_distance_km": 12.0, "start_source": "nwissite", "start_id": "USGS-02465493", "geometry_length_km": 0.015865020685285076 }, "geometry": { "type": "LineString", "coordinates": [ [ -87.688787207, 32.987094097 ], [ -87.688747503, 32.986983299 ], [ -87.688767605, 32.986962698 ] ] } },
{ "type": "Feature", "properties": { "site_no": "02465493", "nhdplus_comid": "18210798", "navigation_mode": "DM", "requested_distance_km": 12.0, "start_source": "nwissite", "start_id": "USGS-02465493", "geometry_length_km": 0.44334310205652339 }, "geometry": { "type": "LineString", "coordinates": [ [ -87.688767605, 32.986962698 ], [ -87.689141303, 32.986579999 ], [ -87.689533703, 32.985727094 ], [ -87.691311605, 32.9838278 ], [ -87.691475801, 32.983747594 ] ] } }
]
}
