{
"type": "FeatureCollection",
"name": "USGS_03574700_UM_12km",
"crs": { "type": "name", "properties": { "name": "urn:ogc:def:crs:OGC:1.3:CRS84" } },
"features": [
{ "type": "Feature", "properties": { "site_no": "03574700", "nhdplus_comid": "19616700", "navigation_mode": "UM", "requested_distance_km": 12.0, "start_source": "nwissite", "start_id": "USGS-03574700", "geometry_length_km": 1.1083297372427678 }, "geometry": { "type": "LineString", "coordinates": [ [ -86.356716007, 35.0748301 ], [ -86.356632501, 35.0745323 ], [ -86.356716201, 35.074074194 ], [ -86.356604703, 35.073913895 ], [ -86.356604807, 35.0737077 ], [ -86.356772102, 35.073501699 ], [ -86.356660701, 35.073226795 ], [ -86.356159307, 35.072699994 ], [ -86.356131606, 35.072379299 ], [ -86.355853006, 35.072150297 ], [ -86.355964601, 35.071737997 ], [ -86.355602406, 35.071646295 ], [ -86.355574705, 35.071325697 ], [ -86.3556583, 35.0712341 ], [ -86.356104106, 35.071119696 ], [ -86.356104106, 35.070936494 ], [ -86.355881304, 35.070730194 ], [ -86.355881207, 35.070592798 ], [ -86.356020503, 35.070409596 ], [ -86.356048405, 35.070203498 ], [ -86.355881304, 35.070020199 ], [ -86.355909303, 35.069676697 ], [ -86.355547205, 35.069493495 ], [ -86.355547205, 35.069378898 ], [ -86.356188104, 35.068485796 ], [ -86.356550306, 35.068325594 ], [ -86.356661804, 35.067890398 ], [ -86.356940605, 35.067432396 ], [ -86.357497707, 35.067111798 ], [ -86.357776403, 35.066814095 ], [ -86.357796876, 35.066750152 ] ] } },
{ "type": "Feature", "properties": { "site_no": "03574700", "nhdplus_comid": "19616638", "navigation_mode": "UM", "requested_distance_km": 12.0, "start_source": "nwissite", "start_id": "USGS-03574700", "geometry_length_km": 1.7420025957919421 }, "geometry": { "type": "LineString", "coordinates": [ [ -86.349970005, 35.0877233 ], [ -86.351168707, 35.086097397 ], [ -86.351280406, 35.085433297 ], [ -86.351475507, 35.085089795 ], [ -86.351531304, 35.084562995 ], [ -86.351893701, 35.083990499 ], [ -86.351949804, 35.082982793 ], [ -86.352479301, 35.082639299 ], [ -86.352535002, 35.082272895 ], [ -86.352758005, 35.0820897 ], [ -86.353705503, 35.081677593 ], [ -86.354179107, 35.081196696 ], [ -86.354207203, 35.080486797 ], [ -86.354290701, 35.080349393 ], [ -86.3543467, 35.079547696 ], [ -86.354569606, 35.079364493 ], [ -86.3549878, 35.078654595 ], [ -86.355043702, 35.077875897 ], [ -86.355322406, 35.077417895 ], [ -86.355322503, 35.076913998 ], [ -86.355071902, 35.076501697 ], [ -86.355071902, 35.076272599 ], [ -86.355629206, 35.076181196 ], [ -86.355684906, 35.075768895 ], [ -86.355545804, 35.075585596 ], [ -86.355573706, 35.075127594 ], [ -86.355935901, 35.074829899 ], [ -86.356716007, 35.0748301 ] ] } }
]
}
