{
"type": "FeatureCollection",
"name": "USGS_02358785_UM_12km",
"crs": { "type": "name", "properties": { "name": "urn:ogc:def:crs:OGC:1.3:CRS84" } },
"features": [
{ "type": "Feature", "properties": { "site_no": "02358785", "nhdplus_comid": "2131226", "navigation_mode": "UM", "requested_distance_km": 12.0, "start_source": "nwissite", "start_id": "USGS-02358785", "geometry_length_km": 1.154090412001463 }, "geometry": { "type": "LineString", "coordinates": [ [ -85.219218902, 31.026559293 ], [ -85.219563507, 31.025344796 ], [ -85.220307603, 31.024450697 ], [ -85.220599301, 31.023488298 ], [ -85.220996305, 31.021517597 ], [ -85.221819803, 31.020256899 ], [ -85.222084001, 31.018492594 ], [ -85.222667806, 31.017163299 ], [ -85.222896741, 31.016823151 ] ] } },
{ "type": "Feature", "properties": { "site_no": "02358785", "nhdplus_comid": "2131030", "navigation_mode": "UM", "requested_distance_km": 12.0, "start_source": "nwissite", "start_id": "USGS-02358785", "geometry_length_km": 0.15406107360629293 }, "geometry": { "type": "LineString", "coordinates": [ [ -85.2182355, 31.027636796 ], [ -85.218368605, 31.027590893 ], [ -85.219218902, 31.026559293 ] ] } },
{ "type": "Feature", "properties": { "site_no": "02358785", "nhdplus_comid": "2131026", "navigation_mode": "UM", "requested_distance_km": 12.0, "start_source": "nwissite", "start_id": "USGS-02358785", "geometry_length_km": 1.421348468649805 }, "geometry": { "type": "LineString", "coordinates": [ [ -85.213244505, 31.039370596 ], [ -85.213244401, 31.039233096 ], [ -85.214786001, 31.0373763 ], [ -85.214945301, 31.037078395 ], [ -85.215955406, 31.035977997 ], [ -85.216407001, 31.035290293 ], [ -85.217070207, 31.0331591 ], [ -85.217148602, 31.031646997 ], [ -85.217334501, 31.031257294 ], [ -85.217519507, 31.0299742 ], [ -85.2182355, 31.027636796 ] ] } },
{ "type": "Feature", "properties": { "site_no": "02358785", "nhdplus_comid": "2131006", "navigation_mode": "UM", "requested_distance_km": 12.0, "start_source": "nwissite", "start_id": "USGS-02358785", "geometry_length_km": 2.5343778727979482 }, "geometry": { "type": "LineString", "coordinates": [ [ -85.2007007, 31.058829494 ], [ -85.200620607, 31.058508798 ], [ -85.201523602, 31.056102693 ], [ -85.2031966, 31.051657096 ], [ -85.203568906, 31.051175795 ], [ -85.203914404, 31.050740197 ], [ -85.2048719, 31.050143898 ], [ -85.205217704, 31.050029196 ], [ -85.206095405, 31.049387097 ], [ -85.207583301, 31.046751499 ], [ -85.208274305, 31.045788795 ], [ -85.208806202, 31.045398995 ], [ -85.209470905, 31.044779994 ], [ -85.209895805, 31.043817498 ], [ -85.210772701, 31.042442299 ], [ -85.213005103, 31.039508298 ], [ -85.213244505, 31.039370596 ] ] } },
{ "type": "Feature", "properties": { "site_no": "02358785", "nhdplus_comid": "2130974", "navigation_mode": "UM", "requested_distance_km": 12.0, "start_source": "nwissite", "start_id": "USGS-02358785", "geometry_length_km": 5.2895045274143477 }, "geometry": { "type": "LineString", "coordinates": [ [ -85.236480802, 31.093239099 ], [ -85.236427307, 31.0930788 ], [ -85.235947706, 31.092689693 ], [ -85.232484601, 31.090745099 ], [ -85.232005, 31.090356 ], [ -85.231152005, 31.089325696 ], [ -85.230405405, 31.088226594 ], [ -85.229259603, 31.087219395 ], [ -85.228620104, 31.0865326 ], [ -85.225023501, 31.0837861 ], [ -85.223584406, 31.082183398 ], [ -85.222145006, 31.080282897 ], [ -85.221399106, 31.079527393 ], [ -85.220945805, 31.0787258 ], [ -85.219880104, 31.077764295 ], [ -85.219666801, 31.077374898 ], [ -85.219186202, 31.075840294 ], [ -85.219106302, 31.075817496 ], [ -85.2191329, 31.075725794 ], [ -85.218413502, 31.074970193 ], [ -85.217588, 31.074581295 ], [ -85.216523007, 31.074307196 ], [ -85.215537801, 31.073941298 ], [ -85.214472607, 31.073369198 ], [ -85.212901205, 31.072201796 ], [ -85.211862206, 31.071217299 ], [ -85.211808905, 31.071011193 ], [ -85.211196102, 31.070278399 ], [ -85.210396402, 31.068950094 ], [ -85.210423, 31.068812594 ], [ -85.210049801, 31.068217196 ], [ -85.209543005, 31.066865794 ], [ -85.209463, 31.066819996 ], [ -85.209436305, 31.066590898 ], [ -85.208397307, 31.065446094 ], [ -85.207970701, 31.064484097 ], [ -85.207731001, 31.064323895 ], [ -85.207651004, 31.0641177 ], [ -85.207145102, 31.063682698 ], [ -85.206080101, 31.063156396 ], [ -85.204456106, 31.062607497 ], [ -85.203843601, 31.062126897 ], [ -85.202538505, 31.060821697 ], [ -85.202085607, 31.060203299 ], [ -85.201579407, 31.059447594 ], [ -85.2007007, 31.058829494 ] ] } }
]
}
