{
"type": "FeatureCollection",
"name": "USGS_02443000_DM_12km",
"crs": { "type": "name", "properties": { "name": "urn:ogc:def:crs:OGC:1.3:CRS84" } },
"features": [
{ "type": "Feature", "properties": { "site_no": "02443000", "nhdplus_comid": "18648210", "navigation_mode": "DM", "requested_distance_km": 12.0, "start_source": "nwissite", "start_id": "USGS-02443000", "geometry_length_km": 1.9471792322949968 }, "geometry": { "type": "LineString", "coordinates": [ [ -88.315272807, 33.560335947 ], [ -88.3154734, 33.560206898 ], [ -88.315883905, 33.560138397 ], [ -88.316841505, 33.560092993 ], [ -88.317251906, 33.560024396 ], [ -88.317306601, 33.559978694 ], [ -88.317252107, 33.559749596 ], [ -88.317033403, 33.5592914 ], [ -88.316979006, 33.558947794 ], [ -88.317115903, 33.558764599 ], [ -88.317252703, 33.558718897 ], [ -88.318073504, 33.558604695 ], [ -88.318347305, 33.558375798 ], [ -88.318539105, 33.558077998 ], [ -88.318539105, 33.557963498 ], [ -88.318758205, 33.557734594 ], [ -88.319031805, 33.557688899 ], [ -88.319305405, 33.557688996 ], [ -88.319852501, 33.557849593 ], [ -88.320399605, 33.557964399 ], [ -88.320591003, 33.558147795 ], [ -88.320727706, 33.558308095 ], [ -88.320809402, 33.558880799 ], [ -88.321219601, 33.559224598 ], [ -88.321547806, 33.559339195 ], [ -88.322095007, 33.559224993 ], [ -88.322861403, 33.558721296 ], [ -88.323053002, 33.558721393 ], [ -88.323408403, 33.559065096 ], [ -88.323681802, 33.559569195 ], [ -88.3238727, 33.5604854 ], [ -88.324146107, 33.5608292 ], [ -88.324912004, 33.561172999 ], [ -88.325103305, 33.561470896 ], [ -88.325048603, 33.561631195 ], [ -88.324555703, 33.5622724 ], [ -88.324555606, 33.562547199 ], [ -88.324911103, 33.5627307 ], [ -88.325868703, 33.562845595 ], [ -88.326060206, 33.5629602 ], [ -88.326278903, 33.563189395 ], [ -88.326278806, 33.563532896 ], [ -88.325922504, 33.564380296 ], [ -88.3259224, 33.564792499 ] ] } },
{ "type": "Feature", "properties": { "site_no": "02443000", "nhdplus_comid": "18648642", "navigation_mode": "DM", "requested_distance_km": 12.0, "start_source": "nwissite", "start_id": "USGS-02443000", "geometry_length_km": 0.015779345302438005 }, "geometry": { "type": "LineString", "coordinates": [ [ -88.3259224, 33.564792499 ], [ -88.326027803, 33.564903796 ] ] } },
{ "type": "Feature", "properties": { "site_no": "02443000", "nhdplus_comid": "18648606", "navigation_mode": "DM", "requested_distance_km": 12.0, "start_source": "nwissite", "start_id": "USGS-02443000", "geometry_length_km": 1.7847559124901098 }, "geometry": { "type": "LineString", "coordinates": [ [ -88.326027803, 33.564903796 ], [ -88.326091707, 33.564901598 ], [ -88.328803606, 33.565208495 ], [ -88.332472503, 33.565076195 ], [ -88.333556302, 33.564896993 ], [ -88.334852703, 33.564103298 ], [ -88.335760705, 33.564163893 ], [ -88.336554103, 33.563839599 ], [ -88.338370204, 33.563960694 ], [ -88.339671001, 33.564676195 ], [ -88.340125203, 33.564706497 ], [ -88.340530306, 33.565236494 ], [ -88.340408102, 33.566485897 ], [ -88.339426607, 33.567174897 ], [ -88.339656003, 33.567944698 ] ] } },
{ "type": "Feature", "properties": { "site_no": "02443000", "nhdplus_comid": "18648648", "navigation_mode": "DM", "requested_distance_km": 12.0, "start_source": "nwissite", "start_id": "USGS-02443000", "geometry_length_km": 4.2049861535413129 }, "geometry": { "type": "LineString", "coordinates": [ [ -88.339656003, 33.567944698 ], [ -88.340073302, 33.568349794 ], [ -88.341889501, 33.568470895 ], [ -88.343124807, 33.5683017 ], [ -88.346540004, 33.567649096 ], [ -88.348768704, 33.566665798 ], [ -88.349586502, 33.5660915 ], [ -88.349798903, 33.565476894 ], [ -88.350665502, 33.564402893 ], [ -88.351278201, 33.562808894 ], [ -88.351932406, 33.562349498 ], [ -88.3519812, 33.561849698 ], [ -88.351122007, 33.561289497 ], [ -88.351256303, 33.5599152 ], [ -88.352074005, 33.559340894 ], [ -88.352376707, 33.5593611 ], [ -88.353314005, 33.560680993 ], [ -88.354209803, 33.560866296 ], [ -88.354536906, 33.560636595 ], [ -88.354568504, 33.5587525 ], [ -88.354895607, 33.558522694 ], [ -88.3553496, 33.558552995 ], [ -88.356311306, 33.559622996 ], [ -88.357068002, 33.559673294 ], [ -88.357395105, 33.559443593 ], [ -88.357311904, 33.557174496 ], [ -88.358468801, 33.556245498 ], [ -88.358517602, 33.555745699 ], [ -88.357821904, 33.555070698 ], [ -88.358083002, 33.5539563 ], [ -88.359239802, 33.553027295 ], [ -88.359996401, 33.553077593 ], [ -88.360843405, 33.553762697 ], [ -88.361902706, 33.553833194 ], [ -88.3623932, 33.553488493 ], [ -88.362466305, 33.552738898 ], [ -88.363410801, 33.552424394 ], [ -88.364144504, 33.551844098 ] ] } },
{ "type": "Feature", "properties": { "site_no": "02443000", "nhdplus_comid": "18648608", "navigation_mode": "DM", "requested_distance_km": 12.0, "start_source": "nwissite", "start_id": "USGS-02443000", "geometry_length_km": 0.14172929581790863 }, "geometry": { "type": "LineString", "coordinates": [ [ -88.364144504, 33.551844098 ], [ -88.364250906, 33.551493496 ], [ -88.364222907, 33.550586298 ] ] } },
{ "type": "Feature", "properties": { "site_no": "02443000", "nhdplus_comid": "18648652", "navigation_mode": "DM", "requested_distance_km": 12.0, "start_source": "nwissite", "start_id": "USGS-02443000", "geometry_length_km": 1.9327926952804944 }, "geometry": { "type": "LineString", "coordinates": [ [ -88.364222907, 33.550586298 ], [ -88.364145003, 33.549580999 ], [ -88.365943506, 33.548317298 ], [ -88.366028801, 33.547442697 ], [ -88.366543606, 33.5468482 ], [ -88.368813306, 33.546999 ], [ -88.369933307, 33.546444699 ], [ -88.371495105, 33.5460454 ], [ -88.372627303, 33.545366094 ], [ -88.372876003, 33.544376597 ], [ -88.373366401, 33.544031896 ], [ -88.374122903, 33.544082195 ], [ -88.374945603, 33.545017093 ], [ -88.375550807, 33.5450572 ], [ -88.376319602, 33.544982493 ], [ -88.377627306, 33.5440633 ], [ -88.378202401, 33.5441835 ], [ -88.378831103, 33.544372998 ], [ -88.3792537, 33.544359699 ] ] } },
{ "type": "Feature", "properties": { "site_no": "02443000", "nhdplus_comid": "18648612", "navigation_mode": "DM", "requested_distance_km": 12.0, "start_source": "nwissite", "start_id": "USGS-02443000", "geometry_length_km": 1.3062582163361629 }, "geometry": { "type": "LineString", "coordinates": [ [ -88.3792537, 33.544359699 ], [ -88.379728407, 33.544005498 ], [ -88.379683301, 33.543403096 ], [ -88.3792741, 33.5427894 ], [ -88.379359201, 33.541914798 ], [ -88.380866803, 33.540505797 ], [ -88.381515205, 33.538536794 ], [ -88.382205501, 33.5377023 ], [ -88.3828471, 33.537367597 ], [ -88.383906201, 33.537437893 ], [ -88.384601906, 33.538112797 ], [ -88.384970702, 33.539017498 ], [ -88.385527305, 33.539557397 ] ] } },
{ "type": "Feature", "properties": { "site_no": "02443000", "nhdplus_comid": "18648622", "navigation_mode": "DM", "requested_distance_km": 12.0, "start_source": "nwissite", "start_id": "USGS-02443000", "geometry_length_km": 2.5950780690402611 }, "geometry": { "type": "LineString", "coordinates": [ [ -88.385527305, 33.539557397 ], [ -88.388820507, 33.537009194 ], [ -88.3902428, 33.536474697 ], [ -88.390896603, 33.536015093 ], [ -88.390945204, 33.535515293 ], [ -88.389336102, 33.533270895 ], [ -88.388882205, 33.533240795 ], [ -88.388555303, 33.533470593 ], [ -88.388482504, 33.534220293 ], [ -88.387967907, 33.534814894 ], [ -88.387060106, 33.534754798 ], [ -88.386376604, 33.533954896 ], [ -88.386298202, 33.533195198 ], [ -88.386801802, 33.5295818 ], [ -88.3879942, 33.528277598 ], [ -88.388206206, 33.527662896 ], [ -88.387927905, 33.527392894 ], [ -88.387298703, 33.527602695 ], [ -88.386542305, 33.527552597 ], [ -88.386263907, 33.527282596 ], [ -88.386294805, 33.525398396 ] ] } }
]
}
