{
"type": "FeatureCollection",
"name": "USGS_02400033_DM_12km",
"crs": { "type": "name", "properties": { "name": "urn:ogc:def:crs:OGC:1.3:CRS84" } },
"features": [
{ "type": "Feature", "properties": { "site_no": "02400033", "nhdplus_comid": "15824847", "navigation_mode": "DM", "requested_distance_km": 12.0, "start_source": "nwissite", "start_id": "USGS-02400033", "geometry_length_km": 0.20384068072398315 }, "geometry": { "type": "LineString", "coordinates": [ [ -85.667290435, 33.845612703 ], [ -85.665150002, 33.845132597 ] ] } },
{ "type": "Feature", "properties": { "site_no": "02400033", "nhdplus_comid": "15824849", "navigation_mode": "DM", "requested_distance_km": 12.0, "start_source": "nwissite", "start_id": "USGS-02400033", "geometry_length_km": 1.7614755901995358 }, "geometry": { "type": "LineString", "coordinates": [ [ -85.665150002, 33.845132597 ], [ -85.6643814, 33.845041193 ], [ -85.663448207, 33.845155999 ], [ -85.662762202, 33.8458433 ], [ -85.6619661, 33.8458893 ], [ -85.661389805, 33.846210197 ], [ -85.661088303, 33.847263798 ], [ -85.660018004, 33.848111697 ], [ -85.658810303, 33.848570094 ], [ -85.658508502, 33.848936595 ], [ -85.658426404, 33.849944398 ], [ -85.6580972, 33.850196496 ], [ -85.657520704, 33.850311197 ], [ -85.656313203, 33.851365097 ], [ -85.655160703, 33.853106 ], [ -85.655078501, 33.853380896 ], [ -85.655106001, 33.853793196 ], [ -85.655215904, 33.854045197 ], [ -85.655188806, 33.854846798 ], [ -85.654832207, 33.8557631 ], [ -85.654832304, 33.856129594 ] ] } },
{ "type": "Feature", "properties": { "site_no": "02400033", "nhdplus_comid": "15824811", "navigation_mode": "DM", "requested_distance_km": 12.0, "start_source": "nwissite", "start_id": "USGS-02400033", "geometry_length_km": 0.96777600985447643 }, "geometry": { "type": "LineString", "coordinates": [ [ -85.654832304, 33.856129594 ], [ -85.654228501, 33.857022993 ], [ -85.652993307, 33.857664496 ], [ -85.651950404, 33.859107696 ], [ -85.651044704, 33.859795094 ], [ -85.649726905, 33.860276297 ], [ -85.648189805, 33.8614446 ], [ -85.647997707, 33.862269193 ] ] } },
{ "type": "Feature", "properties": { "site_no": "02400033", "nhdplus_comid": "15824773", "navigation_mode": "DM", "requested_distance_km": 12.0, "start_source": "nwissite", "start_id": "USGS-02400033", "geometry_length_km": 5.6974583412583231 }, "geometry": { "type": "LineString", "coordinates": [ [ -85.647997707, 33.862269193 ], [ -85.6478879, 33.862315096 ], [ -85.647723407, 33.8630023 ], [ -85.647641003, 33.863070995 ], [ -85.647476904, 33.865590498 ], [ -85.645116106, 33.867789797 ], [ -85.644183107, 33.870538399 ], [ -85.641821906, 33.872485593 ], [ -85.6390488, 33.873882994 ], [ -85.637401305, 33.875096999 ], [ -85.633172706, 33.8781664 ], [ -85.631250605, 33.882083096 ], [ -85.624961503, 33.889023095 ], [ -85.623835504, 33.890305795 ], [ -85.621912703, 33.892779298 ], [ -85.612078503, 33.901802599 ], [ -85.611666307, 33.902008697 ] ] } },
{ "type": "Feature", "properties": { "site_no": "02400033", "nhdplus_comid": "15824635", "navigation_mode": "DM", "requested_distance_km": 12.0, "start_source": "nwissite", "start_id": "USGS-02400033", "geometry_length_km": 0.5713008472348623 }, "geometry": { "type": "LineString", "coordinates": [ [ -85.611666307, 33.902008697 ], [ -85.611666307, 33.902168997 ], [ -85.606666505, 33.904710494 ], [ -85.606529102, 33.904664598 ] ] } },
{ "type": "Feature", "properties": { "site_no": "02400033", "nhdplus_comid": "15824619", "navigation_mode": "DM", "requested_distance_km": 12.0, "start_source": "nwissite", "start_id": "USGS-02400033", "geometry_length_km": 1.321655644556099 }, "geometry": { "type": "LineString", "coordinates": [ [ -85.606529102, 33.904664598 ], [ -85.606446803, 33.904756196 ], [ -85.5978202, 33.908579297 ], [ -85.596473902, 33.909472197 ], [ -85.595127106, 33.9112354 ], [ -85.594934806, 33.9112354 ] ] } },
{ "type": "Feature", "properties": { "site_no": "02400033", "nhdplus_comid": "15824593", "navigation_mode": "DM", "requested_distance_km": 12.0, "start_source": "nwissite", "start_id": "USGS-02400033", "geometry_length_km": 0.90496077475248582 }, "geometry": { "type": "LineString", "coordinates": [ [ -85.594934806, 33.9112354 ], [ -85.594797201, 33.911670394 ], [ -85.5911953, 33.918723896 ] ] } },
{ "type": "Feature", "properties": { "site_no": "02400033", "nhdplus_comid": "15824553", "navigation_mode": "DM", "requested_distance_km": 12.0, "start_source": "nwissite", "start_id": "USGS-02400033", "geometry_length_km": 2.426775869421955 }, "geometry": { "type": "LineString", "coordinates": [ [ -85.5911953, 33.918723896 ], [ -85.589792505, 33.9224796 ], [ -85.589130305, 33.928251199 ], [ -85.588936105, 33.931824096 ], [ -85.5889908, 33.932442598 ], [ -85.590253502, 33.935008198 ], [ -85.590939701, 33.936886594 ], [ -85.590994507, 33.9372302 ], [ -85.592092402, 33.939795695 ] ] } }
]
}
