{
"type": "FeatureCollection",
"name": "USGS_02425655_DM_12km",
"crs": { "type": "name", "properties": { "name": "urn:ogc:def:crs:OGC:1.3:CRS84" } },
"features": [
{ "type": "Feature", "properties": { "site_no": "02425655", "nhdplus_comid": "21452904", "navigation_mode": "DM", "requested_distance_km": 12.0, "start_source": "nwissite", "start_id": "USGS-02425655", "geometry_length_km": 0.43561633497199514 }, "geometry": { "type": "LineString", "coordinates": [ [ -86.993015364, 32.244793432 ], [ -86.993269905, 32.244858995 ], [ -86.994563706, 32.244491197 ], [ -86.995345905, 32.244719498 ], [ -86.995993704, 32.245154299 ], [ -86.9968298, 32.245359696 ], [ -86.997288004, 32.245221794 ] ] } },
{ "type": "Feature", "properties": { "site_no": "02425655", "nhdplus_comid": "21452902", "navigation_mode": "DM", "requested_distance_km": 12.0, "start_source": "nwissite", "start_id": "USGS-02425655", "geometry_length_km": 0.36811757740748619 }, "geometry": { "type": "LineString", "coordinates": [ [ -86.997288004, 32.245221794 ], [ -86.998096906, 32.245220996 ], [ -86.998987205, 32.245609798 ], [ -86.999365501, 32.246228099 ], [ -86.999419905, 32.246571697 ], [ -86.999717101, 32.246983893 ], [ -86.9999872, 32.2470982 ] ] } },
{ "type": "Feature", "properties": { "site_no": "02425655", "nhdplus_comid": "21454946", "navigation_mode": "DM", "requested_distance_km": 12.0, "start_source": "nwissite", "start_id": "USGS-02425655", "geometry_length_km": 1.1148355137606996 }, "geometry": { "type": "LineString", "coordinates": [ [ -86.9999872, 32.2470982 ], [ -87.000553407, 32.247327894 ], [ -87.001308203, 32.247511894 ], [ -87.002926007, 32.247444794 ], [ -87.0034113, 32.247490995 ], [ -87.003923304, 32.247697897 ], [ -87.004273102, 32.248248197 ], [ -87.004380405, 32.248729497 ], [ -87.004865006, 32.249279894 ], [ -87.005215302, 32.249509394 ], [ -87.006104901, 32.249693394 ], [ -87.006482102, 32.249922998 ], [ -87.0086127, 32.2495813 ], [ -87.009313703, 32.249627694 ], [ -87.010230102, 32.249880597 ] ] } },
{ "type": "Feature", "properties": { "site_no": "02425655", "nhdplus_comid": "21456504", "navigation_mode": "DM", "requested_distance_km": 12.0, "start_source": "nwissite", "start_id": "USGS-02425655", "geometry_length_km": 2.47523279182428 }, "geometry": { "type": "LineString", "coordinates": [ [ -87.010230102, 32.249880597 ], [ -87.011849001, 32.249148794 ], [ -87.012577303, 32.248897396 ], [ -87.013844706, 32.248806797 ], [ -87.0146804, 32.248990893 ], [ -87.014976807, 32.249151498 ], [ -87.015677102, 32.249770798 ], [ -87.017375804, 32.249840997 ], [ -87.018022604, 32.250139393 ], [ -87.018937305, 32.250936396 ], [ -87.020015404, 32.251326896 ], [ -87.022253104, 32.251718298 ], [ -87.0225766, 32.251856096 ], [ -87.0227651, 32.2520625 ], [ -87.0228725, 32.252497897 ], [ -87.023437701, 32.253460899 ], [ -87.024111405, 32.253873795 ], [ -87.027211405, 32.254815698 ], [ -87.027858704, 32.254747495 ], [ -87.028452404, 32.254289694 ], [ -87.028910905, 32.254198395 ], [ -87.029666007, 32.254175998 ], [ -87.030151501, 32.254015997 ], [ -87.030853406, 32.253237396 ], [ -87.0316367, 32.252046496 ], [ -87.031798907, 32.251679897 ] ] } },
{ "type": "Feature", "properties": { "site_no": "02425655", "nhdplus_comid": "21456502", "navigation_mode": "DM", "requested_distance_km": 12.0, "start_source": "nwissite", "start_id": "USGS-02425655", "geometry_length_km": 1.1150405478115228 }, "geometry": { "type": "LineString", "coordinates": [ [ -87.031798907, 32.251679897 ], [ -87.031882301, 32.250150397 ], [ -87.031909905, 32.249577597 ], [ -87.032098904, 32.2493257 ], [ -87.034230903, 32.247493997 ], [ -87.034501001, 32.247104697 ], [ -87.0344477, 32.246371299 ], [ -87.033693105, 32.245958298 ], [ -87.033748403, 32.2446521 ], [ -87.0332634, 32.244239293 ], [ -87.032373905, 32.244055398 ], [ -87.031915702, 32.243848793 ] ] } },
{ "type": "Feature", "properties": { "site_no": "02425655", "nhdplus_comid": "21455046", "navigation_mode": "DM", "requested_distance_km": 12.0, "start_source": "nwissite", "start_id": "USGS-02425655", "geometry_length_km": 6.1672355550832947 }, "geometry": { "type": "LineString", "coordinates": [ [ -87.031915702, 32.243848793 ], [ -87.031942904, 32.243619695 ], [ -87.032617502, 32.243047297 ], [ -87.032833502, 32.242680795 ], [ -87.033023104, 32.241833098 ], [ -87.033023603, 32.241283193 ], [ -87.0327546, 32.240664296 ], [ -87.032701805, 32.239541493 ], [ -87.032972306, 32.238739699 ], [ -87.033485003, 32.238258794 ], [ -87.034240305, 32.237869799 ], [ -87.034510106, 32.237617999 ], [ -87.034511, 32.236793093 ], [ -87.034646004, 32.2365181 ], [ -87.034942701, 32.236357898 ], [ -87.036021307, 32.236244097 ], [ -87.036533706, 32.236038297 ], [ -87.037478104, 32.235236898 ], [ -87.038017504, 32.234985195 ], [ -87.038664602, 32.234916896 ], [ -87.039284602, 32.235031798 ], [ -87.040066205, 32.235307395 ], [ -87.040739805, 32.235697299 ], [ -87.041790403, 32.236729197 ], [ -87.0426258, 32.237073496 ], [ -87.043515503, 32.237096995 ], [ -87.043838903, 32.237234697 ], [ -87.044054203, 32.237624295 ], [ -87.044269904, 32.237739094 ], [ -87.045537002, 32.2376941 ], [ -87.046022505, 32.237488098 ], [ -87.046130501, 32.237304799 ], [ -87.046211801, 32.236777894 ], [ -87.046105303, 32.235265397 ], [ -87.045944005, 32.234623693 ], [ -87.045513205, 32.233913094 ], [ -87.044650905, 32.233522996 ], [ -87.044354901, 32.232904196 ], [ -87.044085406, 32.2326978 ], [ -87.042495005, 32.2325821 ], [ -87.041767202, 32.2324441 ], [ -87.041578606, 32.232237794 ], [ -87.0416058, 32.232054599 ], [ -87.041902401, 32.231917195 ], [ -87.044086404, 32.231574893 ], [ -87.044787705, 32.231277399 ], [ -87.045327201, 32.230888195 ], [ -87.045866504, 32.230613597 ], [ -87.046998903, 32.230453894 ], [ -87.047376305, 32.230568796 ], [ -87.048992701, 32.2318758 ], [ -87.049666606, 32.232013695 ], [ -87.049963206, 32.231922194 ], [ -87.050368004, 32.231509998 ], [ -87.050665103, 32.2307081 ], [ -87.050692603, 32.229997896 ], [ -87.050531305, 32.2294707 ], [ -87.050369702, 32.229287297 ], [ -87.050235406, 32.228737295 ], [ -87.050451405, 32.228393696 ], [ -87.051610604, 32.228188097 ], [ -87.053794205, 32.228189297 ], [ -87.054117903, 32.228029095 ], [ -87.054145105, 32.227776997 ], [ -87.053875804, 32.227341495 ], [ -87.053741306, 32.226814397 ], [ -87.053660505, 32.226768598 ], [ -87.053660706, 32.226493597 ], [ -87.053822607, 32.226264596 ], [ -87.054416105, 32.225829497 ], [ -87.054524004, 32.225554496 ], [ -87.054389402, 32.225302398 ], [ -87.053715907, 32.224843696 ], [ -87.051452205, 32.223948695 ], [ -87.051021107, 32.2236735 ], [ -87.050778903, 32.223146297 ], [ -87.050752603, 32.222458795 ], [ -87.051103704, 32.221588299 ], [ -87.052101403, 32.221153498 ], [ -87.052155606, 32.220809795 ], [ -87.051643804, 32.220236696 ], [ -87.051563106, 32.219984494 ], [ -87.051455401, 32.2199158 ], [ -87.051240206, 32.2193885 ], [ -87.051321201, 32.219159395 ], [ -87.051564001, 32.218884595 ], [ -87.051941507, 32.218701497 ], [ -87.052507602, 32.218655996 ] ] } },
{ "type": "Feature", "properties": { "site_no": "02425655", "nhdplus_comid": "21455072", "navigation_mode": "DM", "requested_distance_km": 12.0, "start_source": "nwissite", "start_id": "USGS-02425655", "geometry_length_km": 1.7192267084437023 }, "geometry": { "type": "LineString", "coordinates": [ [ -87.052507602, 32.218655996 ], [ -87.0526153, 32.218747698 ], [ -87.052749902, 32.219137393 ], [ -87.053396106, 32.220077194 ], [ -87.054123402, 32.220765099 ], [ -87.054446802, 32.220879793 ], [ -87.054905005, 32.220902994 ], [ -87.057277806, 32.219964795 ], [ -87.0586261, 32.219278097 ], [ -87.0597587, 32.218476593 ], [ -87.060621805, 32.217697896 ], [ -87.061620004, 32.216392294 ], [ -87.064883605, 32.213162899 ], [ -87.065288, 32.212910995 ], [ -87.065342002, 32.212773599 ] ] } }
]
}
