{
"type": "FeatureCollection",
"name": "USGS_02432500_UM_12km",
"crs": { "type": "name", "properties": { "name": "urn:ogc:def:crs:OGC:1.3:CRS84" } },
"features": [
{ "type": "Feature", "properties": { "site_no": "02432500", "nhdplus_comid": "18696119", "navigation_mode": "UM", "requested_distance_km": 12.0, "start_source": "nwissite", "start_id": "USGS-02432500", "geometry_length_km": 0.35257095465374427 }, "geometry": { "type": "LineString", "coordinates": [ [ -88.272463702, 34.241733998 ], [ -88.272464305, 34.241298899 ], [ -88.272326902, 34.240863599 ], [ -88.272133902, 34.240748897 ], [ -88.271665104, 34.240679897 ], [ -88.271472305, 34.2405423 ], [ -88.2714727, 34.240152895 ], [ -88.2716939, 34.239649199 ], [ -88.271760505, 34.239101168 ] ] } },
{ "type": "Feature", "properties": { "site_no": "02432500", "nhdplus_comid": "18696527", "navigation_mode": "UM", "requested_distance_km": 12.0, "start_source": "nwissite", "start_id": "USGS-02432500", "geometry_length_km": 0.1204450384463048 }, "geometry": { "type": "LineString", "coordinates": [ [ -88.2725178, 34.242810495 ], [ -88.272463702, 34.241733998 ] ] } },
{ "type": "Feature", "properties": { "site_no": "02432500", "nhdplus_comid": "18694743", "navigation_mode": "UM", "requested_distance_km": 12.0, "start_source": "nwissite", "start_id": "USGS-02432500", "geometry_length_km": 0.79286716452797257 }, "geometry": { "type": "LineString", "coordinates": [ [ -88.269781202, 34.248373896 ], [ -88.2697265, 34.247984596 ], [ -88.269313201, 34.247686498 ], [ -88.269285806, 34.2474574 ], [ -88.270196803, 34.246725194 ], [ -88.270472601, 34.246679597 ], [ -88.270803303, 34.246817298 ], [ -88.2711896, 34.246725999 ], [ -88.271245301, 34.246245094 ], [ -88.271798104, 34.245146096 ], [ -88.271854207, 34.2443446 ], [ -88.272158004, 34.243909694 ], [ -88.2725178, 34.242810495 ] ] } },
{ "type": "Feature", "properties": { "site_no": "02432500", "nhdplus_comid": "18696099", "navigation_mode": "UM", "requested_distance_km": 12.0, "start_source": "nwissite", "start_id": "USGS-02432500", "geometry_length_km": 0.66656872837686776 }, "geometry": { "type": "LineString", "coordinates": [ [ -88.2665084, 34.252634294 ], [ -88.266426302, 34.252153195 ], [ -88.266426705, 34.251763798 ], [ -88.266647704, 34.2514892 ], [ -88.267171904, 34.2514439 ], [ -88.267309904, 34.251329497 ], [ -88.267172605, 34.250825495 ], [ -88.267283201, 34.2506653 ], [ -88.268055402, 34.250689 ], [ -88.268276207, 34.250597499 ], [ -88.268372707, 34.250113599 ], [ -88.268566206, 34.2496785 ], [ -88.269366801, 34.249060795 ], [ -88.2696153, 34.248808995 ], [ -88.269781202, 34.248373896 ] ] } },
{ "type": "Feature", "properties": { "site_no": "02432500", "nhdplus_comid": "18694705", "navigation_mode": "UM", "requested_distance_km": 12.0, "start_source": "nwissite", "start_id": "USGS-02432500", "geometry_length_km": 1.0745919777678146 }, "geometry": { "type": "LineString", "coordinates": [ [ -88.259856403, 34.256155297 ], [ -88.260215007, 34.256155699 ], [ -88.260684103, 34.256018594 ], [ -88.261208206, 34.255973399 ], [ -88.261842504, 34.2560656 ], [ -88.262256004, 34.256340794 ], [ -88.262531705, 34.2563181 ], [ -88.262725003, 34.2560663 ], [ -88.262753405, 34.255516693 ], [ -88.262974404, 34.255287893 ], [ -88.264243305, 34.2551516 ], [ -88.264354005, 34.254876897 ], [ -88.264299206, 34.254624896 ], [ -88.263886005, 34.254212193 ], [ -88.263886303, 34.254006095 ], [ -88.264024504, 34.253822997 ], [ -88.264962301, 34.2537781 ], [ -88.265293501, 34.253640994 ], [ -88.265459202, 34.253457896 ], [ -88.2654595, 34.253228799 ], [ -88.264963403, 34.252930596 ], [ -88.265046403, 34.252678797 ], [ -88.265487805, 34.252656296 ], [ -88.266425401, 34.252794497 ], [ -88.2665084, 34.252634294 ] ] } },
{ "type": "Feature", "properties": { "site_no": "02432500", "nhdplus_comid": "18694667", "navigation_mode": "UM", "requested_distance_km": 12.0, "start_source": "nwissite", "start_id": "USGS-02432500", "geometry_length_km": 1.1630107951738955 }, "geometry": { "type": "LineString", "coordinates": [ [ -88.254114002, 34.259699695 ], [ -88.254638202, 34.259677298 ], [ -88.255106904, 34.259838194 ], [ -88.255189702, 34.259769499 ], [ -88.255300604, 34.259380199 ], [ -88.255576804, 34.259082794 ], [ -88.255990706, 34.259037398 ], [ -88.256127805, 34.259632997 ], [ -88.256376006, 34.2597249 ], [ -88.256789707, 34.259702295 ], [ -88.256928101, 34.259358995 ], [ -88.256845802, 34.259061098 ], [ -88.256515302, 34.258694395 ], [ -88.256515704, 34.2583737 ], [ -88.257123306, 34.257847495 ], [ -88.257675104, 34.257802196 ], [ -88.257978104, 34.258031599 ], [ -88.258281507, 34.258077696 ], [ -88.258392103, 34.257940397 ], [ -88.258309707, 34.257642597 ], [ -88.258007005, 34.257138394 ], [ -88.2580074, 34.256840594 ], [ -88.258090302, 34.256726094 ], [ -88.258559301, 34.2566351 ], [ -88.259055205, 34.257116497 ], [ -88.259441301, 34.257116899 ], [ -88.259469204, 34.256933697 ], [ -88.259359106, 34.256773196 ], [ -88.259414703, 34.256429695 ], [ -88.259856403, 34.256155297 ] ] } },
{ "type": "Feature", "properties": { "site_no": "02432500", "nhdplus_comid": "18696051", "navigation_mode": "UM", "requested_distance_km": 12.0, "start_source": "nwissite", "start_id": "USGS-02432500", "geometry_length_km": 5.0316845114518749 }, "geometry": { "type": "LineString", "coordinates": [ [ -88.224742502, 34.270864494 ], [ -88.224880107, 34.270543799 ], [ -88.225680001, 34.270474397 ], [ -88.225762501, 34.270245299 ], [ -88.225541405, 34.269878998 ], [ -88.2256236, 34.269420899 ], [ -88.226065002, 34.269397594 ], [ -88.226230703, 34.269534893 ], [ -88.226479001, 34.2695347 ], [ -88.226644203, 34.269328393 ], [ -88.226643704, 34.2689161 ], [ -88.226257302, 34.268687397 ], [ -88.226284601, 34.268504195 ], [ -88.226477601, 34.268343695 ], [ -88.226946406, 34.268251799 ], [ -88.227277704, 34.268434696 ], [ -88.227608703, 34.268434398 ], [ -88.227746502, 34.268296897 ], [ -88.227773204, 34.267586797 ], [ -88.228076607, 34.267563596 ], [ -88.228408203, 34.2679528 ], [ -88.228684105, 34.267952494 ], [ -88.229014002, 34.266967393 ], [ -88.229206704, 34.266715296 ], [ -88.229951605, 34.2667147 ], [ -88.230392605, 34.2663249 ], [ -88.231109701, 34.266278498 ], [ -88.231689304, 34.266484194 ], [ -88.232020304, 34.266461 ], [ -88.232047506, 34.2661632 ], [ -88.231688507, 34.265819997 ], [ -88.231660604, 34.265613794 ], [ -88.2318535, 34.265453398 ], [ -88.232487902, 34.265361197 ], [ -88.232791603, 34.265544094 ], [ -88.232930206, 34.266116597 ], [ -88.2333166, 34.266184993 ], [ -88.234254107, 34.265909299 ], [ -88.2345016, 34.2652907 ], [ -88.234860204, 34.2652217 ], [ -88.235384405, 34.265312895 ], [ -88.235467002, 34.265198193 ], [ -88.235273406, 34.264763296 ], [ -88.235714607, 34.264694199 ], [ -88.236625403, 34.265036799 ], [ -88.237122901, 34.2657464 ], [ -88.238612704, 34.265813798 ], [ -88.238805704, 34.265676096 ], [ -88.2393848, 34.265583999 ], [ -88.239632905, 34.265423499 ], [ -88.2397421, 34.264575899 ], [ -88.240321003, 34.2643006 ], [ -88.240265101, 34.263773695 ], [ -88.2404579, 34.263613299 ], [ -88.2409546, 34.263567097 ], [ -88.241396204, 34.263772696 ], [ -88.241783105, 34.264207497 ], [ -88.242059, 34.264275998 ], [ -88.242418006, 34.264527597 ], [ -88.242804006, 34.2644585 ], [ -88.2428037, 34.2641837 ], [ -88.242444403, 34.263748899 ], [ -88.242526807, 34.263496898 ], [ -88.243492305, 34.263450094 ], [ -88.243602403, 34.263312593 ], [ -88.243435606, 34.262373693 ], [ -88.2435458, 34.262236193 ], [ -88.243904203, 34.262167096 ], [ -88.244263202, 34.262349993 ], [ -88.244538903, 34.262349695 ], [ -88.244593903, 34.2621435 ], [ -88.244428106, 34.261960499 ], [ -88.244427703, 34.261662796 ], [ -88.244951703, 34.261639297 ], [ -88.245586105, 34.261547096 ], [ -88.245779701, 34.261890493 ], [ -88.246276304, 34.261958599 ], [ -88.246441603, 34.261843994 ], [ -88.246634305, 34.261523098 ], [ -88.246910103, 34.261499897 ], [ -88.247296505, 34.261591196 ], [ -88.247323707, 34.261407994 ], [ -88.247185603, 34.261247799 ], [ -88.247212902, 34.261018693 ], [ -88.247488603, 34.260926798 ], [ -88.247709401, 34.261041097 ], [ -88.247737207, 34.2612243 ], [ -88.247985505, 34.261269897 ], [ -88.248206005, 34.261063494 ], [ -88.248454206, 34.2610633 ], [ -88.248509802, 34.261337996 ], [ -88.248703003, 34.261429496 ], [ -88.248896107, 34.261360593 ], [ -88.249033503, 34.260993995 ], [ -88.249198601, 34.260787696 ], [ -88.249584705, 34.260764398 ], [ -88.250053905, 34.2608556 ], [ -88.250360802, 34.260863997 ], [ -88.250719704, 34.260681197 ], [ -88.251050703, 34.260658599 ], [ -88.251133606, 34.260589994 ], [ -88.251189306, 34.260246493 ], [ -88.250969507, 34.259627894 ], [ -88.250887506, 34.259169698 ], [ -88.251108505, 34.258872196 ], [ -88.251467206, 34.2588268 ], [ -88.251742706, 34.259056099 ], [ -88.251852401, 34.259468496 ], [ -88.252431303, 34.259743899 ], [ -88.252872504, 34.259835996 ], [ -88.252845407, 34.259538196 ], [ -88.2526251, 34.259285994 ], [ -88.252570406, 34.258965299 ], [ -88.252681002, 34.258736394 ], [ -88.253012307, 34.258576393 ], [ -88.253481306, 34.258508198 ], [ -88.253701806, 34.258577093 ], [ -88.253812, 34.2587604 ], [ -88.253728002, 34.259538993 ], [ -88.253838301, 34.259676598 ], [ -88.254114002, 34.259699695 ] ] } },
{ "type": "Feature", "properties": { "site_no": "02432500", "nhdplus_comid": "18694569", "navigation_mode": "UM", "requested_distance_km": 12.0, "start_source": "nwissite", "start_id": "USGS-02432500", "geometry_length_km": 0.79727638010860957 }, "geometry": { "type": "LineString", "coordinates": [ [ -88.220637001, 34.275402695 ], [ -88.221078604, 34.275493994 ], [ -88.221409701, 34.275493793 ], [ -88.2219337, 34.275332995 ], [ -88.222126506, 34.275126696 ], [ -88.2225677, 34.274965994 ], [ -88.222733103, 34.274828494 ], [ -88.222898304, 34.274439 ], [ -88.222925201, 34.2738664 ], [ -88.223035201, 34.273637198 ], [ -88.224387005, 34.273521595 ], [ -88.2248547, 34.272490598 ], [ -88.224854104, 34.271940894 ], [ -88.224550202, 34.271620497 ], [ -88.224522404, 34.271391496 ], [ -88.224742502, 34.270864494 ] ] } },
{ "type": "Feature", "properties": { "site_no": "02432500", "nhdplus_comid": "18694543", "navigation_mode": "UM", "requested_distance_km": 12.0, "start_source": "nwissite", "start_id": "USGS-02432500", "geometry_length_km": 4.5495814493143651 }, "geometry": { "type": "LineString", "coordinates": [ [ -88.195532501, 34.278419994 ], [ -88.1964432, 34.278648496 ], [ -88.196498506, 34.278831698 ], [ -88.1963332, 34.279037997 ], [ -88.196333401, 34.2793357 ], [ -88.196554206, 34.279472999 ], [ -88.1976026, 34.279403694 ], [ -88.197603203, 34.279907495 ], [ -88.197906703, 34.279975995 ], [ -88.1986515, 34.279746599 ], [ -88.199589103, 34.279287994 ], [ -88.200720206, 34.278989598 ], [ -88.200940706, 34.278783299 ], [ -88.2013546, 34.278760195 ], [ -88.201492704, 34.278851695 ], [ -88.2014658, 34.2796304 ], [ -88.201714404, 34.279950894 ], [ -88.202045605, 34.280111 ], [ -88.202294007, 34.280133694 ], [ -88.202431805, 34.280064896 ], [ -88.202955402, 34.279354595 ], [ -88.202899806, 34.278919496 ], [ -88.202982403, 34.278621599 ], [ -88.203313202, 34.278346598 ], [ -88.203450806, 34.278003 ], [ -88.203781903, 34.277979799 ], [ -88.203920007, 34.278094299 ], [ -88.204196505, 34.278735399 ], [ -88.204610601, 34.278964199 ], [ -88.205714203, 34.278986298 ], [ -88.205907501, 34.279146597 ], [ -88.205963105, 34.279512994 ], [ -88.206073605, 34.279673196 ], [ -88.206321903, 34.279672995 ], [ -88.206487305, 34.279581293 ], [ -88.206486203, 34.278390296 ], [ -88.2065688, 34.2782529 ], [ -88.206817105, 34.278138198 ], [ -88.207203202, 34.278069198 ], [ -88.207368903, 34.278229393 ], [ -88.207231902, 34.279191494 ], [ -88.207618207, 34.279191293 ], [ -88.207838707, 34.278916299 ], [ -88.207893305, 34.278343596 ], [ -88.207976006, 34.278229095 ], [ -88.208334707, 34.278228797 ], [ -88.208583102, 34.278457694 ], [ -88.208941802, 34.2784575 ], [ -88.209355503, 34.278205194 ], [ -88.209465101, 34.2775639 ], [ -88.209603004, 34.277403399 ], [ -88.211092502, 34.276990093 ], [ -88.211175203, 34.277058795 ], [ -88.211120404, 34.277356498 ], [ -88.210403703, 34.277998395 ], [ -88.210404105, 34.2783648 ], [ -88.210569903, 34.278639495 ], [ -88.211011402, 34.278730795 ], [ -88.211259604, 34.278616197 ], [ -88.2115077, 34.278318197 ], [ -88.211728305, 34.278295197 ], [ -88.211921602, 34.278363697 ], [ -88.211977005, 34.278592795 ], [ -88.2120874, 34.278684296 ], [ -88.212418504, 34.278661095 ], [ -88.212501004, 34.2784549 ], [ -88.212418005, 34.278180197 ], [ -88.211948603, 34.277768195 ], [ -88.211920701, 34.277539194 ], [ -88.211975805, 34.277447499 ], [ -88.212362103, 34.277447298 ], [ -88.212748706, 34.277790599 ], [ -88.213079706, 34.277790293 ], [ -88.213107102, 34.2775383 ], [ -88.2128582, 34.277057499 ], [ -88.212941006, 34.276965894 ], [ -88.213299602, 34.2769427 ], [ -88.213769302, 34.2774463 ], [ -88.2140176, 34.277491897 ], [ -88.214128003, 34.277423099 ], [ -88.2142101, 34.276896298 ], [ -88.214486003, 34.276850194 ], [ -88.214651704, 34.276987597 ], [ -88.214707203, 34.2772623 ], [ -88.214872904, 34.277422495 ], [ -88.214983605, 34.277743094 ], [ -88.215287402, 34.277994797 ], [ -88.2155357, 34.277994595 ], [ -88.215783805, 34.277857095 ], [ -88.216059104, 34.277215496 ], [ -88.216555506, 34.276963294 ], [ -88.217107207, 34.276894197 ], [ -88.217245504, 34.2773064 ], [ -88.217411205, 34.277443595 ], [ -88.217714705, 34.277466297 ], [ -88.217935003, 34.277008094 ], [ -88.217879504, 34.276710398 ], [ -88.217575602, 34.276412897 ], [ -88.217575505, 34.276206695 ], [ -88.217685707, 34.276115 ], [ -88.218292601, 34.276045799 ], [ -88.218430705, 34.276228994 ], [ -88.218900003, 34.276457697 ], [ -88.219120607, 34.276319996 ], [ -88.219230607, 34.275976494 ], [ -88.220030807, 34.276044495 ], [ -88.2200578, 34.2756093 ], [ -88.220195606, 34.275425993 ], [ -88.2205818, 34.275356993 ], [ -88.220637001, 34.275402695 ] ] } }
]
}
