{
"type": "FeatureCollection",
"name": "USGS_02438000_UM_12km",
"crs": { "type": "name", "properties": { "name": "urn:ogc:def:crs:OGC:1.3:CRS84" } },
"features": [
{ "type": "Feature", "properties": { "site_no": "02438000", "nhdplus_comid": "18670534", "navigation_mode": "UM", "requested_distance_km": 12.0, "start_source": "nwissite", "start_id": "USGS-02438000", "geometry_length_km": 0.68846777377490576 }, "geometry": { "type": "LineString", "coordinates": [ [ -87.984921202, 34.102185994 ], [ -87.985995702, 34.102665894 ], [ -87.986547105, 34.103123598 ], [ -87.9880374, 34.105618894 ], [ -87.988809504, 34.1063741 ], [ -87.989586624, 34.106771898 ] ] } },
{ "type": "Feature", "properties": { "site_no": "02438000", "nhdplus_comid": "18670234", "navigation_mode": "UM", "requested_distance_km": 12.0, "start_source": "nwissite", "start_id": "USGS-02438000", "geometry_length_km": 0.94680919560160259 }, "geometry": { "type": "LineString", "coordinates": [ [ -87.978340305, 34.102123 ], [ -87.977898605, 34.101275794 ], [ -87.977897801, 34.100634493 ], [ -87.9780626, 34.100313693 ], [ -87.978502706, 34.099946797 ], [ -87.978888005, 34.0997862 ], [ -87.979796603, 34.099785298 ], [ -87.980457604, 34.099945098 ], [ -87.981890306, 34.1005852 ], [ -87.982579201, 34.101042695 ], [ -87.983378805, 34.101775095 ], [ -87.983736902, 34.101935096 ], [ -87.984921202, 34.102185994 ] ] } },
{ "type": "Feature", "properties": { "site_no": "02438000", "nhdplus_comid": "18670224", "navigation_mode": "UM", "requested_distance_km": 12.0, "start_source": "nwissite", "start_id": "USGS-02438000", "geometry_length_km": 1.3142458212946257 }, "geometry": { "type": "LineString", "coordinates": [ [ -87.986943305, 34.1109569 ], [ -87.986970104, 34.110475898 ], [ -87.986832, 34.110132493 ], [ -87.986638807, 34.109903499 ], [ -87.985012107, 34.108324595 ], [ -87.984901406, 34.107958294 ], [ -87.984487802, 34.107569098 ], [ -87.984377101, 34.107088193 ], [ -87.984046206, 34.106813699 ], [ -87.983962901, 34.106286794 ], [ -87.983687207, 34.1060123 ], [ -87.979553506, 34.103473298 ], [ -87.978974603, 34.102946997 ], [ -87.978340305, 34.102123 ] ] } },
{ "type": "Feature", "properties": { "site_no": "02438000", "nhdplus_comid": "18670180", "navigation_mode": "UM", "requested_distance_km": 12.0, "start_source": "nwissite", "start_id": "USGS-02438000", "geometry_length_km": 1.7492122975907516 }, "geometry": { "type": "LineString", "coordinates": [ [ -87.984430507, 34.126374699 ], [ -87.984759301, 34.125114597 ], [ -87.985663004, 34.121311493 ], [ -87.985882603, 34.120830297 ], [ -87.986183904, 34.119593099 ], [ -87.986153707, 34.117668994 ], [ -87.986262403, 34.116546594 ], [ -87.986454107, 34.115767598 ], [ -87.986507602, 34.114599399 ], [ -87.986617304, 34.1142786 ], [ -87.986998305, 34.110979795 ], [ -87.986943305, 34.1109569 ] ] } },
{ "type": "Feature", "properties": { "site_no": "02438000", "nhdplus_comid": "18670104", "navigation_mode": "UM", "requested_distance_km": 12.0, "start_source": "nwissite", "start_id": "USGS-02438000", "geometry_length_km": 1.0274082835937584 }, "geometry": { "type": "LineString", "coordinates": [ [ -87.978242703, 34.133801699 ], [ -87.978187501, 34.1337559 ], [ -87.980581202, 34.131623596 ], [ -87.981571801, 34.130866796 ], [ -87.983111903, 34.129101694 ], [ -87.983634107, 34.128253795 ], [ -87.984320402, 34.126466498 ], [ -87.984430507, 34.126374699 ] ] } },
{ "type": "Feature", "properties": { "site_no": "02438000", "nhdplus_comid": "18670068", "navigation_mode": "UM", "requested_distance_km": 12.0, "start_source": "nwissite", "start_id": "USGS-02438000", "geometry_length_km": 1.6410550758952704 }, "geometry": { "type": "LineString", "coordinates": [ [ -87.969634801, 34.145605095 ], [ -87.969524205, 34.145238794 ], [ -87.969331101, 34.144986898 ], [ -87.969384603, 34.143749997 ], [ -87.969768003, 34.141802698 ], [ -87.9710875, 34.139419399 ], [ -87.973068602, 34.1375167 ], [ -87.973178707, 34.1374937 ], [ -87.973976701, 34.136714198 ], [ -87.975187503, 34.135751195 ], [ -87.976261005, 34.135086097 ], [ -87.976921402, 34.1345357 ], [ -87.977747105, 34.134008199 ], [ -87.978242703, 34.133801699 ] ] } },
{ "type": "Feature", "properties": { "site_no": "02438000", "nhdplus_comid": "18670008", "navigation_mode": "UM", "requested_distance_km": 12.0, "start_source": "nwissite", "start_id": "USGS-02438000", "geometry_length_km": 0.40673647862824341 }, "geometry": { "type": "LineString", "coordinates": [ [ -87.970603101, 34.149131894 ], [ -87.970575005, 34.148605093 ], [ -87.970353507, 34.147712 ], [ -87.970270805, 34.147643298 ], [ -87.969634801, 34.145605095 ] ] } },
{ "type": "Feature", "properties": { "site_no": "02438000", "nhdplus_comid": "18669994", "navigation_mode": "UM", "requested_distance_km": 12.0, "start_source": "nwissite", "start_id": "USGS-02438000", "geometry_length_km": 2.3327669371536217 }, "geometry": { "type": "LineString", "coordinates": [ [ -87.959203906, 34.155347794 ], [ -87.959837504, 34.155278698 ], [ -87.960994706, 34.155346595 ], [ -87.965733506, 34.155136794 ], [ -87.966918401, 34.155319199 ], [ -87.968655102, 34.155982196 ], [ -87.9695649, 34.156485297 ], [ -87.971632101, 34.157056399 ], [ -87.972128302, 34.157376595 ], [ -87.972596802, 34.157422096 ], [ -87.973037601, 34.157307096 ], [ -87.973395102, 34.1568259 ], [ -87.973422304, 34.156482197 ], [ -87.973118603, 34.155955598 ], [ -87.970994502, 34.153872997 ], [ -87.9707736, 34.153437898 ], [ -87.970662706, 34.152888298 ], [ -87.970603101, 34.149131894 ] ] } },
{ "type": "Feature", "properties": { "site_no": "02438000", "nhdplus_comid": "18669974", "navigation_mode": "UM", "requested_distance_km": 12.0, "start_source": "nwissite", "start_id": "USGS-02438000", "geometry_length_km": 0.36614943230860852 }, "geometry": { "type": "LineString", "coordinates": [ [ -87.955208704, 34.155350596 ], [ -87.9564761, 34.155281 ], [ -87.956999704, 34.155326493 ], [ -87.959203906, 34.155347794 ] ] } },
{ "type": "Feature", "properties": { "site_no": "02438000", "nhdplus_comid": "18669972", "navigation_mode": "UM", "requested_distance_km": 12.0, "start_source": "nwissite", "start_id": "USGS-02438000", "geometry_length_km": 0.21007619438152966 }, "geometry": { "type": "LineString", "coordinates": [ [ -87.9529218, 34.155374996 ], [ -87.9541343, 34.155442894 ], [ -87.955208704, 34.155350596 ] ] } },
{ "type": "Feature", "properties": { "site_no": "02438000", "nhdplus_comid": "18669982", "navigation_mode": "UM", "requested_distance_km": 12.0, "start_source": "nwissite", "start_id": "USGS-02438000", "geometry_length_km": 1.0725056664108796 }, "geometry": { "type": "LineString", "coordinates": [ [ -87.942784801, 34.157946698 ], [ -87.943528302, 34.157556899 ], [ -87.944878206, 34.157166697 ], [ -87.9463927, 34.156203695 ], [ -87.949008904, 34.154713295 ], [ -87.949642301, 34.154483795 ], [ -87.950744301, 34.154391497 ], [ -87.951488502, 34.154665895 ], [ -87.952150203, 34.155077696 ], [ -87.9529218, 34.155374996 ] ] } }
]
}
