{
"type": "FeatureCollection",
"name": "USGS_02342500_UM_12km",
"crs": { "type": "name", "properties": { "name": "urn:ogc:def:crs:OGC:1.3:CRS84" } },
"features": [
{ "type": "Feature", "properties": { "site_no": "02342500", "nhdplus_comid": "3435970", "navigation_mode": "UM", "requested_distance_km": 12.0, "start_source": "nwissite", "start_id": "USGS-02342500", "geometry_length_km": 2.3243670342287461 }, "geometry": { "type": "LineString", "coordinates": [ [ -85.029817201, 32.328855395 ], [ -85.0274169, 32.328257993 ], [ -85.022806406, 32.326146998 ], [ -85.022375204, 32.325780198 ], [ -85.022213906, 32.325298995 ], [ -85.022160806, 32.324565999 ], [ -85.022268906, 32.324337095 ], [ -85.022917107, 32.323650599 ], [ -85.023053005, 32.322848998 ], [ -85.022487804, 32.321749099 ], [ -85.021544702, 32.320832193 ], [ -85.021329403, 32.320396796 ], [ -85.021222107, 32.319938496 ], [ -85.021169104, 32.319114 ], [ -85.020765603, 32.318151698 ], [ -85.020388506, 32.317670293 ], [ -85.019472003, 32.317142695 ], [ -85.016857103, 32.316041194 ], [ -85.016128905, 32.315971695 ], [ -85.015454203, 32.316245995 ], [ -85.015200739, 32.316368654 ] ] } },
{ "type": "Feature", "properties": { "site_no": "02342500", "nhdplus_comid": "3435860", "navigation_mode": "UM", "requested_distance_km": 12.0, "start_source": "nwissite", "start_id": "USGS-02342500", "geometry_length_km": 0.53049152249617693 }, "geometry": { "type": "LineString", "coordinates": [ [ -85.035238802, 32.329546593 ], [ -85.035130806, 32.329546593 ], [ -85.034187205, 32.329041995 ], [ -85.033054501, 32.328789197 ], [ -85.032380104, 32.328719996 ], [ -85.030923106, 32.328924894 ], [ -85.029817201, 32.328855395 ] ] } },
{ "type": "Feature", "properties": { "site_no": "02342500", "nhdplus_comid": "3435852", "navigation_mode": "UM", "requested_distance_km": 12.0, "start_source": "nwissite", "start_id": "USGS-02342500", "geometry_length_km": 1.567988631274938 }, "geometry": { "type": "LineString", "coordinates": [ [ -85.046078101, 32.335578099 ], [ -85.045538604, 32.335531898 ], [ -85.045025706, 32.335829198 ], [ -85.044539504, 32.336447395 ], [ -85.044512205, 32.336790897 ], [ -85.044296101, 32.337111495 ], [ -85.043810301, 32.337248594 ], [ -85.043621503, 32.337133899 ], [ -85.042948, 32.336263098 ], [ -85.042381801, 32.335804693 ], [ -85.041492, 32.335277297 ], [ -85.040278301, 32.334886998 ], [ -85.039172202, 32.334863394 ], [ -85.038713701, 32.334656894 ], [ -85.038255505, 32.334244296 ], [ -85.037286103, 32.332456999 ], [ -85.036424406, 32.331036299 ], [ -85.035696901, 32.330096595 ], [ -85.035238706, 32.329638295 ], [ -85.035238802, 32.329546593 ] ] } },
{ "type": "Feature", "properties": { "site_no": "02342500", "nhdplus_comid": "3435830", "navigation_mode": "UM", "requested_distance_km": 12.0, "start_source": "nwissite", "start_id": "USGS-02342500", "geometry_length_km": 1.1452740973237518 }, "geometry": { "type": "LineString", "coordinates": [ [ -85.050657101, 32.344261795 ], [ -85.0498209, 32.343986496 ], [ -85.049281806, 32.343550995 ], [ -85.048284404, 32.342290595 ], [ -85.048149906, 32.341855295 ], [ -85.048069902, 32.340778694 ], [ -85.048179403, 32.339038 ], [ -85.048099503, 32.337961398 ], [ -85.047910705, 32.337892599 ], [ -85.047910802, 32.337778099 ], [ -85.047075801, 32.336311594 ], [ -85.046078101, 32.335578099 ] ] } },
{ "type": "Feature", "properties": { "site_no": "02342500", "nhdplus_comid": "3435816", "navigation_mode": "UM", "requested_distance_km": 12.0, "start_source": "nwissite", "start_id": "USGS-02342500", "geometry_length_km": 1.0257120484857958 }, "geometry": { "type": "LineString", "coordinates": [ [ -85.057050504, 32.3457544 ], [ -85.056456804, 32.346028894 ], [ -85.055917203, 32.346005693 ], [ -85.055620603, 32.345639095 ], [ -85.055621602, 32.3443335 ], [ -85.055163801, 32.343371294 ], [ -85.054085307, 32.342454396 ], [ -85.053438105, 32.342041694 ], [ -85.0529254, 32.3420185 ], [ -85.052412502, 32.342361793 ], [ -85.051737502, 32.342979796 ], [ -85.051089004, 32.343987197 ], [ -85.050657101, 32.344261795 ] ] } },
{ "type": "Feature", "properties": { "site_no": "02342500", "nhdplus_comid": "3435806", "navigation_mode": "UM", "requested_distance_km": 12.0, "start_source": "nwissite", "start_id": "USGS-02342500", "geometry_length_km": 0.89822246286802754 }, "geometry": { "type": "LineString", "coordinates": [ [ -85.064442106, 32.347980194 ], [ -85.062311903, 32.3461238 ], [ -85.0600463, 32.344771199 ], [ -85.059452906, 32.344541796 ], [ -85.058562502, 32.344564296 ], [ -85.0578067, 32.344907396 ], [ -85.057023801, 32.345548294 ], [ -85.057050504, 32.3457544 ] ] } },
{ "type": "Feature", "properties": { "site_no": "02342500", "nhdplus_comid": "3435790", "navigation_mode": "UM", "requested_distance_km": 12.0, "start_source": "nwissite", "start_id": "USGS-02342500", "geometry_length_km": 0.83638820094109179 }, "geometry": { "type": "LineString", "coordinates": [ [ -85.071724907, 32.352014899 ], [ -85.071536101, 32.351991996 ], [ -85.070376202, 32.351304196 ], [ -85.0670311, 32.349974297 ], [ -85.066033006, 32.349469796 ], [ -85.064415, 32.348140493 ], [ -85.064442106, 32.347980194 ] ] } },
{ "type": "Feature", "properties": { "site_no": "02342500", "nhdplus_comid": "3435764", "navigation_mode": "UM", "requested_distance_km": 12.0, "start_source": "nwissite", "start_id": "USGS-02342500", "geometry_length_km": 1.4056818281368197 }, "geometry": { "type": "LineString", "coordinates": [ [ -85.0817632, 32.351858698 ], [ -85.081250601, 32.351560794 ], [ -85.080953605, 32.351629399 ], [ -85.080467604, 32.352224797 ], [ -85.080089904, 32.352270395 ], [ -85.078659803, 32.352040797 ], [ -85.078012206, 32.352086395 ], [ -85.077823304, 32.352246493 ], [ -85.077202007, 32.353277095 ], [ -85.077013001, 32.353391498 ], [ -85.076527305, 32.3534142 ], [ -85.076257505, 32.353322595 ], [ -85.076068901, 32.3528644 ], [ -85.076015502, 32.351787798 ], [ -85.075773001, 32.351375394 ], [ -85.075530201, 32.351260796 ], [ -85.074936502, 32.3513522 ], [ -85.074261606, 32.351787098 ], [ -85.073694907, 32.3519013 ], [ -85.073479004, 32.351740897 ], [ -85.073344402, 32.351213999 ], [ -85.073155701, 32.350939095 ], [ -85.072831906, 32.350938894 ], [ -85.0721028, 32.351831898 ], [ -85.071724907, 32.352014899 ] ] } }
]
}
