{
"type": "FeatureCollection",
"name": "USGS_02457700_DM_12km",
"crs": { "type": "name", "properties": { "name": "urn:ogc:def:crs:OGC:1.3:CRS84" } },
"features": [
{ "type": "Feature", "properties": { "site_no": "02457700", "nhdplus_comid": "18565921", "navigation_mode": "DM", "requested_distance_km": 12.0, "start_source": "nwissite", "start_id": "USGS-02457700", "geometry_length_km": 10.929790610889359 }, "geometry": { "type": "LineString", "coordinates": [ [ -86.959611079, 33.667281735 ], [ -86.958751, 33.667593397 ], [ -86.957984306, 33.668143794 ], [ -86.957792804, 33.668418795 ], [ -86.957793102, 33.668785296 ], [ -86.957902901, 33.668991499 ], [ -86.967799105, 33.673726894 ], [ -86.968319707, 33.673657797 ], [ -86.968785204, 33.673428297 ], [ -86.9692505, 33.672900997 ], [ -86.969523504, 33.672007397 ], [ -86.969495401, 33.671343096 ], [ -86.969138406, 33.670587197 ], [ -86.968809001, 33.670106299 ], [ -86.968012705, 33.668549098 ], [ -86.967491306, 33.667747699 ], [ -86.966887102, 33.666510895 ], [ -86.966859102, 33.665915295 ], [ -86.967077807, 33.665456899 ], [ -86.967762001, 33.664746299 ], [ -86.968254901, 33.664562598 ], [ -86.968638502, 33.664539397 ], [ -86.970310107, 33.664835997 ], [ -86.971323706, 33.664789498 ], [ -86.972008407, 33.664559796 ], [ -86.973322503, 33.6636196 ], [ -86.973924905, 33.663321197 ], [ -86.974281006, 33.663343899 ], [ -86.974774703, 33.663755797 ], [ -86.974747807, 33.664237 ], [ -86.974501707, 33.664603598 ], [ -86.973981604, 33.665039398 ], [ -86.973407201, 33.665887497 ], [ -86.972040907, 33.669072993 ], [ -86.972068906, 33.669645794 ], [ -86.972288705, 33.670103699 ], [ -86.972645305, 33.670447096 ], [ -86.973303206, 33.670721494 ], [ -86.974070601, 33.6709041 ], [ -86.975056805, 33.670765899 ], [ -86.975713901, 33.670375898 ], [ -86.975932807, 33.670055099 ], [ -86.975985102, 33.6679473 ], [ -86.9766642, 33.663044095 ], [ -86.976827905, 33.662494093 ], [ -86.977156207, 33.662150294 ], [ -86.977704003, 33.6619436 ], [ -86.978169501, 33.661851496 ], [ -86.978745006, 33.661873996 ], [ -86.979484804, 33.662056699 ], [ -86.980279706, 33.662376694 ], [ -86.981157102, 33.662925795 ], [ -86.9819526, 33.6636125 ], [ -86.986479305, 33.6684196 ], [ -86.987027504, 33.6686024 ], [ -86.987410903, 33.668510295 ], [ -86.991241403, 33.664520599 ], [ -86.991762102, 33.664588898 ], [ -86.992091201, 33.664817594 ], [ -86.992475607, 33.665458694 ], [ -86.993630104, 33.668206796 ], [ -86.994069606, 33.669076994 ], [ -86.994564801, 33.6703825 ], [ -86.994647004, 33.670428194 ], [ -86.994757101, 33.670771696 ], [ -86.995168604, 33.671160795 ], [ -86.995497607, 33.671274997 ], [ -86.996017903, 33.671114095 ], [ -86.996702, 33.670449093 ], [ -86.996947907, 33.670013599 ], [ -86.997029506, 33.669578195 ], [ -86.9968355, 33.668043293 ], [ -86.996753305, 33.667997599 ], [ -86.996313304, 33.666921295 ], [ -86.995050006, 33.664723195 ], [ -86.994555905, 33.664036393 ], [ -86.993512504, 33.662433699 ], [ -86.993430302, 33.6624109 ], [ -86.992935605, 33.661242895 ], [ -86.992824607, 33.6602121 ], [ -86.992850602, 33.6591582 ], [ -86.993123204, 33.658195697 ], [ -86.993259907, 33.657966495 ], [ -86.993725203, 33.6576683 ], [ -86.994382702, 33.657713398 ], [ -86.995314807, 33.6581707 ], [ -86.996000603, 33.658834398 ], [ -86.996522501, 33.659841999 ], [ -86.9966335, 33.660826996 ], [ -86.995923802, 33.662706293 ], [ -86.995951705, 33.663072795 ], [ -86.9962264, 33.663484894 ], [ -86.996802203, 33.663782097 ], [ -86.999790207, 33.664993495 ], [ -86.999996901, 33.664970398 ] ] } }
]
}
