{
"type": "FeatureCollection",
"name": "USGS_02342150_UM_12km",
"crs": { "type": "name", "properties": { "name": "urn:ogc:def:crs:OGC:1.3:CRS84" } },
"features": [
{ "type": "Feature", "properties": { "site_no": "02342150", "nhdplus_comid": "3435750", "navigation_mode": "UM", "requested_distance_km": 12.0, "start_source": "nwissite", "start_id": "USGS-02342150", "geometry_length_km": 1.9478957902330272 }, "geometry": { "type": "LineString", "coordinates": [ [ -85.108421803, 32.360043198 ], [ -85.107207604, 32.358897597 ], [ -85.106425405, 32.357637696 ], [ -85.1059938, 32.356446594 ], [ -85.105022602, 32.355713397 ], [ -85.104914702, 32.355438598 ], [ -85.105076805, 32.354980499 ], [ -85.105400704, 32.354430899 ], [ -85.105400801, 32.354041398 ], [ -85.105239004, 32.353903994 ], [ -85.104861103, 32.354041398 ], [ -85.104537301, 32.354270399 ], [ -85.1045103, 32.354407795 ], [ -85.104078405, 32.354797095 ], [ -85.103565507, 32.355048895 ], [ -85.102621101, 32.3551175 ], [ -85.101352803, 32.354865097 ], [ -85.100974903, 32.3550025 ], [ -85.1004619, 32.3559644 ], [ -85.100218907, 32.356216393 ], [ -85.099868104, 32.356239095 ], [ -85.099301606, 32.355803795 ], [ -85.098870002, 32.355208196 ], [ -85.098546304, 32.354864493 ], [ -85.098249502, 32.354818597 ], [ -85.097655602, 32.355505593 ], [ -85.097358704, 32.3556659 ], [ -85.097061805, 32.355665796 ], [ -85.096792102, 32.355459593 ], [ -85.096603304, 32.3552076 ], [ -85.096306503, 32.354978494 ], [ -85.096235481, 32.354981863 ] ] } },
{ "type": "Feature", "properties": { "site_no": "02342150", "nhdplus_comid": "3435728", "navigation_mode": "UM", "requested_distance_km": 12.0, "start_source": "nwissite", "start_id": "USGS-02342150", "geometry_length_km": 0.15881789592086698 }, "geometry": { "type": "LineString", "coordinates": [ [ -85.109986901, 32.360455699 ], [ -85.109609105, 32.360478595 ], [ -85.108934402, 32.360340998 ], [ -85.108421803, 32.360043198 ] ] } },
{ "type": "Feature", "properties": { "site_no": "02342150", "nhdplus_comid": "3435720", "navigation_mode": "UM", "requested_distance_km": 12.0, "start_source": "nwissite", "start_id": "USGS-02342150", "geometry_length_km": 0.90321659674852273 }, "geometry": { "type": "LineString", "coordinates": [ [ -85.117272802, 32.364373393 ], [ -85.1167062, 32.364281595 ], [ -85.116085507, 32.363685995 ], [ -85.115896702, 32.362998895 ], [ -85.115734801, 32.362655297 ], [ -85.115006305, 32.362219997 ], [ -85.113710903, 32.362334393 ], [ -85.113360003, 32.362219796 ], [ -85.113009207, 32.3618991 ], [ -85.112901405, 32.361647099 ], [ -85.112496503, 32.361211896 ], [ -85.111848906, 32.360730797 ], [ -85.111390203, 32.360547498 ], [ -85.109986901, 32.360455699 ] ] } },
{ "type": "Feature", "properties": { "site_no": "02342150", "nhdplus_comid": "3435706", "navigation_mode": "UM", "requested_distance_km": 12.0, "start_source": "nwissite", "start_id": "USGS-02342150", "geometry_length_km": 0.88396628936942734 }, "geometry": { "type": "LineString", "coordinates": [ [ -85.125612304, 32.3625644 ], [ -85.124910705, 32.362587295 ], [ -85.123507306, 32.3628392 ], [ -85.123129502, 32.362999499 ], [ -85.122751601, 32.3635263 ], [ -85.122454703, 32.363732398 ], [ -85.121213205, 32.364075899 ], [ -85.120187804, 32.363961294 ], [ -85.119027101, 32.363503098 ], [ -85.118433401, 32.363663495 ], [ -85.118136503, 32.363777898 ], [ -85.1179206, 32.3641444 ], [ -85.117272802, 32.364373393 ] ] } },
{ "type": "Feature", "properties": { "site_no": "02342150", "nhdplus_comid": "3435710", "navigation_mode": "UM", "requested_distance_km": 12.0, "start_source": "nwissite", "start_id": "USGS-02342150", "geometry_length_km": 0.33975337403938555 }, "geometry": { "type": "LineString", "coordinates": [ [ -85.128770001, 32.362449899 ], [ -85.127960406, 32.362724796 ], [ -85.127393603, 32.363091297 ], [ -85.126934707, 32.363137096 ], [ -85.126368001, 32.362724796 ], [ -85.125963204, 32.362518594 ], [ -85.125612304, 32.3625644 ] ] } },
{ "type": "Feature", "properties": { "site_no": "02342150", "nhdplus_comid": "3435716", "navigation_mode": "UM", "requested_distance_km": 12.0, "start_source": "nwissite", "start_id": "USGS-02342150", "geometry_length_km": 1.2764160670988962 }, "geometry": { "type": "LineString", "coordinates": [ [ -85.140429005, 32.365083598 ], [ -85.139916301, 32.365175195 ], [ -85.139727302, 32.365129396 ], [ -85.139295407, 32.364739999 ], [ -85.1389715, 32.364236198 ], [ -85.138107903, 32.363709398 ], [ -85.137514204, 32.363572098 ], [ -85.136164702, 32.363572098 ], [ -85.135517001, 32.363411799 ], [ -85.134734206, 32.363045394 ], [ -85.133735701, 32.362862095 ], [ -85.133384801, 32.362633094 ], [ -85.133114904, 32.361922994 ], [ -85.132764101, 32.361716896 ], [ -85.132224403, 32.361625299 ], [ -85.131684706, 32.361831397 ], [ -85.130821005, 32.362220898 ], [ -85.130011402, 32.362426996 ], [ -85.128770001, 32.362449899 ] ] } },
{ "type": "Feature", "properties": { "site_no": "02342150", "nhdplus_comid": "3435696", "navigation_mode": "UM", "requested_distance_km": 12.0, "start_source": "nwissite", "start_id": "USGS-02342150", "geometry_length_km": 0.047166819637620198 }, "geometry": { "type": "LineString", "coordinates": [ [ -85.140833803, 32.365335494 ], [ -85.140429005, 32.365083598 ] ] } },
{ "type": "Feature", "properties": { "site_no": "02342150", "nhdplus_comid": "3435694", "navigation_mode": "UM", "requested_distance_km": 12.0, "start_source": "nwissite", "start_id": "USGS-02342150", "geometry_length_km": 0.4463694587067274 }, "geometry": { "type": "LineString", "coordinates": [ [ -85.143074401, 32.368290097 ], [ -85.143236205, 32.367442593 ], [ -85.142750405, 32.367007397 ], [ -85.142669305, 32.3663432 ], [ -85.142453402, 32.366068296 ], [ -85.141184904, 32.365427099 ], [ -85.140833803, 32.365335494 ] ] } },
{ "type": "Feature", "properties": { "site_no": "02342150", "nhdplus_comid": "3435682", "navigation_mode": "UM", "requested_distance_km": 12.0, "start_source": "nwissite", "start_id": "USGS-02342150", "geometry_length_km": 4.0693610243736105 }, "geometry": { "type": "LineString", "coordinates": [ [ -85.1719281, 32.371605098 ], [ -85.171604104, 32.371376194 ], [ -85.171549901, 32.370918095 ], [ -85.171333902, 32.370666094 ], [ -85.170902006, 32.370368496 ], [ -85.170389004, 32.370254099 ], [ -85.169606306, 32.370185696 ], [ -85.168473005, 32.370758697 ], [ -85.167879201, 32.370827593 ], [ -85.167420201, 32.370667398 ], [ -85.167231306, 32.370507099 ], [ -85.167258106, 32.370277993 ], [ -85.167635806, 32.369773999 ], [ -85.167689703, 32.369567797 ], [ -85.167527601, 32.369407497 ], [ -85.166771904, 32.369338997 ], [ -85.165638402, 32.369637094 ], [ -85.165341601, 32.369637199 ], [ -85.165125504, 32.369385295 ], [ -85.165503107, 32.368606396 ], [ -85.165233202, 32.368423298 ], [ -85.164261602, 32.368561 ], [ -85.163208701, 32.367942795 ], [ -85.163046807, 32.368080296 ], [ -85.163020104, 32.368584193 ], [ -85.162885204, 32.368675798 ], [ -85.162696205, 32.368675895 ], [ -85.162264206, 32.368332393 ], [ -85.161481403, 32.367988996 ], [ -85.160995305, 32.367508195 ], [ -85.160725504, 32.367691495 ], [ -85.160536803, 32.368126698 ], [ -85.160131902, 32.368172593 ], [ -85.159403101, 32.367714599 ], [ -85.158890307, 32.367783494 ], [ -85.158323601, 32.367966793 ], [ -85.158107705, 32.368150197 ], [ -85.158161901, 32.3687457 ], [ -85.157946005, 32.368906096 ], [ -85.157514207, 32.368974894 ], [ -85.156677403, 32.368356593 ], [ -85.156380206, 32.367623799 ], [ -85.156002402, 32.367623799 ], [ -85.154922903, 32.3680363 ], [ -85.153789304, 32.368173994 ], [ -85.153006606, 32.368311599 ], [ -85.152331807, 32.3682888 ], [ -85.1522239, 32.368426196 ], [ -85.152170107, 32.368975997 ], [ -85.151819207, 32.3690219 ], [ -85.151387401, 32.368655398 ], [ -85.1510095, 32.368701294 ], [ -85.150442705, 32.368861698 ], [ -85.150173001, 32.369755097 ], [ -85.1500111, 32.369846798 ], [ -85.148958601, 32.370167598 ], [ -85.147825003, 32.370305099 ], [ -85.147636004, 32.370236397 ], [ -85.147258103, 32.3695952 ], [ -85.147042103, 32.369366094 ], [ -85.146799207, 32.3692974 ], [ -85.146718204, 32.369389094 ], [ -85.146691404, 32.369778395 ], [ -85.1464485, 32.3700305 ], [ -85.146259606, 32.370007597 ], [ -85.145935506, 32.369389199 ], [ -85.146313205, 32.368266799 ], [ -85.146043204, 32.367969096 ], [ -85.1458003, 32.3679462 ], [ -85.1449636, 32.368129596 ], [ -85.144423805, 32.3679922 ], [ -85.144073002, 32.367969297 ], [ -85.143506303, 32.3684275 ], [ -85.143074401, 32.368290097 ] ] } },
{ "type": "Feature", "properties": { "site_no": "02342150", "nhdplus_comid": "3435674", "navigation_mode": "UM", "requested_distance_km": 12.0, "start_source": "nwissite", "start_id": "USGS-02342150", "geometry_length_km": 2.3967513340984143 }, "geometry": { "type": "LineString", "coordinates": [ [ -85.1836216, 32.382228993 ], [ -85.183432505, 32.382068694 ], [ -85.183486007, 32.381221093 ], [ -85.183188707, 32.3807173 ], [ -85.183269203, 32.379823893 ], [ -85.182918102, 32.379686698 ], [ -85.182971902, 32.379297294 ], [ -85.182728902, 32.379251495 ], [ -85.182594106, 32.379388995 ], [ -85.182189301, 32.379503697 ], [ -85.181946203, 32.379297696 ], [ -85.181675702, 32.378381498 ], [ -85.181162603, 32.377877899 ], [ -85.179947503, 32.376847498 ], [ -85.179839, 32.376137599 ], [ -85.180135705, 32.375702299 ], [ -85.180135503, 32.375267096 ], [ -85.179973505, 32.375152595 ], [ -85.180027306, 32.3748319 ], [ -85.180162206, 32.374671496 ], [ -85.180405103, 32.3746714 ], [ -85.180918105, 32.374831498 ], [ -85.181052901, 32.374648198 ], [ -85.180971704, 32.374258898 ], [ -85.180701606, 32.373984195 ], [ -85.180107705, 32.374053098 ], [ -85.179729804, 32.373846993 ], [ -85.1793245, 32.373228699 ], [ -85.179000601, 32.373251796 ], [ -85.178920001, 32.373732895 ], [ -85.178434104, 32.373664297 ], [ -85.178163901, 32.373183399 ], [ -85.178136602, 32.372496195 ], [ -85.177947603, 32.372290097 ], [ -85.177731603, 32.372244395 ], [ -85.176922001, 32.372542493 ], [ -85.176544204, 32.372679994 ], [ -85.176247306, 32.372611396 ], [ -85.176301107, 32.372313596 ], [ -85.176004, 32.372015998 ], [ -85.175572202, 32.371993199 ], [ -85.175113402, 32.372153699 ], [ -85.174816504, 32.372062199 ], [ -85.174330406, 32.371718697 ], [ -85.173493601, 32.371627398 ], [ -85.173088707, 32.371421494 ], [ -85.172521904, 32.371375896 ], [ -85.1719281, 32.371605098 ] ] } }
]
}
