{
"type": "FeatureCollection",
"name": "USGS_02419845_DM_12km",
"crs": { "type": "name", "properties": { "name": "urn:ogc:def:crs:OGC:1.3:CRS84" } },
"features": [
{ "type": "Feature", "properties": { "site_no": "02419845", "nhdplus_comid": "21718862", "navigation_mode": "DM", "requested_distance_km": 12.0, "start_source": "nwissite", "start_id": "USGS-02419845", "geometry_length_km": 0.38978583285730267 }, "geometry": { "type": "LineString", "coordinates": [ [ -86.134984616, 32.360498207 ], [ -86.134871401, 32.360583596 ], [ -86.1346016, 32.361018993 ], [ -86.133656703, 32.361316897 ], [ -86.1333059, 32.361889794 ], [ -86.133062802, 32.362072997 ], [ -86.132522903, 32.362348095 ], [ -86.132064104, 32.362783395 ] ] } },
{ "type": "Feature", "properties": { "site_no": "02419845", "nhdplus_comid": "21718800", "navigation_mode": "DM", "requested_distance_km": 12.0, "start_source": "nwissite", "start_id": "USGS-02419845", "geometry_length_km": 0.6719750356651476 }, "geometry": { "type": "LineString", "coordinates": [ [ -86.132064104, 32.362783395 ], [ -86.131686203, 32.362737596 ], [ -86.131038204, 32.362943798 ], [ -86.130849205, 32.362852193 ], [ -86.130552307, 32.362531394 ], [ -86.129985407, 32.362370998 ], [ -86.129688405, 32.3621419 ], [ -86.129634507, 32.361935697 ], [ -86.129364401, 32.361752398 ], [ -86.127987705, 32.361775294 ], [ -86.126772903, 32.362119094 ], [ -86.126584001, 32.3623024 ], [ -86.126368001, 32.362348199 ], [ -86.125747107, 32.362256497 ] ] } },
{ "type": "Feature", "properties": { "site_no": "02419845", "nhdplus_comid": "21718796", "navigation_mode": "DM", "requested_distance_km": 12.0, "start_source": "nwissite", "start_id": "USGS-02419845", "geometry_length_km": 2.2372569860978775 }, "geometry": { "type": "LineString", "coordinates": [ [ -86.125747107, 32.362256497 ], [ -86.125639103, 32.362416998 ], [ -86.125612102, 32.363539599 ], [ -86.125342101, 32.363929093 ], [ -86.1249642, 32.364066593 ], [ -86.124559201, 32.3642499 ], [ -86.124613106, 32.365212195 ], [ -86.124397203, 32.365601696 ], [ -86.124505207, 32.366403595 ], [ -86.124964006, 32.366953596 ], [ -86.125315003, 32.367251396 ], [ -86.125396006, 32.367869996 ], [ -86.125396103, 32.369771793 ], [ -86.125665903, 32.373689793 ], [ -86.125962906, 32.374674998 ], [ -86.126232803, 32.374881193 ], [ -86.126340903, 32.375133194 ], [ -86.126719005, 32.3754998 ], [ -86.126826905, 32.3759581 ], [ -86.127501905, 32.376920395 ], [ -86.127960905, 32.377951398 ], [ -86.128339, 32.378478393 ], [ -86.128447004, 32.378844999 ], [ -86.129149005, 32.379578196 ], [ -86.129284002, 32.380219698 ], [ -86.129500106, 32.380677894 ] ] } },
{ "type": "Feature", "properties": { "site_no": "02419845", "nhdplus_comid": "21718746", "navigation_mode": "DM", "requested_distance_km": 12.0, "start_source": "nwissite", "start_id": "USGS-02419845", "geometry_length_km": 0.7928062799603659 }, "geometry": { "type": "LineString", "coordinates": [ [ -86.129500106, 32.380677894 ], [ -86.129527107, 32.381434098 ], [ -86.129446201, 32.3815028 ], [ -86.129257105, 32.382098496 ], [ -86.129014105, 32.382533893 ], [ -86.128501102, 32.383816995 ], [ -86.127907, 32.384229295 ], [ -86.127367005, 32.384343997 ], [ -86.126151904, 32.384298094 ], [ -86.124963805, 32.384183496 ], [ -86.124207705, 32.384389699 ] ] } },
{ "type": "Feature", "properties": { "site_no": "02419845", "nhdplus_comid": "21718740", "navigation_mode": "DM", "requested_distance_km": 12.0, "start_source": "nwissite", "start_id": "USGS-02419845", "geometry_length_km": 2.4970259865312969 }, "geometry": { "type": "LineString", "coordinates": [ [ -86.124207705, 32.384389699 ], [ -86.123640701, 32.385260299 ], [ -86.1235056, 32.385374896 ], [ -86.122938506, 32.385420695 ], [ -86.122722507, 32.385328993 ], [ -86.122182503, 32.385420695 ], [ -86.121804506, 32.385741398 ], [ -86.121696405, 32.386130899 ], [ -86.122020505, 32.386382997 ], [ -86.121966407, 32.386520393 ], [ -86.121561401, 32.386795394 ], [ -86.120751202, 32.387139 ], [ -86.120481201, 32.3875743 ], [ -86.120481104, 32.387757599 ], [ -86.120778106, 32.388124198 ], [ -86.121345304, 32.388238795 ], [ -86.121534206, 32.388422094 ], [ -86.121426105, 32.389201097 ], [ -86.121993206, 32.389705196 ], [ -86.122047201, 32.3904384 ], [ -86.122614205, 32.391194597 ], [ -86.122560203, 32.391698495 ], [ -86.1223711, 32.392019399 ], [ -86.122344106, 32.392294295 ], [ -86.122965306, 32.392752595 ], [ -86.122911304, 32.393325396 ], [ -86.122668102, 32.393875197 ], [ -86.122722201, 32.394012697 ], [ -86.123181202, 32.3943564 ], [ -86.1229112, 32.394929193 ], [ -86.122641101, 32.395043798 ], [ -86.122046903, 32.395066693 ], [ -86.121560901, 32.395479098 ], [ -86.121290706, 32.396051794 ], [ -86.120507501, 32.396693394 ], [ -86.1195352, 32.396853797 ], [ -86.1189951, 32.397105694 ], [ -86.116834603, 32.397242993 ], [ -86.116321504, 32.398228094 ], [ -86.116510302, 32.398869798 ], [ -86.116402306, 32.399121799 ], [ -86.1161322, 32.399259195 ] ] } },
{ "type": "Feature", "properties": { "site_no": "02419845", "nhdplus_comid": "21718692", "navigation_mode": "DM", "requested_distance_km": 12.0, "start_source": "nwissite", "start_id": "USGS-02419845", "geometry_length_km": 1.3024965921748941 }, "geometry": { "type": "LineString", "coordinates": [ [ -86.1161322, 32.399259195 ], [ -86.116078205, 32.399579994 ], [ -86.1158351, 32.399946496 ], [ -86.115834907, 32.400725596 ], [ -86.115591802, 32.401252493 ], [ -86.115051605, 32.401733495 ], [ -86.115024507, 32.402512595 ], [ -86.113673903, 32.403474696 ], [ -86.1135929, 32.403726794 ], [ -86.1138089, 32.4040934 ], [ -86.114159904, 32.404368393 ], [ -86.115051307, 32.404505894 ], [ -86.115213305, 32.404620498 ], [ -86.115159206, 32.405284993 ], [ -86.115969405, 32.405628793 ], [ -86.117184803, 32.405903697 ], [ -86.1178599, 32.4064309 ], [ -86.118643105, 32.406545393 ], [ -86.119183205, 32.407118298 ] ] } },
{ "type": "Feature", "properties": { "site_no": "02419845", "nhdplus_comid": "21718684", "navigation_mode": "DM", "requested_distance_km": 12.0, "start_source": "nwissite", "start_id": "USGS-02419845", "geometry_length_km": 1.0299338878353432 }, "geometry": { "type": "LineString", "coordinates": [ [ -86.119183205, 32.407118298 ], [ -86.119480304, 32.407187 ], [ -86.119696304, 32.407347396 ], [ -86.119858406, 32.407782793 ], [ -86.120506704, 32.4085619 ], [ -86.120452605, 32.409478299 ], [ -86.120641604, 32.409661599 ], [ -86.121073805, 32.409524195 ], [ -86.122505203, 32.409799196 ], [ -86.123342603, 32.409753397 ], [ -86.124152802, 32.410440795 ], [ -86.124368906, 32.410509497 ], [ -86.124963105, 32.410509594 ], [ -86.1250441, 32.410669893 ], [ -86.1254493, 32.411013596 ], [ -86.126205705, 32.411334395 ], [ -86.1265027, 32.412113495 ] ] } },
{ "type": "Feature", "properties": { "site_no": "02419845", "nhdplus_comid": "21718660", "navigation_mode": "DM", "requested_distance_km": 12.0, "start_source": "nwissite", "start_id": "USGS-02419845", "geometry_length_km": 1.2730169027945395 }, "geometry": { "type": "LineString", "coordinates": [ [ -86.1265027, 32.412113495 ], [ -86.126583703, 32.412754998 ], [ -86.126448601, 32.413236193 ], [ -86.126556702, 32.413648598 ], [ -86.126988806, 32.414267197 ], [ -86.1279613, 32.414725497 ], [ -86.128771506, 32.415435694 ], [ -86.1289877, 32.416008495 ], [ -86.128879704, 32.417085394 ], [ -86.128285505, 32.417841494 ], [ -86.127907306, 32.418162197 ], [ -86.125260003, 32.419009998 ], [ -86.124990001, 32.419055797 ], [ -86.123963304, 32.419238999 ], [ -86.1237472, 32.419399396 ], [ -86.123612106, 32.419834696 ] ] } },
{ "type": "Feature", "properties": { "site_no": "02419845", "nhdplus_comid": "21719294", "navigation_mode": "DM", "requested_distance_km": 12.0, "start_source": "nwissite", "start_id": "USGS-02419845", "geometry_length_km": 0.015183235532805393 }, "geometry": { "type": "LineString", "coordinates": [ [ -86.123612106, 32.419834696 ], [ -86.123571903, 32.419772595 ], [ -86.123593703, 32.419835493 ] ] } },
{ "type": "Feature", "properties": { "site_no": "02419845", "nhdplus_comid": "21719292", "navigation_mode": "DM", "requested_distance_km": 12.0, "start_source": "nwissite", "start_id": "USGS-02419845", "geometry_length_km": 0.050696680895018803 }, "geometry": { "type": "LineString", "coordinates": [ [ -86.123593703, 32.419835493 ], [ -86.123745002, 32.420272097 ] ] } },
{ "type": "Feature", "properties": { "site_no": "02419845", "nhdplus_comid": "21719290", "navigation_mode": "DM", "requested_distance_km": 12.0, "start_source": "nwissite", "start_id": "USGS-02419845", "geometry_length_km": 2.1163899964658501 }, "geometry": { "type": "LineString", "coordinates": [ [ -86.123745002, 32.420272097 ], [ -86.124935806, 32.420376197 ], [ -86.1283684, 32.421812698 ], [ -86.128932804, 32.422114596 ], [ -86.130117305, 32.4234806 ], [ -86.129797801, 32.4248413 ], [ -86.127450004, 32.426782094 ], [ -86.124478303, 32.431319296 ], [ -86.124260902, 32.433067597 ], [ -86.125327706, 32.434170797 ] ] } }
]
}
