{
"type": "FeatureCollection",
"name": "USGS_02342960_UM_12km",
"crs": { "type": "name", "properties": { "name": "urn:ogc:def:crs:OGC:1.3:CRS84" } },
"features": [
{ "type": "Feature", "properties": { "site_no": "02342960", "nhdplus_comid": "3443492", "navigation_mode": "UM", "requested_distance_km": 12.0, "start_source": "nwissite", "start_id": "USGS-02342960", "geometry_length_km": 0.23368811954819632 }, "geometry": { "type": "LineString", "coordinates": [ [ -85.132182904, 31.893166795 ], [ -85.133384205, 31.891995795 ], [ -85.133458107, 31.891451572 ] ] } },
{ "type": "Feature", "properties": { "site_no": "02342960", "nhdplus_comid": "3443458", "navigation_mode": "UM", "requested_distance_km": 12.0, "start_source": "nwissite", "start_id": "USGS-02342960", "geometry_length_km": 0.65591852692456998 }, "geometry": { "type": "LineString", "coordinates": [ [ -85.1257357, 31.895183593 ], [ -85.127129003, 31.894370198 ], [ -85.130914204, 31.893653497 ], [ -85.132182904, 31.893166795 ] ] } },
{ "type": "Feature", "properties": { "site_no": "02342960", "nhdplus_comid": "3443448", "navigation_mode": "UM", "requested_distance_km": 12.0, "start_source": "nwissite", "start_id": "USGS-02342960", "geometry_length_km": 0.20402466020109369 }, "geometry": { "type": "LineString", "coordinates": [ [ -85.123849407, 31.896084696 ], [ -85.1257357, 31.895183593 ] ] } },
{ "type": "Feature", "properties": { "site_no": "02342960", "nhdplus_comid": "3443446", "navigation_mode": "UM", "requested_distance_km": 12.0, "start_source": "nwissite", "start_id": "USGS-02342960", "geometry_length_km": 0.99326643058418584 }, "geometry": { "type": "LineString", "coordinates": [ [ -85.117574103, 31.902726196 ], [ -85.118228205, 31.902044296 ], [ -85.118908703, 31.899399593 ], [ -85.123849407, 31.896084696 ] ] } },
{ "type": "Feature", "properties": { "site_no": "02342960", "nhdplus_comid": "3443442", "navigation_mode": "UM", "requested_distance_km": 12.0, "start_source": "nwissite", "start_id": "USGS-02342960", "geometry_length_km": 1.0910497736951768 }, "geometry": { "type": "LineString", "coordinates": [ [ -85.111432202, 31.9107356 ], [ -85.112265706, 31.909325793 ], [ -85.115904704, 31.906155594 ], [ -85.115977503, 31.905620597 ], [ -85.116525106, 31.905131593 ], [ -85.116616204, 31.904462799 ], [ -85.117574103, 31.902726196 ] ] } },
{ "type": "Feature", "properties": { "site_no": "02342960", "nhdplus_comid": "3443432", "navigation_mode": "UM", "requested_distance_km": 12.0, "start_source": "nwissite", "start_id": "USGS-02342960", "geometry_length_km": 0.35668524250592182 }, "geometry": { "type": "LineString", "coordinates": [ [ -85.109923504, 31.913570695 ], [ -85.110209301, 31.912649795 ], [ -85.110757001, 31.912160896 ], [ -85.110848106, 31.911492094 ], [ -85.111432202, 31.9107356 ] ] } },
{ "type": "Feature", "properties": { "site_no": "02342960", "nhdplus_comid": "3443428", "navigation_mode": "UM", "requested_distance_km": 12.0, "start_source": "nwissite", "start_id": "USGS-02342960", "geometry_length_km": 0.42411662983233045 }, "geometry": { "type": "LineString", "coordinates": [ [ -85.108323507, 31.917074598 ], [ -85.108694807, 31.916704096 ], [ -85.109302901, 31.914594695 ], [ -85.109923504, 31.913570695 ] ] } },
{ "type": "Feature", "properties": { "site_no": "02342960", "nhdplus_comid": "3443424", "navigation_mode": "UM", "requested_distance_km": 12.0, "start_source": "nwissite", "start_id": "USGS-02342960", "geometry_length_km": 2.3324457326120021 }, "geometry": { "type": "LineString", "coordinates": [ [ -85.096397102, 31.934550099 ], [ -85.097368203, 31.933899194 ], [ -85.097654201, 31.932978295 ], [ -85.098220401, 31.932355799 ], [ -85.098579407, 31.930899799 ], [ -85.1002836, 31.927812897 ], [ -85.101305604, 31.923846297 ], [ -85.103923, 31.921119198 ], [ -85.107861206, 31.918113895 ], [ -85.108445406, 31.917357497 ], [ -85.108323507, 31.917074598 ] ] } },
{ "type": "Feature", "properties": { "site_no": "02342960", "nhdplus_comid": "3443400", "navigation_mode": "UM", "requested_distance_km": 12.0, "start_source": "nwissite", "start_id": "USGS-02342960", "geometry_length_km": 2.0001108346803482 }, "geometry": { "type": "LineString", "coordinates": [ [ -85.084605403, 31.948649198 ], [ -85.086919703, 31.946977198 ], [ -85.087857507, 31.945984297 ], [ -85.088107206, 31.945330895 ], [ -85.088831902, 31.944723897 ], [ -85.088904902, 31.944188796 ], [ -85.090336002, 31.943108395 ], [ -85.090640403, 31.942053795 ], [ -85.091170102, 31.941698797 ], [ -85.091456302, 31.940777995 ], [ -85.091986001, 31.9404229 ], [ -85.092326902, 31.939100794 ], [ -85.092874907, 31.938611999 ], [ -85.092929706, 31.938210793 ], [ -85.094433606, 31.936595298 ], [ -85.094506606, 31.936060198 ], [ -85.096397102, 31.934550099 ] ] } },
{ "type": "Feature", "properties": { "site_no": "02342960", "nhdplus_comid": "3443394", "navigation_mode": "UM", "requested_distance_km": 12.0, "start_source": "nwissite", "start_id": "USGS-02342960", "geometry_length_km": 0.77198391035674485 }, "geometry": { "type": "LineString", "coordinates": [ [ -85.081353001, 31.954837799 ], [ -85.081712402, 31.953381896 ], [ -85.082084, 31.953011498 ], [ -85.082175307, 31.952342793 ], [ -85.082814902, 31.951185293 ], [ -85.083168104, 31.950948693 ], [ -85.083436102, 31.950161599 ], [ -85.084605403, 31.948649198 ] ] } }
]
}
