{
"type": "FeatureCollection",
"name": "USGS_02372800_UM_12km",
"crs": { "type": "name", "properties": { "name": "urn:ogc:def:crs:OGC:1.3:CRS84" } },
"features": [
{ "type": "Feature", "properties": { "site_no": "02372800", "nhdplus_comid": "2399783", "navigation_mode": "UM", "requested_distance_km": 12.0, "start_source": "nwissite", "start_id": "USGS-02372800", "geometry_length_km": 0.53627649999275184 }, "geometry": { "type": "LineString", "coordinates": [ [ -86.651211306, 31.780110598 ], [ -86.649735503, 31.778804697 ], [ -86.647750005, 31.777590498 ], [ -86.64735194, 31.776719553 ] ] } },
{ "type": "Feature", "properties": { "site_no": "02372800", "nhdplus_comid": "2399761", "navigation_mode": "UM", "requested_distance_km": 12.0, "start_source": "nwissite", "start_id": "USGS-02372800", "geometry_length_km": 0.44344654970719471 }, "geometry": { "type": "LineString", "coordinates": [ [ -86.649039201, 31.783640094 ], [ -86.650755502, 31.780958593 ], [ -86.651211306, 31.780110598 ] ] } },
{ "type": "Feature", "properties": { "site_no": "02372800", "nhdplus_comid": "2399745", "navigation_mode": "UM", "requested_distance_km": 12.0, "start_source": "nwissite", "start_id": "USGS-02372800", "geometry_length_km": 1.9244493627166361 }, "geometry": { "type": "LineString", "coordinates": [ [ -86.656662904, 31.796563096 ], [ -86.656770207, 31.796379797 ], [ -86.6574945, 31.795898296 ], [ -86.657950401, 31.795393996 ], [ -86.657896601, 31.794935696 ], [ -86.657279104, 31.793767095 ], [ -86.657305501, 31.792850494 ], [ -86.657063901, 31.792506799 ], [ -86.6532536, 31.791407697 ], [ -86.652556002, 31.790972494 ], [ -86.651589803, 31.790147699 ], [ -86.651267804, 31.789735295 ], [ -86.6512409, 31.7893686 ], [ -86.651321307, 31.789116599 ], [ -86.651240706, 31.788887396 ], [ -86.6507845, 31.788497895 ], [ -86.650274701, 31.7882002 ], [ -86.649872102, 31.787833594 ], [ -86.649979107, 31.786275193 ], [ -86.649710603, 31.785496093 ], [ -86.649227306, 31.784831695 ], [ -86.649066202, 31.7843505 ], [ -86.649039201, 31.783640094 ] ] } },
{ "type": "Feature", "properties": { "site_no": "02372800", "nhdplus_comid": "2399693", "navigation_mode": "UM", "requested_distance_km": 12.0, "start_source": "nwissite", "start_id": "USGS-02372800", "geometry_length_km": 1.1311872094960034 }, "geometry": { "type": "LineString", "coordinates": [ [ -86.659778804, 31.805499494 ], [ -86.658919707, 31.804330997 ], [ -86.658141002, 31.803002097 ], [ -86.657550402, 31.802245997 ], [ -86.657335505, 31.8018336 ], [ -86.657228105, 31.8013753 ], [ -86.657281406, 31.800435796 ], [ -86.657844603, 31.799816899 ], [ -86.658193201, 31.799243897 ], [ -86.6582468, 31.798900098 ], [ -86.6579246, 31.798304394 ], [ -86.657253705, 31.797731698 ], [ -86.656797305, 31.797158897 ], [ -86.656662904, 31.796563096 ] ] } },
{ "type": "Feature", "properties": { "site_no": "02372800", "nhdplus_comid": "2399665", "navigation_mode": "UM", "requested_distance_km": 12.0, "start_source": "nwissite", "start_id": "USGS-02372800", "geometry_length_km": 2.7441624379629324 }, "geometry": { "type": "LineString", "coordinates": [ [ -86.661156401, 31.8283922 ], [ -86.661263704, 31.828346297 ], [ -86.661371, 31.828117095 ], [ -86.661370702, 31.827475496 ], [ -86.6608603, 31.826260999 ], [ -86.660806, 31.824588194 ], [ -86.661636904, 31.821952596 ], [ -86.661743507, 31.819844298 ], [ -86.662413605, 31.817827493 ], [ -86.662735201, 31.8167504 ], [ -86.662681304, 31.8162691 ], [ -86.662466407, 31.815902494 ], [ -86.662439406, 31.815513 ], [ -86.663002804, 31.814871199 ], [ -86.663002305, 31.813702494 ], [ -86.662841201, 31.813404597 ], [ -86.6622774, 31.812808998 ], [ -86.662035704, 31.812327795 ], [ -86.661901206, 31.811686195 ], [ -86.661659501, 31.811182097 ], [ -86.6609613, 31.810105294 ], [ -86.659887403, 31.808959797 ], [ -86.659323506, 31.808020398 ], [ -86.659028001, 31.807264298 ], [ -86.658920504, 31.806462198 ], [ -86.659054503, 31.806118399 ], [ -86.659778804, 31.805499494 ] ] } },
{ "type": "Feature", "properties": { "site_no": "02372800", "nhdplus_comid": "2399605", "navigation_mode": "UM", "requested_distance_km": 12.0, "start_source": "nwissite", "start_id": "USGS-02372800", "geometry_length_km": 2.8263207898718243 }, "geometry": { "type": "LineString", "coordinates": [ [ -86.667072304, 31.852383196 ], [ -86.667233102, 31.851856098 ], [ -86.667178802, 31.850481197 ], [ -86.666211307, 31.848144099 ], [ -86.665888406, 31.846517093 ], [ -86.665377304, 31.844340295 ], [ -86.664893702, 31.843538299 ], [ -86.663845606, 31.840765893 ], [ -86.6635499, 31.8397118 ], [ -86.6626366, 31.838176697 ], [ -86.662448503, 31.837695494 ], [ -86.662072502, 31.837122798 ], [ -86.660971001, 31.834968999 ], [ -86.659869403, 31.831944399 ], [ -86.659869105, 31.831211194 ], [ -86.660325103, 31.830408998 ], [ -86.660915405, 31.829744197 ], [ -86.661156401, 31.8283922 ] ] } },
{ "type": "Feature", "properties": { "site_no": "02372800", "nhdplus_comid": "2399557", "navigation_mode": "UM", "requested_distance_km": 12.0, "start_source": "nwissite", "start_id": "USGS-02372800", "geometry_length_km": 3.2001830044613011 }, "geometry": { "type": "LineString", "coordinates": [ [ -86.666574404, 31.879584394 ], [ -86.6665738, 31.878484398 ], [ -86.666412003, 31.876742899 ], [ -86.666142702, 31.875322193 ], [ -86.666062102, 31.875138894 ], [ -86.665981404, 31.874772295 ], [ -86.665524602, 31.874061994 ], [ -86.665363304, 31.873580799 ], [ -86.665201604, 31.872435197 ], [ -86.664932504, 31.871174797 ], [ -86.664609902, 31.8703271 ], [ -86.6645023, 31.869799994 ], [ -86.664421104, 31.868287593 ], [ -86.664259702, 31.8677148 ], [ -86.663937204, 31.867096193 ], [ -86.663937204, 31.866889894 ], [ -86.662835404, 31.864919394 ], [ -86.662620403, 31.864346594 ], [ -86.662566505, 31.863842495 ], [ -86.663746901, 31.8613443 ], [ -86.663773403, 31.860587999 ], [ -86.6634508, 31.8596486 ], [ -86.663450502, 31.858915299 ], [ -86.664282106, 31.857104696 ], [ -86.665623806, 31.855293997 ], [ -86.666589804, 31.853872895 ], [ -86.6670724, 31.852681093 ], [ -86.667072304, 31.852383196 ] ] } }
]
}
