{
"type": "FeatureCollection",
"name": "USGS_02465292_DM_12km",
"crs": { "type": "name", "properties": { "name": "urn:ogc:def:crs:OGC:1.3:CRS84" } },
"features": [
{ "type": "Feature", "properties": { "site_no": "02465292", "nhdplus_comid": "18206880", "navigation_mode": "DM", "requested_distance_km": 12.0, "start_source": "nwissite", "start_id": "USGS-02465292", "geometry_length_km": 2.577577417234941 }, "geometry": { "type": "LineString", "coordinates": [ [ -87.564028841, 33.174899328 ], [ -87.5642839, 33.174955398 ], [ -87.564638004, 33.174955599 ], [ -87.564828902, 33.1747953 ], [ -87.565019906, 33.174291298 ], [ -87.565428905, 33.173902094 ], [ -87.566028304, 33.173696093 ], [ -87.566682905, 33.1724822 ], [ -87.567664504, 33.171130799 ], [ -87.567991905, 33.1703749 ], [ -87.568618603, 33.1701461 ], [ -87.569817305, 33.169963494 ], [ -87.570062503, 33.169848897 ], [ -87.570716605, 33.169299394 ], [ -87.571316302, 33.1686581 ], [ -87.572188303, 33.168062694 ], [ -87.576168202, 33.162955195 ], [ -87.576468207, 33.162290998 ], [ -87.5764689, 33.160939194 ], [ -87.576578103, 33.160641395 ], [ -87.578076601, 33.159771398 ], [ -87.578512602, 33.159336299 ], [ -87.578649104, 33.158671997 ], [ -87.578567505, 33.158580199 ], [ -87.578567803, 33.157869995 ], [ -87.579058401, 33.157320298 ] ] } },
{ "type": "Feature", "properties": { "site_no": "02465292", "nhdplus_comid": "18206872", "navigation_mode": "DM", "requested_distance_km": 12.0, "start_source": "nwissite", "start_id": "USGS-02465292", "geometry_length_km": 0.080580231194969751 }, "geometry": { "type": "LineString", "coordinates": [ [ -87.579058401, 33.157320298 ], [ -87.5792033, 33.157328099 ], [ -87.5793835, 33.1574082 ], [ -87.579902805, 33.157389298 ] ] } },
{ "type": "Feature", "properties": { "site_no": "02465292", "nhdplus_comid": "18205292", "navigation_mode": "DM", "requested_distance_km": 12.0, "start_source": "nwissite", "start_id": "USGS-02465292", "geometry_length_km": 1.4134657798917902 }, "geometry": { "type": "LineString", "coordinates": [ [ -87.579902805, 33.157389298 ], [ -87.5794947, 33.156358294 ], [ -87.579523101, 33.153883994 ], [ -87.5792512, 33.152761295 ], [ -87.579169601, 33.152692497 ], [ -87.579142503, 33.1524176 ], [ -87.5790608, 33.152371697 ], [ -87.579061404, 33.1512032 ], [ -87.579334006, 33.150653496 ], [ -87.580042601, 33.149783097 ], [ -87.579988502, 33.149004199 ], [ -87.580152102, 33.1486376 ], [ -87.580234103, 33.148019098 ], [ -87.5805066, 33.147583894 ], [ -87.580534101, 33.147056997 ], [ -87.580153003, 33.146552898 ], [ -87.580153704, 33.145269796 ] ] } },
{ "type": "Feature", "properties": { "site_no": "02465292", "nhdplus_comid": "18205308", "navigation_mode": "DM", "requested_distance_km": 12.0, "start_source": "nwissite", "start_id": "USGS-02465292", "geometry_length_km": 0.73933180978627588 }, "geometry": { "type": "LineString", "coordinates": [ [ -87.580153704, 33.145269796 ], [ -87.580507904, 33.144949198 ], [ -87.5809981, 33.144880593 ], [ -87.581597403, 33.144582897 ], [ -87.581815705, 33.1436207 ], [ -87.581543602, 33.143231198 ], [ -87.581571206, 33.1425668 ], [ -87.581380501, 33.142383397 ], [ -87.581516802, 33.141971096 ], [ -87.581789106, 33.141902499 ], [ -87.581870705, 33.142177396 ], [ -87.582333803, 33.142337896 ], [ -87.5827967, 33.142269395 ], [ -87.583450601, 33.141696796 ], [ -87.583804704, 33.1415824 ] ] } },
{ "type": "Feature", "properties": { "site_no": "02465292", "nhdplus_comid": "18206398", "navigation_mode": "DM", "requested_distance_km": 12.0, "start_source": "nwissite", "start_id": "USGS-02465292", "geometry_length_km": 2.9621202350355493 }, "geometry": { "type": "LineString", "coordinates": [ [ -87.583804704, 33.1415824 ], [ -87.583832301, 33.140894994 ], [ -87.583668903, 33.140711695 ], [ -87.583669007, 33.140276395 ], [ -87.583750702, 33.140138999 ], [ -87.583778203, 33.139703698 ], [ -87.583614804, 33.139520295 ], [ -87.583097607, 33.139313996 ], [ -87.582988702, 33.139176495 ], [ -87.582988903, 33.1387183 ], [ -87.583206803, 33.138535097 ], [ -87.583533801, 33.137985297 ], [ -87.583969705, 33.137825094 ], [ -87.583997101, 33.1373211 ], [ -87.583915606, 33.136977397 ], [ -87.583998106, 33.135121599 ], [ -87.584243603, 33.133976199 ], [ -87.584271103, 33.133334696 ], [ -87.5841351, 33.133197196 ], [ -87.584026307, 33.132716 ], [ -87.584026404, 33.132349499 ], [ -87.584816501, 33.131570794 ], [ -87.585279703, 33.130837798 ], [ -87.585307606, 33.129279897 ], [ -87.585689105, 33.128638498 ], [ -87.5859887, 33.128386594 ], [ -87.586315706, 33.1279056 ], [ -87.586615302, 33.127676599 ], [ -87.5877591, 33.127081193 ], [ -87.588603504, 33.126416996 ], [ -87.589719906, 33.126211099 ], [ -87.590536803, 33.125913493 ], [ -87.591054104, 33.125913695 ], [ -87.5936407, 33.126166299 ], [ -87.593967505, 33.126097597 ], [ -87.597153105, 33.126098394 ], [ -87.598215103, 33.125915296 ], [ -87.599222705, 33.125617698 ] ] } },
{ "type": "Feature", "properties": { "site_no": "02465292", "nhdplus_comid": "18206412", "navigation_mode": "DM", "requested_distance_km": 12.0, "start_source": "nwissite", "start_id": "USGS-02465292", "geometry_length_km": 4.5489322512639001 }, "geometry": { "type": "LineString", "coordinates": [ [ -87.599222705, 33.125617698 ], [ -87.599604003, 33.125113696 ], [ -87.599958204, 33.124082796 ], [ -87.600012802, 33.123349696 ], [ -87.599931501, 33.121814594 ], [ -87.599741101, 33.121516794 ], [ -87.599523403, 33.121012695 ], [ -87.599496305, 33.120279595 ], [ -87.598951906, 33.1197984 ], [ -87.598924801, 33.119592093 ], [ -87.598897606, 33.119271398 ], [ -87.598952204, 33.118927695 ], [ -87.598843403, 33.118171699 ], [ -87.598816305, 33.118011199 ], [ -87.5987892, 33.117461398 ], [ -87.598571502, 33.117048994 ], [ -87.598353706, 33.116865695 ], [ -87.597945504, 33.116705194 ], [ -87.597809404, 33.116476096 ], [ -87.597455502, 33.116200998 ], [ -87.597237803, 33.1161322 ], [ -87.597047307, 33.115948893 ], [ -87.5969657, 33.115559399 ], [ -87.596748002, 33.1153761 ], [ -87.596829705, 33.115032397 ], [ -87.5968301, 33.113543198 ], [ -87.5971025, 33.113107994 ], [ -87.597538203, 33.112833098 ], [ -87.598518401, 33.112489693 ], [ -87.5988179, 33.111962795 ], [ -87.598845504, 33.110931799 ], [ -87.599063404, 33.110633999 ], [ -87.600043505, 33.110107295 ], [ -87.600315906, 33.109397098 ], [ -87.600778803, 33.109168097 ], [ -87.601105504, 33.108847395 ], [ -87.601214506, 33.108412094 ], [ -87.601622902, 33.107976899 ], [ -87.602004305, 33.107014693 ], [ -87.602031603, 33.106670998 ], [ -87.601895601, 33.106418997 ], [ -87.601841301, 33.105640098 ], [ -87.601705201, 33.105365098 ], [ -87.601678304, 33.104104996 ], [ -87.601460703, 33.103715494 ], [ -87.601406403, 33.103096895 ], [ -87.601460904, 33.102913596 ], [ -87.601379402, 33.102386698 ], [ -87.601270504, 33.102272093 ], [ -87.601216204, 33.101607695 ], [ -87.600427002, 33.100439094 ], [ -87.600427203, 33.099705897 ], [ -87.600508906, 33.099476896 ], [ -87.600808404, 33.099133298 ], [ -87.600835703, 33.098766699 ], [ -87.600318901, 33.097506598 ], [ -87.599992305, 33.097277395 ], [ -87.598413706, 33.096979097 ], [ -87.598304801, 33.096887499 ], [ -87.598250501, 33.096520893 ], [ -87.5980056, 33.096222997 ], [ -87.597733505, 33.096200094 ], [ -87.597461201, 33.096314594 ], [ -87.597243406, 33.0966352 ], [ -87.597243302, 33.096956 ], [ -87.597515501, 33.0970935 ], [ -87.5975971, 33.097230993 ], [ -87.597596906, 33.0978496 ], [ -87.597487606, 33.099384695 ], [ -87.597133502, 33.099957399 ], [ -87.596534602, 33.100529999 ], [ -87.596507207, 33.100827798 ], [ -87.596071601, 33.101010993 ], [ -87.595881, 33.101194195 ], [ -87.595881, 33.101377495 ], [ -87.595527001, 33.101537898 ] ] } }
]
}
