{
"type": "FeatureCollection",
"name": "USGS_02343700_DM_12km",
"crs": { "type": "name", "properties": { "name": "urn:ogc:def:crs:OGC:1.3:CRS84" } },
"features": [
{ "type": "Feature", "properties": { "site_no": "02343700", "nhdplus_comid": "2309335", "navigation_mode": "DM", "requested_distance_km": 12.0, "start_source": "nwissite", "start_id": "USGS-02343700", "geometry_length_km": 1.3779078169624202 }, "geometry": { "type": "LineString", "coordinates": [ [ -85.184543599, 31.354936691 ], [ -85.1845439, 31.354926996 ], [ -85.184303105, 31.353873193 ], [ -85.183982402, 31.353415199 ], [ -85.183261305, 31.352796897 ], [ -85.182994001, 31.352178499 ], [ -85.182913102, 31.350918494 ], [ -85.182699203, 31.350185499 ], [ -85.182725601, 31.349612698 ], [ -85.182698704, 31.349520996 ], [ -85.182723202, 31.345443197 ], [ -85.183175907, 31.343564399 ], [ -85.1830955, 31.343014695 ] ] } },
{ "type": "Feature", "properties": { "site_no": "02343700", "nhdplus_comid": "2309361", "navigation_mode": "DM", "requested_distance_km": 12.0, "start_source": "nwissite", "start_id": "USGS-02343700", "geometry_length_km": 2.9856478709935521 }, "geometry": { "type": "LineString", "coordinates": [ [ -85.1830955, 31.343014695 ], [ -85.182855107, 31.342716895 ], [ -85.182721101, 31.341571495 ], [ -85.182534106, 31.3413883 ], [ -85.181920305, 31.341480196 ], [ -85.181359902, 31.341846995 ], [ -85.180506304, 31.3427407 ], [ -85.178772002, 31.344184697 ], [ -85.178264901, 31.344276495 ], [ -85.177650504, 31.343429096 ], [ -85.177276202, 31.342398398 ], [ -85.177115805, 31.341848597 ], [ -85.177275702, 31.341207094 ], [ -85.177568801, 31.340221897 ], [ -85.177488506, 31.339924 ], [ -85.177301601, 31.339763798 ], [ -85.1766342, 31.339557797 ], [ -85.175673306, 31.339581095 ], [ -85.175273106, 31.339810297 ], [ -85.174312502, 31.340497993 ], [ -85.1738858, 31.3411396 ], [ -85.173432104, 31.3413231 ], [ -85.172978304, 31.341277398 ], [ -85.172470905, 31.340750694 ], [ -85.1723103, 31.339582197 ], [ -85.171802402, 31.338184997 ], [ -85.171295002, 31.337566599 ], [ -85.170787804, 31.337291799 ], [ -85.170387402, 31.337200299 ], [ -85.169720106, 31.337108999 ], [ -85.169159703, 31.337223694 ], [ -85.168439105, 31.337384194 ], [ -85.167425103, 31.337934397 ], [ -85.166757703, 31.337980397 ], [ -85.164862603, 31.3374082 ], [ -85.163661405, 31.337316893 ] ] } },
{ "type": "Feature", "properties": { "site_no": "02343700", "nhdplus_comid": "2309433", "navigation_mode": "DM", "requested_distance_km": 12.0, "start_source": "nwissite", "start_id": "USGS-02343700", "geometry_length_km": 2.7845235423196137 }, "geometry": { "type": "LineString", "coordinates": [ [ -85.163661405, 31.337316893 ], [ -85.163207702, 31.337019198 ], [ -85.163154103, 31.336652599 ], [ -85.163287401, 31.336263195 ], [ -85.163366705, 31.334338799 ], [ -85.1631798, 31.3341555 ], [ -85.162859507, 31.334018193 ], [ -85.1620856, 31.334018394 ], [ -85.161311604, 31.334064394 ], [ -85.159710303, 31.334431298 ], [ -85.158322603, 31.334958598 ], [ -85.157842301, 31.335073195 ], [ -85.157548502, 31.334889993 ], [ -85.157228105, 31.334134094 ], [ -85.156800605, 31.332438894 ], [ -85.156640001, 31.330881096 ], [ -85.156746306, 31.329506494 ], [ -85.156532705, 31.328887999 ], [ -85.155438207, 31.327994794 ], [ -85.155491404, 31.327490799 ], [ -85.1558116, 31.3272845 ], [ -85.156959005, 31.3268032 ], [ -85.157572605, 31.326298997 ], [ -85.157652602, 31.3260241 ], [ -85.157572404, 31.325611696 ], [ -85.157011703, 31.3247642 ], [ -85.156664707, 31.324420698 ], [ -85.156211004, 31.324329093 ], [ -85.154903203, 31.324077398 ], [ -85.154182807, 31.323917195 ], [ -85.153275304, 31.323298797 ], [ -85.152234301, 31.322565995 ] ] } },
{ "type": "Feature", "properties": { "site_no": "02343700", "nhdplus_comid": "2309471", "navigation_mode": "DM", "requested_distance_km": 12.0, "start_source": "nwissite", "start_id": "USGS-02343700", "geometry_length_km": 0.72212107240564694 }, "geometry": { "type": "LineString", "coordinates": [ [ -85.152234301, 31.322565995 ], [ -85.152287602, 31.322474293 ], [ -85.1515669, 31.321649693 ], [ -85.150766306, 31.321374893 ], [ -85.1502591, 31.320962593 ], [ -85.150072105, 31.320069194 ], [ -85.150178805, 31.319473594 ], [ -85.1503921, 31.319038294 ], [ -85.150391705, 31.317663699 ], [ -85.150498301, 31.317251295 ], [ -85.150338106, 31.317045197 ] ] } },
{ "type": "Feature", "properties": { "site_no": "02343700", "nhdplus_comid": "2309483", "navigation_mode": "DM", "requested_distance_km": 12.0, "start_source": "nwissite", "start_id": "USGS-02343700", "geometry_length_km": 0.77008840177316051 }, "geometry": { "type": "LineString", "coordinates": [ [ -85.150338106, 31.317045197 ], [ -85.149591103, 31.316953696 ], [ -85.148443706, 31.317182995 ], [ -85.147509702, 31.316953994 ], [ -85.147269502, 31.316793598 ], [ -85.146762304, 31.3161752 ], [ -85.146815605, 31.3153276 ], [ -85.146388605, 31.315075599 ], [ -85.146095, 31.3150528 ], [ -85.145668104, 31.315144397 ], [ -85.145294607, 31.315396398 ], [ -85.144894406, 31.316129595 ], [ -85.144600905, 31.316289999 ] ] } },
{ "type": "Feature", "properties": { "site_no": "02343700", "nhdplus_comid": "2309501", "navigation_mode": "DM", "requested_distance_km": 12.0, "start_source": "nwissite", "start_id": "USGS-02343700", "geometry_length_km": 1.0130722693769141 }, "geometry": { "type": "LineString", "coordinates": [ [ -85.144600905, 31.316289999 ], [ -85.143720202, 31.315877698 ], [ -85.141905501, 31.314457595 ], [ -85.141798705, 31.314205594 ], [ -85.141745307, 31.313678697 ], [ -85.141638502, 31.313472494 ], [ -85.138516404, 31.312418997 ], [ -85.1381962, 31.312189899 ], [ -85.138116106, 31.311937898 ], [ -85.138542905, 31.310952798 ], [ -85.138569601, 31.310357198 ] ] } },
{ "type": "Feature", "properties": { "site_no": "02343700", "nhdplus_comid": "2309503", "navigation_mode": "DM", "requested_distance_km": 12.0, "start_source": "nwissite", "start_id": "USGS-02343700", "geometry_length_km": 0.02873551195128474 }, "geometry": { "type": "LineString", "coordinates": [ [ -85.138569601, 31.310357198 ], [ -85.138783, 31.310173899 ] ] } },
{ "type": "Feature", "properties": { "site_no": "02343700", "nhdplus_comid": "2309529", "navigation_mode": "DM", "requested_distance_km": 12.0, "start_source": "nwissite", "start_id": "USGS-02343700", "geometry_length_km": 1.6136709083817664 }, "geometry": { "type": "LineString", "coordinates": [ [ -85.138783, 31.310173899 ], [ -85.139290005, 31.310219698 ], [ -85.140304007, 31.310517393 ], [ -85.140944406, 31.3103569 ], [ -85.141024403, 31.310082093 ], [ -85.140170403, 31.309211597 ], [ -85.139876701, 31.308409795 ], [ -85.139076203, 31.307562299 ], [ -85.138142303, 31.307058297 ], [ -85.137235001, 31.306829296 ], [ -85.136914805, 31.306646094 ], [ -85.136888206, 31.306439795 ], [ -85.136621304, 31.306142099 ], [ -85.135767505, 31.305706799 ], [ -85.135233901, 31.305179998 ], [ -85.135153703, 31.304836296 ], [ -85.135207005, 31.303759597 ], [ -85.134780101, 31.303163998 ], [ -85.134726703, 31.302591294 ], [ -85.134860106, 31.302247696 ], [ -85.135553703, 31.301514499 ], [ -85.135953806, 31.301285394 ], [ -85.136114001, 31.301101997 ], [ -85.1361406, 31.300712496 ] ] } },
{ "type": "Feature", "properties": { "site_no": "02343700", "nhdplus_comid": "2309549", "navigation_mode": "DM", "requested_distance_km": 12.0, "start_source": "nwissite", "start_id": "USGS-02343700", "geometry_length_km": 1.0246894119434165 }, "geometry": { "type": "LineString", "coordinates": [ [ -85.1361406, 31.300712496 ], [ -85.1360339, 31.300643794 ], [ -85.135046601, 31.300025396 ], [ -85.134513006, 31.299796395 ], [ -85.133019, 31.300002597 ], [ -85.132245302, 31.299933895 ], [ -85.1314715, 31.299750693 ], [ -85.130564407, 31.299315497 ], [ -85.129977405, 31.299017593 ], [ -85.128083207, 31.297299497 ], [ -85.127576202, 31.296497598 ], [ -85.127416201, 31.296405993 ] ] } }
]
}
