{
"type": "FeatureCollection",
"name": "USGS_03577110_UM_12km",
"crs": { "type": "name", "properties": { "name": "urn:ogc:def:crs:OGC:1.3:CRS84" } },
"features": [
{ "type": "Feature", "properties": { "site_no": "03577110", "nhdplus_comid": "19626308", "navigation_mode": "UM", "requested_distance_km": 12.0, "start_source": "nwissite", "start_id": "USGS-03577110", "geometry_length_km": 1.2331293641479075 }, "geometry": { "type": "LineString", "coordinates": [ [ -87.033553906, 34.490485795 ], [ -87.033138506, 34.490737393 ], [ -87.0328058, 34.491401494 ], [ -87.032584406, 34.491515897 ], [ -87.032362804, 34.491767697 ], [ -87.031087101, 34.4945383 ], [ -87.030117005, 34.496140994 ], [ -87.029618606, 34.496507198 ], [ -87.029231206, 34.496529698 ], [ -87.028761104, 34.496346198 ], [ -87.028097905, 34.495635599 ], [ -87.027766801, 34.494833596 ], [ -87.027186304, 34.4944437 ], [ -87.026218504, 34.494053498 ], [ -87.026126011, 34.493989152 ] ] } },
{ "type": "Feature", "properties": { "site_no": "03577110", "nhdplus_comid": "19626310", "navigation_mode": "UM", "requested_distance_km": 12.0, "start_source": "nwissite", "start_id": "USGS-03577110", "geometry_length_km": 1.9956196355504425 }, "geometry": { "type": "LineString", "coordinates": [ [ -87.038302504, 34.500108294 ], [ -87.038939804, 34.499216996 ], [ -87.039023206, 34.498781793 ], [ -87.038580604, 34.498689897 ], [ -87.038220905, 34.498781294 ], [ -87.036920503, 34.498780295 ], [ -87.036699302, 34.498619899 ], [ -87.036699601, 34.498322099 ], [ -87.037087202, 34.498001598 ], [ -87.037723802, 34.497818798 ], [ -87.038111404, 34.497612894 ], [ -87.038194805, 34.497154899 ], [ -87.038416505, 34.496765599 ], [ -87.038748704, 34.496674299 ], [ -87.038942106, 34.496834695 ], [ -87.0389973, 34.496995099 ], [ -87.039246306, 34.497018196 ], [ -87.039523304, 34.496697694 ], [ -87.0395246, 34.495369099 ], [ -87.039276302, 34.494842194 ], [ -87.038695805, 34.494269095 ], [ -87.037976906, 34.493741699 ], [ -87.0368433, 34.493099496 ], [ -87.036815904, 34.492801696 ], [ -87.036899, 34.492710195 ], [ -87.0378123, 34.492390096 ], [ -87.037812702, 34.492023595 ], [ -87.0368727, 34.491427399 ], [ -87.035489805, 34.491151497 ], [ -87.034133904, 34.491310798 ], [ -87.034023404, 34.491219096 ], [ -87.034051701, 34.490600795 ], [ -87.033553906, 34.490485795 ] ] } },
{ "type": "Feature", "properties": { "site_no": "03577110", "nhdplus_comid": "19627008", "navigation_mode": "UM", "requested_distance_km": 12.0, "start_source": "nwissite", "start_id": "USGS-03577110", "geometry_length_km": 0.07572717968921451 }, "geometry": { "type": "LineString", "coordinates": [ [ -87.037471302, 34.500108093 ], [ -87.038302504, 34.500108294 ] ] } },
{ "type": "Feature", "properties": { "site_no": "03577110", "nhdplus_comid": "19622996", "navigation_mode": "UM", "requested_distance_km": 12.0, "start_source": "nwissite", "start_id": "USGS-03577110", "geometry_length_km": 1.1654205084837521 }, "geometry": { "type": "LineString", "coordinates": [ [ -87.045158006, 34.505469099 ], [ -87.044715405, 34.505262695 ], [ -87.044356003, 34.504964694 ], [ -87.044162706, 34.504643798 ], [ -87.043748006, 34.504299998 ], [ -87.043498904, 34.504276894 ], [ -87.043083303, 34.504688896 ], [ -87.042612903, 34.504803196 ], [ -87.042336203, 34.504757196 ], [ -87.042032003, 34.504596598 ], [ -87.040483803, 34.503289893 ], [ -87.040180206, 34.5026941 ], [ -87.040180601, 34.502212994 ], [ -87.039959803, 34.501731798 ], [ -87.039655603, 34.501571193 ], [ -87.038825601, 34.501456097 ], [ -87.038687505, 34.501272798 ], [ -87.038688004, 34.500722997 ], [ -87.038577504, 34.500562593 ], [ -87.038328506, 34.500539497 ], [ -87.037968501, 34.500814095 ], [ -87.037719406, 34.500905596 ], [ -87.037498206, 34.5007222 ], [ -87.037471302, 34.500108093 ] ] } },
{ "type": "Feature", "properties": { "site_no": "03577110", "nhdplus_comid": "19622958", "navigation_mode": "UM", "requested_distance_km": 12.0, "start_source": "nwissite", "start_id": "USGS-03577110", "geometry_length_km": 0.16940804655578764 }, "geometry": { "type": "LineString", "coordinates": [ [ -87.046125203, 34.506660894 ], [ -87.045876406, 34.506546199 ], [ -87.045351103, 34.506110594 ], [ -87.045185305, 34.505812697 ], [ -87.045158006, 34.505469099 ] ] } },
{ "type": "Feature", "properties": { "site_no": "03577110", "nhdplus_comid": "19622956", "navigation_mode": "UM", "requested_distance_km": 12.0, "start_source": "nwissite", "start_id": "USGS-03577110", "geometry_length_km": 0.5452800519494917 }, "geometry": { "type": "LineString", "coordinates": [ [ -87.050302707, 34.507579699 ], [ -87.049638405, 34.507693894 ], [ -87.049278803, 34.507602096 ], [ -87.049113207, 34.5071209 ], [ -87.048310906, 34.507074594 ], [ -87.0482006, 34.506501794 ], [ -87.0480901, 34.5064101 ], [ -87.047481306, 34.5064556 ], [ -87.047370702, 34.506363899 ], [ -87.047370806, 34.506226495 ], [ -87.047149606, 34.506065898 ], [ -87.046928301, 34.506042898 ], [ -87.046762101, 34.506157294 ], [ -87.046595804, 34.506454997 ], [ -87.046374403, 34.506638199 ], [ -87.046125203, 34.506660894 ] ] } },
{ "type": "Feature", "properties": { "site_no": "03577110", "nhdplus_comid": "19622960", "navigation_mode": "UM", "requested_distance_km": 12.0, "start_source": "nwissite", "start_id": "USGS-03577110", "geometry_length_km": 0.48535237857879654 }, "geometry": { "type": "LineString", "coordinates": [ [ -87.051577605, 34.505266994 ], [ -87.052047804, 34.505542099 ], [ -87.0519922, 34.505793996 ], [ -87.051881403, 34.505885594 ], [ -87.051244907, 34.505999796 ], [ -87.051023506, 34.506137095 ], [ -87.050885201, 34.506136999 ], [ -87.050608605, 34.505861998 ], [ -87.050276406, 34.505930498 ], [ -87.0500549, 34.506113596 ], [ -87.049833104, 34.506708995 ], [ -87.049943507, 34.506983899 ], [ -87.050386004, 34.507190399 ], [ -87.050302707, 34.507579699 ] ] } },
{ "type": "Feature", "properties": { "site_no": "03577110", "nhdplus_comid": "19622968", "navigation_mode": "UM", "requested_distance_km": 12.0, "start_source": "nwissite", "start_id": "USGS-03577110", "geometry_length_km": 6.4264259598471805 }, "geometry": { "type": "LineString", "coordinates": [ [ -87.092833303, 34.506361499 ], [ -87.092528805, 34.506430097 ], [ -87.091615304, 34.507368997 ], [ -87.091172107, 34.508308098 ], [ -87.090922706, 34.509430394 ], [ -87.090839602, 34.5094762 ], [ -87.090728901, 34.509911396 ], [ -87.090396404, 34.5105756 ], [ -87.090008602, 34.511743695 ], [ -87.089842103, 34.513026394 ], [ -87.089703605, 34.513163693 ], [ -87.089343801, 34.513232395 ], [ -87.087600701, 34.512613297 ], [ -87.086244702, 34.512658797 ], [ -87.084805906, 34.512177296 ], [ -87.084474005, 34.511970997 ], [ -87.084418803, 34.511741899 ], [ -87.084778905, 34.511054799 ], [ -87.084779002, 34.510779999 ], [ -87.084585302, 34.510642499 ], [ -87.084225602, 34.510596596 ], [ -87.083340004, 34.510985695 ], [ -87.081070803, 34.511351295 ], [ -87.079991803, 34.510892898 ], [ -87.079521306, 34.510869794 ], [ -87.076476902, 34.511601597 ], [ -87.075646602, 34.511899099 ], [ -87.075010002, 34.512288198 ], [ -87.074123904, 34.513135299 ], [ -87.073819503, 34.5132498 ], [ -87.073376805, 34.513249598 ], [ -87.072353102, 34.512722299 ], [ -87.0723809, 34.512424596 ], [ -87.072657906, 34.512195595 ], [ -87.073543601, 34.511852399 ], [ -87.073682003, 34.511737898 ], [ -87.073682204, 34.511531696 ], [ -87.073488504, 34.511439994 ], [ -87.072160102, 34.511439495 ], [ -87.0704448, 34.511118099 ], [ -87.068646505, 34.510521598 ], [ -87.066350207, 34.509902097 ], [ -87.065658405, 34.509901695 ], [ -87.065077007, 34.510222197 ], [ -87.064938404, 34.510474093 ], [ -87.064910404, 34.5110467 ], [ -87.065020904, 34.511321597 ], [ -87.065656804, 34.512100697 ], [ -87.065656707, 34.512329794 ], [ -87.065352105, 34.512398399 ], [ -87.0646054, 34.511848196 ], [ -87.063637704, 34.510725394 ], [ -87.063499607, 34.5103359 ], [ -87.063444704, 34.509740293 ], [ -87.063666604, 34.509053297 ], [ -87.063722305, 34.508549295 ], [ -87.063612007, 34.508022293 ], [ -87.063695602, 34.507243596 ], [ -87.063862003, 34.5066939 ], [ -87.064166605, 34.506350495 ], [ -87.064139307, 34.505915195 ], [ -87.061732702, 34.504951999 ], [ -87.060267203, 34.503737196 ], [ -87.059465207, 34.503232799 ], [ -87.058524705, 34.502911597 ], [ -87.056643203, 34.5027273 ], [ -87.055813201, 34.502703995 ], [ -87.054983005, 34.502932496 ], [ -87.054097407, 34.503046595 ], [ -87.051884301, 34.502632894 ], [ -87.051662803, 34.502724394 ], [ -87.0514412, 34.503067896 ], [ -87.051551402, 34.503526099 ], [ -87.051855303, 34.5041219 ], [ -87.051882602, 34.504579999 ], [ -87.051577605, 34.505266994 ] ] } }
]
}
