{
"type": "FeatureCollection",
"name": "USGS_02423130_DM_12km",
"crs": { "type": "name", "properties": { "name": "urn:ogc:def:crs:OGC:1.3:CRS84" } },
"features": [
{ "type": "Feature", "properties": { "site_no": "02423130", "nhdplus_comid": "21654166", "navigation_mode": "DM", "requested_distance_km": 12.0, "start_source": "nwissite", "start_id": "USGS-02423130", "geometry_length_km": 0.30464459893270102 }, "geometry": { "type": "LineString", "coordinates": [ [ -86.599616101, 33.622102385 ], [ -86.598617405, 33.620811097 ], [ -86.597686604, 33.619894594 ] ] } },
{ "type": "Feature", "properties": { "site_no": "02423130", "nhdplus_comid": "21654172", "navigation_mode": "DM", "requested_distance_km": 12.0, "start_source": "nwissite", "start_id": "USGS-02423130", "geometry_length_km": 1.0601313844290063 }, "geometry": { "type": "LineString", "coordinates": [ [ -86.597686604, 33.619894594 ], [ -86.597029507, 33.619756997 ], [ -86.596427001, 33.619848497 ], [ -86.595523305, 33.620329298 ], [ -86.594263203, 33.621428594 ], [ -86.592263401, 33.623444095 ], [ -86.591441505, 33.624406099 ], [ -86.591030404, 33.625116095 ], [ -86.590564601, 33.625757493 ], [ -86.589770406, 33.626032196 ] ] } },
{ "type": "Feature", "properties": { "site_no": "02423130", "nhdplus_comid": "21654176", "navigation_mode": "DM", "requested_distance_km": 12.0, "start_source": "nwissite", "start_id": "USGS-02423130", "geometry_length_km": 3.3201304153964135 }, "geometry": { "type": "LineString", "coordinates": [ [ -86.589770406, 33.626032196 ], [ -86.589140601, 33.625757098 ], [ -86.588346802, 33.625115298 ], [ -86.587771706, 33.625023596 ], [ -86.587580003, 33.625115097 ], [ -86.587087102, 33.625115 ], [ -86.586293101, 33.624885596 ], [ -86.585690804, 33.624587595 ], [ -86.584103003, 33.623304196 ], [ -86.583719604, 33.623303995 ], [ -86.582952701, 33.6237619 ], [ -86.582514606, 33.623761795 ], [ -86.582131304, 33.623486795 ], [ -86.581939802, 33.623142995 ], [ -86.581940107, 33.622707799 ], [ -86.5821319, 33.622341298 ], [ -86.582679704, 33.621951997 ], [ -86.583446607, 33.621585794 ], [ -86.584596902, 33.621311195 ], [ -86.585226804, 33.621013597 ], [ -86.585829504, 33.620532699 ], [ -86.586076103, 33.620166294 ], [ -86.5861312, 33.619410194 ], [ -86.585857801, 33.618631199 ], [ -86.585474603, 33.618356198 ], [ -86.584872305, 33.618195593 ], [ -86.583996207, 33.617805898 ], [ -86.583475903, 33.617668197 ], [ -86.583037801, 33.6176681 ], [ -86.582818605, 33.617759593 ], [ -86.582599506, 33.6180344 ], [ -86.581832603, 33.618584 ], [ -86.580381103, 33.618972994 ], [ -86.576547205, 33.619567096 ], [ -86.5758899, 33.619772993 ], [ -86.575314701, 33.620116398 ], [ -86.574547805, 33.620436795 ], [ -86.573780902, 33.620642699 ], [ -86.572356902, 33.620825298 ], [ -86.571726903, 33.621008299 ], [ -86.570823006, 33.621488996 ], [ -86.570412003, 33.621946998 ], [ -86.570055507, 33.622748598 ], [ -86.570027903, 33.623092294 ] ] } },
{ "type": "Feature", "properties": { "site_no": "02423130", "nhdplus_comid": "21654160", "navigation_mode": "DM", "requested_distance_km": 12.0, "start_source": "nwissite", "start_id": "USGS-02423130", "geometry_length_km": 0.32728072807915298 }, "geometry": { "type": "LineString", "coordinates": [ [ -86.570027903, 33.623092294 ], [ -86.569836006, 33.623229697 ], [ -86.569753706, 33.623504497 ], [ -86.569424905, 33.6238022 ], [ -86.568931803, 33.624054 ], [ -86.568219803, 33.624191098 ], [ -86.567069702, 33.624098897 ] ] } },
{ "type": "Feature", "properties": { "site_no": "02423130", "nhdplus_comid": "21654170", "navigation_mode": "DM", "requested_distance_km": 12.0, "start_source": "nwissite", "start_id": "USGS-02423130", "geometry_length_km": 0.54154118246145033 }, "geometry": { "type": "LineString", "coordinates": [ [ -86.567069702, 33.624098897 ], [ -86.566631906, 33.623503096 ], [ -86.566605106, 33.622838698 ], [ -86.566934407, 33.621693395 ], [ -86.566852503, 33.621258095 ], [ -86.5665517, 33.620730996 ], [ -86.565758005, 33.619974695 ], [ -86.565593906, 33.619722597 ] ] } },
{ "type": "Feature", "properties": { "site_no": "02423130", "nhdplus_comid": "21654186", "navigation_mode": "DM", "requested_distance_km": 12.0, "start_source": "nwissite", "start_id": "USGS-02423130", "geometry_length_km": 1.8794846006412658 }, "geometry": { "type": "LineString", "coordinates": [ [ -86.565593906, 33.619722597 ], [ -86.565758407, 33.6193332 ], [ -86.566690207, 33.6182798 ], [ -86.566690601, 33.617638297 ], [ -86.566417307, 33.616859399 ], [ -86.565734506, 33.614430599 ], [ -86.565433703, 33.613880597 ], [ -86.565078005, 33.613559693 ], [ -86.564804301, 33.613422096 ], [ -86.564037703, 33.613352999 ], [ -86.563709103, 33.6134445 ], [ -86.562969401, 33.614016794 ], [ -86.562613003, 33.614566393 ], [ -86.562529907, 33.615711898 ], [ -86.562201306, 33.615917899 ], [ -86.561270103, 33.616008997 ], [ -86.5599012, 33.615916699 ], [ -86.558888301, 33.615664095 ], [ -86.558477804, 33.6154119 ], [ -86.558067501, 33.614701495 ], [ -86.557438403, 33.614059694 ], [ -86.556124404, 33.613600798 ] ] } },
{ "type": "Feature", "properties": { "site_no": "02423130", "nhdplus_comid": "21654194", "navigation_mode": "DM", "requested_distance_km": 12.0, "start_source": "nwissite", "start_id": "USGS-02423130", "geometry_length_km": 2.1564258822635627 }, "geometry": { "type": "LineString", "coordinates": [ [ -86.556124404, 33.613600798 ], [ -86.556097202, 33.613348797 ], [ -86.555523105, 33.612317495 ], [ -86.554839, 33.611629799 ], [ -86.554620303, 33.611263096 ], [ -86.554538906, 33.610300899 ], [ -86.554374903, 33.610025898 ], [ -86.553718202, 33.609498598 ], [ -86.553554103, 33.6092235 ], [ -86.553527601, 33.608261295 ], [ -86.553390801, 33.608100899 ], [ -86.552377805, 33.608054496 ], [ -86.552104004, 33.608145997 ], [ -86.550980903, 33.608855493 ], [ -86.550268605, 33.609175697 ], [ -86.548296005, 33.610732295 ], [ -86.547966801, 33.611419395 ], [ -86.5471173, 33.612220794 ], [ -86.5459942, 33.612792797 ], [ -86.545199707, 33.613181695 ], [ -86.544871107, 33.613204397 ], [ -86.544761807, 33.613021098 ], [ -86.544516407, 33.611921199 ], [ -86.5438333, 33.610408798 ], [ -86.543176904, 33.609652296 ], [ -86.542985305, 33.6096064 ] ] } }
]
}
