{
"type": "FeatureCollection",
"name": "USGS_02443730_DM_12km",
"crs": { "type": "name", "properties": { "name": "urn:ogc:def:crs:OGC:1.3:CRS84" } },
"features": [
{ "type": "Feature", "properties": { "site_no": "02443730", "nhdplus_comid": "18629358", "navigation_mode": "DM", "requested_distance_km": 12.0, "start_source": "nwissite", "start_id": "USGS-02443730", "geometry_length_km": 2.9039168946204614 }, "geometry": { "type": "LineString", "coordinates": [ [ -88.181509221, 33.404466014 ], [ -88.181538001, 33.4043983 ], [ -88.181618802, 33.402634397 ], [ -88.181591004, 33.401970096 ], [ -88.181645006, 33.401099496 ], [ -88.182217605, 33.399839394 ], [ -88.182980902, 33.397914797 ], [ -88.183117002, 33.397273295 ], [ -88.183225803, 33.396723494 ], [ -88.183307603, 33.396563098 ], [ -88.183361903, 33.395990394 ], [ -88.183552407, 33.395119898 ], [ -88.183469303, 33.393539295 ], [ -88.183387004, 33.392966695 ], [ -88.183140807, 33.392485596 ], [ -88.1831403, 33.391798496 ], [ -88.183358103, 33.390744597 ], [ -88.183494203, 33.390171893 ], [ -88.183548607, 33.389782399 ], [ -88.1834938, 33.3896451 ], [ -88.183138505, 33.389187098 ], [ -88.182865106, 33.388728999 ], [ -88.182891905, 33.388041899 ], [ -88.182973601, 33.387583695 ], [ -88.183791801, 33.386231698 ], [ -88.183763802, 33.385292597 ], [ -88.183872804, 33.385063499 ], [ -88.184555203, 33.384627894 ], [ -88.184499905, 33.383688696 ], [ -88.184772506, 33.383207396 ], [ -88.185181901, 33.382840797 ], [ -88.185700506, 33.382680096 ], [ -88.187147506, 33.382564895 ], [ -88.187693506, 33.382427096 ], [ -88.188894905, 33.382220395 ], [ -88.188949406, 33.382105693 ] ] } },
{ "type": "Feature", "properties": { "site_no": "02443730", "nhdplus_comid": "18629360", "navigation_mode": "DM", "requested_distance_km": 12.0, "start_source": "nwissite", "start_id": "USGS-02443730", "geometry_length_km": 1.1764641956317397 }, "geometry": { "type": "LineString", "coordinates": [ [ -88.188949406, 33.382105693 ], [ -88.190287501, 33.382334098 ], [ -88.191461705, 33.382470898 ], [ -88.192417704, 33.382813893 ], [ -88.193373807, 33.383248597 ], [ -88.193647102, 33.383477494 ], [ -88.193729207, 33.383752398 ], [ -88.193647601, 33.384073198 ], [ -88.193675406, 33.384599999 ], [ -88.193702705, 33.384737499 ], [ -88.195095904, 33.385492593 ], [ -88.195615105, 33.385927498 ], [ -88.196215905, 33.385927096 ], [ -88.196570806, 33.385903999 ], [ -88.196925804, 33.3859955 ], [ -88.197226502, 33.386361696 ], [ -88.197308704, 33.386567794 ], [ -88.197363406, 33.3866366 ], [ -88.197418205, 33.386865593 ], [ -88.197527707, 33.387140393 ], [ -88.197473206, 33.387346596 ], [ -88.197309606, 33.387598693 ], [ -88.197282501, 33.387804799 ] ] } },
{ "type": "Feature", "properties": { "site_no": "02443730", "nhdplus_comid": "18629310", "navigation_mode": "DM", "requested_distance_km": 12.0, "start_source": "nwissite", "start_id": "USGS-02443730", "geometry_length_km": 0.68823238005728749 }, "geometry": { "type": "LineString", "coordinates": [ [ -88.197282501, 33.387804799 ], [ -88.197610207, 33.387873396 ], [ -88.197883107, 33.387712799 ], [ -88.198374607, 33.387597993 ], [ -88.198729604, 33.387735195 ], [ -88.199303105, 33.387734793 ], [ -88.199494205, 33.387688994 ], [ -88.199712403, 33.387436897 ], [ -88.199712001, 33.386955798 ], [ -88.199630007, 33.386909999 ], [ -88.199575305, 33.386680894 ], [ -88.199465901, 33.386543594 ], [ -88.199465804, 33.386429094 ], [ -88.199274302, 33.386108495 ], [ -88.199246407, 33.385398395 ], [ -88.1994645, 33.384985894 ], [ -88.199791901, 33.384756595 ], [ -88.200610705, 33.384297997 ], [ -88.200774506, 33.384252094 ] ] } },
{ "type": "Feature", "properties": { "site_no": "02443730", "nhdplus_comid": "18629414", "navigation_mode": "DM", "requested_distance_km": 12.0, "start_source": "nwissite", "start_id": "USGS-02443730", "geometry_length_km": 3.0290068716781589 }, "geometry": { "type": "LineString", "coordinates": [ [ -88.200774506, 33.384252094 ], [ -88.200774103, 33.383793898 ], [ -88.200090706, 33.383038498 ], [ -88.200090207, 33.382511593 ], [ -88.200199105, 33.382099196 ], [ -88.200253502, 33.381801397 ], [ -88.2003351, 33.381572194 ], [ -88.200471401, 33.381320193 ], [ -88.200799003, 33.381251298 ], [ -88.201672904, 33.3814568 ], [ -88.201918602, 33.381410897 ], [ -88.202355303, 33.3812503 ], [ -88.202737503, 33.381158397 ], [ -88.2031743, 33.380974799 ], [ -88.203474507, 33.380745597 ], [ -88.203992903, 33.380470298 ], [ -88.2048392, 33.3802865 ], [ -88.205112204, 33.380194694 ], [ -88.205384903, 33.379896693 ], [ -88.2053845, 33.3794844 ], [ -88.204701401, 33.3788663 ], [ -88.204619005, 33.378362395 ], [ -88.204482205, 33.378156394 ], [ -88.203826405, 33.377652898 ], [ -88.203826107, 33.3773093 ], [ -88.203935102, 33.377125993 ], [ -88.204208001, 33.376873799 ], [ -88.204972103, 33.376529694 ], [ -88.205708705, 33.375956498 ], [ -88.206063606, 33.375818796 ], [ -88.206309207, 33.375772893 ], [ -88.206636705, 33.375658095 ], [ -88.207127802, 33.375268295 ], [ -88.207537204, 33.375130594 ], [ -88.208055802, 33.375038594 ], [ -88.209065504, 33.374488197 ], [ -88.210348703, 33.374418497 ], [ -88.210976705, 33.374440998 ], [ -88.211167902, 33.374555394 ], [ -88.211332105, 33.374875896 ], [ -88.211496003, 33.375013299 ], [ -88.211878203, 33.375012994 ], [ -88.212151103, 33.3748753 ], [ -88.212287501, 33.374737799 ], [ -88.212505504, 33.374371096 ], [ -88.212832905, 33.374141797 ], [ -88.2133516, 33.374072693 ], [ -88.213706501, 33.374164097 ], [ -88.214171402, 33.374644794 ], [ -88.2142535, 33.3749654 ], [ -88.214308202, 33.375011198 ], [ -88.214554004, 33.375010997 ], [ -88.214663103, 33.374965094 ], [ -88.214935906, 33.374667093 ], [ -88.214990206, 33.374437995 ], [ -88.215153702, 33.374208897 ], [ -88.215317406, 33.374117099 ], [ -88.215890802, 33.3741166 ], [ -88.216464601, 33.374505699 ], [ -88.216819502, 33.374505393 ], [ -88.2169559, 33.374436595 ], [ -88.217119403, 33.3742074 ], [ -88.217146605, 33.374001198 ], [ -88.217282802, 33.373726197 ], [ -88.217391804, 33.373611599 ], [ -88.217801303, 33.373542599 ], [ -88.218429707, 33.373977296 ], [ -88.218812503, 33.374526799 ] ] } },
{ "type": "Feature", "properties": { "site_no": "02443730", "nhdplus_comid": "18629430", "navigation_mode": "DM", "requested_distance_km": 12.0, "start_source": "nwissite", "start_id": "USGS-02443730", "geometry_length_km": 0.98170806167466862 }, "geometry": { "type": "LineString", "coordinates": [ [ -88.218812503, 33.374526799 ], [ -88.219386004, 33.374572098 ], [ -88.219795607, 33.374548897 ], [ -88.220150203, 33.374296695 ], [ -88.2202591, 33.374090396 ], [ -88.220176503, 33.373494893 ], [ -88.220285602, 33.373311497 ], [ -88.221294902, 33.372531898 ], [ -88.221512705, 33.372073598 ], [ -88.221430503, 33.371798798 ], [ -88.221266501, 33.371592797 ], [ -88.221266203, 33.371317893 ], [ -88.2215112, 33.370767899 ], [ -88.221702002, 33.370538697 ], [ -88.222166203, 33.370492496 ], [ -88.222848907, 33.370698094 ], [ -88.223831706, 33.370697297 ], [ -88.2241868, 33.370880298 ], [ -88.224350907, 33.371154994 ], [ -88.224569701, 33.371338099 ], [ -88.225224905, 33.371337496 ] ] } },
{ "type": "Feature", "properties": { "site_no": "02443730", "nhdplus_comid": "18629426", "navigation_mode": "DM", "requested_distance_km": 12.0, "start_source": "nwissite", "start_id": "USGS-02443730", "geometry_length_km": 0.51432417046209533 }, "geometry": { "type": "LineString", "coordinates": [ [ -88.225224905, 33.371337496 ], [ -88.226425804, 33.371084496 ], [ -88.228446104, 33.371036999 ], [ -88.230739206, 33.3708518 ] ] } },
{ "type": "Feature", "properties": { "site_no": "02443730", "nhdplus_comid": "18629446", "navigation_mode": "DM", "requested_distance_km": 12.0, "start_source": "nwissite", "start_id": "USGS-02443730", "geometry_length_km": 1.2574520469937307 }, "geometry": { "type": "LineString", "coordinates": [ [ -88.230739206, 33.3708518 ], [ -88.230848402, 33.370782994 ], [ -88.231148303, 33.370507799 ], [ -88.231503002, 33.370301396 ], [ -88.232458301, 33.3702318 ], [ -88.233277403, 33.370276898 ], [ -88.233741201, 33.369978696 ], [ -88.234177701, 33.369794995 ], [ -88.234751105, 33.369748697 ], [ -88.235625006, 33.370022796 ], [ -88.237017304, 33.369952798 ], [ -88.237344705, 33.369815096 ], [ -88.237780705, 33.369196199 ], [ -88.238435507, 33.368920699 ], [ -88.238790005, 33.368553795 ], [ -88.239608906, 33.368484296 ], [ -88.240837701, 33.368712194 ], [ -88.241028704, 33.368574597 ], [ -88.241055407, 33.368139394 ], [ -88.241137102, 33.367978893 ], [ -88.241436802, 33.367589198 ], [ -88.241709605, 33.367451496 ], [ -88.242037103, 33.367382497 ] ] } },
{ "type": "Feature", "properties": { "site_no": "02443730", "nhdplus_comid": "18629462", "navigation_mode": "DM", "requested_distance_km": 12.0, "start_source": "nwissite", "start_id": "USGS-02443730", "geometry_length_km": 0.28622789360248962 }, "geometry": { "type": "LineString", "coordinates": [ [ -88.242037103, 33.367382497 ], [ -88.242173404, 33.367290698 ], [ -88.242391601, 33.367061399 ], [ -88.242309101, 33.366694994 ], [ -88.242144801, 33.366282798 ], [ -88.242062606, 33.366030894 ], [ -88.242035002, 33.365916394 ], [ -88.241951905, 33.364977397 ] ] } }
]
}
