{
"type": "FeatureCollection",
"name": "USGS_02437800_UM_12km",
"crs": { "type": "name", "properties": { "name": "urn:ogc:def:crs:OGC:1.3:CRS84" } },
"features": [
{ "type": "Feature", "properties": { "site_no": "02437800", "nhdplus_comid": "18670524", "navigation_mode": "UM", "requested_distance_km": 12.0, "start_source": "nwissite", "start_id": "USGS-02437800", "geometry_length_km": 3.4061140452793786 }, "geometry": { "type": "LineString", "coordinates": [ [ -87.785534702, 34.186660498 ], [ -87.785535, 34.186339796 ], [ -87.786032103, 34.185332298 ], [ -87.786501102, 34.184897497 ], [ -87.787025101, 34.184622899 ], [ -87.787135504, 34.184439793 ], [ -87.787550002, 34.183294795 ], [ -87.787660904, 34.182630599 ], [ -87.7879925, 34.181806095 ], [ -87.788020201, 34.181577094 ], [ -87.787910201, 34.181416497 ], [ -87.787883006, 34.180958495 ], [ -87.787662804, 34.180752099 ], [ -87.785954401, 34.180246994 ], [ -87.785486303, 34.179880194 ], [ -87.785321303, 34.179467797 ], [ -87.785266802, 34.178757697 ], [ -87.785405107, 34.178185098 ], [ -87.7855983, 34.177956194 ], [ -87.786149606, 34.177933693 ], [ -87.786865905, 34.178094499 ], [ -87.7881613, 34.178118296 ], [ -87.7886023, 34.1780499 ], [ -87.789071202, 34.177660793 ], [ -87.789292105, 34.177179895 ], [ -87.789293006, 34.176286593 ], [ -87.789017707, 34.176080197 ], [ -87.788494006, 34.176034093 ], [ -87.7879427, 34.176194094 ], [ -87.786867701, 34.176330797 ], [ -87.786454402, 34.176238894 ], [ -87.786261603, 34.176101193 ], [ -87.786151603, 34.175826296 ], [ -87.786152504, 34.1749788 ], [ -87.786263101, 34.174658194 ], [ -87.786649205, 34.1743607 ], [ -87.787117705, 34.174292296 ], [ -87.787420906, 34.174384095 ], [ -87.787751205, 34.174682096 ], [ -87.788440205, 34.174751297 ], [ -87.788743407, 34.174659893 ], [ -87.7891296, 34.174202099 ], [ -87.789130203, 34.173560694 ], [ -87.7889928, 34.173239894 ], [ -87.787285902, 34.171406098 ], [ -87.786873706, 34.170123093 ], [ -87.7868191, 34.169642098 ], [ -87.786654204, 34.1692525 ], [ -87.786682203, 34.168657094 ], [ -87.787318103, 34.166572995 ], [ -87.787446256, 34.16645481 ] ] } },
{ "type": "Feature", "properties": { "site_no": "02437800", "nhdplus_comid": "18669854", "navigation_mode": "UM", "requested_distance_km": 12.0, "start_source": "nwissite", "start_id": "USGS-02437800", "geometry_length_km": 2.0292659612762307 }, "geometry": { "type": "LineString", "coordinates": [ [ -87.790814802, 34.199789293 ], [ -87.790980704, 34.199239694 ], [ -87.790870607, 34.199010499 ], [ -87.791064106, 34.198392197 ], [ -87.791037105, 34.197682194 ], [ -87.791285701, 34.197178297 ], [ -87.7913137, 34.196834698 ], [ -87.790983304, 34.196353495 ], [ -87.790873505, 34.195780694 ], [ -87.7907359, 34.1955745 ], [ -87.7898544, 34.194909595 ], [ -87.789496601, 34.194382496 ], [ -87.789359204, 34.193809897 ], [ -87.788946405, 34.1930307 ], [ -87.788368002, 34.192549296 ], [ -87.787982605, 34.1920681 ], [ -87.787955306, 34.191747397 ], [ -87.788370006, 34.190602399 ], [ -87.788590707, 34.190419197 ], [ -87.789197102, 34.190350898 ], [ -87.790299505, 34.190580696 ], [ -87.790575303, 34.1904663 ], [ -87.790630504, 34.190328993 ], [ -87.790548004, 34.1901685 ], [ -87.790107302, 34.189778894 ], [ -87.789363302, 34.1895492 ], [ -87.789032802, 34.189274095 ], [ -87.7879031, 34.188609198 ], [ -87.786470406, 34.188104197 ], [ -87.786057301, 34.187691696 ], [ -87.785892203, 34.187416695 ], [ -87.785864905, 34.187118895 ], [ -87.785782203, 34.187095895 ], [ -87.785782404, 34.186935499 ], [ -87.785534702, 34.186660498 ] ] } },
{ "type": "Feature", "properties": { "site_no": "02437800", "nhdplus_comid": "18669788", "navigation_mode": "UM", "requested_distance_km": 12.0, "start_source": "nwissite", "start_id": "USGS-02437800", "geometry_length_km": 1.4647758142057612 }, "geometry": { "type": "LineString", "coordinates": [ [ -87.787966505, 34.209018394 ], [ -87.7880219, 34.208651997 ], [ -87.7884361, 34.207988098 ], [ -87.788767107, 34.207805 ], [ -87.789318502, 34.207805395 ], [ -87.7895668, 34.207736798 ], [ -87.789594904, 34.207072593 ], [ -87.789816104, 34.206477195 ], [ -87.790036805, 34.206294 ], [ -87.790781304, 34.206179999 ], [ -87.791249901, 34.206294894 ], [ -87.791580804, 34.2062952 ], [ -87.791911706, 34.2060434 ], [ -87.792050004, 34.205699794 ], [ -87.792795002, 34.204944395 ], [ -87.792850606, 34.204371795 ], [ -87.792713001, 34.204165496 ], [ -87.791583203, 34.203569293 ], [ -87.791501001, 34.203042395 ], [ -87.7909225, 34.2025152 ], [ -87.790316604, 34.201758899 ], [ -87.789986901, 34.200567596 ], [ -87.790097602, 34.200178295 ], [ -87.790346101, 34.199834898 ], [ -87.790814802, 34.199789293 ] ] } },
{ "type": "Feature", "properties": { "site_no": "02437800", "nhdplus_comid": "18669754", "navigation_mode": "UM", "requested_distance_km": 12.0, "start_source": "nwissite", "start_id": "USGS-02437800", "geometry_length_km": 0.7158858131642869 }, "geometry": { "type": "LineString", "coordinates": [ [ -87.782448702, 34.212610893 ], [ -87.783800207, 34.212153696 ], [ -87.785179004, 34.211971395 ], [ -87.786144406, 34.211422399 ], [ -87.787220202, 34.210988 ], [ -87.787661806, 34.210530199 ], [ -87.787689805, 34.210026197 ], [ -87.787883505, 34.209224597 ], [ -87.787966505, 34.209018394 ] ] } },
{ "type": "Feature", "properties": { "site_no": "02437800", "nhdplus_comid": "18669736", "navigation_mode": "UM", "requested_distance_km": 12.0, "start_source": "nwissite", "start_id": "USGS-02437800", "geometry_length_km": 3.1736747396898606 }, "geometry": { "type": "LineString", "coordinates": [ [ -87.772907406, 34.238327093 ], [ -87.773377404, 34.237296693 ], [ -87.774233505, 34.2363583 ], [ -87.774454601, 34.235877395 ], [ -87.774317503, 34.235098496 ], [ -87.774318703, 34.234090596 ], [ -87.774622604, 34.233632699 ], [ -87.775146902, 34.233335398 ], [ -87.776002206, 34.233061194 ], [ -87.776361004, 34.232717797 ], [ -87.776444301, 34.232168198 ], [ -87.7778522, 34.230932295 ], [ -87.777990401, 34.230680496 ], [ -87.778156504, 34.229947597 ], [ -87.7780191, 34.229489394 ], [ -87.777771302, 34.229099795 ], [ -87.777772002, 34.2284813 ], [ -87.778242007, 34.227359295 ], [ -87.778877303, 34.226443499 ], [ -87.779899806, 34.224382699 ], [ -87.779900305, 34.223787099 ], [ -87.779570207, 34.223076895 ], [ -87.779571101, 34.222229294 ], [ -87.779737607, 34.221267395 ], [ -87.780263305, 34.2194582 ], [ -87.780513406, 34.217625894 ], [ -87.780762002, 34.217236698 ], [ -87.781093001, 34.217053697 ], [ -87.781673104, 34.216160797 ], [ -87.782281101, 34.214672193 ], [ -87.782420106, 34.2134813 ], [ -87.782503001, 34.213343896 ], [ -87.782448702, 34.212610893 ] ] } }
]
}
