{
"type": "FeatureCollection",
"name": "USGS_02445500_DM_12km",
"crs": { "type": "name", "properties": { "name": "urn:ogc:def:crs:OGC:1.3:CRS84" } },
"features": [
{ "type": "Feature", "properties": { "site_no": "02445500", "nhdplus_comid": "18614854", "navigation_mode": "DM", "requested_distance_km": 12.0, "start_source": "nwissite", "start_id": "USGS-02445500", "geometry_length_km": 2.4648637036325436 }, "geometry": { "type": "LineString", "coordinates": [ [ -87.815870961, 33.669680276 ], [ -87.8178159, 33.669009 ], [ -87.818364404, 33.668253295 ], [ -87.818638407, 33.668253399 ], [ -87.819076501, 33.6685744 ], [ -87.819432601, 33.668643199 ], [ -87.820035607, 33.668345697 ], [ -87.820638701, 33.667567 ], [ -87.821050406, 33.666375898 ], [ -87.820996702, 33.6643143 ], [ -87.820860103, 33.663810194 ], [ -87.820504405, 33.663145795 ], [ -87.8201757, 33.662756197 ], [ -87.820039004, 33.662275098 ], [ -87.819903307, 33.660190493 ], [ -87.820370905, 33.656891897 ], [ -87.820645206, 33.656342193 ], [ -87.820700206, 33.655884199 ], [ -87.819933906, 33.654532097 ], [ -87.819359407, 33.653386593 ], [ -87.819250301, 33.652584694 ], [ -87.818593606, 33.651530594 ], [ -87.818538904, 33.6513016 ] ] } },
{ "type": "Feature", "properties": { "site_no": "02445500", "nhdplus_comid": "18614660", "navigation_mode": "DM", "requested_distance_km": 12.0, "start_source": "nwissite", "start_id": "USGS-02445500", "geometry_length_km": 0.54478974676729497 }, "geometry": { "type": "LineString", "coordinates": [ [ -87.818538904, 33.6513016 ], [ -87.817525901, 33.650659695 ], [ -87.817115106, 33.650247194 ], [ -87.817005701, 33.649972297 ], [ -87.816868901, 33.649857596 ], [ -87.816567905, 33.649284795 ], [ -87.816102803, 33.648437098 ], [ -87.816048205, 33.648162097 ], [ -87.815884002, 33.647955894 ], [ -87.815665305, 33.647314399 ], [ -87.815555707, 33.6472914 ] ] } },
{ "type": "Feature", "properties": { "site_no": "02445500", "nhdplus_comid": "18614662", "navigation_mode": "DM", "requested_distance_km": 12.0, "start_source": "nwissite", "start_id": "USGS-02445500", "geometry_length_km": 0.070731738259646668 }, "geometry": { "type": "LineString", "coordinates": [ [ -87.815555707, 33.6472914 ], [ -87.815391801, 33.6466728 ] ] } },
{ "type": "Feature", "properties": { "site_no": "02445500", "nhdplus_comid": "18614678", "navigation_mode": "DM", "requested_distance_km": 12.0, "start_source": "nwissite", "start_id": "USGS-02445500", "geometry_length_km": 1.9147724877936203 }, "geometry": { "type": "LineString", "coordinates": [ [ -87.815391801, 33.6466728 ], [ -87.815254904, 33.646695696 ], [ -87.814899102, 33.646214396 ], [ -87.814789705, 33.645962395 ], [ -87.814598203, 33.645549998 ], [ -87.8142699, 33.6449771 ], [ -87.8137509, 33.642754793 ], [ -87.8137246, 33.641219899 ], [ -87.813971803, 33.640028797 ], [ -87.814136505, 33.639593594 ], [ -87.814602502, 33.638929494 ], [ -87.815041006, 33.638517395 ], [ -87.815178104, 33.638150893 ], [ -87.814959407, 33.637623899 ], [ -87.8146035, 33.637302995 ], [ -87.813097306, 33.6372336 ], [ -87.812960304, 33.6370961 ], [ -87.812960707, 33.636752494 ], [ -87.8130977, 33.636431895 ], [ -87.813453905, 33.636271596 ], [ -87.813974306, 33.6362032 ], [ -87.8149601, 33.636455595 ], [ -87.8151244, 33.636386998 ], [ -87.815124504, 33.636226594 ], [ -87.814905502, 33.636043295 ], [ -87.814467505, 33.635813996 ], [ -87.812852107, 33.635240495 ], [ -87.8125237, 33.634988397 ], [ -87.812633507, 33.634576097 ] ] } },
{ "type": "Feature", "properties": { "site_no": "02445500", "nhdplus_comid": "18614698", "navigation_mode": "DM", "requested_distance_km": 12.0, "start_source": "nwissite", "start_id": "USGS-02445500", "geometry_length_km": 3.6036414492406768 }, "geometry": { "type": "LineString", "coordinates": [ [ -87.812633507, 33.634576097 ], [ -87.813236006, 33.634507693 ], [ -87.813728906, 33.634599499 ], [ -87.814386107, 33.634599797 ], [ -87.814550504, 33.634462498 ], [ -87.814578205, 33.634210497 ], [ -87.814414002, 33.633912593 ], [ -87.814058207, 33.633545898 ], [ -87.813702203, 33.633522898 ], [ -87.812743403, 33.633957699 ], [ -87.812524505, 33.633842997 ], [ -87.812552102, 33.633476496 ], [ -87.8139221, 33.632423297 ], [ -87.814031705, 33.632240199 ], [ -87.814059302, 33.631919399 ], [ -87.813977301, 33.631804898 ], [ -87.813648701, 33.631667294 ], [ -87.813292705, 33.631621294 ], [ -87.812334001, 33.631781198 ], [ -87.812032901, 33.631712295 ], [ -87.811896004, 33.631506093 ], [ -87.811896503, 33.630910397 ], [ -87.812061302, 33.6302462 ], [ -87.812089503, 33.629009195 ], [ -87.812199101, 33.628894694 ], [ -87.813185006, 33.628803596 ], [ -87.813322, 33.628711998 ], [ -87.813322105, 33.628597498 ], [ -87.812993601, 33.628345296 ], [ -87.812227003, 33.6281159 ], [ -87.812227301, 33.627863899 ], [ -87.8129398, 33.626947895 ], [ -87.812967502, 33.626512595 ], [ -87.812721305, 33.626168795 ], [ -87.812721506, 33.625733599 ], [ -87.813050203, 33.625687897 ], [ -87.813761801, 33.626329795 ], [ -87.814035505, 33.626421496 ], [ -87.8143095, 33.626238495 ], [ -87.814611003, 33.625688694 ], [ -87.8152683, 33.625666194 ], [ -87.815487407, 33.625574596 ], [ -87.815761507, 33.625116594 ], [ -87.815844305, 33.624200299 ], [ -87.815981202, 33.624154598 ], [ -87.816473901, 33.624498397 ], [ -87.816693, 33.624475598 ], [ -87.816857405, 33.624338195 ], [ -87.8169396, 33.624086298 ], [ -87.816885501, 33.623101197 ], [ -87.816694006, 33.622917898 ], [ -87.815680906, 33.622756995 ], [ -87.815516703, 33.622642294 ], [ -87.815516807, 33.622367397 ], [ -87.815653905, 33.622252993 ], [ -87.816174202, 33.622138694 ], [ -87.816749103, 33.622390993 ], [ -87.817187205, 33.622391194 ], [ -87.817214705, 33.622184999 ], [ -87.815873802, 33.620809898 ], [ -87.815572903, 33.620351598 ], [ -87.814916104, 33.6197557 ], [ -87.814368606, 33.619640797 ], [ -87.813903205, 33.619480297 ], [ -87.813876003, 33.6190909 ], [ -87.814095303, 33.618815996 ], [ -87.814478807, 33.618655898 ], [ -87.8148074, 33.618633099 ], [ -87.815382205, 33.618839599 ], [ -87.815929703, 33.618931495 ] ] } },
{ "type": "Feature", "properties": { "site_no": "02445500", "nhdplus_comid": "18614860", "navigation_mode": "DM", "requested_distance_km": 12.0, "start_source": "nwissite", "start_id": "USGS-02445500", "geometry_length_km": 4.2851828333438382 }, "geometry": { "type": "LineString", "coordinates": [ [ -87.815929703, 33.618931495 ], [ -87.8159573, 33.618702397 ], [ -87.815711007, 33.618473195 ], [ -87.813986301, 33.618014194 ], [ -87.813219905, 33.617647298 ], [ -87.8126726, 33.617211796 ], [ -87.811988503, 33.616363898 ], [ -87.811988801, 33.615974396 ], [ -87.8123722, 33.615951695 ], [ -87.813220501, 33.616501994 ], [ -87.813658707, 33.616433494 ], [ -87.813960202, 33.6162045 ], [ -87.814015105, 33.615860894 ], [ -87.813549906, 33.615448393 ], [ -87.812345207, 33.6153332 ], [ -87.812044106, 33.615195595 ], [ -87.812044404, 33.614760399 ], [ -87.812482804, 33.614325397 ], [ -87.813057907, 33.614073694 ], [ -87.8132497, 33.613867596 ], [ -87.813250005, 33.6134094 ], [ -87.812784806, 33.613111399 ], [ -87.811990902, 33.612973496 ], [ -87.811908804, 33.612835996 ], [ -87.812018603, 33.612515397 ], [ -87.812347405, 33.612149097 ], [ -87.812374905, 33.611965798 ], [ -87.812183306, 33.611828193 ], [ -87.811334506, 33.611942299 ], [ -87.811006203, 33.611552797 ], [ -87.810897, 33.610888295 ], [ -87.810980201, 33.609490998 ], [ -87.811172001, 33.609353594 ], [ -87.811692201, 33.609262198 ], [ -87.812075302, 33.609560199 ], [ -87.812430903, 33.610247694 ], [ -87.812677205, 33.610408194 ], [ -87.812923603, 33.610454097 ], [ -87.813307002, 33.610248096 ], [ -87.813416705, 33.609789997 ], [ -87.813252702, 33.609492093 ], [ -87.812897004, 33.609125495 ], [ -87.812075906, 33.608689696 ], [ -87.810269304, 33.608230598 ], [ -87.810269907, 33.607405998 ], [ -87.809859402, 33.6071309 ], [ -87.8094761, 33.607107796 ], [ -87.809175007, 33.607199199 ], [ -87.808873706, 33.607405193 ], [ -87.808545001, 33.607496694 ], [ -87.8084905, 33.607221797 ], [ -87.808792107, 33.606603399 ], [ -87.808847107, 33.606236897 ], [ -87.808683105, 33.605938993 ], [ -87.808628604, 33.605572499 ], [ -87.808464505, 33.6052517 ], [ -87.808464907, 33.604610197 ], [ -87.808739007, 33.604289696 ], [ -87.808739103, 33.604037695 ], [ -87.808438003, 33.604014598 ], [ -87.807890303, 33.604289293 ], [ -87.807753205, 33.6044496 ], [ -87.807616003, 33.604976393 ], [ -87.807122901, 33.6053655 ], [ -87.806712203, 33.605479799 ], [ -87.805671804, 33.605570897 ], [ -87.804822907, 33.605822399 ], [ -87.804494306, 33.605845094 ], [ -87.804302901, 33.605570197 ], [ -87.804303303, 33.605043299 ], [ -87.804522701, 33.604608096 ], [ -87.804522805, 33.604516499 ], [ -87.804824203, 33.604195997 ], [ -87.804879107, 33.603921093 ], [ -87.804331504, 33.603943698 ], [ -87.803920701, 33.604241297 ], [ -87.803756006, 33.604813896 ], [ -87.803372703, 33.6049053 ], [ -87.802907303, 33.604790494 ], [ -87.8023872, 33.6047673 ] ] } }
]
}
