{
"type": "FeatureCollection",
"name": "USGS_02448500_DM_12km",
"crs": { "type": "name", "properties": { "name": "urn:ogc:def:crs:OGC:1.3:CRS84" } },
"features": [
{ "type": "Feature", "properties": { "site_no": "02448500", "nhdplus_comid": "18604126", "navigation_mode": "DM", "requested_distance_km": 12.0, "start_source": "nwissite", "start_id": "USGS-02448500", "geometry_length_km": 0.19575511439062632 }, "geometry": { "type": "LineString", "coordinates": [ [ -88.297792538, 32.932603411 ], [ -88.297319606, 32.932603098 ], [ -88.296695001, 32.932419397 ], [ -88.295961402, 32.932625197 ], [ -88.295798302, 32.932716697 ] ] } },
{ "type": "Feature", "properties": { "site_no": "02448500", "nhdplus_comid": "18604196", "navigation_mode": "DM", "requested_distance_km": 12.0, "start_source": "nwissite", "start_id": "USGS-02448500", "geometry_length_km": 2.3973182575141943 }, "geometry": { "type": "LineString", "coordinates": [ [ -88.295798302, 32.932716697 ], [ -88.295092002, 32.932716399 ], [ -88.2943855, 32.932830498 ], [ -88.293815106, 32.932830095 ], [ -88.2933264, 32.932554893 ], [ -88.292267606, 32.9317296 ], [ -88.291425802, 32.931385495 ], [ -88.291154303, 32.9311563 ], [ -88.2909372, 32.930881195 ], [ -88.290937804, 32.9302627 ], [ -88.291155502, 32.929804698 ], [ -88.291346006, 32.929392397 ], [ -88.291699901, 32.928522095 ], [ -88.291727707, 32.927766196 ], [ -88.291565202, 32.927262194 ], [ -88.290289603, 32.925932594 ], [ -88.290208302, 32.925749294 ], [ -88.290099807, 32.925588794 ], [ -88.289883003, 32.924993098 ], [ -88.289856903, 32.923847698 ], [ -88.289748304, 32.923755996 ], [ -88.288851902, 32.923709594 ], [ -88.288390405, 32.923525997 ], [ -88.287386104, 32.922700696 ], [ -88.287033506, 32.9222195 ], [ -88.2867622, 32.921783999 ], [ -88.2865455, 32.920981996 ], [ -88.286518902, 32.920455195 ], [ -88.286600702, 32.920065798 ], [ -88.2867641, 32.919699393 ], [ -88.2871994, 32.918829195 ], [ -88.287389904, 32.9185315 ], [ -88.287661701, 32.918233797 ], [ -88.288014904, 32.918050796 ], [ -88.289563604, 32.917456195 ] ] } },
{ "type": "Feature", "properties": { "site_no": "02448500", "nhdplus_comid": "18604230", "navigation_mode": "DM", "requested_distance_km": 12.0, "start_source": "nwissite", "start_id": "USGS-02448500", "geometry_length_km": 0.61124937734167317 }, "geometry": { "type": "LineString", "coordinates": [ [ -88.289563604, 32.917456195 ], [ -88.289509803, 32.916906297 ], [ -88.289374202, 32.916585393 ], [ -88.289211504, 32.916287594 ], [ -88.289211601, 32.916218795 ], [ -88.288859107, 32.915622994 ], [ -88.288289405, 32.914889596 ], [ -88.288262405, 32.914774999 ], [ -88.287611105, 32.914087296 ], [ -88.286362804, 32.912918299 ], [ -88.286335804, 32.912826493 ] ] } },
{ "type": "Feature", "properties": { "site_no": "02448500", "nhdplus_comid": "18604262", "navigation_mode": "DM", "requested_distance_km": 12.0, "start_source": "nwissite", "start_id": "USGS-02448500", "geometry_length_km": 1.7640736298857163 }, "geometry": { "type": "LineString", "coordinates": [ [ -88.286335804, 32.912826493 ], [ -88.285060205, 32.911771894 ], [ -88.283920303, 32.911015294 ], [ -88.281721704, 32.909822397 ], [ -88.279875703, 32.908950597 ], [ -88.279170103, 32.908537798 ], [ -88.278356001, 32.907872796 ], [ -88.277786501, 32.907047696 ], [ -88.277570106, 32.906222798 ], [ -88.277326502, 32.905512497 ], [ -88.276974, 32.904916696 ], [ -88.276485607, 32.904480994 ], [ -88.275725402, 32.904251397 ], [ -88.274069004, 32.9041356 ], [ -88.273716107, 32.9040666 ], [ -88.273037404, 32.903859898 ], [ -88.272467606, 32.903470099 ], [ -88.272413306, 32.903378196 ] ] } },
{ "type": "Feature", "properties": { "site_no": "02448500", "nhdplus_comid": "18604328", "navigation_mode": "DM", "requested_distance_km": 12.0, "start_source": "nwissite", "start_id": "USGS-02448500", "geometry_length_km": 2.8487896847445269 }, "geometry": { "type": "LineString", "coordinates": [ [ -88.272413306, 32.903378196 ], [ -88.272142, 32.903194696 ], [ -88.271762401, 32.902644694 ], [ -88.271356001, 32.901659295 ], [ -88.271248706, 32.900422193 ], [ -88.271140702, 32.899940997 ], [ -88.270815507, 32.899322197 ], [ -88.270544305, 32.899024293 ], [ -88.270001702, 32.898611493 ], [ -88.269051701, 32.898198396 ], [ -88.266798407, 32.8976468 ], [ -88.265794203, 32.897210598 ], [ -88.265305907, 32.896820799 ], [ -88.264953502, 32.896316499 ], [ -88.264791004, 32.895972699 ], [ -88.264709905, 32.895583197 ], [ -88.264628604, 32.895560198 ], [ -88.264249705, 32.894437395 ], [ -88.264195405, 32.894391499 ], [ -88.264168404, 32.894299895 ], [ -88.263707705, 32.893474795 ], [ -88.263138302, 32.892786995 ], [ -88.262324601, 32.892076194 ], [ -88.261564806, 32.891617395 ], [ -88.260642007, 32.891364597 ], [ -88.2598546, 32.891340896 ], [ -88.257355705, 32.892003097 ], [ -88.255807102, 32.892666094 ], [ -88.255127601, 32.893123597 ], [ -88.254475303, 32.893672794 ], [ -88.254094504, 32.894130595 ], [ -88.253713802, 32.894519694 ], [ -88.253279001, 32.8947713 ], [ -88.252545804, 32.894885093 ], [ -88.251623005, 32.894563496 ] ] } },
{ "type": "Feature", "properties": { "site_no": "02448500", "nhdplus_comid": "18605028", "navigation_mode": "DM", "requested_distance_km": 12.0, "start_source": "nwissite", "start_id": "USGS-02448500", "geometry_length_km": 2.144568567194209 }, "geometry": { "type": "LineString", "coordinates": [ [ -88.251623005, 32.894563496 ], [ -88.251324601, 32.894379996 ], [ -88.250510901, 32.893691994 ], [ -88.250294201, 32.893256493 ], [ -88.250042006, 32.893018797 ], [ -88.249661103, 32.892560996 ], [ -88.249334, 32.8917595 ], [ -88.249170005, 32.890980698 ], [ -88.249033406, 32.890430994 ], [ -88.248434901, 32.889606893 ], [ -88.246993802, 32.888256796 ], [ -88.246558607, 32.887707397 ], [ -88.246368006, 32.887272395 ], [ -88.246231504, 32.886745699 ], [ -88.246176206, 32.886058494 ], [ -88.246338405, 32.885554299 ], [ -88.246582001, 32.885004297 ], [ -88.2470157, 32.8844769 ], [ -88.247259602, 32.884247594 ], [ -88.247937106, 32.883353494 ], [ -88.248262003, 32.8827575 ], [ -88.248233102, 32.881520398 ], [ -88.248014502, 32.880558394 ], [ -88.247986406, 32.879802495 ], [ -88.248094402, 32.879412994 ], [ -88.248878807, 32.877373397 ] ] } },
{ "type": "Feature", "properties": { "site_no": "02448500", "nhdplus_comid": "18604462", "navigation_mode": "DM", "requested_distance_km": 12.0, "start_source": "nwissite", "start_id": "USGS-02448500", "geometry_length_km": 3.9733926012256853 }, "geometry": { "type": "LineString", "coordinates": [ [ -88.248878807, 32.877373397 ], [ -88.248877905, 32.876754798 ], [ -88.248633005, 32.876365595 ], [ -88.248170905, 32.876045294 ], [ -88.247627705, 32.875908397 ], [ -88.246976301, 32.875909097 ], [ -88.246080801, 32.876230694 ], [ -88.244046301, 32.877378099 ], [ -88.243693307, 32.877401397 ], [ -88.243421502, 32.877149694 ], [ -88.243394002, 32.876966499 ], [ -88.243339606, 32.876874797 ], [ -88.243257001, 32.876050293 ], [ -88.243473403, 32.875408597 ], [ -88.2435816, 32.8751335 ], [ -88.243662804, 32.874950096 ], [ -88.244529702, 32.8736206 ], [ -88.245885201, 32.872290596 ], [ -88.247512504, 32.871189296 ], [ -88.248163402, 32.870707594 ], [ -88.248542704, 32.8702491 ], [ -88.248541906, 32.869722195 ], [ -88.248297006, 32.869310096 ], [ -88.2477533, 32.868806593 ], [ -88.247400105, 32.868600793 ], [ -88.246368006, 32.8681437 ], [ -88.242918804, 32.866932899 ], [ -88.241615407, 32.866682194 ], [ -88.239579506, 32.866683997 ], [ -88.238711007, 32.866822295 ], [ -88.236567304, 32.867396995 ], [ -88.235318705, 32.867627196 ], [ -88.234884404, 32.867558897 ], [ -88.234096706, 32.867215998 ], [ -88.233199902, 32.8664608 ], [ -88.232683502, 32.865865596 ], [ -88.232193805, 32.865087196 ], [ -88.232193701, 32.865018398 ], [ -88.232112207, 32.8649498 ], [ -88.2320849, 32.864812396 ], [ -88.231894501, 32.864468895 ], [ -88.231866904, 32.864216894 ], [ -88.231758103, 32.863942198 ], [ -88.231676504, 32.863919295 ], [ -88.2315403, 32.863438398 ], [ -88.231376506, 32.862659596 ], [ -88.231293902, 32.861720294 ], [ -88.2316183, 32.860689096 ] ] } }
]
}
