{
"type": "FeatureCollection",
"name": "USGS_02429000_DM_12km",
"crs": { "type": "name", "properties": { "name": "urn:ogc:def:crs:OGC:1.3:CRS84" } },
"features": [
{ "type": "Feature", "properties": { "site_no": "02429000", "nhdplus_comid": "166745596", "navigation_mode": "DM", "requested_distance_km": 12.0, "start_source": "nwissite", "start_id": "USGS-02429000", "geometry_length_km": 0.42839184295715393 }, "geometry": { "type": "LineString", "coordinates": [ [ -87.35133438, 31.561888697 ], [ -87.3518354, 31.561717197 ], [ -87.352370702, 31.561717294 ], [ -87.352879301, 31.561236195 ], [ -87.353200406, 31.561442398 ], [ -87.353521504, 31.561786197 ], [ -87.353548206, 31.561946593 ], [ -87.353735507, 31.5621529 ], [ -87.354029901, 31.562244698 ], [ -87.354993403, 31.562244795 ] ] } },
{ "type": "Feature", "properties": { "site_no": "02429000", "nhdplus_comid": "18239461", "navigation_mode": "DM", "requested_distance_km": 12.0, "start_source": "nwissite", "start_id": "USGS-02429000", "geometry_length_km": 1.1820127542374845 }, "geometry": { "type": "LineString", "coordinates": [ [ -87.354993403, 31.562244795 ], [ -87.355100505, 31.562130295 ], [ -87.355154105, 31.561557293 ], [ -87.355368301, 31.561488599 ], [ -87.356438801, 31.561969995 ], [ -87.357482605, 31.562107593 ], [ -87.357803702, 31.562290996 ], [ -87.3583121, 31.562886894 ], [ -87.359034605, 31.563551597 ], [ -87.359784007, 31.563803799 ], [ -87.360694006, 31.563735098 ], [ -87.361068703, 31.564262196 ], [ -87.361389801, 31.564193495 ], [ -87.362059005, 31.563689396 ], [ -87.362380207, 31.563735299 ], [ -87.362808406, 31.563941598 ], [ -87.363424003, 31.564079098 ], [ -87.364869304, 31.564858399 ] ] } },
{ "type": "Feature", "properties": { "site_no": "02429000", "nhdplus_comid": "18238983", "navigation_mode": "DM", "requested_distance_km": 12.0, "start_source": "nwissite", "start_id": "USGS-02429000", "geometry_length_km": 0.040805839726086542 }, "geometry": { "type": "LineString", "coordinates": [ [ -87.364869304, 31.564858399 ], [ -87.365297504, 31.564904094 ] ] } },
{ "type": "Feature", "properties": { "site_no": "02429000", "nhdplus_comid": "18238997", "navigation_mode": "DM", "requested_distance_km": 12.0, "start_source": "nwissite", "start_id": "USGS-02429000", "geometry_length_km": 1.7637733925484074 }, "geometry": { "type": "LineString", "coordinates": [ [ -87.365297504, 31.564904094 ], [ -87.3657258, 31.565041699 ], [ -87.366234206, 31.565568797 ], [ -87.366662502, 31.565683499 ], [ -87.367010407, 31.565591797 ], [ -87.367652804, 31.565041795 ], [ -87.368188202, 31.564812697 ], [ -87.371748, 31.563987799 ], [ -87.372122705, 31.563621096 ], [ -87.372657903, 31.563414894 ], [ -87.373407304, 31.5628649 ], [ -87.373835601, 31.562841997 ], [ -87.3745315, 31.5634607 ], [ -87.374986403, 31.563414894 ], [ -87.375387907, 31.563208699 ], [ -87.375655606, 31.563369095 ], [ -87.375896402, 31.563368998 ], [ -87.376110606, 31.563162796 ], [ -87.376110606, 31.562612794 ], [ -87.376351401, 31.562498197 ], [ -87.376806401, 31.562727399 ], [ -87.3772614, 31.563094094 ], [ -87.378064401, 31.563368998 ], [ -87.380767606, 31.563941896 ], [ -87.381008506, 31.563941799 ] ] } },
{ "type": "Feature", "properties": { "site_no": "02429000", "nhdplus_comid": "18238987", "navigation_mode": "DM", "requested_distance_km": 12.0, "start_source": "nwissite", "start_id": "USGS-02429000", "geometry_length_km": 4.4183023531901551 }, "geometry": { "type": "LineString", "coordinates": [ [ -87.381008506, 31.563941799 ], [ -87.381490402, 31.564193897 ], [ -87.382266603, 31.564789698 ], [ -87.3828822, 31.565568797 ], [ -87.383176707, 31.565775096 ], [ -87.383551307, 31.565729193 ], [ -87.383952804, 31.565385394 ], [ -87.384755701, 31.565362394 ], [ -87.385184005, 31.564972796 ], [ -87.385478407, 31.564949796 ], [ -87.386013806, 31.565362297 ], [ -87.3865759, 31.5653622 ], [ -87.386656106, 31.565201893 ], [ -87.386441901, 31.564812295 ], [ -87.386522204, 31.5644226 ], [ -87.386763006, 31.564307995 ], [ -87.387084201, 31.564330995 ], [ -87.387726702, 31.564811997 ], [ -87.388422504, 31.564720295 ], [ -87.388609901, 31.564857796 ], [ -87.388824105, 31.565201499 ], [ -87.389118604, 31.565476395 ], [ -87.389493406, 31.565636896 ], [ -87.389734305, 31.565865897 ], [ -87.389868103, 31.566484697 ], [ -87.390055604, 31.566805497 ], [ -87.390296504, 31.566920094 ], [ -87.390537404, 31.566919997 ], [ -87.3915544, 31.566392794 ], [ -87.392330505, 31.566094793 ], [ -87.392919406, 31.566094697 ], [ -87.393187106, 31.566254996 ], [ -87.3932942, 31.566736296 ], [ -87.393428102, 31.566919595 ], [ -87.393883102, 31.566988297 ], [ -87.394097306, 31.567240395 ], [ -87.394150801, 31.567561194 ], [ -87.394311503, 31.567698695 ], [ -87.395087704, 31.567698494 ], [ -87.396265507, 31.568225399 ], [ -87.396345906, 31.568362899 ], [ -87.396372706, 31.568798296 ], [ -87.396506704, 31.568981595 ], [ -87.396720804, 31.569073297 ], [ -87.397764705, 31.569027297 ], [ -87.398326702, 31.568637498 ], [ -87.399397202, 31.5683394 ], [ -87.399316706, 31.567651898 ], [ -87.399504006, 31.567262299 ], [ -87.399878606, 31.567216493 ], [ -87.4002266, 31.567422599 ], [ -87.400467604, 31.567743398 ], [ -87.4005749, 31.5681559 ], [ -87.400869302, 31.568339199 ], [ -87.401592106, 31.568476498 ], [ -87.402127601, 31.569140896 ], [ -87.402555905, 31.569140799 ], [ -87.402689405, 31.568132497 ], [ -87.402876906, 31.568155393 ], [ -87.403385505, 31.568521895 ], [ -87.403626502, 31.569163494 ], [ -87.403921001, 31.569163494 ], [ -87.404161803, 31.568957195 ], [ -87.404027805, 31.568338394 ], [ -87.4040277, 31.567857198 ], [ -87.404161401, 31.567765497 ], [ -87.405954801, 31.568108797 ], [ -87.406570606, 31.568498299 ], [ -87.407186307, 31.568635598 ], [ -87.407694802, 31.568566695 ], [ -87.408577904, 31.568154 ], [ -87.408792004, 31.567970596 ], [ -87.408872105, 31.567603797 ], [ -87.409086205, 31.567443393 ], [ -87.4095679, 31.567259893 ], [ -87.410183303, 31.566778496 ], [ -87.410611607, 31.566778295 ], [ -87.411173604, 31.566571899 ], [ -87.411334001, 31.566205196 ], [ -87.411655106, 31.565838493 ], [ -87.4123509, 31.565700695 ], [ -87.412484705, 31.565540299 ], [ -87.412431106, 31.565265298 ], [ -87.4122703, 31.565013297 ] ] } },
{ "type": "Feature", "properties": { "site_no": "02429000", "nhdplus_comid": "18239493", "navigation_mode": "DM", "requested_distance_km": 12.0, "start_source": "nwissite", "start_id": "USGS-02429000", "geometry_length_km": 3.9043237248046605 }, "geometry": { "type": "LineString", "coordinates": [ [ -87.4122703, 31.565013297 ], [ -87.412243605, 31.564921595 ], [ -87.412725106, 31.564486094 ], [ -87.412885405, 31.563958898 ], [ -87.413313605, 31.563752599 ], [ -87.413768403, 31.563408695 ], [ -87.414116405, 31.5633398 ], [ -87.4148928, 31.563797899 ], [ -87.415187202, 31.563797794 ], [ -87.4155351, 31.563614294 ], [ -87.416685306, 31.562376395 ], [ -87.4173811, 31.562261693 ], [ -87.417943001, 31.562078096 ], [ -87.418290801, 31.561711296 ], [ -87.418451406, 31.561665498 ], [ -87.419013403, 31.561779894 ], [ -87.419254504, 31.561985999 ], [ -87.419388704, 31.562512994 ], [ -87.419522502, 31.562650494 ], [ -87.419763401, 31.562650397 ], [ -87.420994304, 31.562099993 ], [ -87.421154805, 31.561893597 ], [ -87.421181202, 31.561435297 ], [ -87.421288207, 31.5613207 ], [ -87.421743304, 31.561435193 ], [ -87.422171704, 31.561755694 ], [ -87.422733702, 31.561801396 ], [ -87.4228139, 31.561434694 ], [ -87.423135005, 31.561113797 ], [ -87.4257304, 31.559989795 ], [ -87.426211901, 31.559737593 ], [ -87.426880807, 31.559530996 ], [ -87.427951403, 31.559393093 ], [ -87.428888202, 31.5594844 ], [ -87.429664306, 31.559438199 ], [ -87.430119105, 31.559208795 ], [ -87.430252805, 31.559025399 ], [ -87.430386201, 31.558337897 ], [ -87.430573307, 31.558108598 ], [ -87.431028202, 31.557856299 ], [ -87.431376003, 31.557833195 ], [ -87.432125703, 31.558107994 ], [ -87.432446904, 31.558130696 ], [ -87.432714403, 31.557901397 ], [ -87.432767503, 31.557351395 ], [ -87.433035001, 31.557167895 ], [ -87.433383003, 31.557236597 ], [ -87.434614502, 31.5578776 ], [ -87.435631506, 31.558014594 ], [ -87.435952701, 31.557945698 ], [ -87.436113201, 31.557716496 ], [ -87.436085805, 31.556960195 ], [ -87.436273202, 31.556868494 ], [ -87.438547902, 31.556683995 ], [ -87.4391101, 31.557050399 ], [ -87.439377807, 31.557050295 ], [ -87.439565003, 31.556958497 ], [ -87.439564601, 31.556385599 ], [ -87.439484201, 31.556316897 ], [ -87.439430401, 31.555812798 ], [ -87.439697906, 31.555721 ], [ -87.4399122, 31.555812597 ], [ -87.4409298, 31.556797497 ], [ -87.441545703, 31.557255298 ], [ -87.442161307, 31.557552896 ], [ -87.442670003, 31.557621397 ] ] } }
]
}
