{
"type": "FeatureCollection",
"name": "USGS_0357591500_UM_12km",
"crs": { "type": "name", "properties": { "name": "urn:ogc:def:crs:OGC:1.3:CRS84" } },
"features": [
{ "type": "Feature", "properties": { "site_no": "0357591500", "nhdplus_comid": "19621338", "navigation_mode": "UM", "requested_distance_km": 12.0, "start_source": "nwissite", "start_id": "USGS-0357591500", "geometry_length_km": 2.5693466325175955 }, "geometry": { "type": "LineString", "coordinates": [ [ -86.630408205, 34.7710739 ], [ -86.630380407, 34.770730399 ], [ -86.629547603, 34.769928798 ], [ -86.629325405, 34.769126996 ], [ -86.628492802, 34.7686003 ], [ -86.628353901, 34.768279694 ], [ -86.627465606, 34.767455094 ], [ -86.627215803, 34.766447298 ], [ -86.627215803, 34.765874699 ], [ -86.627715304, 34.764339894 ], [ -86.627715304, 34.762736596 ], [ -86.627604201, 34.762255594 ], [ -86.627132401, 34.761866197 ], [ -86.626827106, 34.761339396 ], [ -86.6267993, 34.760972895 ], [ -86.626743801, 34.760927096 ], [ -86.626716003, 34.759690195 ], [ -86.626799405, 34.759506993 ], [ -86.626771502, 34.757903598 ], [ -86.626521602, 34.756552294 ], [ -86.626410604, 34.756369099 ], [ -86.626049705, 34.755223699 ], [ -86.626022004, 34.754330397 ], [ -86.6261608, 34.754009694 ], [ -86.626133002, 34.752131499 ], [ -86.626244001, 34.750917599 ], [ -86.626160704, 34.750848897 ], [ -86.626160704, 34.750596896 ], [ -86.625962906, 34.7500844 ], [ -86.625574507, 34.749580495 ], [ -86.625555051, 34.749561377 ] ] } }
]
}
