{
"type": "FeatureCollection",
"name": "USGS_02455000_UM_12km",
"crs": { "type": "name", "properties": { "name": "urn:ogc:def:crs:OGC:1.3:CRS84" } },
"features": [
{ "type": "Feature", "properties": { "site_no": "02455000", "nhdplus_comid": "18563487", "navigation_mode": "UM", "requested_distance_km": 12.0, "start_source": "nwissite", "start_id": "USGS-02455000", "geometry_length_km": 5.8482043444282361 }, "geometry": { "type": "LineString", "coordinates": [ [ -86.5548537, 34.037335299 ], [ -86.555901803, 34.034243293 ], [ -86.557280101, 34.0311286 ], [ -86.559786707, 34.027441896 ], [ -86.559980206, 34.026250698 ], [ -86.561466701, 34.0251977 ], [ -86.563008003, 34.024259299 ], [ -86.563448302, 34.024190798 ], [ -86.563915804, 34.024397098 ], [ -86.564273201, 34.024740994 ], [ -86.564438105, 34.025038995 ], [ -86.564548105, 34.025199398 ], [ -86.564931005, 34.028315 ], [ -86.565342605, 34.029987499 ], [ -86.565809503, 34.031133093 ], [ -86.5665792, 34.032187194 ], [ -86.567184106, 34.032806098 ], [ -86.568202004, 34.033081494 ], [ -86.569385104, 34.033081993 ], [ -86.570321001, 34.032555498 ], [ -86.570871502, 34.032120593 ], [ -86.571725205, 34.030998394 ], [ -86.5721386, 34.029830299 ], [ -86.5727171, 34.028753899 ], [ -86.572772503, 34.028204098 ], [ -86.5725528, 34.027562596 ], [ -86.5717832, 34.026393898 ], [ -86.571288005, 34.026187494 ], [ -86.569417506, 34.025728494 ], [ -86.569060005, 34.025430493 ], [ -86.568812706, 34.025040999 ], [ -86.568675406, 34.0245369 ], [ -86.568484403, 34.022177294 ], [ -86.568485402, 34.020505093 ], [ -86.568568401, 34.019771993 ], [ -86.568788901, 34.019245297 ], [ -86.569449402, 34.018787496 ], [ -86.570329905, 34.018741995 ], [ -86.570989907, 34.019154698 ], [ -86.5725566, 34.021217093 ], [ -86.5726116, 34.021446198 ], [ -86.572775505, 34.023187295 ], [ -86.572913006, 34.0234164 ], [ -86.573407903, 34.023828998 ], [ -86.574480705, 34.0241272 ], [ -86.5752684, 34.024162943 ] ] } },
{ "type": "Feature", "properties": { "site_no": "02455000", "nhdplus_comid": "18563231", "navigation_mode": "UM", "requested_distance_km": 12.0, "start_source": "nwissite", "start_id": "USGS-02455000", "geometry_length_km": 2.9450197716224835 }, "geometry": { "type": "LineString", "coordinates": [ [ -86.542451002, 34.058104895 ], [ -86.543221503, 34.058288693 ], [ -86.543937102, 34.058312096 ], [ -86.544432603, 34.058197893 ], [ -86.545176007, 34.057808995 ], [ -86.546580806, 34.056687295 ], [ -86.547654904, 34.056000799 ], [ -86.550545901, 34.054674 ], [ -86.551812604, 34.053781398 ], [ -86.552832, 34.052567899 ], [ -86.553328201, 34.051560193 ], [ -86.553797401, 34.050048493 ], [ -86.5538809, 34.048880294 ], [ -86.553524204, 34.047551498 ], [ -86.553414904, 34.046680793 ], [ -86.553305, 34.046474598 ], [ -86.553113803, 34.044848099 ], [ -86.553005606, 34.042602994 ], [ -86.553226903, 34.041182794 ], [ -86.553944305, 34.038984098 ], [ -86.554605603, 34.037724599 ], [ -86.5548537, 34.037335299 ] ] } },
{ "type": "Feature", "properties": { "site_no": "02455000", "nhdplus_comid": "18563173", "navigation_mode": "UM", "requested_distance_km": 12.0, "start_source": "nwissite", "start_id": "USGS-02455000", "geometry_length_km": 2.1556595225219182 }, "geometry": { "type": "LineString", "coordinates": [ [ -86.527985305, 34.047945999 ], [ -86.528095402, 34.047969095 ], [ -86.528342701, 34.048312798 ], [ -86.528947502, 34.048817299 ], [ -86.5298554, 34.049115799 ], [ -86.530845903, 34.049299799 ], [ -86.531589001, 34.049231596 ], [ -86.534039304, 34.048363 ], [ -86.535498105, 34.048066296 ], [ -86.536323704, 34.048089795 ], [ -86.537039101, 34.048273593 ], [ -86.537754104, 34.048732296 ], [ -86.538029, 34.0490532 ], [ -86.538468502, 34.049923994 ], [ -86.538741402, 34.052100599 ], [ -86.538878605, 34.0524901 ], [ -86.539208502, 34.052879699 ], [ -86.540693305, 34.054277994 ], [ -86.541352801, 34.055378094 ], [ -86.541627303, 34.056065597 ], [ -86.542093605, 34.057692297 ], [ -86.542451002, 34.058104895 ] ] } }
]
}
