{
"type": "FeatureCollection",
"name": "USGS_02411602_DM_12km",
"crs": { "type": "name", "properties": { "name": "urn:ogc:def:crs:OGC:1.3:CRS84" } },
"features": [
{ "type": "Feature", "properties": { "site_no": "02411602", "nhdplus_comid": "22276106", "navigation_mode": "DM", "requested_distance_km": 12.0, "start_source": "nwissite", "start_id": "USGS-02411602", "geometry_length_km": 6.6912209036208875e-07 }, "geometry": { "type": "LineString", "coordinates": [ [ -86.221856907, 32.5394003 ], [ -86.221856907, 32.539400294 ] ] } },
{ "type": "Feature", "properties": { "site_no": "02411602", "nhdplus_comid": "22276120", "navigation_mode": "DM", "requested_distance_km": 12.0, "start_source": "nwissite", "start_id": "USGS-02411602", "geometry_length_km": 1.665490217608117 }, "geometry": { "type": "LineString", "coordinates": [ [ -86.221856907, 32.539400294 ], [ -86.2216129, 32.538873494 ], [ -86.221206807, 32.538484298 ], [ -86.220963307, 32.538369894 ], [ -86.220367603, 32.537751794 ], [ -86.220123701, 32.537385397 ], [ -86.220096007, 32.536720894 ], [ -86.220203906, 32.5364917 ], [ -86.220690303, 32.5361019 ], [ -86.2247454, 32.534082495 ], [ -86.226366803, 32.532843895 ], [ -86.227960907, 32.531399198 ], [ -86.228988104, 32.5308256 ], [ -86.2294477, 32.530710593 ], [ -86.229825802, 32.530251995 ], [ -86.230013803, 32.529083394 ] ] } },
{ "type": "Feature", "properties": { "site_no": "02411602", "nhdplus_comid": "22276122", "navigation_mode": "DM", "requested_distance_km": 12.0, "start_source": "nwissite", "start_id": "USGS-02411602", "geometry_length_km": 0.80239277115263141 }, "geometry": { "type": "LineString", "coordinates": [ [ -86.230013803, 32.529083394 ], [ -86.230148107, 32.528327197 ], [ -86.231336504, 32.526905693 ], [ -86.232147202, 32.526354998 ], [ -86.232579902, 32.526308797 ], [ -86.233525902, 32.525872596 ], [ -86.233768605, 32.525207996 ], [ -86.2340656, 32.524932794 ], [ -86.234795801, 32.524909295 ], [ -86.235012203, 32.524840295 ], [ -86.235201202, 32.524610996 ], [ -86.235308804, 32.524221398 ] ] } },
{ "type": "Feature", "properties": { "site_no": "02411602", "nhdplus_comid": "22276682", "navigation_mode": "DM", "requested_distance_km": 12.0, "start_source": "nwissite", "start_id": "USGS-02411602", "geometry_length_km": 0.15370172544994049 }, "geometry": { "type": "LineString", "coordinates": [ [ -86.235308804, 32.524221398 ], [ -86.235299803, 32.524115793 ], [ -86.235339202, 32.523971595 ], [ -86.235378601, 32.523827396 ], [ -86.235418104, 32.523683198 ], [ -86.235457502, 32.523538895 ], [ -86.235496901, 32.523394696 ], [ -86.235579103, 32.523338698 ], [ -86.235716105, 32.523245394 ], [ -86.235853203, 32.523151994 ], [ -86.235990204, 32.523058698 ] ] } },
{ "type": "Feature", "properties": { "site_no": "02411602", "nhdplus_comid": "22276688", "navigation_mode": "DM", "requested_distance_km": 12.0, "start_source": "nwissite", "start_id": "USGS-02411602", "geometry_length_km": 1.5486441748566151 }, "geometry": { "type": "LineString", "coordinates": [ [ -86.235990204, 32.523058698 ], [ -86.236319005, 32.522834696 ], [ -86.237079702, 32.522774197 ], [ -86.239017405, 32.5229415 ], [ -86.240091503, 32.522781894 ], [ -86.241880201, 32.522936299 ], [ -86.245817102, 32.522771299 ], [ -86.249872401, 32.522868797 ], [ -86.2523911, 32.523212194 ] ] } },
{ "type": "Feature", "properties": { "site_no": "02411602", "nhdplus_comid": "22276690", "navigation_mode": "DM", "requested_distance_km": 12.0, "start_source": "nwissite", "start_id": "USGS-02411602", "geometry_length_km": 3.0041580035876647 }, "geometry": { "type": "LineString", "coordinates": [ [ -86.2523911, 32.523212194 ], [ -86.2533314, 32.5229147 ], [ -86.256954901, 32.522848397 ], [ -86.258583501, 32.521853 ], [ -86.2586798, 32.519841999 ], [ -86.257866405, 32.517878897 ], [ -86.255360804, 32.513750494 ], [ -86.254058801, 32.510861695 ], [ -86.253738701, 32.508562393 ], [ -86.253907502, 32.5071887 ], [ -86.255417407, 32.505930595 ], [ -86.2575958, 32.505361199 ], [ -86.260170303, 32.505135797 ] ] } },
{ "type": "Feature", "properties": { "site_no": "02411602", "nhdplus_comid": "22276692", "navigation_mode": "DM", "requested_distance_km": 12.0, "start_source": "nwissite", "start_id": "USGS-02411602", "geometry_length_km": 0.21881021834375197 }, "geometry": { "type": "LineString", "coordinates": [ [ -86.260170303, 32.505135797 ], [ -86.261650302, 32.505458198 ], [ -86.262303904, 32.505407497 ], [ -86.262459405, 32.505416699 ] ] } },
{ "type": "Feature", "properties": { "site_no": "02411602", "nhdplus_comid": "22281118", "navigation_mode": "DM", "requested_distance_km": 12.0, "start_source": "nwissite", "start_id": "USGS-02411602", "geometry_length_km": 0.43751697851145971 }, "geometry": { "type": "LineString", "coordinates": [ [ -86.262459405, 32.505416699 ], [ -86.263581507, 32.505482696 ], [ -86.265112005, 32.505715899 ], [ -86.266021505, 32.505668096 ], [ -86.266670302, 32.504933998 ] ] } },
{ "type": "Feature", "properties": { "site_no": "02411602", "nhdplus_comid": "21677900", "navigation_mode": "DM", "requested_distance_km": 12.0, "start_source": "nwissite", "start_id": "USGS-02411602", "geometry_length_km": 1.8568643334233947 }, "geometry": { "type": "LineString", "coordinates": [ [ -86.266670302, 32.504933998 ], [ -86.266720705, 32.506106898 ], [ -86.2685927, 32.508034997 ], [ -86.269292004, 32.508473799 ], [ -86.271317206, 32.509152994 ], [ -86.275161505, 32.5097363 ], [ -86.276590705, 32.510364093 ], [ -86.278180301, 32.512141496 ], [ -86.2779468, 32.515276395 ], [ -86.2775359, 32.515556596 ] ] } },
{ "type": "Feature", "properties": { "site_no": "02411602", "nhdplus_comid": "21697486", "navigation_mode": "DM", "requested_distance_km": 12.0, "start_source": "nwissite", "start_id": "USGS-02411602", "geometry_length_km": 0.90241670370262939 }, "geometry": { "type": "LineString", "coordinates": [ [ -86.2775359, 32.515556596 ], [ -86.276937403, 32.518596999 ], [ -86.277097806, 32.519746698 ], [ -86.277885005, 32.520697795 ], [ -86.278450705, 32.520998798 ], [ -86.280671306, 32.521315999 ], [ -86.280857407, 32.521507598 ] ] } }
]
}
