{
"type": "FeatureCollection",
"name": "USGS_02454500_DM_12km",
"crs": { "type": "name", "properties": { "name": "urn:ogc:def:crs:OGC:1.3:CRS84" } },
"features": [
{ "type": "Feature", "properties": { "site_no": "02454500", "nhdplus_comid": "18563449", "navigation_mode": "DM", "requested_distance_km": 12.0, "start_source": "nwissite", "start_id": "USGS-02454500", "geometry_length_km": 3.2318526924568927 }, "geometry": { "type": "LineString", "coordinates": [ [ -86.386512072, 34.134443585 ], [ -86.386966906, 34.134391993 ], [ -86.388867602, 34.134414695 ], [ -86.390740901, 34.134551995 ], [ -86.392118305, 34.134895399 ], [ -86.392972305, 34.135261796 ], [ -86.393633604, 34.135651194 ], [ -86.394956201, 34.137139998 ], [ -86.395672604, 34.137804195 ], [ -86.396306306, 34.138101898 ], [ -86.398014404, 34.138490997 ], [ -86.398868404, 34.1383534 ], [ -86.400163203, 34.137849197 ], [ -86.400824301, 34.137871996 ], [ -86.401705906, 34.1381239 ], [ -86.401981503, 34.138398699 ], [ -86.402091801, 34.138902597 ], [ -86.402092002, 34.1396356 ], [ -86.401679106, 34.140437499 ], [ -86.400935605, 34.141559996 ], [ -86.399696402, 34.1441717 ], [ -86.3993937, 34.145225495 ], [ -86.399614401, 34.146325 ], [ -86.400496602, 34.148409396 ], [ -86.4018749, 34.150699899 ], [ -86.402233101, 34.151089199 ], [ -86.402729101, 34.151363999 ], [ -86.403142504, 34.151455499 ] ] } },
{ "type": "Feature", "properties": { "site_no": "02454500", "nhdplus_comid": "18562605", "navigation_mode": "DM", "requested_distance_km": 12.0, "start_source": "nwissite", "start_id": "USGS-02454500", "geometry_length_km": 1.0378476129940932 }, "geometry": { "type": "LineString", "coordinates": [ [ -86.403142504, 34.151455499 ], [ -86.403638504, 34.151455395 ], [ -86.4041619, 34.151203297 ], [ -86.404630207, 34.150745094 ], [ -86.405236103, 34.149805695 ], [ -86.4054287, 34.149255797 ], [ -86.405869402, 34.148705997 ], [ -86.406998806, 34.148018494 ], [ -86.407659903, 34.147926696 ], [ -86.409505904, 34.147903398 ], [ -86.411049105, 34.148384094 ], [ -86.412178703, 34.148452394 ] ] } },
{ "type": "Feature", "properties": { "site_no": "02454500", "nhdplus_comid": "18562667", "navigation_mode": "DM", "requested_distance_km": 12.0, "start_source": "nwissite", "start_id": "USGS-02454500", "geometry_length_km": 1.5606517928524599 }, "geometry": { "type": "LineString", "coordinates": [ [ -86.412178703, 34.148452394 ], [ -86.412702203, 34.148223199 ], [ -86.412895001, 34.148016997 ], [ -86.413005002, 34.147696294 ], [ -86.412949607, 34.147123598 ], [ -86.412453502, 34.146528199 ], [ -86.412370704, 34.146322094 ], [ -86.411901101, 34.143367097 ], [ -86.411570005, 34.142084397 ], [ -86.411155902, 34.140022993 ], [ -86.411155105, 34.138098694 ], [ -86.411925204, 34.135097593 ] ] } },
{ "type": "Feature", "properties": { "site_no": "02454500", "nhdplus_comid": "18562703", "navigation_mode": "DM", "requested_distance_km": 12.0, "start_source": "nwissite", "start_id": "USGS-02454500", "geometry_length_km": 1.392239401637428 }, "geometry": { "type": "LineString", "coordinates": [ [ -86.411925204, 34.135097593 ], [ -86.412255406, 34.134158395 ], [ -86.4127784, 34.133241899 ], [ -86.413659506, 34.132233694 ], [ -86.413907304, 34.132073298 ], [ -86.415284105, 34.130675599 ], [ -86.417294301, 34.129300497 ], [ -86.418368503, 34.128910795 ], [ -86.420158803, 34.128749795 ], [ -86.421949603, 34.129230194 ], [ -86.423216805, 34.129367195 ] ] } },
{ "type": "Feature", "properties": { "site_no": "02454500", "nhdplus_comid": "18562713", "navigation_mode": "DM", "requested_distance_km": 12.0, "start_source": "nwissite", "start_id": "USGS-02454500", "geometry_length_km": 0.58478721915974252 }, "geometry": { "type": "LineString", "coordinates": [ [ -86.423216805, 34.129367195 ], [ -86.425199904, 34.129022799 ], [ -86.4264943, 34.128564194 ], [ -86.428724706, 34.127349198 ], [ -86.428972505, 34.127257496 ] ] } },
{ "type": "Feature", "properties": { "site_no": "02454500", "nhdplus_comid": "18562719", "navigation_mode": "DM", "requested_distance_km": 12.0, "start_source": "nwissite", "start_id": "USGS-02454500", "geometry_length_km": 0.31245512923004398 }, "geometry": { "type": "LineString", "coordinates": [ [ -86.428972505, 34.127257496 ], [ -86.429000102, 34.127142899 ], [ -86.429853603, 34.126363598 ], [ -86.431092501, 34.125400998 ], [ -86.431340307, 34.125286393 ] ] } },
{ "type": "Feature", "properties": { "site_no": "02454500", "nhdplus_comid": "18562739", "navigation_mode": "DM", "requested_distance_km": 12.0, "start_source": "nwissite", "start_id": "USGS-02454500", "geometry_length_km": 0.81302994143326657 }, "geometry": { "type": "LineString", "coordinates": [ [ -86.431340307, 34.125286393 ], [ -86.431395203, 34.125103094 ], [ -86.431917906, 34.124094993 ], [ -86.432247505, 34.1224913 ], [ -86.433677502, 34.119168997 ], [ -86.4337596, 34.118573494 ], [ -86.433980003, 34.118412994 ] ] } },
{ "type": "Feature", "properties": { "site_no": "02454500", "nhdplus_comid": "18562751", "navigation_mode": "DM", "requested_distance_km": 12.0, "start_source": "nwissite", "start_id": "USGS-02454500", "geometry_length_km": 0.39492642928356719 }, "geometry": { "type": "LineString", "coordinates": [ [ -86.433980003, 34.118412994 ], [ -86.434034802, 34.118092194 ], [ -86.434447505, 34.117427796 ], [ -86.434942901, 34.116969399 ], [ -86.435658701, 34.116556697 ], [ -86.436870106, 34.116006397 ] ] } },
{ "type": "Feature", "properties": { "site_no": "02454500", "nhdplus_comid": "18562823", "navigation_mode": "DM", "requested_distance_km": 12.0, "start_source": "nwissite", "start_id": "USGS-02454500", "geometry_length_km": 2.1407929369028604 }, "geometry": { "type": "LineString", "coordinates": [ [ -86.436870106, 34.116006397 ], [ -86.437778503, 34.115387395 ], [ -86.438769206, 34.114264496 ], [ -86.439897001, 34.112431295 ], [ -86.439923704, 34.111194298 ], [ -86.439758204, 34.110873699 ], [ -86.439510204, 34.110690497 ], [ -86.438986801, 34.1104846 ], [ -86.438518301, 34.1101183 ], [ -86.437994607, 34.109500095 ], [ -86.437718801, 34.108950399 ], [ -86.4369471, 34.108080395 ], [ -86.435734302, 34.106339999 ], [ -86.434301101, 34.104851596 ], [ -86.432868503, 34.103729896 ], [ -86.431491204, 34.103203699 ], [ -86.431023002, 34.102928996 ], [ -86.429948203, 34.101646595 ], [ -86.429617301, 34.101119794 ], [ -86.4295348, 34.101096995 ] ] } },
{ "type": "Feature", "properties": { "site_no": "02454500", "nhdplus_comid": "18562889", "navigation_mode": "DM", "requested_distance_km": 12.0, "start_source": "nwissite", "start_id": "USGS-02454500", "geometry_length_km": 2.5195854968962696 }, "geometry": { "type": "LineString", "coordinates": [ [ -86.4295348, 34.101096995 ], [ -86.429561503, 34.099882893 ], [ -86.429753803, 34.099287197 ], [ -86.430028804, 34.098783195 ], [ -86.430359207, 34.0984165 ], [ -86.430964701, 34.098026797 ], [ -86.431597903, 34.097774498 ], [ -86.432589106, 34.097705394 ], [ -86.433580503, 34.097934 ], [ -86.4341591, 34.098414794 ], [ -86.434462406, 34.099055998 ], [ -86.436143003, 34.100337997 ], [ -86.437382601, 34.100864299 ], [ -86.437878303, 34.101001598 ], [ -86.438621901, 34.1009783 ], [ -86.439227507, 34.100817695 ], [ -86.439915702, 34.100450695 ], [ -86.440576106, 34.099969298 ], [ -86.440988801, 34.099465095 ], [ -86.441400804, 34.0980905 ], [ -86.441289403, 34.096418299 ], [ -86.440847605, 34.094837897 ], [ -86.440819606, 34.0941507 ], [ -86.441808201, 34.09076 ] ] } }
]
}
