{
"type": "FeatureCollection",
"name": "USGS_02429595_DM_12km",
"crs": { "type": "name", "properties": { "name": "urn:ogc:def:crs:OGC:1.3:CRS84" } },
"features": [
{ "type": "Feature", "properties": { "site_no": "02429595", "nhdplus_comid": "18242277", "navigation_mode": "DM", "requested_distance_km": 12.0, "start_source": "nwissite", "start_id": "USGS-02429595", "geometry_length_km": 0.95180365904051045 }, "geometry": { "type": "LineString", "coordinates": [ [ -87.613199753, 31.242412011 ], [ -87.613604307, 31.242781296 ], [ -87.6141911, 31.243033394 ], [ -87.614324503, 31.243216693 ], [ -87.614484407, 31.243881397 ], [ -87.614591107, 31.243927196 ], [ -87.615177907, 31.243789695 ], [ -87.615417905, 31.243812695 ], [ -87.615471303, 31.2443856 ], [ -87.615818106, 31.244431399 ], [ -87.616431504, 31.2443856 ], [ -87.617258407, 31.244660698 ], [ -87.617285103, 31.244752295 ], [ -87.617498405, 31.2448669 ], [ -87.618058607, 31.244843997 ], [ -87.618458703, 31.244660698 ], [ -87.619792402, 31.244912796 ], [ -87.620405905, 31.2448669 ], [ -87.621179402, 31.244523197 ] ] } },
{ "type": "Feature", "properties": { "site_no": "02429595", "nhdplus_comid": "18241451", "navigation_mode": "DM", "requested_distance_km": 12.0, "start_source": "nwissite", "start_id": "USGS-02429595", "geometry_length_km": 1.8138214672623794 }, "geometry": { "type": "LineString", "coordinates": [ [ -87.621179402, 31.244523197 ], [ -87.622353107, 31.244500294 ], [ -87.623019904, 31.244156495 ], [ -87.624006703, 31.244064793 ], [ -87.625260405, 31.243377194 ], [ -87.626167305, 31.243446 ], [ -87.626807503, 31.2439043 ], [ -87.6271009, 31.2437668 ], [ -87.627127506, 31.243675098 ], [ -87.6283013, 31.243491694 ], [ -87.630461901, 31.244385295 ], [ -87.631048702, 31.244385295 ], [ -87.631422102, 31.244110197 ], [ -87.631662101, 31.243514396 ], [ -87.631715402, 31.243147694 ], [ -87.632195503, 31.242895499 ], [ -87.632568903, 31.242941298 ], [ -87.632889003, 31.243078895 ], [ -87.633235805, 31.243399598 ], [ -87.633555904, 31.243559994 ], [ -87.634462804, 31.2436058 ], [ -87.634836301, 31.243811995 ], [ -87.635209702, 31.244224496 ], [ -87.635796607, 31.244682595 ], [ -87.636463501, 31.245003298 ], [ -87.6373704, 31.245163694 ] ] } },
{ "type": "Feature", "properties": { "site_no": "02429595", "nhdplus_comid": "18241447", "navigation_mode": "DM", "requested_distance_km": 12.0, "start_source": "nwissite", "start_id": "USGS-02429595", "geometry_length_km": 0.1501228305600833 }, "geometry": { "type": "LineString", "coordinates": [ [ -87.6373704, 31.245163694 ], [ -87.6381706, 31.245049 ], [ -87.638784103, 31.244865596 ], [ -87.638837405, 31.244773895 ] ] } },
{ "type": "Feature", "properties": { "site_no": "02429595", "nhdplus_comid": "18241449", "navigation_mode": "DM", "requested_distance_km": 12.0, "start_source": "nwissite", "start_id": "USGS-02429595", "geometry_length_km": 0.58797209770144743 }, "geometry": { "type": "LineString", "coordinates": [ [ -87.638837405, 31.244773895 ], [ -87.640704505, 31.244292296 ], [ -87.641344607, 31.244429797 ], [ -87.641504705, 31.244635999 ], [ -87.641611502, 31.245185994 ], [ -87.641851604, 31.245438099 ], [ -87.6421718, 31.245552599 ], [ -87.642625503, 31.245964997 ], [ -87.643345803, 31.246835694 ] ] } },
{ "type": "Feature", "properties": { "site_no": "02429595", "nhdplus_comid": "18241439", "navigation_mode": "DM", "requested_distance_km": 12.0, "start_source": "nwissite", "start_id": "USGS-02429595", "geometry_length_km": 0.87100113938752388 }, "geometry": { "type": "LineString", "coordinates": [ [ -87.643345803, 31.246835694 ], [ -87.643986002, 31.247087695 ], [ -87.6449733, 31.2480729 ], [ -87.645907104, 31.248874895 ], [ -87.646440603, 31.249172695 ], [ -87.646974206, 31.249332994 ], [ -87.648548007, 31.249172196 ], [ -87.6489214, 31.248919994 ], [ -87.649108, 31.248622097 ], [ -87.649374604, 31.248392895 ], [ -87.650895201, 31.248782098 ] ] } },
{ "type": "Feature", "properties": { "site_no": "02429595", "nhdplus_comid": "18242253", "navigation_mode": "DM", "requested_distance_km": 12.0, "start_source": "nwissite", "start_id": "USGS-02429595", "geometry_length_km": 1.1391779207066108 }, "geometry": { "type": "LineString", "coordinates": [ [ -87.650895201, 31.248782098 ], [ -87.651989207, 31.249675594 ], [ -87.6522827, 31.249812998 ], [ -87.653402902, 31.249652296 ], [ -87.653936401, 31.249423094 ], [ -87.654496603, 31.249422796 ], [ -87.654816806, 31.249629095 ], [ -87.654977001, 31.250179 ], [ -87.654971205, 31.2503521 ], [ -87.655291401, 31.250626996 ], [ -87.655584902, 31.2507874 ], [ -87.656091705, 31.250718497 ], [ -87.656651706, 31.250397496 ], [ -87.656971805, 31.250328697 ], [ -87.657372005, 31.250534795 ], [ -87.657532103, 31.250786893 ], [ -87.658092402, 31.251199298 ], [ -87.658759505, 31.251588695 ], [ -87.659639902, 31.251909293 ], [ -87.6606002, 31.251908995 ] ] } },
{ "type": "Feature", "properties": { "site_no": "02429595", "nhdplus_comid": "18241419", "navigation_mode": "DM", "requested_distance_km": 12.0, "start_source": "nwissite", "start_id": "USGS-02429595", "geometry_length_km": 1.0960918616289168 }, "geometry": { "type": "LineString", "coordinates": [ [ -87.6606002, 31.251908995 ], [ -87.661347501, 31.252733797 ], [ -87.661827706, 31.253123298 ], [ -87.662521303, 31.253031395 ], [ -87.662628002, 31.253214695 ], [ -87.662735, 31.253947996 ], [ -87.663081907, 31.254314497 ], [ -87.663135603, 31.255093694 ], [ -87.663322501, 31.255391493 ], [ -87.663909607, 31.255643398 ], [ -87.664149806, 31.2558496 ], [ -87.664256506, 31.256078698 ], [ -87.664603502, 31.256422393 ], [ -87.665483907, 31.256628394 ], [ -87.665937603, 31.257040694 ], [ -87.666391402, 31.257705197 ], [ -87.666684903, 31.257842593 ], [ -87.668045402, 31.257887997 ] ] } },
{ "type": "Feature", "properties": { "site_no": "02429595", "nhdplus_comid": "18242235", "navigation_mode": "DM", "requested_distance_km": 12.0, "start_source": "nwissite", "start_id": "USGS-02429595", "geometry_length_km": 2.7065657582723297 }, "geometry": { "type": "LineString", "coordinates": [ [ -87.668045402, 31.257887997 ], [ -87.668098904, 31.258002594 ], [ -87.668685906, 31.258368999 ], [ -87.669139601, 31.258735493 ], [ -87.671407707, 31.259582698 ], [ -87.672288001, 31.259651095 ], [ -87.673569404, 31.2613694 ], [ -87.674049601, 31.261369199 ], [ -87.674769707, 31.260910593 ], [ -87.675143205, 31.2610479 ], [ -87.675757304, 31.261712298 ], [ -87.676424406, 31.262032896 ], [ -87.676558107, 31.262376599 ], [ -87.676478401, 31.2631099 ], [ -87.677145801, 31.263911694 ], [ -87.677012905, 31.264782697 ], [ -87.677226305, 31.264942899 ], [ -87.677760102, 31.265080199 ], [ -87.678107306, 31.265859298 ], [ -87.678587705, 31.266065195 ], [ -87.679094702, 31.266179599 ], [ -87.679308206, 31.266408697 ], [ -87.679255001, 31.266637899 ], [ -87.679041706, 31.266912997 ], [ -87.679202005, 31.267279595 ], [ -87.679815605, 31.267279297 ], [ -87.680642806, 31.267554 ], [ -87.681496702, 31.267668195 ], [ -87.681603506, 31.267874397 ], [ -87.6816037, 31.268240996 ], [ -87.681897402, 31.268561698 ], [ -87.682457805, 31.268721893 ], [ -87.682564706, 31.269019797 ], [ -87.683712505, 31.269867197 ], [ -87.683659405, 31.270119295 ], [ -87.682939306, 31.270555094 ], [ -87.682939403, 31.270692594 ], [ -87.683686607, 31.271081798 ], [ -87.684780702, 31.271287493 ], [ -87.685074404, 31.271699898 ] ] } },
{ "type": "Feature", "properties": { "site_no": "02429595", "nhdplus_comid": "18241331", "navigation_mode": "DM", "requested_distance_km": 12.0, "start_source": "nwissite", "start_id": "USGS-02429595", "geometry_length_km": 4.5146340077992795 }, "geometry": { "type": "LineString", "coordinates": [ [ -87.685074404, 31.271699898 ], [ -87.685208306, 31.272364393 ], [ -87.685448602, 31.272662297 ], [ -87.686355904, 31.273005597 ], [ -87.686436504, 31.273761794 ], [ -87.687130503, 31.274150997 ], [ -87.687717803, 31.274723694 ], [ -87.688091904, 31.275433898 ], [ -87.688092202, 31.2759839 ], [ -87.687825702, 31.276327796 ], [ -87.6878791, 31.276556894 ], [ -87.688012704, 31.276694395 ], [ -87.688706607, 31.276946098 ], [ -87.688893601, 31.277266793 ], [ -87.688867107, 31.277587697 ], [ -87.688333802, 31.278137997 ], [ -87.688333906, 31.278252497 ], [ -87.688520804, 31.278412893 ], [ -87.688787706, 31.278504498 ], [ -87.689614907, 31.278503999 ], [ -87.689695001, 31.278687298 ], [ -87.6896955, 31.279466294 ], [ -87.690016106, 31.279764093 ], [ -87.690229803, 31.280176498 ], [ -87.690257102, 31.281138994 ], [ -87.690097302, 31.281482898 ], [ -87.690150902, 31.281826496 ], [ -87.690391205, 31.282032698 ], [ -87.690471701, 31.282720096 ], [ -87.690632001, 31.282949194 ], [ -87.691486202, 31.283361293 ], [ -87.692393906, 31.284025393 ], [ -87.692794107, 31.283956394 ], [ -87.693460904, 31.283474796 ], [ -87.694021203, 31.283474594 ], [ -87.694528706, 31.283932596 ], [ -87.694742106, 31.283863693 ], [ -87.6952755, 31.283496797 ], [ -87.695622407, 31.283496596 ], [ -87.695969403, 31.2837255 ], [ -87.696210302, 31.284642093 ], [ -87.697624907, 31.285007894 ], [ -87.698105305, 31.285236798 ], [ -87.698452204, 31.285190798 ], [ -87.699412301, 31.284548596 ], [ -87.699919507, 31.284662895 ], [ -87.700240307, 31.285441898 ], [ -87.701173902, 31.285097495 ], [ -87.701520905, 31.285120293 ], [ -87.701761201, 31.285234697 ], [ -87.702883005, 31.286563195 ], [ -87.7029633, 31.286792397 ], [ -87.702883601, 31.287158996 ], [ -87.702697001, 31.287319593 ], [ -87.702029906, 31.287434496 ], [ -87.701816507, 31.287618093 ], [ -87.701763302, 31.287824295 ], [ -87.701843902, 31.288374297 ], [ -87.702378206, 31.289107293 ], [ -87.703473106, 31.290069096 ], [ -87.703847006, 31.290527195 ], [ -87.704354502, 31.290962197 ], [ -87.704461701, 31.2914434 ], [ -87.704435304, 31.291901797 ], [ -87.704542205, 31.292016298 ], [ -87.705236107, 31.292084597 ], [ -87.705450103, 31.292634398 ], [ -87.705504, 31.293298997 ], [ -87.705264606, 31.294284597 ], [ -87.7053449, 31.294490695 ], [ -87.705879107, 31.294948794 ], [ -87.706679501, 31.294764899 ], [ -87.706893101, 31.294856496 ], [ -87.706920207, 31.295291893 ], [ -87.706707001, 31.295681499 ] ] } }
]
}
