{
"type": "FeatureCollection",
"name": "USGS_023432415_DM_12km",
"crs": { "type": "name", "properties": { "name": "urn:ogc:def:crs:OGC:1.3:CRS84" } },
"features": [
{ "type": "Feature", "properties": { "site_no": "023432415", "nhdplus_comid": "2306737", "navigation_mode": "DM", "requested_distance_km": 12.0, "start_source": "nwissite", "start_id": "USGS-023432415", "geometry_length_km": 0.65269288201780096 }, "geometry": { "type": "LineString", "coordinates": [ [ -85.059574151, 31.622581551 ], [ -85.059345305, 31.622559093 ], [ -85.057847604, 31.620649099 ], [ -85.057120301, 31.6189503 ], [ -85.057193302, 31.618414998 ], [ -85.0568479, 31.6174317 ] ] } },
{ "type": "Feature", "properties": { "site_no": "023432415", "nhdplus_comid": "2306739", "navigation_mode": "DM", "requested_distance_km": 12.0, "start_source": "nwissite", "start_id": "USGS-023432415", "geometry_length_km": 1.788265094420977 }, "geometry": { "type": "LineString", "coordinates": [ [ -85.0568479, 31.6174317 ], [ -85.057685703, 31.614801593 ], [ -85.058037601, 31.614564896 ], [ -85.059403107, 31.611579597 ], [ -85.059822403, 31.608501494 ], [ -85.058985807, 31.607605696 ], [ -85.058039702, 31.607512794 ], [ -85.056675404, 31.606971994 ], [ -85.055699304, 31.605926797 ], [ -85.055426903, 31.604408197 ], [ -85.055657603, 31.6038884 ] ] } },
{ "type": "Feature", "properties": { "site_no": "023432415", "nhdplus_comid": "2306751", "navigation_mode": "DM", "requested_distance_km": 12.0, "start_source": "nwissite", "start_id": "USGS-023432415", "geometry_length_km": 1.151089528378173 }, "geometry": { "type": "LineString", "coordinates": [ [ -85.055657603, 31.6038884 ], [ -85.055524603, 31.602519095 ], [ -85.055798203, 31.600511596 ], [ -85.056471802, 31.599085793 ], [ -85.057097107, 31.596841596 ], [ -85.057358801, 31.593747899 ] ] } },
{ "type": "Feature", "properties": { "site_no": "023432415", "nhdplus_comid": "2306753", "navigation_mode": "DM", "requested_distance_km": 12.0, "start_source": "nwissite", "start_id": "USGS-023432415", "geometry_length_km": 0.31673648527932508 }, "geometry": { "type": "LineString", "coordinates": [ [ -85.057358801, 31.593747899 ], [ -85.057474606, 31.591724895 ], [ -85.057741702, 31.590937398 ] ] } },
{ "type": "Feature", "properties": { "site_no": "023432415", "nhdplus_comid": "2306759", "navigation_mode": "DM", "requested_distance_km": 12.0, "start_source": "nwissite", "start_id": "USGS-023432415", "geometry_length_km": 1.5128663744148676 }, "geometry": { "type": "LineString", "coordinates": [ [ -85.057741702, 31.590937398 ], [ -85.057462804, 31.590638794 ], [ -85.057439305, 31.588466398 ], [ -85.057949707, 31.584718995 ], [ -85.057798602, 31.583483495 ], [ -85.057332106, 31.582216993 ], [ -85.055398904, 31.579992697 ], [ -85.054690205, 31.578159899 ] ] } },
{ "type": "Feature", "properties": { "site_no": "023432415", "nhdplus_comid": "2306761", "navigation_mode": "DM", "requested_distance_km": 12.0, "start_source": "nwissite", "start_id": "USGS-023432415", "geometry_length_km": 0.46894009586804247 }, "geometry": { "type": "LineString", "coordinates": [ [ -85.054690205, 31.578159899 ], [ -85.055139601, 31.576033995 ], [ -85.056340501, 31.574253097 ] ] } },
{ "type": "Feature", "properties": { "site_no": "023432415", "nhdplus_comid": "2306767", "navigation_mode": "DM", "requested_distance_km": 12.0, "start_source": "nwissite", "start_id": "USGS-023432415", "geometry_length_km": 1.3920152036159412 }, "geometry": { "type": "LineString", "coordinates": [ [ -85.056340501, 31.574253097 ], [ -85.057135001, 31.573110498 ], [ -85.057323702, 31.570551999 ], [ -85.053446107, 31.565017 ], [ -85.052440703, 31.563019395 ] ] } },
{ "type": "Feature", "properties": { "site_no": "023432415", "nhdplus_comid": "2306773", "navigation_mode": "DM", "requested_distance_km": 12.0, "start_source": "nwissite", "start_id": "USGS-023432415", "geometry_length_km": 0.8288022205735841 }, "geometry": { "type": "LineString", "coordinates": [ [ -85.052440703, 31.563019395 ], [ -85.051956207, 31.561886698 ], [ -85.051411904, 31.558849193 ], [ -85.050307006, 31.555824399 ] ] } },
{ "type": "Feature", "properties": { "site_no": "023432415", "nhdplus_comid": "2306781", "navigation_mode": "DM", "requested_distance_km": 12.0, "start_source": "nwissite", "start_id": "USGS-023432415", "geometry_length_km": 1.1514284767087337 }, "geometry": { "type": "LineString", "coordinates": [ [ -85.050307006, 31.555824399 ], [ -85.046427302, 31.550899096 ], [ -85.045785502, 31.549750894 ], [ -85.043398902, 31.547345899 ] ] } },
{ "type": "Feature", "properties": { "site_no": "023432415", "nhdplus_comid": "2306817", "navigation_mode": "DM", "requested_distance_km": 12.0, "start_source": "nwissite", "start_id": "USGS-023432415", "geometry_length_km": 1.8324765500635498 }, "geometry": { "type": "LineString", "coordinates": [ [ -85.043398902, 31.547345899 ], [ -85.041606203, 31.545270495 ], [ -85.041000903, 31.543854594 ], [ -85.040681005, 31.541517198 ], [ -85.041118905, 31.538304895 ], [ -85.041488707, 31.5379344 ], [ -85.042077504, 31.535957694 ], [ -85.043526806, 31.533523098 ], [ -85.044114701, 31.532647297 ], [ -85.044426702, 31.5321863 ] ] } },
{ "type": "Feature", "properties": { "site_no": "023432415", "nhdplus_comid": "2306789", "navigation_mode": "DM", "requested_distance_km": 12.0, "start_source": "nwissite", "start_id": "USGS-023432415", "geometry_length_km": 1.174930555714039 }, "geometry": { "type": "LineString", "coordinates": [ [ -85.044426702, 31.5321863 ], [ -85.0447274, 31.5317422 ], [ -85.047358707, 31.5276604 ], [ -85.047650501, 31.525518797 ], [ -85.047045305, 31.5241028 ], [ -85.045616105, 31.522877097 ] ] } }
]
}
