{
"type": "FeatureCollection",
"name": "USGS_02343275_DM_12km",
"crs": { "type": "name", "properties": { "name": "urn:ogc:def:crs:OGC:1.3:CRS84" } },
"features": [
{ "type": "Feature", "properties": { "site_no": "02343275", "nhdplus_comid": "2306289", "navigation_mode": "DM", "requested_distance_km": 12.0, "start_source": "nwissite", "start_id": "USGS-02343275", "geometry_length_km": 1.4135949013484683 }, "geometry": { "type": "LineString", "coordinates": [ [ -85.204814925, 31.561778199 ], [ -85.206131801, 31.557763994 ], [ -85.2066392, 31.556686997 ], [ -85.207119703, 31.555358 ], [ -85.207306102, 31.554418594 ], [ -85.207278304, 31.553135693 ], [ -85.207704805, 31.551325597 ], [ -85.208024301, 31.549446695 ] ] } },
{ "type": "Feature", "properties": { "site_no": "02343275", "nhdplus_comid": "2306299", "navigation_mode": "DM", "requested_distance_km": 12.0, "start_source": "nwissite", "start_id": "USGS-02343275", "geometry_length_km": 0.48877065350400956 }, "geometry": { "type": "LineString", "coordinates": [ [ -85.208024301, 31.549446695 ], [ -85.208184205, 31.548919797 ], [ -85.208718702, 31.5483009 ], [ -85.210403003, 31.547108598 ], [ -85.211231604, 31.546397798 ], [ -85.211472407, 31.546328895 ] ] } },
{ "type": "Feature", "properties": { "site_no": "02343275", "nhdplus_comid": "2306377", "navigation_mode": "DM", "requested_distance_km": 12.0, "start_source": "nwissite", "start_id": "USGS-02343275", "geometry_length_km": 1.8659188132176856 }, "geometry": { "type": "LineString", "coordinates": [ [ -85.211472407, 31.546328895 ], [ -85.2121673, 31.545641199 ], [ -85.213155702, 31.5441515 ], [ -85.213502206, 31.542822495 ], [ -85.213582404, 31.542730793 ], [ -85.213580504, 31.540737696 ], [ -85.213205002, 31.539523795 ], [ -85.2131247, 31.539523795 ], [ -85.212856203, 31.538401499 ], [ -85.212802604, 31.538355693 ], [ -85.212507002, 31.536912598 ], [ -85.212426603, 31.536843896 ], [ -85.212292306, 31.536156796 ], [ -85.212212004, 31.536088094 ], [ -85.212211601, 31.535675697 ], [ -85.211514607, 31.533889197 ], [ -85.211514004, 31.533202 ], [ -85.211833104, 31.5312315 ], [ -85.211618803, 31.530819297 ], [ -85.211618401, 31.530452698 ] ] } },
{ "type": "Feature", "properties": { "site_no": "02343275", "nhdplus_comid": "2306403", "navigation_mode": "DM", "requested_distance_km": 12.0, "start_source": "nwissite", "start_id": "USGS-02343275", "geometry_length_km": 0.78880093357653802 }, "geometry": { "type": "LineString", "coordinates": [ [ -85.211618401, 31.530452698 ], [ -85.211671703, 31.530177794 ], [ -85.212713003, 31.528183997 ], [ -85.213461004, 31.527335897 ], [ -85.214369006, 31.525891997 ], [ -85.214341804, 31.525319293 ], [ -85.213752203, 31.524059594 ] ] } },
{ "type": "Feature", "properties": { "site_no": "02343275", "nhdplus_comid": "2306415", "navigation_mode": "DM", "requested_distance_km": 12.0, "start_source": "nwissite", "start_id": "USGS-02343275", "geometry_length_km": 0.14429359316121818 }, "geometry": { "type": "LineString", "coordinates": [ [ -85.213752203, 31.524059594 ], [ -85.2138317, 31.523280598 ], [ -85.214045204, 31.522799395 ] ] } },
{ "type": "Feature", "properties": { "site_no": "02343275", "nhdplus_comid": "2306715", "navigation_mode": "DM", "requested_distance_km": 12.0, "start_source": "nwissite", "start_id": "USGS-02343275", "geometry_length_km": 0.37593231103220626 }, "geometry": { "type": "LineString", "coordinates": [ [ -85.214045204, 31.522799395 ], [ -85.2143123, 31.522386894 ], [ -85.214418404, 31.521516293 ], [ -85.214605205, 31.521057896 ], [ -85.215005904, 31.520576499 ], [ -85.215406202, 31.519682899 ] ] } },
{ "type": "Feature", "properties": { "site_no": "02343275", "nhdplus_comid": "2306493", "navigation_mode": "DM", "requested_distance_km": 12.0, "start_source": "nwissite", "start_id": "USGS-02343275", "geometry_length_km": 1.688922047372182 }, "geometry": { "type": "LineString", "coordinates": [ [ -85.215406202, 31.519682899 ], [ -85.2154864, 31.519682795 ], [ -85.216340505, 31.517963998 ], [ -85.217167206, 31.515672393 ], [ -85.217834301, 31.514182799 ], [ -85.219356902, 31.512555197 ], [ -85.220291607, 31.511202797 ], [ -85.221011601, 31.509392396 ], [ -85.221893504, 31.5087732 ], [ -85.222240701, 31.508429296 ], [ -85.222614504, 31.507856295 ], [ -85.222613901, 31.5072148 ], [ -85.222292401, 31.5066882 ], [ -85.222211905, 31.506321594 ] ] } },
{ "type": "Feature", "properties": { "site_no": "02343275", "nhdplus_comid": "2306503", "navigation_mode": "DM", "requested_distance_km": 12.0, "start_source": "nwissite", "start_id": "USGS-02343275", "geometry_length_km": 0.44456539876039214 }, "geometry": { "type": "LineString", "coordinates": [ [ -85.222211905, 31.506321594 ], [ -85.222265206, 31.506229997 ], [ -85.224002406, 31.505426899 ], [ -85.224643506, 31.504739098 ], [ -85.225444406, 31.503592998 ] ] } },
{ "type": "Feature", "properties": { "site_no": "02343275", "nhdplus_comid": "2306523", "navigation_mode": "DM", "requested_distance_km": 12.0, "start_source": "nwissite", "start_id": "USGS-02343275", "geometry_length_km": 0.40792598574534189 }, "geometry": { "type": "LineString", "coordinates": [ [ -85.225444406, 31.503592998 ], [ -85.226379305, 31.502744496 ], [ -85.226886906, 31.502377495 ], [ -85.228544705, 31.502307497 ], [ -85.229052402, 31.502009295 ] ] } },
{ "type": "Feature", "properties": { "site_no": "02343275", "nhdplus_comid": "2306543", "navigation_mode": "DM", "requested_distance_km": 12.0, "start_source": "nwissite", "start_id": "USGS-02343275", "geometry_length_km": 0.21346468795448362 }, "geometry": { "type": "LineString", "coordinates": [ [ -85.229052402, 31.502009295 ], [ -85.229052603, 31.501459494 ], [ -85.2287063, 31.500566199 ], [ -85.2289211, 31.500179894 ] ] } },
{ "type": "Feature", "properties": { "site_no": "02343275", "nhdplus_comid": "2310151", "navigation_mode": "DM", "requested_distance_km": 12.0, "start_source": "nwissite", "start_id": "USGS-02343275", "geometry_length_km": 2.3318889897084905 }, "geometry": { "type": "LineString", "coordinates": [ [ -85.2289211, 31.500179894 ], [ -85.229192503, 31.499781199 ], [ -85.2295129, 31.499276996 ], [ -85.229646005, 31.498726994 ], [ -85.230127104, 31.498543493 ], [ -85.230795205, 31.4981535 ], [ -85.231436104, 31.497351095 ], [ -85.232104301, 31.497121595 ], [ -85.232558802, 31.497075297 ], [ -85.234029703, 31.4974638 ], [ -85.234537706, 31.497394599 ], [ -85.234590806, 31.497073896 ], [ -85.2342427, 31.496593095 ], [ -85.234268904, 31.496043198 ], [ -85.234589607, 31.495951295 ], [ -85.235018, 31.496546596 ], [ -85.2352321, 31.496683896 ], [ -85.235472701, 31.496683694 ], [ -85.235713102, 31.4964545 ], [ -85.236379705, 31.4947128 ], [ -85.236539803, 31.494483598 ], [ -85.236994103, 31.494208395 ], [ -85.237394705, 31.493818596 ], [ -85.237902604, 31.493726499 ], [ -85.238276802, 31.493634596 ], [ -85.238356903, 31.493519999 ], [ -85.238355406, 31.492168196 ], [ -85.2381934, 31.4906106 ], [ -85.238112301, 31.489831693 ], [ -85.238326006, 31.489762798 ], [ -85.238405801, 31.4893962 ], [ -85.238325506, 31.489304595 ], [ -85.237871103, 31.4893049 ], [ -85.237897605, 31.489075795 ], [ -85.238084204, 31.488617495 ], [ -85.238216303, 31.487197094 ], [ -85.238724202, 31.487173796 ] ] } },
{ "type": "Feature", "properties": { "site_no": "02343275", "nhdplus_comid": "2308793", "navigation_mode": "DM", "requested_distance_km": 12.0, "start_source": "nwissite", "start_id": "USGS-02343275", "geometry_length_km": 0.64543941948452677 }, "geometry": { "type": "LineString", "coordinates": [ [ -85.238724202, 31.487173796 ], [ -85.238911204, 31.486921594 ], [ -85.238857403, 31.486623794 ], [ -85.238670103, 31.486463495 ], [ -85.2382956, 31.486303493 ], [ -85.2380016, 31.486326694 ], [ -85.237948202, 31.486441195 ], [ -85.237467304, 31.486739397 ], [ -85.237226404, 31.486487597 ], [ -85.237279706, 31.486258499 ], [ -85.238000706, 31.485547796 ], [ -85.238053605, 31.4850666 ], [ -85.237973005, 31.484562695 ], [ -85.237624906, 31.484081797 ], [ -85.237811305, 31.483417295 ] ] } },
{ "type": "Feature", "properties": { "site_no": "02343275", "nhdplus_comid": "2308813", "navigation_mode": "DM", "requested_distance_km": 12.0, "start_source": "nwissite", "start_id": "USGS-02343275", "geometry_length_km": 0.85844969059574794 }, "geometry": { "type": "LineString", "coordinates": [ [ -85.237811305, 31.483417295 ], [ -85.237703905, 31.482913397 ], [ -85.2373292, 31.482524194 ], [ -85.237007804, 31.481974594 ], [ -85.236980505, 31.481378898 ], [ -85.237594403, 31.480507895 ], [ -85.237620503, 31.479912199 ], [ -85.237540007, 31.479706094 ], [ -85.237459004, 31.478950098 ], [ -85.237378605, 31.478767 ], [ -85.237269707, 31.476934299 ], [ -85.237002105, 31.476590797 ], [ -85.236788101, 31.476499394 ], [ -85.236761205, 31.4762474 ] ] } }
]
}
