{
"type": "FeatureCollection",
"name": "USGS_02450500_UM_12km",
"crs": { "type": "name", "properties": { "name": "urn:ogc:def:crs:OGC:1.3:CRS84" } },
"features": [
{ "type": "Feature", "properties": { "site_no": "02450500", "nhdplus_comid": "18580441", "navigation_mode": "UM", "requested_distance_km": 12.0, "start_source": "nwissite", "start_id": "USGS-02450500", "geometry_length_km": 0.2060674142497366 }, "geometry": { "type": "LineString", "coordinates": [ [ -87.266846307, 34.054871894 ], [ -87.267159201, 34.054319493 ], [ -87.267868598, 34.053230368 ] ] } },
{ "type": "Feature", "properties": { "site_no": "02450500", "nhdplus_comid": "18580437", "navigation_mode": "UM", "requested_distance_km": 12.0, "start_source": "nwissite", "start_id": "USGS-02450500", "geometry_length_km": 1.4944326251858493 }, "geometry": { "type": "LineString", "coordinates": [ [ -87.258035906, 34.064732194 ], [ -87.257922605, 34.0632689 ], [ -87.258265004, 34.061592296 ], [ -87.258759104, 34.060620695 ], [ -87.259460606, 34.059854098 ], [ -87.260882705, 34.0595202 ], [ -87.2620138, 34.059038199 ], [ -87.263644606, 34.058215596 ], [ -87.2652895, 34.057267994 ], [ -87.266199805, 34.056012593 ], [ -87.266846307, 34.054871894 ] ] } },
{ "type": "Feature", "properties": { "site_no": "02450500", "nhdplus_comid": "18580443", "navigation_mode": "UM", "requested_distance_km": 12.0, "start_source": "nwissite", "start_id": "USGS-02450500", "geometry_length_km": 0.2844807888525262 }, "geometry": { "type": "LineString", "coordinates": [ [ -87.258148603, 34.067273594 ], [ -87.258175902, 34.067030497 ], [ -87.258035906, 34.064732194 ] ] } },
{ "type": "Feature", "properties": { "site_no": "02450500", "nhdplus_comid": "18580431", "navigation_mode": "UM", "requested_distance_km": 12.0, "start_source": "nwissite", "start_id": "USGS-02450500", "geometry_length_km": 2.905498078434213 }, "geometry": { "type": "LineString", "coordinates": [ [ -87.264513902, 34.085696496 ], [ -87.263646603, 34.085745893 ], [ -87.262460202, 34.0856563 ], [ -87.259926304, 34.085137993 ], [ -87.259029001, 34.084253095 ], [ -87.2587611, 34.083088994 ], [ -87.259125806, 34.079848394 ], [ -87.259542406, 34.077918895 ], [ -87.260326907, 34.0762624 ], [ -87.262090802, 34.074761696 ], [ -87.263351306, 34.073304497 ], [ -87.264044605, 34.072458096 ], [ -87.263912104, 34.070977397 ], [ -87.263437606, 34.069879398 ], [ -87.262926504, 34.069105394 ], [ -87.262289301, 34.068567097 ], [ -87.260394506, 34.067688495 ], [ -87.258148603, 34.067273594 ] ] } },
{ "type": "Feature", "properties": { "site_no": "02450500", "nhdplus_comid": "18580467", "navigation_mode": "UM", "requested_distance_km": 12.0, "start_source": "nwissite", "start_id": "USGS-02450500", "geometry_length_km": 5.1059988661001929 }, "geometry": { "type": "LineString", "coordinates": [ [ -87.292483106, 34.0846527 ], [ -87.291809201, 34.084438495 ], [ -87.290578507, 34.083855696 ], [ -87.289958104, 34.084053993 ], [ -87.289634205, 34.084274694 ], [ -87.289039902, 34.085128695 ], [ -87.288237706, 34.086947396 ], [ -87.2877855, 34.089200996 ], [ -87.287424102, 34.090644397 ], [ -87.287593506, 34.091800995 ], [ -87.287708305, 34.093443595 ], [ -87.287356004, 34.094805993 ], [ -87.286842406, 34.095829397 ], [ -87.285672903, 34.0964766 ], [ -87.284737505, 34.096814699 ], [ -87.283496402, 34.097211294 ], [ -87.282489404, 34.097298898 ], [ -87.281321101, 34.097047396 ], [ -87.280638002, 34.096914195 ], [ -87.279137902, 34.096065797 ], [ -87.277502507, 34.095533997 ], [ -87.276613802, 34.094568193 ], [ -87.276309304, 34.0937282 ], [ -87.276481003, 34.093087599 ], [ -87.276886903, 34.092137694 ], [ -87.277670003, 34.091379799 ], [ -87.278749704, 34.090644196 ], [ -87.279694103, 34.090225197 ], [ -87.280378304, 34.089459799 ], [ -87.280209005, 34.088303193 ], [ -87.279607907, 34.087440796 ], [ -87.278556801, 34.087034695 ], [ -87.276445501, 34.086303599 ], [ -87.274226204, 34.085645899 ], [ -87.2709729, 34.085318699 ], [ -87.267961502, 34.085499898 ], [ -87.264513902, 34.085696496 ] ] } },
{ "type": "Feature", "properties": { "site_no": "02450500", "nhdplus_comid": "18580465", "navigation_mode": "UM", "requested_distance_km": 12.0, "start_source": "nwissite", "start_id": "USGS-02450500", "geometry_length_km": 2.3736885842574726 }, "geometry": { "type": "LineString", "coordinates": [ [ -87.309834607, 34.094460599 ], [ -87.309826203, 34.0943482 ], [ -87.310159206, 34.093429796 ], [ -87.310141005, 34.090849899 ], [ -87.309242204, 34.0899648 ], [ -87.3077619, 34.089476198 ], [ -87.306011304, 34.089344598 ], [ -87.303596005, 34.089666098 ], [ -87.3018867, 34.089851998 ], [ -87.300405607, 34.090055093 ], [ -87.299083807, 34.090207197 ], [ -87.298108302, 34.090007998 ], [ -87.296684004, 34.089020394 ], [ -87.295696102, 34.087562397 ], [ -87.292483106, 34.0846527 ] ] } }
]
}
