{
"type": "FeatureCollection",
"name": "USGS_02412500_UM_12km",
"crs": { "type": "name", "properties": { "name": "urn:ogc:def:crs:OGC:1.3:CRS84" } },
"features": [
{ "type": "Feature", "properties": { "site_no": "02412500", "nhdplus_comid": "15812177", "navigation_mode": "UM", "requested_distance_km": 12.0, "start_source": "nwissite", "start_id": "USGS-02412500", "geometry_length_km": 1.8362202770298266 }, "geometry": { "type": "LineString", "coordinates": [ [ -85.601755306, 33.335716493 ], [ -85.603020504, 33.334717698 ], [ -85.603571206, 33.334010996 ], [ -85.603886902, 33.332778297 ], [ -85.602160402, 33.329720095 ], [ -85.6013733, 33.328765497 ], [ -85.597778402, 33.328312196 ], [ -85.596640803, 33.327704094 ], [ -85.594282903, 33.327110998 ], [ -85.592125899, 33.325844619 ] ] } },
{ "type": "Feature", "properties": { "site_no": "02412500", "nhdplus_comid": "15814741", "navigation_mode": "UM", "requested_distance_km": 12.0, "start_source": "nwissite", "start_id": "USGS-02412500", "geometry_length_km": 4.2491879132159429 }, "geometry": { "type": "LineString", "coordinates": [ [ -85.583856307, 33.357513398 ], [ -85.582834803, 33.355962895 ], [ -85.5829162, 33.354204498 ], [ -85.583834402, 33.3530268 ], [ -85.584669806, 33.352472194 ], [ -85.586742505, 33.351777993 ], [ -85.588580303, 33.350557894 ], [ -85.589951403, 33.350556694 ], [ -85.590621203, 33.351248398 ], [ -85.590973504, 33.352037296 ], [ -85.592045203, 33.353143893 ], [ -85.592480205, 33.353309698 ], [ -85.593383305, 33.353391893 ], [ -85.594018504, 33.353197396 ], [ -85.596775904, 33.351934798 ], [ -85.597460605, 33.351366393 ], [ -85.598011404, 33.350659698 ], [ -85.598143801, 33.349662699 ], [ -85.597958505, 33.3487629 ], [ -85.596718103, 33.346631795 ], [ -85.596197203, 33.344818495 ], [ -85.596877001, 33.340843998 ], [ -85.5972111, 33.340622097 ], [ -85.598028101, 33.339056693 ], [ -85.598558903, 33.336203799 ], [ -85.599862002, 33.335565597 ], [ -85.601567, 33.335342295 ], [ -85.601755306, 33.335716493 ] ] } },
{ "type": "Feature", "properties": { "site_no": "02412500", "nhdplus_comid": "15814729", "navigation_mode": "UM", "requested_distance_km": 12.0, "start_source": "nwissite", "start_id": "USGS-02412500", "geometry_length_km": 0.070335763792968367 }, "geometry": { "type": "LineString", "coordinates": [ [ -85.584612705, 33.357581094 ], [ -85.583856307, 33.357513398 ] ] } },
{ "type": "Feature", "properties": { "site_no": "02412500", "nhdplus_comid": "15812165", "navigation_mode": "UM", "requested_distance_km": 12.0, "start_source": "nwissite", "start_id": "USGS-02412500", "geometry_length_km": 1.9422643792035104 }, "geometry": { "type": "LineString", "coordinates": [ [ -85.597672105, 33.370431796 ], [ -85.597286701, 33.369892195 ], [ -85.596815206, 33.367705099 ], [ -85.595759802, 33.366473898 ], [ -85.593567804, 33.365769796 ], [ -85.592730701, 33.365189098 ], [ -85.586283207, 33.358673699 ], [ -85.584612705, 33.357581094 ] ] } },
{ "type": "Feature", "properties": { "site_no": "02412500", "nhdplus_comid": "15812163", "navigation_mode": "UM", "requested_distance_km": 12.0, "start_source": "nwissite", "start_id": "USGS-02412500", "geometry_length_km": 5.2611971536574371 }, "geometry": { "type": "LineString", "coordinates": [ [ -85.5767892, 33.391107894 ], [ -85.576938406, 33.389986396 ], [ -85.576184101, 33.388782397 ], [ -85.576216005, 33.3873979 ], [ -85.577503502, 33.3868846 ], [ -85.578256406, 33.386953197 ], [ -85.580748603, 33.386549599 ], [ -85.5824202, 33.385440499 ], [ -85.582885601, 33.383086398 ], [ -85.582415901, 33.3820346 ], [ -85.582313605, 33.380511694 ], [ -85.582062207, 33.380110398 ], [ -85.582377106, 33.377742596 ], [ -85.579680704, 33.375100397 ], [ -85.578959703, 33.373647198 ], [ -85.577418305, 33.371488497 ], [ -85.577233307, 33.370588697 ], [ -85.577700101, 33.369369894 ], [ -85.578702904, 33.368704498 ], [ -85.579823002, 33.368302099 ], [ -85.581177905, 33.368425496 ], [ -85.5830025, 33.3696009 ], [ -85.5856461, 33.370346196 ], [ -85.591570407, 33.372777596 ], [ -85.595317803, 33.3732448 ], [ -85.596237704, 33.373202398 ], [ -85.597256906, 33.372412197 ], [ -85.597672105, 33.370431796 ] ] } }
]
}
