{
"type": "FeatureCollection",
"name": "USGS_02457000_UM_12km",
"crs": { "type": "name", "properties": { "name": "urn:ogc:def:crs:OGC:1.3:CRS84" } },
"features": [
{ "type": "Feature", "properties": { "site_no": "02457000", "nhdplus_comid": "18566327", "navigation_mode": "UM", "requested_distance_km": 12.0, "start_source": "nwissite", "start_id": "USGS-02457000", "geometry_length_km": 0.80062474240643555 }, "geometry": { "type": "LineString", "coordinates": [ [ -86.748738006, 33.605014898 ], [ -86.749997102, 33.604761697 ], [ -86.751680702, 33.604486793 ], [ -86.752338104, 33.604212597 ], [ -86.753242902, 33.603342898 ], [ -86.754586905, 33.601557299 ], [ -86.755107701, 33.601099595 ], [ -86.755323927, 33.601011983 ] ] } },
{ "type": "Feature", "properties": { "site_no": "02457000", "nhdplus_comid": "18566063", "navigation_mode": "UM", "requested_distance_km": 12.0, "start_source": "nwissite", "start_id": "USGS-02457000", "geometry_length_km": 0.6617113239622493 }, "geometry": { "type": "LineString", "coordinates": [ [ -86.742252402, 33.607243493 ], [ -86.742361903, 33.607220396 ], [ -86.743455902, 33.606417499 ], [ -86.744577706, 33.605889596 ], [ -86.745508201, 33.605613694 ], [ -86.747342005, 33.605153799 ], [ -86.748738006, 33.605014898 ] ] } },
{ "type": "Feature", "properties": { "site_no": "02457000", "nhdplus_comid": "18566045", "navigation_mode": "UM", "requested_distance_km": 12.0, "start_source": "nwissite", "start_id": "USGS-02457000", "geometry_length_km": 0.90158146011293094 }, "geometry": { "type": "LineString", "coordinates": [ [ -86.734286904, 33.608648196 ], [ -86.735026106, 33.608647496 ], [ -86.7359026, 33.608898699 ], [ -86.737327106, 33.609515995 ], [ -86.737820104, 33.609607197 ], [ -86.738997504, 33.609651998 ], [ -86.739983, 33.609559394 ], [ -86.740995601, 33.609214798 ], [ -86.741459705, 33.608160496 ], [ -86.741705604, 33.607816696 ], [ -86.742088504, 33.607495598 ], [ -86.742252402, 33.607243493 ] ] } },
{ "type": "Feature", "properties": { "site_no": "02457000", "nhdplus_comid": "18566067", "navigation_mode": "UM", "requested_distance_km": 12.0, "start_source": "nwissite", "start_id": "USGS-02457000", "geometry_length_km": 4.9770846953546126 }, "geometry": { "type": "LineString", "coordinates": [ [ -86.693572901, 33.608172894 ], [ -86.694229804, 33.607897699 ], [ -86.694558106, 33.6076684 ], [ -86.6955982, 33.607186697 ], [ -86.696446903, 33.607117496 ], [ -86.698117204, 33.607483096 ], [ -86.698199503, 33.607574694 ], [ -86.700445101, 33.608260699 ], [ -86.7017048, 33.608397298 ], [ -86.702526003, 33.608282298 ], [ -86.703018606, 33.607984096 ], [ -86.704194903, 33.606906697 ], [ -86.704879105, 33.606585495 ], [ -86.705590807, 33.606378794 ], [ -86.706220403, 33.606286794 ], [ -86.706987001, 33.606309198 ], [ -86.708164506, 33.6064917 ], [ -86.709013507, 33.606811896 ], [ -86.709753402, 33.607452899 ], [ -86.710520707, 33.608139597 ], [ -86.711589001, 33.608688697 ], [ -86.712575004, 33.6090087 ], [ -86.713505901, 33.608916499 ], [ -86.713916406, 33.6087787 ], [ -86.714190006, 33.608526498 ], [ -86.714408606, 33.6081369 ], [ -86.714517601, 33.607655697 ], [ -86.714599706, 33.607586898 ], [ -86.714653805, 33.606991298 ], [ -86.715363801, 33.605180897 ], [ -86.715691902, 33.604791194 ], [ -86.7161844, 33.604401395 ], [ -86.717443503, 33.604194298 ], [ -86.7183199, 33.604399897 ], [ -86.721223302, 33.605588898 ], [ -86.721908204, 33.606046498 ], [ -86.722373903, 33.606252395 ], [ -86.723003805, 33.606389396 ], [ -86.724044107, 33.6063198 ], [ -86.724509306, 33.606136099 ], [ -86.724837504, 33.605792195 ], [ -86.725110702, 33.605287999 ], [ -86.725411706, 33.605173193 ], [ -86.725603603, 33.6053335 ], [ -86.725933202, 33.606341198 ], [ -86.726864502, 33.606661193 ], [ -86.727275006, 33.606477596 ], [ -86.727274403, 33.6059049 ], [ -86.726972401, 33.605286598 ], [ -86.726972103, 33.604988694 ], [ -86.727136202, 33.604896896 ], [ -86.728368506, 33.605056293 ], [ -86.729792006, 33.604940496 ], [ -86.730531305, 33.604962796 ], [ -86.731051601, 33.605145693 ], [ -86.731819004, 33.605717696 ], [ -86.732120603, 33.6061069 ], [ -86.732258104, 33.6065652 ], [ -86.733218104, 33.607938796 ], [ -86.733821206, 33.608511098 ], [ -86.734286904, 33.608648196 ] ] } },
{ "type": "Feature", "properties": { "site_no": "02457000", "nhdplus_comid": "18566037", "navigation_mode": "UM", "requested_distance_km": 12.0, "start_source": "nwissite", "start_id": "USGS-02457000", "geometry_length_km": 0.28894600810742677 }, "geometry": { "type": "LineString", "coordinates": [ [ -86.690781005, 33.609297 ], [ -86.691082105, 33.609273896 ], [ -86.693299204, 33.608356394 ], [ -86.693572901, 33.608172894 ] ] } },
{ "type": "Feature", "properties": { "site_no": "02457000", "nhdplus_comid": "18566031", "navigation_mode": "UM", "requested_distance_km": 12.0, "start_source": "nwissite", "start_id": "USGS-02457000", "geometry_length_km": 1.3893101868094409 }, "geometry": { "type": "LineString", "coordinates": [ [ -86.679779306, 33.617206097 ], [ -86.680244401, 33.616564393 ], [ -86.6815577, 33.614937097 ], [ -86.682132505, 33.614524499 ], [ -86.682844304, 33.614249296 ], [ -86.6846238, 33.613904893 ], [ -86.684979603, 33.613744296 ], [ -86.685773306, 33.613194093 ], [ -86.687224105, 33.612528995 ], [ -86.6890027, 33.6111077 ], [ -86.689905405, 33.610053495 ], [ -86.690671705, 33.609480299 ], [ -86.690781005, 33.609297 ] ] } },
{ "type": "Feature", "properties": { "site_no": "02457000", "nhdplus_comid": "18566017", "navigation_mode": "UM", "requested_distance_km": 12.0, "start_source": "nwissite", "start_id": "USGS-02457000", "geometry_length_km": 0.24818182139517778 }, "geometry": { "type": "LineString", "coordinates": [ [ -86.678931803, 33.619314 ], [ -86.678986505, 33.619222395 ], [ -86.679779306, 33.617206097 ] ] } },
{ "type": "Feature", "properties": { "site_no": "02457000", "nhdplus_comid": "18566011", "navigation_mode": "UM", "requested_distance_km": 12.0, "start_source": "nwissite", "start_id": "USGS-02457000", "geometry_length_km": 1.1682996407621515 }, "geometry": { "type": "LineString", "coordinates": [ [ -86.670967303, 33.626739897 ], [ -86.670967303, 33.626671195 ], [ -86.671514601, 33.625937894 ], [ -86.672253802, 33.6254794 ], [ -86.6737324, 33.625295594 ], [ -86.674225301, 33.625112094 ], [ -86.674471706, 33.625043295 ], [ -86.675101303, 33.624584898 ], [ -86.6758947, 33.623416096 ], [ -86.678001702, 33.620918095 ], [ -86.678849906, 33.619703598 ], [ -86.678931803, 33.619314 ] ] } },
{ "type": "Feature", "properties": { "site_no": "02457000", "nhdplus_comid": "18565981", "navigation_mode": "UM", "requested_distance_km": 12.0, "start_source": "nwissite", "start_id": "USGS-02457000", "geometry_length_km": 3.8091209992453234 }, "geometry": { "type": "LineString", "coordinates": [ [ -86.650983803, 33.6527934 ], [ -86.6497235, 33.652220994 ], [ -86.649066001, 33.651785895 ], [ -86.649065904, 33.651510999 ], [ -86.649367101, 33.650938094 ], [ -86.650079004, 33.650158994 ], [ -86.650845803, 33.649471596 ], [ -86.653967306, 33.645553499 ], [ -86.655336402, 33.644086994 ], [ -86.656568602, 33.643101595 ], [ -86.658238702, 33.640970498 ], [ -86.659361005, 33.639664397 ], [ -86.660648003, 33.638701893 ], [ -86.661798, 33.638105899 ], [ -86.663578004, 33.637463897 ], [ -86.664125502, 33.636868194 ], [ -86.664207503, 33.636386998 ], [ -86.664124005, 33.633340098 ], [ -86.6642607, 33.632881798 ], [ -86.664616607, 33.632308997 ], [ -86.666122004, 33.630933896 ], [ -86.666724406, 33.630521394 ], [ -86.668312505, 33.6297649 ], [ -86.668942004, 33.6292836 ], [ -86.670720905, 33.626969099 ], [ -86.670967303, 33.626739897 ] ] } }
]
}
