{
"type": "FeatureCollection",
"name": "USGS_02462000_DM_12km",
"crs": { "type": "name", "properties": { "name": "urn:ogc:def:crs:OGC:1.3:CRS84" } },
"features": [
{ "type": "Feature", "properties": { "site_no": "02462000", "nhdplus_comid": "18229157", "navigation_mode": "DM", "requested_distance_km": 12.0, "start_source": "nwissite", "start_id": "USGS-02462000", "geometry_length_km": 1.3363163604987225 }, "geometry": { "type": "LineString", "coordinates": [ [ -87.121626251, 33.447699526 ], [ -87.121799201, 33.448122397 ], [ -87.122919701, 33.451032095 ], [ -87.122919701, 33.451467395 ], [ -87.122345701, 33.4522921 ], [ -87.120897301, 33.4534375 ], [ -87.116114005, 33.456942499 ], [ -87.115950003, 33.456965394 ] ] } },
{ "type": "Feature", "properties": { "site_no": "02462000", "nhdplus_comid": "18227169", "navigation_mode": "DM", "requested_distance_km": 12.0, "start_source": "nwissite", "start_id": "USGS-02462000", "geometry_length_km": 4.1845228687408902 }, "geometry": { "type": "LineString", "coordinates": [ [ -87.115950003, 33.456965394 ], [ -87.114993304, 33.458110899 ], [ -87.114856601, 33.458866797 ], [ -87.115321003, 33.460424699 ], [ -87.115730904, 33.461066298 ], [ -87.116796903, 33.462097399 ], [ -87.117835507, 33.462922193 ], [ -87.118628107, 33.463953197 ], [ -87.119338706, 33.465396598 ], [ -87.119940005, 33.466060996 ], [ -87.120295405, 33.466267198 ], [ -87.120541401, 33.466267198 ], [ -87.120978706, 33.466129698 ], [ -87.121771507, 33.465625696 ], [ -87.122837506, 33.464732297 ], [ -87.124395601, 33.4635868 ], [ -87.124997005, 33.462945394 ], [ -87.125926204, 33.461753994 ], [ -87.126718901, 33.460860498 ], [ -87.127074301, 33.460677296 ], [ -87.127538905, 33.460700095 ], [ -87.128577605, 33.461020894 ], [ -87.128932901, 33.461227097 ], [ -87.129260905, 33.461547695 ], [ -87.129616402, 33.462120496 ], [ -87.129780404, 33.462784894 ], [ -87.129944406, 33.4631285 ], [ -87.129889801, 33.463632494 ], [ -87.128277205, 33.466175698 ], [ -87.127839804, 33.467206597 ], [ -87.127867207, 33.467802294 ], [ -87.128058605, 33.468352094 ], [ -87.128304601, 33.468558297 ], [ -87.128632605, 33.468649998 ], [ -87.129234001, 33.468649894 ], [ -87.130710103, 33.467962593 ], [ -87.1320768, 33.466908693 ], [ -87.132787406, 33.4662214 ], [ -87.134154104, 33.465213194 ], [ -87.135083303, 33.4646862 ], [ -87.135657303, 33.464525796 ], [ -87.1360946, 33.464571498 ], [ -87.1368054, 33.465029597 ] ] } },
{ "type": "Feature", "properties": { "site_no": "02462000", "nhdplus_comid": "18227107", "navigation_mode": "DM", "requested_distance_km": 12.0, "start_source": "nwissite", "start_id": "USGS-02462000", "geometry_length_km": 3.0603174258177273 }, "geometry": { "type": "LineString", "coordinates": [ [ -87.1368054, 33.465029597 ], [ -87.136750802, 33.465556599 ], [ -87.134646602, 33.469772197 ], [ -87.133662604, 33.470734499 ], [ -87.133088604, 33.471146993 ], [ -87.131366506, 33.472109295 ], [ -87.130792506, 33.472682096 ], [ -87.130491905, 33.473575599 ], [ -87.130573906, 33.474194095 ], [ -87.1311481, 33.475843698 ], [ -87.131202802, 33.476347595 ], [ -87.130710803, 33.477630697 ], [ -87.130738206, 33.478157595 ], [ -87.1310663, 33.478524096 ], [ -87.131367005, 33.478661597 ], [ -87.133554101, 33.478890494 ], [ -87.135167107, 33.478729993 ], [ -87.136260606, 33.4781342 ], [ -87.137053303, 33.477492698 ], [ -87.137846, 33.477011599 ], [ -87.139267601, 33.476369999 ], [ -87.139786907, 33.476255395 ], [ -87.140771106, 33.476278193 ], [ -87.141482003, 33.476575799 ], [ -87.142001502, 33.477010995 ], [ -87.142411701, 33.477721199 ], [ -87.142548606, 33.478660494 ] ] } },
{ "type": "Feature", "properties": { "site_no": "02462000", "nhdplus_comid": "18227019", "navigation_mode": "DM", "requested_distance_km": 12.0, "start_source": "nwissite", "start_id": "USGS-02462000", "geometry_length_km": 2.1083122792135311 }, "geometry": { "type": "LineString", "coordinates": [ [ -87.142548606, 33.478660494 ], [ -87.142548807, 33.4793249 ], [ -87.142357506, 33.479622699 ], [ -87.141865402, 33.479943596 ], [ -87.141428001, 33.480081096 ], [ -87.140607901, 33.480081193 ], [ -87.139432207, 33.479875199 ], [ -87.138147205, 33.479737796 ], [ -87.136889607, 33.479783699 ], [ -87.136315502, 33.479966998 ], [ -87.135823503, 33.480356596 ], [ -87.135550104, 33.480723195 ], [ -87.135550201, 33.481616698 ], [ -87.135933101, 33.482349694 ], [ -87.136944801, 33.483220294 ], [ -87.137765102, 33.483655497 ], [ -87.142030604, 33.485510699 ], [ -87.142331406, 33.485831395 ], [ -87.142331503, 33.4863583 ], [ -87.140937701, 33.4891994 ] ] } },
{ "type": "Feature", "properties": { "site_no": "02462000", "nhdplus_comid": "18226939", "navigation_mode": "DM", "requested_distance_km": 12.0, "start_source": "nwissite", "start_id": "USGS-02462000", "geometry_length_km": 1.0257969735331007 }, "geometry": { "type": "LineString", "coordinates": [ [ -87.140937701, 33.4891994 ], [ -87.140145004, 33.490619898 ], [ -87.139242806, 33.491696693 ], [ -87.138914801, 33.492383994 ], [ -87.1389696, 33.492727697 ], [ -87.139325105, 33.492933899 ], [ -87.139844604, 33.493071198 ], [ -87.140747003, 33.493162699 ], [ -87.142004803, 33.493025199 ], [ -87.144410901, 33.492497899 ], [ -87.1450397, 33.4922916 ] ] } }
]
}
