{
"type": "FeatureCollection",
"name": "USGS_02343275_UM_12km",
"crs": { "type": "name", "properties": { "name": "urn:ogc:def:crs:OGC:1.3:CRS84" } },
"features": [
{ "type": "Feature", "properties": { "site_no": "02343275", "nhdplus_comid": "2306289", "navigation_mode": "UM", "requested_distance_km": 12.0, "start_source": "nwissite", "start_id": "USGS-02343275", "geometry_length_km": 0.34208066670211157 }, "geometry": { "type": "LineString", "coordinates": [ [ -85.204211302, 31.564798199 ], [ -85.204317406, 31.563652799 ], [ -85.204530701, 31.562644593 ], [ -85.204814925, 31.561778199 ] ] } },
{ "type": "Feature", "properties": { "site_no": "02343275", "nhdplus_comid": "2306215", "navigation_mode": "UM", "requested_distance_km": 12.0, "start_source": "nwissite", "start_id": "USGS-02343275", "geometry_length_km": 1.0496861780108437 }, "geometry": { "type": "LineString", "coordinates": [ [ -85.205369502, 31.574052796 ], [ -85.2053155, 31.573548794 ], [ -85.204350106, 31.570983596 ], [ -85.204000801, 31.569242798 ], [ -85.203945704, 31.567135096 ], [ -85.204159006, 31.566218697 ], [ -85.204211302, 31.564798199 ] ] } },
{ "type": "Feature", "properties": { "site_no": "02343275", "nhdplus_comid": "2306171", "navigation_mode": "UM", "requested_distance_km": 12.0, "start_source": "nwissite", "start_id": "USGS-02343275", "geometry_length_km": 0.80237733902272113 }, "geometry": { "type": "LineString", "coordinates": [ [ -85.208104402, 31.580671899 ], [ -85.207890302, 31.580557495 ], [ -85.207381204, 31.579687297 ], [ -85.207193606, 31.579503998 ], [ -85.206711106, 31.578519195 ], [ -85.206657402, 31.578335896 ], [ -85.206469901, 31.578152798 ], [ -85.206282005, 31.577442698 ], [ -85.206146806, 31.5756789 ], [ -85.205905303, 31.574945897 ], [ -85.205798201, 31.574831493 ], [ -85.205798104, 31.574694 ], [ -85.2054765, 31.574167296 ], [ -85.205369502, 31.574052796 ] ] } },
{ "type": "Feature", "properties": { "site_no": "02343275", "nhdplus_comid": "2306145", "navigation_mode": "UM", "requested_distance_km": 12.0, "start_source": "nwissite", "start_id": "USGS-02343275", "geometry_length_km": 1.9657363681289988 }, "geometry": { "type": "LineString", "coordinates": [ [ -85.202443205, 31.595978297 ], [ -85.203056604, 31.593137294 ], [ -85.203270204, 31.592587397 ], [ -85.203214407, 31.589586399 ], [ -85.202892601, 31.588830598 ], [ -85.202785507, 31.588670298 ], [ -85.202329904, 31.587937497 ], [ -85.202275306, 31.586539894 ], [ -85.202462204, 31.585898399 ], [ -85.202756204, 31.585577495 ], [ -85.2034785, 31.585118897 ], [ -85.204093605, 31.584591694 ], [ -85.204387307, 31.583858497 ], [ -85.205323204, 31.582826994 ], [ -85.207810804, 31.581405096 ], [ -85.208104402, 31.580671899 ] ] } },
{ "type": "Feature", "properties": { "site_no": "02343275", "nhdplus_comid": "2306693", "navigation_mode": "UM", "requested_distance_km": 12.0, "start_source": "nwissite", "start_id": "USGS-02343275", "geometry_length_km": 0.33058044985661139 }, "geometry": { "type": "LineString", "coordinates": [ [ -85.201669201, 31.598865397 ], [ -85.201856107, 31.598246694 ], [ -85.201882504, 31.597788595 ], [ -85.202443205, 31.595978297 ] ] } },
{ "type": "Feature", "properties": { "site_no": "02343275", "nhdplus_comid": "2306085", "navigation_mode": "UM", "requested_distance_km": 12.0, "start_source": "nwissite", "start_id": "USGS-02343275", "geometry_length_km": 1.7210137234092646 }, "geometry": { "type": "LineString", "coordinates": [ [ -85.204411201, 31.613800399 ], [ -85.204411, 31.6136171 ], [ -85.204277001, 31.613388099 ], [ -85.204223305, 31.613090299 ], [ -85.203982204, 31.612884298 ], [ -85.203955203, 31.6126322 ], [ -85.203284904, 31.611303896 ], [ -85.202346906, 31.6099758 ], [ -85.201890901, 31.608647294 ], [ -85.201836705, 31.607753895 ], [ -85.201781504, 31.6055547 ], [ -85.2018876, 31.604409099 ], [ -85.201886803, 31.6032179 ], [ -85.201671302, 31.601454094 ], [ -85.201669201, 31.598865397 ] ] } },
{ "type": "Feature", "properties": { "site_no": "02343275", "nhdplus_comid": "2306043", "navigation_mode": "UM", "requested_distance_km": 12.0, "start_source": "nwissite", "start_id": "USGS-02343275", "geometry_length_km": 0.60850919902918499 }, "geometry": { "type": "LineString", "coordinates": [ [ -85.2064768, 31.618953697 ], [ -85.206342503, 31.618426695 ], [ -85.206181504, 31.618106097 ], [ -85.205134906, 31.615014099 ], [ -85.204598904, 31.614143893 ], [ -85.204411201, 31.613800399 ] ] } },
{ "type": "Feature", "properties": { "site_no": "02343275", "nhdplus_comid": "2306683", "navigation_mode": "UM", "requested_distance_km": 12.0, "start_source": "nwissite", "start_id": "USGS-02343275", "geometry_length_km": 1.6202347441025673 }, "geometry": { "type": "LineString", "coordinates": [ [ -85.210986003, 31.632627495 ], [ -85.210985906, 31.6324443 ], [ -85.210771203, 31.631917499 ], [ -85.210528001, 31.629351795 ], [ -85.210178204, 31.627381794 ], [ -85.210042506, 31.625182696 ], [ -85.210042201, 31.624861993 ], [ -85.209827803, 31.624495596 ], [ -85.209452301, 31.623625197 ], [ -85.209264703, 31.623442098 ], [ -85.209291302, 31.623327598 ], [ -85.209237702, 31.623213097 ], [ -85.209050201, 31.623075694 ], [ -85.206852302, 31.619869798 ], [ -85.206583902, 31.619045198 ], [ -85.2064768, 31.618953697 ] ] } },
{ "type": "Feature", "properties": { "site_no": "02343275", "nhdplus_comid": "2305975", "navigation_mode": "UM", "requested_distance_km": 12.0, "start_source": "nwissite", "start_id": "USGS-02343275", "geometry_length_km": 1.704878884197137 }, "geometry": { "type": "LineString", "coordinates": [ [ -85.216354102, 31.6469879 ], [ -85.216032401, 31.646644495 ], [ -85.215710603, 31.646049097 ], [ -85.215227306, 31.644674897 ], [ -85.214984305, 31.642613195 ], [ -85.214553006, 31.639200099 ], [ -85.213667206, 31.636818096 ], [ -85.212219, 31.634230398 ], [ -85.2114418, 31.633314498 ], [ -85.210986003, 31.632627495 ] ] } },
{ "type": "Feature", "properties": { "site_no": "02343275", "nhdplus_comid": "2305941", "navigation_mode": "UM", "requested_distance_km": 12.0, "start_source": "nwissite", "start_id": "USGS-02343275", "geometry_length_km": 0.91838016681326451 }, "geometry": { "type": "LineString", "coordinates": [ [ -85.220726006, 31.654247098 ], [ -85.220430404, 31.653124794 ], [ -85.219411105, 31.651544794 ], [ -85.218070403, 31.649690099 ], [ -85.216890901, 31.648293398 ], [ -85.216381207, 31.647377394 ], [ -85.216354102, 31.6469879 ] ] } }
]
}
