{
"type": "FeatureCollection",
"name": "USGS_02423110_DM_12km",
"crs": { "type": "name", "properties": { "name": "urn:ogc:def:crs:OGC:1.3:CRS84" } },
"features": [
{ "type": "Feature", "properties": { "site_no": "02423110", "nhdplus_comid": "21654088", "navigation_mode": "DM", "requested_distance_km": 12.0, "start_source": "nwissite", "start_id": "USGS-02423110", "geometry_length_km": 0.63541657201403146 }, "geometry": { "type": "LineString", "coordinates": [ [ -86.591918434, 33.665482908 ], [ -86.591918603, 33.665482499 ], [ -86.591918804, 33.6650014 ], [ -86.591343805, 33.664291099 ], [ -86.590741307, 33.663420394 ], [ -86.590577006, 33.662962198 ], [ -86.589400202, 33.660258494 ] ] } },
{ "type": "Feature", "properties": { "site_no": "02423110", "nhdplus_comid": "21654096", "navigation_mode": "DM", "requested_distance_km": 12.0, "start_source": "nwissite", "start_id": "USGS-02423110", "geometry_length_km": 0.41797299606344734 }, "geometry": { "type": "LineString", "coordinates": [ [ -86.589400202, 33.660258494 ], [ -86.589235902, 33.660097994 ], [ -86.589017004, 33.659502394 ], [ -86.588770904, 33.658448495 ], [ -86.588908106, 33.657852896 ], [ -86.589374304, 33.656684697 ] ] } },
{ "type": "Feature", "properties": { "site_no": "02423110", "nhdplus_comid": "21654118", "navigation_mode": "DM", "requested_distance_km": 12.0, "start_source": "nwissite", "start_id": "USGS-02423110", "geometry_length_km": 1.743601640748943 }, "geometry": { "type": "LineString", "coordinates": [ [ -86.589374304, 33.656684697 ], [ -86.589265302, 33.655401796 ], [ -86.589457206, 33.655081093 ], [ -86.590799905, 33.653935999 ], [ -86.591265805, 33.653363496 ], [ -86.591430306, 33.6529053 ], [ -86.591430604, 33.652195096 ], [ -86.591129705, 33.650980696 ], [ -86.5911301, 33.650247596 ], [ -86.591294602, 33.649926998 ], [ -86.591568604, 33.6497209 ], [ -86.593595907, 33.648965493 ], [ -86.594061702, 33.648644798 ], [ -86.594390504, 33.648278393 ], [ -86.594774306, 33.647476695 ], [ -86.595322907, 33.645552397 ], [ -86.596035503, 33.644155197 ], [ -86.596309505, 33.643467896 ] ] } },
{ "type": "Feature", "properties": { "site_no": "02423110", "nhdplus_comid": "21654166", "navigation_mode": "DM", "requested_distance_km": 12.0, "start_source": "nwissite", "start_id": "USGS-02423110", "geometry_length_km": 3.0468515986267444 }, "geometry": { "type": "LineString", "coordinates": [ [ -86.596309505, 33.643467896 ], [ -86.596173003, 33.642093293 ], [ -86.595954105, 33.641657896 ], [ -86.595488705, 33.641039297 ], [ -86.595488906, 33.640420794 ], [ -86.5958452, 33.639710695 ], [ -86.596639901, 33.638588399 ], [ -86.597461805, 33.637901299 ], [ -86.598393202, 33.637282893 ], [ -86.598913707, 33.636710398 ], [ -86.599927306, 33.636298195 ], [ -86.6002561, 33.6358172 ], [ -86.600229003, 33.634671696 ], [ -86.600311302, 33.634396799 ], [ -86.600749701, 33.633824199 ], [ -86.600804605, 33.632953599 ], [ -86.601380005, 33.6319227 ], [ -86.601900406, 33.631464697 ], [ -86.602585204, 33.631144099 ], [ -86.6028044, 33.630960897 ], [ -86.6028319, 33.630365297 ], [ -86.602749906, 33.629838295 ], [ -86.602175102, 33.628646895 ], [ -86.6019288, 33.627776295 ], [ -86.601765305, 33.625095896 ], [ -86.601683207, 33.624775097 ], [ -86.598617405, 33.620811097 ], [ -86.597686604, 33.619894594 ] ] } },
{ "type": "Feature", "properties": { "site_no": "02423110", "nhdplus_comid": "21654172", "navigation_mode": "DM", "requested_distance_km": 12.0, "start_source": "nwissite", "start_id": "USGS-02423110", "geometry_length_km": 1.0601313844290063 }, "geometry": { "type": "LineString", "coordinates": [ [ -86.597686604, 33.619894594 ], [ -86.597029507, 33.619756997 ], [ -86.596427001, 33.619848497 ], [ -86.595523305, 33.620329298 ], [ -86.594263203, 33.621428594 ], [ -86.592263401, 33.623444095 ], [ -86.591441505, 33.624406099 ], [ -86.591030404, 33.625116095 ], [ -86.590564601, 33.625757493 ], [ -86.589770406, 33.626032196 ] ] } },
{ "type": "Feature", "properties": { "site_no": "02423110", "nhdplus_comid": "21654176", "navigation_mode": "DM", "requested_distance_km": 12.0, "start_source": "nwissite", "start_id": "USGS-02423110", "geometry_length_km": 3.3201304153964135 }, "geometry": { "type": "LineString", "coordinates": [ [ -86.589770406, 33.626032196 ], [ -86.589140601, 33.625757098 ], [ -86.588346802, 33.625115298 ], [ -86.587771706, 33.625023596 ], [ -86.587580003, 33.625115097 ], [ -86.587087102, 33.625115 ], [ -86.586293101, 33.624885596 ], [ -86.585690804, 33.624587595 ], [ -86.584103003, 33.623304196 ], [ -86.583719604, 33.623303995 ], [ -86.582952701, 33.6237619 ], [ -86.582514606, 33.623761795 ], [ -86.582131304, 33.623486795 ], [ -86.581939802, 33.623142995 ], [ -86.581940107, 33.622707799 ], [ -86.5821319, 33.622341298 ], [ -86.582679704, 33.621951997 ], [ -86.583446607, 33.621585794 ], [ -86.584596902, 33.621311195 ], [ -86.585226804, 33.621013597 ], [ -86.585829504, 33.620532699 ], [ -86.586076103, 33.620166294 ], [ -86.5861312, 33.619410194 ], [ -86.585857801, 33.618631199 ], [ -86.585474603, 33.618356198 ], [ -86.584872305, 33.618195593 ], [ -86.583996207, 33.617805898 ], [ -86.583475903, 33.617668197 ], [ -86.583037801, 33.6176681 ], [ -86.582818605, 33.617759593 ], [ -86.582599506, 33.6180344 ], [ -86.581832603, 33.618584 ], [ -86.580381103, 33.618972994 ], [ -86.576547205, 33.619567096 ], [ -86.5758899, 33.619772993 ], [ -86.575314701, 33.620116398 ], [ -86.574547805, 33.620436795 ], [ -86.573780902, 33.620642699 ], [ -86.572356902, 33.620825298 ], [ -86.571726903, 33.621008299 ], [ -86.570823006, 33.621488996 ], [ -86.570412003, 33.621946998 ], [ -86.570055507, 33.622748598 ], [ -86.570027903, 33.623092294 ] ] } },
{ "type": "Feature", "properties": { "site_no": "02423110", "nhdplus_comid": "21654160", "navigation_mode": "DM", "requested_distance_km": 12.0, "start_source": "nwissite", "start_id": "USGS-02423110", "geometry_length_km": 0.32728072807915298 }, "geometry": { "type": "LineString", "coordinates": [ [ -86.570027903, 33.623092294 ], [ -86.569836006, 33.623229697 ], [ -86.569753706, 33.623504497 ], [ -86.569424905, 33.6238022 ], [ -86.568931803, 33.624054 ], [ -86.568219803, 33.624191098 ], [ -86.567069702, 33.624098897 ] ] } },
{ "type": "Feature", "properties": { "site_no": "02423110", "nhdplus_comid": "21654170", "navigation_mode": "DM", "requested_distance_km": 12.0, "start_source": "nwissite", "start_id": "USGS-02423110", "geometry_length_km": 0.54154118246145033 }, "geometry": { "type": "LineString", "coordinates": [ [ -86.567069702, 33.624098897 ], [ -86.566631906, 33.623503096 ], [ -86.566605106, 33.622838698 ], [ -86.566934407, 33.621693395 ], [ -86.566852503, 33.621258095 ], [ -86.5665517, 33.620730996 ], [ -86.565758005, 33.619974695 ], [ -86.565593906, 33.619722597 ] ] } },
{ "type": "Feature", "properties": { "site_no": "02423110", "nhdplus_comid": "21654186", "navigation_mode": "DM", "requested_distance_km": 12.0, "start_source": "nwissite", "start_id": "USGS-02423110", "geometry_length_km": 1.8794846006412658 }, "geometry": { "type": "LineString", "coordinates": [ [ -86.565593906, 33.619722597 ], [ -86.565758407, 33.6193332 ], [ -86.566690207, 33.6182798 ], [ -86.566690601, 33.617638297 ], [ -86.566417307, 33.616859399 ], [ -86.565734506, 33.614430599 ], [ -86.565433703, 33.613880597 ], [ -86.565078005, 33.613559693 ], [ -86.564804301, 33.613422096 ], [ -86.564037703, 33.613352999 ], [ -86.563709103, 33.6134445 ], [ -86.562969401, 33.614016794 ], [ -86.562613003, 33.614566393 ], [ -86.562529907, 33.615711898 ], [ -86.562201306, 33.615917899 ], [ -86.561270103, 33.616008997 ], [ -86.5599012, 33.615916699 ], [ -86.558888301, 33.615664095 ], [ -86.558477804, 33.6154119 ], [ -86.558067501, 33.614701495 ], [ -86.557438403, 33.614059694 ], [ -86.556124404, 33.613600798 ] ] } }
]
}
