{
"type": "FeatureCollection",
"name": "USGS_02341500_DM_12km",
"crs": { "type": "name", "properties": { "name": "urn:ogc:def:crs:OGC:1.3:CRS84" } },
"features": [
{ "type": "Feature", "properties": { "site_no": "02341500", "nhdplus_comid": "3434284", "navigation_mode": "DM", "requested_distance_km": 12.0, "start_source": "nwissite", "start_id": "USGS-02341500", "geometry_length_km": 4.5613875709740004 }, "geometry": { "type": "LineString", "coordinates": [ [ -84.998251173, 32.462459338 ], [ -84.996997103, 32.458862796 ], [ -84.996748902, 32.455994599 ], [ -84.9952446, 32.452868395 ], [ -84.993836604, 32.451376796 ], [ -84.986952603, 32.447454497 ], [ -84.981158204, 32.444992594 ], [ -84.979602106, 32.444569699 ], [ -84.974363402, 32.443922296 ], [ -84.972985305, 32.443381295 ], [ -84.971118502, 32.441708997 ], [ -84.968256101, 32.437907696 ], [ -84.967156805, 32.435362197 ] ] } },
{ "type": "Feature", "properties": { "site_no": "02341500", "nhdplus_comid": "3434292", "navigation_mode": "DM", "requested_distance_km": 12.0, "start_source": "nwissite", "start_id": "USGS-02341500", "geometry_length_km": 3.4389289598040178 }, "geometry": { "type": "LineString", "coordinates": [ [ -84.967156805, 32.435362197 ], [ -84.967286803, 32.434426896 ], [ -84.966336206, 32.430812493 ], [ -84.965359204, 32.428549796 ], [ -84.963031001, 32.424394198 ], [ -84.963254005, 32.422790699 ], [ -84.964695401, 32.421712793 ], [ -84.966418006, 32.420933299 ], [ -84.96813, 32.419069096 ], [ -84.971049502, 32.416645899 ], [ -84.973520406, 32.415126793 ], [ -84.977246702, 32.413865894 ], [ -84.979436003, 32.412048198 ] ] } },
{ "type": "Feature", "properties": { "site_no": "02341500", "nhdplus_comid": "3434304", "navigation_mode": "DM", "requested_distance_km": 12.0, "start_source": "nwissite", "start_id": "USGS-02341500", "geometry_length_km": 4.9336860148366997 }, "geometry": { "type": "LineString", "coordinates": [ [ -84.979436003, 32.412048198 ], [ -84.980192006, 32.410090499 ], [ -84.980711304, 32.406348899 ], [ -84.980519503, 32.403079495 ], [ -84.979842402, 32.400981598 ], [ -84.979316704, 32.400117494 ], [ -84.977488004, 32.398177996 ], [ -84.976747505, 32.3976992 ], [ -84.974048607, 32.396216199 ], [ -84.971079104, 32.395519398 ], [ -84.969561204, 32.394829094 ], [ -84.968332604, 32.393218897 ], [ -84.968555301, 32.391615294 ], [ -84.968770206, 32.391229995 ], [ -84.970192403, 32.390285596 ], [ -84.971184701, 32.390111797 ], [ -84.9765791, 32.390774995 ], [ -84.978404604, 32.390411697 ], [ -84.980633505, 32.390629597 ], [ -84.981692307, 32.3911395 ], [ -84.983443603, 32.391310699 ], [ -84.985043302, 32.390247993 ], [ -84.987220801, 32.387345493 ] ] } }
]
}
