{
"type": "FeatureCollection",
"name": "USGS_02405800_UM_12km",
"crs": { "type": "name", "properties": { "name": "urn:ogc:def:crs:OGC:1.3:CRS84" } },
"features": [
{ "type": "Feature", "properties": { "site_no": "02405800", "nhdplus_comid": "22206389", "navigation_mode": "UM", "requested_distance_km": 12.0, "start_source": "nwissite", "start_id": "USGS-02405800", "geometry_length_km": 0.0 }, "geometry": { "type": "Point", "coordinates": [ -86.025393605, 33.375613198 ] } },
{ "type": "Feature", "properties": { "site_no": "02405800", "nhdplus_comid": "22206409", "navigation_mode": "UM", "requested_distance_km": 12.0, "start_source": "nwissite", "start_id": "USGS-02405800", "geometry_length_km": 1.148075519338736 }, "geometry": { "type": "LineString", "coordinates": [ [ -86.0182769, 33.368024498 ], [ -86.019065902, 33.370201394 ], [ -86.019474506, 33.370911993 ], [ -86.019528903, 33.371163994 ], [ -86.019774102, 33.371484898 ], [ -86.019774005, 33.371622294 ], [ -86.020346306, 33.3725162 ], [ -86.021382302, 33.373708397 ], [ -86.022091404, 33.374396294 ], [ -86.022937305, 33.374832198 ], [ -86.023701407, 33.375107795 ], [ -86.025339201, 33.375475593 ], [ -86.025393605, 33.375613198 ] ] } },
{ "type": "Feature", "properties": { "site_no": "02405800", "nhdplus_comid": "22206413", "navigation_mode": "UM", "requested_distance_km": 12.0, "start_source": "nwissite", "start_id": "USGS-02405800", "geometry_length_km": 0.22267809783885514 }, "geometry": { "type": "LineString", "coordinates": [ [ -86.017487504, 33.366168194 ], [ -86.017623901, 33.366259895 ], [ -86.018004805, 33.367245294 ], [ -86.0182226, 33.367749497 ], [ -86.0182769, 33.368024498 ] ] } },
{ "type": "Feature", "properties": { "site_no": "02405800", "nhdplus_comid": "22206449", "navigation_mode": "UM", "requested_distance_km": 12.0, "start_source": "nwissite", "start_id": "USGS-02405800", "geometry_length_km": 1.9339794034042894 }, "geometry": { "type": "LineString", "coordinates": [ [ -86.015291207, 33.354277 ], [ -86.015891701, 33.354392 ], [ -86.016246304, 33.354575597 ], [ -86.016245902, 33.354919195 ], [ -86.014470004, 33.356085993 ], [ -86.011025406, 33.359908395 ], [ -86.010888405, 33.360274799 ], [ -86.010915302, 33.360595599 ], [ -86.011297002, 33.360962495 ], [ -86.011842504, 33.361283697 ], [ -86.012715802, 33.3615136 ], [ -86.014408305, 33.361583799 ], [ -86.015117906, 33.361722 ], [ -86.015445106, 33.361997098 ], [ -86.015962906, 33.362753496 ], [ -86.016098507, 33.363578297 ], [ -86.016670205, 33.364838794 ], [ -86.017515004, 33.365962096 ], [ -86.017487504, 33.366168194 ] ] } },
{ "type": "Feature", "properties": { "site_no": "02405800", "nhdplus_comid": "22206455", "navigation_mode": "UM", "requested_distance_km": 12.0, "start_source": "nwissite", "start_id": "USGS-02405800", "geometry_length_km": 2.5596673906511325 }, "geometry": { "type": "LineString", "coordinates": [ [ -85.999968104, 33.357698396 ], [ -86.000545606, 33.357882194 ], [ -86.000982307, 33.357905596 ], [ -86.0013647, 33.357791394 ], [ -86.002184406, 33.357242398 ], [ -86.002812505, 33.357105695 ], [ -86.003494501, 33.357381195 ], [ -86.003876306, 33.357656494 ], [ -86.005348302, 33.359169893 ], [ -86.005839206, 33.359536894 ], [ -86.006275602, 33.359720595 ], [ -86.006876104, 33.359766997 ], [ -86.007176802, 33.359538198 ], [ -86.007313803, 33.359148897 ], [ -86.007289104, 33.357247494 ], [ -86.007453904, 33.356560394 ], [ -86.007454805, 33.355827399 ], [ -86.007156104, 33.354750395 ], [ -86.006584406, 33.353604399 ], [ -86.006531201, 33.352596395 ], [ -86.006750003, 33.352298796 ], [ -86.0071325, 33.352070093 ], [ -86.007760607, 33.351887494 ], [ -86.008361101, 33.351842195 ], [ -86.009125106, 33.352140799 ], [ -86.009642906, 33.352645293 ], [ -86.009888202, 33.3529891 ], [ -86.010651603, 33.353676997 ], [ -86.011224501, 33.353906699 ], [ -86.012916602, 33.354091495 ], [ -86.013817206, 33.354321398 ], [ -86.015291207, 33.354277 ] ] } },
{ "type": "Feature", "properties": { "site_no": "02405800", "nhdplus_comid": "22211959", "navigation_mode": "UM", "requested_distance_km": 12.0, "start_source": "nwissite", "start_id": "USGS-02405800", "geometry_length_km": 0.086235673733736196 }, "geometry": { "type": "LineString", "coordinates": [ [ -85.999968104, 33.356926098 ], [ -85.999968104, 33.357698396 ] ] } },
{ "type": "Feature", "properties": { "site_no": "02405800", "nhdplus_comid": "22205221", "navigation_mode": "UM", "requested_distance_km": 12.0, "start_source": "nwissite", "start_id": "USGS-02405800", "geometry_length_km": 0.9782179395135886 }, "geometry": { "type": "LineString", "coordinates": [ [ -85.993211903, 33.351366095 ], [ -85.9943581, 33.351273298 ], [ -85.995450303, 33.351547197 ], [ -85.996433601, 33.351981595 ], [ -85.996925503, 33.352370493 ], [ -85.997472905, 33.353515394 ], [ -85.998021007, 33.355118394 ], [ -85.998704903, 33.356148593 ], [ -85.999968104, 33.356926098 ] ] } },
{ "type": "Feature", "properties": { "site_no": "02405800", "nhdplus_comid": "22205233", "navigation_mode": "UM", "requested_distance_km": 12.0, "start_source": "nwissite", "start_id": "USGS-02405800", "geometry_length_km": 1.992728993639034 }, "geometry": { "type": "LineString", "coordinates": [ [ -85.997267805, 33.343252696 ], [ -85.9970496, 33.343344599 ], [ -85.996859305, 33.343825795 ], [ -85.996942103, 33.344535895 ], [ -85.997161001, 33.344879299 ], [ -85.998254202, 33.345977798 ], [ -85.998418503, 33.346367195 ], [ -85.998010002, 33.347054794 ], [ -85.997110106, 33.347628295 ], [ -85.996810004, 33.347720295 ], [ -85.9953361, 33.347721696 ], [ -85.993643604, 33.347585797 ], [ -85.992032304, 33.346899994 ], [ -85.991403803, 33.346442394 ], [ -85.991130903, 33.346351095 ], [ -85.990694307, 33.346488893 ], [ -85.990258701, 33.347337 ], [ -85.989468403, 33.348299697 ], [ -85.989606, 33.349170193 ], [ -85.991027102, 33.350543395 ], [ -85.991682604, 33.350886397 ], [ -85.992693104, 33.3512749 ], [ -85.993211903, 33.351366095 ] ] } },
{ "type": "Feature", "properties": { "site_no": "02405800", "nhdplus_comid": "22205251", "navigation_mode": "UM", "requested_distance_km": 12.0, "start_source": "nwissite", "start_id": "USGS-02405800", "geometry_length_km": 2.3075419952139455 }, "geometry": { "type": "LineString", "coordinates": [ [ -85.990697905, 33.328277096 ], [ -85.990671106, 33.328643598 ], [ -85.990917407, 33.329193294 ], [ -85.9908906, 33.3295369 ], [ -85.990400001, 33.330041297 ], [ -85.988846004, 33.331165195 ], [ -85.988628, 33.3314403 ], [ -85.988602906, 33.333089694 ], [ -85.988494202, 33.333502099 ], [ -85.988440804, 33.334441394 ], [ -85.988878302, 33.335174099 ], [ -85.988851205, 33.335334495 ], [ -85.988988005, 33.335540496 ], [ -85.989728302, 33.338243 ], [ -85.990221106, 33.3394337 ], [ -85.990877301, 33.340234898 ], [ -85.991586804, 33.340165496 ], [ -85.992623501, 33.339866698 ], [ -85.992869206, 33.339866497 ], [ -85.994207203, 33.340392098 ], [ -85.996528007, 33.341077194 ], [ -85.997429706, 33.341878094 ], [ -85.997430906, 33.342748597 ], [ -85.997267805, 33.343252696 ] ] } }
]
}
