{
"type": "FeatureCollection",
"name": "USGS_02457595_DM_12km",
"crs": { "type": "name", "properties": { "name": "urn:ogc:def:crs:OGC:1.3:CRS84" } },
"features": [
{ "type": "Feature", "properties": { "site_no": "02457595", "nhdplus_comid": "18566081", "navigation_mode": "DM", "requested_distance_km": 12.0, "start_source": "nwissite", "start_id": "USGS-02457595", "geometry_length_km": 0.45121354285324389 }, "geometry": { "type": "LineString", "coordinates": [ [ -86.867805736, 33.597236644 ], [ -86.867930204, 33.595797896 ], [ -86.867820807, 33.594744094 ], [ -86.867382802, 33.594102599 ], [ -86.867054403, 33.593346499 ] ] } },
{ "type": "Feature", "properties": { "site_no": "02457595", "nhdplus_comid": "18566089", "navigation_mode": "DM", "requested_distance_km": 12.0, "start_source": "nwissite", "start_id": "USGS-02457595", "geometry_length_km": 2.4329266230228095 }, "geometry": { "type": "LineString", "coordinates": [ [ -86.867054403, 33.593346499 ], [ -86.867136501, 33.592888296 ], [ -86.867410302, 33.592567593 ], [ -86.867711306, 33.592407294 ], [ -86.868669406, 33.5921553 ], [ -86.869737104, 33.592201196 ], [ -86.870503701, 33.592659399 ], [ -86.871352203, 33.593598798 ], [ -86.871543802, 33.593942493 ], [ -86.872419603, 33.597722597 ], [ -86.873377904, 33.601181999 ], [ -86.873405203, 33.601686098 ], [ -86.873624302, 33.602258898 ], [ -86.873815902, 33.602442198 ], [ -86.874062307, 33.602533795 ], [ -86.874993205, 33.602373399 ], [ -86.875568107, 33.602281794 ], [ -86.876690507, 33.602281697 ], [ -86.879291505, 33.602533698 ], [ -86.8822482, 33.602350295 ], [ -86.883233905, 33.602441899 ] ] } },
{ "type": "Feature", "properties": { "site_no": "02457595", "nhdplus_comid": "18566069", "navigation_mode": "DM", "requested_distance_km": 12.0, "start_source": "nwissite", "start_id": "USGS-02457595", "geometry_length_km": 1.0523330417665671 }, "geometry": { "type": "LineString", "coordinates": [ [ -86.883233905, 33.602441899 ], [ -86.883945704, 33.602785498 ], [ -86.8846028, 33.603335299 ], [ -86.885095701, 33.603908099 ], [ -86.885369606, 33.604343295 ], [ -86.885616101, 33.605397195 ], [ -86.885589004, 33.606428094 ], [ -86.885370001, 33.606977999 ], [ -86.884822503, 33.607711196 ], [ -86.884083301, 33.608329698 ], [ -86.883043006, 33.608971298 ], [ -86.881701402, 33.6096358 ] ] } },
{ "type": "Feature", "properties": { "site_no": "02457595", "nhdplus_comid": "18566029", "navigation_mode": "DM", "requested_distance_km": 12.0, "start_source": "nwissite", "start_id": "USGS-02457595", "geometry_length_km": 1.2936987467873209 }, "geometry": { "type": "LineString", "coordinates": [ [ -86.881701402, 33.6096358 ], [ -86.881235905, 33.610116899 ], [ -86.881126404, 33.610345997 ], [ -86.881153904, 33.610849999 ], [ -86.881509803, 33.611170694 ], [ -86.881893203, 33.611285195 ], [ -86.887999102, 33.611788794 ], [ -86.888245605, 33.611880496 ], [ -86.888519406, 33.612155296 ], [ -86.8886289, 33.612453096 ], [ -86.888601601, 33.612980098 ], [ -86.887780704, 33.6152483 ], [ -86.887725905, 33.6158439 ] ] } },
{ "type": "Feature", "properties": { "site_no": "02457595", "nhdplus_comid": "18566051", "navigation_mode": "DM", "requested_distance_km": 12.0, "start_source": "nwissite", "start_id": "USGS-02457595", "geometry_length_km": 1.7424780009579104 }, "geometry": { "type": "LineString", "coordinates": [ [ -86.887725905, 33.6158439 ], [ -86.887999803, 33.6162792 ], [ -86.888520204, 33.6166915 ], [ -86.889533401, 33.6170808 ], [ -86.890573904, 33.617103696 ], [ -86.891039401, 33.616943195 ], [ -86.892682105, 33.615591295 ], [ -86.895145804, 33.613093793 ], [ -86.895528905, 33.612452298 ], [ -86.896103702, 33.610985994 ], [ -86.896212906, 33.610367395 ], [ -86.8961308, 33.609771699 ], [ -86.8957747, 33.609107293 ], [ -86.894870803, 33.608030699 ], [ -86.894350402, 33.607206099 ], [ -86.894432403, 33.606472999 ] ] } },
{ "type": "Feature", "properties": { "site_no": "02457595", "nhdplus_comid": "18566053", "navigation_mode": "DM", "requested_distance_km": 12.0, "start_source": "nwissite", "start_id": "USGS-02457595", "geometry_length_km": 1.346324004320353 }, "geometry": { "type": "LineString", "coordinates": [ [ -86.894432403, 33.606472999 ], [ -86.894925304, 33.606495798 ], [ -86.895637304, 33.607160099 ], [ -86.896404006, 33.607618093 ], [ -86.897307605, 33.607938699 ], [ -86.898512401, 33.608236395 ], [ -86.898704104, 33.608373895 ], [ -86.898704305, 33.608946599 ], [ -86.898157001, 33.610573299 ], [ -86.8976098, 33.611993797 ], [ -86.897418402, 33.612978898 ], [ -86.8974462, 33.614238895 ], [ -86.897583306, 33.614903294 ], [ -86.897775106, 33.615315698 ], [ -86.8982132, 33.615682095 ], [ -86.898541801, 33.615750894 ] ] } },
{ "type": "Feature", "properties": { "site_no": "02457595", "nhdplus_comid": "18566021", "navigation_mode": "DM", "requested_distance_km": 12.0, "start_source": "nwissite", "start_id": "USGS-02457595", "geometry_length_km": 1.0564150622489961 }, "geometry": { "type": "LineString", "coordinates": [ [ -86.898541801, 33.615750894 ], [ -86.898569301, 33.615842395 ], [ -86.899117, 33.616140194 ], [ -86.899500504, 33.616460897 ], [ -86.899610005, 33.616712898 ], [ -86.899473302, 33.617125198 ], [ -86.899144702, 33.617400199 ], [ -86.894818604, 33.619027495 ], [ -86.894572303, 33.619371198 ], [ -86.894572407, 33.619943999 ], [ -86.8947642, 33.620264694 ], [ -86.895613402, 33.6210206 ], [ -86.8965993, 33.621616095 ] ] } },
{ "type": "Feature", "properties": { "site_no": "02457595", "nhdplus_comid": "18566013", "navigation_mode": "DM", "requested_distance_km": 12.0, "start_source": "nwissite", "start_id": "USGS-02457595", "geometry_length_km": 5.3518316545138997 }, "geometry": { "type": "LineString", "coordinates": [ [ -86.8965993, 33.621616095 ], [ -86.899118803, 33.622050896 ], [ -86.900816806, 33.6228524 ], [ -86.901391901, 33.623035699 ], [ -86.901967004, 33.622966796 ], [ -86.902322903, 33.622829199 ], [ -86.902514607, 33.622577198 ], [ -86.902760506, 33.621294193 ], [ -86.902842805, 33.621225394 ], [ -86.903116107, 33.619965397 ], [ -86.903444603, 33.619667396 ], [ -86.903663605, 33.619575694 ], [ -86.904019505, 33.619552694 ], [ -86.904676907, 33.619804598 ], [ -86.9052798, 33.620858394 ], [ -86.9052798, 33.621018693 ], [ -86.905608602, 33.621545598 ], [ -86.905800305, 33.621705897 ], [ -86.905937403, 33.621980794 ], [ -86.906512603, 33.622461796 ], [ -86.907197304, 33.622828096 ], [ -86.907745205, 33.623331994 ], [ -86.907854803, 33.623561099 ], [ -86.907855101, 33.624317095 ], [ -86.907663703, 33.625096098 ], [ -86.907664001, 33.625806294 ], [ -86.908020101, 33.626126997 ], [ -86.9084308, 33.626080997 ], [ -86.908841506, 33.625805996 ], [ -86.909306802, 33.625095695 ], [ -86.912508704, 33.620283693 ], [ -86.912919305, 33.619939893 ], [ -86.913384803, 33.619985595 ], [ -86.913823105, 33.620352 ], [ -86.914042406, 33.6206728 ], [ -86.914152101, 33.621039294 ], [ -86.914755702, 33.623650797 ], [ -86.914865404, 33.623833999 ], [ -86.915331006, 33.624017097 ], [ -86.916618004, 33.623810597 ], [ -86.9175217, 33.623924896 ], [ -86.917631403, 33.6240623 ], [ -86.917631507, 33.624474697 ], [ -86.917221107, 33.625116296 ], [ -86.915715806, 33.626903698 ], [ -86.915223502, 33.628209695 ], [ -86.915251404, 33.629263498 ], [ -86.915936701, 33.630683795 ], [ -86.916375503, 33.631943695 ], [ -86.916239001, 33.632905893 ], [ -86.915062606, 33.635311693 ], [ -86.914680205, 33.637832098 ], [ -86.915146202, 33.638519198 ], [ -86.915803805, 33.639160395 ], [ -86.915831305, 33.639343694 ] ] } }
]
}
