{
"type": "FeatureCollection",
"name": "USGS_02419890_UM_12km",
"crs": { "type": "name", "properties": { "name": "urn:ogc:def:crs:OGC:1.3:CRS84" } },
"features": [
{ "type": "Feature", "properties": { "site_no": "02419890", "nhdplus_comid": "21719268", "navigation_mode": "UM", "requested_distance_km": 12.0, "start_source": "nwissite", "start_id": "USGS-02419890", "geometry_length_km": 0.43574806063565602 }, "geometry": { "type": "LineString", "coordinates": [ [ -86.192772307, 32.436389595 ], [ -86.194861606, 32.438969396 ], [ -86.1950977, 32.439494796 ], [ -86.195069733, 32.43972131 ] ] } },
{ "type": "Feature", "properties": { "site_no": "02419890", "nhdplus_comid": "21719278", "navigation_mode": "UM", "requested_distance_km": 12.0, "start_source": "nwissite", "start_id": "USGS-02419890", "geometry_length_km": 2.1302518687494709 }, "geometry": { "type": "LineString", "coordinates": [ [ -86.176624104, 32.440413497 ], [ -86.177563801, 32.440116599 ], [ -86.178385504, 32.439556897 ], [ -86.180645302, 32.437102593 ], [ -86.182098806, 32.435083099 ], [ -86.183577701, 32.434075594 ], [ -86.186607003, 32.432697996 ], [ -86.188886501, 32.432517499 ], [ -86.190226406, 32.432633899 ], [ -86.191160604, 32.433598697 ], [ -86.191853404, 32.435299896 ], [ -86.192772307, 32.436389595 ] ] } },
{ "type": "Feature", "properties": { "site_no": "02419890", "nhdplus_comid": "21719248", "navigation_mode": "UM", "requested_distance_km": 12.0, "start_source": "nwissite", "start_id": "USGS-02419890", "geometry_length_km": 0.75893118006362714 }, "geometry": { "type": "LineString", "coordinates": [ [ -86.169077106, 32.439377896 ], [ -86.169955, 32.439580597 ], [ -86.171068802, 32.440308698 ], [ -86.172259904, 32.440412395 ], [ -86.173379406, 32.439878695 ], [ -86.176624104, 32.440413497 ] ] } },
{ "type": "Feature", "properties": { "site_no": "02419890", "nhdplus_comid": "21719286", "navigation_mode": "UM", "requested_distance_km": 12.0, "start_source": "nwissite", "start_id": "USGS-02419890", "geometry_length_km": 5.2260512344917673 }, "geometry": { "type": "LineString", "coordinates": [ [ -86.129015602, 32.432347298 ], [ -86.1308394, 32.430991895 ], [ -86.131465904, 32.430794194 ], [ -86.134058602, 32.4305159 ], [ -86.136604905, 32.430612199 ], [ -86.138006702, 32.430229694 ], [ -86.143595107, 32.426425695 ], [ -86.1492019, 32.424895398 ], [ -86.150588006, 32.424637593 ], [ -86.151481204, 32.424715593 ], [ -86.152923301, 32.425220095 ], [ -86.154390603, 32.426736698 ], [ -86.154744305, 32.427524999 ], [ -86.154887207, 32.428799793 ], [ -86.1553744, 32.429725997 ], [ -86.155219607, 32.430974893 ], [ -86.154407404, 32.432671294 ], [ -86.154221706, 32.43417 ], [ -86.1548732, 32.4349842 ], [ -86.156362005, 32.435113996 ], [ -86.158390202, 32.434533499 ], [ -86.159581304, 32.434637293 ], [ -86.160992704, 32.435391493 ], [ -86.163260706, 32.437735096 ], [ -86.165221401, 32.438915797 ], [ -86.166679405, 32.439295299 ], [ -86.169077106, 32.439377896 ] ] } },
{ "type": "Feature", "properties": { "site_no": "02419890", "nhdplus_comid": "21719260", "navigation_mode": "UM", "requested_distance_km": 12.0, "start_source": "nwissite", "start_id": "USGS-02419890", "geometry_length_km": 0.40990544449254607 }, "geometry": { "type": "LineString", "coordinates": [ [ -86.125327706, 32.434170797 ], [ -86.127191804, 32.4337027 ], [ -86.129015602, 32.432347298 ] ] } },
{ "type": "Feature", "properties": { "site_no": "02419890", "nhdplus_comid": "21719290", "navigation_mode": "UM", "requested_distance_km": 12.0, "start_source": "nwissite", "start_id": "USGS-02419890", "geometry_length_km": 2.1163899964658501 }, "geometry": { "type": "LineString", "coordinates": [ [ -86.123745002, 32.420272097 ], [ -86.124935806, 32.420376197 ], [ -86.1283684, 32.421812698 ], [ -86.128932804, 32.422114596 ], [ -86.130117305, 32.4234806 ], [ -86.129797801, 32.4248413 ], [ -86.127450004, 32.426782094 ], [ -86.124478303, 32.431319296 ], [ -86.124260902, 32.433067597 ], [ -86.125327706, 32.434170797 ] ] } },
{ "type": "Feature", "properties": { "site_no": "02419890", "nhdplus_comid": "21719288", "navigation_mode": "UM", "requested_distance_km": 12.0, "start_source": "nwissite", "start_id": "USGS-02419890", "geometry_length_km": 0.63087353353457676 }, "geometry": { "type": "LineString", "coordinates": [ [ -86.119347006, 32.424179398 ], [ -86.121170707, 32.4228241 ], [ -86.122327805, 32.420779198 ], [ -86.122985303, 32.420331798 ], [ -86.123745002, 32.420272097 ] ] } },
{ "type": "Feature", "properties": { "site_no": "02419890", "nhdplus_comid": "21719308", "navigation_mode": "UM", "requested_distance_km": 12.0, "start_source": "nwissite", "start_id": "USGS-02419890", "geometry_length_km": 1.2421225197833083 }, "geometry": { "type": "LineString", "coordinates": [ [ -86.113792107, 32.415613294 ], [ -86.1152649, 32.415868498 ], [ -86.116213605, 32.416709095 ], [ -86.116504706, 32.417996995 ], [ -86.116476201, 32.420645699 ], [ -86.116720706, 32.422308296 ], [ -86.117607303, 32.423648298 ], [ -86.119347006, 32.424179398 ] ] } }
]
}
