{
"type": "FeatureCollection",
"name": "USGS_02458190_UM_12km",
"crs": { "type": "name", "properties": { "name": "urn:ogc:def:crs:OGC:1.3:CRS84" } },
"features": [
{ "type": "Feature", "properties": { "site_no": "02458190", "nhdplus_comid": "18566335", "navigation_mode": "UM", "requested_distance_km": 12.0, "start_source": "nwissite", "start_id": "USGS-02458190", "geometry_length_km": 4.4994195695723604 }, "geometry": { "type": "LineString", "coordinates": [ [ -86.724580102, 33.548861593 ], [ -86.724798501, 33.548448995 ], [ -86.725071207, 33.547692798 ], [ -86.7250138, 33.545310199 ], [ -86.725095503, 33.5449894 ], [ -86.7262704, 33.543751299 ], [ -86.726516202, 33.543384597 ], [ -86.727500007, 33.542398594 ], [ -86.728320107, 33.541893899 ], [ -86.728675701, 33.5418019 ], [ -86.731001601, 33.542143598 ], [ -86.734941706, 33.542552695 ], [ -86.738007903, 33.544061899 ], [ -86.739486501, 33.5449083 ], [ -86.740719102, 33.545960896 ], [ -86.740747407, 33.546602398 ], [ -86.740829602, 33.546785593 ], [ -86.743459105, 33.548936695 ], [ -86.743705802, 33.549257196 ], [ -86.744828105, 33.549645595 ], [ -86.745348707, 33.550194897 ], [ -86.746306404, 33.550193995 ], [ -86.748548605, 33.549183793 ], [ -86.749998003, 33.548678294 ], [ -86.751842201, 33.548128694 ], [ -86.752417304, 33.547785595 ], [ -86.753075004, 33.5470303 ], [ -86.7538964, 33.5465957 ], [ -86.754745007, 33.546321698 ], [ -86.755538501, 33.546230793 ], [ -86.7565777, 33.546529599 ], [ -86.760351501, 33.548022397 ], [ -86.761254102, 33.548252299 ], [ -86.761387847, 33.548269394 ] ] } }
]
}
