{
"type": "FeatureCollection",
"name": "USGS_03588500_DM_12km",
"crs": { "type": "name", "properties": { "name": "urn:ogc:def:crs:OGC:1.3:CRS84" } },
"features": [
{ "type": "Feature", "properties": { "site_no": "03588500", "nhdplus_comid": "19577853", "navigation_mode": "DM", "requested_distance_km": 12.0, "start_source": "nwissite", "start_id": "USGS-03588500", "geometry_length_km": 0.10086758007935789 }, "geometry": { "type": "LineString", "coordinates": [ [ -87.578765285, 35.024164916 ], [ -87.578750104, 35.023263499 ] ] } },
{ "type": "Feature", "properties": { "site_no": "03588500", "nhdplus_comid": "19577881", "navigation_mode": "DM", "requested_distance_km": 12.0, "start_source": "nwissite", "start_id": "USGS-03588500", "geometry_length_km": 0.27175577989211552 }, "geometry": { "type": "LineString", "coordinates": [ [ -87.578750104, 35.023263499 ], [ -87.578723006, 35.021866299 ], [ -87.578473002, 35.021041699 ], [ -87.578278102, 35.0209499 ] ] } },
{ "type": "Feature", "properties": { "site_no": "03588500", "nhdplus_comid": "19577893", "navigation_mode": "DM", "requested_distance_km": 12.0, "start_source": "nwissite", "start_id": "USGS-03588500", "geometry_length_km": 0.096439777486200473 }, "geometry": { "type": "LineString", "coordinates": [ [ -87.578278102, 35.0209499 ], [ -87.578167006, 35.020652197 ], [ -87.577944405, 35.020331398 ], [ -87.577944502, 35.0201483 ] ] } },
{ "type": "Feature", "properties": { "site_no": "03588500", "nhdplus_comid": "19577963", "navigation_mode": "DM", "requested_distance_km": 12.0, "start_source": "nwissite", "start_id": "USGS-03588500", "geometry_length_km": 1.6815333190827957 }, "geometry": { "type": "LineString", "coordinates": [ [ -87.577944502, 35.0201483 ], [ -87.576914802, 35.019323297 ], [ -87.575858004, 35.017536297 ], [ -87.575357802, 35.016161896 ], [ -87.575302504, 35.015520498 ], [ -87.574830204, 35.014031693 ], [ -87.5730775, 35.012106895 ], [ -87.572966501, 35.011419795 ], [ -87.573078103, 35.011076197 ], [ -87.575725205, 35.0070922 ], [ -87.575781107, 35.006794393 ] ] } },
{ "type": "Feature", "properties": { "site_no": "03588500", "nhdplus_comid": "19578041", "navigation_mode": "DM", "requested_distance_km": 12.0, "start_source": "nwissite", "start_id": "USGS-03588500", "geometry_length_km": 0.91873474619608708 }, "geometry": { "type": "LineString", "coordinates": [ [ -87.575781107, 35.006794393 ], [ -87.577007204, 35.004573293 ], [ -87.577230304, 35.004000597 ], [ -87.577286206, 35.003405198 ], [ -87.577704303, 35.002374694 ], [ -87.5787348, 35.001458995 ], [ -87.5809623, 35.000097893 ] ] } },
{ "type": "Feature", "properties": { "site_no": "03588500", "nhdplus_comid": "19581527", "navigation_mode": "DM", "requested_distance_km": 12.0, "start_source": "nwissite", "start_id": "USGS-03588500", "geometry_length_km": 0.063524815343376409 }, "geometry": { "type": "LineString", "coordinates": [ [ -87.5809623, 35.000097893 ], [ -87.5816641, 35.000097796 ] ] } },
{ "type": "Feature", "properties": { "site_no": "03588500", "nhdplus_comid": "19579351", "navigation_mode": "DM", "requested_distance_km": 12.0, "start_source": "nwissite", "start_id": "USGS-03588500", "geometry_length_km": 0.20885351133266586 }, "geometry": { "type": "LineString", "coordinates": [ [ -87.5816641, 35.000097796 ], [ -87.581664205, 34.999970198 ], [ -87.581831202, 34.999855794 ], [ -87.583668403, 34.999375395 ] ] } },
{ "type": "Feature", "properties": { "site_no": "03588500", "nhdplus_comid": "19579445", "navigation_mode": "DM", "requested_distance_km": 12.0, "start_source": "nwissite", "start_id": "USGS-03588500", "geometry_length_km": 2.2521193029645175 }, "geometry": { "type": "LineString", "coordinates": [ [ -87.583668403, 34.999375395 ], [ -87.585923404, 34.998299599 ], [ -87.586925805, 34.997681499 ], [ -87.588262103, 34.996582597 ], [ -87.588568501, 34.996216096 ], [ -87.588596404, 34.995826796 ], [ -87.588346303, 34.995185398 ], [ -87.586287804, 34.9926425 ], [ -87.584869705, 34.989916593 ], [ -87.584619701, 34.988588095 ], [ -87.584536202, 34.988542296 ], [ -87.584147505, 34.986870199 ], [ -87.583535701, 34.985816397 ], [ -87.582200602, 34.984395996 ], [ -87.581727803, 34.983731493 ], [ -87.581449807, 34.983021393 ], [ -87.581366405, 34.982975595 ], [ -87.581310906, 34.982700698 ] ] } },
{ "type": "Feature", "properties": { "site_no": "03588500", "nhdplus_comid": "19579533", "navigation_mode": "DM", "requested_distance_km": 12.0, "start_source": "nwissite", "start_id": "USGS-03588500", "geometry_length_km": 5.9693640229405531 }, "geometry": { "type": "LineString", "coordinates": [ [ -87.581310906, 34.982700698 ], [ -87.581478305, 34.981738895 ], [ -87.582202405, 34.980708398 ], [ -87.583956204, 34.979151495 ], [ -87.584512904, 34.978876799 ], [ -87.585152902, 34.978739597 ], [ -87.586655602, 34.978694297 ], [ -87.588074706, 34.978877895 ], [ -87.588742405, 34.979107097 ], [ -87.589799702, 34.979725793 ], [ -87.591023706, 34.980825499 ], [ -87.591774903, 34.981146395 ], [ -87.593945101, 34.981811099 ], [ -87.595169403, 34.982315198 ], [ -87.5958094, 34.982727699 ], [ -87.596949905, 34.983941793 ], [ -87.598619007, 34.986140899 ], [ -87.599119805, 34.986599095 ], [ -87.599648401, 34.986828193 ], [ -87.600594506, 34.987103194 ], [ -87.601067707, 34.986988693 ], [ -87.601540901, 34.986645296 ], [ -87.601902805, 34.985958293 ], [ -87.601931304, 34.983415999 ], [ -87.602043003, 34.982110493 ], [ -87.602349401, 34.980804995 ], [ -87.602015905, 34.978881098 ], [ -87.601849005, 34.978697799 ], [ -87.601570904, 34.978125095 ], [ -87.600597307, 34.976544596 ], [ -87.598872803, 34.974643297 ], [ -87.597259305, 34.973314598 ], [ -87.595423207, 34.972168997 ], [ -87.594087906, 34.9714358 ], [ -87.591556601, 34.969671495 ], [ -87.591167301, 34.969121799 ], [ -87.591167502, 34.968411699 ], [ -87.591278903, 34.968205594 ], [ -87.591612801, 34.967999496 ], [ -87.593811207, 34.967129797 ], [ -87.595035501, 34.966763698 ], [ -87.596092805, 34.966672294 ], [ -87.597233504, 34.966809899 ], [ -87.598429807, 34.966832995 ], [ -87.602046803, 34.966375694 ] ] } },
{ "type": "Feature", "properties": { "site_no": "03588500", "nhdplus_comid": "19579613", "navigation_mode": "DM", "requested_distance_km": 12.0, "start_source": "nwissite", "start_id": "USGS-03588500", "geometry_length_km": 2.4141602889587381 }, "geometry": { "type": "LineString", "coordinates": [ [ -87.602046803, 34.966375694 ], [ -87.602826007, 34.965757295 ], [ -87.602854207, 34.964818299 ], [ -87.602019906, 34.963100396 ], [ -87.601575002, 34.962367393 ], [ -87.598876804, 34.960191093 ], [ -87.597959101, 34.959274694 ], [ -87.597514205, 34.958610393 ], [ -87.596763507, 34.957235999 ], [ -87.596736006, 34.956090793 ], [ -87.596652701, 34.955792993 ], [ -87.596263401, 34.9551287 ], [ -87.595401302, 34.954349793 ], [ -87.594845101, 34.953960396 ], [ -87.593565501, 34.953387395 ], [ -87.593148306, 34.953066796 ], [ -87.592342205, 34.951944195 ], [ -87.591869406, 34.951531798 ], [ -87.591146201, 34.951256797 ], [ -87.590590104, 34.950775698 ], [ -87.589950502, 34.9503861 ], [ -87.588977203, 34.949607193 ], [ -87.5887824, 34.949538298 ] ] } }
]
}
