{
"type": "FeatureCollection",
"name": "USGS_03572900_UM_12km",
"crs": { "type": "name", "properties": { "name": "urn:ogc:def:crs:OGC:1.3:CRS84" } },
"features": [
{ "type": "Feature", "properties": { "site_no": "03572900", "nhdplus_comid": "19648068", "navigation_mode": "UM", "requested_distance_km": 12.0, "start_source": "nwissite", "start_id": "USGS-03572900", "geometry_length_km": 0.42957527343786445 }, "geometry": { "type": "LineString", "coordinates": [ [ -85.985634603, 34.376917794 ], [ -85.989143804, 34.377578899 ], [ -85.989641406, 34.377784595 ], [ -85.990020281, 34.378108146 ] ] } },
{ "type": "Feature", "properties": { "site_no": "03572900", "nhdplus_comid": "19648066", "navigation_mode": "UM", "requested_distance_km": 12.0, "start_source": "nwissite", "start_id": "USGS-03572900", "geometry_length_km": 3.491212691682946 }, "geometry": { "type": "LineString", "coordinates": [ [ -85.955678202, 34.394278698 ], [ -85.959352106, 34.393337294 ], [ -85.960042402, 34.392970398 ], [ -85.960732505, 34.392305695 ], [ -85.962001905, 34.390655793 ], [ -85.962912902, 34.389876395 ], [ -85.963796601, 34.389509298 ], [ -85.965868205, 34.388981096 ], [ -85.967442401, 34.388384394 ], [ -85.968463801, 34.387673698 ], [ -85.968822502, 34.3871466 ], [ -85.969263405, 34.386046894 ], [ -85.969676904, 34.385382399 ], [ -85.970284104, 34.384832196 ], [ -85.971057303, 34.3845568 ], [ -85.9736818, 34.384302899 ], [ -85.974454902, 34.384050295 ], [ -85.979865007, 34.380152196 ], [ -85.983674206, 34.377629593 ], [ -85.984695807, 34.377170496 ], [ -85.985634603, 34.376917794 ] ] } },
{ "type": "Feature", "properties": { "site_no": "03572900", "nhdplus_comid": "19648046", "navigation_mode": "UM", "requested_distance_km": 12.0, "start_source": "nwissite", "start_id": "USGS-03572900", "geometry_length_km": 1.0380964194320526 }, "geometry": { "type": "LineString", "coordinates": [ [ -85.945179701, 34.395498693 ], [ -85.946670704, 34.394238196 ], [ -85.947333604, 34.394008793 ], [ -85.948245406, 34.393939599 ], [ -85.949710205, 34.394373998 ], [ -85.950926207, 34.394602299 ], [ -85.952943206, 34.394646898 ], [ -85.955678202, 34.394278698 ] ] } },
{ "type": "Feature", "properties": { "site_no": "03572900", "nhdplus_comid": "19648040", "navigation_mode": "UM", "requested_distance_km": 12.0, "start_source": "nwissite", "start_id": "USGS-03572900", "geometry_length_km": 0.71391233247330288 }, "geometry": { "type": "LineString", "coordinates": [ [ -85.938052304, 34.397197194 ], [ -85.938632302, 34.396922193 ], [ -85.939930901, 34.396829896 ], [ -85.942887403, 34.396851294 ], [ -85.943799004, 34.396553099 ], [ -85.944517106, 34.3961633 ], [ -85.945179701, 34.395498693 ] ] } },
{ "type": "Feature", "properties": { "site_no": "03572900", "nhdplus_comid": "19648042", "navigation_mode": "UM", "requested_distance_km": 12.0, "start_source": "nwissite", "start_id": "USGS-03572900", "geometry_length_km": 2.1047507844622748 }, "geometry": { "type": "LineString", "coordinates": [ [ -85.926501505, 34.395415798 ], [ -85.927937604, 34.3942701 ], [ -85.929015204, 34.394406997 ], [ -85.929374501, 34.394589998 ], [ -85.930535801, 34.395757698 ], [ -85.930895403, 34.396375999 ], [ -85.930812806, 34.3969028 ], [ -85.930564307, 34.397269398 ], [ -85.929073006, 34.398460999 ], [ -85.928686507, 34.399148293 ], [ -85.928880401, 34.399858199 ], [ -85.929405704, 34.400270194 ], [ -85.930400707, 34.400682099 ], [ -85.931229904, 34.401254296 ], [ -85.931534, 34.401322894 ], [ -85.932832606, 34.401207797 ], [ -85.933689006, 34.400818095 ], [ -85.934324205, 34.400382593 ], [ -85.936257303, 34.398778498 ], [ -85.937361702, 34.397563994 ], [ -85.938052304, 34.397197194 ] ] } },
{ "type": "Feature", "properties": { "site_no": "03572900", "nhdplus_comid": "19648038", "navigation_mode": "UM", "requested_distance_km": 12.0, "start_source": "nwissite", "start_id": "USGS-03572900", "geometry_length_km": 1.5511410924857312 }, "geometry": { "type": "LineString", "coordinates": [ [ -85.914403103, 34.403619394 ], [ -85.914844707, 34.402611598 ], [ -85.915203705, 34.402222 ], [ -85.915866807, 34.402038597 ], [ -85.918574706, 34.401625499 ], [ -85.919790305, 34.401304498 ], [ -85.921668805, 34.400273196 ], [ -85.924265601, 34.399149999 ], [ -85.924817905, 34.398691699 ], [ -85.925038807, 34.398279294 ], [ -85.925480105, 34.397042394 ], [ -85.926501505, 34.395415798 ] ] } },
{ "type": "Feature", "properties": { "site_no": "03572900", "nhdplus_comid": "19648024", "navigation_mode": "UM", "requested_distance_km": 12.0, "start_source": "nwissite", "start_id": "USGS-03572900", "geometry_length_km": 1.2002869569010195 }, "geometry": { "type": "LineString", "coordinates": [ [ -85.907635704, 34.411522999 ], [ -85.908575103, 34.410858594 ], [ -85.911199905, 34.409483694 ], [ -85.912249602, 34.408635996 ], [ -85.9138797, 34.407673597 ], [ -85.914763503, 34.4066884 ], [ -85.914818406, 34.405795097 ], [ -85.914486401, 34.404810399 ], [ -85.914403103, 34.403619394 ] ] } },
{ "type": "Feature", "properties": { "site_no": "03572900", "nhdplus_comid": "19648012", "navigation_mode": "UM", "requested_distance_km": 12.0, "start_source": "nwissite", "start_id": "USGS-03572900", "geometry_length_km": 0.1492976758051382 }, "geometry": { "type": "LineString", "coordinates": [ [ -85.906530604, 34.412507996 ], [ -85.907635704, 34.411522999 ] ] } }
]
}
