{
"type": "FeatureCollection",
"name": "USGS_02407950_DM_12km",
"crs": { "type": "name", "properties": { "name": "urn:ogc:def:crs:OGC:1.3:CRS84" } },
"features": [
{ "type": "Feature", "properties": { "site_no": "02407950", "nhdplus_comid": "22276352", "navigation_mode": "DM", "requested_distance_km": 12.0, "start_source": "nwissite", "start_id": "USGS-02407950", "geometry_length_km": 0.036104697629652321 }, "geometry": { "type": "LineString", "coordinates": [ [ -86.517346351, 32.963970146 ], [ -86.517347306, 32.963962197 ], [ -86.517295703, 32.963649593 ] ] } },
{ "type": "Feature", "properties": { "site_no": "02407950", "nhdplus_comid": "22276354", "navigation_mode": "DM", "requested_distance_km": 12.0, "start_source": "nwissite", "start_id": "USGS-02407950", "geometry_length_km": 0.82574612416353699 }, "geometry": { "type": "LineString", "coordinates": [ [ -86.517295703, 32.963649593 ], [ -86.516733207, 32.960254699 ], [ -86.516808301, 32.959630497 ], [ -86.516313903, 32.957445897 ], [ -86.515834302, 32.956397295 ] ] } },
{ "type": "Feature", "properties": { "site_no": "02407950", "nhdplus_comid": "22276358", "navigation_mode": "DM", "requested_distance_km": 12.0, "start_source": "nwissite", "start_id": "USGS-02407950", "geometry_length_km": 0.97094120486914859 }, "geometry": { "type": "LineString", "coordinates": [ [ -86.515834302, 32.956397295 ], [ -86.515864305, 32.956147596 ], [ -86.515249804, 32.954961695 ], [ -86.515160203, 32.953188993 ], [ -86.515355304, 32.951566197 ], [ -86.5158801, 32.950979598 ], [ -86.515895307, 32.949593894 ], [ -86.516240306, 32.9479836 ] ] } },
{ "type": "Feature", "properties": { "site_no": "02407950", "nhdplus_comid": "22276364", "navigation_mode": "DM", "requested_distance_km": 12.0, "start_source": "nwissite", "start_id": "USGS-02407950", "geometry_length_km": 1.1829170728809122 }, "geometry": { "type": "LineString", "coordinates": [ [ -86.516240306, 32.9479836 ], [ -86.516510904, 32.943214998 ], [ -86.516346104, 32.942066498 ], [ -86.515836604, 32.941267498 ], [ -86.515776806, 32.940505996 ], [ -86.515177503, 32.939195193 ], [ -86.514046006, 32.937902994 ] ] } },
{ "type": "Feature", "properties": { "site_no": "02407950", "nhdplus_comid": "22276368", "navigation_mode": "DM", "requested_distance_km": 12.0, "start_source": "nwissite", "start_id": "USGS-02407950", "geometry_length_km": 0.4414978946214026 }, "geometry": { "type": "LineString", "coordinates": [ [ -86.514046006, 32.937902994 ], [ -86.514294006, 32.933951996 ] ] } },
{ "type": "Feature", "properties": { "site_no": "02407950", "nhdplus_comid": "22276370", "navigation_mode": "DM", "requested_distance_km": 12.0, "start_source": "nwissite", "start_id": "USGS-02407950", "geometry_length_km": 1.5264650292751254 }, "geometry": { "type": "LineString", "coordinates": [ [ -86.514294006, 32.933951996 ], [ -86.514983602, 32.933252998 ], [ -86.515028603, 32.932878494 ], [ -86.5161229, 32.931330696 ], [ -86.516318001, 32.929707795 ], [ -86.515673704, 32.928771496 ], [ -86.515134506, 32.926961295 ], [ -86.512991905, 32.924638994 ], [ -86.512572601, 32.923090994 ], [ -86.511508904, 32.921867393 ] ] } },
{ "type": "Feature", "properties": { "site_no": "02407950", "nhdplus_comid": "22276376", "navigation_mode": "DM", "requested_distance_km": 12.0, "start_source": "nwissite", "start_id": "USGS-02407950", "geometry_length_km": 0.44959678500343808 }, "geometry": { "type": "LineString", "coordinates": [ [ -86.511508904, 32.921867393 ], [ -86.510700002, 32.921043396 ], [ -86.509396307, 32.920556299 ], [ -86.508047901, 32.919182897 ] ] } },
{ "type": "Feature", "properties": { "site_no": "02407950", "nhdplus_comid": "22276378", "navigation_mode": "DM", "requested_distance_km": 12.0, "start_source": "nwissite", "start_id": "USGS-02407950", "geometry_length_km": 1.224191041643238 }, "geometry": { "type": "LineString", "coordinates": [ [ -86.508047901, 32.919182897 ], [ -86.507029407, 32.917584695 ], [ -86.507344805, 32.914963193 ], [ -86.507000402, 32.914051794 ], [ -86.505247802, 32.912266195 ], [ -86.501367204, 32.911815993 ] ] } },
{ "type": "Feature", "properties": { "site_no": "02407950", "nhdplus_comid": "22276384", "navigation_mode": "DM", "requested_distance_km": 12.0, "start_source": "nwissite", "start_id": "USGS-02407950", "geometry_length_km": 0.64469109340538744 }, "geometry": { "type": "LineString", "coordinates": [ [ -86.501367204, 32.911815993 ], [ -86.497187503, 32.910079598 ], [ -86.494925104, 32.910016596 ] ] } },
{ "type": "Feature", "properties": { "site_no": "02407950", "nhdplus_comid": "22276392", "navigation_mode": "DM", "requested_distance_km": 12.0, "start_source": "nwissite", "start_id": "USGS-02407950", "geometry_length_km": 1.9171775168562242 }, "geometry": { "type": "LineString", "coordinates": [ [ -86.494925104, 32.910016596 ], [ -86.4916903, 32.906719796 ], [ -86.490537405, 32.904984094 ], [ -86.490297906, 32.9044597 ], [ -86.490298502, 32.903198794 ], [ -86.489805207, 32.901013896 ], [ -86.489895403, 32.900264896 ], [ -86.4893727, 32.897068694 ], [ -86.489028603, 32.896157295 ], [ -86.487711102, 32.894533798 ] ] } },
{ "type": "Feature", "properties": { "site_no": "02407950", "nhdplus_comid": "22276394", "navigation_mode": "DM", "requested_distance_km": 12.0, "start_source": "nwissite", "start_id": "USGS-02407950", "geometry_length_km": 0.30059866647695765 }, "geometry": { "type": "LineString", "coordinates": [ [ -86.487711102, 32.894533798 ], [ -86.486618705, 32.892298698 ], [ -86.486798607, 32.892061599 ] ] } },
{ "type": "Feature", "properties": { "site_no": "02407950", "nhdplus_comid": "22276410", "navigation_mode": "DM", "requested_distance_km": 12.0, "start_source": "nwissite", "start_id": "USGS-02407950", "geometry_length_km": 2.1109364929272125 }, "geometry": { "type": "LineString", "coordinates": [ [ -86.486798607, 32.892061599 ], [ -86.486409403, 32.891524598 ], [ -86.485661805, 32.888940096 ], [ -86.484719306, 32.886717498 ], [ -86.483447306, 32.884719498 ], [ -86.4821309, 32.881834999 ], [ -86.482071407, 32.881073393 ], [ -86.481368504, 32.879375197 ], [ -86.481489606, 32.8771156 ], [ -86.481175803, 32.875954397 ], [ -86.480173402, 32.8742311 ] ] } }
]
}
