{
"type": "FeatureCollection",
"name": "USGS_02398500_DM_12km",
"crs": { "type": "name", "properties": { "name": "urn:ogc:def:crs:OGC:1.3:CRS84" } },
"features": [
{ "type": "Feature", "properties": { "site_no": "02398500", "nhdplus_comid": "15823237", "navigation_mode": "DM", "requested_distance_km": 12.0, "start_source": "nwissite", "start_id": "USGS-02398500", "geometry_length_km": 1.1835035844750093 }, "geometry": { "type": "LineString", "coordinates": [ [ -85.560577159, 34.263697408 ], [ -85.562621102, 34.262145296 ], [ -85.565122306, 34.259598896 ], [ -85.565375306, 34.258865796 ], [ -85.566304505, 34.2576897 ], [ -85.566573001, 34.255697995 ], [ -85.566200204, 34.255034499 ], [ -85.566233002, 34.254892394 ] ] } },
{ "type": "Feature", "properties": { "site_no": "02398500", "nhdplus_comid": "15823239", "navigation_mode": "DM", "requested_distance_km": 12.0, "start_source": "nwissite", "start_id": "USGS-02398500", "geometry_length_km": 0.027529936249207153 }, "geometry": { "type": "LineString", "coordinates": [ [ -85.566233002, 34.254892394 ], [ -85.566288806, 34.254650399 ] ] } },
{ "type": "Feature", "properties": { "site_no": "02398500", "nhdplus_comid": "15823243", "navigation_mode": "DM", "requested_distance_km": 12.0, "start_source": "nwissite", "start_id": "USGS-02398500", "geometry_length_km": 0.63426296877175092 }, "geometry": { "type": "LineString", "coordinates": [ [ -85.566288806, 34.254650399 ], [ -85.566570707, 34.253429994 ], [ -85.566942304, 34.252959497 ], [ -85.568768106, 34.251990095 ], [ -85.570459604, 34.252016596 ], [ -85.571135804, 34.251573496 ] ] } },
{ "type": "Feature", "properties": { "site_no": "02398500", "nhdplus_comid": "15823247", "navigation_mode": "DM", "requested_distance_km": 12.0, "start_source": "nwissite", "start_id": "USGS-02398500", "geometry_length_km": 0.029216301710973339 }, "geometry": { "type": "LineString", "coordinates": [ [ -85.571135804, 34.251573496 ], [ -85.571256801, 34.251331598 ] ] } },
{ "type": "Feature", "properties": { "site_no": "02398500", "nhdplus_comid": "15823249", "navigation_mode": "DM", "requested_distance_km": 12.0, "start_source": "nwissite", "start_id": "USGS-02398500", "geometry_length_km": 0.029082418374233868 }, "geometry": { "type": "LineString", "coordinates": [ [ -85.571256801, 34.251331598 ], [ -85.571377203, 34.251090795 ] ] } },
{ "type": "Feature", "properties": { "site_no": "02398500", "nhdplus_comid": "15823287", "navigation_mode": "DM", "requested_distance_km": 12.0, "start_source": "nwissite", "start_id": "USGS-02398500", "geometry_length_km": 0.95489697940068086 }, "geometry": { "type": "LineString", "coordinates": [ [ -85.571377203, 34.251090795 ], [ -85.571557805, 34.250729598 ], [ -85.571556501, 34.249595597 ], [ -85.570794001, 34.248392999 ], [ -85.570861101, 34.247895099 ], [ -85.570488207, 34.247231498 ], [ -85.570436604, 34.246470898 ], [ -85.569759302, 34.245779999 ], [ -85.569741204, 34.2447704 ], [ -85.569841906, 34.244023494 ], [ -85.570818506, 34.243383497 ] ] } },
{ "type": "Feature", "properties": { "site_no": "02398500", "nhdplus_comid": "15823289", "navigation_mode": "DM", "requested_distance_km": 12.0, "start_source": "nwissite", "start_id": "USGS-02398500", "geometry_length_km": 0.028453001120471704 }, "geometry": { "type": "LineString", "coordinates": [ [ -85.570818506, 34.243383497 ], [ -85.570856005, 34.243358999 ], [ -85.571117707, 34.243382499 ] ] } },
{ "type": "Feature", "properties": { "site_no": "02398500", "nhdplus_comid": "15823291", "navigation_mode": "DM", "requested_distance_km": 12.0, "start_source": "nwissite", "start_id": "USGS-02398500", "geometry_length_km": 0.077327329212222448 }, "geometry": { "type": "LineString", "coordinates": [ [ -85.571117707, 34.243382499 ], [ -85.571312703, 34.243400097 ], [ -85.5718197, 34.243067794 ] ] } },
{ "type": "Feature", "properties": { "site_no": "02398500", "nhdplus_comid": "15823297", "navigation_mode": "DM", "requested_distance_km": 12.0, "start_source": "nwissite", "start_id": "USGS-02398500", "geometry_length_km": 0.93932060076233792 }, "geometry": { "type": "LineString", "coordinates": [ [ -85.5718197, 34.243067794 ], [ -85.573171802, 34.242181696 ], [ -85.574998602, 34.242346197 ], [ -85.576285005, 34.243091993 ], [ -85.579044804, 34.245482296 ], [ -85.580146402, 34.2455815 ] ] } },
{ "type": "Feature", "properties": { "site_no": "02398500", "nhdplus_comid": "15823281", "navigation_mode": "DM", "requested_distance_km": 12.0, "start_source": "nwissite", "start_id": "USGS-02398500", "geometry_length_km": 0.057933333958933339 }, "geometry": { "type": "LineString", "coordinates": [ [ -85.580146402, 34.2455815 ], [ -85.580776401, 34.245638199 ] ] } },
{ "type": "Feature", "properties": { "site_no": "02398500", "nhdplus_comid": "15823279", "navigation_mode": "DM", "requested_distance_km": 12.0, "start_source": "nwissite", "start_id": "USGS-02398500", "geometry_length_km": 1.6900435906202727 }, "geometry": { "type": "LineString", "coordinates": [ [ -85.580776401, 34.245638199 ], [ -85.581785306, 34.245728999 ], [ -85.582327202, 34.246281698 ], [ -85.584341407, 34.247344799 ], [ -85.585696302, 34.248726599 ], [ -85.587255403, 34.250882596 ], [ -85.5881202, 34.252472296 ], [ -85.588069901, 34.252845697 ], [ -85.588747501, 34.253536597 ], [ -85.589508802, 34.253604993 ], [ -85.591046602, 34.252483398 ], [ -85.591318205, 34.250464097 ] ] } },
{ "type": "Feature", "properties": { "site_no": "02398500", "nhdplus_comid": "15823259", "navigation_mode": "DM", "requested_distance_km": 12.0, "start_source": "nwissite", "start_id": "USGS-02398500", "geometry_length_km": 0.05117223843137985 }, "geometry": { "type": "LineString", "coordinates": [ [ -85.591318205, 34.250464097 ], [ -85.591379404, 34.250009097 ] ] } },
{ "type": "Feature", "properties": { "site_no": "02398500", "nhdplus_comid": "15823311", "navigation_mode": "DM", "requested_distance_km": 12.0, "start_source": "nwissite", "start_id": "USGS-02398500", "geometry_length_km": 3.0005653515725954 }, "geometry": { "type": "LineString", "coordinates": [ [ -85.591379404, 34.250009097 ], [ -85.591465205, 34.249371395 ], [ -85.591108903, 34.248583496 ], [ -85.591559403, 34.244088396 ], [ -85.592742302, 34.243312895 ], [ -85.594499007, 34.241706997 ], [ -85.597016804, 34.240169398 ], [ -85.598806903, 34.238314494 ], [ -85.601662405, 34.236555293 ], [ -85.602152601, 34.236347295 ], [ -85.603658207, 34.236608498 ], [ -85.605013303, 34.237990096 ], [ -85.605250902, 34.238515399 ], [ -85.607300304, 34.240463197 ], [ -85.610932402, 34.240789197 ] ] } }
]
}
