{
"type": "FeatureCollection",
"name": "USGS_02471000_UM_12km",
"crs": { "type": "name", "properties": { "name": "urn:ogc:def:crs:OGC:1.3:CRS84" } },
"features": [
{ "type": "Feature", "properties": { "site_no": "02471000", "nhdplus_comid": "18523609", "navigation_mode": "UM", "requested_distance_km": 12.0, "start_source": "nwissite", "start_id": "USGS-02471000", "geometry_length_km": 0.26062512402119653 }, "geometry": { "type": "LineString", "coordinates": [ [ -88.156199202, 30.821250796 ], [ -88.155907206, 30.821273796 ], [ -88.155641705, 30.8214572 ], [ -88.155031003, 30.821526095 ], [ -88.154632702, 30.821457498 ], [ -88.154473305, 30.821251199 ], [ -88.1544201, 30.820953399 ], [ -88.154207323, 30.820627062 ] ] } },
{ "type": "Feature", "properties": { "site_no": "02471000", "nhdplus_comid": "18523977", "navigation_mode": "UM", "requested_distance_km": 12.0, "start_source": "nwissite", "start_id": "USGS-02471000", "geometry_length_km": 2.3088292564240582 }, "geometry": { "type": "LineString", "coordinates": [ [ -88.166110203, 30.835478999 ], [ -88.166083306, 30.834814399 ], [ -88.165870607, 30.834630996 ], [ -88.165233202, 30.834562495 ], [ -88.165073901, 30.834447995 ], [ -88.1650737, 30.8342188 ], [ -88.165339105, 30.833577096 ], [ -88.165922806, 30.832522795 ], [ -88.165975802, 30.832156099 ], [ -88.165869303, 30.8318353 ], [ -88.165683404, 30.831697799 ], [ -88.165471002, 30.831652097 ], [ -88.165258706, 30.831995897 ], [ -88.1651261, 30.832408398 ], [ -88.164860502, 30.832408495 ], [ -88.164727606, 30.832156494 ], [ -88.164594807, 30.831973195 ], [ -88.164329104, 30.831767 ], [ -88.164063506, 30.831515096 ], [ -88.1639302, 30.830621295 ], [ -88.163850501, 30.8304381 ], [ -88.163664602, 30.830323495 ], [ -88.162841305, 30.8300488 ], [ -88.162841007, 30.829636298 ], [ -88.163132802, 30.828925796 ], [ -88.163159303, 30.828536198 ], [ -88.163053006, 30.828329995 ], [ -88.162707604, 30.828146793 ], [ -88.162495203, 30.827917695 ], [ -88.1620434, 30.8271387 ], [ -88.160237007, 30.825535096 ], [ -88.160130307, 30.824114293 ], [ -88.160023905, 30.823793493 ], [ -88.159784906, 30.823518597 ], [ -88.159439601, 30.823381193 ], [ -88.1589351, 30.823358394 ], [ -88.1586961, 30.8232897 ], [ -88.158244506, 30.8228544 ], [ -88.1576868, 30.822648294 ], [ -88.1575009, 30.822602496 ], [ -88.1571557, 30.822487995 ], [ -88.156544805, 30.821915299 ], [ -88.156225801, 30.8214112 ], [ -88.156199202, 30.821250796 ] ] } },
{ "type": "Feature", "properties": { "site_no": "02471000", "nhdplus_comid": "18523969", "navigation_mode": "UM", "requested_distance_km": 12.0, "start_source": "nwissite", "start_id": "USGS-02471000", "geometry_length_km": 2.0309927759665927 }, "geometry": { "type": "LineString", "coordinates": [ [ -88.175439507, 30.849683397 ], [ -88.174907804, 30.848835796 ], [ -88.174137004, 30.847896494 ], [ -88.173552401, 30.847392596 ], [ -88.173552401, 30.847278096 ], [ -88.173446007, 30.847186394 ], [ -88.173339702, 30.846911393 ], [ -88.173313007, 30.846705295 ], [ -88.1731802, 30.846590698 ], [ -88.1731534, 30.846292794 ], [ -88.173233002, 30.846224099 ], [ -88.173312306, 30.845467694 ], [ -88.173206002, 30.845307298 ], [ -88.173206002, 30.845238596 ], [ -88.172860406, 30.844665796 ], [ -88.172621205, 30.844413795 ], [ -88.171479002, 30.844001696 ], [ -88.171293005, 30.843749799 ], [ -88.1713458, 30.843268499 ], [ -88.171611205, 30.842901796 ], [ -88.171637401, 30.842305996 ], [ -88.171584204, 30.842076793 ], [ -88.171265401, 30.841756098 ], [ -88.170681, 30.84155 ], [ -88.170282401, 30.841160595 ], [ -88.170229204, 30.840931498 ], [ -88.170308605, 30.840541899 ], [ -88.170308404, 30.840060599 ], [ -88.170016102, 30.839648195 ], [ -88.169962801, 30.839419194 ], [ -88.1700157, 30.839052498 ], [ -88.170068607, 30.838364899 ], [ -88.169829205, 30.837792195 ], [ -88.169271201, 30.837265298 ], [ -88.168740004, 30.836921796 ], [ -88.168394506, 30.836463593 ], [ -88.168288305, 30.836440593 ], [ -88.168261603, 30.8363261 ], [ -88.167703904, 30.836188696 ], [ -88.167146102, 30.8359598 ], [ -88.166349202, 30.835639298 ], [ -88.166110203, 30.835478999 ] ] } },
{ "type": "Feature", "properties": { "site_no": "02471000", "nhdplus_comid": "18523567", "navigation_mode": "UM", "requested_distance_km": 12.0, "start_source": "nwissite", "start_id": "USGS-02471000", "geometry_length_km": 0.52334503733806881 }, "geometry": { "type": "LineString", "coordinates": [ [ -88.178283207, 30.852546796 ], [ -88.178017601, 30.852478094 ], [ -88.1773533, 30.851997197 ], [ -88.177087501, 30.8517223 ], [ -88.176981002, 30.851332694 ], [ -88.177299403, 30.850851394 ], [ -88.177352503, 30.850667998 ], [ -88.177246206, 30.850576393 ], [ -88.176715001, 30.850645393 ], [ -88.176582105, 30.850507997 ], [ -88.176475607, 30.850049697 ], [ -88.176289603, 30.849912293 ], [ -88.175678603, 30.8496833 ], [ -88.175439507, 30.849683397 ] ] } },
{ "type": "Feature", "properties": { "site_no": "02471000", "nhdplus_comid": "18523563", "navigation_mode": "UM", "requested_distance_km": 12.0, "start_source": "nwissite", "start_id": "USGS-02471000", "geometry_length_km": 0.42152996607029425 }, "geometry": { "type": "LineString", "coordinates": [ [ -88.178975306, 30.854975596 ], [ -88.178762704, 30.854860999 ], [ -88.178470306, 30.854540296 ], [ -88.1784968, 30.854356997 ], [ -88.179373302, 30.854356594 ], [ -88.179479405, 30.854219094 ], [ -88.179532602, 30.854081593 ], [ -88.179452807, 30.854012795 ], [ -88.179452702, 30.853875294 ], [ -88.179293305, 30.853714995 ], [ -88.179027505, 30.853348494 ], [ -88.178336501, 30.852730095 ], [ -88.178283207, 30.852546796 ] ] } },
{ "type": "Feature", "properties": { "site_no": "02471000", "nhdplus_comid": "18523553", "navigation_mode": "UM", "requested_distance_km": 12.0, "start_source": "nwissite", "start_id": "USGS-02471000", "geometry_length_km": 1.1615032076040028 }, "geometry": { "type": "LineString", "coordinates": [ [ -88.176164106, 30.862836994 ], [ -88.176084206, 30.862355798 ], [ -88.176269904, 30.861989096 ], [ -88.176429205, 30.8618057 ], [ -88.176588401, 30.861576498 ], [ -88.176641501, 30.861393094 ], [ -88.176721103, 30.861324295 ], [ -88.177172706, 30.861209594 ], [ -88.177411504, 30.860934496 ], [ -88.177490905, 30.860384397 ], [ -88.177570507, 30.860155299 ], [ -88.177729703, 30.859926 ], [ -88.178473204, 30.859398596 ], [ -88.179083802, 30.858940095 ], [ -88.180146202, 30.858572893 ], [ -88.180438302, 30.858320698 ], [ -88.1805178, 30.858183198 ], [ -88.180597506, 30.858137295 ], [ -88.180596404, 30.856304094 ], [ -88.180277407, 30.8558916 ], [ -88.180117704, 30.855547898 ], [ -88.179692507, 30.855181396 ], [ -88.179267503, 30.854998395 ], [ -88.178975306, 30.854975596 ] ] } },
{ "type": "Feature", "properties": { "site_no": "02471000", "nhdplus_comid": "18523535", "navigation_mode": "UM", "requested_distance_km": 12.0, "start_source": "nwissite", "start_id": "USGS-02471000", "geometry_length_km": 0.040728077909469376 }, "geometry": { "type": "LineString", "coordinates": [ [ -88.175925203, 30.863134995 ], [ -88.176031306, 30.862951599 ], [ -88.176164106, 30.862836994 ] ] } },
{ "type": "Feature", "properties": { "site_no": "02471000", "nhdplus_comid": "18523531", "navigation_mode": "UM", "requested_distance_km": 12.0, "start_source": "nwissite", "start_id": "USGS-02471000", "geometry_length_km": 1.3879935490610071 }, "geometry": { "type": "LineString", "coordinates": [ [ -88.179331101, 30.872506194 ], [ -88.179118507, 30.8722772 ], [ -88.178905606, 30.871750198 ], [ -88.178905301, 30.871131495 ], [ -88.178533003, 30.870558798 ], [ -88.178399801, 30.870077498 ], [ -88.178373106, 30.869756795 ], [ -88.178532302, 30.869504698 ], [ -88.179116704, 30.869366899 ], [ -88.179169506, 30.868931398 ], [ -88.178691, 30.868358694 ], [ -88.178664304, 30.868152499 ], [ -88.178929903, 30.8679462 ], [ -88.178903304, 30.8677627 ], [ -88.178664006, 30.867625296 ], [ -88.178265505, 30.867579699 ], [ -88.178132705, 30.867510997 ], [ -88.178132601, 30.867396399 ], [ -88.178079404, 30.867350593 ], [ -88.178025506, 30.866021499 ], [ -88.177998804, 30.865723699 ], [ -88.177892506, 30.865654893 ], [ -88.177865602, 30.865104996 ], [ -88.177759305, 30.8649446 ], [ -88.177307606, 30.864876099 ], [ -88.1770152, 30.864509493 ], [ -88.176377602, 30.864395194 ], [ -88.176191606, 30.864303596 ], [ -88.176164903, 30.864097394 ], [ -88.176217906, 30.863936998 ], [ -88.176722601, 30.863845095 ], [ -88.176695801, 30.863570094 ], [ -88.176005103, 30.863318399 ], [ -88.175925203, 30.863134995 ] ] } },
{ "type": "Feature", "properties": { "site_no": "02471000", "nhdplus_comid": "18523529", "navigation_mode": "UM", "requested_distance_km": 12.0, "start_source": "nwissite", "start_id": "USGS-02471000", "geometry_length_km": 4.5741230301529301 }, "geometry": { "type": "LineString", "coordinates": [ [ -88.191283703, 30.904834695 ], [ -88.190937907, 30.904559895 ], [ -88.190379702, 30.904262394 ], [ -88.190220006, 30.904033296 ], [ -88.190139905, 30.9033916 ], [ -88.189953707, 30.903208397 ], [ -88.1899269, 30.902933493 ], [ -88.190484807, 30.902703993 ], [ -88.1910161, 30.902405798 ], [ -88.191201806, 30.9019932 ], [ -88.191307701, 30.901397295 ], [ -88.192184106, 30.900686495 ], [ -88.1922637, 30.900548995 ], [ -88.192290105, 30.900365598 ], [ -88.192157105, 30.900090694 ], [ -88.192050606, 30.899769895 ], [ -88.191997007, 30.899219997 ], [ -88.191917002, 30.898922093 ], [ -88.1919429, 30.897867896 ], [ -88.191809803, 30.897684596 ], [ -88.191756502, 30.897363797 ], [ -88.191968806, 30.897042893 ], [ -88.192074604, 30.896401197 ], [ -88.192127101, 30.895622097 ], [ -88.191568606, 30.894866094 ], [ -88.191090107, 30.894591399 ], [ -88.190983601, 30.894408196 ], [ -88.191009603, 30.893537395 ], [ -88.191195406, 30.893262297 ], [ -88.191301607, 30.8931247 ], [ -88.191620402, 30.893032894 ], [ -88.191832803, 30.892849393 ], [ -88.191513605, 30.8922996 ], [ -88.191513203, 30.891818397 ], [ -88.191938102, 30.891451493 ], [ -88.191964507, 30.891199395 ], [ -88.191858105, 30.891039096 ], [ -88.1916719, 30.8909017 ], [ -88.191167004, 30.890718594 ], [ -88.190901101, 30.890581295 ], [ -88.190847903, 30.8903521 ], [ -88.190608405, 30.890077196 ], [ -88.1902363, 30.8900088 ], [ -88.190076806, 30.889939994 ], [ -88.190103203, 30.889619194 ], [ -88.190448403, 30.889343999 ], [ -88.190554604, 30.889137797 ], [ -88.1905808, 30.888793997 ], [ -88.190368101, 30.8885649 ], [ -88.190341406, 30.888450399 ], [ -88.190421, 30.888221197 ], [ -88.1906332, 30.887785599 ], [ -88.190659605, 30.887464799 ], [ -88.1904203, 30.887189895 ], [ -88.190366901, 30.8868462 ], [ -88.190313704, 30.886731595 ], [ -88.189968102, 30.886548497 ], [ -88.189835101, 30.886319399 ], [ -88.189807303, 30.884715393 ], [ -88.189700902, 30.884554997 ], [ -88.189488307, 30.884371698 ], [ -88.189355202, 30.884096898 ], [ -88.189328507, 30.883844793 ], [ -88.189222105, 30.883753195 ], [ -88.189009003, 30.883019999 ], [ -88.188929304, 30.882928297 ], [ -88.1887962, 30.8826764 ], [ -88.188769005, 30.881713897 ], [ -88.188689202, 30.8816223 ], [ -88.188688703, 30.880911894 ], [ -88.188396201, 30.880476698 ], [ -88.188342802, 30.880293399 ], [ -88.188103601, 30.879995599 ], [ -88.187837802, 30.879858196 ], [ -88.187412605, 30.8797668 ], [ -88.187226504, 30.879583493 ], [ -88.187120005, 30.879285693 ], [ -88.186987005, 30.879079498 ], [ -88.186960302, 30.878919095 ], [ -88.186401904, 30.878254898 ], [ -88.185869902, 30.877315395 ], [ -88.1855243, 30.8768344 ], [ -88.185019203, 30.876536697 ], [ -88.184567504, 30.876353696 ], [ -88.184328206, 30.876170397 ], [ -88.184248403, 30.876032993 ], [ -88.183743306, 30.875597797 ], [ -88.183636807, 30.8751854 ], [ -88.183237605, 30.874039695 ], [ -88.183157802, 30.873879395 ], [ -88.1831576, 30.873764798 ], [ -88.182758905, 30.873398393 ], [ -88.182758801, 30.873283796 ], [ -88.182546102, 30.872917295 ], [ -88.1821208, 30.872596599 ], [ -88.181111105, 30.872459598 ], [ -88.180792205, 30.8722535 ], [ -88.180553101, 30.872230694 ], [ -88.179862402, 30.872437194 ], [ -88.179331101, 30.872506194 ] ] } }
]
}
