{
"type": "FeatureCollection",
"name": "USGS_02456500_DM_12km",
"crs": { "type": "name", "properties": { "name": "urn:ogc:def:crs:OGC:1.3:CRS84" } },
"features": [
{ "type": "Feature", "properties": { "site_no": "02456500", "nhdplus_comid": "18566317", "navigation_mode": "DM", "requested_distance_km": 12.0, "start_source": "nwissite", "start_id": "USGS-02456500", "geometry_length_km": 1.6674676274321163 }, "geometry": { "type": "LineString", "coordinates": [ [ -86.983945641, 33.709350778 ], [ -86.984120101, 33.709223799 ], [ -86.987158902, 33.706219897 ], [ -86.987652101, 33.705967493 ], [ -86.988309607, 33.705783598 ], [ -86.993708506, 33.705114193 ], [ -86.9999974, 33.704123095 ] ] } },
{ "type": "Feature", "properties": { "site_no": "02456500", "nhdplus_comid": "18567267", "navigation_mode": "DM", "requested_distance_km": 12.0, "start_source": "nwissite", "start_id": "USGS-02456500", "geometry_length_km": 0.18751494131985449 }, "geometry": { "type": "LineString", "coordinates": [ [ -86.9999974, 33.704123095 ], [ -87.000449702, 33.703871496 ], [ -87.001218602, 33.702818498 ] ] } },
{ "type": "Feature", "properties": { "site_no": "02456500", "nhdplus_comid": "18567271", "navigation_mode": "DM", "requested_distance_km": 12.0, "start_source": "nwissite", "start_id": "USGS-02456500", "geometry_length_km": 0.32839819455389252 }, "geometry": { "type": "LineString", "coordinates": [ [ -87.001218602, 33.702818498 ], [ -87.001438804, 33.702268898 ], [ -87.001495905, 33.7006194 ], [ -87.001716204, 33.6999323 ] ] } },
{ "type": "Feature", "properties": { "site_no": "02456500", "nhdplus_comid": "18567281", "navigation_mode": "DM", "requested_distance_km": 12.0, "start_source": "nwissite", "start_id": "USGS-02456500", "geometry_length_km": 8.246611902988219 }, "geometry": { "type": "LineString", "coordinates": [ [ -87.001716204, 33.6999323 ], [ -87.002429701, 33.699131198 ], [ -87.003006004, 33.698719397 ], [ -87.003773905, 33.698353596 ], [ -87.004294805, 33.698262498 ], [ -87.005034402, 33.698561095 ], [ -87.007498905, 33.700258799 ], [ -87.008265406, 33.700900994 ], [ -87.0092787, 33.701566398 ], [ -87.010018304, 33.701910697 ], [ -87.011032306, 33.702026099 ], [ -87.0124854, 33.701729596 ], [ -87.013390303, 33.701363996 ], [ -87.0142956, 33.700746194 ], [ -87.015063904, 33.7000826 ], [ -87.016134501, 33.698800497 ], [ -87.016080804, 33.697906993 ], [ -87.015780002, 33.697265297 ], [ -87.0153694, 33.696898296 ], [ -87.014684707, 33.696531199 ], [ -87.013780504, 33.696255498 ], [ -87.012246206, 33.695956193 ], [ -87.009753406, 33.694945894 ], [ -87.008301802, 33.694188394 ], [ -87.006686106, 33.693201795 ], [ -87.005728006, 33.6923761 ], [ -87.002498604, 33.6891426 ], [ -87.002143204, 33.688546598 ], [ -87.0019795, 33.688019596 ], [ -87.001897305, 33.687973693 ], [ -87.001815706, 33.687561296 ], [ -87.001761802, 33.6869426 ], [ -87.002586104, 33.685362697 ], [ -87.003081404, 33.683873996 ], [ -87.003193006, 33.682499498 ], [ -87.002812907, 33.679910399 ], [ -87.003253005, 33.678765297 ], [ -87.003856502, 33.6781931 ], [ -87.004432403, 33.677918799 ], [ -87.005062804, 33.677759096 ], [ -87.006076701, 33.677737199 ], [ -87.0070353, 33.6780589 ], [ -87.008759804, 33.679457895 ], [ -87.009499006, 33.679939799 ], [ -87.010375403, 33.680330098 ], [ -87.0112793, 33.680582896 ], [ -87.011745207, 33.680514596 ], [ -87.012101807, 33.6803087 ], [ -87.012568407, 33.679713599 ], [ -87.012596801, 33.678888798 ], [ -87.012460306, 33.678476296 ], [ -87.011612505, 33.677215494 ], [ -87.011174805, 33.676733993 ], [ -87.009862006, 33.674854197 ], [ -87.008220606, 33.672813699 ], [ -87.006223001, 33.6708415 ], [ -87.004992306, 33.669190794 ], [ -87.004336402, 33.668044597 ], [ -87.004146203, 33.666921794 ], [ -87.004228704, 33.666646995 ], [ -87.0065891, 33.663510695 ], [ -87.007823803, 33.662183098 ], [ -87.008838706, 33.661313497 ], [ -87.0094143, 33.661084995 ], [ -87.010373205, 33.661062993 ] ] } }
]
}
