{
"type": "FeatureCollection",
"name": "USGS_02424940_DM_12km",
"crs": { "type": "name", "properties": { "name": "urn:ogc:def:crs:OGC:1.3:CRS84" } },
"features": [
{ "type": "Feature", "properties": { "site_no": "02424940", "nhdplus_comid": "21661304", "navigation_mode": "DM", "requested_distance_km": 12.0, "start_source": "nwissite", "start_id": "USGS-02424940", "geometry_length_km": 0.21945927150911873 }, "geometry": { "type": "LineString", "coordinates": [ [ -87.089444886, 32.533048608 ], [ -87.089424007, 32.533008799 ], [ -87.089451306, 32.532664999 ], [ -87.089640707, 32.532412998 ], [ -87.090073407, 32.532298595 ], [ -87.090371102, 32.5321154 ], [ -87.090479307, 32.531909198 ], [ -87.090506501, 32.531542599 ] ] } },
{ "type": "Feature", "properties": { "site_no": "02424940", "nhdplus_comid": "21661346", "navigation_mode": "DM", "requested_distance_km": 12.0, "start_source": "nwissite", "start_id": "USGS-02424940", "geometry_length_km": 2.518796535273776 }, "geometry": { "type": "LineString", "coordinates": [ [ -87.090506501, 32.531542599 ], [ -87.090506904, 32.530648999 ], [ -87.0903989, 32.530167796 ], [ -87.089885302, 32.529251099 ], [ -87.089696102, 32.528953195 ], [ -87.089588106, 32.528563596 ], [ -87.089858904, 32.527738795 ], [ -87.090643607, 32.526891194 ], [ -87.090697706, 32.526684999 ], [ -87.091374107, 32.525768496 ], [ -87.091482505, 32.525356196 ], [ -87.091239102, 32.524989493 ], [ -87.091239303, 32.524554096 ], [ -87.091347605, 32.524370797 ], [ -87.091780402, 32.524164699 ], [ -87.092402503, 32.524119094 ], [ -87.093321905, 32.524394296 ], [ -87.093835801, 32.524371393 ], [ -87.094106406, 32.524188198 ], [ -87.094079606, 32.523386195 ], [ -87.093998507, 32.523340397 ], [ -87.093890406, 32.522996694 ], [ -87.093917802, 32.522194698 ], [ -87.094080105, 32.521850996 ], [ -87.094594203, 32.521438695 ], [ -87.095649004, 32.521118097 ], [ -87.0961629, 32.520866193 ], [ -87.096947402, 32.520247795 ], [ -87.097542703, 32.519514598 ], [ -87.097948603, 32.518598199 ], [ -87.0980573, 32.516696297 ], [ -87.097976401, 32.515848495 ], [ -87.0978413, 32.515573494 ], [ -87.096462503, 32.514312893 ], [ -87.096435502, 32.514015093 ] ] } },
{ "type": "Feature", "properties": { "site_no": "02424940", "nhdplus_comid": "21661364", "navigation_mode": "DM", "requested_distance_km": 12.0, "start_source": "nwissite", "start_id": "USGS-02424940", "geometry_length_km": 1.6022021546723744 }, "geometry": { "type": "LineString", "coordinates": [ [ -87.096435502, 32.514015093 ], [ -87.096868306, 32.5137631 ], [ -87.098788306, 32.513786495 ], [ -87.099275105, 32.513626099 ], [ -87.099680901, 32.513282597 ], [ -87.0999244, 32.5128472 ], [ -87.100249305, 32.511747397 ], [ -87.100276403, 32.511174597 ], [ -87.099979207, 32.510051794 ], [ -87.099979401, 32.509158194 ], [ -87.100087702, 32.508722797 ], [ -87.100168802, 32.508676998 ], [ -87.100223206, 32.507668793 ], [ -87.099574506, 32.506797798 ], [ -87.099574603, 32.506408297 ], [ -87.099709801, 32.506270893 ], [ -87.100196503, 32.506225094 ], [ -87.101169907, 32.5066607 ], [ -87.101845905, 32.506523296 ], [ -87.102576204, 32.505881898 ], [ -87.102900803, 32.505309097 ], [ -87.102901004, 32.504713394 ] ] } },
{ "type": "Feature", "properties": { "site_no": "02424940", "nhdplus_comid": "21661376", "navigation_mode": "DM", "requested_distance_km": 12.0, "start_source": "nwissite", "start_id": "USGS-02424940", "geometry_length_km": 0.47750668435544003 }, "geometry": { "type": "LineString", "coordinates": [ [ -87.102901004, 32.504713394 ], [ -87.102306001, 32.504758999 ], [ -87.1018463, 32.505125597 ], [ -87.101035006, 32.505239993 ], [ -87.100818805, 32.505033799 ], [ -87.100818902, 32.5045297 ], [ -87.101738602, 32.503498696 ], [ -87.101873904, 32.503017597 ] ] } },
{ "type": "Feature", "properties": { "site_no": "02424940", "nhdplus_comid": "21661394", "navigation_mode": "DM", "requested_distance_km": 12.0, "start_source": "nwissite", "start_id": "USGS-02424940", "geometry_length_km": 0.48032575842530401 }, "geometry": { "type": "LineString", "coordinates": [ [ -87.101873904, 32.503017597 ], [ -87.103388406, 32.502376199 ], [ -87.104064703, 32.501872294 ], [ -87.105146706, 32.500818498 ], [ -87.105498403, 32.500143394 ] ] } },
{ "type": "Feature", "properties": { "site_no": "02424940", "nhdplus_comid": "21662246", "navigation_mode": "DM", "requested_distance_km": 12.0, "start_source": "nwissite", "start_id": "USGS-02424940", "geometry_length_km": 1.1285181262540138 }, "geometry": { "type": "LineString", "coordinates": [ [ -87.105498403, 32.500143394 ], [ -87.106526107, 32.499186896 ], [ -87.107202105, 32.498934798 ], [ -87.108148701, 32.498155996 ], [ -87.108824804, 32.497376896 ], [ -87.1089871, 32.497010395 ], [ -87.108987503, 32.4958876 ], [ -87.108690403, 32.494260594 ], [ -87.108663402, 32.493802398 ], [ -87.108771704, 32.493275397 ], [ -87.109907605, 32.491534099 ] ] } },
{ "type": "Feature", "properties": { "site_no": "02424940", "nhdplus_comid": "21662544", "navigation_mode": "DM", "requested_distance_km": 12.0, "start_source": "nwissite", "start_id": "USGS-02424940", "geometry_length_km": 1.0211239332856195 }, "geometry": { "type": "LineString", "coordinates": [ [ -87.109907605, 32.491534099 ], [ -87.1102321, 32.491190396 ], [ -87.111259706, 32.489678293 ], [ -87.111935601, 32.489082597 ], [ -87.113152206, 32.488601498 ], [ -87.114395805, 32.4885787 ], [ -87.1150176, 32.488464199 ], [ -87.115774706, 32.488097496 ], [ -87.1164506, 32.487593397 ], [ -87.116558701, 32.487547599 ], [ -87.117396906, 32.486493699 ], [ -87.117748402, 32.486195698 ], [ -87.117829502, 32.486035295 ] ] } },
{ "type": "Feature", "properties": { "site_no": "02424940", "nhdplus_comid": "21662286", "navigation_mode": "DM", "requested_distance_km": 12.0, "start_source": "nwissite", "start_id": "USGS-02424940", "geometry_length_km": 5.882180054404631 }, "geometry": { "type": "LineString", "coordinates": [ [ -87.117829502, 32.486035295 ], [ -87.118045807, 32.486012496 ], [ -87.119451605, 32.485393897 ], [ -87.120370805, 32.485256396 ], [ -87.1211548, 32.485325195 ], [ -87.121722504, 32.484912798 ], [ -87.121722504, 32.484568998 ], [ -87.121317007, 32.483973198 ], [ -87.121263005, 32.483698294 ], [ -87.121803604, 32.4833088 ], [ -87.1221551, 32.482827596 ], [ -87.122587606, 32.482690096 ], [ -87.1238041, 32.4826902 ], [ -87.125020705, 32.482965097 ], [ -87.125696503, 32.483079597 ], [ -87.126372404, 32.483079694 ], [ -87.126777805, 32.482827596 ], [ -87.126777805, 32.4822089 ], [ -87.126075007, 32.481544398 ], [ -87.125939801, 32.4813153 ], [ -87.126020901, 32.481063299 ], [ -87.126912907, 32.480238393 ], [ -87.126912802, 32.479825899 ], [ -87.126696505, 32.479046799 ], [ -87.126885802, 32.478748895 ], [ -87.127237201, 32.478703097 ], [ -87.128183305, 32.479184195 ], [ -87.128859207, 32.479688399 ], [ -87.129345804, 32.479894593 ], [ -87.129778303, 32.479963295 ], [ -87.129994504, 32.479894497 ], [ -87.1305352, 32.479527898 ], [ -87.130886607, 32.4791383 ], [ -87.131048702, 32.478657097 ], [ -87.131102704, 32.477259293 ], [ -87.131427102, 32.477236398 ], [ -87.132454403, 32.477625795 ], [ -87.132859804, 32.477648795 ], [ -87.133481607, 32.477304995 ], [ -87.134184301, 32.476594597 ], [ -87.134778902, 32.4757239 ], [ -87.135049202, 32.475563496 ], [ -87.135535806, 32.475448795 ], [ -87.1361304, 32.475654997 ], [ -87.136914402, 32.476090297 ], [ -87.137536205, 32.476273499 ], [ -87.138049804, 32.476296298 ], [ -87.139320306, 32.476067096 ], [ -87.140320301, 32.475700296 ], [ -87.141725801, 32.474966995 ], [ -87.142374501, 32.474714793 ], [ -87.143753104, 32.474485494 ], [ -87.144564003, 32.474141598 ], [ -87.144780204, 32.473981194 ], [ -87.144834101, 32.473431297 ], [ -87.144752905, 32.473156296 ], [ -87.144076906, 32.472446099 ], [ -87.143860705, 32.471964896 ], [ -87.143860504, 32.471552499 ], [ -87.1440496, 32.471254595 ], [ -87.144509107, 32.471094094 ], [ -87.145887606, 32.471070997 ], [ -87.14632, 32.470841795 ], [ -87.1468876, 32.470841594 ], [ -87.147482403, 32.471253894 ], [ -87.149590805, 32.471276499 ], [ -87.149861105, 32.471391 ], [ -87.150212601, 32.4716888 ], [ -87.150753506, 32.472376093 ], [ -87.151023902, 32.472444795 ], [ -87.152591601, 32.472398594 ], [ -87.154321402, 32.472100295 ], [ -87.1553756, 32.4720084 ], [ -87.155997306, 32.472076997 ], [ -87.156754404, 32.472580895 ], [ -87.156943604, 32.472626694 ], [ -87.157024607, 32.472557895 ], [ -87.157024205, 32.471503794 ], [ -87.157186307, 32.471205898 ], [ -87.157510601, 32.471137099 ], [ -87.157835007, 32.4713891 ], [ -87.157970704, 32.472351395 ], [ -87.158105902, 32.472443096 ], [ -87.158862703, 32.472351193 ] ] } }
]
}
