{
"type": "FeatureCollection",
"name": "USGS_02480150_DM_12km",
"crs": { "type": "name", "properties": { "name": "urn:ogc:def:crs:OGC:1.3:CRS84" } },
"features": [
{ "type": "Feature", "properties": { "site_no": "02480150", "nhdplus_comid": "18096243", "navigation_mode": "DM", "requested_distance_km": 12.0, "start_source": "nwissite", "start_id": "USGS-02480150", "geometry_length_km": 0.25147633755186594 }, "geometry": { "type": "LineString", "coordinates": [ [ -88.385773162, 30.468912614 ], [ -88.386100307, 30.468689896 ], [ -88.386444204, 30.468346097 ], [ -88.386655703, 30.468139797 ], [ -88.387766704, 30.467635497 ], [ -88.387766801, 30.467543796 ] ] } },
{ "type": "Feature", "properties": { "site_no": "02480150", "nhdplus_comid": "18096245", "navigation_mode": "DM", "requested_distance_km": 12.0, "start_source": "nwissite", "start_id": "USGS-02480150", "geometry_length_km": 1.8454444560751351 }, "geometry": { "type": "LineString", "coordinates": [ [ -88.387766801, 30.467543796 ], [ -88.388269402, 30.467543699 ], [ -88.389803901, 30.467818394 ], [ -88.3919999, 30.4687576 ], [ -88.392793804, 30.4693304 ], [ -88.392926201, 30.469559498 ], [ -88.393032104, 30.469834499 ], [ -88.392979302, 30.470613599 ], [ -88.392926507, 30.4710261 ], [ -88.3930059, 30.471255295 ], [ -88.393905804, 30.472286299 ], [ -88.396922506, 30.474416897 ], [ -88.398086801, 30.474851996 ], [ -88.398351304, 30.474920698 ], [ -88.398827806, 30.475080997 ], [ -88.399039306, 30.475126699 ], [ -88.4004419, 30.475905597 ], [ -88.4021089, 30.476661399 ], [ -88.402294107, 30.476661399 ] ] } },
{ "type": "Feature", "properties": { "site_no": "02480150", "nhdplus_comid": "18096061", "navigation_mode": "DM", "requested_distance_km": 12.0, "start_source": "nwissite", "start_id": "USGS-02480150", "geometry_length_km": 0.6711972939305012 }, "geometry": { "type": "LineString", "coordinates": [ [ -88.402294107, 30.476661399 ], [ -88.403008804, 30.477256894 ], [ -88.403352804, 30.477440193 ], [ -88.403749801, 30.477554597 ], [ -88.404808007, 30.477600195 ], [ -88.405654803, 30.477989599 ], [ -88.406554803, 30.478562199 ], [ -88.407269105, 30.478791095 ], [ -88.408168703, 30.478882499 ], [ -88.408380501, 30.479157396 ] ] } },
{ "type": "Feature", "properties": { "site_no": "02480150", "nhdplus_comid": "18096057", "navigation_mode": "DM", "requested_distance_km": 12.0, "start_source": "nwissite", "start_id": "USGS-02480150", "geometry_length_km": 0.5309553641571243 }, "geometry": { "type": "LineString", "coordinates": [ [ -88.408380501, 30.479157396 ], [ -88.408671603, 30.479225993 ], [ -88.409121603, 30.479569599 ], [ -88.409386203, 30.479729898 ], [ -88.411132701, 30.480050296 ], [ -88.412587807, 30.479935199 ], [ -88.413143307, 30.479728796 ], [ -88.413540103, 30.4795224 ] ] } },
{ "type": "Feature", "properties": { "site_no": "02480150", "nhdplus_comid": "18096239", "navigation_mode": "DM", "requested_distance_km": 12.0, "start_source": "nwissite", "start_id": "USGS-02480150", "geometry_length_km": 2.0087357698112562 }, "geometry": { "type": "LineString", "coordinates": [ [ -88.413540103, 30.4795224 ], [ -88.413645804, 30.479338996 ], [ -88.414042503, 30.478949293 ], [ -88.414492004, 30.478559494 ], [ -88.414915301, 30.478398897 ], [ -88.415762201, 30.478742294 ], [ -88.416397303, 30.479062997 ], [ -88.416873701, 30.479154393 ], [ -88.417402707, 30.479131296 ], [ -88.417826004, 30.478947796 ], [ -88.418143302, 30.478649795 ], [ -88.418302104, 30.478535093 ], [ -88.4188575, 30.478351593 ], [ -88.419862404, 30.4774803 ], [ -88.420020901, 30.476884499 ], [ -88.420285203, 30.476632297 ], [ -88.420655303, 30.476150997 ], [ -88.421184503, 30.4761049 ], [ -88.421660803, 30.4762192 ], [ -88.4217932, 30.4763337 ], [ -88.421952203, 30.476723298 ], [ -88.422111005, 30.476906493 ], [ -88.422243305, 30.476883493 ], [ -88.422428504, 30.476814695 ], [ -88.423301503, 30.476722695 ], [ -88.423433706, 30.476585194 ], [ -88.423459902, 30.476057999 ], [ -88.423777103, 30.475805797 ], [ -88.424226806, 30.475645296 ], [ -88.424676403, 30.475163795 ], [ -88.425152302, 30.474842794 ], [ -88.426104605, 30.474590197 ], [ -88.426660106, 30.474521294 ], [ -88.4270043, 30.474818997 ], [ -88.427189805, 30.4751397 ], [ -88.427454501, 30.475391597 ], [ -88.427772, 30.4753915 ], [ -88.428142205, 30.475162096 ], [ -88.428353801, 30.475093298 ], [ -88.428724401, 30.475391097 ], [ -88.429518104, 30.4754823 ] ] } },
{ "type": "Feature", "properties": { "site_no": "02480150", "nhdplus_comid": "18096297", "navigation_mode": "DM", "requested_distance_km": 12.0, "start_source": "nwissite", "start_id": "USGS-02480150", "geometry_length_km": 0.67881638844950798 }, "geometry": { "type": "LineString", "coordinates": [ [ -88.429518104, 30.4754823 ], [ -88.429614507, 30.475423694 ], [ -88.430077307, 30.475533694 ], [ -88.431015402, 30.476483293 ], [ -88.431405805, 30.477015793 ], [ -88.431592405, 30.478166498 ], [ -88.431994505, 30.478573494 ], [ -88.432600304, 30.478362396 ], [ -88.432670005, 30.477608599 ], [ -88.433128402, 30.477174699 ], [ -88.433249801, 30.477130495 ] ] } },
{ "type": "Feature", "properties": { "site_no": "02480150", "nhdplus_comid": "18096059", "navigation_mode": "DM", "requested_distance_km": 12.0, "start_source": "nwissite", "start_id": "USGS-02480150", "geometry_length_km": 0.049577633140601561 }, "geometry": { "type": "LineString", "coordinates": [ [ -88.433249801, 30.477130495 ], [ -88.4335142, 30.476947099 ], [ -88.4335934, 30.476809494 ] ] } },
{ "type": "Feature", "properties": { "site_no": "02480150", "nhdplus_comid": "18096295", "navigation_mode": "DM", "requested_distance_km": 12.0, "start_source": "nwissite", "start_id": "USGS-02480150", "geometry_length_km": 0.0057508389244499952 }, "geometry": { "type": "LineString", "coordinates": [ [ -88.4335934, 30.476809494 ], [ -88.433568306, 30.476785496 ], [ -88.433590002, 30.476780199 ] ] } },
{ "type": "Feature", "properties": { "site_no": "02480150", "nhdplus_comid": "18096299", "navigation_mode": "DM", "requested_distance_km": 12.0, "start_source": "nwissite", "start_id": "USGS-02480150", "geometry_length_km": 0.2152540612148697 }, "geometry": { "type": "LineString", "coordinates": [ [ -88.433590002, 30.476780199 ], [ -88.434376605, 30.476588197 ], [ -88.435005605, 30.476125799 ], [ -88.435197704, 30.475633293 ] ] } },
{ "type": "Feature", "properties": { "site_no": "02480150", "nhdplus_comid": "18096303", "navigation_mode": "DM", "requested_distance_km": 12.0, "start_source": "nwissite", "start_id": "USGS-02480150", "geometry_length_km": 1.3061469428684638 }, "geometry": { "type": "LineString", "coordinates": [ [ -88.435197704, 30.475633293 ], [ -88.434941307, 30.475236394 ], [ -88.434987806, 30.4747338 ], [ -88.435313903, 30.474376999 ], [ -88.436613001, 30.474592797 ], [ -88.437859304, 30.473793596 ], [ -88.437829904, 30.472527198 ], [ -88.438505203, 30.471562296 ], [ -88.438772306, 30.468672797 ], [ -88.440041706, 30.467622198 ], [ -88.440333001, 30.4676423 ], [ -88.441040501, 30.467121996 ] ] } },
{ "type": "Feature", "properties": { "site_no": "02480150", "nhdplus_comid": "18096307", "navigation_mode": "DM", "requested_distance_km": 12.0, "start_source": "nwissite", "start_id": "USGS-02480150", "geometry_length_km": 0.23808804201032216 }, "geometry": { "type": "LineString", "coordinates": [ [ -88.441040501, 30.467121996 ], [ -88.440449007, 30.466385998 ], [ -88.441549607, 30.465576597 ] ] } },
{ "type": "Feature", "properties": { "site_no": "02480150", "nhdplus_comid": "18096313", "navigation_mode": "DM", "requested_distance_km": 12.0, "start_source": "nwissite", "start_id": "USGS-02480150", "geometry_length_km": 0.66205509747382096 }, "geometry": { "type": "LineString", "coordinates": [ [ -88.441549607, 30.465576597 ], [ -88.442335702, 30.464998499 ], [ -88.442918204, 30.465038598 ], [ -88.444455601, 30.464259297 ], [ -88.446797006, 30.464293793 ], [ -88.447065003, 30.464564994 ], [ -88.446670301, 30.465117998 ] ] } },
{ "type": "Feature", "properties": { "site_no": "02480150", "nhdplus_comid": "18096311", "navigation_mode": "DM", "requested_distance_km": 12.0, "start_source": "nwissite", "start_id": "USGS-02480150", "geometry_length_km": 0.54150878890956478 }, "geometry": { "type": "LineString", "coordinates": [ [ -88.446670301, 30.465117998 ], [ -88.446692601, 30.465424396 ], [ -88.446960703, 30.465695694 ], [ -88.447968401, 30.465891398 ], [ -88.448236406, 30.466162696 ], [ -88.449110106, 30.466222696 ], [ -88.449424602, 30.4659914 ], [ -88.449540503, 30.464735098 ], [ -88.449924804, 30.464246295 ] ] } },
{ "type": "Feature", "properties": { "site_no": "02480150", "nhdplus_comid": "18096319", "navigation_mode": "DM", "requested_distance_km": 12.0, "start_source": "nwissite", "start_id": "USGS-02480150", "geometry_length_km": 3.7547469597748337 }, "geometry": { "type": "LineString", "coordinates": [ [ -88.449924804, 30.464246295 ], [ -88.450324804, 30.464415297 ], [ -88.450501904, 30.4654333 ], [ -88.450927101, 30.465588897 ], [ -88.451241501, 30.465357699 ], [ -88.451311104, 30.464603893 ], [ -88.452143505, 30.463523194 ], [ -88.452148505, 30.461879894 ], [ -88.452777304, 30.461417399 ], [ -88.452846907, 30.460663594 ], [ -88.452578805, 30.460392296 ], [ -88.451402403, 30.460437998 ], [ -88.451134302, 30.4601667 ], [ -88.451308206, 30.458282195 ], [ -88.451063305, 30.457759596 ], [ -88.450969204, 30.455603793 ], [ -88.451073505, 30.454473093 ], [ -88.4517022, 30.454010598 ], [ -88.452284604, 30.454050593 ], [ -88.452756204, 30.453703694 ], [ -88.452825703, 30.4529498 ], [ -88.452557705, 30.452678598 ], [ -88.452493206, 30.451789096 ], [ -88.451793402, 30.449844599 ], [ -88.451269001, 30.449176393 ], [ -88.450895302, 30.446874894 ], [ -88.4503709, 30.446206696 ], [ -88.450149305, 30.445432894 ], [ -88.450445503, 30.443809599 ], [ -88.452267006, 30.4415325 ], [ -88.4529652, 30.440316096 ], [ -88.453081004, 30.439059697 ], [ -88.452166304, 30.437858894 ] ] } }
]
}
