{
"type": "FeatureCollection",
"name": "USGS_03574500_UM_12km",
"crs": { "type": "name", "properties": { "name": "urn:ogc:def:crs:OGC:1.3:CRS84" } },
"features": [
{ "type": "Feature", "properties": { "site_no": "03574500", "nhdplus_comid": "19621426", "navigation_mode": "UM", "requested_distance_km": 12.0, "start_source": "nwissite", "start_id": "USGS-03574500", "geometry_length_km": 2.3692146177424971 }, "geometry": { "type": "LineString", "coordinates": [ [ -86.312023707, 34.638398193 ], [ -86.311774604, 34.638031498 ], [ -86.311192803, 34.637847893 ], [ -86.310887806, 34.638076797 ], [ -86.310055502, 34.639221594 ], [ -86.309584305, 34.639335796 ], [ -86.309390403, 34.639312796 ], [ -86.309113503, 34.638923295 ], [ -86.309030801, 34.638465099 ], [ -86.308698803, 34.637823597 ], [ -86.308532603, 34.637663193 ], [ -86.308422007, 34.637250893 ], [ -86.308422804, 34.636449099 ], [ -86.308644801, 34.635945395 ], [ -86.309837706, 34.634388499 ], [ -86.309865706, 34.634021997 ], [ -86.309616506, 34.6337699 ], [ -86.308563903, 34.633356996 ], [ -86.308370106, 34.633150697 ], [ -86.308343105, 34.632234596 ], [ -86.308232404, 34.632028297 ], [ -86.305961505, 34.630354896 ], [ -86.304743901, 34.628636293 ], [ -86.3047444, 34.627972096 ], [ -86.305715702, 34.626231797 ], [ -86.305743702, 34.6258654 ], [ -86.306021303, 34.625086799 ], [ -86.306573284, 34.623815734 ] ] } },
{ "type": "Feature", "properties": { "site_no": "03574500", "nhdplus_comid": "19620392", "navigation_mode": "UM", "requested_distance_km": 12.0, "start_source": "nwissite", "start_id": "USGS-03574500", "geometry_length_km": 0.35203795203273058 }, "geometry": { "type": "LineString", "coordinates": [ [ -86.311301, 34.641192093 ], [ -86.311356805, 34.640756994 ], [ -86.311467804, 34.640527993 ], [ -86.312216505, 34.639978699 ], [ -86.312327504, 34.639772594 ], [ -86.3123556, 34.639199995 ], [ -86.312023707, 34.638398193 ] ] } },
{ "type": "Feature", "properties": { "site_no": "03574500", "nhdplus_comid": "19620378", "navigation_mode": "UM", "requested_distance_km": 12.0, "start_source": "nwissite", "start_id": "USGS-03574500", "geometry_length_km": 1.5796207326422251 }, "geometry": { "type": "LineString", "coordinates": [ [ -86.318805806, 34.649281599 ], [ -86.318750806, 34.648708999 ], [ -86.318279907, 34.648181796 ], [ -86.317753404, 34.647975497 ], [ -86.317088306, 34.647998095 ], [ -86.316727906, 34.648135297 ], [ -86.315813206, 34.6482265 ], [ -86.315591507, 34.648157693 ], [ -86.315093003, 34.647767998 ], [ -86.314788401, 34.647355497 ], [ -86.314705707, 34.646736994 ], [ -86.314844504, 34.646485098 ], [ -86.315315902, 34.646095999 ], [ -86.316064306, 34.645752795 ], [ -86.316369504, 34.645363599 ], [ -86.316369802, 34.644859694 ], [ -86.316231601, 34.644515999 ], [ -86.315705501, 34.643828593 ], [ -86.315428406, 34.643736899 ], [ -86.314957306, 34.643736698 ], [ -86.314569205, 34.643896796 ], [ -86.313848503, 34.6440337 ], [ -86.313654505, 34.644010693 ], [ -86.313488305, 34.643827394 ], [ -86.313322403, 34.643392093 ], [ -86.313295007, 34.642956994 ], [ -86.312907502, 34.642338298 ], [ -86.311301, 34.641192093 ] ] } },
{ "type": "Feature", "properties": { "site_no": "03574500", "nhdplus_comid": "19620350", "navigation_mode": "UM", "requested_distance_km": 12.0, "start_source": "nwissite", "start_id": "USGS-03574500", "geometry_length_km": 1.5966635793264692 }, "geometry": { "type": "LineString", "coordinates": [ [ -86.325675003, 34.6562251 ], [ -86.325647503, 34.655858696 ], [ -86.325370602, 34.655446194 ], [ -86.325065807, 34.655331597 ], [ -86.324317306, 34.655445799 ], [ -86.323735006, 34.655697495 ], [ -86.323374502, 34.656109594 ], [ -86.323124707, 34.656567596 ], [ -86.323041603, 34.656590395 ], [ -86.323041506, 34.656682096 ], [ -86.322680905, 34.6570713 ], [ -86.322126403, 34.657162696 ], [ -86.321683101, 34.656887598 ], [ -86.321572505, 34.656589694 ], [ -86.3216286, 34.655650593 ], [ -86.321739703, 34.655215494 ], [ -86.321657002, 34.654642895 ], [ -86.321158305, 34.654184498 ], [ -86.320132904, 34.653863296 ], [ -86.319662005, 34.653496593 ], [ -86.319329806, 34.652946696 ], [ -86.319330104, 34.652442798 ], [ -86.319635406, 34.651939094 ], [ -86.319663405, 34.651503898 ], [ -86.319275707, 34.6510913 ], [ -86.318804607, 34.6509308 ], [ -86.318139806, 34.650449499 ], [ -86.318140104, 34.649945594 ], [ -86.318805806, 34.649281599 ] ] } },
{ "type": "Feature", "properties": { "site_no": "03574500", "nhdplus_comid": "19620320", "navigation_mode": "UM", "requested_distance_km": 12.0, "start_source": "nwissite", "start_id": "USGS-03574500", "geometry_length_km": 1.7811387818168787 }, "geometry": { "type": "LineString", "coordinates": [ [ -86.3215634, 34.670149595 ], [ -86.322007105, 34.670172699 ], [ -86.322478406, 34.669966795 ], [ -86.323504806, 34.6688907 ], [ -86.324143305, 34.667745695 ], [ -86.324892201, 34.666990198 ], [ -86.325142004, 34.666555099 ], [ -86.325142801, 34.665066294 ], [ -86.325005203, 34.663600296 ], [ -86.325227506, 34.662752897 ], [ -86.326309502, 34.661195897 ], [ -86.326309904, 34.660531498 ], [ -86.325562201, 34.6594318 ], [ -86.3255345, 34.659271397 ], [ -86.324814603, 34.6581259 ], [ -86.324787207, 34.657621898 ], [ -86.325675003, 34.6562251 ] ] } },
{ "type": "Feature", "properties": { "site_no": "03574500", "nhdplus_comid": "19620252", "navigation_mode": "UM", "requested_distance_km": 12.0, "start_source": "nwissite", "start_id": "USGS-03574500", "geometry_length_km": 0.62320877119840545 }, "geometry": { "type": "LineString", "coordinates": [ [ -86.320814304, 34.671042599 ], [ -86.320786901, 34.670607194 ], [ -86.320371501, 34.669896998 ], [ -86.319346301, 34.669026099 ], [ -86.319374301, 34.668705493 ], [ -86.319429904, 34.668568097 ], [ -86.319651701, 34.6684995 ], [ -86.320206106, 34.668499798 ], [ -86.320427902, 34.668614395 ], [ -86.320981905, 34.669324696 ], [ -86.321203202, 34.669874497 ], [ -86.3215634, 34.670149595 ] ] } },
{ "type": "Feature", "properties": { "site_no": "03574500", "nhdplus_comid": "19620242", "navigation_mode": "UM", "requested_distance_km": 12.0, "start_source": "nwissite", "start_id": "USGS-03574500", "geometry_length_km": 1.6782184808016496 }, "geometry": { "type": "LineString", "coordinates": [ [ -86.316039301, 34.680087596 ], [ -86.316095203, 34.679423399 ], [ -86.315790504, 34.679125398 ], [ -86.314959101, 34.678666897 ], [ -86.314654306, 34.678369097 ], [ -86.314654604, 34.677956797 ], [ -86.315875702, 34.676239394 ], [ -86.316764101, 34.674544998 ], [ -86.316930704, 34.674361795 ], [ -86.317929007, 34.673904195 ], [ -86.318151101, 34.673537895 ], [ -86.318429306, 34.672163799 ], [ -86.318623602, 34.671820194 ], [ -86.318707407, 34.671041399 ], [ -86.318347506, 34.670170896 ], [ -86.318347804, 34.669781595 ], [ -86.318486601, 34.669552594 ], [ -86.318819404, 34.6695069 ], [ -86.3192349, 34.669781893 ], [ -86.319871806, 34.670927495 ], [ -86.320121206, 34.671133794 ], [ -86.320814304, 34.671042599 ] ] } },
{ "type": "Feature", "properties": { "site_no": "03574500", "nhdplus_comid": "19620164", "navigation_mode": "UM", "requested_distance_km": 12.0, "start_source": "nwissite", "start_id": "USGS-03574500", "geometry_length_km": 1.0706042120886385 }, "geometry": { "type": "LineString", "coordinates": [ [ -86.310434401, 34.685215294 ], [ -86.3106011, 34.6848718 ], [ -86.310906403, 34.684436798 ], [ -86.311849706, 34.683795996 ], [ -86.312044002, 34.683498293 ], [ -86.312155403, 34.682879999 ], [ -86.311823204, 34.6822384 ], [ -86.311823502, 34.681848995 ], [ -86.312156506, 34.6815743 ], [ -86.312544607, 34.681551598 ], [ -86.313099004, 34.681780994 ], [ -86.313486606, 34.682422593 ], [ -86.313791506, 34.682583094 ], [ -86.314152002, 34.682606198 ], [ -86.314373903, 34.682514697 ], [ -86.314734705, 34.681965098 ], [ -86.314957403, 34.680865794 ], [ -86.315068506, 34.680705495 ], [ -86.315873004, 34.680110395 ], [ -86.316039301, 34.680087596 ] ] } }
]
}
