{
"type": "FeatureCollection",
"name": "USGS_02453950_DM_12km",
"crs": { "type": "name", "properties": { "name": "urn:ogc:def:crs:OGC:1.3:CRS84" } },
"features": [
{ "type": "Feature", "properties": { "site_no": "02453950", "nhdplus_comid": "18591652", "navigation_mode": "DM", "requested_distance_km": 12.0, "start_source": "nwissite", "start_id": "USGS-02453950", "geometry_length_km": 1.5753292200880924 }, "geometry": { "type": "LineString", "coordinates": [ [ -87.383935515, 33.816284437 ], [ -87.383980401, 33.8158153 ], [ -87.383733205, 33.814761594 ], [ -87.383019306, 33.8113482 ], [ -87.383019, 33.809882 ], [ -87.383786701, 33.804796197 ], [ -87.384390101, 33.802345 ] ] } },
{ "type": "Feature", "properties": { "site_no": "02453950", "nhdplus_comid": "18591654", "navigation_mode": "DM", "requested_distance_km": 12.0, "start_source": "nwissite", "start_id": "USGS-02453950", "geometry_length_km": 2.6204375805271698 }, "geometry": { "type": "LineString", "coordinates": [ [ -87.384390101, 33.802345 ], [ -87.383841202, 33.8019097 ], [ -87.381536201, 33.801909797 ], [ -87.380136803, 33.802345194 ], [ -87.379258707, 33.802711695 ], [ -87.378764801, 33.803192794 ], [ -87.378627606, 33.803513497 ], [ -87.378627703, 33.804956898 ], [ -87.378353506, 33.805758595 ], [ -87.377941906, 33.806697898 ], [ -87.377859503, 33.807156093 ], [ -87.378161401, 33.8080495 ], [ -87.378106602, 33.808690898 ], [ -87.3778871, 33.808897197 ], [ -87.377585106, 33.808988698 ], [ -87.377146102, 33.808874294 ], [ -87.376542404, 33.8084848 ], [ -87.375664204, 33.808576494 ], [ -87.375005603, 33.808484897 ], [ -87.373468801, 33.807843395 ], [ -87.372837603, 33.807820499 ], [ -87.371163607, 33.808530495 ], [ -87.370669603, 33.808599196 ], [ -87.370532401, 33.808530495 ], [ -87.369105406, 33.806445695 ], [ -87.368282303, 33.805139996 ], [ -87.368090205, 33.804635897 ], [ -87.367733501, 33.803307094 ] ] } },
{ "type": "Feature", "properties": { "site_no": "02453950", "nhdplus_comid": "18591684", "navigation_mode": "DM", "requested_distance_km": 12.0, "start_source": "nwissite", "start_id": "USGS-02453950", "geometry_length_km": 4.7282895218953014 }, "geometry": { "type": "LineString", "coordinates": [ [ -87.367733501, 33.803307094 ], [ -87.367760904, 33.803009294 ], [ -87.367815904, 33.802047193 ], [ -87.367349505, 33.8011766 ], [ -87.366773404, 33.796892598 ], [ -87.366499104, 33.795540996 ], [ -87.366334505, 33.795059897 ], [ -87.365868203, 33.794510096 ], [ -87.365511402, 33.7943497 ], [ -87.364468805, 33.794074595 ], [ -87.363371305, 33.7941662 ], [ -87.355661102, 33.794211 ], [ -87.353301503, 33.794347994 ], [ -87.350228406, 33.794095397 ], [ -87.349487603, 33.793980695 ], [ -87.348856606, 33.793430798 ], [ -87.348829307, 33.792858094 ], [ -87.348966606, 33.792583197 ], [ -87.349488005, 33.7921023 ], [ -87.352122404, 33.790292896 ], [ -87.353686601, 33.788895793 ], [ -87.355031304, 33.787864998 ], [ -87.355388105, 33.787498496 ], [ -87.356128804, 33.787086293 ], [ -87.357308805, 33.786147296 ], [ -87.357418604, 33.785986893 ], [ -87.357775502, 33.784818597 ], [ -87.357775606, 33.784268796 ], [ -87.357638404, 33.783512793 ], [ -87.357611202, 33.782710999 ], [ -87.357721001, 33.7821154 ], [ -87.357968107, 33.781542696 ], [ -87.358846001, 33.780993 ], [ -87.359202601, 33.780901395 ], [ -87.360108003, 33.780901596 ], [ -87.360574305, 33.781222299 ], [ -87.360628903, 33.7826427 ] ] } },
{ "type": "Feature", "properties": { "site_no": "02453950", "nhdplus_comid": "18591710", "navigation_mode": "DM", "requested_distance_km": 12.0, "start_source": "nwissite", "start_id": "USGS-02453950", "geometry_length_km": 2.6926401548140353 }, "geometry": { "type": "LineString", "coordinates": [ [ -87.360628903, 33.7826427 ], [ -87.361177601, 33.782963395 ], [ -87.361561701, 33.782894693 ], [ -87.361918405, 33.782642797 ], [ -87.362000801, 33.782459497 ], [ -87.362000905, 33.781886794 ], [ -87.361616902, 33.781245299 ], [ -87.358956002, 33.778976999 ], [ -87.3577765, 33.778129198 ], [ -87.356871307, 33.777693897 ], [ -87.356624506, 33.7774418 ], [ -87.356624603, 33.776937798 ], [ -87.357118502, 33.775769494 ], [ -87.357392907, 33.775517598 ], [ -87.357777007, 33.775334299 ], [ -87.359148607, 33.7753575 ], [ -87.359752201, 33.7750597 ], [ -87.361178704, 33.774968296 ], [ -87.361480504, 33.7746934 ], [ -87.361617602, 33.774281099 ], [ -87.361508101, 33.773525 ], [ -87.361343406, 33.773135595 ], [ -87.361343503, 33.772654496 ], [ -87.361947104, 33.7721048 ], [ -87.362002105, 33.771440297 ], [ -87.361316405, 33.770775899 ], [ -87.360658102, 33.7704551 ], [ -87.360383801, 33.770202994 ], [ -87.360466205, 33.769836493 ], [ -87.362112105, 33.768233195 ], [ -87.362688303, 33.767774999 ], [ -87.363703206, 33.767362699 ], [ -87.364306703, 33.766973399 ] ] } }
]
}
