{
"type": "FeatureCollection",
"name": "USGS_03575100_DM_12km",
"crs": { "type": "name", "properties": { "name": "urn:ogc:def:crs:OGC:1.3:CRS84" } },
"features": [
{ "type": "Feature", "properties": { "site_no": "03575100", "nhdplus_comid": "19621328", "navigation_mode": "DM", "requested_distance_km": 12.0, "start_source": "nwissite", "start_id": "USGS-03575100", "geometry_length_km": 0.92586289907915331 }, "geometry": { "type": "LineString", "coordinates": [ [ -86.445825857, 34.748832756 ], [ -86.445772104, 34.748802297 ], [ -86.445633203, 34.748642094 ], [ -86.444939204, 34.748298794 ], [ -86.443357304, 34.748024896 ], [ -86.441941507, 34.747246794 ], [ -86.439081706, 34.744980596 ], [ -86.438276306, 34.744041897 ], [ -86.438220605, 34.743766993 ] ] } },
{ "type": "Feature", "properties": { "site_no": "03575100", "nhdplus_comid": "19619850", "navigation_mode": "DM", "requested_distance_km": 12.0, "start_source": "nwissite", "start_id": "USGS-03575100", "geometry_length_km": 1.6122641894938028 }, "geometry": { "type": "LineString", "coordinates": [ [ -86.438220605, 34.743766993 ], [ -86.438276, 34.743560798 ], [ -86.438663803, 34.742713094 ], [ -86.439939305, 34.741521396 ], [ -86.442574404, 34.740374893 ], [ -86.444377504, 34.739801295 ], [ -86.445403606, 34.739250995 ], [ -86.4477612, 34.738173194 ], [ -86.448232606, 34.737668999 ], [ -86.448869102, 34.735927895 ], [ -86.449006602, 34.734553494 ], [ -86.448867306, 34.733866394 ] ] } },
{ "type": "Feature", "properties": { "site_no": "03575100", "nhdplus_comid": "19619858", "navigation_mode": "DM", "requested_distance_km": 12.0, "start_source": "nwissite", "start_id": "USGS-03575100", "geometry_length_km": 0.24472712505707947 }, "geometry": { "type": "LineString", "coordinates": [ [ -86.448867306, 34.733866394 ], [ -86.448561504, 34.733087793 ], [ -86.447867103, 34.732126199 ], [ -86.447811402, 34.731874295 ] ] } },
{ "type": "Feature", "properties": { "site_no": "03575100", "nhdplus_comid": "19619970", "navigation_mode": "DM", "requested_distance_km": 12.0, "start_source": "nwissite", "start_id": "USGS-03575100", "geometry_length_km": 3.5142789250589268 }, "geometry": { "type": "LineString", "coordinates": [ [ -86.447811402, 34.731874295 ], [ -86.447561502, 34.731622398 ], [ -86.447033606, 34.730752297 ], [ -86.446533203, 34.729515798 ], [ -86.446420506, 34.7273397 ], [ -86.446503505, 34.727133594 ], [ -86.446419805, 34.726538099 ], [ -86.4461421, 34.726125993 ], [ -86.443228103, 34.724821895 ], [ -86.442229204, 34.724524595 ], [ -86.440592304, 34.7243651 ], [ -86.439898506, 34.723861597 ], [ -86.438316904, 34.723541595 ], [ -86.437900506, 34.723129496 ], [ -86.437123105, 34.722076297 ], [ -86.436484203, 34.720999897 ], [ -86.435929105, 34.720542096 ], [ -86.434735902, 34.719992898 ], [ -86.433959, 34.719718397 ], [ -86.4326552, 34.719604395 ], [ -86.430907607, 34.719673894 ], [ -86.430103101, 34.719582699 ], [ -86.429215305, 34.719285294 ], [ -86.4277445, 34.718415394 ], [ -86.4266624, 34.717957795 ], [ -86.426162906, 34.717660196 ], [ -86.4252747, 34.716835797 ], [ -86.423887007, 34.715462096 ], [ -86.423859, 34.714889497 ], [ -86.423747905, 34.714591697 ], [ -86.423387103, 34.714248195 ], [ -86.423081607, 34.713607095 ], [ -86.422415607, 34.713034697 ], [ -86.421944104, 34.712943196 ] ] } },
{ "type": "Feature", "properties": { "site_no": "03575100", "nhdplus_comid": "19619968", "navigation_mode": "DM", "requested_distance_km": 12.0, "start_source": "nwissite", "start_id": "USGS-03575100", "geometry_length_km": 0.41577244329585256 }, "geometry": { "type": "LineString", "coordinates": [ [ -86.421944104, 34.712943196 ], [ -86.421639107, 34.713172294 ], [ -86.421389706, 34.713790797 ], [ -86.421084806, 34.714226194 ], [ -86.420807503, 34.714363694 ], [ -86.420030907, 34.714455597 ], [ -86.419559501, 34.714730598 ], [ -86.419226706, 34.714776598 ], [ -86.418838203, 34.7145705 ], [ -86.418588504, 34.714547597 ] ] } },
{ "type": "Feature", "properties": { "site_no": "03575100", "nhdplus_comid": "19619982", "navigation_mode": "DM", "requested_distance_km": 12.0, "start_source": "nwissite", "start_id": "USGS-03575100", "geometry_length_km": 0.47683479468418405 }, "geometry": { "type": "LineString", "coordinates": [ [ -86.418588504, 34.714547597 ], [ -86.418227807, 34.714135394 ], [ -86.417173006, 34.712463699 ], [ -86.416451104, 34.711020894 ], [ -86.416423202, 34.710700199 ] ] } },
{ "type": "Feature", "properties": { "site_no": "03575100", "nhdplus_comid": "19620020", "navigation_mode": "DM", "requested_distance_km": 12.0, "start_source": "nwissite", "start_id": "USGS-03575100", "geometry_length_km": 0.94874745594891507 }, "geometry": { "type": "LineString", "coordinates": [ [ -86.416423202, 34.710700199 ], [ -86.416256703, 34.710425399 ], [ -86.416034304, 34.709463395 ], [ -86.415479206, 34.708570294 ], [ -86.414952002, 34.707997896 ], [ -86.414591104, 34.707356595 ], [ -86.414147206, 34.706852697 ], [ -86.413980506, 34.706394695 ], [ -86.413952604, 34.705799296 ], [ -86.414146401, 34.705180794 ], [ -86.414534405, 34.704401895 ], [ -86.415227406, 34.703783199 ], [ -86.416087106, 34.703462295 ] ] } },
{ "type": "Feature", "properties": { "site_no": "03575100", "nhdplus_comid": "19620048", "navigation_mode": "DM", "requested_distance_km": 12.0, "start_source": "nwissite", "start_id": "USGS-03575100", "geometry_length_km": 0.78719024515610636 }, "geometry": { "type": "LineString", "coordinates": [ [ -86.416087106, 34.703462295 ], [ -86.416142501, 34.703278996 ], [ -86.416392103, 34.7031186 ], [ -86.416419603, 34.702843696 ], [ -86.4161698, 34.702316999 ], [ -86.416613206, 34.701789998 ], [ -86.416585304, 34.7012861 ], [ -86.415864103, 34.700873993 ], [ -86.415780701, 34.700736597 ], [ -86.415780604, 34.700484693 ], [ -86.415974602, 34.700163998 ], [ -86.416251905, 34.700049296 ], [ -86.4168621, 34.700140797 ], [ -86.417028405, 34.700003296 ], [ -86.4171113, 34.699247397 ], [ -86.417527206, 34.699178495 ], [ -86.417776905, 34.699292995 ], [ -86.418415107, 34.699956998 ] ] } },
{ "type": "Feature", "properties": { "site_no": "03575100", "nhdplus_comid": "19620094", "navigation_mode": "DM", "requested_distance_km": 12.0, "start_source": "nwissite", "start_id": "USGS-03575100", "geometry_length_km": 1.2110727094211358 }, "geometry": { "type": "LineString", "coordinates": [ [ -86.418415107, 34.699956998 ], [ -86.418969706, 34.699773699 ], [ -86.419330001, 34.699452795 ], [ -86.419662401, 34.698742695 ], [ -86.419912003, 34.698490694 ], [ -86.420688301, 34.698123895 ], [ -86.421159603, 34.697803095 ], [ -86.421492003, 34.697207399 ], [ -86.422545202, 34.696222194 ], [ -86.423238002, 34.695213996 ], [ -86.424041703, 34.694389194 ], [ -86.424679302, 34.693770498 ], [ -86.427008003, 34.692578495 ], [ -86.427451506, 34.692440897 ] ] } },
{ "type": "Feature", "properties": { "site_no": "03575100", "nhdplus_comid": "19620108", "navigation_mode": "DM", "requested_distance_km": 12.0, "start_source": "nwissite", "start_id": "USGS-03575100", "geometry_length_km": 0.48553600670388636 }, "geometry": { "type": "LineString", "coordinates": [ [ -86.427451506, 34.692440897 ], [ -86.427507006, 34.6923493 ], [ -86.428116903, 34.692028299 ], [ -86.428394102, 34.691776298 ], [ -86.428698801, 34.691249296 ], [ -86.428698204, 34.6904248 ], [ -86.428393006, 34.690081298 ], [ -86.427339107, 34.689715296 ], [ -86.427033901, 34.689463399 ], [ -86.426950604, 34.689280197 ] ] } }
]
}
