{
"type": "FeatureCollection",
"name": "USGS_02423380_DM_12km",
"crs": { "type": "name", "properties": { "name": "urn:ogc:def:crs:OGC:1.3:CRS84" } },
"features": [
{ "type": "Feature", "properties": { "site_no": "02423380", "nhdplus_comid": "21655350", "navigation_mode": "DM", "requested_distance_km": 12.0, "start_source": "nwissite", "start_id": "USGS-02423380", "geometry_length_km": 0.25369664059309494 }, "geometry": { "type": "LineString", "coordinates": [ [ -86.712497579, 33.482013865 ], [ -86.712497003, 33.481445499 ], [ -86.712359406, 33.480460599 ], [ -86.712522902, 33.479910597 ], [ -86.712659501, 33.479818895 ] ] } },
{ "type": "Feature", "properties": { "site_no": "02423380", "nhdplus_comid": "21655390", "navigation_mode": "DM", "requested_distance_km": 12.0, "start_source": "nwissite", "start_id": "USGS-02423380", "geometry_length_km": 5.415746682098745 }, "geometry": { "type": "LineString", "coordinates": [ [ -86.712659501, 33.479818895 ], [ -86.713859804, 33.477160498 ], [ -86.715142205, 33.474708296 ], [ -86.715879202, 33.473608099 ], [ -86.716261506, 33.473195493 ], [ -86.717463307, 33.472300999 ], [ -86.717599601, 33.471888594 ], [ -86.717489906, 33.471522197 ], [ -86.716997303, 33.470926799 ], [ -86.716368303, 33.470652394 ], [ -86.713579506, 33.470150299 ], [ -86.712512903, 33.469761595 ], [ -86.710954003, 33.468960799 ], [ -86.708902605, 33.467564695 ], [ -86.707863703, 33.4673592 ], [ -86.707453601, 33.467450999 ], [ -86.706224807, 33.468711898 ], [ -86.705050305, 33.469720595 ], [ -86.704421602, 33.469858497 ], [ -86.703929305, 33.469606899 ], [ -86.703765102, 33.469331995 ], [ -86.703710102, 33.469011299 ], [ -86.704201601, 33.468392499 ], [ -86.706659704, 33.466054097 ], [ -86.707069203, 33.465526894 ], [ -86.7080511, 33.4633727 ], [ -86.709223405, 33.460050099 ], [ -86.710696705, 33.457322799 ], [ -86.710723706, 33.456933297 ], [ -86.710559301, 33.456475295 ], [ -86.710176207, 33.455971494 ], [ -86.709984303, 33.455513395 ], [ -86.709956504, 33.454940699 ], [ -86.710311405, 33.454528093 ], [ -86.710939601, 33.454046495 ], [ -86.713016003, 33.453266196 ], [ -86.714053802, 33.452623993 ], [ -86.715419203, 33.451454595 ], [ -86.715555407, 33.450973399 ], [ -86.715690807, 33.449850693 ], [ -86.7155535, 33.449278094 ], [ -86.715142705, 33.448338993 ], [ -86.715060607, 33.448293298 ] ] } },
{ "type": "Feature", "properties": { "site_no": "02423380", "nhdplus_comid": "21655396", "navigation_mode": "DM", "requested_distance_km": 12.0, "start_source": "nwissite", "start_id": "USGS-02423380", "geometry_length_km": 0.44062205454514175 }, "geometry": { "type": "LineString", "coordinates": [ [ -86.715060607, 33.448293298 ], [ -86.715005502, 33.447858095 ], [ -86.714841306, 33.447560295 ], [ -86.714704007, 33.446987793 ], [ -86.714648202, 33.4458194 ], [ -86.714948103, 33.445131898 ], [ -86.715384804, 33.444535896 ] ] } },
{ "type": "Feature", "properties": { "site_no": "02423380", "nhdplus_comid": "21655414", "navigation_mode": "DM", "requested_distance_km": 12.0, "start_source": "nwissite", "start_id": "USGS-02423380", "geometry_length_km": 2.6236430706535385 }, "geometry": { "type": "LineString", "coordinates": [ [ -86.715384804, 33.444535896 ], [ -86.715411603, 33.444008999 ], [ -86.715165101, 33.4435739 ], [ -86.714427002, 33.443207793 ], [ -86.711830206, 33.442499399 ], [ -86.709671102, 33.442248896 ], [ -86.706392102, 33.442640498 ], [ -86.705981903, 33.442365795 ], [ -86.705817603, 33.441907696 ], [ -86.7057622, 33.441151693 ], [ -86.705898605, 33.440739296 ], [ -86.706226006, 33.440189295 ], [ -86.707045004, 33.439478494 ], [ -86.707591303, 33.439088598 ], [ -86.708274201, 33.438859098 ], [ -86.709531106, 33.4387438 ], [ -86.710296303, 33.438926496 ], [ -86.711171202, 33.439338297 ], [ -86.711827502, 33.439796098 ], [ -86.712456301, 33.440047599 ], [ -86.713030003, 33.439978495 ], [ -86.713439606, 33.439703293 ], [ -86.713466503, 33.439199194 ], [ -86.713164806, 33.438099794 ], [ -86.713082805, 33.438053995 ], [ -86.713082604, 33.437893599 ], [ -86.712617002, 33.436771393 ], [ -86.711412705, 33.434733197 ] ] } },
{ "type": "Feature", "properties": { "site_no": "02423380", "nhdplus_comid": "21655446", "navigation_mode": "DM", "requested_distance_km": 12.0, "start_source": "nwissite", "start_id": "USGS-02423380", "geometry_length_km": 3.5693984874175877 }, "geometry": { "type": "LineString", "coordinates": [ [ -86.711412705, 33.434733197 ], [ -86.711522005, 33.4347331 ], [ -86.712476701, 33.433037095 ], [ -86.7130768, 33.432166196 ], [ -86.7135958, 33.431867994 ], [ -86.715016305, 33.431592196 ], [ -86.716901407, 33.431361698 ], [ -86.720180206, 33.431313396 ], [ -86.721136205, 33.431014895 ], [ -86.721436501, 33.430762693 ], [ -86.721709207, 33.430304199 ], [ -86.7217905, 33.429616898 ], [ -86.721680805, 33.429319099 ], [ -86.721161, 33.428609297 ], [ -86.7208049, 33.427853599 ], [ -86.720421202, 33.426731199 ], [ -86.720118701, 33.424944498 ], [ -86.7200367, 33.424875796 ], [ -86.719871201, 33.423409693 ], [ -86.719706602, 33.422722496 ], [ -86.719678506, 33.422080994 ], [ -86.720142305, 33.421370499 ], [ -86.720388003, 33.4212787 ], [ -86.721153207, 33.421415493 ], [ -86.721727505, 33.422010794 ], [ -86.722110301, 33.422262497 ], [ -86.722875506, 33.422422297 ], [ -86.7234492, 33.422444694 ], [ -86.723804303, 33.422352798 ], [ -86.724186607, 33.422146298 ], [ -86.725496702, 33.421022698 ], [ -86.727134503, 33.419852994 ], [ -86.727461904, 33.419417396 ], [ -86.7279521, 33.418088295 ], [ -86.727978103, 33.417011499 ], [ -86.727675602, 33.415270597 ] ] } }
]
}
