{
"type": "FeatureCollection",
"name": "USGS_02423496_UM_12km",
"crs": { "type": "name", "properties": { "name": "urn:ogc:def:crs:OGC:1.3:CRS84" } },
"features": [
{ "type": "Feature", "properties": { "site_no": "02423496", "nhdplus_comid": "21655568", "navigation_mode": "UM", "requested_distance_km": 12.0, "start_source": "nwissite", "start_id": "USGS-02423496", "geometry_length_km": 0.3584617295787666 }, "geometry": { "type": "LineString", "coordinates": [ [ -86.780407704, 33.369318299 ], [ -86.781200007, 33.368906498 ], [ -86.7818553, 33.3688154 ], [ -86.783657007, 33.369251996 ], [ -86.784057409, 33.369263678 ] ] } },
{ "type": "Feature", "properties": { "site_no": "02423496", "nhdplus_comid": "21655566", "navigation_mode": "UM", "requested_distance_km": 12.0, "start_source": "nwissite", "start_id": "USGS-02423496", "geometry_length_km": 0.8621252162793378 }, "geometry": { "type": "LineString", "coordinates": [ [ -86.773992807, 33.367869899 ], [ -86.774484307, 33.367870294 ], [ -86.775084801, 33.368008196 ], [ -86.775521301, 33.368283495 ], [ -86.776884705, 33.369911194 ], [ -86.777184606, 33.3703238 ], [ -86.777184606, 33.370438397 ], [ -86.777921103, 33.371103399 ], [ -86.778439902, 33.371057995 ], [ -86.778931707, 33.370875098 ], [ -86.779970206, 33.369913593 ], [ -86.780407704, 33.369318299 ] ] } },
{ "type": "Feature", "properties": { "site_no": "02423496", "nhdplus_comid": "21655564", "navigation_mode": "UM", "requested_distance_km": 12.0, "start_source": "nwissite", "start_id": "USGS-02423496", "geometry_length_km": 2.3647387470074959 }, "geometry": { "type": "LineString", "coordinates": [ [ -86.780037701, 33.383247398 ], [ -86.780393101, 33.382881097 ], [ -86.780584507, 33.382537596 ], [ -86.780585103, 33.382056497 ], [ -86.780258507, 33.381002396 ], [ -86.779576905, 33.379970796 ], [ -86.779086001, 33.379443593 ], [ -86.778321803, 33.379053399 ], [ -86.777529903, 33.379098698 ], [ -86.775017001, 33.379600696 ], [ -86.7740338, 33.379668593 ], [ -86.773706302, 33.379507996 ], [ -86.773242801, 33.378957793 ], [ -86.772971302, 33.377605796 ], [ -86.772783101, 33.375108398 ], [ -86.772485703, 33.372496396 ], [ -86.772268504, 33.3714424 ], [ -86.772242501, 33.370365597 ], [ -86.772406705, 33.370067798 ], [ -86.773281306, 33.369289696 ], [ -86.773664601, 33.3683507 ], [ -86.773992807, 33.367869899 ] ] } },
{ "type": "Feature", "properties": { "site_no": "02423496", "nhdplus_comid": "21655528", "navigation_mode": "UM", "requested_distance_km": 12.0, "start_source": "nwissite", "start_id": "USGS-02423496", "geometry_length_km": 1.8100040824839578 }, "geometry": { "type": "LineString", "coordinates": [ [ -86.768556707, 33.392516598 ], [ -86.769048803, 33.392035894 ], [ -86.769268505, 33.391119696 ], [ -86.769514807, 33.390707493 ], [ -86.769897506, 33.390432894 ], [ -86.770525701, 33.390364699 ], [ -86.771017201, 33.390479699 ], [ -86.771645404, 33.390434399 ], [ -86.771946102, 33.390251294 ], [ -86.772028305, 33.389953598 ], [ -86.771920405, 33.3888309 ], [ -86.772002406, 33.388785198 ], [ -86.772002503, 33.388647698 ], [ -86.772986807, 33.387663394 ], [ -86.773588002, 33.387343094 ], [ -86.773970403, 33.387274697 ], [ -86.776045606, 33.387642995 ], [ -86.776728302, 33.387666494 ], [ -86.7770015, 33.387552097 ], [ -86.777876407, 33.386727996 ], [ -86.778040603, 33.386315897 ], [ -86.778096303, 33.385491095 ], [ -86.777933605, 33.384437099 ], [ -86.778480306, 33.383910596 ], [ -86.7796278, 33.383361593 ], [ -86.780037701, 33.383247398 ] ] } },
{ "type": "Feature", "properties": { "site_no": "02423496", "nhdplus_comid": "21655502", "navigation_mode": "UM", "requested_distance_km": 12.0, "start_source": "nwissite", "start_id": "USGS-02423496", "geometry_length_km": 1.77002914361326 }, "geometry": { "type": "LineString", "coordinates": [ [ -86.757288806, 33.403961293 ], [ -86.757316306, 33.403777994 ], [ -86.757754207, 33.403113998 ], [ -86.758684203, 33.402198598 ], [ -86.7588211, 33.401900798 ], [ -86.758767106, 33.401511297 ], [ -86.758549005, 33.401144497 ], [ -86.758549705, 33.400617599 ], [ -86.758851603, 33.399564095 ], [ -86.759207301, 33.399083294 ], [ -86.7597268, 33.398717195 ], [ -86.761803702, 33.397894397 ], [ -86.762404904, 33.397620097 ], [ -86.766205303, 33.394622199 ], [ -86.766780205, 33.393454395 ], [ -86.767354406, 33.392973699 ], [ -86.7680922, 33.392630696 ], [ -86.768556707, 33.392516598 ] ] } },
{ "type": "Feature", "properties": { "site_no": "02423496", "nhdplus_comid": "21656490", "navigation_mode": "UM", "requested_distance_km": 12.0, "start_source": "nwissite", "start_id": "USGS-02423496", "geometry_length_km": 1.8052812499762441 }, "geometry": { "type": "LineString", "coordinates": [ [ -86.745377406, 33.414750896 ], [ -86.745759904, 33.414750494 ], [ -86.746087603, 33.414612696 ], [ -86.747097403, 33.413924493 ], [ -86.747916505, 33.413625799 ], [ -86.749992102, 33.413211398 ], [ -86.751758605, 33.412867896 ], [ -86.752633207, 33.412525095 ], [ -86.752934001, 33.412296295 ], [ -86.753399201, 33.411746897 ], [ -86.754111201, 33.410487697 ], [ -86.755370103, 33.408770598 ], [ -86.756300204, 33.4079009 ], [ -86.756902404, 33.406939298 ], [ -86.757094406, 33.406297997 ], [ -86.757288806, 33.403961293 ] ] } },
{ "type": "Feature", "properties": { "site_no": "02423496", "nhdplus_comid": "21655464", "navigation_mode": "UM", "requested_distance_km": 12.0, "start_source": "nwissite", "start_id": "USGS-02423496", "geometry_length_km": 2.3118779309774715 }, "geometry": { "type": "LineString", "coordinates": [ [ -86.727675602, 33.415270597 ], [ -86.727839105, 33.4149497 ], [ -86.728766806, 33.413940899 ], [ -86.729585506, 33.413229994 ], [ -86.730213501, 33.412954599 ], [ -86.730978303, 33.412885197 ], [ -86.732125901, 33.413113296 ], [ -86.732508205, 33.412929699 ], [ -86.733545206, 33.412058294 ], [ -86.734118402, 33.411737099 ], [ -86.735265702, 33.411621399 ], [ -86.735511504, 33.411689997 ], [ -86.735703103, 33.411873095 ], [ -86.735703707, 33.412468798 ], [ -86.734913506, 33.413958594 ], [ -86.734887101, 33.414806299 ], [ -86.734996803, 33.4150353 ], [ -86.735407002, 33.415424496 ], [ -86.736008301, 33.415698893 ], [ -86.73691, 33.4158125 ], [ -86.738603704, 33.415811099 ], [ -86.741854407, 33.415487297 ], [ -86.7433291, 33.415142298 ], [ -86.7442028, 33.414774895 ], [ -86.744749106, 33.414682798 ], [ -86.745377406, 33.414750896 ] ] } }
]
}
