{
"type": "FeatureCollection",
"name": "USGS_02427700_DM_12km",
"crs": { "type": "name", "properties": { "name": "urn:ogc:def:crs:OGC:1.3:CRS84" } },
"features": [
{ "type": "Feature", "properties": { "site_no": "02427700", "nhdplus_comid": "21456180", "navigation_mode": "DM", "requested_distance_km": 12.0, "start_source": "nwissite", "start_id": "USGS-02427700", "geometry_length_km": 4.6329911128212125 }, "geometry": { "type": "LineString", "coordinates": [ [ -87.557112835, 32.018960024 ], [ -87.556765504, 32.019234397 ], [ -87.556066103, 32.019348696 ], [ -87.555071004, 32.0193481 ], [ -87.554533206, 32.019164495 ], [ -87.554398805, 32.019003995 ], [ -87.554372102, 32.0187978 ], [ -87.554534003, 32.018064596 ], [ -87.5543731, 32.017537497 ], [ -87.553594001, 32.016368397 ], [ -87.553137004, 32.016024396 ], [ -87.552868105, 32.015978396 ], [ -87.552545302, 32.016138494 ], [ -87.552006707, 32.017031997 ], [ -87.551683806, 32.0171692 ], [ -87.551334202, 32.017168999 ], [ -87.550447002, 32.0168477 ], [ -87.548402801, 32.017006896 ], [ -87.548026301, 32.016937993 ], [ -87.547730602, 32.016708598 ], [ -87.547542602, 32.016364798 ], [ -87.547516301, 32.015562795 ], [ -87.547328204, 32.015379399 ], [ -87.547301501, 32.015195996 ], [ -87.547113404, 32.015058398 ], [ -87.545876503, 32.014713898 ], [ -87.544801101, 32.014277793 ], [ -87.543967806, 32.013750196 ], [ -87.543376707, 32.013176896 ], [ -87.543027706, 32.012489296 ], [ -87.543028302, 32.011801794 ], [ -87.5432171, 32.011114597 ], [ -87.542598702, 32.010953695 ], [ -87.5421414, 32.011067994 ], [ -87.541683801, 32.011548899 ], [ -87.541549101, 32.011823796 ], [ -87.541333802, 32.012006998 ], [ -87.540769003, 32.012075394 ], [ -87.539962403, 32.011685297 ], [ -87.538671702, 32.011546895 ], [ -87.538026802, 32.010836095 ], [ -87.537785202, 32.0104234 ], [ -87.537624702, 32.009483695 ], [ -87.537678905, 32.009094194 ], [ -87.537948102, 32.008796498 ], [ -87.538782105, 32.008407697 ], [ -87.538943604, 32.008247398 ], [ -87.538970806, 32.007949494 ], [ -87.537976503, 32.0071925 ], [ -87.537734702, 32.006917395 ], [ -87.537627801, 32.006321497 ], [ -87.537439607, 32.006138094 ], [ -87.536740601, 32.006000198 ], [ -87.536337405, 32.005839497 ], [ -87.536149301, 32.005632997 ], [ -87.536095701, 32.005426794 ], [ -87.536392301, 32.004647896 ], [ -87.536312103, 32.004166596 ], [ -87.536124006, 32.003914393 ], [ -87.535935804, 32.003822699 ], [ -87.534618303, 32.003661297 ], [ -87.533757702, 32.0037295 ], [ -87.5331394, 32.0035915 ], [ -87.532924004, 32.003797598 ], [ -87.532896802, 32.004118398 ], [ -87.533030704, 32.004599698 ], [ -87.533299401, 32.004897796 ], [ -87.533326104, 32.005081095 ], [ -87.533164605, 32.005241394 ], [ -87.532761201, 32.005241096 ], [ -87.531766906, 32.004575796 ], [ -87.530422807, 32.004070699 ], [ -87.529562905, 32.003520094 ], [ -87.5292399, 32.003794797 ] ] } },
{ "type": "Feature", "properties": { "site_no": "02427700", "nhdplus_comid": "21456172", "navigation_mode": "DM", "requested_distance_km": 12.0, "start_source": "nwissite", "start_id": "USGS-02427700", "geometry_length_km": 0.21384845442211872 }, "geometry": { "type": "LineString", "coordinates": [ [ -87.5292399, 32.003794797 ], [ -87.529077806, 32.004482098 ], [ -87.528943107, 32.004756995 ], [ -87.528458804, 32.004985794 ], [ -87.527947702, 32.0051229 ] ] } },
{ "type": "Feature", "properties": { "site_no": "02427700", "nhdplus_comid": "21456188", "navigation_mode": "DM", "requested_distance_km": 12.0, "start_source": "nwissite", "start_id": "USGS-02427700", "geometry_length_km": 0.6559353990878477 }, "geometry": { "type": "LineString", "coordinates": [ [ -87.527947702, 32.0051229 ], [ -87.527141206, 32.004938997 ], [ -87.5265503, 32.004273899 ], [ -87.526093803, 32.003586195 ], [ -87.525529303, 32.003379494 ], [ -87.525045201, 32.003470697 ], [ -87.524318404, 32.004043095 ], [ -87.523968704, 32.004180193 ], [ -87.523512006, 32.003813297 ], [ -87.523270607, 32.003217198 ], [ -87.523270905, 32.002919294 ] ] } },
{ "type": "Feature", "properties": { "site_no": "02427700", "nhdplus_comid": "21456202", "navigation_mode": "DM", "requested_distance_km": 12.0, "start_source": "nwissite", "start_id": "USGS-02427700", "geometry_length_km": 1.9811680431480805 }, "geometry": { "type": "LineString", "coordinates": [ [ -87.523270905, 32.002919294 ], [ -87.5229754, 32.002643995 ], [ -87.522464506, 32.002574898 ], [ -87.522222206, 32.002826795 ], [ -87.522140205, 32.004064195 ], [ -87.521871105, 32.004201397 ], [ -87.521467701, 32.004201099 ], [ -87.521118201, 32.004086196 ], [ -87.520231403, 32.003627099 ], [ -87.519290507, 32.003374293 ], [ -87.518940903, 32.003373995 ], [ -87.517622501, 32.003899999 ], [ -87.516734302, 32.004655398 ], [ -87.5166803, 32.004861593 ], [ -87.5167877, 32.005022094 ], [ -87.517271601, 32.005114198 ], [ -87.518293403, 32.005137898 ], [ -87.518615805, 32.005458996 ], [ -87.518615402, 32.005779795 ], [ -87.518211804, 32.006031498 ], [ -87.517109104, 32.006099395 ], [ -87.515603207, 32.006029397 ], [ -87.515226804, 32.005937293 ], [ -87.514823705, 32.005707793 ], [ -87.514421001, 32.005157493 ], [ -87.514260203, 32.004676193 ], [ -87.514207006, 32.004171997 ], [ -87.513537206, 32.002108999 ], [ -87.513188206, 32.001581699 ] ] } },
{ "type": "Feature", "properties": { "site_no": "02427700", "nhdplus_comid": "21456210", "navigation_mode": "DM", "requested_distance_km": 12.0, "start_source": "nwissite", "start_id": "USGS-02427700", "geometry_length_km": 1.7696977461428738 }, "geometry": { "type": "LineString", "coordinates": [ [ -87.513188206, 32.001581699 ], [ -87.5124624, 32.001374699 ], [ -87.512085803, 32.001466095 ], [ -87.511870205, 32.0018325 ], [ -87.511816002, 32.002244994 ], [ -87.511923201, 32.002520099 ], [ -87.511868507, 32.003276199 ], [ -87.511707105, 32.003344797 ], [ -87.5110889, 32.0030692 ], [ -87.510954604, 32.002862893 ], [ -87.510982707, 32.0019693 ], [ -87.511036702, 32.001785994 ], [ -87.5109834, 32.001396395 ], [ -87.510876104, 32.001235895 ], [ -87.510418802, 32.001304194 ], [ -87.510230303, 32.001533195 ], [ -87.509933107, 32.002632797 ], [ -87.509206302, 32.003250897 ], [ -87.508425906, 32.003708497 ], [ -87.5080221, 32.004051797 ], [ -87.507671505, 32.004830599 ], [ -87.507456101, 32.005013697 ], [ -87.507079601, 32.004990399 ], [ -87.506864704, 32.004806995 ], [ -87.506623507, 32.004164994 ], [ -87.506382704, 32.0032482 ], [ -87.505952902, 32.002881199 ], [ -87.504500806, 32.002879798 ], [ -87.5041783, 32.002742 ], [ -87.504179105, 32.002077393 ], [ -87.504394807, 32.001665197 ] ] } },
{ "type": "Feature", "properties": { "site_no": "02427700", "nhdplus_comid": "21456570", "navigation_mode": "DM", "requested_distance_km": 12.0, "start_source": "nwissite", "start_id": "USGS-02427700", "geometry_length_km": 1.105537849285829 }, "geometry": { "type": "LineString", "coordinates": [ [ -87.504394807, 32.001665197 ], [ -87.504503004, 32.001206994 ], [ -87.504476704, 32.000725798 ], [ -87.5038049, 32.000266798 ], [ -87.503052004, 32.000311896 ], [ -87.502244703, 32.000746593 ], [ -87.500011005, 32.002138697 ], [ -87.499796003, 32.002253495 ], [ -87.499581404, 32.002643198 ], [ -87.499986202, 32.003673993 ], [ -87.5000626, 32.003700398 ], [ -87.500062302, 32.003883697 ], [ -87.500786506, 32.005282298 ], [ -87.500786304, 32.005419798 ], [ -87.500974402, 32.005603194 ], [ -87.501215704, 32.006130494 ] ] } }
]
}
