{
"type": "FeatureCollection",
"name": "USGS_02342881_DM_12km",
"crs": { "type": "name", "properties": { "name": "urn:ogc:def:crs:OGC:1.3:CRS84" } },
"features": [
{ "type": "Feature", "properties": { "site_no": "02342881", "nhdplus_comid": "3438596", "navigation_mode": "DM", "requested_distance_km": 12.0, "start_source": "nwissite", "start_id": "USGS-02342881", "geometry_length_km": 0.62785151362729053 }, "geometry": { "type": "LineString", "coordinates": [ [ -85.050090191, 32.140706045 ], [ -85.051520802, 32.139750898 ], [ -85.051771306, 32.139097899 ], [ -85.052833803, 32.1383885 ], [ -85.053346701, 32.138167493 ], [ -85.054775201, 32.1383067 ], [ -85.055306405, 32.137952 ] ] } },
{ "type": "Feature", "properties": { "site_no": "02342881", "nhdplus_comid": "3438602", "navigation_mode": "DM", "requested_distance_km": 12.0, "start_source": "nwissite", "start_id": "USGS-02342881", "geometry_length_km": 0.41488354378618542 }, "geometry": { "type": "LineString", "coordinates": [ [ -85.055306405, 32.137952 ], [ -85.0589699, 32.135869995 ] ] } },
{ "type": "Feature", "properties": { "site_no": "02342881", "nhdplus_comid": "3438612", "navigation_mode": "DM", "requested_distance_km": 12.0, "start_source": "nwissite", "start_id": "USGS-02342881", "geometry_length_km": 2.2832524485402175 }, "geometry": { "type": "LineString", "coordinates": [ [ -85.0589699, 32.135869995 ], [ -85.061027706, 32.133767098 ], [ -85.061473601, 32.132862099 ], [ -85.061638802, 32.131658696 ], [ -85.060711302, 32.130213499 ], [ -85.060223304, 32.129081994 ], [ -85.060174704, 32.128264293 ], [ -85.058936402, 32.125569195 ], [ -85.0588025, 32.124201193 ], [ -85.057686307, 32.121788993 ], [ -85.056997605, 32.118605494 ], [ -85.055841602, 32.117070094 ] ] } },
{ "type": "Feature", "properties": { "site_no": "02342881", "nhdplus_comid": "3438624", "navigation_mode": "DM", "requested_distance_km": 12.0, "start_source": "nwissite", "start_id": "USGS-02342881", "geometry_length_km": 1.3875601411013245 }, "geometry": { "type": "LineString", "coordinates": [ [ -85.055841602, 32.117070094 ], [ -85.055954903, 32.115658395 ], [ -85.055326805, 32.1143777 ], [ -85.055126101, 32.112325698 ], [ -85.054065205, 32.109512299 ], [ -85.053669102, 32.107712097 ], [ -85.0528825, 32.106415898 ], [ -85.0529074, 32.105063297 ] ] } },
{ "type": "Feature", "properties": { "site_no": "02342881", "nhdplus_comid": "3438628", "navigation_mode": "DM", "requested_distance_km": 12.0, "start_source": "nwissite", "start_id": "USGS-02342881", "geometry_length_km": 1.8004975468372246 }, "geometry": { "type": "LineString", "coordinates": [ [ -85.0529074, 32.105063297 ], [ -85.052944101, 32.104795896 ], [ -85.0514559, 32.102753796 ], [ -85.0502249, 32.098839596 ], [ -85.049822405, 32.098258398 ], [ -85.049774006, 32.097440593 ], [ -85.049231201, 32.096710093 ], [ -85.048975706, 32.095059194 ], [ -85.046951704, 32.091067597 ], [ -85.047059506, 32.089988999 ] ] } },
{ "type": "Feature", "properties": { "site_no": "02342881", "nhdplus_comid": "3438638", "navigation_mode": "DM", "requested_distance_km": 12.0, "start_source": "nwissite", "start_id": "USGS-02342881", "geometry_length_km": 0.35962157112843374 }, "geometry": { "type": "LineString", "coordinates": [ [ -85.047059506, 32.089988999 ], [ -85.047380701, 32.086773194 ] ] } },
{ "type": "Feature", "properties": { "site_no": "02342881", "nhdplus_comid": "3438654", "navigation_mode": "DM", "requested_distance_km": 12.0, "start_source": "nwissite", "start_id": "USGS-02342881", "geometry_length_km": 1.187981007437781 }, "geometry": { "type": "LineString", "coordinates": [ [ -85.047380701, 32.086773194 ], [ -85.050584607, 32.084511198 ], [ -85.051542901, 32.083385199 ], [ -85.052452601, 32.081441298 ], [ -85.052831404, 32.079852194 ], [ -85.053240404, 32.079214498 ], [ -85.053948201, 32.078741595 ], [ -85.054180205, 32.078222193 ] ] } },
{ "type": "Feature", "properties": { "site_no": "02342881", "nhdplus_comid": "3438672", "navigation_mode": "DM", "requested_distance_km": 12.0, "start_source": "nwissite", "start_id": "USGS-02342881", "geometry_length_km": 0.93938448235974892 }, "geometry": { "type": "LineString", "coordinates": [ [ -85.054180205, 32.078222193 ], [ -85.055066101, 32.074107796 ], [ -85.054859005, 32.073274598 ], [ -85.054176204, 32.0723949 ], [ -85.054237701, 32.070774794 ], [ -85.054012306, 32.070075296 ] ] } },
{ "type": "Feature", "properties": { "site_no": "02342881", "nhdplus_comid": "3438684", "navigation_mode": "DM", "requested_distance_km": 12.0, "start_source": "nwissite", "start_id": "USGS-02342881", "geometry_length_km": 2.2403384575533796 }, "geometry": { "type": "LineString", "coordinates": [ [ -85.054012306, 32.070075296 ], [ -85.054898202, 32.065960899 ], [ -85.055380404, 32.064788394 ], [ -85.056077406, 32.059706993 ], [ -85.0563839, 32.055129498 ], [ -85.057221003, 32.050197095 ] ] } }
]
}
