{
"type": "FeatureCollection",
"name": "USGS_02414715_DM_12km",
"crs": { "type": "name", "properties": { "name": "urn:ogc:def:crs:OGC:1.3:CRS84" } },
"features": [
{ "type": "Feature", "properties": { "site_no": "02414715", "nhdplus_comid": "22038591", "navigation_mode": "DM", "requested_distance_km": 12.0, "start_source": "nwissite", "start_id": "USGS-02414715", "geometry_length_km": 0.43806442514746963 }, "geometry": { "type": "LineString", "coordinates": [ [ -85.740726165, 32.977313947 ], [ -85.741769306, 32.978393294 ], [ -85.743141502, 32.9806621 ] ] } },
{ "type": "Feature", "properties": { "site_no": "02414715", "nhdplus_comid": "22038517", "navigation_mode": "DM", "requested_distance_km": 12.0, "start_source": "nwissite", "start_id": "USGS-02414715", "geometry_length_km": 0.86456720334561454 }, "geometry": { "type": "LineString", "coordinates": [ [ -85.743141502, 32.9806621 ], [ -85.744728506, 32.982445598 ], [ -85.746996105, 32.983659595 ], [ -85.750924401, 32.983761296 ], [ -85.750936806, 32.983767897 ] ] } },
{ "type": "Feature", "properties": { "site_no": "02414715", "nhdplus_comid": "22038507", "navigation_mode": "DM", "requested_distance_km": 12.0, "start_source": "nwissite", "start_id": "USGS-02414715", "geometry_length_km": 0.063252963516492969 }, "geometry": { "type": "LineString", "coordinates": [ [ -85.750936806, 32.983767897 ], [ -85.751509607, 32.984074399 ] ] } },
{ "type": "Feature", "properties": { "site_no": "02414715", "nhdplus_comid": "22038505", "navigation_mode": "DM", "requested_distance_km": 12.0, "start_source": "nwissite", "start_id": "USGS-02414715", "geometry_length_km": 0.17347960859028927 }, "geometry": { "type": "LineString", "coordinates": [ [ -85.751509607, 32.984074399 ], [ -85.752058305, 32.984368198 ], [ -85.753240906, 32.984600894 ] ] } },
{ "type": "Feature", "properties": { "site_no": "02414715", "nhdplus_comid": "22038503", "navigation_mode": "DM", "requested_distance_km": 12.0, "start_source": "nwissite", "start_id": "USGS-02414715", "geometry_length_km": 0.37910196140499947 }, "geometry": { "type": "LineString", "coordinates": [ [ -85.753240906, 32.984600894 ], [ -85.754123703, 32.984806597 ], [ -85.756691203, 32.986047298 ], [ -85.756884903, 32.986070797 ] ] } },
{ "type": "Feature", "properties": { "site_no": "02414715", "nhdplus_comid": "22038495", "navigation_mode": "DM", "requested_distance_km": 12.0, "start_source": "nwissite", "start_id": "USGS-02414715", "geometry_length_km": 0.24124911505601013 }, "geometry": { "type": "LineString", "coordinates": [ [ -85.756884903, 32.986070797 ], [ -85.759455003, 32.986382693 ] ] } },
{ "type": "Feature", "properties": { "site_no": "02414715", "nhdplus_comid": "22038497", "navigation_mode": "DM", "requested_distance_km": 12.0, "start_source": "nwissite", "start_id": "USGS-02414715", "geometry_length_km": 0.30120538587563411 }, "geometry": { "type": "LineString", "coordinates": [ [ -85.759455003, 32.986382693 ], [ -85.760720901, 32.986536294 ], [ -85.762251906, 32.986421794 ], [ -85.762584001, 32.986199297 ] ] } },
{ "type": "Feature", "properties": { "site_no": "02414715", "nhdplus_comid": "22038515", "navigation_mode": "DM", "requested_distance_km": 12.0, "start_source": "nwissite", "start_id": "USGS-02414715", "geometry_length_km": 0.34284035779393796 }, "geometry": { "type": "LineString", "coordinates": [ [ -85.762584001, 32.986199297 ], [ -85.763179407, 32.985117294 ], [ -85.763422303, 32.9832462 ] ] } },
{ "type": "Feature", "properties": { "site_no": "02414715", "nhdplus_comid": "22038537", "navigation_mode": "DM", "requested_distance_km": 12.0, "start_source": "nwissite", "start_id": "USGS-02414715", "geometry_length_km": 0.35527474355124233 }, "geometry": { "type": "LineString", "coordinates": [ [ -85.763422303, 32.9832462 ], [ -85.763033703, 32.981571093 ], [ -85.763224505, 32.980102196 ] ] } },
{ "type": "Feature", "properties": { "site_no": "02414715", "nhdplus_comid": "22038563", "navigation_mode": "DM", "requested_distance_km": 12.0, "start_source": "nwissite", "start_id": "USGS-02414715", "geometry_length_km": 0.30948415564920645 }, "geometry": { "type": "LineString", "coordinates": [ [ -85.763224505, 32.980102196 ], [ -85.763390206, 32.978827193 ], [ -85.7636858, 32.977718197 ], [ -85.764017902, 32.977495797 ] ] } },
{ "type": "Feature", "properties": { "site_no": "02414715", "nhdplus_comid": "22038567", "navigation_mode": "DM", "requested_distance_km": 12.0, "start_source": "nwissite", "start_id": "USGS-02414715", "geometry_length_km": 0.018902221539481685 }, "geometry": { "type": "LineString", "coordinates": [ [ -85.764017902, 32.977495797 ], [ -85.764006205, 32.977326699 ] ] } },
{ "type": "Feature", "properties": { "site_no": "02414715", "nhdplus_comid": "22038581", "navigation_mode": "DM", "requested_distance_km": 12.0, "start_source": "nwissite", "start_id": "USGS-02414715", "geometry_length_km": 0.3502767935418718 }, "geometry": { "type": "LineString", "coordinates": [ [ -85.764006205, 32.977326699 ], [ -85.763965301, 32.976733893 ], [ -85.764394507, 32.975763097 ], [ -85.764973603, 32.974805795 ], [ -85.7653841, 32.974530697 ] ] } },
{ "type": "Feature", "properties": { "site_no": "02414715", "nhdplus_comid": "22038583", "navigation_mode": "DM", "requested_distance_km": 12.0, "start_source": "nwissite", "start_id": "USGS-02414715", "geometry_length_km": 0.64404775948319137 }, "geometry": { "type": "LineString", "coordinates": [ [ -85.7653841, 32.974530697 ], [ -85.765803702, 32.974249594 ], [ -85.768245503, 32.9729551 ], [ -85.770343103, 32.973143794 ], [ -85.771723904, 32.973015696 ] ] } },
{ "type": "Feature", "properties": { "site_no": "02414715", "nhdplus_comid": "22038613", "navigation_mode": "DM", "requested_distance_km": 12.0, "start_source": "nwissite", "start_id": "USGS-02414715", "geometry_length_km": 1.6953807634803706 }, "geometry": { "type": "LineString", "coordinates": [ [ -85.771723904, 32.973015696 ], [ -85.772772707, 32.973109998 ], [ -85.775999904, 32.972769298 ], [ -85.777648002, 32.972917497 ], [ -85.778911404, 32.972526297 ], [ -85.780769706, 32.971052997 ], [ -85.780890606, 32.967783093 ], [ -85.781319603, 32.966812298 ], [ -85.7823155, 32.966144696 ], [ -85.784231804, 32.966072597 ] ] } },
{ "type": "Feature", "properties": { "site_no": "02414715", "nhdplus_comid": "22038615", "navigation_mode": "DM", "requested_distance_km": 12.0, "start_source": "nwissite", "start_id": "USGS-02414715", "geometry_length_km": 0.18297102616119496 }, "geometry": { "type": "LineString", "coordinates": [ [ -85.784231804, 32.966072597 ], [ -85.784295507, 32.966070198 ], [ -85.786098801, 32.965557396 ] ] } },
{ "type": "Feature", "properties": { "site_no": "02414715", "nhdplus_comid": "22038617", "navigation_mode": "DM", "requested_distance_km": 12.0, "start_source": "nwissite", "start_id": "USGS-02414715", "geometry_length_km": 0.23551677743250199 }, "geometry": { "type": "LineString", "coordinates": [ [ -85.786098801, 32.965557396 ], [ -85.786655806, 32.965398997 ], [ -85.788597003, 32.965281799 ] ] } },
{ "type": "Feature", "properties": { "site_no": "02414715", "nhdplus_comid": "22038621", "navigation_mode": "DM", "requested_distance_km": 12.0, "start_source": "nwissite", "start_id": "USGS-02414715", "geometry_length_km": 0.28875026606898407 }, "geometry": { "type": "LineString", "coordinates": [ [ -85.788597003, 32.965281799 ], [ -85.791696705, 32.965094596 ] ] } },
{ "type": "Feature", "properties": { "site_no": "02414715", "nhdplus_comid": "22038623", "navigation_mode": "DM", "requested_distance_km": 12.0, "start_source": "nwissite", "start_id": "USGS-02414715", "geometry_length_km": 0.15493128079092969 }, "geometry": { "type": "LineString", "coordinates": [ [ -85.791696705, 32.965094596 ], [ -85.792263605, 32.965397798 ], [ -85.793247804, 32.965512194 ] ] } },
{ "type": "Feature", "properties": { "site_no": "02414715", "nhdplus_comid": "22038625", "navigation_mode": "DM", "requested_distance_km": 12.0, "start_source": "nwissite", "start_id": "USGS-02414715", "geometry_length_km": 0.63732040450219551 }, "geometry": { "type": "LineString", "coordinates": [ [ -85.793247804, 32.965512194 ], [ -85.797041602, 32.965952799 ], [ -85.799187504, 32.965766795 ], [ -85.799978606, 32.965462297 ] ] } },
{ "type": "Feature", "properties": { "site_no": "02414715", "nhdplus_comid": "22038627", "navigation_mode": "DM", "requested_distance_km": 12.0, "start_source": "nwissite", "start_id": "USGS-02414715", "geometry_length_km": 0.04147732237908381 }, "geometry": { "type": "LineString", "coordinates": [ [ -85.799978606, 32.965462297 ], [ -85.800383806, 32.965306297 ] ] } },
{ "type": "Feature", "properties": { "site_no": "02414715", "nhdplus_comid": "22038649", "navigation_mode": "DM", "requested_distance_km": 12.0, "start_source": "nwissite", "start_id": "USGS-02414715", "geometry_length_km": 1.1196088078689879 }, "geometry": { "type": "LineString", "coordinates": [ [ -85.800383806, 32.965306297 ], [ -85.802292205, 32.964026496 ], [ -85.804368906, 32.963203296 ], [ -85.805599704, 32.963061295 ], [ -85.808538303, 32.961431995 ], [ -85.8097516, 32.959586896 ] ] } },
{ "type": "Feature", "properties": { "site_no": "02414715", "nhdplus_comid": "22038657", "navigation_mode": "DM", "requested_distance_km": 12.0, "start_source": "nwissite", "start_id": "USGS-02414715", "geometry_length_km": 0.25794547113661154 }, "geometry": { "type": "LineString", "coordinates": [ [ -85.8097516, 32.959586896 ], [ -85.811084703, 32.957559399 ] ] } },
{ "type": "Feature", "properties": { "site_no": "02414715", "nhdplus_comid": "22038669", "navigation_mode": "DM", "requested_distance_km": 12.0, "start_source": "nwissite", "start_id": "USGS-02414715", "geometry_length_km": 1.1841100417710766 }, "geometry": { "type": "LineString", "coordinates": [ [ -85.811084703, 32.957559399 ], [ -85.811863601, 32.956809096 ], [ -85.812854506, 32.955005199 ], [ -85.813566506, 32.954185694 ], [ -85.815407701, 32.952836499 ], [ -85.817451701, 32.952262595 ], [ -85.820795506, 32.9521835 ] ] } },
{ "type": "Feature", "properties": { "site_no": "02414715", "nhdplus_comid": "22038671", "navigation_mode": "DM", "requested_distance_km": 12.0, "start_source": "nwissite", "start_id": "USGS-02414715", "geometry_length_km": 1.933172067334197 }, "geometry": { "type": "LineString", "coordinates": [ [ -85.820795506, 32.9521835 ], [ -85.823176101, 32.952522799 ], [ -85.823577203, 32.952937193 ], [ -85.825792007, 32.953387797 ], [ -85.827343203, 32.954283595 ], [ -85.828509405, 32.954640299 ], [ -85.829846501, 32.956021696 ], [ -85.830819607, 32.9578752 ], [ -85.8320392, 32.958993696 ], [ -85.834307507, 32.960205898 ], [ -85.836040907, 32.960865594 ], [ -85.8373731, 32.961110793 ] ] } }
]
}
