{
"type": "FeatureCollection",
"name": "USGS_03592500_UM_12km",
"crs": { "type": "name", "properties": { "name": "urn:ogc:def:crs:OGC:1.3:CRS84" } },
"features": [
{ "type": "Feature", "properties": { "site_no": "03592500", "nhdplus_comid": "19567882", "navigation_mode": "UM", "requested_distance_km": 12.0, "start_source": "nwissite", "start_id": "USGS-03592500", "geometry_length_km": 0.76799334172211375 }, "geometry": { "type": "LineString", "coordinates": [ [ -88.127092101, 34.650557995 ], [ -88.127036706, 34.6507871 ], [ -88.125983603, 34.652138397 ], [ -88.125734203, 34.652619295 ], [ -88.125401601, 34.653466798 ], [ -88.125041403, 34.653878994 ], [ -88.123794302, 34.654840998 ], [ -88.123018205, 34.655184597 ], [ -88.122380801, 34.655367799 ], [ -88.121858454, 34.655518849 ] ] } },
{ "type": "Feature", "properties": { "site_no": "03592500", "nhdplus_comid": "19567406", "navigation_mode": "UM", "requested_distance_km": 12.0, "start_source": "nwissite", "start_id": "USGS-03592500", "geometry_length_km": 0.047398170508240287 }, "geometry": { "type": "LineString", "coordinates": [ [ -88.127424605, 34.650283195 ], [ -88.127341606, 34.650466494 ], [ -88.127286106, 34.650512196 ], [ -88.127092101, 34.650557995 ] ] } },
{ "type": "Feature", "properties": { "site_no": "03592500", "nhdplus_comid": "19567886", "navigation_mode": "UM", "requested_distance_km": 12.0, "start_source": "nwissite", "start_id": "USGS-03592500", "geometry_length_km": 2.0253892829849121 }, "geometry": { "type": "LineString", "coordinates": [ [ -88.140560307, 34.646227993 ], [ -88.139673501, 34.6461595 ], [ -88.138703406, 34.6457702 ], [ -88.138121501, 34.645793296 ], [ -88.137428701, 34.646159798 ], [ -88.137207106, 34.646205597 ], [ -88.136514202, 34.646159895 ], [ -88.136098504, 34.645885095 ], [ -88.135932207, 34.645610295 ], [ -88.136015207, 34.645243794 ], [ -88.136264503, 34.644923195 ], [ -88.136680201, 34.644648299 ], [ -88.137400605, 34.644327499 ], [ -88.137400605, 34.644052699 ], [ -88.137095705, 34.643754996 ], [ -88.136569105, 34.643503197 ], [ -88.135876305, 34.643297099 ], [ -88.135322101, 34.643320099 ], [ -88.134878702, 34.643503398 ], [ -88.134324506, 34.643961497 ], [ -88.133354805, 34.645152494 ], [ -88.132856004, 34.646137394 ], [ -88.132523507, 34.646893196 ], [ -88.132163405, 34.647282593 ], [ -88.131941706, 34.647580296 ], [ -88.131054901, 34.648359194 ], [ -88.130528405, 34.648725599 ], [ -88.1299465, 34.6489776 ], [ -88.128394604, 34.649779193 ], [ -88.127701804, 34.650260195 ], [ -88.127424605, 34.650283195 ] ] } },
{ "type": "Feature", "properties": { "site_no": "03592500", "nhdplus_comid": "19567420", "navigation_mode": "UM", "requested_distance_km": 12.0, "start_source": "nwissite", "start_id": "USGS-03592500", "geometry_length_km": 1.0205738005878118 }, "geometry": { "type": "LineString", "coordinates": [ [ -88.148763604, 34.647715099 ], [ -88.148154005, 34.6480131 ], [ -88.147294901, 34.648058996 ], [ -88.146629706, 34.647853099 ], [ -88.146158606, 34.647944696 ], [ -88.145881601, 34.648196697 ], [ -88.145881705, 34.648608997 ], [ -88.1459371, 34.648654796 ], [ -88.145937204, 34.648815095 ], [ -88.145798601, 34.648883797 ], [ -88.145438306, 34.648838095 ], [ -88.145050302, 34.648517497 ], [ -88.144662201, 34.647922195 ], [ -88.1437473, 34.646914594 ], [ -88.143248402, 34.646181799 ], [ -88.142804906, 34.645998597 ], [ -88.142472401, 34.645952798 ], [ -88.140560307, 34.646227993 ] ] } },
{ "type": "Feature", "properties": { "site_no": "03592500", "nhdplus_comid": "19567462", "navigation_mode": "UM", "requested_distance_km": 12.0, "start_source": "nwissite", "start_id": "USGS-03592500", "geometry_length_km": 3.8236347780190063 }, "geometry": { "type": "LineString", "coordinates": [ [ -88.170981005, 34.633508593 ], [ -88.170454502, 34.633508898 ], [ -88.168791704, 34.6327537 ], [ -88.167406, 34.632341996 ], [ -88.166768603, 34.6319758 ], [ -88.164190806, 34.630098596 ], [ -88.1628602, 34.628908195 ], [ -88.1616963, 34.628335997 ], [ -88.1613914, 34.628198594 ], [ -88.160920501, 34.628267497 ], [ -88.160532601, 34.628405094 ], [ -88.159895502, 34.628794596 ], [ -88.159258701, 34.629596397 ], [ -88.158871107, 34.6302149 ], [ -88.1582065, 34.631108299 ], [ -88.1580403, 34.631405994 ], [ -88.157985002, 34.631703898 ], [ -88.1578466, 34.632093199 ], [ -88.157763906, 34.632848993 ], [ -88.1575424, 34.633215494 ], [ -88.15721, 34.6334446 ], [ -88.156739004, 34.633627996 ], [ -88.155242905, 34.633788697 ], [ -88.154855005, 34.633926295 ], [ -88.154300906, 34.634315796 ], [ -88.153968602, 34.634682298 ], [ -88.153719507, 34.635369495 ], [ -88.153608903, 34.635919094 ], [ -88.153526001, 34.636400193 ], [ -88.153526604, 34.638094895 ], [ -88.153609805, 34.638415597 ], [ -88.153499603, 34.639972895 ], [ -88.153444402, 34.640453897 ], [ -88.153389402, 34.641484499 ], [ -88.153195605, 34.642102994 ], [ -88.152586401, 34.642996296 ], [ -88.152392507, 34.643385693 ], [ -88.1522265, 34.6442561 ], [ -88.152143903, 34.6454928 ], [ -88.152005501, 34.645950899 ], [ -88.151617706, 34.646340296 ], [ -88.151257403, 34.646477796 ], [ -88.149594702, 34.646798894 ], [ -88.149290003, 34.647027895 ], [ -88.148763604, 34.647715099 ] ] } },
{ "type": "Feature", "properties": { "site_no": "03592500", "nhdplus_comid": "19567468", "navigation_mode": "UM", "requested_distance_km": 12.0, "start_source": "nwissite", "start_id": "USGS-03592500", "geometry_length_km": 1.6038506545295916 }, "geometry": { "type": "LineString", "coordinates": [ [ -88.181696907, 34.623518296 ], [ -88.1816139, 34.623678699 ], [ -88.181254007, 34.624068193 ], [ -88.179537006, 34.625099599 ], [ -88.178567603, 34.625489496 ], [ -88.177875005, 34.625650093 ], [ -88.176351205, 34.625673696 ], [ -88.176046506, 34.625765398 ], [ -88.175797306, 34.626040399 ], [ -88.1746075, 34.628216594 ], [ -88.174441606, 34.628720596 ], [ -88.174220607, 34.629934393 ], [ -88.173944004, 34.630575798 ], [ -88.173085503, 34.631354898 ], [ -88.172144204, 34.632569194 ], [ -88.1717012, 34.633027397 ], [ -88.170981005, 34.633508593 ] ] } }
]
}
