{
"type": "FeatureCollection",
"name": "USGS_02427875_DM_12km",
"crs": { "type": "name", "properties": { "name": "urn:ogc:def:crs:OGC:1.3:CRS84" } },
"features": [
{ "type": "Feature", "properties": { "site_no": "02427875", "nhdplus_comid": "21458310", "navigation_mode": "DM", "requested_distance_km": 12.0, "start_source": "nwissite", "start_id": "USGS-02427875", "geometry_length_km": 1.8459977701210177 }, "geometry": { "type": "LineString", "coordinates": [ [ -87.337342633, 31.955771225 ], [ -87.337391503, 31.955779798 ], [ -87.337848507, 31.955779895 ], [ -87.3393538, 31.955115795 ], [ -87.340617307, 31.954680793 ], [ -87.3416925, 31.954176895 ], [ -87.342284001, 31.953787498 ], [ -87.343574502, 31.952641994 ], [ -87.344784103, 31.952000596 ], [ -87.345778704, 31.9515884 ], [ -87.347230002, 31.951519996 ], [ -87.349138305, 31.951703697 ], [ -87.350079, 31.951543495 ], [ -87.351181105, 31.951085299 ], [ -87.352202505, 31.950535499 ], [ -87.354111001, 31.949092098 ], [ -87.354406603, 31.948977597 ] ] } },
{ "type": "Feature", "properties": { "site_no": "02427875", "nhdplus_comid": "21458328", "navigation_mode": "DM", "requested_distance_km": 12.0, "start_source": "nwissite", "start_id": "USGS-02427875", "geometry_length_km": 0.67566332565379228 }, "geometry": { "type": "LineString", "coordinates": [ [ -87.354406603, 31.948977597 ], [ -87.3549712, 31.948404796 ], [ -87.355186202, 31.948015295 ], [ -87.356664605, 31.947121799 ], [ -87.3575515, 31.946480297 ], [ -87.358519107, 31.9462054 ], [ -87.360131606, 31.945563897 ] ] } },
{ "type": "Feature", "properties": { "site_no": "02427875", "nhdplus_comid": "21458386", "navigation_mode": "DM", "requested_distance_km": 12.0, "start_source": "nwissite", "start_id": "USGS-02427875", "geometry_length_km": 1.2671269216296892 }, "geometry": { "type": "LineString", "coordinates": [ [ -87.360131606, 31.945563897 ], [ -87.360588603, 31.945105694 ], [ -87.360857502, 31.944143295 ], [ -87.361637004, 31.943066299 ], [ -87.361637004, 31.942791298 ], [ -87.361314602, 31.942264296 ], [ -87.361314707, 31.941599697 ], [ -87.361422203, 31.941347495 ], [ -87.362282202, 31.9411643 ], [ -87.362550907, 31.940958098 ], [ -87.362712204, 31.940545596 ], [ -87.362739205, 31.939835198 ], [ -87.362336203, 31.938345693 ], [ -87.362336203, 31.937520795 ], [ -87.362443805, 31.936902098 ], [ -87.362658903, 31.936466694 ], [ -87.363062002, 31.936145894 ], [ -87.363733806, 31.935939699 ] ] } },
{ "type": "Feature", "properties": { "site_no": "02427875", "nhdplus_comid": "21458412", "navigation_mode": "DM", "requested_distance_km": 12.0, "start_source": "nwissite", "start_id": "USGS-02427875", "geometry_length_km": 0.87388527393359761 }, "geometry": { "type": "LineString", "coordinates": [ [ -87.363733806, 31.935939699 ], [ -87.363948807, 31.935664795 ], [ -87.363868207, 31.935435593 ], [ -87.362632103, 31.934770994 ], [ -87.362041101, 31.934289694 ], [ -87.361449905, 31.933464594 ], [ -87.361423202, 31.932800196 ], [ -87.361611404, 31.932135597 ], [ -87.361611404, 31.9317002 ], [ -87.361369602, 31.931539796 ], [ -87.360939607, 31.931539699 ], [ -87.359676503, 31.932135396 ], [ -87.359246604, 31.932158299 ], [ -87.358924203, 31.931883194 ] ] } },
{ "type": "Feature", "properties": { "site_no": "02427875", "nhdplus_comid": "21458474", "navigation_mode": "DM", "requested_distance_km": 12.0, "start_source": "nwissite", "start_id": "USGS-02427875", "geometry_length_km": 2.1572577110852622 }, "geometry": { "type": "LineString", "coordinates": [ [ -87.358924203, 31.931883194 ], [ -87.358978003, 31.931218699 ], [ -87.3590855, 31.930920899 ], [ -87.360187501, 31.929545894 ], [ -87.360402502, 31.929179296 ], [ -87.360402502, 31.928858399 ], [ -87.359811507, 31.927964695 ], [ -87.359757803, 31.927598096 ], [ -87.359919101, 31.9269794 ], [ -87.361021005, 31.925214998 ], [ -87.361021005, 31.924985893 ], [ -87.3608061, 31.924642093 ], [ -87.360000104, 31.924000397 ], [ -87.360000104, 31.923725396 ], [ -87.3601344, 31.923587896 ], [ -87.360591203, 31.923381694 ], [ -87.362391502, 31.923358895 ], [ -87.363063201, 31.923198596 ], [ -87.363170706, 31.923084095 ], [ -87.363063306, 31.922808997 ], [ -87.3620691, 31.922121495 ], [ -87.362069204, 31.921869397 ], [ -87.362176605, 31.921754897 ], [ -87.363170803, 31.921525799 ], [ -87.364568107, 31.92148 ], [ -87.365239806, 31.921296798 ], [ -87.366771206, 31.920357294 ], [ -87.367254905, 31.920265697 ], [ -87.367577307, 31.920471899 ], [ -87.3678459, 31.920907393 ] ] } },
{ "type": "Feature", "properties": { "site_no": "02427875", "nhdplus_comid": "21458516", "navigation_mode": "DM", "requested_distance_km": 12.0, "start_source": "nwissite", "start_id": "USGS-02427875", "geometry_length_km": 2.2477493175472296 }, "geometry": { "type": "LineString", "coordinates": [ [ -87.3678459, 31.920907393 ], [ -87.367819004, 31.921044797 ], [ -87.367335401, 31.921296999 ], [ -87.366878606, 31.921755195 ], [ -87.366851702, 31.922167696 ], [ -87.367039807, 31.922373898 ], [ -87.367604002, 31.922511399 ], [ -87.3685176, 31.922098994 ], [ -87.369162403, 31.921640694 ], [ -87.3701028, 31.920174196 ], [ -87.370640203, 31.919555396 ], [ -87.371741802, 31.918592997 ], [ -87.371983603, 31.918226399 ], [ -87.371903002, 31.917951398 ], [ -87.371661104, 31.917653397 ], [ -87.370882101, 31.917057596 ], [ -87.370694004, 31.916805498 ], [ -87.370694004, 31.916095093 ], [ -87.371929802, 31.9145827 ], [ -87.3724939, 31.914193198 ], [ -87.373273104, 31.913895294 ], [ -87.374079205, 31.913849398 ], [ -87.374992602, 31.914238997 ], [ -87.375610501, 31.914559796 ], [ -87.376765803, 31.914811894 ], [ -87.377329901, 31.914743096 ], [ -87.379291102, 31.9137576 ], [ -87.380097106, 31.913551293 ] ] } },
{ "type": "Feature", "properties": { "site_no": "02427875", "nhdplus_comid": "21459174", "navigation_mode": "DM", "requested_distance_km": 12.0, "start_source": "nwissite", "start_id": "USGS-02427875", "geometry_length_km": 0.091754008708448742 }, "geometry": { "type": "LineString", "coordinates": [ [ -87.380097106, 31.913551293 ], [ -87.380190603, 31.913542397 ], [ -87.3804399, 31.913531594 ], [ -87.380924605, 31.913190298 ] ] } },
{ "type": "Feature", "properties": { "site_no": "02427875", "nhdplus_comid": "21459182", "navigation_mode": "DM", "requested_distance_km": 12.0, "start_source": "nwissite", "start_id": "USGS-02427875", "geometry_length_km": 5.9013801238325918 }, "geometry": { "type": "LineString", "coordinates": [ [ -87.380924605, 31.913190298 ], [ -87.381301701, 31.911073998 ], [ -87.382594205, 31.908775695 ], [ -87.384263501, 31.907137297 ], [ -87.386673301, 31.905555695 ], [ -87.390038706, 31.904804595 ], [ -87.3923003, 31.904599696 ], [ -87.397658207, 31.904758498 ], [ -87.403581604, 31.905212693 ], [ -87.404443204, 31.905531198 ], [ -87.406368405, 31.905678697 ], [ -87.408697501, 31.906235799 ], [ -87.412534401, 31.9066559 ], [ -87.414702006, 31.907326594 ], [ -87.420896307, 31.910829097 ], [ -87.424102306, 31.914355196 ], [ -87.425651006, 31.915230699 ], [ -87.427024901, 31.916345194 ], [ -87.429705106, 31.917811893 ], [ -87.430728503, 31.9180163 ], [ -87.432438903, 31.918777898 ], [ -87.432748504, 31.918675296 ] ] } }
]
}
