{
"type": "FeatureCollection",
"name": "USGS_02344000_DM_12km",
"crs": { "type": "name", "properties": { "name": "urn:ogc:def:crs:OGC:1.3:CRS84" } },
"features": [
{ "type": "Feature", "properties": { "site_no": "02344000", "nhdplus_comid": "2310509", "navigation_mode": "DM", "requested_distance_km": 12.0, "start_source": "nwissite", "start_id": "USGS-02344000", "geometry_length_km": 2.0949074709324287 }, "geometry": { "type": "LineString", "coordinates": [ [ -85.047490557, 31.117893579 ], [ -85.047453806, 31.117863797 ], [ -85.043989405, 31.114127196 ], [ -85.042549402, 31.113034293 ], [ -85.038795002, 31.1114408 ], [ -85.035981007, 31.109940298 ], [ -85.0346319, 31.108177498 ], [ -85.034711301, 31.106420599 ], [ -85.034356907, 31.104349099 ] ] } },
{ "type": "Feature", "properties": { "site_no": "02344000", "nhdplus_comid": "2310517", "navigation_mode": "DM", "requested_distance_km": 12.0, "start_source": "nwissite", "start_id": "USGS-02344000", "geometry_length_km": 2.5232074376780216 }, "geometry": { "type": "LineString", "coordinates": [ [ -85.034356907, 31.104349099 ], [ -85.034393206, 31.104081199 ], [ -85.0325628, 31.101184599 ], [ -85.029828802, 31.0979269 ], [ -85.028439201, 31.094123594 ], [ -85.027435705, 31.089815497 ], [ -85.025871605, 31.086130597 ], [ -85.025295101, 31.083358094 ] ] } },
{ "type": "Feature", "properties": { "site_no": "02344000", "nhdplus_comid": "2310521", "navigation_mode": "DM", "requested_distance_km": 12.0, "start_source": "nwissite", "start_id": "USGS-02344000", "geometry_length_km": 1.8973263093453543 }, "geometry": { "type": "LineString", "coordinates": [ [ -85.025295101, 31.083358094 ], [ -85.027649701, 31.076531798 ], [ -85.027885802, 31.074790299 ], [ -85.027663402, 31.074089393 ], [ -85.025797501, 31.071460493 ], [ -85.022613101, 31.068021894 ] ] } },
{ "type": "Feature", "properties": { "site_no": "02344000", "nhdplus_comid": "2310523", "navigation_mode": "DM", "requested_distance_km": 12.0, "start_source": "nwissite", "start_id": "USGS-02344000", "geometry_length_km": 2.3340277375053065 }, "geometry": { "type": "LineString", "coordinates": [ [ -85.022613101, 31.068021894 ], [ -85.020295903, 31.065212198 ], [ -85.017716005, 31.059660994 ], [ -85.016175106, 31.058150299 ], [ -85.012616806, 31.0563033 ], [ -85.011786304, 31.055406094 ], [ -85.010631606, 31.0533906 ], [ -85.010350801, 31.050782897 ] ] } },
{ "type": "Feature", "properties": { "site_no": "02344000", "nhdplus_comid": "2310529", "navigation_mode": "DM", "requested_distance_km": 12.0, "start_source": "nwissite", "start_id": "USGS-02344000", "geometry_length_km": 2.8989552977034414 }, "geometry": { "type": "LineString", "coordinates": [ [ -85.010350801, 31.050782897 ], [ -85.010387205, 31.050514996 ], [ -85.009684205, 31.04868 ], [ -85.008252904, 31.046365298 ], [ -85.008001402, 31.044710994 ], [ -85.008517906, 31.039738499 ], [ -85.008782901, 31.033111699 ], [ -85.007202506, 31.02956 ], [ -85.004839502, 31.025930397 ] ] } }
]
}
