{
"type": "FeatureCollection",
"name": "USGS_03575272_DM_12km",
"crs": { "type": "name", "properties": { "name": "urn:ogc:def:crs:OGC:1.3:CRS84" } },
"features": [
{ "type": "Feature", "properties": { "site_no": "03575272", "nhdplus_comid": "19620186", "navigation_mode": "DM", "requested_distance_km": 12.0, "start_source": "nwissite", "start_id": "USGS-03575272", "geometry_length_km": 0.71287380512375298 }, "geometry": { "type": "LineString", "coordinates": [ [ -86.448380615, 34.682223936 ], [ -86.448324107, 34.6821694 ], [ -86.447270401, 34.682055496 ], [ -86.446743406, 34.681872495 ], [ -86.444940202, 34.680613697 ], [ -86.443358101, 34.678598799 ], [ -86.443108104, 34.677980497 ] ] } },
{ "type": "Feature", "properties": { "site_no": "03575272", "nhdplus_comid": "19620192", "navigation_mode": "DM", "requested_distance_km": 12.0, "start_source": "nwissite", "start_id": "USGS-03575272", "geometry_length_km": 0.59263564462388496 }, "geometry": { "type": "LineString", "coordinates": [ [ -86.443108104, 34.677980497 ], [ -86.442608804, 34.677751698 ], [ -86.441527404, 34.677614696 ], [ -86.4412781, 34.677843899 ], [ -86.440806806, 34.677935794 ], [ -86.440279901, 34.677821599 ], [ -86.439697802, 34.678027995 ], [ -86.4395869, 34.677959293 ], [ -86.439586706, 34.6777303 ], [ -86.4394757, 34.677615896 ], [ -86.439226203, 34.677593097 ], [ -86.438949004, 34.677684799 ], [ -86.438782506, 34.677524596 ], [ -86.438311003, 34.6774102 ], [ -86.437922701, 34.6770669 ], [ -86.4376176, 34.676952496 ] ] } },
{ "type": "Feature", "properties": { "site_no": "03575272", "nhdplus_comid": "19620266", "navigation_mode": "DM", "requested_distance_km": 12.0, "start_source": "nwissite", "start_id": "USGS-03575272", "geometry_length_km": 1.6311777437333985 }, "geometry": { "type": "LineString", "coordinates": [ [ -86.4376176, 34.676952496 ], [ -86.437367804, 34.676608995 ], [ -86.437007301, 34.676471695 ], [ -86.436702102, 34.676197 ], [ -86.4366742, 34.6758992 ], [ -86.436812304, 34.675257899 ], [ -86.436118603, 34.6744565 ], [ -86.436228804, 34.673402794 ], [ -86.436034307, 34.672807299 ], [ -86.436422005, 34.672142893 ], [ -86.436504506, 34.671226695 ], [ -86.436726101, 34.670860097 ], [ -86.437169403, 34.670470499 ], [ -86.437834501, 34.670195296 ], [ -86.438305706, 34.670126393 ], [ -86.438971207, 34.670286298 ], [ -86.439442605, 34.670309 ], [ -86.439581104, 34.670217395 ], [ -86.439774901, 34.669896595 ], [ -86.440384604, 34.6694839 ], [ -86.440384306, 34.669163294 ], [ -86.439996004, 34.668888599 ], [ -86.439995803, 34.668659598 ], [ -86.440328002, 34.668155499 ], [ -86.441131704, 34.667811394 ], [ -86.441519804, 34.667788394 ], [ -86.442823105, 34.668199994 ], [ -86.4434053, 34.668199696 ] ] } },
{ "type": "Feature", "properties": { "site_no": "03575272", "nhdplus_comid": "19620280", "navigation_mode": "DM", "requested_distance_km": 12.0, "start_source": "nwissite", "start_id": "USGS-03575272", "geometry_length_km": 1.6054648972160128 }, "geometry": { "type": "LineString", "coordinates": [ [ -86.4434053, 34.668199696 ], [ -86.443571106, 34.667535394 ], [ -86.443986803, 34.667328998 ], [ -86.444678701, 34.665954396 ], [ -86.445177205, 34.665335596 ], [ -86.4456762, 34.665289499 ], [ -86.446341701, 34.665564097 ], [ -86.446619101, 34.665792897 ], [ -86.446924105, 34.665861495 ], [ -86.447589301, 34.665609099 ], [ -86.447727904, 34.665677696 ], [ -86.448143706, 34.6656776 ], [ -86.449113205, 34.664692096 ], [ -86.449362606, 34.664669 ], [ -86.449723206, 34.664920695 ], [ -86.449584901, 34.665195696 ], [ -86.449585102, 34.665470496 ], [ -86.450444601, 34.665653199 ], [ -86.450749405, 34.665492699 ], [ -86.451054305, 34.665423997 ], [ -86.451359406, 34.665606998 ], [ -86.451581106, 34.665583998 ], [ -86.451636001, 34.664850898 ], [ -86.451719001, 34.664713398 ], [ -86.452522807, 34.664552599 ], [ -86.452855304, 34.6643233 ], [ -86.453825407, 34.664231196 ], [ -86.454573601, 34.663955897 ], [ -86.455322102, 34.663955294 ], [ -86.455571704, 34.664046794 ] ] } },
{ "type": "Feature", "properties": { "site_no": "03575272", "nhdplus_comid": "19620354", "navigation_mode": "DM", "requested_distance_km": 12.0, "start_source": "nwissite", "start_id": "USGS-03575272", "geometry_length_km": 2.2651390122789548 }, "geometry": { "type": "LineString", "coordinates": [ [ -86.455571704, 34.664046794 ], [ -86.455987602, 34.664046593 ], [ -86.457206205, 34.662992194 ], [ -86.457427807, 34.662694193 ], [ -86.457427204, 34.662098795 ], [ -86.457205005, 34.661755197 ], [ -86.457204707, 34.661342897 ], [ -86.4586448, 34.659944795 ], [ -86.458672404, 34.659761496 ], [ -86.458339602, 34.659601398 ], [ -86.458311602, 34.659418195 ], [ -86.4584499, 34.659143195 ], [ -86.459364802, 34.659119695 ], [ -86.4594201, 34.659005098 ], [ -86.460057206, 34.658661097 ], [ -86.460084602, 34.658432096 ], [ -86.459945805, 34.6581802 ], [ -86.460055701, 34.657263897 ], [ -86.460776106, 34.656896994 ], [ -86.460913807, 34.656026393 ], [ -86.461245507, 34.655086994 ], [ -86.461272702, 34.654514395 ], [ -86.461798504, 34.653666593 ], [ -86.462297201, 34.653574593 ], [ -86.462712802, 34.653368093 ], [ -86.462905906, 34.652474798 ], [ -86.463570505, 34.651855797 ], [ -86.465010606, 34.650663793 ], [ -86.465869404, 34.650273696 ], [ -86.466700703, 34.650066994 ], [ -86.467310004, 34.649700098 ], [ -86.467752904, 34.649218798 ] ] } },
{ "type": "Feature", "properties": { "site_no": "03575272", "nhdplus_comid": "19620372", "navigation_mode": "DM", "requested_distance_km": 12.0, "start_source": "nwissite", "start_id": "USGS-03575272", "geometry_length_km": 0.67218719899626556 }, "geometry": { "type": "LineString", "coordinates": [ [ -86.467752904, 34.649218798 ], [ -86.467669502, 34.648943797 ], [ -86.465837203, 34.646150596 ], [ -86.465337105, 34.644891299 ], [ -86.465336405, 34.6442957 ], [ -86.465530105, 34.643997796 ], [ -86.465612903, 34.643699996 ] ] } },
{ "type": "Feature", "properties": { "site_no": "03575272", "nhdplus_comid": "19620440", "navigation_mode": "DM", "requested_distance_km": 12.0, "start_source": "nwissite", "start_id": "USGS-03575272", "geometry_length_km": 1.5471388456968838 }, "geometry": { "type": "LineString", "coordinates": [ [ -86.465612903, 34.643699996 ], [ -86.4663883, 34.643080994 ], [ -86.466831006, 34.642416395 ], [ -86.467770204, 34.639667094 ], [ -86.467769906, 34.639437996 ], [ -86.468600102, 34.638314895 ], [ -86.468932405, 34.638062693 ], [ -86.469707005, 34.636825196 ], [ -86.470066406, 34.636046194 ], [ -86.470286205, 34.634328194 ], [ -86.4704208, 34.630846396 ] ] } }
]
}
