{
"type": "FeatureCollection",
"name": "USGS_02469000_DM_12km",
"crs": { "type": "name", "properties": { "name": "urn:ogc:def:crs:OGC:1.3:CRS84" } },
"features": [
{ "type": "Feature", "properties": { "site_no": "02469000", "nhdplus_comid": "18544602", "navigation_mode": "DM", "requested_distance_km": 12.0, "start_source": "nwissite", "start_id": "USGS-02469000", "geometry_length_km": 0.72903588018814447 }, "geometry": { "type": "LineString", "coordinates": [ [ -88.182808672, 32.321389542 ], [ -88.182382807, 32.321347199 ], [ -88.182194002, 32.321530595 ], [ -88.182059303, 32.321828499 ], [ -88.181924507, 32.322057694 ], [ -88.181573801, 32.322103694 ], [ -88.181438804, 32.322035097 ], [ -88.181168802, 32.321714394 ], [ -88.180952907, 32.321622893 ], [ -88.180575207, 32.321554296 ], [ -88.180035703, 32.321898296 ], [ -88.179496102, 32.321944296 ], [ -88.179280207, 32.321875699 ], [ -88.179010101, 32.321555093 ], [ -88.178632401, 32.321417794 ], [ -88.178308502, 32.321394995 ], [ -88.177931003, 32.321692996 ], [ -88.177715406, 32.322013795 ], [ -88.177310906, 32.322472297 ], [ -88.176879302, 32.3226557 ] ] } },
{ "type": "Feature", "properties": { "site_no": "02469000", "nhdplus_comid": "18544610", "navigation_mode": "DM", "requested_distance_km": 12.0, "start_source": "nwissite", "start_id": "USGS-02469000", "geometry_length_km": 1.6647429762930563 }, "geometry": { "type": "LineString", "coordinates": [ [ -88.176879302, 32.3226557 ], [ -88.176474504, 32.322609998 ], [ -88.176258706, 32.322564296 ], [ -88.175934702, 32.322220795 ], [ -88.175907604, 32.322083399 ], [ -88.176123105, 32.321510598 ], [ -88.176176906, 32.321075194 ], [ -88.175879806, 32.320754595 ], [ -88.175663806, 32.320685893 ], [ -88.175394006, 32.320685998 ], [ -88.175178401, 32.320892297 ], [ -88.175043605, 32.321213096 ], [ -88.1749897, 32.321258999 ], [ -88.174908906, 32.321510993 ], [ -88.174531505, 32.322129793 ], [ -88.174207807, 32.322313197 ], [ -88.173884004, 32.322313294 ], [ -88.173695102, 32.322153099 ], [ -88.173614003, 32.321855195 ], [ -88.173532903, 32.321832299 ], [ -88.173424803, 32.321305498 ], [ -88.173289806, 32.321099296 ], [ -88.1729118, 32.320732795 ], [ -88.172722906, 32.320641294 ], [ -88.1723992, 32.320664398 ], [ -88.171913505, 32.320847794 ], [ -88.171185106, 32.320916794 ], [ -88.169943906, 32.3209631 ], [ -88.169755206, 32.321054898 ], [ -88.169512503, 32.321329899 ], [ -88.169486001, 32.322383694 ], [ -88.169216201, 32.322383896 ], [ -88.168973304, 32.322200693 ], [ -88.168730304, 32.321834199 ], [ -88.168568105, 32.321375996 ], [ -88.168487005, 32.320963696 ], [ -88.168378703, 32.320574194 ], [ -88.168378502, 32.3200702 ], [ -88.168243401, 32.319680698 ], [ -88.168081403, 32.319497496 ], [ -88.167649701, 32.319428898 ] ] } },
{ "type": "Feature", "properties": { "site_no": "02469000", "nhdplus_comid": "18544640", "navigation_mode": "DM", "requested_distance_km": 12.0, "start_source": "nwissite", "start_id": "USGS-02469000", "geometry_length_km": 0.84643209229067407 }, "geometry": { "type": "LineString", "coordinates": [ [ -88.167649701, 32.319428898 ], [ -88.1673529, 32.319428995 ], [ -88.167244904, 32.319337398 ], [ -88.167244703, 32.318833299 ], [ -88.167541102, 32.318008497 ], [ -88.167567901, 32.317595996 ], [ -88.167432703, 32.317229494 ], [ -88.166946806, 32.316565298 ], [ -88.166272007, 32.316015594 ], [ -88.165921204, 32.315878294 ], [ -88.165678404, 32.315855399 ], [ -88.1652738, 32.316222198 ], [ -88.165165901, 32.316359594 ], [ -88.165031306, 32.316726193 ], [ -88.1648155, 32.317024298 ], [ -88.164303005, 32.317093097 ], [ -88.163979106, 32.316909999 ], [ -88.163277403, 32.316383198 ] ] } },
{ "type": "Feature", "properties": { "site_no": "02469000", "nhdplus_comid": "18544670", "navigation_mode": "DM", "requested_distance_km": 12.0, "start_source": "nwissite", "start_id": "USGS-02469000", "geometry_length_km": 1.7319998779071724 }, "geometry": { "type": "LineString", "coordinates": [ [ -88.163277403, 32.316383198 ], [ -88.163250402, 32.316245697 ], [ -88.163196102, 32.3156958 ], [ -88.1636004, 32.314893797 ], [ -88.1636272, 32.314527199 ], [ -88.163384303, 32.314321198 ], [ -88.162871502, 32.3141151 ], [ -88.1625477, 32.313954793 ], [ -88.162547603, 32.313748598 ], [ -88.162655607, 32.313656896 ], [ -88.162844405, 32.313588195 ], [ -88.1631952, 32.313656799 ], [ -88.163653903, 32.313954398 ], [ -88.163869806, 32.314023197 ], [ -88.164463505, 32.314068794 ], [ -88.164868303, 32.314343594 ], [ -88.165273003, 32.314297594 ], [ -88.165569603, 32.3142059 ], [ -88.165785506, 32.314022496 ], [ -88.165893205, 32.3137246 ], [ -88.165731207, 32.313518494 ], [ -88.165002801, 32.313381299 ], [ -88.164786704, 32.313198097 ], [ -88.164732702, 32.312900193 ], [ -88.1647055, 32.312419094 ], [ -88.164651506, 32.3123504 ], [ -88.164651401, 32.312258795 ], [ -88.164543405, 32.312167093 ], [ -88.164246604, 32.312052697 ], [ -88.163976803, 32.312029794 ], [ -88.163653105, 32.312213197 ], [ -88.1630328, 32.312763296 ], [ -88.1627362, 32.312832199 ], [ -88.162277304, 32.3123741 ], [ -88.162223205, 32.312053293 ], [ -88.162222907, 32.311411798 ], [ -88.162465602, 32.3111597 ], [ -88.162978105, 32.310953394 ], [ -88.163139902, 32.310770094 ], [ -88.163355403, 32.310105495 ], [ -88.163408905, 32.308799498 ], [ -88.163489707, 32.308547497 ] ] } },
{ "type": "Feature", "properties": { "site_no": "02469000", "nhdplus_comid": "18544714", "navigation_mode": "DM", "requested_distance_km": 12.0, "start_source": "nwissite", "start_id": "USGS-02469000", "geometry_length_km": 1.9275816560373382 }, "geometry": { "type": "LineString", "coordinates": [ [ -88.163489707, 32.308547497 ], [ -88.163624503, 32.308524497 ], [ -88.163732402, 32.308364093 ], [ -88.163732305, 32.308157898 ], [ -88.162868701, 32.307425 ], [ -88.162436903, 32.3071732 ], [ -88.161762401, 32.307035893 ], [ -88.161492504, 32.306761093 ], [ -88.161384501, 32.306554899 ], [ -88.161411203, 32.305684194 ], [ -88.161653802, 32.305409193 ], [ -88.162193306, 32.305271596 ], [ -88.162517004, 32.305042394 ], [ -88.162597805, 32.304859094 ], [ -88.162624501, 32.304240495 ], [ -88.162516505, 32.3038968 ], [ -88.161814801, 32.303461798 ], [ -88.161841705, 32.303186797 ], [ -88.161922507, 32.303095095 ], [ -88.161895402, 32.302751496 ], [ -88.161679506, 32.302591197 ], [ -88.161112905, 32.302385196 ], [ -88.160141803, 32.302499995 ], [ -88.159952901, 32.302339695 ], [ -88.159602202, 32.302270994 ], [ -88.159224704, 32.302637793 ], [ -88.158928007, 32.302706495 ], [ -88.158874005, 32.302637793 ], [ -88.158846803, 32.302065097 ], [ -88.159116507, 32.301675394 ], [ -88.159413002, 32.301262997 ], [ -88.159736402, 32.300575495 ], [ -88.159709305, 32.300231896 ], [ -88.1594126, 32.300140299 ], [ -88.158684202, 32.300300896 ], [ -88.158252805, 32.300575994 ], [ -88.1574708, 32.301286399 ], [ -88.156985201, 32.301515698 ], [ -88.1566616, 32.301561594 ], [ -88.1564188, 32.301469997 ], [ -88.156094901, 32.301126495 ], [ -88.156040803, 32.300920196 ] ] } },
{ "type": "Feature", "properties": { "site_no": "02469000", "nhdplus_comid": "18544718", "navigation_mode": "DM", "requested_distance_km": 12.0, "start_source": "nwissite", "start_id": "USGS-02469000", "geometry_length_km": 0.56606628573411644 }, "geometry": { "type": "LineString", "coordinates": [ [ -88.156040803, 32.300920196 ], [ -88.156094603, 32.300622396 ], [ -88.156445205, 32.300164096 ], [ -88.157227404, 32.299888797 ], [ -88.158522204, 32.299750999 ], [ -88.158980705, 32.299636297 ], [ -88.159196407, 32.299430095 ], [ -88.159358203, 32.299132198 ], [ -88.159250103, 32.2987656 ], [ -88.159007303, 32.298559599 ], [ -88.158413701, 32.298216 ], [ -88.158359706, 32.298078597 ] ] } },
{ "type": "Feature", "properties": { "site_no": "02469000", "nhdplus_comid": "18544728", "navigation_mode": "DM", "requested_distance_km": 12.0, "start_source": "nwissite", "start_id": "USGS-02469000", "geometry_length_km": 0.40445756234836661 }, "geometry": { "type": "LineString", "coordinates": [ [ -88.158359706, 32.298078597 ], [ -88.157847203, 32.297918394 ], [ -88.157550305, 32.297941297 ], [ -88.157280706, 32.298101798 ], [ -88.156956904, 32.298216499 ], [ -88.156579204, 32.2978957 ], [ -88.156606004, 32.297368795 ], [ -88.156444103, 32.297070995 ], [ -88.156228207, 32.2968648 ], [ -88.155553706, 32.296658799 ], [ -88.155418903, 32.296544299 ] ] } },
{ "type": "Feature", "properties": { "site_no": "02469000", "nhdplus_comid": "18544778", "navigation_mode": "DM", "requested_distance_km": 12.0, "start_source": "nwissite", "start_id": "USGS-02469000", "geometry_length_km": 1.6740908446520235 }, "geometry": { "type": "LineString", "coordinates": [ [ -88.155418903, 32.296544299 ], [ -88.155257002, 32.296475597 ], [ -88.154960103, 32.296109095 ], [ -88.154960103, 32.296040393 ], [ -88.154906102, 32.295971699 ], [ -88.154879101, 32.295811296 ], [ -88.154663205, 32.295444794 ], [ -88.154609002, 32.294940799 ], [ -88.154662907, 32.294642895 ], [ -88.154743604, 32.293955594 ], [ -88.154878303, 32.293611795 ], [ -88.155121103, 32.293428496 ], [ -88.155498601, 32.293290995 ], [ -88.155633405, 32.293130495 ], [ -88.155741304, 32.292832695 ], [ -88.1556601, 32.292351395 ], [ -88.155525103, 32.292076498 ], [ -88.155525006, 32.291664094 ], [ -88.155794702, 32.291343294 ], [ -88.156549804, 32.291159898 ], [ -88.1566846, 32.290976495 ], [ -88.156684406, 32.290609896 ], [ -88.156414606, 32.290335096 ], [ -88.156037003, 32.290174797 ], [ -88.155524604, 32.290587299 ], [ -88.1549583, 32.290816598 ], [ -88.154284, 32.290839598 ], [ -88.153960302, 32.290793896 ], [ -88.153690405, 32.290610693 ], [ -88.153690301, 32.290198296 ], [ -88.153798103, 32.289969198 ], [ -88.154391207, 32.289189994 ], [ -88.1545799, 32.288823396 ], [ -88.154633701, 32.288571395 ], [ -88.154471807, 32.2883652 ], [ -88.1540673, 32.288250796 ], [ -88.153231107, 32.288342595 ], [ -88.1531232, 32.288273893 ], [ -88.153123103, 32.288067698 ], [ -88.153446704, 32.287769794 ], [ -88.154094003, 32.287448898 ] ] } },
{ "type": "Feature", "properties": { "site_no": "02469000", "nhdplus_comid": "18544854", "navigation_mode": "DM", "requested_distance_km": 12.0, "start_source": "nwissite", "start_id": "USGS-02469000", "geometry_length_km": 3.7565077207714253 }, "geometry": { "type": "LineString", "coordinates": [ [ -88.154094003, 32.287448898 ], [ -88.1541747, 32.287150994 ], [ -88.154039904, 32.287059397 ], [ -88.152907103, 32.287013799 ], [ -88.152529307, 32.286693193 ], [ -88.152394406, 32.286486998 ], [ -88.1523671, 32.285364397 ], [ -88.152259201, 32.285066493 ], [ -88.151908405, 32.284906298 ], [ -88.151611902, 32.285135396 ], [ -88.151369102, 32.285364598 ], [ -88.151180401, 32.285547897 ], [ -88.150910705, 32.285547994 ], [ -88.150937505, 32.284975193 ], [ -88.150937401, 32.284562796 ], [ -88.151018202, 32.284310699 ], [ -88.150910206, 32.283989996 ], [ -88.150775403, 32.283829696 ], [ -88.150101103, 32.283738196 ], [ -88.149912305, 32.283646494 ], [ -88.149885103, 32.283257097 ], [ -88.150019802, 32.283073694 ], [ -88.150478505, 32.283050694 ], [ -88.151179701, 32.283256695 ], [ -88.151449502, 32.283302397 ], [ -88.151584305, 32.283233695 ], [ -88.152096502, 32.282362998 ], [ -88.152096406, 32.282156795 ], [ -88.151449002, 32.281904899 ], [ -88.151233301, 32.281721696 ], [ -88.1512601, 32.2814238 ], [ -88.151475705, 32.281034194 ], [ -88.151475601, 32.280759394 ], [ -88.151313804, 32.280713595 ], [ -88.150936201, 32.280713595 ], [ -88.150693305, 32.280461594 ], [ -88.150693007, 32.279361896 ], [ -88.150099702, 32.279201694 ], [ -88.149695106, 32.279201798 ], [ -88.149344504, 32.279270597 ], [ -88.148967005, 32.279499799 ], [ -88.148616403, 32.279568493 ], [ -88.148454607, 32.279499799 ], [ -88.148184806, 32.279224999 ], [ -88.148130901, 32.278972998 ], [ -88.148184702, 32.278537594 ], [ -88.148696907, 32.277964793 ], [ -88.148804806, 32.277712695 ], [ -88.148804702, 32.277369 ], [ -88.148507901, 32.277002499 ], [ -88.148292102, 32.276819296 ], [ -88.148022406, 32.276750594 ], [ -88.147671901, 32.277025595 ], [ -88.147537105, 32.277438 ], [ -88.147186503, 32.277575493 ], [ -88.146889903, 32.277392298 ], [ -88.146431401, 32.277231999 ], [ -88.145649306, 32.277438395 ], [ -88.145460404, 32.277300894 ], [ -88.145487301, 32.277003095 ], [ -88.145649105, 32.276659399 ], [ -88.146161303, 32.275994897 ], [ -88.146296002, 32.275696993 ], [ -88.146188103, 32.275422096 ], [ -88.145945303, 32.275284596 ], [ -88.145594701, 32.275284797 ], [ -88.145271204, 32.275582597 ], [ -88.145163402, 32.275788896 ], [ -88.144732006, 32.276270099 ], [ -88.144192703, 32.276476294 ], [ -88.143329702, 32.2765681 ], [ -88.1429791, 32.276476495 ], [ -88.142601505, 32.2761788 ], [ -88.142439604, 32.275926694 ], [ -88.142331704, 32.275537193 ], [ -88.142277703, 32.275491394 ], [ -88.142088905, 32.2749874 ], [ -88.141927004, 32.274758294 ], [ -88.141630307, 32.274666794 ], [ -88.141387604, 32.274643898 ], [ -88.141091004, 32.274850093 ], [ -88.141091302, 32.276614197 ], [ -88.141037501, 32.276705898 ], [ -88.1407139, 32.276912197 ], [ -88.140201405, 32.276980899 ], [ -88.139958702, 32.276889294 ], [ -88.139796905, 32.2768206 ] ] } }
]
}
