{
"type": "FeatureCollection",
"name": "USGS_02377570_DM_12km",
"crs": { "type": "name", "properties": { "name": "urn:ogc:def:crs:OGC:1.3:CRS84" } },
"features": [
{ "type": "Feature", "properties": { "site_no": "02377570", "nhdplus_comid": "2171465", "navigation_mode": "DM", "requested_distance_km": 12.0, "start_source": "nwissite", "start_id": "USGS-02377570", "geometry_length_km": 2.2954349514301513 }, "geometry": { "type": "LineString", "coordinates": [ [ -87.547254734, 30.605367383 ], [ -87.546924904, 30.605061993 ], [ -87.543772906, 30.603776693 ], [ -87.543508202, 30.6034327 ], [ -87.543270104, 30.6028824 ], [ -87.542793706, 30.602286294 ], [ -87.542263806, 30.602148399 ], [ -87.541654304, 30.602102198 ], [ -87.540223405, 30.602330498 ], [ -87.5394556, 30.601688296 ], [ -87.538184203, 30.601206198 ], [ -87.536382601, 30.601021595 ], [ -87.5358264, 30.6008837 ], [ -87.5353764, 30.600356296 ], [ -87.535032101, 30.600195497 ], [ -87.534687705, 30.600172393 ], [ -87.534210406, 30.600538798 ], [ -87.533601001, 30.60063 ], [ -87.532886006, 30.600102499 ], [ -87.532329805, 30.599918693 ], [ -87.531985305, 30.599987194 ], [ -87.530898102, 30.600903198 ], [ -87.530156001, 30.600994393 ], [ -87.529599801, 30.600741796 ], [ -87.529096402, 30.600718498 ], [ -87.528009906, 30.600924097 ], [ -87.5266321, 30.601014793 ] ] } },
{ "type": "Feature", "properties": { "site_no": "02377570", "nhdplus_comid": "2171473", "navigation_mode": "DM", "requested_distance_km": 12.0, "start_source": "nwissite", "start_id": "USGS-02377570", "geometry_length_km": 2.3450129937231927 }, "geometry": { "type": "LineString", "coordinates": [ [ -87.5266321, 30.601014793 ], [ -87.525731601, 30.600624397 ], [ -87.525281705, 30.600119799 ], [ -87.524858706, 30.599156894 ], [ -87.523296103, 30.598536894 ], [ -87.522978805, 30.597917795 ], [ -87.522528805, 30.597527795 ], [ -87.521442801, 30.597137295 ], [ -87.520066403, 30.595898494 ], [ -87.519642703, 30.595668994 ], [ -87.519139305, 30.595668599 ], [ -87.518635504, 30.596012093 ], [ -87.518291101, 30.5961034 ], [ -87.518079303, 30.595828198 ], [ -87.517868206, 30.595140494 ], [ -87.517338805, 30.594681598 ], [ -87.517126903, 30.594612695 ], [ -87.5157758, 30.594496995 ], [ -87.5153521, 30.594290294 ], [ -87.515352406, 30.593992397 ], [ -87.515909307, 30.593534499 ], [ -87.515909702, 30.593282297 ], [ -87.515247904, 30.592777498 ], [ -87.515062705, 30.592502296 ], [ -87.515037507, 30.591310397 ], [ -87.514561102, 30.590782896 ], [ -87.5140846, 30.590530299 ], [ -87.513104305, 30.590506598 ], [ -87.511434905, 30.590826094 ], [ -87.510295801, 30.5907792 ] ] } },
{ "type": "Feature", "properties": { "site_no": "02377570", "nhdplus_comid": "2171497", "navigation_mode": "DM", "requested_distance_km": 12.0, "start_source": "nwissite", "start_id": "USGS-02377570", "geometry_length_km": 2.0986355682421305 }, "geometry": { "type": "LineString", "coordinates": [ [ -87.510295801, 30.5907792 ], [ -87.509475, 30.590343095 ], [ -87.508787006, 30.589586094 ], [ -87.507754304, 30.589195594 ], [ -87.507436804, 30.5888744 ], [ -87.5074111, 30.588209599 ], [ -87.507676706, 30.587614 ], [ -87.507651106, 30.586834699 ], [ -87.507387102, 30.586123899 ], [ -87.507361002, 30.585688494 ], [ -87.507706001, 30.585207395 ], [ -87.507786006, 30.584794998 ], [ -87.507680103, 30.584657297 ], [ -87.506091103, 30.584243394 ], [ -87.505641207, 30.583853297 ], [ -87.5057742, 30.583417997 ], [ -87.505828105, 30.582684599 ], [ -87.505563602, 30.582363494 ], [ -87.504901901, 30.581812799 ], [ -87.504902504, 30.581331499 ], [ -87.505142003, 30.580483697 ], [ -87.505142905, 30.5797273 ], [ -87.504269004, 30.579543099 ], [ -87.502679601, 30.579541698 ], [ -87.502362005, 30.579312198 ], [ -87.502283007, 30.578922495 ], [ -87.502707504, 30.578372695 ], [ -87.503449604, 30.5780067 ], [ -87.503768101, 30.577548593 ] ] } },
{ "type": "Feature", "properties": { "site_no": "02377570", "nhdplus_comid": "2171515", "navigation_mode": "DM", "requested_distance_km": 12.0, "start_source": "nwissite", "start_id": "USGS-02377570", "geometry_length_km": 2.1517937326303893 }, "geometry": { "type": "LineString", "coordinates": [ [ -87.503768101, 30.577548593 ], [ -87.5035576, 30.576356493 ], [ -87.503611006, 30.576012798 ], [ -87.504857302, 30.575005494 ], [ -87.504937105, 30.574730493 ], [ -87.504778303, 30.574638695 ], [ -87.503665604, 30.574591793 ], [ -87.503162906, 30.5741558 ], [ -87.503083803, 30.573811993 ], [ -87.503349602, 30.573170498 ], [ -87.504595205, 30.572575696 ], [ -87.504648603, 30.572254896 ], [ -87.503801607, 30.571818598 ], [ -87.503669403, 30.571566395 ], [ -87.503882505, 30.5706269 ], [ -87.503909603, 30.5701226 ], [ -87.503672101, 30.569366097 ], [ -87.503567003, 30.5687012 ], [ -87.503885604, 30.568059698 ], [ -87.503912807, 30.567440897 ], [ -87.503542706, 30.566913396 ], [ -87.502167001, 30.565628596 ], [ -87.502168104, 30.564780593 ], [ -87.5025931, 30.563818395 ], [ -87.502620302, 30.563107796 ], [ -87.502382502, 30.562695093 ], [ -87.502383702, 30.561732493 ] ] } },
{ "type": "Feature", "properties": { "site_no": "02377570", "nhdplus_comid": "2172203", "navigation_mode": "DM", "requested_distance_km": 12.0, "start_source": "nwissite", "start_id": "USGS-02377570", "geometry_length_km": 2.2328792073465027 }, "geometry": { "type": "LineString", "coordinates": [ [ -87.502383702, 30.561732493 ], [ -87.502728701, 30.561136797 ], [ -87.502756104, 30.560357593 ], [ -87.502571106, 30.559990697 ], [ -87.501910001, 30.559233695 ], [ -87.501620702, 30.5576519 ], [ -87.501250505, 30.557124399 ], [ -87.501171701, 30.556665897 ], [ -87.501277901, 30.556482598 ], [ -87.501331702, 30.555817999 ], [ -87.501226105, 30.555497095 ], [ -87.500406407, 30.554487795 ], [ -87.499979801, 30.554392099 ], [ -87.499688305, 30.554346599 ], [ -87.499476001, 30.553979993 ], [ -87.498891205, 30.5523533 ], [ -87.498599403, 30.551918194 ], [ -87.497936502, 30.5513229 ], [ -87.497591406, 30.550635599 ], [ -87.497458003, 30.549902193 ], [ -87.497590102, 30.549627095 ], [ -87.498278402, 30.549488895 ], [ -87.498675406, 30.549213499 ], [ -87.498913303, 30.548915297 ], [ -87.498992302, 30.548571393 ], [ -87.498568207, 30.548273899 ], [ -87.498699903, 30.547723696 ], [ -87.499123007, 30.547195993 ], [ -87.499227807, 30.546324894 ], [ -87.499148205, 30.546279199 ], [ -87.499147601, 30.545820795 ], [ -87.499624103, 30.545682795 ], [ -87.499994405, 30.545315795 ], [ -87.500391901, 30.544884197 ] ] } },
{ "type": "Feature", "properties": { "site_no": "02377570", "nhdplus_comid": "2172217", "navigation_mode": "DM", "requested_distance_km": 12.0, "start_source": "nwissite", "start_id": "USGS-02377570", "geometry_length_km": 4.5347247457465638 }, "geometry": { "type": "LineString", "coordinates": [ [ -87.500391901, 30.544884197 ], [ -87.500287503, 30.543784 ], [ -87.5002876, 30.543692298 ], [ -87.499992006, 30.543367594 ], [ -87.498561203, 30.542750098 ], [ -87.498428702, 30.542612694 ], [ -87.4984539, 30.541741699 ], [ -87.497817703, 30.541192196 ], [ -87.497286804, 30.540115498 ], [ -87.497126505, 30.539084196 ], [ -87.496781901, 30.538717799 ], [ -87.496437505, 30.538557693 ], [ -87.494954206, 30.538215294 ], [ -87.494953901, 30.537940294 ], [ -87.495562203, 30.537412494 ], [ -87.495482504, 30.537183397 ], [ -87.495270602, 30.537068993 ], [ -87.494105302, 30.536932595 ], [ -87.493072003, 30.536520995 ], [ -87.492515504, 30.536108799 ], [ -87.4918532, 30.535834298 ], [ -87.491562001, 30.535880499 ], [ -87.491218105, 30.536155798 ], [ -87.490556404, 30.536408596 ], [ -87.489894606, 30.536500894 ], [ -87.489709102, 30.536409393 ], [ -87.4893905, 30.535676099 ], [ -87.489230603, 30.534782395 ], [ -87.4890185, 30.534530394 ], [ -87.488541506, 30.534187093 ], [ -87.488117002, 30.533614397 ], [ -87.4872161, 30.532927498 ], [ -87.486632407, 30.531919599 ], [ -87.486234806, 30.531553194 ], [ -87.486234404, 30.531186499 ], [ -87.487080805, 30.530452296 ], [ -87.487212904, 30.530223094 ], [ -87.487212203, 30.529581293 ], [ -87.486867502, 30.529123195 ], [ -87.486814104, 30.528756499 ], [ -87.486946203, 30.528527096 ], [ -87.486998707, 30.528114595 ], [ -87.486680605, 30.527816899 ], [ -87.485197507, 30.527382694 ], [ -87.483978301, 30.526329398 ], [ -87.482548006, 30.525803395 ], [ -87.480509304, 30.525690399 ], [ -87.478550605, 30.526150398 ], [ -87.476934701, 30.525464095 ], [ -87.475557804, 30.525258899 ], [ -87.474154606, 30.5253288 ], [ -87.473598301, 30.5249395 ], [ -87.473518603, 30.524756297 ], [ -87.474047206, 30.523815997 ], [ -87.473914705, 30.523724496 ], [ -87.473252803, 30.523679197 ], [ -87.472803101, 30.5239546 ] ] } }
]
}
