{
"type": "FeatureCollection",
"name": "USGS_02401500_UM_12km",
"crs": { "type": "name", "properties": { "name": "urn:ogc:def:crs:OGC:1.3:CRS84" } },
"features": [
{ "type": "Feature", "properties": { "site_no": "02401500", "nhdplus_comid": "26132581", "navigation_mode": "UM", "requested_distance_km": 12.0, "start_source": "nwissite", "start_id": "USGS-02401500", "geometry_length_km": 0.079222066430952628 }, "geometry": { "type": "LineString", "coordinates": [ [ -86.110991001, 33.903196096 ], [ -86.110280563, 33.902793698 ] ] } },
{ "type": "Feature", "properties": { "site_no": "02401500", "nhdplus_comid": "26132587", "navigation_mode": "UM", "requested_distance_km": 12.0, "start_source": "nwissite", "start_id": "USGS-02401500", "geometry_length_km": 3.2900451239010855 }, "geometry": { "type": "LineString", "coordinates": [ [ -86.138715506, 33.898286596 ], [ -86.137424804, 33.897519797 ], [ -86.135200202, 33.8968274 ], [ -86.133677803, 33.896901295 ], [ -86.132453807, 33.897569396 ], [ -86.131417103, 33.899761394 ], [ -86.130477704, 33.902376994 ], [ -86.1293559, 33.902961195 ], [ -86.127831705, 33.903204195 ], [ -86.126320504, 33.902178496 ], [ -86.1248127, 33.900814295 ], [ -86.123497605, 33.900466599 ], [ -86.120763205, 33.900024094 ], [ -86.117907301, 33.901526295 ], [ -86.115047, 33.903451294 ], [ -86.113317303, 33.903946497 ], [ -86.111395203, 33.903424993 ], [ -86.110991001, 33.903196096 ] ] } },
{ "type": "Feature", "properties": { "site_no": "02401500", "nhdplus_comid": "26132583", "navigation_mode": "UM", "requested_distance_km": 12.0, "start_source": "nwissite", "start_id": "USGS-02401500", "geometry_length_km": 0.92692360280963637 }, "geometry": { "type": "LineString", "coordinates": [ [ -86.144037604, 33.894129097 ], [ -86.143646806, 33.894094899 ], [ -86.143438004, 33.894685596 ], [ -86.143629104, 33.8958712 ], [ -86.143514104, 33.897223897 ], [ -86.142797403, 33.8978955 ], [ -86.142187007, 33.898060493 ], [ -86.141481206, 33.897632696 ], [ -86.140673205, 33.897288695 ], [ -86.139859207, 33.897536799 ], [ -86.138715506, 33.898286596 ] ] } },
{ "type": "Feature", "properties": { "site_no": "02401500", "nhdplus_comid": "22203199", "navigation_mode": "UM", "requested_distance_km": 12.0, "start_source": "nwissite", "start_id": "USGS-02401500", "geometry_length_km": 2.4173607331431741 }, "geometry": { "type": "LineString", "coordinates": [ [ -86.159309402, 33.8918126 ], [ -86.158265606, 33.891515099 ], [ -86.155244105, 33.891447 ], [ -86.154612303, 33.891630493 ], [ -86.154255405, 33.891951196 ], [ -86.154145606, 33.892226197 ], [ -86.154173307, 33.8926614 ], [ -86.154365502, 33.892890394 ], [ -86.154805303, 33.893829495 ], [ -86.154970206, 33.894012697 ], [ -86.155162707, 33.894493699 ], [ -86.155135207, 33.8946082 ], [ -86.155437604, 33.8953183 ], [ -86.155437805, 33.896211699 ], [ -86.155218303, 33.896555394 ], [ -86.1549436, 33.896738693 ], [ -86.154668905, 33.896807499 ], [ -86.153350301, 33.896532893 ], [ -86.152223803, 33.895799994 ], [ -86.151784204, 33.895296097 ], [ -86.151371904, 33.894379996 ], [ -86.151124604, 33.894082196 ], [ -86.150575101, 33.893647097 ], [ -86.149036802, 33.893051796 ], [ -86.147992805, 33.892318897 ], [ -86.147690505, 33.8922273 ], [ -86.147086203, 33.892273299 ], [ -86.1460151, 33.892960593 ], [ -86.145768106, 33.893831097 ], [ -86.145383604, 33.894220598 ], [ -86.145136401, 33.894312195 ], [ -86.144642003, 33.894289397 ], [ -86.144037604, 33.894129097 ] ] } },
{ "type": "Feature", "properties": { "site_no": "02401500", "nhdplus_comid": "22203197", "navigation_mode": "UM", "requested_distance_km": 12.0, "start_source": "nwissite", "start_id": "USGS-02401500", "geometry_length_km": 0.075432658366206037 }, "geometry": { "type": "LineString", "coordinates": [ [ -86.159749202, 33.892362297 ], [ -86.159309506, 33.891904294 ], [ -86.159309402, 33.8918126 ] ] } },
{ "type": "Feature", "properties": { "site_no": "02401500", "nhdplus_comid": "22203195", "navigation_mode": "UM", "requested_distance_km": 12.0, "start_source": "nwissite", "start_id": "USGS-02401500", "geometry_length_km": 2.1210544945400995 }, "geometry": { "type": "LineString", "coordinates": [ [ -86.174419805, 33.897076599 ], [ -86.1736781, 33.897076897 ], [ -86.172112003, 33.8965277 ], [ -86.171095602, 33.896275997 ], [ -86.1703263, 33.895955496 ], [ -86.1696667, 33.895337194 ], [ -86.169089101, 33.894054696 ], [ -86.168786801, 33.893894397 ], [ -86.168402307, 33.893848695 ], [ -86.168155104, 33.8939633 ], [ -86.166837104, 33.895086199 ], [ -86.166095406, 33.895109296 ], [ -86.164309807, 33.894743398 ], [ -86.163925201, 33.894560196 ], [ -86.163925104, 33.894170798 ], [ -86.164034806, 33.893918693 ], [ -86.164419301, 33.893574998 ], [ -86.165929705, 33.892772898 ], [ -86.165929504, 33.892314695 ], [ -86.165517405, 33.8921545 ], [ -86.164473601, 33.892108999 ], [ -86.163704306, 33.891903095 ], [ -86.163045205, 33.891880393 ], [ -86.161671907, 33.892270096 ], [ -86.160326004, 33.8924767 ], [ -86.159749202, 33.892362297 ] ] } },
{ "type": "Feature", "properties": { "site_no": "02401500", "nhdplus_comid": "22203185", "navigation_mode": "UM", "requested_distance_km": 12.0, "start_source": "nwissite", "start_id": "USGS-02401500", "geometry_length_km": 0.67403394011353068 }, "geometry": { "type": "LineString", "coordinates": [ [ -86.178977802, 33.893730298 ], [ -86.1787856, 33.893844895 ], [ -86.178456202, 33.894303195 ], [ -86.177852102, 33.894669898 ], [ -86.1769455, 33.894555695 ], [ -86.1760666, 33.894624799 ], [ -86.175764501, 33.894762397 ], [ -86.175654806, 33.895060197 ], [ -86.175792702, 33.896113895 ], [ -86.175683007, 33.896434695 ], [ -86.174419805, 33.897076599 ] ] } }
]
}
