{
"type": "FeatureCollection",
"name": "USGS_02371200_DM_12km",
"crs": { "type": "name", "properties": { "name": "urn:ogc:def:crs:OGC:1.3:CRS84" } },
"features": [
{ "type": "Feature", "properties": { "site_no": "02371200", "nhdplus_comid": "2376701", "navigation_mode": "DM", "requested_distance_km": 12.0, "start_source": "nwissite", "start_id": "USGS-02371200", "geometry_length_km": 1.0460414757404677 }, "geometry": { "type": "LineString", "coordinates": [ [ -86.12107724, 31.813953383 ], [ -86.121014006, 31.813553594 ], [ -86.1207458, 31.812888995 ], [ -86.120209105, 31.812087096 ], [ -86.119940706, 31.811582893 ], [ -86.119860202, 31.811559997 ], [ -86.119511403, 31.810666293 ], [ -86.119216204, 31.810162194 ], [ -86.118465006, 31.808924794 ], [ -86.117901601, 31.808283098 ], [ -86.117418706, 31.8079165 ], [ -86.116667204, 31.807618499 ], [ -86.116077006, 31.807274699 ], [ -86.115164705, 31.806587294 ], [ -86.115084305, 31.806449793 ] ] } },
{ "type": "Feature", "properties": { "site_no": "02371200", "nhdplus_comid": "2376709", "navigation_mode": "DM", "requested_distance_km": 12.0, "start_source": "nwissite", "start_id": "USGS-02371200", "geometry_length_km": 1.635314177646344 }, "geometry": { "type": "LineString", "coordinates": [ [ -86.115084305, 31.806449793 ], [ -86.114708602, 31.806358099 ], [ -86.113393903, 31.805716395 ], [ -86.112776704, 31.805097595 ], [ -86.111408502, 31.804020494 ], [ -86.110496402, 31.803035095 ], [ -86.109289005, 31.802507997 ], [ -86.108698703, 31.802393198 ], [ -86.108162105, 31.802393198 ], [ -86.106874101, 31.802645095 ], [ -86.105774, 31.8027137 ], [ -86.105452105, 31.802644894 ], [ -86.103761606, 31.802713394 ], [ -86.102795705, 31.802575797 ], [ -86.101695605, 31.802277595 ], [ -86.099924803, 31.802093893 ], [ -86.099683307, 31.802002199 ] ] } },
{ "type": "Feature", "properties": { "site_no": "02371200", "nhdplus_comid": "2377175", "navigation_mode": "DM", "requested_distance_km": 12.0, "start_source": "nwissite", "start_id": "USGS-02371200", "geometry_length_km": 3.8173541451873434 }, "geometry": { "type": "LineString", "coordinates": [ [ -86.099683307, 31.802002199 ], [ -86.099227406, 31.801452197 ], [ -86.098771505, 31.800627194 ], [ -86.096652403, 31.798724793 ], [ -86.096115902, 31.798426799 ], [ -86.095767103, 31.798128895 ], [ -86.095016301, 31.797189198 ], [ -86.094506606, 31.796799496 ], [ -86.093835905, 31.796478599 ], [ -86.091072604, 31.796065494 ], [ -86.090589806, 31.7958133 ], [ -86.0888732, 31.794140093 ], [ -86.087934606, 31.793360695 ], [ -86.087371401, 31.792741895 ], [ -86.086969301, 31.792054296 ], [ -86.084850602, 31.790197596 ], [ -86.082893103, 31.788134694 ], [ -86.081793502, 31.787240699 ], [ -86.081176907, 31.786552995 ], [ -86.080372706, 31.785132095 ], [ -86.079246603, 31.783894293 ], [ -86.078629807, 31.783412896 ], [ -86.078200907, 31.782885693 ], [ -86.077826001, 31.781625196 ], [ -86.077745505, 31.781579293 ], [ -86.077718802, 31.7813273 ], [ -86.077450804, 31.780823097 ], [ -86.0772634, 31.780089699 ], [ -86.077236906, 31.779425293 ], [ -86.077371404, 31.7788295 ], [ -86.077532701, 31.778050497 ], [ -86.077452205, 31.777867198 ], [ -86.077050105, 31.777317099 ], [ -86.0766211, 31.777110599 ], [ -86.076138407, 31.776720896 ], [ -86.075950906, 31.776445895 ] ] } },
{ "type": "Feature", "properties": { "site_no": "02371200", "nhdplus_comid": "2376731", "navigation_mode": "DM", "requested_distance_km": 12.0, "start_source": "nwissite", "start_id": "USGS-02371200", "geometry_length_km": 0.78109844455804522 }, "geometry": { "type": "LineString", "coordinates": [ [ -86.075950906, 31.776445895 ], [ -86.076058701, 31.775437698 ], [ -86.076192901, 31.775300294 ], [ -86.0771318, 31.775071494 ], [ -86.077132002, 31.774590299 ], [ -86.077051707, 31.774429895 ], [ -86.076730005, 31.774131894 ], [ -86.076488703, 31.773788095 ], [ -86.076462105, 31.773444399 ], [ -86.076676905, 31.773054898 ], [ -86.077133, 31.772780098 ], [ -86.0779116, 31.771382496 ], [ -86.077831201, 31.771290794 ], [ -86.077107005, 31.7711531 ] ] } },
{ "type": "Feature", "properties": { "site_no": "02371200", "nhdplus_comid": "2376743", "navigation_mode": "DM", "requested_distance_km": 12.0, "start_source": "nwissite", "start_id": "USGS-02371200", "geometry_length_km": 1.7046302456328555 }, "geometry": { "type": "LineString", "coordinates": [ [ -86.077107005, 31.7711531 ], [ -86.077134006, 31.770855196 ], [ -86.0777243, 31.770167999 ], [ -86.078529403, 31.769641295 ], [ -86.078583203, 31.769412197 ], [ -86.078449205, 31.768930897 ], [ -86.077671506, 31.768518195 ], [ -86.077189006, 31.768128499 ], [ -86.077162504, 31.7673494 ], [ -86.076599702, 31.766615897 ], [ -86.076599903, 31.7663868 ], [ -86.076734006, 31.766203493 ], [ -86.077002302, 31.766111895 ], [ -86.0772973, 31.766157895 ], [ -86.077458106, 31.766318396 ], [ -86.0776188, 31.766707897 ], [ -86.077940702, 31.766730994 ], [ -86.0786383, 31.766181298 ], [ -86.078960404, 31.765791893 ], [ -86.078933805, 31.765264899 ], [ -86.078531601, 31.764898099 ], [ -86.078397706, 31.764577195 ], [ -86.078290805, 31.763935596 ], [ -86.078130104, 31.763500199 ], [ -86.078237705, 31.762835599 ], [ -86.078479305, 31.762331493 ], [ -86.0786134, 31.761795498 ], [ -86.078909203, 31.760613099 ], [ -86.079284906, 31.760017499 ], [ -86.079530001, 31.759761393 ] ] } },
{ "type": "Feature", "properties": { "site_no": "02371200", "nhdplus_comid": "2376753", "navigation_mode": "DM", "requested_distance_km": 12.0, "start_source": "nwissite", "start_id": "USGS-02371200", "geometry_length_km": 1.2765626603232338 }, "geometry": { "type": "LineString", "coordinates": [ [ -86.079530001, 31.759761393 ], [ -86.079720601, 31.759660497 ], [ -86.0799288, 31.759536497 ], [ -86.080626205, 31.759422198 ], [ -86.0808945, 31.759261996 ], [ -86.0811093, 31.758483 ], [ -86.0813509, 31.758070499 ], [ -86.081672907, 31.757795699 ], [ -86.082558103, 31.757429294 ], [ -86.083094604, 31.757406496 ], [ -86.0834966, 31.757819094 ], [ -86.083791606, 31.757819198 ], [ -86.083898902, 31.757704698 ], [ -86.083925903, 31.757338099 ], [ -86.083711602, 31.756810993 ], [ -86.0835777, 31.756123498 ], [ -86.083738707, 31.755940296 ], [ -86.084355704, 31.755734198 ], [ -86.084517002, 31.754817694 ], [ -86.084409803, 31.754405193 ], [ -86.085053705, 31.753924198 ], [ -86.085509807, 31.753443196 ], [ -86.086233802, 31.7533518 ], [ -86.086770505, 31.752985299 ] ] } },
{ "type": "Feature", "properties": { "site_no": "02371200", "nhdplus_comid": "2377197", "navigation_mode": "DM", "requested_distance_km": 12.0, "start_source": "nwissite", "start_id": "USGS-02371200", "geometry_length_km": 3.0163123714645561 }, "geometry": { "type": "LineString", "coordinates": [ [ -86.086770505, 31.752985299 ], [ -86.086797304, 31.752779096 ], [ -86.087146103, 31.752206199 ], [ -86.087655902, 31.751954295 ], [ -86.087951005, 31.751106597 ], [ -86.087736703, 31.750579394 ], [ -86.087173603, 31.750487596 ], [ -86.0871737, 31.750304297 ], [ -86.087272704, 31.750169195 ], [ -86.087728806, 31.749642394 ], [ -86.088292107, 31.749367699 ], [ -86.088721201, 31.749390699 ], [ -86.088962302, 31.749803193 ], [ -86.089176804, 31.749849096 ], [ -86.089713305, 31.7494139 ], [ -86.090115607, 31.749253698 ], [ -86.090786107, 31.749230899 ], [ -86.091483802, 31.747810498 ], [ -86.091832504, 31.747810498 ], [ -86.092127301, 31.748016894 ], [ -86.092395604, 31.748039894 ], [ -86.093012601, 31.747123599 ], [ -86.093495302, 31.746940196 ], [ -86.093629502, 31.746802799 ], [ -86.093629703, 31.746344499 ], [ -86.093737006, 31.746229999 ], [ -86.094434306, 31.746000998 ], [ -86.094595306, 31.7457719 ], [ -86.094541803, 31.745313697 ], [ -86.094676107, 31.744763799 ], [ -86.095319904, 31.743893199 ], [ -86.095507801, 31.743526593 ], [ -86.095132805, 31.742632896 ], [ -86.095186703, 31.741555899 ], [ -86.097252503, 31.738531694 ], [ -86.097869501, 31.737386197 ], [ -86.098432802, 31.736859396 ], [ -86.098996006, 31.736492798 ], [ -86.099827401, 31.735690996 ], [ -86.100390606, 31.735416099 ], [ -86.1006319, 31.735461995 ], [ -86.100846305, 31.735576697 ], [ -86.101570003, 31.736287199 ], [ -86.101784505, 31.736401699 ], [ -86.102213502, 31.736378893 ] ] } }
]
}
