{
"type": "FeatureCollection",
"name": "USGS_03592000_DM_12km",
"crs": { "type": "name", "properties": { "name": "urn:ogc:def:crs:OGC:1.3:CRS84" } },
"features": [
{ "type": "Feature", "properties": { "site_no": "03592000", "nhdplus_comid": "19569910", "navigation_mode": "DM", "requested_distance_km": 12.0, "start_source": "nwissite", "start_id": "USGS-03592000", "geometry_length_km": 1.3958209254739629 }, "geometry": { "type": "LineString", "coordinates": [ [ -88.115103202, 34.44400938 ], [ -88.115284905, 34.444310397 ], [ -88.115395501, 34.445134997 ], [ -88.115671903, 34.445364095 ], [ -88.116805404, 34.445501499 ], [ -88.117081903, 34.445593096 ], [ -88.117496505, 34.4461428 ], [ -88.117551804, 34.446646795 ], [ -88.117413506, 34.447677396 ], [ -88.117137201, 34.448707998 ], [ -88.116390705, 34.449120298 ], [ -88.116390601, 34.449395098 ], [ -88.116639502, 34.449647099 ], [ -88.117303103, 34.4498761 ], [ -88.117303103, 34.450219698 ], [ -88.117026605, 34.450448699 ], [ -88.115588903, 34.450448699 ], [ -88.115505904, 34.450540297 ], [ -88.115533605, 34.450838 ], [ -88.116169401, 34.451387696 ], [ -88.116307601, 34.451777093 ], [ -88.116528906, 34.452051893 ], [ -88.117634706, 34.452212296 ] ] } },
{ "type": "Feature", "properties": { "site_no": "03592000", "nhdplus_comid": "19569892", "navigation_mode": "DM", "requested_distance_km": 12.0, "start_source": "nwissite", "start_id": "USGS-03592000", "geometry_length_km": 1.3145898986065392 }, "geometry": { "type": "LineString", "coordinates": [ [ -88.117634706, 34.452212296 ], [ -88.117634706, 34.452555798 ], [ -88.116611704, 34.4533116 ], [ -88.116473503, 34.453540698 ], [ -88.116445802, 34.453907199 ], [ -88.116832905, 34.454411 ], [ -88.116915904, 34.455418795 ], [ -88.117551804, 34.455716595 ], [ -88.1176899, 34.456037298 ], [ -88.117607102, 34.456197597 ], [ -88.116086304, 34.456815898 ], [ -88.115395002, 34.457365595 ], [ -88.115201406, 34.457892396 ], [ -88.115533203, 34.458671093 ], [ -88.115754403, 34.4589459 ], [ -88.1160862, 34.458945997 ], [ -88.116501004, 34.458762698 ], [ -88.117164604, 34.458991796 ], [ -88.117579304, 34.459403999 ], [ -88.117883503, 34.460182793 ], [ -88.118104607, 34.4603431 ], [ -88.118187606, 34.460572094 ] ] } },
{ "type": "Feature", "properties": { "site_no": "03592000", "nhdplus_comid": "19569864", "navigation_mode": "DM", "requested_distance_km": 12.0, "start_source": "nwissite", "start_id": "USGS-03592000", "geometry_length_km": 0.55334222880121808 }, "geometry": { "type": "LineString", "coordinates": [ [ -88.118187606, 34.460572094 ], [ -88.119487204, 34.460984394 ], [ -88.120759301, 34.461282194 ], [ -88.122252606, 34.462037995 ], [ -88.123165101, 34.4622899 ], [ -88.123635203, 34.462633498 ] ] } },
{ "type": "Feature", "properties": { "site_no": "03592000", "nhdplus_comid": "19569856", "navigation_mode": "DM", "requested_distance_km": 12.0, "start_source": "nwissite", "start_id": "USGS-03592000", "geometry_length_km": 0.22428628921429591 }, "geometry": { "type": "LineString", "coordinates": [ [ -88.123635203, 34.462633498 ], [ -88.123607606, 34.463366397 ], [ -88.123773403, 34.463549495 ], [ -88.123967104, 34.463572495 ], [ -88.124298804, 34.463457994 ], [ -88.124658406, 34.463160098 ], [ -88.124741204, 34.462999895 ] ] } },
{ "type": "Feature", "properties": { "site_no": "03592000", "nhdplus_comid": "19569854", "navigation_mode": "DM", "requested_distance_km": 12.0, "start_source": "nwissite", "start_id": "USGS-03592000", "geometry_length_km": 0.26374356315815717 }, "geometry": { "type": "LineString", "coordinates": [ [ -88.124741204, 34.462999895 ], [ -88.125045501, 34.462931097 ], [ -88.126234502, 34.462839499 ], [ -88.127174601, 34.462908097 ], [ -88.127534203, 34.463114195 ] ] } },
{ "type": "Feature", "properties": { "site_no": "03592000", "nhdplus_comid": "19569850", "navigation_mode": "DM", "requested_distance_km": 12.0, "start_source": "nwissite", "start_id": "USGS-03592000", "geometry_length_km": 3.3829555620922465 }, "geometry": { "type": "LineString", "coordinates": [ [ -88.127534203, 34.463114195 ], [ -88.127423607, 34.463366196 ], [ -88.126704603, 34.463938795 ], [ -88.126621701, 34.464076199 ], [ -88.126511104, 34.465038098 ], [ -88.126262404, 34.465519197 ], [ -88.125902906, 34.465771094 ], [ -88.125598706, 34.465839796 ], [ -88.125045702, 34.465794094 ], [ -88.1242714, 34.465381898 ], [ -88.123607703, 34.465519294 ], [ -88.123524703, 34.465771198 ], [ -88.1235248, 34.466160499 ], [ -88.124271505, 34.466710195 ], [ -88.124492601, 34.466778897 ], [ -88.125045702, 34.466778897 ], [ -88.125515804, 34.466755994 ], [ -88.127175003, 34.466366597 ], [ -88.127645105, 34.466458097 ], [ -88.127755702, 34.466595493 ], [ -88.1277005, 34.4667788 ], [ -88.127285704, 34.467030697 ], [ -88.125045806, 34.467328697 ], [ -88.123524904, 34.4674889 ], [ -88.123276003, 34.467695095 ], [ -88.123303607, 34.468107499 ], [ -88.123441905, 34.468359299 ], [ -88.124437504, 34.469229698 ], [ -88.124575801, 34.469412893 ], [ -88.124631204, 34.469687693 ], [ -88.124409907, 34.470122896 ], [ -88.124050505, 34.470466495 ], [ -88.123746306, 34.471061997 ], [ -88.123801604, 34.471336797 ], [ -88.124105804, 34.471474193 ], [ -88.125046104, 34.471611597 ], [ -88.125986405, 34.471840493 ], [ -88.126567103, 34.472138293 ], [ -88.126926705, 34.472206995 ], [ -88.127452105, 34.472069494 ], [ -88.127618104, 34.471909195 ], [ -88.127700903, 34.471084595 ], [ -88.127922103, 34.470992997 ], [ -88.128281705, 34.471015893 ], [ -88.1286688, 34.471313596 ], [ -88.128696606, 34.472412899 ], [ -88.128890201, 34.472527497 ], [ -88.129719906, 34.472389996 ], [ -88.130438901, 34.472137995 ], [ -88.130909003, 34.471748598 ], [ -88.130991802, 34.471473694 ], [ -88.130770601, 34.471084394 ], [ -88.130798206, 34.470672093 ], [ -88.130991802, 34.470603399 ], [ -88.131351307, 34.470626295 ], [ -88.131932005, 34.470946997 ], [ -88.132153407, 34.471382096 ], [ -88.133315004, 34.472229294 ], [ -88.133563906, 34.472320899 ] ] } },
{ "type": "Feature", "properties": { "site_no": "03592000", "nhdplus_comid": "19569812", "navigation_mode": "DM", "requested_distance_km": 12.0, "start_source": "nwissite", "start_id": "USGS-03592000", "geometry_length_km": 0.23627200551586797 }, "geometry": { "type": "LineString", "coordinates": [ [ -88.133563906, 34.472320899 ], [ -88.134504206, 34.472274996 ], [ -88.1351403, 34.472641394 ], [ -88.135361604, 34.472687095 ], [ -88.135693401, 34.472595498 ], [ -88.135776304, 34.472366497 ] ] } },
{ "type": "Feature", "properties": { "site_no": "03592000", "nhdplus_comid": "19569816", "navigation_mode": "DM", "requested_distance_km": 12.0, "start_source": "nwissite", "start_id": "USGS-03592000", "geometry_length_km": 1.1513045051365716 }, "geometry": { "type": "LineString", "coordinates": [ [ -88.135776304, 34.472366497 ], [ -88.136440001, 34.472183093 ], [ -88.138265304, 34.472251497 ], [ -88.138541803, 34.472114094 ], [ -88.138818204, 34.471724696 ], [ -88.139343701, 34.471701697 ], [ -88.139537305, 34.471884899 ], [ -88.139703304, 34.472251296 ], [ -88.139593005, 34.473327793 ], [ -88.139731303, 34.473510996 ], [ -88.140837602, 34.473602399 ], [ -88.141114101, 34.473785698 ], [ -88.141141802, 34.473900199 ], [ -88.141473703, 34.474174999 ], [ -88.141888604, 34.474083297 ], [ -88.141999103, 34.473831296 ], [ -88.141943701, 34.473212898 ], [ -88.141694605, 34.472892195 ], [ -88.141722307, 34.4725945 ], [ -88.142054006, 34.472434096 ], [ -88.142883703, 34.472433999 ], [ -88.143132605, 34.472502694 ], [ -88.143547505, 34.472433999 ] ] } },
{ "type": "Feature", "properties": { "site_no": "03592000", "nhdplus_comid": "19569818", "navigation_mode": "DM", "requested_distance_km": 12.0, "start_source": "nwissite", "start_id": "USGS-03592000", "geometry_length_km": 0.82854435189024134 }, "geometry": { "type": "LineString", "coordinates": [ [ -88.143547505, 34.472433999 ], [ -88.143713303, 34.472296394 ], [ -88.143823706, 34.471723899 ], [ -88.144266106, 34.471265599 ], [ -88.144791506, 34.471059494 ], [ -88.145233907, 34.4710823 ], [ -88.1455383, 34.471379898 ], [ -88.1465066, 34.472799793 ], [ -88.146506801, 34.473257795 ], [ -88.146036901, 34.473944999 ], [ -88.146064602, 34.474151097 ], [ -88.146285906, 34.4743343 ], [ -88.146783702, 34.474334195 ], [ -88.147806905, 34.473921694 ], [ -88.147806704, 34.473761395 ] ] } },
{ "type": "Feature", "properties": { "site_no": "03592000", "nhdplus_comid": "19569804", "navigation_mode": "DM", "requested_distance_km": 12.0, "start_source": "nwissite", "start_id": "USGS-03592000", "geometry_length_km": 0.45610495345690383 }, "geometry": { "type": "LineString", "coordinates": [ [ -88.147806704, 34.473761395 ], [ -88.148387402, 34.4735322 ], [ -88.148857601, 34.473554999 ], [ -88.149161905, 34.473761 ], [ -88.149272606, 34.473944299 ], [ -88.149272807, 34.474516794 ], [ -88.149107106, 34.474929094 ], [ -88.1491348, 34.475295596 ], [ -88.149383806, 34.475478694 ], [ -88.149770901, 34.475432798 ], [ -88.150213204, 34.474860094 ] ] } },
{ "type": "Feature", "properties": { "site_no": "03592000", "nhdplus_comid": "19569796", "navigation_mode": "DM", "requested_distance_km": 12.0, "start_source": "nwissite", "start_id": "USGS-03592000", "geometry_length_km": 1.1096409590716574 }, "geometry": { "type": "LineString", "coordinates": [ [ -88.150213204, 34.474860094 ], [ -88.150655806, 34.474951595 ], [ -88.150821805, 34.475340895 ], [ -88.150849901, 34.476509094 ], [ -88.151237406, 34.4770815 ], [ -88.151597001, 34.477379195 ], [ -88.152288504, 34.477676697 ], [ -88.152482204, 34.477836996 ], [ -88.152482301, 34.478043199 ], [ -88.152150504, 34.4784097 ], [ -88.151265606, 34.478707694 ], [ -88.149993405, 34.478684999 ], [ -88.149882801, 34.4788225 ], [ -88.149855204, 34.478982799 ], [ -88.150298007, 34.479326293 ], [ -88.150657602, 34.479417793 ], [ -88.151597805, 34.479371794 ], [ -88.152178504, 34.479188398 ], [ -88.152648702, 34.479211196 ], [ -88.152897701, 34.479394294 ], [ -88.153036304, 34.479875199 ] ] } },
{ "type": "Feature", "properties": { "site_no": "03592000", "nhdplus_comid": "19569776", "navigation_mode": "DM", "requested_distance_km": 12.0, "start_source": "nwissite", "start_id": "USGS-03592000", "geometry_length_km": 0.45960883952320863 }, "geometry": { "type": "LineString", "coordinates": [ [ -88.153036304, 34.479875199 ], [ -88.1528982, 34.480150096 ], [ -88.152483404, 34.480425097 ], [ -88.151985504, 34.480562598 ], [ -88.151404805, 34.480539799 ], [ -88.150325902, 34.480219498 ], [ -88.149883501, 34.480242498 ], [ -88.149524003, 34.480631895 ], [ -88.148915805, 34.481113099 ] ] } }
]
}
