{
"type": "FeatureCollection",
"name": "USGS_02378500_UM_12km",
"crs": { "type": "name", "properties": { "name": "urn:ogc:def:crs:OGC:1.3:CRS84" } },
"features": [
{ "type": "Feature", "properties": { "site_no": "02378500", "nhdplus_comid": "18514402", "navigation_mode": "UM", "requested_distance_km": 12.0, "start_source": "nwissite", "start_id": "USGS-02378500", "geometry_length_km": 0.4459383614147982 }, "geometry": { "type": "LineString", "coordinates": [ [ -87.798381701, 30.5493242 ], [ -87.798145801, 30.546252899 ], [ -87.798411205, 30.545404993 ], [ -87.798379887, 30.545354248 ] ] } },
{ "type": "Feature", "properties": { "site_no": "02378500", "nhdplus_comid": "18514394", "navigation_mode": "UM", "requested_distance_km": 12.0, "start_source": "nwissite", "start_id": "USGS-02378500", "geometry_length_km": 2.6639631607546446 }, "geometry": { "type": "LineString", "coordinates": [ [ -87.7966161, 30.5722882 ], [ -87.7966443, 30.570110895 ], [ -87.796512, 30.5696982 ], [ -87.796300307, 30.569491893 ], [ -87.7962211, 30.569239698 ], [ -87.795480207, 30.568414196 ], [ -87.7954273, 30.568139099 ], [ -87.795268603, 30.567932695 ], [ -87.795348801, 30.567016095 ], [ -87.796331003, 30.564243399 ], [ -87.796093002, 30.563739099 ], [ -87.7960409, 30.562638797 ], [ -87.796571605, 30.561424494 ], [ -87.797288306, 30.559316397 ], [ -87.797607005, 30.558124796 ], [ -87.797581002, 30.557322599 ], [ -87.797157705, 30.556726493 ], [ -87.796999201, 30.556290895 ], [ -87.7971856, 30.555053294 ], [ -87.7979284, 30.553380594 ], [ -87.798353702, 30.551180594 ], [ -87.798381701, 30.5493242 ] ] } },
{ "type": "Feature", "properties": { "site_no": "02378500", "nhdplus_comid": "18514372", "navigation_mode": "UM", "requested_distance_km": 12.0, "start_source": "nwissite", "start_id": "USGS-02378500", "geometry_length_km": 1.4034262669252771 }, "geometry": { "type": "LineString", "coordinates": [ [ -87.806967504, 30.5797197 ], [ -87.8058028, 30.578389794 ], [ -87.805061303, 30.578091398 ], [ -87.804214105, 30.5775868 ], [ -87.802333504, 30.5774711 ], [ -87.800612301, 30.576759696 ], [ -87.798070706, 30.575085193 ], [ -87.797779605, 30.574787095 ], [ -87.797754303, 30.573182799 ], [ -87.797489703, 30.572838798 ], [ -87.796827801, 30.572494596 ], [ -87.7966161, 30.5722882 ] ] } },
{ "type": "Feature", "properties": { "site_no": "02378500", "nhdplus_comid": "18514794", "navigation_mode": "UM", "requested_distance_km": 12.0, "start_source": "nwissite", "start_id": "USGS-02378500", "geometry_length_km": 3.9160890101668731 }, "geometry": { "type": "LineString", "coordinates": [ [ -87.817254603, 30.610504597 ], [ -87.817175202, 30.609954499 ], [ -87.817281507, 30.609633699 ], [ -87.817785203, 30.6090381 ], [ -87.818050504, 30.608442299 ], [ -87.818316907, 30.605760895 ], [ -87.817602105, 30.604752198 ], [ -87.817417204, 30.603903994 ], [ -87.816517003, 30.6027577 ], [ -87.815669306, 30.602551095 ], [ -87.8154044, 30.602252997 ], [ -87.815325104, 30.6020009 ], [ -87.815723404, 30.600511298 ], [ -87.815644301, 30.5999154 ], [ -87.815009005, 30.598769195 ], [ -87.814983003, 30.598012894 ], [ -87.815168604, 30.597715095 ], [ -87.815142304, 30.597348295 ], [ -87.813129902, 30.5956055 ], [ -87.812918104, 30.595215797 ], [ -87.812547401, 30.594871894 ], [ -87.811647005, 30.594481796 ], [ -87.8111967, 30.594137795 ], [ -87.810932204, 30.593404293 ], [ -87.811252102, 30.590379193 ], [ -87.811147802, 30.587674499 ], [ -87.811492607, 30.587010093 ], [ -87.811281204, 30.5862308 ], [ -87.811016403, 30.585886799 ], [ -87.810805306, 30.584649198 ], [ -87.810063802, 30.584304996 ], [ -87.809190102, 30.583456598 ], [ -87.808422804, 30.582172699 ], [ -87.807628706, 30.581347294 ], [ -87.807364002, 30.580934599 ], [ -87.807338007, 30.580201194 ], [ -87.806967504, 30.5797197 ] ] } },
{ "type": "Feature", "properties": { "site_no": "02378500", "nhdplus_comid": "18514348", "navigation_mode": "UM", "requested_distance_km": 12.0, "start_source": "nwissite", "start_id": "USGS-02378500", "geometry_length_km": 0.59663456253886471 }, "geometry": { "type": "LineString", "coordinates": [ [ -87.819795705, 30.615318693 ], [ -87.819663405, 30.614951998 ], [ -87.819107406, 30.614080794 ], [ -87.819001704, 30.613416098 ], [ -87.818657704, 30.612636693 ], [ -87.817757301, 30.611696593 ], [ -87.817254603, 30.610504597 ] ] } },
{ "type": "Feature", "properties": { "site_no": "02378500", "nhdplus_comid": "18514344", "navigation_mode": "UM", "requested_distance_km": 12.0, "start_source": "nwissite", "start_id": "USGS-02378500", "geometry_length_km": 0.84468080690552483 }, "geometry": { "type": "LineString", "coordinates": [ [ -87.821488105, 30.622378394 ], [ -87.821568005, 30.621645093 ], [ -87.821753606, 30.621255495 ], [ -87.821780704, 30.620246999 ], [ -87.821277604, 30.619284198 ], [ -87.821224801, 30.618871696 ], [ -87.8214636, 30.618413396 ], [ -87.8213576, 30.618161194 ], [ -87.820775002, 30.617565095 ], [ -87.820271902, 30.616785698 ], [ -87.819795705, 30.615318693 ] ] } },
{ "type": "Feature", "properties": { "site_no": "02378500", "nhdplus_comid": "18514784", "navigation_mode": "UM", "requested_distance_km": 12.0, "start_source": "nwissite", "start_id": "USGS-02378500", "geometry_length_km": 0.96777558775099715 }, "geometry": { "type": "LineString", "coordinates": [ [ -87.817508705, 30.629962996 ], [ -87.817747504, 30.629596397 ], [ -87.819603406, 30.628130198 ], [ -87.820293106, 30.627053298 ], [ -87.820478901, 30.626526199 ], [ -87.820558906, 30.625472099 ], [ -87.820665106, 30.625174195 ], [ -87.821195506, 30.624417998 ], [ -87.821196206, 30.622997098 ], [ -87.821488105, 30.622378394 ] ] } },
{ "type": "Feature", "properties": { "site_no": "02378500", "nhdplus_comid": "18514778", "navigation_mode": "UM", "requested_distance_km": 12.0, "start_source": "nwissite", "start_id": "USGS-02378500", "geometry_length_km": 3.6970779957444231 }, "geometry": { "type": "LineString", "coordinates": [ [ -87.7888989, 30.645899497 ], [ -87.790198304, 30.645212695 ], [ -87.791232705, 30.644388296 ], [ -87.792691104, 30.643793397 ], [ -87.792903304, 30.643495597 ], [ -87.793142401, 30.642876796 ], [ -87.793143205, 30.641959995 ], [ -87.793488704, 30.640722595 ], [ -87.794072606, 30.639783293 ], [ -87.795240104, 30.6381796 ], [ -87.795982704, 30.637538396 ], [ -87.796777807, 30.637607597 ], [ -87.797308005, 30.637493297 ], [ -87.797758803, 30.6371269 ], [ -87.798024006, 30.637012497 ], [ -87.799269706, 30.637058996 ], [ -87.799349405, 30.636875696 ], [ -87.799879804, 30.636417598 ], [ -87.800277404, 30.636234395 ], [ -87.800807402, 30.636486799 ], [ -87.801072203, 30.636739098 ], [ -87.801416703, 30.636899695 ], [ -87.802052803, 30.636900097 ], [ -87.802291505, 30.636716895 ], [ -87.802875102, 30.635937899 ], [ -87.803379007, 30.635502696 ], [ -87.804253906, 30.6351135 ], [ -87.805102102, 30.634976394 ], [ -87.805844106, 30.635114297 ], [ -87.806639202, 30.635091797 ], [ -87.806983903, 30.634977393 ], [ -87.808946103, 30.6334657 ], [ -87.809741504, 30.633099295 ], [ -87.810695603, 30.633122697 ], [ -87.811040305, 30.632870793 ], [ -87.811862804, 30.631518997 ], [ -87.812499002, 30.631198399 ], [ -87.815122902, 30.6311308 ], [ -87.815493904, 30.631039299 ], [ -87.815918103, 30.630787298 ], [ -87.816210002, 30.630214497 ], [ -87.816448607, 30.630077094 ], [ -87.817508705, 30.629962996 ] ] } }
]
}
