{
"type": "FeatureCollection",
"name": "USGS_02439000_DM_12km",
"crs": { "type": "name", "properties": { "name": "urn:ogc:def:crs:OGC:1.3:CRS84" } },
"features": [
{ "type": "Feature", "properties": { "site_no": "02439000", "nhdplus_comid": "18673930", "navigation_mode": "DM", "requested_distance_km": 12.0, "start_source": "nwissite", "start_id": "USGS-02439000", "geometry_length_km": 3.5059236790551385 }, "geometry": { "type": "LineString", "coordinates": [ [ -88.147397329, 33.918754183 ], [ -88.148113601, 33.918666899 ], [ -88.149624802, 33.918597899 ], [ -88.149954505, 33.918712296 ], [ -88.150229402, 33.919055998 ], [ -88.150311805, 33.919284999 ], [ -88.150586806, 33.919697195 ], [ -88.150861606, 33.919811696 ], [ -88.151273802, 33.919811495 ], [ -88.151548505, 33.919628195 ], [ -88.151603207, 33.918941095 ], [ -88.151822902, 33.918826498 ], [ -88.152290002, 33.918780595 ], [ -88.1526471, 33.918826297 ], [ -88.153196603, 33.918826096 ], [ -88.153251506, 33.918551296 ], [ -88.152976602, 33.918138996 ], [ -88.151959501, 33.917108499 ], [ -88.151959404, 33.916719198 ], [ -88.152014203, 33.916490093 ], [ -88.152096607, 33.9163756 ], [ -88.152371407, 33.916260898 ], [ -88.152975701, 33.916260794 ], [ -88.153333001, 33.916420996 ], [ -88.153662801, 33.916764498 ], [ -88.153882705, 33.9169477 ], [ -88.154020101, 33.9172225 ], [ -88.154212706, 33.917565994 ], [ -88.154350206, 33.917749293 ], [ -88.154350206, 33.9179096 ], [ -88.154570103, 33.918138593 ], [ -88.154982306, 33.918321699 ], [ -88.155531801, 33.918321595 ], [ -88.1555866, 33.918206997 ], [ -88.155586503, 33.917680196 ], [ -88.155394107, 33.917405397 ], [ -88.154624403, 33.916832998 ], [ -88.154212102, 33.916374996 ], [ -88.154212102, 33.916306295 ], [ -88.154157206, 33.916260496 ], [ -88.154157102, 33.916145995 ], [ -88.154294401, 33.915962696 ], [ -88.156409606, 33.915389396 ], [ -88.157178804, 33.915389195 ], [ -88.157591105, 33.915503599 ], [ -88.157866001, 33.915801294 ], [ -88.158003807, 33.916648693 ], [ -88.158196107, 33.916832 ], [ -88.158470906, 33.916831799 ], [ -88.158745602, 33.916763097 ], [ -88.159377307, 33.916258998 ], [ -88.159844302, 33.916190095 ], [ -88.159981802, 33.916373394 ], [ -88.160064504, 33.917106293 ], [ -88.160202004, 33.917449795 ], [ -88.160476804, 33.917564295 ], [ -88.1606692, 33.9176329 ], [ -88.160943903, 33.917518295 ], [ -88.160943605, 33.916991495 ], [ -88.160888501, 33.916647896 ], [ -88.160750903, 33.916144095 ], [ -88.160613604, 33.916075394 ], [ -88.160613403, 33.915960893 ], [ -88.160476007, 33.915800497 ], [ -88.160476007, 33.915685996 ], [ -88.160338506, 33.9154571 ], [ -88.160338305, 33.915044799 ], [ -88.160612904, 33.914815597 ], [ -88.161437005, 33.914471693 ], [ -88.162123606, 33.914082199 ], [ -88.162672907, 33.9138529 ], [ -88.163277403, 33.913852699 ], [ -88.163689502, 33.913898394 ], [ -88.164596103, 33.913897999 ], [ -88.165282801, 33.913554199 ], [ -88.165969506, 33.913439393 ] ] } },
{ "type": "Feature", "properties": { "site_no": "02439000", "nhdplus_comid": "18673072", "navigation_mode": "DM", "requested_distance_km": 12.0, "start_source": "nwissite", "start_id": "USGS-02439000", "geometry_length_km": 0.62727145611247115 }, "geometry": { "type": "LineString", "coordinates": [ [ -88.165969506, 33.913439393 ], [ -88.166161805, 33.913393497 ], [ -88.166793503, 33.912935197 ], [ -88.167617403, 33.912591293 ], [ -88.167809702, 33.912476696 ], [ -88.167809501, 33.912247598 ], [ -88.167617105, 33.912018694 ], [ -88.167397201, 33.911904193 ], [ -88.165693805, 33.911561295 ], [ -88.165281601, 33.911332399 ], [ -88.165006801, 33.911149196 ], [ -88.164786704, 33.910805695 ], [ -88.164731607, 33.910416394 ], [ -88.164594203, 33.910301894 ] ] } },
{ "type": "Feature", "properties": { "site_no": "02439000", "nhdplus_comid": "18673076", "navigation_mode": "DM", "requested_distance_km": 12.0, "start_source": "nwissite", "start_id": "USGS-02439000", "geometry_length_km": 1.0485194248318206 }, "geometry": { "type": "LineString", "coordinates": [ [ -88.164594203, 33.910301894 ], [ -88.164731406, 33.910004094 ], [ -88.1647311, 33.9096606 ], [ -88.164923102, 33.908927396 ], [ -88.165335007, 33.908698298 ], [ -88.165692203, 33.908698097 ], [ -88.165829606, 33.908812597 ], [ -88.165884607, 33.908927098 ], [ -88.166241907, 33.909316398 ], [ -88.166929007, 33.909545094 ], [ -88.167890601, 33.909842595 ], [ -88.1684402, 33.910185896 ], [ -88.168715104, 33.910414897 ], [ -88.168715201, 33.910575196 ], [ -88.168852605, 33.910689697 ], [ -88.169045404, 33.911445498 ], [ -88.169127807, 33.911491297 ], [ -88.169127904, 33.911559999 ], [ -88.169320405, 33.911834896 ], [ -88.169540204, 33.912017994 ], [ -88.169952303, 33.912132397 ], [ -88.170419306, 33.912017696 ], [ -88.170913607, 33.911673896 ], [ -88.171105705, 33.911375999 ], [ -88.1712429, 33.910986498 ], [ -88.171325102, 33.910688795 ] ] } },
{ "type": "Feature", "properties": { "site_no": "02439000", "nhdplus_comid": "18673156", "navigation_mode": "DM", "requested_distance_km": 12.0, "start_source": "nwissite", "start_id": "USGS-02439000", "geometry_length_km": 4.1631280940844251 }, "geometry": { "type": "LineString", "coordinates": [ [ -88.171325102, 33.910688795 ], [ -88.171324506, 33.909726799 ], [ -88.171186902, 33.909268595 ], [ -88.171186402, 33.908512793 ], [ -88.171323702, 33.908283696 ], [ -88.171735607, 33.908123098 ], [ -88.172422402, 33.908168696 ], [ -88.172559902, 33.908283196 ], [ -88.172697701, 33.909039095 ], [ -88.172752701, 33.909084797 ], [ -88.173027501, 33.909153394 ], [ -88.173302002, 33.909038797 ], [ -88.173439406, 33.908855498 ], [ -88.173521206, 33.908007897 ], [ -88.173658401, 33.907664299 ], [ -88.174070306, 33.907480896 ], [ -88.174619704, 33.907480694 ], [ -88.175306603, 33.907594897 ], [ -88.175361402, 33.907548994 ], [ -88.175361201, 33.907251298 ], [ -88.175168805, 33.907022297 ], [ -88.175086305, 33.906793296 ], [ -88.175250605, 33.905945696 ], [ -88.175030604, 33.905716799 ], [ -88.174151607, 33.9056485 ], [ -88.1737395, 33.905602694 ], [ -88.173739202, 33.905304894 ], [ -88.173931405, 33.905075796 ], [ -88.174480803, 33.905029796 ], [ -88.174893007, 33.9051442 ], [ -88.175442502, 33.905304298 ], [ -88.175854504, 33.905372895 ], [ -88.176486202, 33.905189298 ], [ -88.177502602, 33.905074298 ], [ -88.177584901, 33.904959694 ], [ -88.177502401, 33.904799394 ], [ -88.177035205, 33.904456094 ], [ -88.177035004, 33.904043794 ], [ -88.177309506, 33.9037688 ], [ -88.177776307, 33.903585397 ], [ -88.178463005, 33.903584994 ], [ -88.1786827, 33.903470397 ], [ -88.178737201, 33.902737394 ], [ -88.179149002, 33.902508199 ], [ -88.1793686, 33.902324796 ], [ -88.179423504, 33.902210295 ], [ -88.179093704, 33.902095899 ], [ -88.178132504, 33.902325496 ], [ -88.177720301, 33.9022111 ], [ -88.177720107, 33.901821695 ], [ -88.178049602, 33.901638299 ], [ -88.178461604, 33.901523598 ], [ -88.180109903, 33.901637293 ], [ -88.180659302, 33.9016371 ], [ -88.180796504, 33.901522495 ], [ -88.180796303, 33.901293397 ], [ -88.180741206, 33.901178993 ], [ -88.180109203, 33.900835596 ], [ -88.180109002, 33.900560796 ], [ -88.181070201, 33.900262497 ], [ -88.181482002, 33.899918795 ], [ -88.182031102, 33.899689496 ], [ -88.1829926, 33.899688996 ], [ -88.183542103, 33.8997574 ], [ -88.184174106, 33.899917394 ], [ -88.184366502, 33.900146395 ], [ -88.184503905, 33.900260799 ], [ -88.184505202, 33.901978798 ], [ -88.184642605, 33.902047396 ], [ -88.185137004, 33.902047098 ], [ -88.185329102, 33.901863798 ], [ -88.185466401, 33.901703395 ], [ -88.185465306, 33.900374994 ], [ -88.185684904, 33.900145799 ], [ -88.186371602, 33.900030799 ], [ -88.186508805, 33.899870396 ], [ -88.1865087, 33.899641395 ], [ -88.186233707, 33.899412498 ], [ -88.185464606, 33.899298295 ], [ -88.185134806, 33.899115197 ], [ -88.184860006, 33.898886397 ], [ -88.184777103, 33.898542799 ], [ -88.184914306, 33.898199193 ], [ -88.185133703, 33.897855498 ], [ -88.185463101, 33.8975804 ], [ -88.185682707, 33.897351295 ] ] } },
{ "type": "Feature", "properties": { "site_no": "02439000", "nhdplus_comid": "18673210", "navigation_mode": "DM", "requested_distance_km": 12.0, "start_source": "nwissite", "start_id": "USGS-02439000", "geometry_length_km": 1.1903311999601236 }, "geometry": { "type": "LineString", "coordinates": [ [ -88.185682707, 33.897351295 ], [ -88.186094701, 33.897282295 ], [ -88.186369203, 33.8970531 ], [ -88.186643705, 33.896938398 ], [ -88.187248006, 33.8968236 ], [ -88.187742606, 33.897006698 ], [ -88.188842103, 33.897968099 ], [ -88.189254306, 33.898082294 ], [ -88.189666204, 33.898036294 ], [ -88.190682203, 33.897577696 ], [ -88.192000307, 33.8972333 ], [ -88.193236306, 33.897118099 ], [ -88.193428501, 33.897003397 ], [ -88.193510503, 33.896659799 ], [ -88.193290606, 33.896430895 ], [ -88.193235502, 33.896247596 ], [ -88.1932353, 33.896087393 ], [ -88.193509705, 33.895674899 ], [ -88.194388002, 33.894872695 ], [ -88.194607303, 33.894414395 ], [ -88.194799207, 33.894024998 ] ] } },
{ "type": "Feature", "properties": { "site_no": "02439000", "nhdplus_comid": "18673226", "navigation_mode": "DM", "requested_distance_km": 12.0, "start_source": "nwissite", "start_id": "USGS-02439000", "geometry_length_km": 0.78601397759844438 }, "geometry": { "type": "LineString", "coordinates": [ [ -88.194799207, 33.894024998 ], [ -88.194936603, 33.894024894 ], [ -88.195293501, 33.893955998 ], [ -88.195979901, 33.893611893 ], [ -88.196309507, 33.893565997 ], [ -88.196529306, 33.893680394 ], [ -88.196529701, 33.894069694 ], [ -88.196447305, 33.8941385 ], [ -88.196447603, 33.894482195 ], [ -88.196585104, 33.894596599 ], [ -88.196804903, 33.894710995 ], [ -88.197134405, 33.894596197 ], [ -88.198177606, 33.894022994 ], [ -88.1983696, 33.893725097 ], [ -88.198451601, 33.8933357 ], [ -88.197956905, 33.8929924 ], [ -88.197819501, 33.892923698 ], [ -88.197544605, 33.892694794 ], [ -88.1974895, 33.892465696 ], [ -88.197626606, 33.892190799 ], [ -88.198038206, 33.891732395 ], [ -88.198093005, 33.891617894 ] ] } },
{ "type": "Feature", "properties": { "site_no": "02439000", "nhdplus_comid": "18673236", "navigation_mode": "DM", "requested_distance_km": 12.0, "start_source": "nwissite", "start_id": "USGS-02439000", "geometry_length_km": 0.34192856963706625 }, "geometry": { "type": "LineString", "coordinates": [ [ -88.198093005, 33.891617894 ], [ -88.198724307, 33.891090699 ], [ -88.200015105, 33.891044095 ], [ -88.200564303, 33.890929297 ], [ -88.201525606, 33.890859999 ] ] } }
]
}
