{
"type": "FeatureCollection",
"name": "USGS_02468500_UM_12km",
"crs": { "type": "name", "properties": { "name": "urn:ogc:def:crs:OGC:1.3:CRS84" } },
"features": [
{ "type": "Feature", "properties": { "site_no": "02468500", "nhdplus_comid": "18542556", "navigation_mode": "UM", "requested_distance_km": 12.0, "start_source": "nwissite", "start_id": "USGS-02468500", "geometry_length_km": 1.644261306515505 }, "geometry": { "type": "LineString", "coordinates": [ [ -87.780188203, 32.323387198 ], [ -87.781834304, 32.323388293 ], [ -87.782698005, 32.323137 ], [ -87.784398906, 32.322336197 ], [ -87.785639904, 32.322634898 ], [ -87.786637902, 32.3230481 ], [ -87.786745705, 32.323185593 ], [ -87.786691502, 32.3235064 ], [ -87.786448203, 32.323918596 ], [ -87.786663905, 32.324033298 ], [ -87.787797406, 32.323919497 ], [ -87.788552701, 32.324194998 ], [ -87.789118804, 32.324814096 ], [ -87.7911423, 32.3252507 ], [ -87.791600406, 32.326030098 ], [ -87.7917348, 32.326579995 ], [ -87.791707203, 32.327198595 ], [ -87.791356005, 32.3276795 ], [ -87.791598402, 32.328275494 ], [ -87.791801431, 32.328577719 ] ] } },
{ "type": "Feature", "properties": { "site_no": "02468500", "nhdplus_comid": "18542576", "navigation_mode": "UM", "requested_distance_km": 12.0, "start_source": "nwissite", "start_id": "USGS-02468500", "geometry_length_km": 0.50759964580261074 }, "geometry": { "type": "LineString", "coordinates": [ [ -87.776359305, 32.320749395 ], [ -87.777007006, 32.320658296 ], [ -87.7774655, 32.320796095 ], [ -87.777977504, 32.321483895 ], [ -87.7783814, 32.322240293 ], [ -87.7788397, 32.322790496 ], [ -87.780188203, 32.323387198 ] ] } },
{ "type": "Feature", "properties": { "site_no": "02468500", "nhdplus_comid": "18542586", "navigation_mode": "UM", "requested_distance_km": 12.0, "start_source": "nwissite", "start_id": "USGS-02468500", "geometry_length_km": 0.51778486518337896 }, "geometry": { "type": "LineString", "coordinates": [ [ -87.771557003, 32.319989495 ], [ -87.771691807, 32.3201271 ], [ -87.772312202, 32.320333794 ], [ -87.773850307, 32.320335098 ], [ -87.774146907, 32.320472695 ], [ -87.774712905, 32.321023099 ], [ -87.775171407, 32.321252599 ], [ -87.775630206, 32.321207099 ], [ -87.776359305, 32.320749395 ] ] } },
{ "type": "Feature", "properties": { "site_no": "02468500", "nhdplus_comid": "18542584", "navigation_mode": "UM", "requested_distance_km": 12.0, "start_source": "nwissite", "start_id": "USGS-02468500", "geometry_length_km": 1.7670203016327319 }, "geometry": { "type": "LineString", "coordinates": [ [ -87.762104005, 32.327176198 ], [ -87.762968004, 32.326856099 ], [ -87.763211206, 32.326581396 ], [ -87.763265401, 32.326283596 ], [ -87.763157703, 32.326145999 ], [ -87.762456201, 32.325962096 ], [ -87.762078807, 32.325686797 ], [ -87.7618367, 32.324999198 ], [ -87.761890903, 32.324815899 ], [ -87.762107, 32.3247016 ], [ -87.762700707, 32.324656196 ], [ -87.7635637, 32.325138196 ], [ -87.764858507, 32.325482994 ], [ -87.765587203, 32.325460695 ], [ -87.765776701, 32.3249797 ], [ -87.765453406, 32.324429497 ], [ -87.765508004, 32.3240401 ], [ -87.765859403, 32.323467493 ], [ -87.766156502, 32.323261596 ], [ -87.7665883, 32.323147394 ], [ -87.767748706, 32.3231254 ], [ -87.768261507, 32.323011294 ], [ -87.769044705, 32.322439097 ], [ -87.769746505, 32.322325096 ], [ -87.770259403, 32.322142296 ], [ -87.770583503, 32.321913399 ], [ -87.7707728, 32.321501099 ], [ -87.770800903, 32.320515893 ], [ -87.770882204, 32.320218094 ], [ -87.771017201, 32.320057794 ], [ -87.771557003, 32.319989495 ] ] } },
{ "type": "Feature", "properties": { "site_no": "02468500", "nhdplus_comid": "18543836", "navigation_mode": "UM", "requested_distance_km": 12.0, "start_source": "nwissite", "start_id": "USGS-02468500", "geometry_length_km": 2.166425250298234 }, "geometry": { "type": "LineString", "coordinates": [ [ -87.743122205, 32.326708198 ], [ -87.743797101, 32.326867893 ], [ -87.744553402, 32.327371299 ], [ -87.744877301, 32.327439696 ], [ -87.745363005, 32.327416398 ], [ -87.745659605, 32.327232696 ], [ -87.745686203, 32.3269348 ], [ -87.745793901, 32.326751396 ], [ -87.746144503, 32.326567799 ], [ -87.746414401, 32.326567493 ], [ -87.746631801, 32.327735893 ], [ -87.7470643, 32.328170799 ], [ -87.747820206, 32.328399196 ], [ -87.748332903, 32.328329898 ], [ -87.748791106, 32.327962898 ], [ -87.748898603, 32.3277108 ], [ -87.749195404, 32.327595994 ], [ -87.749708802, 32.328099594 ], [ -87.750005804, 32.328213796 ], [ -87.752630405, 32.328358896 ], [ -87.753359102, 32.328222193 ], [ -87.753818706, 32.327626795 ], [ -87.753980704, 32.327535398 ], [ -87.7555729, 32.327605598 ], [ -87.755977802, 32.327514298 ], [ -87.756922901, 32.327011093 ], [ -87.757921301, 32.327080794 ], [ -87.758056305, 32.327034995 ], [ -87.758191407, 32.326851897 ], [ -87.758488305, 32.326783396 ], [ -87.760133706, 32.327380694 ], [ -87.760511607, 32.327312298 ], [ -87.760862805, 32.3270147 ], [ -87.762104005, 32.327176198 ] ] } },
{ "type": "Feature", "properties": { "site_no": "02468500", "nhdplus_comid": "18542514", "navigation_mode": "UM", "requested_distance_km": 12.0, "start_source": "nwissite", "start_id": "USGS-02468500", "geometry_length_km": 2.7302925160915796 }, "geometry": { "type": "LineString", "coordinates": [ [ -87.722723, 32.328673199 ], [ -87.723505504, 32.328466393 ], [ -87.724422, 32.3275491 ], [ -87.724826701, 32.3274801 ], [ -87.724961706, 32.327571698 ], [ -87.724746503, 32.328236297 ], [ -87.724747002, 32.328557096 ], [ -87.725071102, 32.328831799 ], [ -87.7256108, 32.3288313 ], [ -87.726015307, 32.328647695 ], [ -87.726796903, 32.327707596 ], [ -87.727039702, 32.327684596 ], [ -87.726933405, 32.3290594 ], [ -87.727014601, 32.329311393 ], [ -87.728176005, 32.330158196 ], [ -87.728391901, 32.3301351 ], [ -87.728499703, 32.329997495 ], [ -87.728714406, 32.329034999 ], [ -87.729173206, 32.328988798 ], [ -87.729416206, 32.329148993 ], [ -87.730038002, 32.330064997 ], [ -87.730578303, 32.330476999 ], [ -87.731144607, 32.330109894 ], [ -87.731711105, 32.329926096 ], [ -87.734032102, 32.330130398 ], [ -87.734976605, 32.330037899 ], [ -87.736136504, 32.329624496 ], [ -87.737215906, 32.329577699 ], [ -87.737917401, 32.329416595 ], [ -87.738591306, 32.328728594 ], [ -87.739670306, 32.3284069 ], [ -87.741397202, 32.328267895 ], [ -87.741828807, 32.328107096 ], [ -87.742556602, 32.327487797 ], [ -87.742718101, 32.327120997 ], [ -87.743122205, 32.326708198 ] ] } }
]
}
