{
"type": "FeatureCollection",
"name": "USGS_02469700_UM_12km",
"crs": { "type": "name", "properties": { "name": "urn:ogc:def:crs:OGC:1.3:CRS84" } },
"features": [
{ "type": "Feature", "properties": { "site_no": "02469700", "nhdplus_comid": "18547776", "navigation_mode": "UM", "requested_distance_km": 12.0, "start_source": "nwissite", "start_id": "USGS-02469700", "geometry_length_km": 0.70654320029064854 }, "geometry": { "type": "LineString", "coordinates": [ [ -88.320453607, 31.892572895 ], [ -88.320185103, 31.892412394 ], [ -88.319674902, 31.892068595 ], [ -88.319299102, 31.891930997 ], [ -88.319084205, 31.891885094 ], [ -88.318144202, 31.892228395 ], [ -88.3171774, 31.892342493 ], [ -88.316264302, 31.892158896 ], [ -88.314733803, 31.8917 ], [ -88.313417904, 31.891768098 ], [ -88.31340847, 31.891768093 ] ] } },
{ "type": "Feature", "properties": { "site_no": "02469700", "nhdplus_comid": "18547786", "navigation_mode": "UM", "requested_distance_km": 12.0, "start_source": "nwissite", "start_id": "USGS-02469700", "geometry_length_km": 3.0263041375353783 }, "geometry": { "type": "LineString", "coordinates": [ [ -88.3429581, 31.893771194 ], [ -88.342689507, 31.893931396 ], [ -88.342018105, 31.894022897 ], [ -88.341668904, 31.894183196 ], [ -88.341668807, 31.894664399 ], [ -88.341910303, 31.895008095 ], [ -88.341990903, 31.895237297 ], [ -88.341534302, 31.895328797 ], [ -88.341346301, 31.895282894 ], [ -88.340648204, 31.894641295 ], [ -88.340326004, 31.894503795 ], [ -88.340138003, 31.894480698 ], [ -88.339627601, 31.895007595 ], [ -88.339305304, 31.895030394 ], [ -88.3391442, 31.894892894 ], [ -88.339171305, 31.894182697 ], [ -88.339037105, 31.893976398 ], [ -88.338822305, 31.893861793 ], [ -88.338607401, 31.893838897 ], [ -88.337747902, 31.894182399 ], [ -88.337130204, 31.894296698 ], [ -88.336942203, 31.894227996 ], [ -88.336566307, 31.894021697 ], [ -88.3364591, 31.893769599 ], [ -88.336378604, 31.893380098 ], [ -88.336217605, 31.893128 ], [ -88.335841604, 31.892944597 ], [ -88.334821001, 31.893058896 ], [ -88.334015407, 31.893035799 ], [ -88.332565404, 31.892416693 ], [ -88.332108803, 31.892393693 ], [ -88.331786603, 31.892462298 ], [ -88.331195801, 31.892530896 ], [ -88.3304708, 31.892255694 ], [ -88.329853103, 31.892072193 ], [ -88.329638302, 31.892072096 ], [ -88.329369605, 31.892415695 ], [ -88.329181403, 31.892759293 ], [ -88.328966506, 31.893011294 ], [ -88.328617305, 31.893125698 ], [ -88.328456305, 31.893079899 ], [ -88.327812001, 31.892598495 ], [ -88.3273018, 31.8923463 ], [ -88.327060305, 31.892117098 ], [ -88.326979905, 31.891544297 ], [ -88.326926202, 31.891406797 ], [ -88.326657705, 31.891223498 ], [ -88.326147303, 31.891612694 ], [ -88.326066703, 31.891704395 ], [ -88.325878605, 31.891933396 ], [ -88.325556301, 31.892185293 ], [ -88.325180307, 31.892208099 ], [ -88.324858107, 31.891978897 ], [ -88.324563004, 31.891360193 ], [ -88.324509405, 31.891199797 ], [ -88.324267805, 31.890718497 ], [ -88.324133702, 31.890535295 ], [ -88.323811501, 31.890466399 ], [ -88.323381707, 31.890695393 ], [ -88.323032402, 31.891084693 ], [ -88.322736904, 31.891313694 ], [ -88.322226502, 31.891565494 ], [ -88.321286403, 31.891817197 ], [ -88.321071602, 31.892023399 ], [ -88.320910104, 31.892527297 ], [ -88.320453607, 31.892572895 ] ] } },
{ "type": "Feature", "properties": { "site_no": "02469700", "nhdplus_comid": "18547760", "navigation_mode": "UM", "requested_distance_km": 12.0, "start_source": "nwissite", "start_id": "USGS-02469700", "geometry_length_km": 0.8494677659044223 }, "geometry": { "type": "LineString", "coordinates": [ [ -88.348624006, 31.896681897 ], [ -88.348274805, 31.896704696 ], [ -88.348113701, 31.896590196 ], [ -88.348006405, 31.896315195 ], [ -88.347899206, 31.895834096 ], [ -88.347738005, 31.895581998 ], [ -88.347523205, 31.895490296 ], [ -88.346341603, 31.895146497 ], [ -88.345348105, 31.894710898 ], [ -88.344918303, 31.894687995 ], [ -88.344703503, 31.894802496 ], [ -88.344300501, 31.895168997 ], [ -88.343843907, 31.895375095 ], [ -88.343333602, 31.895466596 ], [ -88.343226202, 31.895374894 ], [ -88.343253203, 31.894802198 ], [ -88.343360707, 31.894527294 ], [ -88.343360804, 31.894046098 ], [ -88.343307205, 31.893954493 ], [ -88.3429581, 31.893771194 ] ] } },
{ "type": "Feature", "properties": { "site_no": "02469700", "nhdplus_comid": "18547756", "navigation_mode": "UM", "requested_distance_km": 12.0, "start_source": "nwissite", "start_id": "USGS-02469700", "geometry_length_km": 1.0199355462652568 }, "geometry": { "type": "LineString", "coordinates": [ [ -88.356251001, 31.898584597 ], [ -88.355740905, 31.8981722 ], [ -88.355552904, 31.897942998 ], [ -88.3554454, 31.897347294 ], [ -88.3552038, 31.896957897 ], [ -88.354935206, 31.896843299 ], [ -88.354398206, 31.896957695 ], [ -88.353458203, 31.897095099 ], [ -88.352813601, 31.897026293 ], [ -88.351363406, 31.896613695 ], [ -88.350826301, 31.896430194 ], [ -88.3503967, 31.896109395 ], [ -88.349859603, 31.895467795 ], [ -88.349618003, 31.895330295 ], [ -88.349268802, 31.895284399 ], [ -88.349027105, 31.895467699 ], [ -88.348839, 31.895788394 ], [ -88.348812006, 31.896338299 ], [ -88.348677702, 31.896590196 ], [ -88.348624006, 31.896681897 ] ] } },
{ "type": "Feature", "properties": { "site_no": "02469700", "nhdplus_comid": "18547754", "navigation_mode": "UM", "requested_distance_km": 12.0, "start_source": "nwissite", "start_id": "USGS-02469700", "geometry_length_km": 1.7322588851786525 }, "geometry": { "type": "LineString", "coordinates": [ [ -88.369330406, 31.897806399 ], [ -88.369276606, 31.897966795 ], [ -88.368846901, 31.898333296 ], [ -88.3684173, 31.898310393 ], [ -88.367933802, 31.898058295 ], [ -88.367477201, 31.897760496 ], [ -88.366698302, 31.897622995 ], [ -88.366322406, 31.897370897 ], [ -88.366107605, 31.897095993 ], [ -88.3659463, 31.896614894 ], [ -88.3655167, 31.8960879 ], [ -88.364764705, 31.895721398 ], [ -88.3640128, 31.8956526 ], [ -88.363636807, 31.895744197 ], [ -88.363395005, 31.895973295 ], [ -88.362965405, 31.897027194 ], [ -88.362777404, 31.897210494 ], [ -88.3624283, 31.897393696 ], [ -88.361864202, 31.897324994 ], [ -88.360521406, 31.896843798 ], [ -88.359581403, 31.896385498 ], [ -88.359017402, 31.896385394 ], [ -88.358211704, 31.896660298 ], [ -88.357083902, 31.896843396 ], [ -88.356895804, 31.8970268 ], [ -88.3568957, 31.897553697 ], [ -88.357003205, 31.897622399 ], [ -88.3569763, 31.897736996 ], [ -88.357030004, 31.897828594 ], [ -88.357164204, 31.898080699 ], [ -88.357110403, 31.898286894 ], [ -88.3569225, 31.898515999 ], [ -88.356707603, 31.898607597 ], [ -88.356251001, 31.898584597 ] ] } },
{ "type": "Feature", "properties": { "site_no": "02469700", "nhdplus_comid": "18547736", "navigation_mode": "UM", "requested_distance_km": 12.0, "start_source": "nwissite", "start_id": "USGS-02469700", "geometry_length_km": 0.48265734775311542 }, "geometry": { "type": "LineString", "coordinates": [ [ -88.372848704, 31.900074594 ], [ -88.372230902, 31.900051698 ], [ -88.371908702, 31.899937093 ], [ -88.371479005, 31.899593398 ], [ -88.370861202, 31.898929 ], [ -88.370700106, 31.898608297 ], [ -88.370646305, 31.898424998 ], [ -88.370538801, 31.898104198 ], [ -88.370350905, 31.897829294 ], [ -88.370055504, 31.897645995 ], [ -88.369760007, 31.897600196 ], [ -88.369330406, 31.897806399 ] ] } },
{ "type": "Feature", "properties": { "site_no": "02469700", "nhdplus_comid": "18547718", "navigation_mode": "UM", "requested_distance_km": 12.0, "start_source": "nwissite", "start_id": "USGS-02469700", "geometry_length_km": 4.7356132095761021 }, "geometry": { "type": "LineString", "coordinates": [ [ -88.387788303, 31.930361398 ], [ -88.387815103, 31.929903194 ], [ -88.388379201, 31.929605298 ], [ -88.388647802, 31.9293762 ], [ -88.388513304, 31.928803399 ], [ -88.387626603, 31.927864194 ], [ -88.387357704, 31.927291393 ], [ -88.386847205, 31.926993698 ], [ -88.386444204, 31.926695898 ], [ -88.3863637, 31.926535495 ], [ -88.386578307, 31.925504498 ], [ -88.386632003, 31.925366998 ], [ -88.386658907, 31.925069198 ], [ -88.386121303, 31.924588099 ], [ -88.386094302, 31.924038298 ], [ -88.3864704, 31.923511297 ], [ -88.386470206, 31.922846794 ], [ -88.386255205, 31.922594897 ], [ -88.384777606, 31.921816096 ], [ -88.383703001, 31.921541296 ], [ -88.382735901, 31.9211061 ], [ -88.382306002, 31.920670897 ], [ -88.382279001, 31.920120999 ], [ -88.382064, 31.919846095 ], [ -88.381338701, 31.919410899 ], [ -88.380908802, 31.919044398 ], [ -88.380801305, 31.918723598 ], [ -88.380908601, 31.918173693 ], [ -88.381230906, 31.917555094 ], [ -88.381257705, 31.917119794 ], [ -88.381123401, 31.916776098 ], [ -88.381042801, 31.916661598 ], [ -88.380451806, 31.916386694 ], [ -88.380263701, 31.916180499 ], [ -88.3802367, 31.915745199 ], [ -88.380505301, 31.915516093 ], [ -88.380559005, 31.915286995 ], [ -88.380532101, 31.914874598 ], [ -88.380317204, 31.914576799 ], [ -88.379994802, 31.914278999 ], [ -88.379994802, 31.913820699 ], [ -88.380263306, 31.913408294 ], [ -88.380182706, 31.913110495 ], [ -88.379994504, 31.912743896 ], [ -88.379537903, 31.912331596 ], [ -88.379322901, 31.912056595 ], [ -88.379322901, 31.911941998 ], [ -88.379161604, 31.911598496 ], [ -88.3789737, 31.911483899 ], [ -88.378194705, 31.911369398 ], [ -88.3778724, 31.911231995 ], [ -88.377711102, 31.910911195 ], [ -88.377684206, 31.910338394 ], [ -88.377791502, 31.9098344 ], [ -88.377952605, 31.909490697 ], [ -88.377979502, 31.909215793 ], [ -88.377818406, 31.908803396 ], [ -88.377684005, 31.908666 ], [ -88.377710901, 31.908390999 ], [ -88.377925605, 31.907955699 ], [ -88.378194205, 31.907634899 ], [ -88.378194205, 31.907222494 ], [ -88.378113501, 31.906489395 ], [ -88.378032804, 31.906214394 ], [ -88.377818003, 31.905824997 ], [ -88.377844803, 31.905527197 ], [ -88.378704302, 31.905458294 ], [ -88.378838502, 31.9053896 ], [ -88.378892206, 31.905252099 ], [ -88.378569901, 31.904771 ], [ -88.378220603, 31.904427297 ], [ -88.377790906, 31.904175393 ], [ -88.3769584, 31.904267095 ], [ -88.376582205, 31.903900497 ], [ -88.3761793, 31.903717197 ], [ -88.375749603, 31.903442293 ], [ -88.375749603, 31.903029896 ], [ -88.376071803, 31.902525894 ], [ -88.376071803, 31.902342595 ], [ -88.375991203, 31.902228095 ], [ -88.375856906, 31.902090594 ], [ -88.375588305, 31.902090594 ], [ -88.375024304, 31.9024572 ], [ -88.374782704, 31.902617596 ], [ -88.374352805, 31.902732193 ], [ -88.374138005, 31.902640499 ], [ -88.374138005, 31.902434394 ], [ -88.374218605, 31.902250998 ], [ -88.374191701, 31.901815698 ], [ -88.373896301, 31.901632398 ], [ -88.3725802, 31.901472099 ], [ -88.372284703, 31.901357599 ], [ -88.372284703, 31.900945097 ], [ -88.372794904, 31.900234893 ], [ -88.372848704, 31.900074594 ] ] } }
]
}
