{
"type": "FeatureCollection",
"name": "USGS_02407514_UM_12km",
"crs": { "type": "name", "properties": { "name": "urn:ogc:def:crs:OGC:1.3:CRS84" } },
"features": [
{ "type": "Feature", "properties": { "site_no": "02407514", "nhdplus_comid": "22271288", "navigation_mode": "UM", "requested_distance_km": 12.0, "start_source": "nwissite", "start_id": "USGS-02407514", "geometry_length_km": 0.062141219416080695 }, "geometry": { "type": "LineString", "coordinates": [ [ -86.495786302, 33.320614196 ], [ -86.495167047, 33.320398328 ] ] } },
{ "type": "Feature", "properties": { "site_no": "02407514", "nhdplus_comid": "22271264", "navigation_mode": "UM", "requested_distance_km": 12.0, "start_source": "nwissite", "start_id": "USGS-02407514", "geometry_length_km": 0.3165798131964403 }, "geometry": { "type": "LineString", "coordinates": [ [ -86.499116302, 33.321229495 ], [ -86.497506, 33.321047895 ], [ -86.495786302, 33.320614196 ] ] } },
{ "type": "Feature", "properties": { "site_no": "02407514", "nhdplus_comid": "22273196", "navigation_mode": "UM", "requested_distance_km": 12.0, "start_source": "nwissite", "start_id": "USGS-02407514", "geometry_length_km": 5.3975986857887204 }, "geometry": { "type": "LineString", "coordinates": [ [ -86.535011806, 33.322561793 ], [ -86.534955606, 33.324211195 ], [ -86.535119101, 33.324440494 ], [ -86.535255, 33.325036198 ], [ -86.534872502, 33.325310893 ], [ -86.533971801, 33.325424798 ], [ -86.533671401, 33.325653598 ], [ -86.533616602, 33.3258598 ], [ -86.5337511, 33.327692695 ], [ -86.533641607, 33.3280821 ], [ -86.5333139, 33.328265093 ], [ -86.532877207, 33.328310594 ], [ -86.530913606, 33.327026196 ], [ -86.530068405, 33.326315396 ], [ -86.529769301, 33.325307094 ], [ -86.529332906, 33.325077593 ], [ -86.528023303, 33.324824594 ], [ -86.5267414, 33.324113399 ], [ -86.526386805, 33.324021496 ], [ -86.525841005, 33.323998094 ], [ -86.524912603, 33.324386798 ], [ -86.524202906, 33.324569494 ], [ -86.5227293, 33.324591197 ], [ -86.521692604, 33.324315399 ], [ -86.520847, 33.323948197 ], [ -86.520192802, 33.323329099 ], [ -86.518993907, 33.321655594 ], [ -86.518531404, 33.320555396 ], [ -86.5183971, 33.318814196 ], [ -86.518099107, 33.317072794 ], [ -86.517853901, 33.316683099 ], [ -86.5176358, 33.316614196 ], [ -86.515425205, 33.316818394 ], [ -86.513842806, 33.316587895 ], [ -86.511659801, 33.316631697 ], [ -86.510541201, 33.316470399 ], [ -86.509613805, 33.316148795 ], [ -86.508659504, 33.315620996 ], [ -86.508332103, 33.315597698 ], [ -86.508086205, 33.315734893 ], [ -86.508112803, 33.316330597 ], [ -86.508221507, 33.316674396 ], [ -86.508220501, 33.317430399 ], [ -86.508111, 33.317636497 ], [ -86.508000806, 33.318392396 ], [ -86.508981906, 33.319401294 ], [ -86.508926801, 33.3197679 ], [ -86.506934501, 33.319972195 ], [ -86.505651005, 33.320658296 ], [ -86.504777402, 33.320932396 ], [ -86.502921402, 33.321205497 ], [ -86.501065604, 33.321363896 ], [ -86.499989703, 33.321228594 ], [ -86.499116302, 33.321229495 ] ] } },
{ "type": "Feature", "properties": { "site_no": "02407514", "nhdplus_comid": "22271310", "navigation_mode": "UM", "requested_distance_km": 12.0, "start_source": "nwissite", "start_id": "USGS-02407514", "geometry_length_km": 1.2585417110949864 }, "geometry": { "type": "LineString", "coordinates": [ [ -86.534803607, 33.312710196 ], [ -86.535239607, 33.313329197 ], [ -86.5352391, 33.313764498 ], [ -86.534419805, 33.314451195 ], [ -86.534228407, 33.314863496 ], [ -86.534282401, 33.315413296 ], [ -86.535372302, 33.316949099 ], [ -86.535562903, 33.317384496 ], [ -86.536353506, 33.318049394 ], [ -86.536516905, 33.318301596 ], [ -86.536297806, 33.319126196 ], [ -86.536324002, 33.320225894 ], [ -86.535832003, 33.320958599 ], [ -86.534985304, 33.3216912 ], [ -86.534875602, 33.322286695 ], [ -86.535011806, 33.322561793 ] ] } },
{ "type": "Feature", "properties": { "site_no": "02407514", "nhdplus_comid": "22271320", "navigation_mode": "UM", "requested_distance_km": 12.0, "start_source": "nwissite", "start_id": "USGS-02407514", "geometry_length_km": 0.035556175282947612 }, "geometry": { "type": "LineString", "coordinates": [ [ -86.534940407, 33.312412597 ], [ -86.534803607, 33.312710196 ] ] } },
{ "type": "Feature", "properties": { "site_no": "02407514", "nhdplus_comid": "22273204", "navigation_mode": "UM", "requested_distance_km": 12.0, "start_source": "nwissite", "start_id": "USGS-02407514", "geometry_length_km": 3.7502025872820992 }, "geometry": { "type": "LineString", "coordinates": [ [ -86.5602936, 33.306655094 ], [ -86.558628701, 33.307295799 ], [ -86.558001101, 33.307409994 ], [ -86.556473106, 33.307386197 ], [ -86.554562606, 33.3080725 ], [ -86.553907804, 33.308072098 ], [ -86.553553306, 33.307865694 ], [ -86.552299201, 33.306604996 ], [ -86.551944703, 33.306467198 ], [ -86.551781006, 33.306398399 ], [ -86.550935, 33.306558296 ], [ -86.550171107, 33.306511998 ], [ -86.549543701, 33.306282595 ], [ -86.548862003, 33.305915497 ], [ -86.5483981, 33.305938199 ], [ -86.547961205, 33.306373097 ], [ -86.547905505, 33.307678998 ], [ -86.547604606, 33.308618098 ], [ -86.5473032, 33.310107097 ], [ -86.546455905, 33.311687395 ], [ -86.546455406, 33.312168494 ], [ -86.546891406, 33.312787294 ], [ -86.547000006, 33.3134517 ], [ -86.547626704, 33.3144143 ], [ -86.547653802, 33.314620495 ], [ -86.547517307, 33.3147121 ], [ -86.546207301, 33.314986199 ], [ -86.545606606, 33.315398194 ], [ -86.545388006, 33.315695897 ], [ -86.545032501, 33.316566199 ], [ -86.544786707, 33.316863894 ], [ -86.544513606, 33.316955395 ], [ -86.543667801, 33.316908993 ], [ -86.540448703, 33.316013396 ], [ -86.539084807, 33.315485395 ], [ -86.538294002, 33.314980894 ], [ -86.5377215, 33.314430699 ], [ -86.537422001, 33.313857697 ], [ -86.536631502, 33.313078098 ], [ -86.536113307, 33.312802896 ], [ -86.534940407, 33.312412597 ] ] } },
{ "type": "Feature", "properties": { "site_no": "02407514", "nhdplus_comid": "166745457", "navigation_mode": "UM", "requested_distance_km": 12.0, "start_source": "nwissite", "start_id": "USGS-02407514", "geometry_length_km": 1.37099036050138 }, "geometry": { "type": "LineString", "coordinates": [ [ -86.564713605, 33.298796996 ], [ -86.564589202, 33.298881799 ], [ -86.564336903, 33.299142696 ], [ -86.564281702, 33.300013296 ], [ -86.564363502, 33.300150797 ], [ -86.565999605, 33.301388696 ], [ -86.566626601, 33.302099198 ], [ -86.566762902, 33.302397199 ], [ -86.566735402, 33.3026262 ], [ -86.566407807, 33.302855097 ], [ -86.565780103, 33.3031068 ], [ -86.564197704, 33.303037293 ], [ -86.563843004, 33.303151697 ], [ -86.563297004, 33.303655498 ], [ -86.561659604, 33.304135799 ], [ -86.561141007, 33.304501995 ], [ -86.560867503, 33.305280797 ], [ -86.560484804, 33.306357399 ], [ -86.560375504, 33.306449093 ], [ -86.5602936, 33.306655094 ] ] } }
]
}
