{
"type": "FeatureCollection",
"name": "USGS_02378300_UM_12km",
"crs": { "type": "name", "properties": { "name": "urn:ogc:def:crs:OGC:1.3:CRS84" } },
"features": [
{ "type": "Feature", "properties": { "site_no": "02378300", "nhdplus_comid": "18516128", "navigation_mode": "UM", "requested_distance_km": 12.0, "start_source": "nwissite", "start_id": "USGS-02378300", "geometry_length_km": 0.73869685812332064 }, "geometry": { "type": "LineString", "coordinates": [ [ -87.733458906, 30.411265694 ], [ -87.733722404, 30.410417393 ], [ -87.734726004, 30.409339294 ], [ -87.7349106, 30.4088578 ], [ -87.735412404, 30.408399098 ], [ -87.735570602, 30.407917596 ], [ -87.735887505, 30.407642297 ], [ -87.736521803, 30.407343797 ], [ -87.736759603, 30.4071602 ], [ -87.737260707, 30.406082496 ], [ -87.73736969, 30.40579571 ] ] } },
{ "type": "Feature", "properties": { "site_no": "02378300", "nhdplus_comid": "18516006", "navigation_mode": "UM", "requested_distance_km": 12.0, "start_source": "nwissite", "start_id": "USGS-02378300", "geometry_length_km": 1.2962035007398707 }, "geometry": { "type": "LineString", "coordinates": [ [ -87.731143206, 30.421466894 ], [ -87.732755601, 30.420732096 ], [ -87.733019702, 30.420410998 ], [ -87.733097702, 30.4191733 ], [ -87.733705103, 30.418462299 ], [ -87.733861901, 30.4167431 ], [ -87.733728506, 30.4158035 ], [ -87.733225003, 30.414818399 ], [ -87.733170703, 30.413649499 ], [ -87.732720502, 30.413076997 ], [ -87.732667305, 30.412733197 ], [ -87.733274303, 30.411724195 ], [ -87.733458906, 30.411265694 ] ] } },
{ "type": "Feature", "properties": { "site_no": "02378300", "nhdplus_comid": "18516002", "navigation_mode": "UM", "requested_distance_km": 12.0, "start_source": "nwissite", "start_id": "USGS-02378300", "geometry_length_km": 0.75561774340613452 }, "geometry": { "type": "LineString", "coordinates": [ [ -87.724931307, 30.424359895 ], [ -87.725724906, 30.424450994 ], [ -87.726148002, 30.4243818 ], [ -87.7272323, 30.424449794 ], [ -87.728342906, 30.424196698 ], [ -87.728395604, 30.424013294 ], [ -87.728818305, 30.423692197 ], [ -87.729108803, 30.423233494 ], [ -87.7298223, 30.422751598 ], [ -87.730033204, 30.422132596 ], [ -87.730403103, 30.421788499 ], [ -87.731143206, 30.421466894 ] ] } },
{ "type": "Feature", "properties": { "site_no": "02378300", "nhdplus_comid": "18515998", "navigation_mode": "UM", "requested_distance_km": 12.0, "start_source": "nwissite", "start_id": "USGS-02378300", "geometry_length_km": 3.5235519732938156 }, "geometry": { "type": "LineString", "coordinates": [ [ -87.696220301, 30.4387732 ], [ -87.697515607, 30.437626496 ], [ -87.6977797, 30.4372596 ], [ -87.6985991, 30.436548598 ], [ -87.698651701, 30.436067194 ], [ -87.698757306, 30.435860895 ], [ -87.699497402, 30.435126998 ], [ -87.699893706, 30.434553795 ], [ -87.701427102, 30.433544397 ], [ -87.7018499, 30.433039896 ], [ -87.703726806, 30.431801096 ], [ -87.704731107, 30.4309524 ], [ -87.705207005, 30.430699997 ], [ -87.708803304, 30.429872498 ], [ -87.709490702, 30.429551095 ], [ -87.710495003, 30.428771093 ], [ -87.712319002, 30.427761398 ], [ -87.712794706, 30.427302696 ], [ -87.713058807, 30.426866993 ], [ -87.7134552, 30.426568799 ], [ -87.714354105, 30.426155597 ], [ -87.715702504, 30.425764993 ], [ -87.716442503, 30.425214395 ], [ -87.717552803, 30.424709395 ], [ -87.718002006, 30.424273595 ], [ -87.718820803, 30.423218593 ], [ -87.719561003, 30.422874294 ], [ -87.720327906, 30.422804996 ], [ -87.721148305, 30.423216894 ], [ -87.7226834, 30.424361698 ], [ -87.723397605, 30.424544498 ], [ -87.724931307, 30.424359895 ] ] } },
{ "type": "Feature", "properties": { "site_no": "02378300", "nhdplus_comid": "18515986", "navigation_mode": "UM", "requested_distance_km": 12.0, "start_source": "nwissite", "start_id": "USGS-02378300", "geometry_length_km": 0.10322697496415652 }, "geometry": { "type": "LineString", "coordinates": [ [ -87.695559606, 30.439507 ], [ -87.696220301, 30.4387732 ] ] } },
{ "type": "Feature", "properties": { "site_no": "02378300", "nhdplus_comid": "18515982", "navigation_mode": "UM", "requested_distance_km": 12.0, "start_source": "nwissite", "start_id": "USGS-02378300", "geometry_length_km": 0.40515979376606387 }, "geometry": { "type": "LineString", "coordinates": [ [ -87.693339907, 30.442556694 ], [ -87.693656906, 30.441845894 ], [ -87.695057303, 30.439851098 ], [ -87.695559606, 30.439507 ] ] } },
{ "type": "Feature", "properties": { "site_no": "02378300", "nhdplus_comid": "18515976", "navigation_mode": "UM", "requested_distance_km": 12.0, "start_source": "nwissite", "start_id": "USGS-02378300", "geometry_length_km": 2.8178926624763325 }, "geometry": { "type": "LineString", "coordinates": [ [ -87.696743004, 30.464603595 ], [ -87.697112702, 30.463663697 ], [ -87.697191104, 30.462357096 ], [ -87.696766406, 30.460523799 ], [ -87.696262404, 30.459057197 ], [ -87.696077004, 30.458759397 ], [ -87.695705704, 30.457705297 ], [ -87.695704602, 30.456215493 ], [ -87.695968501, 30.4553902 ], [ -87.696020901, 30.454633899 ], [ -87.695835404, 30.454290099 ], [ -87.694300003, 30.4528929 ], [ -87.693161502, 30.451632895 ], [ -87.692578904, 30.450808197 ], [ -87.691917107, 30.450143896 ], [ -87.691122703, 30.449181594 ], [ -87.689587303, 30.447761498 ], [ -87.689587101, 30.447509393 ], [ -87.689983405, 30.446706995 ], [ -87.690776303, 30.445812695 ], [ -87.692019001, 30.444849297 ], [ -87.692441702, 30.444253199 ], [ -87.693339907, 30.442556694 ] ] } }
]
}
