{
"type": "FeatureCollection",
"name": "USGS_02449245_DM_12km",
"crs": { "type": "name", "properties": { "name": "urn:ogc:def:crs:OGC:1.3:CRS84" } },
"features": [
{ "type": "Feature", "properties": { "site_no": "02449245", "nhdplus_comid": "18632060", "navigation_mode": "DM", "requested_distance_km": 12.0, "start_source": "nwissite", "start_id": "USGS-02449245", "geometry_length_km": 1.7698538196560223 }, "geometry": { "type": "LineString", "coordinates": [ [ -87.982446699, 32.831397051 ], [ -87.982825004, 32.831178896 ], [ -87.983068906, 32.8309495 ], [ -87.983393706, 32.830284797 ], [ -87.983420402, 32.829918198 ], [ -87.983338803, 32.829757899 ], [ -87.982632905, 32.829483695 ], [ -87.982659705, 32.829208694 ], [ -87.983120501, 32.828795999 ], [ -87.983174406, 32.828520998 ], [ -87.983527005, 32.828360297 ], [ -87.983798802, 32.828726597 ], [ -87.984151602, 32.828749195 ], [ -87.984422401, 32.828290693 ], [ -87.984801807, 32.827900894 ], [ -87.985262901, 32.827717297 ], [ -87.986212604, 32.8276935 ], [ -87.986429505, 32.827578694 ], [ -87.986537904, 32.827441096 ], [ -87.9869719, 32.827349097 ], [ -87.987189107, 32.827417694 ], [ -87.987759806, 32.828081593 ], [ -87.988194205, 32.828264393 ], [ -87.988926806, 32.828309596 ], [ -87.989062302, 32.828126095 ], [ -87.989088506, 32.827461794 ], [ -87.989196703, 32.827186696 ], [ -87.989603601, 32.827094696 ], [ -87.990065202, 32.827346295 ], [ -87.9906893, 32.827345699 ], [ -87.991095304, 32.826566398 ], [ -87.991203107, 32.825970598 ], [ -87.991365701, 32.825833 ], [ -87.992071107, 32.825786494 ], [ -87.992206603, 32.825694799 ], [ -87.992260605, 32.825465597 ], [ -87.992179103, 32.825374097 ], [ -87.992178604, 32.825007498 ], [ -87.992639504, 32.824732199 ] ] } },
{ "type": "Feature", "properties": { "site_no": "02449245", "nhdplus_comid": "18632064", "navigation_mode": "DM", "requested_distance_km": 12.0, "start_source": "nwissite", "start_id": "USGS-02449245", "geometry_length_km": 0.46384122237557651 }, "geometry": { "type": "LineString", "coordinates": [ [ -87.992639504, 32.824732199 ], [ -87.992965102, 32.824663095 ], [ -87.993861005, 32.825051695 ], [ -87.994322203, 32.824982494 ], [ -87.994430505, 32.824821994 ], [ -87.994238406, 32.823264293 ], [ -87.994509503, 32.823080793 ], [ -87.994617306, 32.822485097 ] ] } },
{ "type": "Feature", "properties": { "site_no": "02449245", "nhdplus_comid": "18632066", "navigation_mode": "DM", "requested_distance_km": 12.0, "start_source": "nwissite", "start_id": "USGS-02449245", "geometry_length_km": 0.75009554555031999 }, "geometry": { "type": "LineString", "coordinates": [ [ -87.994617306, 32.822485097 ], [ -87.994860806, 32.822049595 ], [ -87.995945707, 32.821659699 ], [ -87.996678002, 32.821521997 ], [ -87.997084901, 32.821384594 ], [ -87.997111306, 32.820949495 ], [ -87.9968125, 32.820628993 ], [ -87.996811904, 32.820216693 ], [ -87.997055806, 32.820010595 ], [ -87.998249106, 32.819597997 ], [ -87.9988188, 32.819528796 ], [ -87.999470301, 32.819848895 ], [ -87.999795906, 32.819848694 ], [ -88.000017501, 32.819665097 ] ] } },
{ "type": "Feature", "properties": { "site_no": "02449245", "nhdplus_comid": "18633358", "navigation_mode": "DM", "requested_distance_km": 12.0, "start_source": "nwissite", "start_id": "USGS-02449245", "geometry_length_km": 1.2713700107541954 }, "geometry": { "type": "LineString", "coordinates": [ [ -88.000017501, 32.819665097 ], [ -88.000537105, 32.8192074 ], [ -88.000917606, 32.818703793 ], [ -88.001516104, 32.817605093 ], [ -88.001869, 32.817468099 ], [ -88.002384506, 32.817423195 ], [ -88.0026557, 32.817515194 ], [ -88.002981007, 32.817790493 ], [ -88.002898604, 32.818546094 ], [ -88.002979703, 32.818752393 ], [ -88.003142402, 32.818844296 ], [ -88.003576502, 32.818867996 ], [ -88.003929406, 32.818662398 ], [ -88.004038304, 32.818433493 ], [ -88.004120104, 32.818112895 ], [ -88.004202105, 32.817723699 ], [ -88.004500605, 32.817632593 ], [ -88.004853003, 32.817907996 ], [ -88.004988104, 32.818251699 ], [ -88.005204305, 32.819030896 ], [ -88.005285405, 32.819214299 ], [ -88.005502202, 32.819374993 ], [ -88.005773403, 32.819421299 ], [ -88.006018005, 32.819215499 ], [ -88.006371304, 32.818734899 ], [ -88.007131703, 32.818163097 ], [ -88.007701904, 32.817911699 ] ] } },
{ "type": "Feature", "properties": { "site_no": "02449245", "nhdplus_comid": "18633364", "navigation_mode": "DM", "requested_distance_km": 12.0, "start_source": "nwissite", "start_id": "USGS-02449245", "geometry_length_km": 3.7411914261789398 }, "geometry": { "type": "LineString", "coordinates": [ [ -88.007701904, 32.817911699 ], [ -88.007919505, 32.817545399 ], [ -88.008028701, 32.817018494 ], [ -88.008137606, 32.816697896 ], [ -88.008382104, 32.816400297 ], [ -88.010771103, 32.8153257 ], [ -88.011205301, 32.815257393 ], [ -88.011422105, 32.815394998 ], [ -88.0115306, 32.815486699 ], [ -88.012017801, 32.816311896 ], [ -88.012370206, 32.8167018 ], [ -88.012532607, 32.816999793 ], [ -88.012857907, 32.817251995 ], [ -88.013617404, 32.817344397 ], [ -88.015191004, 32.817414396 ], [ -88.015815102, 32.817323297 ], [ -88.016765006, 32.817232497 ], [ -88.016873606, 32.8171639 ], [ -88.016873702, 32.816980593 ], [ -88.016168706, 32.8165676 ], [ -88.016033202, 32.816407196 ], [ -88.016060606, 32.816177994 ], [ -88.017119102, 32.816018596 ], [ -88.017472103, 32.815698199 ], [ -88.017499603, 32.815400399 ], [ -88.017608404, 32.815217197 ], [ -88.017852701, 32.815079898 ], [ -88.019480504, 32.815104194 ], [ -88.020565502, 32.815288395 ], [ -88.020863906, 32.815380193 ], [ -88.021270603, 32.815701298 ], [ -88.021405905, 32.816045098 ], [ -88.021731406, 32.816068195 ], [ -88.022193007, 32.815793693 ], [ -88.022464603, 32.815541893 ], [ -88.022898704, 32.815450594 ], [ -88.023061402, 32.815588199 ], [ -88.023359306, 32.816046596 ], [ -88.023684904, 32.816001095 ], [ -88.024010703, 32.815795094 ], [ -88.024119504, 32.815611899 ], [ -88.024147503, 32.814787194 ], [ -88.024039105, 32.814718395 ], [ -88.024039306, 32.814558096 ], [ -88.023686901, 32.8141912 ], [ -88.023578703, 32.813893296 ], [ -88.023660406, 32.813687094 ], [ -88.0239048, 32.813549899 ], [ -88.024963006, 32.813275799 ], [ -88.0256413, 32.813230596 ], [ -88.025885306, 32.813482694 ], [ -88.025966205, 32.813918099 ], [ -88.026210301, 32.814032793 ], [ -88.026698701, 32.814056098 ], [ -88.026915804, 32.813964598 ], [ -88.0271331, 32.8137815 ], [ -88.027377404, 32.813690096 ], [ -88.027458705, 32.813735895 ], [ -88.027484901, 32.814514898 ], [ -88.027566306, 32.814560696 ], [ -88.027973205, 32.814583994 ], [ -88.028380603, 32.814263597 ], [ -88.028679103, 32.814103395 ], [ -88.029737405, 32.813920997 ], [ -88.030659907, 32.813875794 ], [ -88.030904107, 32.813944697 ], [ -88.032477707, 32.813877098 ], [ -88.032694705, 32.813991897 ], [ -88.032667004, 32.814541698 ], [ -88.032748304, 32.814656295 ], [ -88.033073902, 32.814633593 ], [ -88.033453904, 32.814473495 ], [ -88.034458101, 32.814084694 ] ] } },
{ "type": "Feature", "properties": { "site_no": "02449245", "nhdplus_comid": "18633382", "navigation_mode": "DM", "requested_distance_km": 12.0, "start_source": "nwissite", "start_id": "USGS-02449245", "geometry_length_km": 2.32688956264243 }, "geometry": { "type": "LineString", "coordinates": [ [ -88.034458101, 32.814084694 ], [ -88.034567103, 32.813603699 ], [ -88.034784205, 32.813489296 ], [ -88.035815507, 32.813237995 ], [ -88.036737606, 32.813673995 ], [ -88.037063003, 32.813719995 ], [ -88.037253104, 32.813628495 ], [ -88.037551805, 32.813330896 ], [ -88.037931703, 32.8132395 ], [ -88.038121402, 32.813399993 ], [ -88.038311101, 32.813674994 ], [ -88.038555101, 32.813812695 ], [ -88.039016306, 32.813858695 ], [ -88.039260507, 32.813767299 ], [ -88.0396135, 32.813492596 ], [ -88.039994001, 32.812897198 ], [ -88.040673904, 32.811133593 ], [ -88.040701106, 32.811041899 ], [ -88.040999904, 32.810652696 ], [ -88.041461304, 32.810446799 ], [ -88.041678503, 32.810240798 ], [ -88.041787207, 32.809920095 ], [ -88.042248905, 32.809462197 ], [ -88.042954504, 32.8091878 ], [ -88.043198906, 32.808935896 ], [ -88.043334901, 32.808454894 ], [ -88.043389201, 32.808386199 ], [ -88.043687806, 32.808271796 ], [ -88.043958902, 32.808409497 ], [ -88.0444469, 32.808776297 ], [ -88.044555306, 32.809005499 ], [ -88.044745103, 32.809097297 ], [ -88.045043506, 32.809143193 ], [ -88.046101905, 32.808777399 ], [ -88.046346106, 32.808754593 ], [ -88.046834201, 32.809006996 ], [ -88.047240905, 32.809144594 ], [ -88.047620803, 32.809190698 ], [ -88.047946505, 32.808938794 ], [ -88.048055202, 32.808641098 ], [ -88.048137404, 32.807793498 ], [ -88.048083603, 32.807197794 ], [ -88.048029907, 32.806510493 ], [ -88.0481387, 32.806212693 ], [ -88.0483016, 32.806052394 ], [ -88.048762806, 32.8060527 ], [ -88.049766101, 32.806557298 ], [ -88.050145902, 32.806580395 ] ] } },
{ "type": "Feature", "properties": { "site_no": "02449245", "nhdplus_comid": "18633396", "navigation_mode": "DM", "requested_distance_km": 12.0, "start_source": "nwissite", "start_id": "USGS-02449245", "geometry_length_km": 1.9062367494481147 }, "geometry": { "type": "LineString", "coordinates": [ [ -88.050145902, 32.806580395 ], [ -88.050227404, 32.806534596 ], [ -88.050227806, 32.806007795 ], [ -88.050201006, 32.805526599 ], [ -88.0501469, 32.8053433 ], [ -88.050202101, 32.8041979 ], [ -88.050338104, 32.803808495 ], [ -88.050528303, 32.803396195 ], [ -88.050745405, 32.803304598 ], [ -88.0513964, 32.803305 ], [ -88.051776104, 32.803488597 ], [ -88.052752204, 32.804176398 ], [ -88.052942, 32.804268099 ], [ -88.053186104, 32.804337099 ], [ -88.053430304, 32.804199696 ], [ -88.053783305, 32.8037875 ], [ -88.053946503, 32.803169094 ], [ -88.054001406, 32.802458897 ], [ -88.053920403, 32.801863194 ], [ -88.053839207, 32.801679797 ], [ -88.053839505, 32.801267497 ], [ -88.054138005, 32.801244698 ], [ -88.054897204, 32.801634595 ], [ -88.055548005, 32.801864095 ], [ -88.055927902, 32.801841393 ], [ -88.055928104, 32.801543497 ], [ -88.055657104, 32.8012226 ], [ -88.054599702, 32.800488897 ], [ -88.053786203, 32.800099097 ], [ -88.053460807, 32.799846798 ], [ -88.053461, 32.799571998 ], [ -88.053542607, 32.799274199 ], [ -88.0543027, 32.798564397 ], [ -88.054492705, 32.798472896 ], [ -88.0548997, 32.798404299 ], [ -88.055361107, 32.798083797 ], [ -88.055930704, 32.798061296 ] ] } }
]
}
