{
"type": "FeatureCollection",
"name": "USGS_02362240_DM_12km",
"crs": { "type": "name", "properties": { "name": "urn:ogc:def:crs:OGC:1.3:CRS84" } },
"features": [
{ "type": "Feature", "properties": { "site_no": "02362240", "nhdplus_comid": "2188549", "navigation_mode": "DM", "requested_distance_km": 12.0, "start_source": "nwissite", "start_id": "USGS-02362240", "geometry_length_km": 0.37631432114833935 }, "geometry": { "type": "LineString", "coordinates": [ [ -85.958548108, 31.272343937 ], [ -85.958339602, 31.271674499 ], [ -85.958391801, 31.270207897 ], [ -85.958230704, 31.268993497 ] ] } },
{ "type": "Feature", "properties": { "site_no": "02362240", "nhdplus_comid": "2188623", "navigation_mode": "DM", "requested_distance_km": 12.0, "start_source": "nwissite", "start_id": "USGS-02362240", "geometry_length_km": 0.92589135336449524 }, "geometry": { "type": "LineString", "coordinates": [ [ -85.958230704, 31.268993497 ], [ -85.958176404, 31.267893493 ], [ -85.957962602, 31.267549895 ], [ -85.957908705, 31.267045796 ], [ -85.957694702, 31.266427197 ], [ -85.9573742, 31.265969098 ], [ -85.956867106, 31.265671499 ], [ -85.9567063, 31.264800794 ], [ -85.956812404, 31.2641133 ], [ -85.956651501, 31.263127998 ], [ -85.956411205, 31.262899093 ], [ -85.956250802, 31.262509599 ], [ -85.956143707, 31.262142994 ], [ -85.955769703, 31.261570394 ], [ -85.955742806, 31.261272497 ] ] } },
{ "type": "Feature", "properties": { "site_no": "02362240", "nhdplus_comid": "2188703", "navigation_mode": "DM", "requested_distance_km": 12.0, "start_source": "nwissite", "start_id": "USGS-02362240", "geometry_length_km": 1.3122926147822336 }, "geometry": { "type": "LineString", "coordinates": [ [ -85.955742806, 31.261272497 ], [ -85.955662802, 31.261272497 ], [ -85.953418903, 31.257653393 ], [ -85.953018203, 31.256988995 ], [ -85.952991404, 31.256805696 ], [ -85.952804402, 31.256507896 ], [ -85.952216804, 31.255614594 ], [ -85.951174803, 31.253438197 ], [ -85.950961307, 31.253277995 ], [ -85.950052902, 31.251559898 ], [ -85.949732505, 31.251239195 ], [ -85.949278906, 31.251033194 ] ] } },
{ "type": "Feature", "properties": { "site_no": "02362240", "nhdplus_comid": "2189611", "navigation_mode": "DM", "requested_distance_km": 12.0, "start_source": "nwissite", "start_id": "USGS-02362240", "geometry_length_km": 0.73429024264377762 }, "geometry": { "type": "LineString", "coordinates": [ [ -85.949278906, 31.251033194 ], [ -85.949145302, 31.250758298 ], [ -85.948665, 31.250414893 ], [ -85.948680803, 31.250177294 ], [ -85.948973805, 31.249512598 ], [ -85.9491603, 31.249329098 ], [ -85.949453205, 31.248572797 ], [ -85.949479103, 31.247381099 ], [ -85.949558601, 31.246785298 ], [ -85.949958503, 31.246555895 ], [ -85.950144805, 31.246028796 ], [ -85.950064704, 31.245960094 ], [ -85.950037606, 31.245364293 ], [ -85.950144105, 31.245043397 ] ] } },
{ "type": "Feature", "properties": { "site_no": "02362240", "nhdplus_comid": "2188721", "navigation_mode": "DM", "requested_distance_km": 12.0, "start_source": "nwissite", "start_id": "USGS-02362240", "geometry_length_km": 0.94116046254502972 }, "geometry": { "type": "LineString", "coordinates": [ [ -85.950144105, 31.245043397 ], [ -85.950757302, 31.244722299 ], [ -85.950837106, 31.244447298 ], [ -85.9507569, 31.244218193 ], [ -85.950756602, 31.243805699 ], [ -85.950996406, 31.243415996 ], [ -85.952036105, 31.242682196 ], [ -85.953262605, 31.242268994 ], [ -85.954248607, 31.241168596 ], [ -85.9545414, 31.240503795 ], [ -85.955207303, 31.239288896 ], [ -85.955233701, 31.238945194 ], [ -85.955073401, 31.2385557 ] ] } },
{ "type": "Feature", "properties": { "site_no": "02362240", "nhdplus_comid": "2188771", "navigation_mode": "DM", "requested_distance_km": 12.0, "start_source": "nwissite", "start_id": "USGS-02362240", "geometry_length_km": 1.4337672161655211 }, "geometry": { "type": "LineString", "coordinates": [ [ -85.955073401, 31.2385557 ], [ -85.955659904, 31.238234594 ], [ -85.955873005, 31.237913698 ], [ -85.9560856, 31.236973993 ], [ -85.956058502, 31.236492798 ], [ -85.956218302, 31.236034296 ], [ -85.956190601, 31.234934494 ], [ -85.955816902, 31.234499298 ], [ -85.955923401, 31.234224297 ], [ -85.956616506, 31.233971797 ], [ -85.956696406, 31.233811297 ], [ -85.956722707, 31.233330093 ], [ -85.956882201, 31.232619599 ], [ -85.956668705, 31.232436396 ], [ -85.956001803, 31.232207596 ], [ -85.955735005, 31.232001595 ], [ -85.955761202, 31.231451593 ], [ -85.956294306, 31.231038697 ], [ -85.956613906, 31.230671994 ], [ -85.957013302, 31.229732193 ], [ -85.957039401, 31.229090497 ], [ -85.957199104, 31.228654996 ], [ -85.957572103, 31.228265293 ], [ -85.9582652, 31.227989897 ] ] } },
{ "type": "Feature", "properties": { "site_no": "02362240", "nhdplus_comid": "2188783", "navigation_mode": "DM", "requested_distance_km": 12.0, "start_source": "nwissite", "start_id": "USGS-02362240", "geometry_length_km": 0.14589081945190818 }, "geometry": { "type": "LineString", "coordinates": [ [ -85.9582652, 31.227989897 ], [ -85.958504803, 31.227416798 ], [ -85.9581846, 31.227119096 ], [ -85.958157502, 31.226821296 ] ] } },
{ "type": "Feature", "properties": { "site_no": "02362240", "nhdplus_comid": "2188847", "navigation_mode": "DM", "requested_distance_km": 12.0, "start_source": "nwissite", "start_id": "USGS-02362240", "geometry_length_km": 1.6430250574738712 }, "geometry": { "type": "LineString", "coordinates": [ [ -85.958157502, 31.226821296 ], [ -85.958343804, 31.226316996 ], [ -85.958237, 31.226179495 ], [ -85.957890205, 31.226042293 ], [ -85.957676806, 31.225859098 ], [ -85.957676604, 31.225584097 ], [ -85.957916006, 31.225011095 ], [ -85.958768703, 31.224162698 ], [ -85.959274605, 31.2232458 ], [ -85.959300801, 31.222672895 ], [ -85.959194005, 31.222512498 ], [ -85.959166102, 31.220954195 ], [ -85.959378906, 31.220335394 ], [ -85.959083803, 31.218204498 ], [ -85.958709605, 31.217058897 ], [ -85.958629005, 31.216371499 ], [ -85.958148204, 31.215386398 ], [ -85.957774505, 31.214859597 ], [ -85.957641006, 31.214538798 ], [ -85.957906604, 31.213278294 ], [ -85.958093204, 31.213186495 ] ] } },
{ "type": "Feature", "properties": { "site_no": "02362240", "nhdplus_comid": "2188873", "navigation_mode": "DM", "requested_distance_km": 12.0, "start_source": "nwissite", "start_id": "USGS-02362240", "geometry_length_km": 0.40704415714468584 }, "geometry": { "type": "LineString", "coordinates": [ [ -85.958093204, 31.213186495 ], [ -85.957986407, 31.212934598 ], [ -85.958199203, 31.212453298 ], [ -85.958225101, 31.211513594 ], [ -85.958358005, 31.210986495 ], [ -85.959210306, 31.209977694 ], [ -85.959290102, 31.209840193 ] ] } },
{ "type": "Feature", "properties": { "site_no": "02362240", "nhdplus_comid": "2188885", "navigation_mode": "DM", "requested_distance_km": 12.0, "start_source": "nwissite", "start_id": "USGS-02362240", "geometry_length_km": 0.61639515936725975 }, "geometry": { "type": "LineString", "coordinates": [ [ -85.959290102, 31.209840193 ], [ -85.960009307, 31.208968997 ], [ -85.960275404, 31.208418794 ], [ -85.960568301, 31.207983196 ], [ -85.961020902, 31.207135096 ], [ -85.961820006, 31.2062639 ], [ -85.961819507, 31.205690898 ], [ -85.961419307, 31.205278695 ], [ -85.961392403, 31.2050495 ] ] } },
{ "type": "Feature", "properties": { "site_no": "02362240", "nhdplus_comid": "2188905", "navigation_mode": "DM", "requested_distance_km": 12.0, "start_source": "nwissite", "start_id": "USGS-02362240", "geometry_length_km": 0.56185914110913537 }, "geometry": { "type": "LineString", "coordinates": [ [ -85.961392403, 31.2050495 ], [ -85.961471803, 31.204407893 ], [ -85.961684905, 31.204132795 ], [ -85.962431304, 31.2039719 ], [ -85.963044301, 31.203788199 ], [ -85.963337407, 31.203581795 ], [ -85.963470407, 31.203214996 ], [ -85.964322604, 31.202206194 ], [ -85.964802101, 31.201839194 ], [ -85.965041906, 31.201541096 ] ] } },
{ "type": "Feature", "properties": { "site_no": "02362240", "nhdplus_comid": "2188921", "navigation_mode": "DM", "requested_distance_km": 12.0, "start_source": "nwissite", "start_id": "USGS-02362240", "geometry_length_km": 0.38131493779968728 }, "geometry": { "type": "LineString", "coordinates": [ [ -85.965041906, 31.201541096 ], [ -85.965014905, 31.201266199 ], [ -85.964721307, 31.200853899 ], [ -85.964667104, 31.199983098 ], [ -85.964613706, 31.199822694 ], [ -85.964080304, 31.199708596 ], [ -85.963920303, 31.199571095 ], [ -85.9639199, 31.199112795 ], [ -85.963999406, 31.1986086 ] ] } },
{ "type": "Feature", "properties": { "site_no": "02362240", "nhdplus_comid": "2188979", "navigation_mode": "DM", "requested_distance_km": 12.0, "start_source": "nwissite", "start_id": "USGS-02362240", "geometry_length_km": 2.253830554025019 }, "geometry": { "type": "LineString", "coordinates": [ [ -85.963999406, 31.1986086 ], [ -85.963866003, 31.198448293 ], [ -85.963839106, 31.198173396 ], [ -85.963998906, 31.197989896 ], [ -85.965091601, 31.197714195 ], [ -85.965331204, 31.197301596 ], [ -85.965437204, 31.196613997 ], [ -85.965890005, 31.196040899 ], [ -85.966662705, 31.195650794 ], [ -85.967035204, 31.194940098 ], [ -85.967275105, 31.194917098 ], [ -85.9675688, 31.195352294 ], [ -85.967835307, 31.195329197 ], [ -85.968021706, 31.195076995 ], [ -85.968661003, 31.1946183 ], [ -85.969193205, 31.193586595 ], [ -85.9691929, 31.193174198 ], [ -85.968792707, 31.192807794 ], [ -85.968684904, 31.191593394 ], [ -85.968337506, 31.190837398 ], [ -85.968337201, 31.190424897 ], [ -85.968497001, 31.190355994 ], [ -85.969163701, 31.190607697 ], [ -85.969696805, 31.190607294 ], [ -85.969909705, 31.190194599 ], [ -85.969269305, 31.189415894 ], [ -85.969215602, 31.189049393 ], [ -85.969508305, 31.188567996 ], [ -85.9698276, 31.1878573 ], [ -85.969720803, 31.187674098 ], [ -85.969294004, 31.187376499 ], [ -85.969320402, 31.187101498 ], [ -85.969799303, 31.186138697 ], [ -85.969879001, 31.185840696 ], [ -85.970038705, 31.185611494 ], [ -85.970331803, 31.185519598 ], [ -85.9712914, 31.185564697 ], [ -85.971824206, 31.185197696 ], [ -85.972064003, 31.185128793 ] ] } }
]
}
