{
"type": "FeatureCollection",
"name": "USGS_02400680_DM_12km",
"crs": { "type": "name", "properties": { "name": "urn:ogc:def:crs:OGC:1.3:CRS84" } },
"features": [
{ "type": "Feature", "properties": { "site_no": "02400680", "nhdplus_comid": "22198487", "navigation_mode": "DM", "requested_distance_km": 12.0, "start_source": "nwissite", "start_id": "USGS-02400680", "geometry_length_km": 1.7640749406404572 }, "geometry": { "type": "LineString", "coordinates": [ [ -85.767319565, 34.43813103 ], [ -85.767435506, 34.437927499 ], [ -85.768238001, 34.4372411 ], [ -85.769012406, 34.436944097 ], [ -85.770726904, 34.436533399 ], [ -85.771086603, 34.436304696 ], [ -85.771197706, 34.435915396 ], [ -85.771142602, 34.435732193 ], [ -85.7706732, 34.435273699 ], [ -85.770646706, 34.434403293 ], [ -85.769321203, 34.433417298 ], [ -85.7692938, 34.433165394 ], [ -85.769460306, 34.432730295 ], [ -85.770318501, 34.431677595 ], [ -85.770402104, 34.431196697 ], [ -85.769905306, 34.430623695 ], [ -85.770182803, 34.429845199 ], [ -85.770238601, 34.429387294 ], [ -85.769300103, 34.428401597 ], [ -85.767670505, 34.4275527 ], [ -85.766538501, 34.426635496 ] ] } },
{ "type": "Feature", "properties": { "site_no": "02400680", "nhdplus_comid": "22198495", "navigation_mode": "DM", "requested_distance_km": 12.0, "start_source": "nwissite", "start_id": "USGS-02400680", "geometry_length_km": 2.329576307937645 }, "geometry": { "type": "LineString", "coordinates": [ [ -85.766538501, 34.426635496 ], [ -85.768169202, 34.426705696 ], [ -85.769137107, 34.426294297 ], [ -85.769689903, 34.426203199 ], [ -85.7702704, 34.426272497 ], [ -85.7712643, 34.427074894 ], [ -85.7718722, 34.427190095 ], [ -85.772397906, 34.426801093 ], [ -85.7730617, 34.426435195 ], [ -85.773283303, 34.426068999 ], [ -85.773339003, 34.425725497 ], [ -85.773201004, 34.425542198 ], [ -85.7727312, 34.4255189 ], [ -85.771735907, 34.425747097 ], [ -85.771459602, 34.425655194 ], [ -85.770990305, 34.425242499 ], [ -85.770963505, 34.424578294 ], [ -85.771102406, 34.424028695 ], [ -85.771601006, 34.423227496 ], [ -85.772071101, 34.422998995 ], [ -85.772292204, 34.423044898 ], [ -85.773009904, 34.423732698 ], [ -85.773230501, 34.424099296 ], [ -85.773810603, 34.424282998 ], [ -85.774142601, 34.424031399 ], [ -85.774558105, 34.423344694 ], [ -85.774531804, 34.4222911 ], [ -85.774366602, 34.421787098 ], [ -85.774090804, 34.421305895 ], [ -85.7739814, 34.420252293 ], [ -85.774341606, 34.419565499 ], [ -85.7759737, 34.418330096 ], [ -85.776388407, 34.418238893 ] ] } },
{ "type": "Feature", "properties": { "site_no": "02400680", "nhdplus_comid": "22198497", "navigation_mode": "DM", "requested_distance_km": 12.0, "start_source": "nwissite", "start_id": "USGS-02400680", "geometry_length_km": 0.60801307616318179 }, "geometry": { "type": "LineString", "coordinates": [ [ -85.776388407, 34.418238893 ], [ -85.777494006, 34.418148197 ], [ -85.778212406, 34.418354996 ], [ -85.778847501, 34.418744795 ], [ -85.779978305, 34.420715295 ], [ -85.7805029, 34.421150997 ], [ -85.781027801, 34.421357498 ] ] } },
{ "type": "Feature", "properties": { "site_no": "02400680", "nhdplus_comid": "22198501", "navigation_mode": "DM", "requested_distance_km": 12.0, "start_source": "nwissite", "start_id": "USGS-02400680", "geometry_length_km": 1.2192179729900545 }, "geometry": { "type": "LineString", "coordinates": [ [ -85.781027801, 34.421357498 ], [ -85.781525604, 34.421128899 ], [ -85.781636305, 34.420945793 ], [ -85.781720303, 34.420052595 ], [ -85.782053106, 34.419022195 ], [ -85.782468103, 34.418656096 ], [ -85.783076301, 34.418519095 ], [ -85.783545703, 34.418794297 ], [ -85.783600606, 34.4192525 ], [ -85.783821404, 34.419435896 ], [ -85.784180604, 34.419504799 ], [ -85.784595601, 34.419184595 ], [ -85.785177603, 34.417673394 ], [ -85.785261601, 34.4166658 ], [ -85.785152301, 34.415657997 ], [ -85.785207905, 34.415360197 ], [ -85.785595104, 34.415016994 ], [ -85.7865353, 34.414490893 ] ] } },
{ "type": "Feature", "properties": { "site_no": "02400680", "nhdplus_comid": "22198507", "navigation_mode": "DM", "requested_distance_km": 12.0, "start_source": "nwissite", "start_id": "USGS-02400680", "geometry_length_km": 0.98425352356520979 }, "geometry": { "type": "LineString", "coordinates": [ [ -85.7865353, 34.414490893 ], [ -85.786867507, 34.4140561 ], [ -85.786701903, 34.413826898 ], [ -85.786453307, 34.413643397 ], [ -85.785762504, 34.413619995 ], [ -85.784435801, 34.413847998 ], [ -85.784076706, 34.413710296 ], [ -85.783994004, 34.413458295 ], [ -85.784187801, 34.413069196 ], [ -85.785100706, 34.412268296 ], [ -85.785737202, 34.411444299 ], [ -85.786290504, 34.410917893 ], [ -85.787451506, 34.410575196 ], [ -85.788475104, 34.409568198 ] ] } },
{ "type": "Feature", "properties": { "site_no": "02400680", "nhdplus_comid": "22198509", "navigation_mode": "DM", "requested_distance_km": 12.0, "start_source": "nwissite", "start_id": "USGS-02400680", "geometry_length_km": 0.24603859879203835 }, "geometry": { "type": "LineString", "coordinates": [ [ -85.788475104, 34.409568198 ], [ -85.790052101, 34.407782994 ] ] } },
{ "type": "Feature", "properties": { "site_no": "02400680", "nhdplus_comid": "22198523", "navigation_mode": "DM", "requested_distance_km": 12.0, "start_source": "nwissite", "start_id": "USGS-02400680", "geometry_length_km": 1.7210063364352433 }, "geometry": { "type": "LineString", "coordinates": [ [ -85.790052101, 34.407782994 ], [ -85.790468901, 34.405584499 ], [ -85.791188307, 34.404714793 ], [ -85.792155907, 34.404280297 ], [ -85.792902604, 34.4036396 ], [ -85.793400802, 34.402838297 ], [ -85.793732606, 34.402632393 ], [ -85.794478804, 34.402541295 ], [ -85.795142405, 34.402037896 ], [ -85.795640707, 34.401144996 ], [ -85.796056107, 34.400091797 ], [ -85.796001606, 34.399381697 ], [ -85.795394301, 34.398831598 ], [ -85.795422204, 34.398465194 ], [ -85.795671403, 34.397961497 ], [ -85.795561701, 34.397136897 ], [ -85.795921504, 34.396587394 ], [ -85.795949601, 34.396083593 ], [ -85.795287207, 34.395396098 ], [ -85.795260005, 34.394938 ] ] } },
{ "type": "Feature", "properties": { "site_no": "02400680", "nhdplus_comid": "22198525", "navigation_mode": "DM", "requested_distance_km": 12.0, "start_source": "nwissite", "start_id": "USGS-02400680", "geometry_length_km": 0.69964476058504355 }, "geometry": { "type": "LineString", "coordinates": [ [ -85.795260005, 34.394938 ], [ -85.795978606, 34.394640699 ], [ -85.796890706, 34.394412294 ], [ -85.797581702, 34.394092098 ], [ -85.798051804, 34.393657297 ], [ -85.798245504, 34.393336795 ], [ -85.798688807, 34.392008699 ], [ -85.799131304, 34.391642496 ], [ -85.8006237, 34.391070895 ] ] } },
{ "type": "Feature", "properties": { "site_no": "02400680", "nhdplus_comid": "22198535", "navigation_mode": "DM", "requested_distance_km": 12.0, "start_source": "nwissite", "start_id": "USGS-02400680", "geometry_length_km": 3.6283995515119054 }, "geometry": { "type": "LineString", "coordinates": [ [ -85.8006237, 34.391070895 ], [ -85.800983205, 34.390658796 ], [ -85.8010941, 34.390361197 ], [ -85.801564306, 34.389559895 ], [ -85.801675305, 34.389124796 ], [ -85.801454306, 34.389010198 ], [ -85.799575202, 34.389421195 ], [ -85.798802003, 34.389145799 ], [ -85.798249803, 34.388756193 ], [ -85.797863603, 34.388091698 ], [ -85.797118202, 34.3876331 ], [ -85.797063105, 34.387426898 ], [ -85.797312304, 34.3868545 ], [ -85.797616303, 34.3867402 ], [ -85.7980031, 34.386763394 ], [ -85.798582606, 34.387405097 ], [ -85.799135007, 34.387611598 ], [ -85.800958507, 34.387475297 ], [ -85.801483706, 34.387132093 ], [ -85.801788002, 34.386651397 ], [ -85.801982, 34.3859872 ], [ -85.802093402, 34.384979598 ], [ -85.801900402, 34.384567194 ], [ -85.801652804, 34.383467697 ], [ -85.8018464, 34.3832158 ], [ -85.802316204, 34.383033 ], [ -85.803614706, 34.382896297 ], [ -85.804803006, 34.382484794 ], [ -85.805990703, 34.382622994 ], [ -85.807179704, 34.381318197 ], [ -85.810025603, 34.380563997 ], [ -85.810440205, 34.380289294 ], [ -85.810496107, 34.379671 ], [ -85.810220301, 34.379006699 ], [ -85.809751302, 34.378273495 ], [ -85.809364803, 34.378089994 ], [ -85.808287501, 34.378020696 ], [ -85.808121905, 34.377906099 ], [ -85.808095202, 34.376737997 ], [ -85.808261201, 34.3763946 ], [ -85.808675803, 34.376051299 ], [ -85.810140505, 34.375273295 ], [ -85.810334004, 34.375090294 ], [ -85.810582906, 34.374769799 ], [ -85.8105838, 34.373555899 ] ] } }
]
}
