{
"type": "FeatureCollection",
"name": "USGS_02455500_UM_12km",
"crs": { "type": "name", "properties": { "name": "urn:ogc:def:crs:OGC:1.3:CRS84" } },
"features": [
{ "type": "Feature", "properties": { "site_no": "02455500", "nhdplus_comid": "18566277", "navigation_mode": "UM", "requested_distance_km": 12.0, "start_source": "nwissite", "start_id": "USGS-02455500", "geometry_length_km": 5.4368309458672108 }, "geometry": { "type": "LineString", "coordinates": [ [ -86.739934504, 33.837449893 ], [ -86.740451902, 33.834448293 ], [ -86.740752906, 33.833669193 ], [ -86.741218604, 33.8330044 ], [ -86.742671803, 33.831811696 ], [ -86.744235203, 33.830870897 ], [ -86.746238105, 33.830090195 ], [ -86.747966707, 33.829538696 ], [ -86.748982102, 33.829445995 ], [ -86.7499981, 33.829628199 ], [ -86.750730902, 33.829764798 ], [ -86.751581103, 33.830246799 ], [ -86.7521566, 33.830957495 ], [ -86.752211206, 33.831117898 ], [ -86.752320804, 33.831278294 ], [ -86.752456903, 33.832080394 ], [ -86.752346404, 33.832492597 ], [ -86.751659006, 33.833362497 ], [ -86.750005305, 33.834645294 ], [ -86.748442203, 33.835700698 ], [ -86.747811802, 33.836365595 ], [ -86.747263901, 33.837167896 ], [ -86.746662304, 33.8387952 ], [ -86.746499106, 33.839917794 ], [ -86.746528506, 33.841246493 ], [ -86.747189604, 33.842735 ], [ -86.747519501, 33.843101196 ], [ -86.748233803, 33.843467094 ], [ -86.749991201, 33.843671493 ], [ -86.751424305, 33.843969099 ], [ -86.752659507, 33.844130695 ], [ -86.753345907, 33.8441315 ], [ -86.753812902, 33.843879998 ], [ -86.753923006, 33.843696699 ], [ -86.753845505, 33.8401687 ], [ -86.753083006, 33.835815199 ], [ -86.753715701, 33.834807798 ], [ -86.755202703, 33.831533298 ], [ -86.755719398, 33.83051883 ] ] } },
{ "type": "Feature", "properties": { "site_no": "02455500", "nhdplus_comid": "18565277", "navigation_mode": "UM", "requested_distance_km": 12.0, "start_source": "nwissite", "start_id": "USGS-02455500", "geometry_length_km": 1.1667809880955982 }, "geometry": { "type": "LineString", "coordinates": [ [ -86.733409502, 33.844351396 ], [ -86.734644607, 33.844029494 ], [ -86.7371151, 33.843729496 ], [ -86.738157906, 33.843476593 ], [ -86.738843903, 33.843086496 ], [ -86.739063203, 33.842834294 ], [ -86.7399076, 33.837908097 ], [ -86.739934504, 33.837449893 ] ] } },
{ "type": "Feature", "properties": { "site_no": "02455500", "nhdplus_comid": "18565253", "navigation_mode": "UM", "requested_distance_km": 12.0, "start_source": "nwissite", "start_id": "USGS-02455500", "geometry_length_km": 0.52102229851570014 }, "geometry": { "type": "LineString", "coordinates": [ [ -86.728195101, 33.846051 ], [ -86.728908405, 33.845592193 ], [ -86.730527505, 33.844972298 ], [ -86.733409502, 33.844351396 ] ] } },
{ "type": "Feature", "properties": { "site_no": "02455500", "nhdplus_comid": "18565245", "navigation_mode": "UM", "requested_distance_km": 12.0, "start_source": "nwissite", "start_id": "USGS-02455500", "geometry_length_km": 2.2470480052567483 }, "geometry": { "type": "LineString", "coordinates": [ [ -86.725963302, 33.862638898 ], [ -86.725990705, 33.862547293 ], [ -86.726457201, 33.862271994 ], [ -86.731287904, 33.860343695 ], [ -86.731699407, 33.859999694 ], [ -86.731918603, 33.859678797 ], [ -86.7319175, 33.858853996 ], [ -86.731669806, 33.858304396 ], [ -86.730871104, 33.856380798 ], [ -86.7307887, 33.856312096 ], [ -86.730402805, 33.855281599 ], [ -86.730017602, 33.854571596 ], [ -86.728475302, 33.850815795 ], [ -86.728310406, 33.850632697 ], [ -86.728282705, 33.850380696 ], [ -86.727952205, 33.849556297 ], [ -86.727786303, 33.848594293 ], [ -86.727784507, 33.847059295 ], [ -86.728195101, 33.846051 ] ] } }
]
}
