{
"type": "FeatureCollection",
"name": "USGS_02466000_UM_12km",
"crs": { "type": "name", "properties": { "name": "urn:ogc:def:crs:OGC:1.3:CRS84" } },
"features": [
{ "type": "Feature", "properties": { "site_no": "02466000", "nhdplus_comid": "18210942", "navigation_mode": "UM", "requested_distance_km": 12.0, "start_source": "nwissite", "start_id": "USGS-02466000", "geometry_length_km": 1.9407340016916368 }, "geometry": { "type": "LineString", "coordinates": [ [ -87.816831902, 32.832684599 ], [ -87.817076102, 32.832513198 ], [ -87.817582905, 32.8305346 ], [ -87.817934304, 32.830056094 ], [ -87.820513301, 32.828478597 ], [ -87.820629701, 32.827353396 ], [ -87.819671102, 32.826402798 ], [ -87.818348207, 32.826055698 ], [ -87.815323003, 32.823192999 ], [ -87.815354303, 32.821431994 ], [ -87.816644305, 32.818879358 ] ] } },
{ "type": "Feature", "properties": { "site_no": "02466000", "nhdplus_comid": "18210926", "navigation_mode": "UM", "requested_distance_km": 12.0, "start_source": "nwissite", "start_id": "USGS-02466000", "geometry_length_km": 5.0345536208950827 }, "geometry": { "type": "LineString", "coordinates": [ [ -87.830557905, 32.854011498 ], [ -87.829971202, 32.853843398 ], [ -87.827409707, 32.853785299 ], [ -87.8240005, 32.853162296 ], [ -87.822051607, 32.853022099 ], [ -87.820955701, 32.851935796 ], [ -87.820309706, 32.8508818 ], [ -87.820366703, 32.848870799 ], [ -87.821519502, 32.847946197 ], [ -87.821982205, 32.847853594 ], [ -87.828851901, 32.848599494 ], [ -87.830089904, 32.848310597 ], [ -87.831392504, 32.847396694 ], [ -87.8324598, 32.8458362 ], [ -87.832726002, 32.844721794 ], [ -87.833064504, 32.844368294 ], [ -87.8332453, 32.842618093 ], [ -87.832749002, 32.841574997 ], [ -87.831666104, 32.840363696 ], [ -87.8308184, 32.839798994 ], [ -87.829045601, 32.8394197 ], [ -87.827337407, 32.838415295 ], [ -87.825153701, 32.837628499 ], [ -87.822169006, 32.837287895 ], [ -87.819274805, 32.836071998 ], [ -87.8176056, 32.834692396 ], [ -87.817370504, 32.834045798 ], [ -87.816822805, 32.833502598 ], [ -87.816831902, 32.832684599 ] ] } },
{ "type": "Feature", "properties": { "site_no": "02466000", "nhdplus_comid": "18210902", "navigation_mode": "UM", "requested_distance_km": 12.0, "start_source": "nwissite", "start_id": "USGS-02466000", "geometry_length_km": 1.6104811788985727 }, "geometry": { "type": "LineString", "coordinates": [ [ -87.828521304, 32.864947699 ], [ -87.831383005, 32.865027398 ], [ -87.832360104, 32.864341997 ], [ -87.832737505, 32.863613494 ], [ -87.832933605, 32.857330695 ], [ -87.832189001, 32.855765894 ], [ -87.830557905, 32.854011498 ] ] } },
{ "type": "Feature", "properties": { "site_no": "02466000", "nhdplus_comid": "18210900", "navigation_mode": "UM", "requested_distance_km": 12.0, "start_source": "nwissite", "start_id": "USGS-02466000", "geometry_length_km": 5.7909099376355799 }, "geometry": { "type": "LineString", "coordinates": [ [ -87.818842202, 32.891327895 ], [ -87.819186404, 32.889463596 ], [ -87.819075204, 32.889077798 ], [ -87.818390004, 32.888398893 ], [ -87.816903204, 32.888165995 ], [ -87.814281307, 32.887221694 ], [ -87.811998203, 32.885923997 ], [ -87.810478106, 32.884555198 ], [ -87.810085505, 32.882511899 ], [ -87.810474202, 32.878761798 ], [ -87.810663, 32.878397599 ], [ -87.811640501, 32.877712399 ], [ -87.812690206, 32.877788 ], [ -87.816167302, 32.880682893 ], [ -87.818352103, 32.881469794 ], [ -87.820601605, 32.881631598 ], [ -87.822054803, 32.880728595 ], [ -87.822184101, 32.879478499 ], [ -87.821868904, 32.876685299 ], [ -87.822062902, 32.874810196 ], [ -87.821755402, 32.873402797 ], [ -87.821871802, 32.872277796 ], [ -87.8210086, 32.8689413 ], [ -87.820336506, 32.8681373 ], [ -87.820191905, 32.866615698 ], [ -87.820360102, 32.864990599 ], [ -87.821500205, 32.864190996 ], [ -87.822875403, 32.864038095 ], [ -87.826910704, 32.864454195 ], [ -87.828521304, 32.864947699 ] ] } }
]
}
