{
"type": "FeatureCollection",
"name": "USGS_02458148_UM_12km",
"crs": { "type": "name", "properties": { "name": "urn:ogc:def:crs:OGC:1.3:CRS84" } },
"features": [
{ "type": "Feature", "properties": { "site_no": "02458148", "nhdplus_comid": "18566151", "navigation_mode": "UM", "requested_distance_km": 12.0, "start_source": "nwissite", "start_id": "USGS-02458148", "geometry_length_km": 0.34303653466404249 }, "geometry": { "type": "LineString", "coordinates": [ [ -86.716239505, 33.578856997 ], [ -86.716321304, 33.578627795 ], [ -86.7165673, 33.578352697 ], [ -86.717606902, 33.577870898 ], [ -86.718941228, 33.576843341 ] ] } },
{ "type": "Feature", "properties": { "site_no": "02458148", "nhdplus_comid": "18566113", "navigation_mode": "UM", "requested_distance_km": 12.0, "start_source": "nwissite", "start_id": "USGS-02458148", "geometry_length_km": 2.4824614921387531 }, "geometry": { "type": "LineString", "coordinates": [ [ -86.700926706, 33.595362194 ], [ -86.701309703, 33.5952245 ], [ -86.701911703, 33.5948347 ], [ -86.702404, 33.594353199 ], [ -86.703087702, 33.593482293 ], [ -86.703552701, 33.5931613 ], [ -86.706043005, 33.592289098 ], [ -86.7067817, 33.591853395 ], [ -86.707930505, 33.590936199 ], [ -86.708942905, 33.5904314 ], [ -86.709517404, 33.5900416 ], [ -86.710556306, 33.588712096 ], [ -86.711185403, 33.588230595 ], [ -86.713373601, 33.586739995 ], [ -86.713838406, 33.586212695 ], [ -86.714439601, 33.585158497 ], [ -86.716106907, 33.582889199 ], [ -86.716407202, 33.5820871 ], [ -86.716515705, 33.581239298 ], [ -86.716432303, 33.579979397 ], [ -86.716239505, 33.578856997 ] ] } }
]
}
