{
"type": "FeatureCollection",
"name": "USGS_03574100_DM_12km",
"crs": { "type": "name", "properties": { "name": "urn:ogc:def:crs:OGC:1.3:CRS84" } },
"features": [
{ "type": "Feature", "properties": { "site_no": "03574100", "nhdplus_comid": "19618866", "navigation_mode": "DM", "requested_distance_km": 12.0, "start_source": "nwissite", "start_id": "USGS-03574100", "geometry_length_km": 0.62382094530923282 }, "geometry": { "type": "LineString", "coordinates": [ [ -86.168089245, 34.91047895 ], [ -86.168910205, 34.909018993 ], [ -86.169021003, 34.908057094 ], [ -86.169243202, 34.907575995 ], [ -86.169632204, 34.907026097 ], [ -86.170299307, 34.906705298 ], [ -86.171800405, 34.906521596 ] ] } },
{ "type": "Feature", "properties": { "site_no": "03574100", "nhdplus_comid": "19618914", "navigation_mode": "DM", "requested_distance_km": 12.0, "start_source": "nwissite", "start_id": "USGS-03574100", "geometry_length_km": 1.0906020180785183 }, "geometry": { "type": "LineString", "coordinates": [ [ -86.171800405, 34.906521596 ], [ -86.171688706, 34.905490898 ], [ -86.170992903, 34.904231496 ], [ -86.1709648, 34.903544396 ], [ -86.171159305, 34.903154895 ], [ -86.1724931, 34.9021696 ], [ -86.172632001, 34.902009293 ], [ -86.172631703, 34.901368 ], [ -86.172520407, 34.901161894 ], [ -86.170768201, 34.899582095 ], [ -86.170684502, 34.899101198 ], [ -86.170767605, 34.898528494 ], [ -86.170683905, 34.898253694 ], [ -86.170433804, 34.898139298 ] ] } },
{ "type": "Feature", "properties": { "site_no": "03574100", "nhdplus_comid": "19618954", "navigation_mode": "DM", "requested_distance_km": 12.0, "start_source": "nwissite", "start_id": "USGS-03574100", "geometry_length_km": 1.1346825474869069 }, "geometry": { "type": "LineString", "coordinates": [ [ -86.170433804, 34.898139298 ], [ -86.170461401, 34.898001894 ], [ -86.170878105, 34.8971771 ], [ -86.171211503, 34.896879196 ], [ -86.171905801, 34.895642295 ], [ -86.172710903, 34.893809699 ], [ -86.173460305, 34.891816698 ], [ -86.174154803, 34.891083598 ], [ -86.174710602, 34.890694 ], [ -86.174793705, 34.890258893 ], [ -86.174320906, 34.889594793 ], [ -86.174292706, 34.888999298 ] ] } },
{ "type": "Feature", "properties": { "site_no": "03574100", "nhdplus_comid": "19619018", "navigation_mode": "DM", "requested_distance_km": 12.0, "start_source": "nwissite", "start_id": "USGS-03574100", "geometry_length_km": 2.1675504348381045 }, "geometry": { "type": "LineString", "coordinates": [ [ -86.174292706, 34.888999298 ], [ -86.174570404, 34.888541095 ], [ -86.175376005, 34.887899496 ], [ -86.177209705, 34.886707798 ], [ -86.178154506, 34.886363894 ], [ -86.1792382, 34.885676295 ], [ -86.180599801, 34.885217696 ], [ -86.182433605, 34.884277798 ], [ -86.182905704, 34.883796699 ], [ -86.183405802, 34.883475795 ], [ -86.184683606, 34.882467493 ], [ -86.185322404, 34.881711297 ], [ -86.186961204, 34.880404994 ], [ -86.188349202, 34.878228493 ], [ -86.188821405, 34.877838895 ], [ -86.190071501, 34.8771054 ], [ -86.190737702, 34.876051396 ], [ -86.190820806, 34.875707895 ] ] } },
{ "type": "Feature", "properties": { "site_no": "03574100", "nhdplus_comid": "19619100", "navigation_mode": "DM", "requested_distance_km": 12.0, "start_source": "nwissite", "start_id": "USGS-03574100", "geometry_length_km": 2.3458401905530981 }, "geometry": { "type": "LineString", "coordinates": [ [ -86.190820806, 34.875707895 ], [ -86.191153802, 34.875089295 ], [ -86.1913478, 34.874401994 ], [ -86.191512704, 34.872042798 ], [ -86.192178205, 34.870187297 ], [ -86.192204304, 34.8679884 ], [ -86.192453906, 34.867392898 ], [ -86.193814404, 34.866063699 ], [ -86.193869106, 34.8649415 ], [ -86.194368705, 34.864185199 ], [ -86.194979504, 34.863612294 ], [ -86.195284702, 34.863062494 ], [ -86.195339404, 34.861985996 ], [ -86.195478104, 34.861619495 ], [ -86.195977807, 34.861069493 ], [ -86.197060205, 34.859740399 ], [ -86.197254606, 34.859625794 ], [ -86.197838105, 34.859556794 ], [ -86.198505104, 34.859831296 ], [ -86.1994505, 34.860449098 ], [ -86.1998116, 34.860403098 ], [ -86.199978106, 34.860128097 ], [ -86.200283103, 34.859372094 ] ] } },
{ "type": "Feature", "properties": { "site_no": "03574100", "nhdplus_comid": "19619110", "navigation_mode": "DM", "requested_distance_km": 12.0, "start_source": "nwissite", "start_id": "USGS-03574100", "geometry_length_km": 1.2125835066577533 }, "geometry": { "type": "LineString", "coordinates": [ [ -86.200283103, 34.859372094 ], [ -86.200560302, 34.858684897 ], [ -86.200865805, 34.858501494 ], [ -86.201588407, 34.858661398 ], [ -86.203590602, 34.860492498 ], [ -86.203924201, 34.860606797 ], [ -86.204424202, 34.860560596 ], [ -86.204868302, 34.860010698 ], [ -86.205340303, 34.859552398 ], [ -86.205895707, 34.859300099 ], [ -86.206673704, 34.8591621 ], [ -86.207201704, 34.859299198 ], [ -86.207368501, 34.859482296 ], [ -86.207424507, 34.859871596 ], [ -86.207230702, 34.860490099 ], [ -86.207481302, 34.861062594 ], [ -86.208148904, 34.861909695 ], [ -86.208343707, 34.862184398 ] ] } },
{ "type": "Feature", "properties": { "site_no": "03574100", "nhdplus_comid": "19619152", "navigation_mode": "DM", "requested_distance_km": 12.0, "start_source": "nwissite", "start_id": "USGS-03574100", "geometry_length_km": 1.7870912400410686 }, "geometry": { "type": "LineString", "coordinates": [ [ -86.208343707, 34.862184398 ], [ -86.208760604, 34.862206995 ], [ -86.209927104, 34.861725196 ], [ -86.210371405, 34.8614043 ], [ -86.210732207, 34.860991694 ], [ -86.2120938, 34.8609908 ], [ -86.2127048, 34.860715494 ], [ -86.212954506, 34.860417694 ], [ -86.213148504, 34.859821998 ], [ -86.213537, 34.859478198 ], [ -86.213787101, 34.859409295 ], [ -86.214898705, 34.8595917 ], [ -86.215398505, 34.859293699 ], [ -86.2165922, 34.858330794 ], [ -86.217285305, 34.857024796 ], [ -86.217701904, 34.856795497 ], [ -86.218118802, 34.8569097 ], [ -86.218480006, 34.856909394 ], [ -86.218868501, 34.856496796 ], [ -86.219367504, 34.855397098 ], [ -86.219256006, 34.855053596 ], [ -86.219116904, 34.854939096 ], [ -86.218727805, 34.854824893 ], [ -86.218394101, 34.854619093 ], [ -86.218143702, 34.854275696 ], [ -86.218087405, 34.853611499 ], [ -86.218308501, 34.852580599 ] ] } }
]
}
