{
"type": "FeatureCollection",
"name": "USGS_02438000_DM_12km",
"crs": { "type": "name", "properties": { "name": "urn:ogc:def:crs:OGC:1.3:CRS84" } },
"features": [
{ "type": "Feature", "properties": { "site_no": "02438000", "nhdplus_comid": "18670534", "navigation_mode": "DM", "requested_distance_km": 12.0, "start_source": "nwissite", "start_id": "USGS-02438000", "geometry_length_km": 1.0426554855000167 }, "geometry": { "type": "LineString", "coordinates": [ [ -87.989586624, 34.106771898 ], [ -87.990104705, 34.107037097 ], [ -87.991068304, 34.107013494 ], [ -87.993986405, 34.1063933 ], [ -87.9959139, 34.106392398 ], [ -87.997758403, 34.106093593 ], [ -87.998253606, 34.1057266 ], [ -87.998280905, 34.105634995 ], [ -87.998831205, 34.105359599 ], [ -87.999601305, 34.104717493 ], [ -88.000032306, 34.104579598 ] ] } },
{ "type": "Feature", "properties": { "site_no": "02438000", "nhdplus_comid": "18671406", "navigation_mode": "DM", "requested_distance_km": 12.0, "start_source": "nwissite", "start_id": "USGS-02438000", "geometry_length_km": 0.50667856888579876 }, "geometry": { "type": "LineString", "coordinates": [ [ -88.000032306, 34.104579598 ], [ -88.000934102, 34.103114694 ], [ -88.000989906, 34.102587998 ], [ -88.000359006, 34.100915194 ], [ -88.0001394, 34.100433894 ], [ -88.000032201, 34.100387998 ] ] } },
{ "type": "Feature", "properties": { "site_no": "02438000", "nhdplus_comid": "18670244", "navigation_mode": "DM", "requested_distance_km": 12.0, "start_source": "nwissite", "start_id": "USGS-02438000", "geometry_length_km": 0.64581412734328969 }, "geometry": { "type": "LineString", "coordinates": [ [ -88.000032201, 34.100387998 ], [ -87.999511503, 34.100021794 ], [ -87.998408601, 34.0989234 ], [ -87.998104803, 34.098442696 ], [ -87.997856401, 34.097961999 ], [ -87.997827902, 34.097297899 ], [ -87.997992702, 34.097022794 ], [ -87.9983228, 34.096839197 ], [ -87.998845704, 34.096678399 ], [ -88.000032105, 34.096608497 ] ] } },
{ "type": "Feature", "properties": { "site_no": "02438000", "nhdplus_comid": "18671410", "navigation_mode": "DM", "requested_distance_km": 12.0, "start_source": "nwissite", "start_id": "USGS-02438000", "geometry_length_km": 1.077554050063692 }, "geometry": { "type": "LineString", "coordinates": [ [ -88.000032105, 34.096608497 ], [ -88.000915006, 34.097067498 ], [ -88.0031166, 34.097940594 ], [ -88.003474101, 34.098216094 ], [ -88.003694005, 34.098514296 ], [ -88.0039398, 34.100004099 ], [ -88.003938101, 34.101172395 ], [ -88.004404604, 34.102433093 ], [ -88.004707202, 34.102662697 ], [ -88.005863205, 34.102916293 ], [ -88.006744407, 34.102917396 ] ] } },
{ "type": "Feature", "properties": { "site_no": "02438000", "nhdplus_comid": "18671422", "navigation_mode": "DM", "requested_distance_km": 12.0, "start_source": "nwissite", "start_id": "USGS-02438000", "geometry_length_km": 1.4176670075273576 }, "geometry": { "type": "LineString", "coordinates": [ [ -88.006744407, 34.102917396 ], [ -88.007488303, 34.102574497 ], [ -88.007984504, 34.1021856 ], [ -88.008674301, 34.1010639 ], [ -88.009281002, 34.100377299 ], [ -88.010882802, 34.0965764 ], [ -88.011958301, 34.095317595 ], [ -88.0124273, 34.094561994 ], [ -88.012510307, 34.094264396 ], [ -88.012540005, 34.092615195 ], [ -88.012761205, 34.0917909 ], [ -88.012843907, 34.091699295 ] ] } },
{ "type": "Feature", "properties": { "site_no": "02438000", "nhdplus_comid": "18671466", "navigation_mode": "DM", "requested_distance_km": 12.0, "start_source": "nwissite", "start_id": "USGS-02438000", "geometry_length_km": 1.380291086245554 }, "geometry": { "type": "LineString", "coordinates": [ [ -88.012843907, 34.091699295 ], [ -88.013203107, 34.090668894 ], [ -88.015739903, 34.0875789 ], [ -88.015933007, 34.087212496 ], [ -88.016154602, 34.0861362 ], [ -88.016022302, 34.081783995 ], [ -88.016491503, 34.080730699 ], [ -88.016905107, 34.080250099 ] ] } },
{ "type": "Feature", "properties": { "site_no": "02438000", "nhdplus_comid": "18671478", "navigation_mode": "DM", "requested_distance_km": 12.0, "start_source": "nwissite", "start_id": "USGS-02438000", "geometry_length_km": 0.15861596959187385 }, "geometry": { "type": "LineString", "coordinates": [ [ -88.016905107, 34.080250099 ], [ -88.017209701, 34.078853093 ] ] } },
{ "type": "Feature", "properties": { "site_no": "02438000", "nhdplus_comid": "18671522", "navigation_mode": "DM", "requested_distance_km": 12.0, "start_source": "nwissite", "start_id": "USGS-02438000", "geometry_length_km": 1.9699475979925904 }, "geometry": { "type": "LineString", "coordinates": [ [ -88.017209701, 34.078853093 ], [ -88.017266206, 34.077684894 ], [ -88.016883902, 34.075073399 ], [ -88.017160602, 34.0739742 ], [ -88.017712407, 34.072852299 ], [ -88.017824002, 34.071661197 ], [ -88.017604806, 34.070859298 ], [ -88.016752407, 34.070011094 ], [ -88.016174801, 34.069781497 ], [ -88.015844502, 34.069735497 ], [ -88.015321307, 34.069895297 ], [ -88.013999403, 34.070466794 ], [ -88.011934102, 34.071220897 ], [ -88.0109981, 34.071357399 ], [ -88.010695703, 34.071036398 ], [ -88.010640904, 34.070830196 ], [ -88.009898901, 34.069982 ], [ -88.008881703, 34.068996094 ], [ -88.008799404, 34.068835698 ], [ -88.008634306, 34.068812594 ] ] } },
{ "type": "Feature", "properties": { "site_no": "02438000", "nhdplus_comid": "18671542", "navigation_mode": "DM", "requested_distance_km": 12.0, "start_source": "nwissite", "start_id": "USGS-02438000", "geometry_length_km": 0.28065005004141036 }, "geometry": { "type": "LineString", "coordinates": [ [ -88.008634306, 34.068812594 ], [ -88.008635201, 34.068079695 ], [ -88.008774303, 34.0670719 ], [ -88.008582301, 34.066544794 ], [ -88.008362204, 34.066430099 ] ] } },
{ "type": "Feature", "properties": { "site_no": "02438000", "nhdplus_comid": "18671544", "navigation_mode": "DM", "requested_distance_km": 12.0, "start_source": "nwissite", "start_id": "USGS-02438000", "geometry_length_km": 0.18120361355415629 }, "geometry": { "type": "LineString", "coordinates": [ [ -88.008362204, 34.066430099 ], [ -88.007178903, 34.066268697 ], [ -88.006849006, 34.0660851 ], [ -88.006739207, 34.065787293 ] ] } },
{ "type": "Feature", "properties": { "site_no": "02438000", "nhdplus_comid": "18671574", "navigation_mode": "DM", "requested_distance_km": 12.0, "start_source": "nwissite", "start_id": "USGS-02438000", "geometry_length_km": 0.73058337232050297 }, "geometry": { "type": "LineString", "coordinates": [ [ -88.006739207, 34.065787293 ], [ -88.006134704, 34.065007895 ], [ -88.005227402, 34.064342596 ], [ -88.004154801, 34.063768998 ], [ -88.003769904, 34.063493796 ], [ -88.003577702, 34.063127093 ], [ -88.003550701, 34.062829293 ], [ -88.0036887, 34.062531598 ], [ -88.004736006, 34.061456099 ], [ -88.005507201, 34.061044499 ] ] } },
{ "type": "Feature", "properties": { "site_no": "02438000", "nhdplus_comid": "18671582", "navigation_mode": "DM", "requested_distance_km": 12.0, "start_source": "nwissite", "start_id": "USGS-02438000", "geometry_length_km": 0.17687792224820331 }, "geometry": { "type": "LineString", "coordinates": [ [ -88.005507201, 34.061044499 ], [ -88.005535007, 34.060815498 ], [ -88.005893201, 34.060495198 ], [ -88.006471306, 34.060404196 ], [ -88.0069388, 34.060610697 ] ] } },
{ "type": "Feature", "properties": { "site_no": "02438000", "nhdplus_comid": "18671578", "navigation_mode": "DM", "requested_distance_km": 12.0, "start_source": "nwissite", "start_id": "USGS-02438000", "geometry_length_km": 0.22454199155325674 }, "geometry": { "type": "LineString", "coordinates": [ [ -88.0069388, 34.060610697 ], [ -88.007599302, 34.060702994 ], [ -88.008342005, 34.060955599 ], [ -88.009194702, 34.061345898 ] ] } },
{ "type": "Feature", "properties": { "site_no": "02438000", "nhdplus_comid": "18671610", "navigation_mode": "DM", "requested_distance_km": 12.0, "start_source": "nwissite", "start_id": "USGS-02438000", "geometry_length_km": 1.7764370905266813 }, "geometry": { "type": "LineString", "coordinates": [ [ -88.009194702, 34.061345898 ], [ -88.009442501, 34.061208695 ], [ -88.009911202, 34.060636498 ], [ -88.010049202, 34.060270093 ], [ -88.010049902, 34.059789099 ], [ -88.009749703, 34.057887599 ], [ -88.009557605, 34.057314798 ], [ -88.008595705, 34.056443498 ], [ -88.007854603, 34.055045396 ], [ -88.007827401, 34.054770596 ], [ -88.007910207, 34.054564498 ], [ -88.009258904, 34.054382496 ], [ -88.010829002, 34.053284496 ], [ -88.011379704, 34.0530103 ], [ -88.012040503, 34.052804694 ], [ -88.013362303, 34.052118696 ], [ -88.0159503, 34.051044494 ], [ -88.016583703, 34.050655596 ], [ -88.016611502, 34.050495297 ] ] } }
]
}
