{
"type": "FeatureCollection",
"name": "USGS_02423630_UM_12km",
"crs": { "type": "name", "properties": { "name": "urn:ogc:def:crs:OGC:1.3:CRS84" } },
"features": [
{ "type": "Feature", "properties": { "site_no": "02423630", "nhdplus_comid": "21655740", "navigation_mode": "UM", "requested_distance_km": 12.0, "start_source": "nwissite", "start_id": "USGS-02423630", "geometry_length_km": 0.052956631568853545 }, "geometry": { "type": "LineString", "coordinates": [ [ -86.949113205, 33.3261474 ], [ -86.94916106, 33.325674776 ] ] } },
{ "type": "Feature", "properties": { "site_no": "02423630", "nhdplus_comid": "21655714", "navigation_mode": "UM", "requested_distance_km": 12.0, "start_source": "nwissite", "start_id": "USGS-02423630", "geometry_length_km": 0.028801290740340223 }, "geometry": { "type": "LineString", "coordinates": [ [ -86.949413404, 33.326215997 ], [ -86.949113205, 33.3261474 ] ] } },
{ "type": "Feature", "properties": { "site_no": "02423630", "nhdplus_comid": "21655712", "navigation_mode": "UM", "requested_distance_km": 12.0, "start_source": "nwissite", "start_id": "USGS-02423630", "geometry_length_km": 0.22650521221141953 }, "geometry": { "type": "LineString", "coordinates": [ [ -86.950779401, 33.327772997 ], [ -86.950342603, 33.327612899 ], [ -86.949987002, 33.326719597 ], [ -86.949413404, 33.326215997 ] ] } },
{ "type": "Feature", "properties": { "site_no": "02423630", "nhdplus_comid": "21656524", "navigation_mode": "UM", "requested_distance_km": 12.0, "start_source": "nwissite", "start_id": "USGS-02423630", "geometry_length_km": 0.7862928107328272 }, "geometry": { "type": "LineString", "coordinates": [ [ -86.951438107, 33.331965297 ], [ -86.951655902, 33.331484094 ], [ -86.951518804, 33.330613494 ], [ -86.952228002, 33.330246493 ], [ -86.952391602, 33.330086 ], [ -86.952391401, 33.329833999 ], [ -86.951463103, 33.329330593 ], [ -86.951190002, 33.329307795 ], [ -86.950562604, 33.329560198 ], [ -86.950180501, 33.329583295 ], [ -86.949961901, 33.329400197 ], [ -86.949934401, 33.329033695 ], [ -86.950043306, 33.328667 ], [ -86.950206906, 33.328529499 ], [ -86.9507799, 33.328460298 ], [ -86.950916402, 33.328368694 ], [ -86.950943306, 33.328002095 ], [ -86.950779401, 33.327772997 ] ] } },
{ "type": "Feature", "properties": { "site_no": "02423630", "nhdplus_comid": "21655708", "navigation_mode": "UM", "requested_distance_km": 12.0, "start_source": "nwissite", "start_id": "USGS-02423630", "geometry_length_km": 0.25886365116450916 }, "geometry": { "type": "LineString", "coordinates": [ [ -86.948763601, 33.332287699 ], [ -86.948790804, 33.332218893 ], [ -86.949855, 33.3319204 ], [ -86.950701103, 33.331896998 ], [ -86.951438107, 33.331965297 ] ] } },
{ "type": "Feature", "properties": { "site_no": "02423630", "nhdplus_comid": "21655698", "navigation_mode": "UM", "requested_distance_km": 12.0, "start_source": "nwissite", "start_id": "USGS-02423630", "geometry_length_km": 0.23352036295894915 }, "geometry": { "type": "LineString", "coordinates": [ [ -86.947372802, 33.333754696 ], [ -86.948164001, 33.333273195 ], [ -86.948300205, 33.333089799 ], [ -86.948354304, 33.332379498 ], [ -86.948763601, 33.332287699 ] ] } },
{ "type": "Feature", "properties": { "site_no": "02423630", "nhdplus_comid": "21656522", "navigation_mode": "UM", "requested_distance_km": 12.0, "start_source": "nwissite", "start_id": "USGS-02423630", "geometry_length_km": 0.97104380917903532 }, "geometry": { "type": "LineString", "coordinates": [ [ -86.943281405, 33.337124795 ], [ -86.944154605, 33.336757697 ], [ -86.944345802, 33.336895093 ], [ -86.944646701, 33.337719694 ], [ -86.944892302, 33.337834097 ], [ -86.9452473, 33.337856799 ], [ -86.946093202, 33.337558597 ], [ -86.946420804, 33.337741598 ], [ -86.946693704, 33.337741494 ], [ -86.946993701, 33.337443493 ], [ -86.947020501, 33.336778998 ], [ -86.947211206, 33.336343594 ], [ -86.9472109, 33.335908294 ], [ -86.947019503, 33.335633494 ], [ -86.946992002, 33.335358597 ], [ -86.947101004, 33.335198194 ], [ -86.947946802, 33.334716596 ], [ -86.948028505, 33.334510393 ], [ -86.947291404, 33.334235795 ], [ -86.947236702, 33.334121294 ], [ -86.947372802, 33.333754696 ] ] } },
{ "type": "Feature", "properties": { "site_no": "02423630", "nhdplus_comid": "21656512", "navigation_mode": "UM", "requested_distance_km": 12.0, "start_source": "nwissite", "start_id": "USGS-02423630", "geometry_length_km": 1.1359672703840009 }, "geometry": { "type": "LineString", "coordinates": [ [ -86.939245202, 33.341502897 ], [ -86.939518206, 33.341571495 ], [ -86.939927906, 33.3420524 ], [ -86.940091804, 33.342120998 ], [ -86.9407195, 33.341960296 ], [ -86.941019401, 33.341478996 ], [ -86.941319503, 33.341387197 ], [ -86.941729002, 33.341547295 ], [ -86.942084007, 33.341593094 ], [ -86.942083701, 33.341295198 ], [ -86.941619202, 33.340699799 ], [ -86.941564202, 33.3400812 ], [ -86.941646002, 33.3399437 ], [ -86.941864304, 33.339851893 ], [ -86.942028202, 33.340057999 ], [ -86.9423014, 33.340287 ], [ -86.942601606, 33.340286896 ], [ -86.942901507, 33.339874297 ], [ -86.942928404, 33.339438997 ], [ -86.942791805, 33.339095399 ], [ -86.942218006, 33.338568799 ], [ -86.942163207, 33.338202298 ], [ -86.942244902, 33.338018894 ], [ -86.943282105, 33.337995395 ], [ -86.943445802, 33.337903693 ], [ -86.943445504, 33.3376287 ], [ -86.943281405, 33.337124795 ] ] } },
{ "type": "Feature", "properties": { "site_no": "02423630", "nhdplus_comid": "21655636", "navigation_mode": "UM", "requested_distance_km": 12.0, "start_source": "nwissite", "start_id": "USGS-02423630", "geometry_length_km": 0.045573027943456787 }, "geometry": { "type": "LineString", "coordinates": [ [ -86.938781202, 33.341640495 ], [ -86.939245202, 33.341502897 ] ] } },
{ "type": "Feature", "properties": { "site_no": "02423630", "nhdplus_comid": "21655634", "navigation_mode": "UM", "requested_distance_km": 12.0, "start_source": "nwissite", "start_id": "USGS-02423630", "geometry_length_km": 0.36867569276768519 }, "geometry": { "type": "LineString", "coordinates": [ [ -86.939301603, 33.344114698 ], [ -86.9399563, 33.343541496 ], [ -86.940010801, 33.343312398 ], [ -86.939792201, 33.343083397 ], [ -86.939000405, 33.342763096 ], [ -86.9386454, 33.342465393 ], [ -86.938645005, 33.342075996 ], [ -86.938781202, 33.341640495 ] ] } },
{ "type": "Feature", "properties": { "site_no": "02423630", "nhdplus_comid": "21655624", "navigation_mode": "UM", "requested_distance_km": 12.0, "start_source": "nwissite", "start_id": "USGS-02423630", "geometry_length_km": 0.32343880207028286 }, "geometry": { "type": "LineString", "coordinates": [ [ -86.9417051, 33.345923297 ], [ -86.9411318, 33.345786095 ], [ -86.939629801, 33.344916396 ], [ -86.939356603, 33.344641596 ], [ -86.939301603, 33.344114698 ] ] } },
{ "type": "Feature", "properties": { "site_no": "02423630", "nhdplus_comid": "21655622", "navigation_mode": "UM", "requested_distance_km": 12.0, "start_source": "nwissite", "start_id": "USGS-02423630", "geometry_length_km": 0.19276559180112721 }, "geometry": { "type": "LineString", "coordinates": [ [ -86.942525007, 33.347274594 ], [ -86.941924401, 33.347068697 ], [ -86.941733107, 33.346793897 ], [ -86.9417051, 33.345923297 ] ] } },
{ "type": "Feature", "properties": { "site_no": "02423630", "nhdplus_comid": "21656506", "navigation_mode": "UM", "requested_distance_km": 12.0, "start_source": "nwissite", "start_id": "USGS-02423630", "geometry_length_km": 1.5089329628985131 }, "geometry": { "type": "LineString", "coordinates": [ [ -86.939473003, 33.354447193 ], [ -86.940564506, 33.353759296 ], [ -86.940701, 33.3535759 ], [ -86.940646, 33.353255294 ], [ -86.940236203, 33.352820098 ], [ -86.940235905, 33.352453597 ], [ -86.9405085, 33.352018096 ], [ -86.940426201, 33.351399593 ], [ -86.940671802, 33.351261996 ], [ -86.941272706, 33.351674095 ], [ -86.941464007, 33.351948895 ], [ -86.941709802, 33.352063298 ], [ -86.9419282, 33.352063194 ], [ -86.9422829, 33.351856895 ], [ -86.942828305, 33.3511234 ], [ -86.942855403, 33.350802593 ], [ -86.942636907, 33.350619495 ], [ -86.941708803, 33.350711599 ], [ -86.9412717, 33.350413993 ], [ -86.941271402, 33.349955797 ], [ -86.941407807, 33.349772394 ], [ -86.941626102, 33.349657796 ], [ -86.943454906, 33.3494047 ], [ -86.9437823, 33.349221297 ], [ -86.943782106, 33.348877698 ], [ -86.942580201, 33.347984798 ], [ -86.942525007, 33.347274594 ] ] } },
{ "type": "Feature", "properties": { "site_no": "02423630", "nhdplus_comid": "21656504", "navigation_mode": "UM", "requested_distance_km": 12.0, "start_source": "nwissite", "start_id": "USGS-02423630", "geometry_length_km": 1.4177761550841852 }, "geometry": { "type": "LineString", "coordinates": [ [ -86.930440605, 33.360453993 ], [ -86.930958606, 33.359422795 ], [ -86.931013003, 33.359010398 ], [ -86.931176603, 33.358735293 ], [ -86.931995407, 33.358276799 ], [ -86.932350107, 33.357978798 ], [ -86.932814106, 33.357726596 ], [ -86.933087103, 33.357726395 ], [ -86.933196306, 33.357818 ], [ -86.9331965, 33.358024195 ], [ -86.9329511, 33.358574197 ], [ -86.932951406, 33.358917899 ], [ -86.933142506, 33.3590094 ], [ -86.933497503, 33.359009199 ], [ -86.9338248, 33.358734198 ], [ -86.934315905, 33.358115293 ], [ -86.934479401, 33.357679993 ], [ -86.934725001, 33.357404895 ], [ -86.934916005, 33.357336096 ], [ -86.935407206, 33.357083797 ], [ -86.935761802, 33.356602497 ], [ -86.9361706, 33.355640098 ], [ -86.936579801, 33.355273299 ], [ -86.938081004, 33.3547915 ], [ -86.939473003, 33.354447193 ] ] } },
{ "type": "Feature", "properties": { "site_no": "02423630", "nhdplus_comid": "21656500", "navigation_mode": "UM", "requested_distance_km": 12.0, "start_source": "nwissite", "start_id": "USGS-02423630", "geometry_length_km": 0.22078413244255424 }, "geometry": { "type": "LineString", "coordinates": [ [ -86.928065404, 33.360523798 ], [ -86.928884506, 33.360592097 ], [ -86.930440605, 33.360453993 ] ] } },
{ "type": "Feature", "properties": { "site_no": "02423630", "nhdplus_comid": "21656502", "navigation_mode": "UM", "requested_distance_km": 12.0, "start_source": "nwissite", "start_id": "USGS-02423630", "geometry_length_km": 1.6951629491396352 }, "geometry": { "type": "LineString", "coordinates": [ [ -86.917692907, 33.365155496 ], [ -86.917802103, 33.365155496 ], [ -86.918484107, 33.363849394 ], [ -86.9189208, 33.363642998 ], [ -86.920094602, 33.363367699 ], [ -86.9219511, 33.363114998 ], [ -86.922770105, 33.362885594 ], [ -86.923261307, 33.3623356 ], [ -86.924053006, 33.362243697 ], [ -86.924407803, 33.362037398 ], [ -86.924544007, 33.361487396 ], [ -86.925635606, 33.360593498 ], [ -86.925962202, 33.358874999 ], [ -86.926043801, 33.358348094 ], [ -86.926207505, 33.358096093 ], [ -86.926562205, 33.357843898 ], [ -86.926889904, 33.3578666 ], [ -86.927053705, 33.357958198 ], [ -86.927053906, 33.358439296 ], [ -86.926863201, 33.358943395 ], [ -86.926863603, 33.359630696 ], [ -86.926972806, 33.359813996 ], [ -86.928065404, 33.360523798 ] ] } },
{ "type": "Feature", "properties": { "site_no": "02423630", "nhdplus_comid": "21655576", "navigation_mode": "UM", "requested_distance_km": 12.0, "start_source": "nwissite", "start_id": "USGS-02423630", "geometry_length_km": 0.32805255568602315 }, "geometry": { "type": "LineString", "coordinates": [ [ -86.914989807, 33.365110695 ], [ -86.915508702, 33.365202099 ], [ -86.916246206, 33.365797594 ], [ -86.916601107, 33.365934893 ], [ -86.916983403, 33.365911797 ], [ -86.9173382, 33.365705498 ], [ -86.917665705, 33.365361795 ], [ -86.917692907, 33.365155496 ] ] } },
{ "type": "Feature", "properties": { "site_no": "02423630", "nhdplus_comid": "21655592", "navigation_mode": "UM", "requested_distance_km": 12.0, "start_source": "nwissite", "start_id": "USGS-02423630", "geometry_length_km": 4.5034379888440554 }, "geometry": { "type": "LineString", "coordinates": [ [ -86.888695307, 33.355631195 ], [ -86.8899239, 33.355882995 ], [ -86.8909887, 33.356295295 ], [ -86.892299101, 33.356203496 ], [ -86.8932546, 33.356020093 ], [ -86.893609501, 33.356157497 ], [ -86.893609606, 33.356524095 ], [ -86.892899901, 33.357028194 ], [ -86.892708801, 33.357257299 ], [ -86.892763406, 33.357669696 ], [ -86.894347005, 33.358104795 ], [ -86.894620202, 33.358356796 ], [ -86.894893304, 33.359043993 ], [ -86.895002507, 33.359135695 ], [ -86.895493805, 33.358952299 ], [ -86.895712204, 33.358952299 ], [ -86.8958489, 33.359043799 ], [ -86.895821504, 33.359250098 ], [ -86.8954667, 33.359616697 ], [ -86.894675203, 33.360166699 ], [ -86.892955303, 33.361129194 ], [ -86.892218307, 33.361702099 ], [ -86.892218404, 33.3621374 ], [ -86.892573401, 33.362435095 ], [ -86.893174104, 33.362664096 ], [ -86.894730307, 33.362984695 ], [ -86.894894205, 33.363122098 ], [ -86.894894302, 33.363557398 ], [ -86.8940484, 33.3651613 ], [ -86.8940484, 33.365481995 ], [ -86.894430801, 33.365756795 ], [ -86.894813001, 33.365688093 ], [ -86.895713903, 33.365321398 ], [ -86.896150701, 33.365321293 ], [ -86.896942601, 33.3654586 ], [ -86.899618201, 33.3650916 ], [ -86.900655501, 33.364793494 ], [ -86.9021025, 33.364495397 ], [ -86.903085306, 33.364037 ], [ -86.903931506, 33.363509893 ], [ -86.9052964, 33.362890899 ], [ -86.906197302, 33.362569995 ], [ -86.906770602, 33.3625241 ], [ -86.907398701, 33.362752996 ], [ -86.907808401, 33.363096498 ], [ -86.908518605, 33.3640358 ], [ -86.908846304, 33.364218898 ], [ -86.910948902, 33.364859894 ], [ -86.911494903, 33.364790894 ], [ -86.911631301, 33.364653394 ], [ -86.911795005, 33.364240997 ], [ -86.911986105, 33.364080593 ], [ -86.912504904, 33.364149094 ], [ -86.912532404, 33.364515699 ], [ -86.912314102, 33.364905193 ], [ -86.912341505, 33.365248896 ], [ -86.9125873, 33.365477897 ], [ -86.913024105, 33.365363196 ], [ -86.913215004, 33.364790395 ], [ -86.913679101, 33.364813194 ], [ -86.914334506, 33.365019195 ], [ -86.914989807, 33.365110695 ] ] } }
]
}
