{
"type": "FeatureCollection",
"name": "USGS_02374950_UM_12km",
"crs": { "type": "name", "properties": { "name": "urn:ogc:def:crs:OGC:1.3:CRS84" } },
"features": [
{ "type": "Feature", "properties": { "site_no": "02374950", "nhdplus_comid": "445834", "navigation_mode": "UM", "requested_distance_km": 12.0, "start_source": "nwissite", "start_id": "USGS-02374950", "geometry_length_km": 1.5809529133511808 }, "geometry": { "type": "LineString", "coordinates": [ [ -87.367652602, 31.141785398 ], [ -87.367599301, 31.140685298 ], [ -87.367785804, 31.1399519 ], [ -87.368158907, 31.139218494 ], [ -87.368505307, 31.138805993 ], [ -87.369091503, 31.137637198 ], [ -87.369011603, 31.137201697 ], [ -87.3686653, 31.136812098 ], [ -87.368612006, 31.136582993 ], [ -87.368745305, 31.135666199 ], [ -87.3690916, 31.135024495 ], [ -87.370157406, 31.133878596 ], [ -87.371383004, 31.133053698 ], [ -87.372102305, 31.1323203 ], [ -87.372288801, 31.131449394 ], [ -87.372208901, 31.131265998 ], [ -87.371569507, 31.1308764 ], [ -87.371276401, 31.130326398 ], [ -87.370637007, 31.129707694 ], [ -87.370611983, 31.129660334 ] ] } },
{ "type": "Feature", "properties": { "site_no": "02374950", "nhdplus_comid": "445814", "navigation_mode": "UM", "requested_distance_km": 12.0, "start_source": "nwissite", "start_id": "USGS-02374950", "geometry_length_km": 0.32416611119399419 }, "geometry": { "type": "LineString", "coordinates": [ [ -87.365654007, 31.144099899 ], [ -87.365707301, 31.143916599 ], [ -87.366720006, 31.142564595 ], [ -87.367306203, 31.142151996 ], [ -87.367652602, 31.141785398 ] ] } },
{ "type": "Feature", "properties": { "site_no": "02374950", "nhdplus_comid": "445812", "navigation_mode": "UM", "requested_distance_km": 12.0, "start_source": "nwissite", "start_id": "USGS-02374950", "geometry_length_km": 0.36628059133288277 }, "geometry": { "type": "LineString", "coordinates": [ [ -87.365467206, 31.147033393 ], [ -87.365440607, 31.146872997 ], [ -87.365041003, 31.146483295 ], [ -87.3650143, 31.1459333 ], [ -87.365787201, 31.145062394 ], [ -87.365654007, 31.144099899 ] ] } },
{ "type": "Feature", "properties": { "site_no": "02374950", "nhdplus_comid": "445802", "navigation_mode": "UM", "requested_distance_km": 12.0, "start_source": "nwissite", "start_id": "USGS-02374950", "geometry_length_km": 0.15219031843811825 }, "geometry": { "type": "LineString", "coordinates": [ [ -87.365573801, 31.148316793 ], [ -87.365733705, 31.147812694 ], [ -87.365733705, 31.147468895 ], [ -87.365600504, 31.147147998 ], [ -87.365467206, 31.147033393 ] ] } },
{ "type": "Feature", "properties": { "site_no": "02374950", "nhdplus_comid": "445794", "navigation_mode": "UM", "requested_distance_km": 12.0, "start_source": "nwissite", "start_id": "USGS-02374950", "geometry_length_km": 0.96419592858893455 }, "geometry": { "type": "LineString", "coordinates": [ [ -87.362961605, 31.156269096 ], [ -87.362854905, 31.155833699 ], [ -87.362935007, 31.155260794 ], [ -87.3635213, 31.154275395 ], [ -87.363867901, 31.152923197 ], [ -87.364054501, 31.152671099 ], [ -87.365173802, 31.151708595 ], [ -87.365387, 31.151387796 ], [ -87.365467004, 31.1504253 ], [ -87.3653339, 31.148981497 ], [ -87.365440607, 31.148431398 ], [ -87.365573801, 31.148316793 ] ] } },
{ "type": "Feature", "properties": { "site_no": "02374950", "nhdplus_comid": "445782", "navigation_mode": "UM", "requested_distance_km": 12.0, "start_source": "nwissite", "start_id": "USGS-02374950", "geometry_length_km": 1.3162454803880705 }, "geometry": { "type": "LineString", "coordinates": [ [ -87.363413706, 31.166582294 ], [ -87.363147303, 31.1653677 ], [ -87.362667605, 31.1647259 ], [ -87.361521706, 31.163831994 ], [ -87.361468405, 31.163350694 ], [ -87.362294704, 31.1629612 ], [ -87.362401307, 31.162846595 ], [ -87.362401403, 31.162411198 ], [ -87.362268105, 31.162136197 ], [ -87.361761801, 31.161608897 ], [ -87.361655205, 31.161356896 ], [ -87.362001806, 31.160669297 ], [ -87.362055101, 31.160348497 ], [ -87.361868501, 31.160119295 ], [ -87.361868605, 31.1592943 ], [ -87.362321801, 31.158469297 ], [ -87.362508506, 31.157483794 ], [ -87.362855002, 31.157002494 ], [ -87.362961605, 31.156269096 ] ] } },
{ "type": "Feature", "properties": { "site_no": "02374950", "nhdplus_comid": "445772", "navigation_mode": "UM", "requested_distance_km": 12.0, "start_source": "nwissite", "start_id": "USGS-02374950", "geometry_length_km": 0.38165873529206013 }, "geometry": { "type": "LineString", "coordinates": [ [ -87.3624807, 31.169744894 ], [ -87.362534001, 31.169423997 ], [ -87.363067105, 31.168759495 ], [ -87.363120407, 31.168392897 ], [ -87.362960503, 31.168072 ], [ -87.362960503, 31.167338595 ], [ -87.363413706, 31.166582294 ] ] } },
{ "type": "Feature", "properties": { "site_no": "02374950", "nhdplus_comid": "445760", "navigation_mode": "UM", "requested_distance_km": 12.0, "start_source": "nwissite", "start_id": "USGS-02374950", "geometry_length_km": 0.94920594333786601 }, "geometry": { "type": "LineString", "coordinates": [ [ -87.3620269, 31.175909795 ], [ -87.361787103, 31.175497293 ], [ -87.3617604, 31.175290994 ], [ -87.362160303, 31.174649298 ], [ -87.362266906, 31.173663795 ], [ -87.362187006, 31.173480496 ], [ -87.362000406, 31.173365898 ], [ -87.361254103, 31.173274197 ], [ -87.361041002, 31.1728158 ], [ -87.361120902, 31.172403194 ], [ -87.361520804, 31.1723345 ], [ -87.362267002, 31.172449194 ], [ -87.362480305, 31.172380395 ], [ -87.362587005, 31.171853393 ], [ -87.361947402, 31.171234496 ], [ -87.362240702, 31.170272 ], [ -87.362560503, 31.170019895 ], [ -87.3624807, 31.169744894 ] ] } },
{ "type": "Feature", "properties": { "site_no": "02374950", "nhdplus_comid": "445752", "navigation_mode": "UM", "requested_distance_km": 12.0, "start_source": "nwissite", "start_id": "USGS-02374950", "geometry_length_km": 1.3032477004947225 }, "geometry": { "type": "LineString", "coordinates": [ [ -87.356481306, 31.183586694 ], [ -87.356694706, 31.183518 ], [ -87.356934607, 31.183609694 ], [ -87.357281201, 31.183609694 ], [ -87.357574403, 31.183472194 ], [ -87.357601106, 31.182967998 ], [ -87.358187601, 31.182715997 ], [ -87.358187601, 31.182440996 ], [ -87.357974306, 31.1821201 ], [ -87.357947707, 31.181822099 ], [ -87.358054407, 31.181638896 ], [ -87.358401, 31.181547195 ], [ -87.358987406, 31.181570195 ], [ -87.359333903, 31.181432694 ], [ -87.359333903, 31.181180596 ], [ -87.358561002, 31.180699296 ], [ -87.358561106, 31.180424295 ], [ -87.359174207, 31.179576397 ], [ -87.359174304, 31.178797193 ], [ -87.359494306, 31.178247198 ], [ -87.359787606, 31.178017996 ], [ -87.360267401, 31.177811898 ], [ -87.360427402, 31.177582696 ], [ -87.360400803, 31.176986799 ], [ -87.360614106, 31.176551394 ], [ -87.361040607, 31.176368095 ], [ -87.361680403, 31.176299393 ], [ -87.361946903, 31.176184796 ], [ -87.3620269, 31.175909795 ] ] } },
{ "type": "Feature", "properties": { "site_no": "02374950", "nhdplus_comid": "445740", "navigation_mode": "UM", "requested_distance_km": 12.0, "start_source": "nwissite", "start_id": "USGS-02374950", "geometry_length_km": 0.8329391230268538 }, "geometry": { "type": "LineString", "coordinates": [ [ -87.355094105, 31.190484799 ], [ -87.3552806, 31.190141097 ], [ -87.355334006, 31.189774394 ], [ -87.354854204, 31.189361796 ], [ -87.354934305, 31.188926399 ], [ -87.355307601, 31.1887201 ], [ -87.355574206, 31.188284799 ], [ -87.355947606, 31.187230594 ], [ -87.355841205, 31.186313793 ], [ -87.3561344, 31.185901396 ], [ -87.356134601, 31.1852597 ], [ -87.356481306, 31.183586694 ] ] } },
{ "type": "Feature", "properties": { "site_no": "02374950", "nhdplus_comid": "445732", "navigation_mode": "UM", "requested_distance_km": 12.0, "start_source": "nwissite", "start_id": "USGS-02374950", "geometry_length_km": 0.62513578627747579 }, "geometry": { "type": "LineString", "coordinates": [ [ -87.353093706, 31.194518 ], [ -87.352480903, 31.192982398 ], [ -87.352454305, 31.1925698 ], [ -87.352854304, 31.191721894 ], [ -87.352987707, 31.191240795 ], [ -87.353361003, 31.190874197 ], [ -87.3546407, 31.190874398 ], [ -87.354774103, 31.190805599 ], [ -87.354853906, 31.190576494 ], [ -87.355094105, 31.190484799 ] ] } },
{ "type": "Feature", "properties": { "site_no": "02374950", "nhdplus_comid": "445720", "navigation_mode": "UM", "requested_distance_km": 12.0, "start_source": "nwissite", "start_id": "USGS-02374950", "geometry_length_km": 0.25163824642853849 }, "geometry": { "type": "LineString", "coordinates": [ [ -87.352186903, 31.196626395 ], [ -87.352213502, 31.196442999 ], [ -87.352667004, 31.195732594 ], [ -87.353093706, 31.194518 ] ] } },
{ "type": "Feature", "properties": { "site_no": "02374950", "nhdplus_comid": "445714", "navigation_mode": "UM", "requested_distance_km": 12.0, "start_source": "nwissite", "start_id": "USGS-02374950", "geometry_length_km": 0.18695871153749669 }, "geometry": { "type": "LineString", "coordinates": [ [ -87.352426603, 31.198276393 ], [ -87.352400005, 31.197611794 ], [ -87.352213405, 31.197199196 ], [ -87.352186903, 31.196626395 ] ] } },
{ "type": "Feature", "properties": { "site_no": "02374950", "nhdplus_comid": "445702", "navigation_mode": "UM", "requested_distance_km": 12.0, "start_source": "nwissite", "start_id": "USGS-02374950", "geometry_length_km": 0.73912009168340342 }, "geometry": { "type": "LineString", "coordinates": [ [ -87.348799504, 31.202721998 ], [ -87.349466302, 31.202057399 ], [ -87.349546306, 31.201759495 ], [ -87.349173106, 31.201598994 ], [ -87.348879807, 31.2013698 ], [ -87.349119902, 31.200453095 ], [ -87.349573307, 31.200017795 ], [ -87.349999905, 31.199834399 ], [ -87.3509598, 31.199765898 ], [ -87.351253204, 31.199536793 ], [ -87.351359904, 31.1992388 ], [ -87.351919904, 31.198872194 ], [ -87.352133207, 31.198459797 ], [ -87.352426603, 31.198276393 ] ] } },
{ "type": "Feature", "properties": { "site_no": "02374950", "nhdplus_comid": "445698", "navigation_mode": "UM", "requested_distance_km": 12.0, "start_source": "nwissite", "start_id": "USGS-02374950", "geometry_length_km": 1.1442219932981501 }, "geometry": { "type": "LineString", "coordinates": [ [ -87.345384501, 31.210604995 ], [ -87.345304601, 31.2103986 ], [ -87.344291404, 31.210077599 ], [ -87.343971506, 31.209687896 ], [ -87.343705006, 31.209000297 ], [ -87.343705103, 31.208679497 ], [ -87.3445585, 31.208381698 ], [ -87.345252, 31.207465194 ], [ -87.345412202, 31.206800595 ], [ -87.346879207, 31.204852797 ], [ -87.347305901, 31.204646699 ], [ -87.348292805, 31.203111298 ], [ -87.348799504, 31.202721998 ] ] } },
{ "type": "Feature", "properties": { "site_no": "02374950", "nhdplus_comid": "445688", "navigation_mode": "UM", "requested_distance_km": 12.0, "start_source": "nwissite", "start_id": "USGS-02374950", "geometry_length_km": 1.2908709367360947 }, "geometry": { "type": "LineString", "coordinates": [ [ -87.343701907, 31.2201842 ], [ -87.343835302, 31.219588399 ], [ -87.344395503, 31.219221793 ], [ -87.345035501, 31.219015695 ], [ -87.345328905, 31.218832396 ], [ -87.345435701, 31.218488596 ], [ -87.345382705, 31.217090599 ], [ -87.345196202, 31.216700993 ], [ -87.344849601, 31.216311298 ], [ -87.343383104, 31.215508796 ], [ -87.343303204, 31.2153484 ], [ -87.343490303, 31.214110896 ], [ -87.344210707, 31.212552696 ], [ -87.344504304, 31.211498499 ], [ -87.345384501, 31.210604995 ] ] } }
]
}
