{
"type": "FeatureCollection",
"name": "USGS_02437900_DM_12km",
"crs": { "type": "name", "properties": { "name": "urn:ogc:def:crs:OGC:1.3:CRS84" } },
"features": [
{ "type": "Feature", "properties": { "site_no": "02437900", "nhdplus_comid": "18670160", "navigation_mode": "DM", "requested_distance_km": 12.0, "start_source": "nwissite", "start_id": "USGS-02437900", "geometry_length_km": 3.602861586490604 }, "geometry": { "type": "LineString", "coordinates": [ [ -87.904690965, 34.125785776 ], [ -87.905381605, 34.126146197 ], [ -87.905794807, 34.1262834 ], [ -87.907034405, 34.126603797 ], [ -87.908466704, 34.1268325 ], [ -87.908852302, 34.1267865 ], [ -87.909458004, 34.126122095 ], [ -87.909871005, 34.1258929 ], [ -87.912377, 34.125113294 ], [ -87.913423702, 34.125112996 ], [ -87.915103801, 34.125341497 ], [ -87.915710002, 34.125570394 ], [ -87.916591205, 34.125249393 ], [ -87.916783907, 34.125111796 ], [ -87.916894004, 34.124951497 ], [ -87.916893803, 34.124722399 ], [ -87.916783601, 34.124607995 ], [ -87.9167834, 34.124149896 ], [ -87.917168804, 34.123851895 ], [ -87.917664401, 34.123622693 ], [ -87.9181877, 34.123599596 ], [ -87.918656006, 34.123713896 ], [ -87.918986507, 34.123713799 ], [ -87.919482104, 34.123370096 ], [ -87.920721501, 34.123300798 ], [ -87.9213273, 34.123209 ], [ -87.922263503, 34.122727595 ], [ -87.922483601, 34.122360997 ], [ -87.922483206, 34.121673897 ], [ -87.922868505, 34.121421695 ], [ -87.923446804, 34.121375695 ], [ -87.9238602, 34.121558696 ], [ -87.9243837, 34.121970795 ], [ -87.924824506, 34.122062296 ], [ -87.9260085, 34.121580698 ], [ -87.928101204, 34.120938495 ], [ -87.929065101, 34.120777696 ], [ -87.929643705, 34.121166795 ], [ -87.930222102, 34.121212296 ], [ -87.930910401, 34.120937094 ], [ -87.9314612, 34.120868094 ], [ -87.931791507, 34.120707594 ], [ -87.933222905, 34.119699098 ], [ -87.933938704, 34.119400993 ], [ -87.936499804, 34.119056098 ], [ -87.936913006, 34.119101696 ], [ -87.937298305, 34.118964098 ], [ -87.937518403, 34.1185745 ], [ -87.937545903, 34.118391298 ], [ -87.937710904, 34.118185095 ] ] } },
{ "type": "Feature", "properties": { "site_no": "02437900", "nhdplus_comid": "18670176", "navigation_mode": "DM", "requested_distance_km": 12.0, "start_source": "nwissite", "start_id": "USGS-02437900", "geometry_length_km": 0.5791134161236966 }, "geometry": { "type": "LineString", "coordinates": [ [ -87.937710904, 34.118185095 ], [ -87.937683202, 34.118001796 ], [ -87.937875703, 34.117543593 ], [ -87.937875502, 34.117360294 ], [ -87.940296203, 34.113808595 ], [ -87.940378606, 34.113556698 ] ] } },
{ "type": "Feature", "properties": { "site_no": "02437900", "nhdplus_comid": "18670198", "navigation_mode": "DM", "requested_distance_km": 12.0, "start_source": "nwissite", "start_id": "USGS-02437900", "geometry_length_km": 1.5279549257731182 }, "geometry": { "type": "LineString", "coordinates": [ [ -87.940378606, 34.113556698 ], [ -87.940516107, 34.113442093 ], [ -87.940901205, 34.112800494 ], [ -87.941093706, 34.112617195 ], [ -87.941093706, 34.112525493 ], [ -87.941313803, 34.112319194 ], [ -87.941973805, 34.111150697 ], [ -87.942055404, 34.109959595 ], [ -87.942358002, 34.109524198 ], [ -87.942936003, 34.109157294 ], [ -87.943486705, 34.109134197 ], [ -87.943596907, 34.109248593 ], [ -87.943844803, 34.109248497 ], [ -87.944119707, 34.108790196 ], [ -87.944560304, 34.108766995 ], [ -87.945028804, 34.1090874 ], [ -87.945359305, 34.109178796 ], [ -87.945772402, 34.109178595 ], [ -87.946157701, 34.108995095 ], [ -87.946487904, 34.108719997 ], [ -87.947121203, 34.108650893 ], [ -87.9476998, 34.108879693 ], [ -87.947892904, 34.109383494 ], [ -87.948168501, 34.109635197 ], [ -87.948746704, 34.109497495 ], [ -87.948967107, 34.109680593 ], [ -87.949077502, 34.1099554 ], [ -87.949325405, 34.110046797 ], [ -87.950537205, 34.110068999 ], [ -87.951583304, 34.109839194 ] ] } },
{ "type": "Feature", "properties": { "site_no": "02437900", "nhdplus_comid": "18670188", "navigation_mode": "DM", "requested_distance_km": 12.0, "start_source": "nwissite", "start_id": "USGS-02437900", "geometry_length_km": 0.018092183325561385 }, "geometry": { "type": "LineString", "coordinates": [ [ -87.951583304, 34.109839194 ], [ -87.951610707, 34.109678894 ] ] } },
{ "type": "Feature", "properties": { "site_no": "02437900", "nhdplus_comid": "18670194", "navigation_mode": "DM", "requested_distance_km": 12.0, "start_source": "nwissite", "start_id": "USGS-02437900", "geometry_length_km": 0.16919905103315178 }, "geometry": { "type": "LineString", "coordinates": [ [ -87.951610707, 34.109678894 ], [ -87.952298902, 34.109357797 ], [ -87.952849701, 34.109426096 ], [ -87.953345306, 34.109379999 ] ] } },
{ "type": "Feature", "properties": { "site_no": "02437900", "nhdplus_comid": "18670226", "navigation_mode": "DM", "requested_distance_km": 12.0, "start_source": "nwissite", "start_id": "USGS-02437900", "geometry_length_km": 2.6775869861798558 }, "geometry": { "type": "LineString", "coordinates": [ [ -87.953345306, 34.109379999 ], [ -87.953620404, 34.109059095 ], [ -87.954198502, 34.108921394 ], [ -87.955519706, 34.108301997 ], [ -87.956290707, 34.108209893 ], [ -87.957117006, 34.108484298 ], [ -87.958301, 34.108323097 ], [ -87.958769307, 34.108460195 ], [ -87.959319904, 34.1083223 ], [ -87.959898204, 34.108390696 ], [ -87.9603936, 34.108069599 ], [ -87.960944206, 34.107977599 ], [ -87.961439706, 34.1077253 ], [ -87.962100305, 34.107541598 ], [ -87.962347806, 34.107243598 ], [ -87.962182105, 34.106739797 ], [ -87.962374605, 34.106533594 ], [ -87.963282906, 34.106189199 ], [ -87.964549504, 34.106142499 ], [ -87.964962505, 34.106050596 ], [ -87.9676871, 34.104628399 ], [ -87.970494404, 34.103480898 ], [ -87.971953206, 34.103044495 ], [ -87.972585306, 34.102081999 ], [ -87.972888, 34.101829797 ], [ -87.973493502, 34.101668999 ], [ -87.973769002, 34.101829097 ], [ -87.973907307, 34.102286994 ], [ -87.974375606, 34.102446996 ], [ -87.9749538, 34.102400698 ], [ -87.975119002, 34.102492198 ], [ -87.975147307, 34.102950297 ], [ -87.975340106, 34.1031105 ], [ -87.975753203, 34.103110097 ], [ -87.976083204, 34.102812 ], [ -87.976523601, 34.102651298 ], [ -87.977322102, 34.102627799 ] ] } },
{ "type": "Feature", "properties": { "site_no": "02437900", "nhdplus_comid": "18670222", "navigation_mode": "DM", "requested_distance_km": 12.0, "start_source": "nwissite", "start_id": "USGS-02437900", "geometry_length_km": 0.10898321651538914 }, "geometry": { "type": "LineString", "coordinates": [ [ -87.977322102, 34.102627799 ], [ -87.978340305, 34.102123 ] ] } },
{ "type": "Feature", "properties": { "site_no": "02437900", "nhdplus_comid": "18670234", "navigation_mode": "DM", "requested_distance_km": 12.0, "start_source": "nwissite", "start_id": "USGS-02437900", "geometry_length_km": 0.94680919560160259 }, "geometry": { "type": "LineString", "coordinates": [ [ -87.978340305, 34.102123 ], [ -87.977898605, 34.101275794 ], [ -87.977897801, 34.100634493 ], [ -87.9780626, 34.100313693 ], [ -87.978502706, 34.099946797 ], [ -87.978888005, 34.0997862 ], [ -87.979796603, 34.099785298 ], [ -87.980457604, 34.099945098 ], [ -87.981890306, 34.1005852 ], [ -87.982579201, 34.101042695 ], [ -87.983378805, 34.101775095 ], [ -87.983736902, 34.101935096 ], [ -87.984921202, 34.102185994 ] ] } },
{ "type": "Feature", "properties": { "site_no": "02437900", "nhdplus_comid": "18670534", "navigation_mode": "DM", "requested_distance_km": 12.0, "start_source": "nwissite", "start_id": "USGS-02437900", "geometry_length_km": 1.7311232592736781 }, "geometry": { "type": "LineString", "coordinates": [ [ -87.984921202, 34.102185994 ], [ -87.985995702, 34.102665894 ], [ -87.986547105, 34.103123598 ], [ -87.9880374, 34.105618894 ], [ -87.988809504, 34.1063741 ], [ -87.990104705, 34.107037097 ], [ -87.991068304, 34.107013494 ], [ -87.993986405, 34.1063933 ], [ -87.9959139, 34.106392398 ], [ -87.997758403, 34.106093593 ], [ -87.998253606, 34.1057266 ], [ -87.998280905, 34.105634995 ], [ -87.998831205, 34.105359599 ], [ -87.999601305, 34.104717493 ], [ -88.000032306, 34.104579598 ] ] } }
]
}
