{
"type": "FeatureCollection",
"name": "USGS_02405500_DM_12km",
"crs": { "type": "name", "properties": { "name": "urn:ogc:def:crs:OGC:1.3:CRS84" } },
"features": [
{ "type": "Feature", "properties": { "site_no": "02405500", "nhdplus_comid": "22206103", "navigation_mode": "DM", "requested_distance_km": 12.0, "start_source": "nwissite", "start_id": "USGS-02405500", "geometry_length_km": 0.59358551312995489 }, "geometry": { "type": "LineString", "coordinates": [ [ -86.386779065, 33.447540602 ], [ -86.384842806, 33.446902394 ], [ -86.383148402, 33.446009099 ], [ -86.382328607, 33.445757098 ], [ -86.380907506, 33.445482299 ] ] } },
{ "type": "Feature", "properties": { "site_no": "02405500", "nhdplus_comid": "22206115", "navigation_mode": "DM", "requested_distance_km": 12.0, "start_source": "nwissite", "start_id": "USGS-02405500", "geometry_length_km": 2.3070449198238001 }, "geometry": { "type": "LineString", "coordinates": [ [ -86.380907506, 33.445482299 ], [ -86.380607001, 33.445665598 ], [ -86.380224407, 33.446306996 ], [ -86.3798692, 33.4466049 ], [ -86.379213303, 33.446719393 ], [ -86.377355002, 33.446100898 ], [ -86.374977507, 33.444909595 ], [ -86.373119406, 33.443260096 ], [ -86.372600205, 33.443191297 ], [ -86.372299604, 33.443259999 ], [ -86.371917002, 33.443649396 ], [ -86.370277002, 33.447887599 ], [ -86.369675703, 33.448826797 ], [ -86.3689925, 33.449559793 ], [ -86.368172504, 33.450109497 ], [ -86.366013505, 33.450452998 ], [ -86.363717705, 33.451185897 ], [ -86.363690406, 33.451277494 ] ] } },
{ "type": "Feature", "properties": { "site_no": "02405500", "nhdplus_comid": "22206125", "navigation_mode": "DM", "requested_distance_km": 12.0, "start_source": "nwissite", "start_id": "USGS-02405500", "geometry_length_km": 1.9855521169695884 }, "geometry": { "type": "LineString", "coordinates": [ [ -86.363690406, 33.451277494 ], [ -86.363444507, 33.451254599 ], [ -86.362351201, 33.451552294 ], [ -86.361640602, 33.451620899 ], [ -86.361230806, 33.451460496 ], [ -86.360383704, 33.450795993 ], [ -86.359645806, 33.450452194 ], [ -86.359017402, 33.449993894 ], [ -86.358771503, 33.449489899 ], [ -86.3587991, 33.448344499 ], [ -86.358881205, 33.448184095 ], [ -86.358881205, 33.447794594 ], [ -86.359045304, 33.447198994 ], [ -86.359182306, 33.446099393 ], [ -86.359182805, 33.443281598 ], [ -86.359046407, 33.442136094 ], [ -86.358609602, 33.439982697 ], [ -86.358309105, 33.439616099 ], [ -86.357953906, 33.439455695 ], [ -86.356942907, 33.439363897 ], [ -86.356287204, 33.439065896 ], [ -86.355576903, 33.438332699 ] ] } },
{ "type": "Feature", "properties": { "site_no": "02405500", "nhdplus_comid": "22206243", "navigation_mode": "DM", "requested_distance_km": 12.0, "start_source": "nwissite", "start_id": "USGS-02405500", "geometry_length_km": 2.6226150878767522 }, "geometry": { "type": "LineString", "coordinates": [ [ -86.355576903, 33.438332699 ], [ -86.355495006, 33.438011996 ], [ -86.354948707, 33.437232897 ], [ -86.354266003, 33.435560398 ], [ -86.354102202, 33.435354196 ], [ -86.354156807, 33.435239695 ], [ -86.353392102, 33.433590099 ], [ -86.353119202, 33.4325362 ], [ -86.353010401, 33.430932499 ], [ -86.353338607, 33.429420598 ], [ -86.353639401, 33.428664595 ], [ -86.353995204, 33.426786199 ], [ -86.354132406, 33.424380697 ], [ -86.354050606, 33.423739299 ], [ -86.353941403, 33.423693493 ], [ -86.353641905, 33.419638395 ], [ -86.353614904, 33.418355495 ], [ -86.353833601, 33.417920299 ], [ -86.354188703, 33.417645395 ], [ -86.355964601, 33.416683495 ], [ -86.3563198, 33.416591994 ] ] } },
{ "type": "Feature", "properties": { "site_no": "02405500", "nhdplus_comid": "22206265", "navigation_mode": "DM", "requested_distance_km": 12.0, "start_source": "nwissite", "start_id": "USGS-02405500", "geometry_length_km": 0.82590838137534506 }, "geometry": { "type": "LineString", "coordinates": [ [ -86.3563198, 33.416591994 ], [ -86.356347203, 33.416477397 ], [ -86.3576314, 33.415240593 ], [ -86.358587906, 33.413889095 ], [ -86.359708101, 33.412789598 ], [ -86.360036001, 33.412125297 ], [ -86.360555403, 33.4102467 ] ] } },
{ "type": "Feature", "properties": { "site_no": "02405500", "nhdplus_comid": "22206285", "navigation_mode": "DM", "requested_distance_km": 12.0, "start_source": "nwissite", "start_id": "USGS-02405500", "geometry_length_km": 0.24153578309189624 }, "geometry": { "type": "LineString", "coordinates": [ [ -86.360555403, 33.4102467 ], [ -86.360310003, 33.408093296 ] ] } },
{ "type": "Feature", "properties": { "site_no": "02405500", "nhdplus_comid": "22206713", "navigation_mode": "DM", "requested_distance_km": 12.0, "start_source": "nwissite", "start_id": "USGS-02405500", "geometry_length_km": 0.072862995407679113 }, "geometry": { "type": "LineString", "coordinates": [ [ -86.360310003, 33.408093296 ], [ -86.3602833, 33.407998599 ], [ -86.360357806, 33.407874197 ], [ -86.360432506, 33.407749899 ], [ -86.360507101, 33.407625593 ], [ -86.3605818, 33.407501295 ] ] } },
{ "type": "Feature", "properties": { "site_no": "02405500", "nhdplus_comid": "22206741", "navigation_mode": "DM", "requested_distance_km": 12.0, "start_source": "nwissite", "start_id": "USGS-02405500", "geometry_length_km": 2.5768413051774428 }, "geometry": { "type": "LineString", "coordinates": [ [ -86.3605818, 33.407501295 ], [ -86.361080006, 33.4071652 ], [ -86.361532301, 33.407203294 ], [ -86.363116503, 33.406706594 ], [ -86.365411103, 33.405387498 ], [ -86.366647705, 33.4052395 ], [ -86.372294307, 33.401429996 ], [ -86.373004504, 33.400607593 ], [ -86.373806603, 33.399036899 ], [ -86.374246001, 33.397939697 ], [ -86.374460503, 33.3961934 ], [ -86.375382602, 33.394884795 ], [ -86.377285704, 33.393028498 ], [ -86.377875701, 33.391943999 ], [ -86.378389105, 33.391483098 ] ] } }
]
}
