{
"type": "FeatureCollection",
"name": "USGS_02410000_UM_12km",
"crs": { "type": "name", "properties": { "name": "urn:ogc:def:crs:OGC:1.3:CRS84" } },
"features": [
{ "type": "Feature", "properties": { "site_no": "02410000", "nhdplus_comid": "22275908", "navigation_mode": "UM", "requested_distance_km": 12.0, "start_source": "nwissite", "start_id": "USGS-02410000", "geometry_length_km": 1.8613790318514545 }, "geometry": { "type": "LineString", "coordinates": [ [ -86.116348304, 32.693515398 ], [ -86.1169715, 32.693492599 ], [ -86.120656505, 32.6927597 ], [ -86.121686101, 32.692461997 ], [ -86.122878402, 32.691385299 ], [ -86.124043502, 32.690514699 ], [ -86.124368705, 32.6901481 ], [ -86.124693707, 32.689552493 ], [ -86.124666706, 32.6889567 ], [ -86.124991901, 32.687604994 ], [ -86.125100307, 32.686734393 ], [ -86.125831902, 32.684168294 ], [ -86.1262113, 32.683274694 ], [ -86.12764668, 32.681975678 ] ] } },
{ "type": "Feature", "properties": { "site_no": "02410000", "nhdplus_comid": "22275822", "navigation_mode": "UM", "requested_distance_km": 12.0, "start_source": "nwissite", "start_id": "USGS-02410000", "geometry_length_km": 2.5173844058813013 }, "geometry": { "type": "LineString", "coordinates": [ [ -86.107835807, 32.713492699 ], [ -86.107564904, 32.713126093 ], [ -86.107348301, 32.712255396 ], [ -86.107321404, 32.711705498 ], [ -86.107429907, 32.711018197 ], [ -86.108297504, 32.709620796 ], [ -86.111089401, 32.706344999 ], [ -86.111469001, 32.705749296 ], [ -86.1121196, 32.704420596 ], [ -86.112174004, 32.703160398 ], [ -86.112282403, 32.702793896 ], [ -86.1137188, 32.7010758 ], [ -86.114396401, 32.700090699 ], [ -86.114532106, 32.698532693 ], [ -86.114721902, 32.697937094 ], [ -86.114938803, 32.697570495 ], [ -86.114965901, 32.697135195 ], [ -86.114695102, 32.696722798 ], [ -86.114559703, 32.696379095 ], [ -86.114532605, 32.695737593 ], [ -86.114641204, 32.695118994 ], [ -86.114939407, 32.694271393 ], [ -86.115372904, 32.693973497 ], [ -86.116104506, 32.6937216 ], [ -86.116348304, 32.693515398 ] ] } }
]
}
