{
"type": "FeatureCollection",
"name": "USGS_02373000_UM_12km",
"crs": { "type": "name", "properties": { "name": "urn:ogc:def:crs:OGC:1.3:CRS84" } },
"features": [
{ "type": "Feature", "properties": { "site_no": "02373000", "nhdplus_comid": "2402121", "navigation_mode": "UM", "requested_distance_km": 12.0, "start_source": "nwissite", "start_id": "USGS-02373000", "geometry_length_km": 3.5569805362106468 }, "geometry": { "type": "LineString", "coordinates": [ [ -86.791792102, 31.465794697 ], [ -86.791792601, 31.465152994 ], [ -86.791498803, 31.464786097 ], [ -86.790911101, 31.464350298 ], [ -86.788746007, 31.463569693 ], [ -86.787836902, 31.463569097 ], [ -86.786767207, 31.463934995 ], [ -86.783772007, 31.4646203 ], [ -86.7827022, 31.465009198 ], [ -86.782193907, 31.465375498 ], [ -86.781632304, 31.465535499 ], [ -86.781258002, 31.465420596 ], [ -86.780777104, 31.4650307 ], [ -86.7803232, 31.464411594 ], [ -86.779548801, 31.463402696 ], [ -86.779175103, 31.462806597 ], [ -86.778854601, 31.462508298 ], [ -86.775889605, 31.459870599 ], [ -86.775382303, 31.459182695 ], [ -86.775383003, 31.458540998 ], [ -86.775570504, 31.458289094 ], [ -86.775891505, 31.458060093 ], [ -86.7764263, 31.457968898 ], [ -86.776800402, 31.458083697 ], [ -86.777949505, 31.458680496 ], [ -86.779499702, 31.458979599 ], [ -86.780275106, 31.458980195 ], [ -86.782227203, 31.458523296 ], [ -86.783805303, 31.457791097 ], [ -86.784928702, 31.457195997 ], [ -86.786079004, 31.456371799 ], [ -86.786346607, 31.456074096 ], [ -86.786775202, 31.455203496 ], [ -86.786909506, 31.454538994 ], [ -86.786909955, 31.454066756 ] ] } },
{ "type": "Feature", "properties": { "site_no": "02373000", "nhdplus_comid": "2402061", "navigation_mode": "UM", "requested_distance_km": 12.0, "start_source": "nwissite", "start_id": "USGS-02373000", "geometry_length_km": 2.1707985186014453 }, "geometry": { "type": "LineString", "coordinates": [ [ -86.797419406, 31.483467594 ], [ -86.797767706, 31.482596897 ], [ -86.797795005, 31.481771894 ], [ -86.797635205, 31.481152996 ], [ -86.797448203, 31.480854899 ], [ -86.797021404, 31.479525499 ], [ -86.797021605, 31.479250498 ], [ -86.796834901, 31.478654593 ], [ -86.796407707, 31.477898099 ], [ -86.796060406, 31.477553993 ], [ -86.795846507, 31.477462299 ], [ -86.794243202, 31.476200797 ], [ -86.793896005, 31.475627698 ], [ -86.793655805, 31.474985793 ], [ -86.793336801, 31.472831398 ], [ -86.793605104, 31.471891999 ], [ -86.793685704, 31.4712274 ], [ -86.793499, 31.470745996 ], [ -86.7928048, 31.469668299 ], [ -86.791602805, 31.468246698 ], [ -86.791389205, 31.467856899 ], [ -86.791336402, 31.467077695 ], [ -86.791792102, 31.465794697 ] ] } },
{ "type": "Feature", "properties": { "site_no": "02373000", "nhdplus_comid": "2402003", "navigation_mode": "UM", "requested_distance_km": 12.0, "start_source": "nwissite", "start_id": "USGS-02373000", "geometry_length_km": 1.43080733410612 }, "geometry": { "type": "LineString", "coordinates": [ [ -86.798265301, 31.495705798 ], [ -86.797650807, 31.494765796 ], [ -86.797251001, 31.493161395 ], [ -86.796636403, 31.492588095 ], [ -86.796556406, 31.492335893 ], [ -86.796503402, 31.491762996 ], [ -86.796851702, 31.490777798 ], [ -86.797281206, 31.488967493 ], [ -86.797603607, 31.4871573 ], [ -86.797523506, 31.487065598 ], [ -86.797630504, 31.486836493 ], [ -86.797818206, 31.486332394 ], [ -86.797818802, 31.485484399 ], [ -86.797712103, 31.485117793 ], [ -86.797632001, 31.485071793 ], [ -86.797445402, 31.484407097 ], [ -86.797419406, 31.483467594 ] ] } },
{ "type": "Feature", "properties": { "site_no": "02373000", "nhdplus_comid": "2401973", "navigation_mode": "UM", "requested_distance_km": 12.0, "start_source": "nwissite", "start_id": "USGS-02373000", "geometry_length_km": 0.83255749844834859 }, "geometry": { "type": "LineString", "coordinates": [ [ -86.805567801, 31.494357899 ], [ -86.804845601, 31.494426295 ], [ -86.804283902, 31.494655095 ], [ -86.803614706, 31.495319299 ], [ -86.802811503, 31.496464796 ], [ -86.802089207, 31.496670596 ], [ -86.800751902, 31.496646896 ], [ -86.799468301, 31.496348195 ], [ -86.798265301, 31.495705798 ] ] } },
{ "type": "Feature", "properties": { "site_no": "02373000", "nhdplus_comid": "2401975", "navigation_mode": "UM", "requested_distance_km": 12.0, "start_source": "nwissite", "start_id": "USGS-02373000", "geometry_length_km": 0.6882244322008656 }, "geometry": { "type": "LineString", "coordinates": [ [ -86.805805005, 31.500180393 ], [ -86.806287304, 31.498872995 ], [ -86.806555405, 31.4976127 ], [ -86.8065565, 31.495848097 ], [ -86.806316301, 31.495091699 ], [ -86.805968903, 31.494633198 ], [ -86.805567801, 31.494357899 ] ] } },
{ "type": "Feature", "properties": { "site_no": "02373000", "nhdplus_comid": "2400975", "navigation_mode": "UM", "requested_distance_km": 12.0, "start_source": "nwissite", "start_id": "USGS-02373000", "geometry_length_km": 1.7099092049824691 }, "geometry": { "type": "LineString", "coordinates": [ [ -86.809489906, 31.510321796 ], [ -86.809382707, 31.510642596 ], [ -86.809114903, 31.510986194 ], [ -86.808820501, 31.511192299 ], [ -86.808312103, 31.511375293 ], [ -86.8079108, 31.511398099 ], [ -86.806493402, 31.511030599 ], [ -86.805664502, 31.5105718 ], [ -86.805103101, 31.509952798 ], [ -86.804702304, 31.5093567 ], [ -86.804676004, 31.508737996 ], [ -86.804997705, 31.507638097 ], [ -86.804998204, 31.507019296 ], [ -86.804837905, 31.506675497 ], [ -86.803929001, 31.505689599 ], [ -86.803715207, 31.505299799 ], [ -86.803715803, 31.504566498 ], [ -86.804090902, 31.503374994 ], [ -86.805215403, 31.501588099 ], [ -86.805805005, 31.500180393 ] ] } },
{ "type": "Feature", "properties": { "site_no": "02373000", "nhdplus_comid": "2400935", "navigation_mode": "UM", "requested_distance_km": 12.0, "start_source": "nwissite", "start_id": "USGS-02373000", "geometry_length_km": 0.92271288532064444 }, "geometry": { "type": "LineString", "coordinates": [ [ -86.813560002, 31.503746599 ], [ -86.812891401, 31.5034483 ], [ -86.812463403, 31.503585599 ], [ -86.8103211, 31.5072513 ], [ -86.810106806, 31.507846996 ], [ -86.809865206, 31.509038597 ], [ -86.809543602, 31.509794697 ], [ -86.809489906, 31.510321796 ] ] } },
{ "type": "Feature", "properties": { "site_no": "02373000", "nhdplus_comid": "2400933", "navigation_mode": "UM", "requested_distance_km": 12.0, "start_source": "nwissite", "start_id": "USGS-02373000", "geometry_length_km": 2.2249996584100447 }, "geometry": { "type": "LineString", "coordinates": [ [ -86.825911403, 31.5160814 ], [ -86.8247879, 31.515874699 ], [ -86.824467003, 31.515691295 ], [ -86.824039206, 31.5152786 ], [ -86.823718406, 31.514705598 ], [ -86.823692106, 31.514017999 ], [ -86.823959805, 31.513468094 ], [ -86.824013606, 31.5129181 ], [ -86.823826507, 31.512688793 ], [ -86.823345102, 31.512459494 ], [ -86.822141401, 31.512183994 ], [ -86.821900904, 31.511977598 ], [ -86.821794204, 31.511335894 ], [ -86.822169006, 31.510923497 ], [ -86.822169207, 31.510556899 ], [ -86.821955301, 31.510327697 ], [ -86.821687803, 31.510190099 ], [ -86.820430502, 31.510281093 ], [ -86.819815502, 31.5099601 ], [ -86.8195749, 31.509661995 ], [ -86.819548301, 31.509341195 ], [ -86.819789305, 31.508882895 ], [ -86.819816202, 31.508584999 ], [ -86.819709405, 31.508287095 ], [ -86.819121405, 31.507438794 ], [ -86.819121607, 31.507072195 ], [ -86.819416001, 31.506774396 ], [ -86.819416307, 31.506247297 ], [ -86.819122307, 31.505972095 ], [ -86.818480402, 31.5056739 ], [ -86.817116506, 31.505306594 ], [ -86.816153802, 31.504916497 ], [ -86.815164201, 31.504686899 ], [ -86.814201504, 31.504319794 ], [ -86.8135866, 31.503929898 ], [ -86.813560002, 31.503746599 ] ] } }
]
}
