{
"type": "FeatureCollection",
"name": "USGS_02364500_UM_12km",
"crs": { "type": "name", "properties": { "name": "urn:ogc:def:crs:OGC:1.3:CRS84" } },
"features": [
{ "type": "Feature", "properties": { "site_no": "02364500", "nhdplus_comid": "2214110", "navigation_mode": "UM", "requested_distance_km": 12.0, "start_source": "nwissite", "start_id": "USGS-02364500", "geometry_length_km": 0.28254957956702093 }, "geometry": { "type": "LineString", "coordinates": [ [ -86.097109303, 31.114531495 ], [ -86.0971893, 31.1143253 ], [ -86.097455703, 31.114050299 ], [ -86.098681204, 31.113408998 ], [ -86.099054307, 31.112813197 ], [ -86.099058539, 31.112751482 ] ] } },
{ "type": "Feature", "properties": { "site_no": "02364500", "nhdplus_comid": "2214062", "navigation_mode": "UM", "requested_distance_km": 12.0, "start_source": "nwissite", "start_id": "USGS-02364500", "geometry_length_km": 0.44329433538306484 }, "geometry": { "type": "LineString", "coordinates": [ [ -86.098386705, 31.11829 ], [ -86.097428404, 31.116456397 ], [ -86.097348601, 31.116089799 ], [ -86.097242005, 31.115998097 ], [ -86.097109102, 31.115218997 ], [ -86.097109303, 31.114531495 ] ] } },
{ "type": "Feature", "properties": { "site_no": "02364500", "nhdplus_comid": "2214038", "navigation_mode": "UM", "requested_distance_km": 12.0, "start_source": "nwissite", "start_id": "USGS-02364500", "geometry_length_km": 0.3654726524821838 }, "geometry": { "type": "LineString", "coordinates": [ [ -86.099158302, 31.121498495 ], [ -86.098785706, 31.120444193 ], [ -86.098759204, 31.120008796 ], [ -86.098466501, 31.118725494 ], [ -86.098386705, 31.11829 ] ] } },
{ "type": "Feature", "properties": { "site_no": "02364500", "nhdplus_comid": "2214026", "navigation_mode": "UM", "requested_distance_km": 12.0, "start_source": "nwissite", "start_id": "USGS-02364500", "geometry_length_km": 1.4288608138728431 }, "geometry": { "type": "LineString", "coordinates": [ [ -86.1005935, 31.133025698 ], [ -86.100620501, 31.132040396 ], [ -86.1009937, 31.131261297 ], [ -86.102219507, 31.129886597 ], [ -86.102725901, 31.128947094 ], [ -86.102752902, 31.127778299 ], [ -86.1024867, 31.126403295 ], [ -86.101847805, 31.125165693 ], [ -86.100782506, 31.123996697 ], [ -86.099158302, 31.121498495 ] ] } },
{ "type": "Feature", "properties": { "site_no": "02364500", "nhdplus_comid": "2214006", "navigation_mode": "UM", "requested_distance_km": 12.0, "start_source": "nwissite", "start_id": "USGS-02364500", "geometry_length_km": 0.31285880909417607 }, "geometry": { "type": "LineString", "coordinates": [ [ -86.100566305, 31.135340296 ], [ -86.1012858, 31.134859197 ], [ -86.1013925, 31.134492598 ], [ -86.101099603, 31.134011298 ], [ -86.101099603, 31.133873694 ], [ -86.100673504, 31.133048594 ], [ -86.1005935, 31.133025698 ] ] } },
{ "type": "Feature", "properties": { "site_no": "02364500", "nhdplus_comid": "2214000", "navigation_mode": "UM", "requested_distance_km": 12.0, "start_source": "nwissite", "start_id": "USGS-02364500", "geometry_length_km": 1.1282023440824036 }, "geometry": { "type": "LineString", "coordinates": [ [ -86.096088603, 31.141068295 ], [ -86.096568204, 31.1410226 ], [ -86.097207703, 31.141206093 ], [ -86.097660601, 31.141229197 ], [ -86.098539904, 31.141091898 ], [ -86.099179402, 31.140794098 ], [ -86.099659204, 31.140312999 ], [ -86.099712506, 31.1399692 ], [ -86.099552706, 31.139671296 ], [ -86.098487601, 31.137814797 ], [ -86.098248005, 31.137150198 ], [ -86.098061703, 31.136393897 ], [ -86.098381601, 31.135866895 ], [ -86.098674707, 31.135752298 ], [ -86.100566305, 31.135340296 ] ] } },
{ "type": "Feature", "properties": { "site_no": "02364500", "nhdplus_comid": "2213994", "navigation_mode": "UM", "requested_distance_km": 12.0, "start_source": "nwissite", "start_id": "USGS-02364500", "geometry_length_km": 3.0350608872372846 }, "geometry": { "type": "LineString", "coordinates": [ [ -86.095284507, 31.155711696 ], [ -86.094885103, 31.154932395 ], [ -86.094778605, 31.154542796 ], [ -86.094885506, 31.1533053 ], [ -86.0956323, 31.151495099 ], [ -86.095472507, 31.151220098 ], [ -86.095232703, 31.151059598 ], [ -86.093207702, 31.151081994 ], [ -86.092674702, 31.151013099 ], [ -86.091928907, 31.150348395 ], [ -86.091822602, 31.149637893 ], [ -86.091929205, 31.149317093 ], [ -86.092169106, 31.149042293 ], [ -86.093102001, 31.148377895 ], [ -86.094914101, 31.147805497 ], [ -86.096459605, 31.147759899 ], [ -86.1007227, 31.148127697 ], [ -86.1014155, 31.148081996 ], [ -86.101735301, 31.147829995 ], [ -86.101655506, 31.147279896 ], [ -86.100456804, 31.146133795 ], [ -86.100030504, 31.145973295 ], [ -86.099018201, 31.145766795 ], [ -86.097499505, 31.144941598 ], [ -86.096913502, 31.144528896 ], [ -86.096487604, 31.143451795 ], [ -86.096487701, 31.143176794 ], [ -86.096407801, 31.143130898 ], [ -86.096115001, 31.1421225 ], [ -86.096008606, 31.141366199 ], [ -86.096088603, 31.141068295 ] ] } },
{ "type": "Feature", "properties": { "site_no": "02364500", "nhdplus_comid": "2213964", "navigation_mode": "UM", "requested_distance_km": 12.0, "start_source": "nwissite", "start_id": "USGS-02364500", "geometry_length_km": 0.081083805932798236 }, "geometry": { "type": "LineString", "coordinates": [ [ -86.095897302, 31.1561931 ], [ -86.095710807, 31.156101398 ], [ -86.095497705, 31.155826293 ], [ -86.095284507, 31.155711696 ] ] } },
{ "type": "Feature", "properties": { "site_no": "02364500", "nhdplus_comid": "2213960", "navigation_mode": "UM", "requested_distance_km": 12.0, "start_source": "nwissite", "start_id": "USGS-02364500", "geometry_length_km": 0.1543405594476906 }, "geometry": { "type": "LineString", "coordinates": [ [ -86.096003301, 31.157568097 ], [ -86.096030302, 31.156720094 ], [ -86.095897302, 31.1561931 ] ] } },
{ "type": "Feature", "properties": { "site_no": "02364500", "nhdplus_comid": "2213952", "navigation_mode": "UM", "requested_distance_km": 12.0, "start_source": "nwissite", "start_id": "USGS-02364500", "geometry_length_km": 0.5308086773944628 }, "geometry": { "type": "LineString", "coordinates": [ [ -86.094589405, 31.162150994 ], [ -86.094696105, 31.161944799 ], [ -86.094803005, 31.161119796 ], [ -86.095363006, 31.159951195 ], [ -86.095896401, 31.158392996 ], [ -86.096003301, 31.157568097 ] ] } },
{ "type": "Feature", "properties": { "site_no": "02364500", "nhdplus_comid": "2213944", "navigation_mode": "UM", "requested_distance_km": 12.0, "start_source": "nwissite", "start_id": "USGS-02364500", "geometry_length_km": 1.6776806863475713 }, "geometry": { "type": "LineString", "coordinates": [ [ -86.099862806, 31.173403993 ], [ -86.099809505, 31.173312299 ], [ -86.099249803, 31.173060194 ], [ -86.097704001, 31.173036896 ], [ -86.097117707, 31.172922194 ], [ -86.096744701, 31.172578298 ], [ -86.096584901, 31.172165893 ], [ -86.0964517, 31.172097094 ], [ -86.096105605, 31.170882396 ], [ -86.095999002, 31.170813598 ], [ -86.095706001, 31.170240596 ], [ -86.095706105, 31.1696219 ], [ -86.095812902, 31.169094793 ], [ -86.095972903, 31.168796994 ], [ -86.096906006, 31.167926393 ], [ -86.097146101, 31.1671931 ], [ -86.096933201, 31.166436799 ], [ -86.096720107, 31.166070096 ], [ -86.096347205, 31.165749297 ], [ -86.095574401, 31.165451095 ], [ -86.094801702, 31.165015496 ], [ -86.094455302, 31.164648794 ], [ -86.094322406, 31.163548797 ], [ -86.0945893, 31.162563398 ], [ -86.094589405, 31.162150994 ] ] } },
{ "type": "Feature", "properties": { "site_no": "02364500", "nhdplus_comid": "2213912", "navigation_mode": "UM", "requested_distance_km": 12.0, "start_source": "nwissite", "start_id": "USGS-02364500", "geometry_length_km": 1.0359624364091888 }, "geometry": { "type": "LineString", "coordinates": [ [ -86.109750204, 31.176889099 ], [ -86.109243907, 31.176316194 ], [ -86.1087109, 31.176086999 ], [ -86.107165106, 31.175903395 ], [ -86.104340002, 31.175146595 ], [ -86.101834804, 31.174366899 ], [ -86.100235902, 31.173518695 ], [ -86.099862806, 31.173403993 ] ] } }
]
}
