{
"type": "FeatureCollection",
"name": "USGS_02453950_UM_12km",
"crs": { "type": "name", "properties": { "name": "urn:ogc:def:crs:OGC:1.3:CRS84" } },
"features": [
{ "type": "Feature", "properties": { "site_no": "02453950", "nhdplus_comid": "18591652", "navigation_mode": "UM", "requested_distance_km": 12.0, "start_source": "nwissite", "start_id": "USGS-02453950", "geometry_length_km": 2.1265404583520415 }, "geometry": { "type": "LineString", "coordinates": [ [ -87.381210305, 33.831988998 ], [ -87.380661301, 33.831874497 ], [ -87.380523905, 33.831645399 ], [ -87.380331606, 33.830614597 ], [ -87.380084604, 33.829789899 ], [ -87.379947305, 33.828919396 ], [ -87.380029604, 33.828621499 ], [ -87.380496107, 33.828186199 ], [ -87.380496107, 33.8277051 ], [ -87.379864603, 33.826697193 ], [ -87.3787117, 33.825528897 ], [ -87.3787117, 33.8251395 ], [ -87.379041106, 33.824772894 ], [ -87.382279702, 33.8226652 ], [ -87.382801101, 33.822252795 ], [ -87.383103006, 33.821886197 ], [ -87.383102804, 33.820992798 ], [ -87.382416502, 33.820190899 ], [ -87.382416502, 33.819870196 ], [ -87.382691003, 33.819366299 ], [ -87.3839534, 33.818174899 ], [ -87.383953102, 33.817006499 ], [ -87.383870803, 33.816960797 ], [ -87.383935515, 33.816284437 ] ] } },
{ "type": "Feature", "properties": { "site_no": "02453950", "nhdplus_comid": "18591580", "navigation_mode": "UM", "requested_distance_km": 12.0, "start_source": "nwissite", "start_id": "USGS-02453950", "geometry_length_km": 0.83417306075363162 }, "geometry": { "type": "LineString", "coordinates": [ [ -87.389033705, 33.832675599 ], [ -87.388759002, 33.831782296 ], [ -87.388539307, 33.831599094 ], [ -87.388182506, 33.831599094 ], [ -87.3865356, 33.832263596 ], [ -87.385684602, 33.832424097 ], [ -87.384806305, 33.832424 ], [ -87.383900501, 33.832263798 ], [ -87.3832689, 33.832057595 ], [ -87.382390603, 33.831897296 ], [ -87.381841503, 33.831874393 ], [ -87.381210305, 33.831988998 ] ] } },
{ "type": "Feature", "properties": { "site_no": "02453950", "nhdplus_comid": "18591614", "navigation_mode": "UM", "requested_distance_km": 12.0, "start_source": "nwissite", "start_id": "USGS-02453950", "geometry_length_km": 4.2465649855848477 }, "geometry": { "type": "LineString", "coordinates": [ [ -87.418809704, 33.818671495 ], [ -87.418260805, 33.818580098 ], [ -87.417355202, 33.818740696 ], [ -87.416751504, 33.819015898 ], [ -87.415077902, 33.8200932 ], [ -87.411620304, 33.821583293 ], [ -87.4094797, 33.822294094 ], [ -87.408793502, 33.822294295 ], [ -87.408381805, 33.822065294 ], [ -87.408436105, 33.821057297 ], [ -87.408271305, 33.820690796 ], [ -87.407996707, 33.820392996 ], [ -87.407777205, 33.820324399 ], [ -87.406734206, 33.8203246 ], [ -87.405828603, 33.820668399 ], [ -87.405362204, 33.821080998 ], [ -87.404265001, 33.8229369 ], [ -87.403634407, 33.824563496 ], [ -87.403030805, 33.825365499 ], [ -87.402262405, 33.826007098 ], [ -87.400561005, 33.827152893 ], [ -87.398639902, 33.827909194 ], [ -87.398228206, 33.828184195 ], [ -87.397816703, 33.828871496 ], [ -87.397515006, 33.829856694 ], [ -87.397295505, 33.830017097 ], [ -87.3969661, 33.830017097 ], [ -87.396773905, 33.829673499 ], [ -87.396718606, 33.828688398 ], [ -87.396581307, 33.828299098 ], [ -87.3964715, 33.828207396 ], [ -87.396032304, 33.828299098 ], [ -87.394194007, 33.831346296 ], [ -87.393124007, 33.833476894 ], [ -87.392547704, 33.833820693 ], [ -87.391861401, 33.834095597 ], [ -87.391120307, 33.834256098 ], [ -87.390598804, 33.834187396 ], [ -87.390241802, 33.834004194 ], [ -87.389582902, 33.833431594 ], [ -87.389033705, 33.832675599 ] ] } },
{ "type": "Feature", "properties": { "site_no": "02453950", "nhdplus_comid": "18591612", "navigation_mode": "UM", "requested_distance_km": 12.0, "start_source": "nwissite", "start_id": "USGS-02453950", "geometry_length_km": 0.89175077423254445 }, "geometry": { "type": "LineString", "coordinates": [ [ -87.423149206, 33.823503599 ], [ -87.4227373, 33.823343396 ], [ -87.421749204, 33.823275097 ], [ -87.418812007, 33.822588898 ], [ -87.418509804, 33.822314195 ], [ -87.418509603, 33.821947597 ], [ -87.418811403, 33.821558096 ], [ -87.419332303, 33.820389599 ], [ -87.4193867, 33.819748096 ], [ -87.419221804, 33.819198295 ], [ -87.418809704, 33.818671495 ] ] } },
{ "type": "Feature", "properties": { "site_no": "02453950", "nhdplus_comid": "18591600", "navigation_mode": "UM", "requested_distance_km": 12.0, "start_source": "nwissite", "start_id": "USGS-02453950", "geometry_length_km": 3.910819806647019 }, "geometry": { "type": "LineString", "coordinates": [ [ -87.425935104, 33.845105395 ], [ -87.425852403, 33.844784595 ], [ -87.424835503, 33.843043998 ], [ -87.424231201, 33.842517294 ], [ -87.422446206, 33.841624595 ], [ -87.421787106, 33.841189697 ], [ -87.420276307, 33.839632295 ], [ -87.419452406, 33.839014098 ], [ -87.415388502, 33.8371142 ], [ -87.414921604, 33.8367249 ], [ -87.414152205, 33.8353047 ], [ -87.412339404, 33.833129093 ], [ -87.411350504, 33.831777699 ], [ -87.410883605, 33.831342593 ], [ -87.410169803, 33.830999099 ], [ -87.409895003, 33.830311894 ], [ -87.410004407, 33.829441398 ], [ -87.410114102, 33.829166494 ], [ -87.410278805, 33.828960195 ], [ -87.410937205, 33.828501895 ], [ -87.412364304, 33.827814199 ], [ -87.413242601, 33.827607699 ], [ -87.4166186, 33.827285893 ], [ -87.417689003, 33.827056497 ], [ -87.4185398, 33.826712593 ], [ -87.419691905, 33.825749896 ], [ -87.420405507, 33.825474799 ], [ -87.421064205, 33.825428799 ], [ -87.422107302, 33.825520098 ], [ -87.422381707, 33.825474098 ], [ -87.422848105, 33.825015798 ], [ -87.423232004, 33.824351199 ], [ -87.423259102, 33.823732696 ], [ -87.423149206, 33.823503599 ] ] } }
]
}
