{
"type": "FeatureCollection",
"name": "USGS_02412000_UM_12km",
"crs": { "type": "name", "properties": { "name": "urn:ogc:def:crs:OGC:1.3:CRS84" } },
"features": [
{ "type": "Feature", "properties": { "site_no": "02412000", "nhdplus_comid": "15810691", "navigation_mode": "UM", "requested_distance_km": 12.0, "start_source": "nwissite", "start_id": "USGS-02412000", "geometry_length_km": 2.2916659038641174 }, "geometry": { "type": "LineString", "coordinates": [ [ -85.495115407, 33.624797694 ], [ -85.495497905, 33.624407999 ], [ -85.495661706, 33.623972595 ], [ -85.495740302, 33.621361494 ], [ -85.496095307, 33.620673999 ], [ -85.496615, 33.620375797 ], [ -85.497436002, 33.6200772 ], [ -85.498366803, 33.620099299 ], [ -85.499079004, 33.620327599 ], [ -85.499955706, 33.620853499 ], [ -85.501758106, 33.622196794 ], [ -85.504111402, 33.623115398 ], [ -85.507750906, 33.624309994 ], [ -85.509447902, 33.624655195 ], [ -85.510296702, 33.624633096 ], [ -85.510872006, 33.624358796 ], [ -85.513228707, 33.622711994 ], [ -85.513255113, 33.622700979 ] ] } },
{ "type": "Feature", "properties": { "site_no": "02412000", "nhdplus_comid": "15809987", "navigation_mode": "UM", "requested_distance_km": 12.0, "start_source": "nwissite", "start_id": "USGS-02412000", "geometry_length_km": 5.3096418359893471 }, "geometry": { "type": "LineString", "coordinates": [ [ -85.465358205, 33.600589596 ], [ -85.465823501, 33.600520499 ], [ -85.467876606, 33.600839697 ], [ -85.468670905, 33.601388797 ], [ -85.469465107, 33.601800494 ], [ -85.470423304, 33.602028795 ], [ -85.471244805, 33.6023947 ], [ -85.4717381, 33.602943994 ], [ -85.472067505, 33.603768297 ], [ -85.472972207, 33.605187699 ], [ -85.473082207, 33.605576999 ], [ -85.472918406, 33.605966397 ], [ -85.471715502, 33.607456096 ], [ -85.469529502, 33.610984996 ], [ -85.4692569, 33.612153299 ], [ -85.469012402, 33.613917097 ], [ -85.468930401, 33.614008799 ], [ -85.468632102, 33.616780296 ], [ -85.468988702, 33.617398396 ], [ -85.469563901, 33.617718697 ], [ -85.471371204, 33.618152499 ], [ -85.474217504, 33.617440395 ], [ -85.477640502, 33.618285097 ], [ -85.478899702, 33.618261196 ], [ -85.480295502, 33.617893599 ], [ -85.481636405, 33.617388599 ], [ -85.482731506, 33.617456399 ], [ -85.483306907, 33.6178682 ], [ -85.483608805, 33.618532196 ], [ -85.483911306, 33.619654194 ], [ -85.484158106, 33.619997598 ], [ -85.484760903, 33.620363496 ], [ -85.485472903, 33.620591998 ], [ -85.485911407, 33.620958097 ], [ -85.486076407, 33.621576294 ], [ -85.486624502, 33.621988095 ], [ -85.486898303, 33.622033693 ], [ -85.488486104, 33.621986493 ], [ -85.4892257, 33.622260697 ], [ -85.489938207, 33.622855596 ], [ -85.490020603, 33.623061694 ], [ -85.490568906, 33.623610795 ], [ -85.491445206, 33.623793297 ], [ -85.493526004, 33.623837195 ], [ -85.493909605, 33.624042995 ], [ -85.494485304, 33.624683693 ], [ -85.495115407, 33.624797694 ] ] } },
{ "type": "Feature", "properties": { "site_no": "02412000", "nhdplus_comid": "15809985", "navigation_mode": "UM", "requested_distance_km": 12.0, "start_source": "nwissite", "start_id": "USGS-02412000", "geometry_length_km": 2.9091844108634017 }, "geometry": { "type": "LineString", "coordinates": [ [ -85.453047901, 33.607949696 ], [ -85.453320801, 33.607056394 ], [ -85.453565203, 33.6048344 ], [ -85.454002306, 33.603734799 ], [ -85.454412706, 33.603597097 ], [ -85.455288805, 33.603848599 ], [ -85.456219904, 33.604397699 ], [ -85.457671605, 33.605450295 ], [ -85.457918406, 33.605999798 ], [ -85.458193503, 33.607396893 ], [ -85.458577201, 33.6080608 ], [ -85.460550003, 33.610006295 ], [ -85.461426601, 33.610647097 ], [ -85.462220602, 33.610806793 ], [ -85.462767802, 33.6106003 ], [ -85.462931901, 33.610439993 ], [ -85.462958805, 33.609867297 ], [ -85.462657206, 33.609340698 ], [ -85.462436907, 33.608218595 ], [ -85.4627636, 33.606294394 ], [ -85.463200606, 33.605332196 ], [ -85.463336103, 33.604003698 ], [ -85.464593604, 33.602284998 ], [ -85.465385906, 33.600887299 ], [ -85.465358205, 33.600589596 ] ] } },
{ "type": "Feature", "properties": { "site_no": "02412000", "nhdplus_comid": "15809947", "navigation_mode": "UM", "requested_distance_km": 12.0, "start_source": "nwissite", "start_id": "USGS-02412000", "geometry_length_km": 5.3888187446296349 }, "geometry": { "type": "LineString", "coordinates": [ [ -85.4239057, 33.626538597 ], [ -85.424480401, 33.625988699 ], [ -85.425027907, 33.625805296 ], [ -85.4257944, 33.625713393 ], [ -85.428697102, 33.626811698 ], [ -85.431681402, 33.6270395 ], [ -85.432229102, 33.627016298 ], [ -85.432530105, 33.626878798 ], [ -85.433022603, 33.626260199 ], [ -85.4329677, 33.626031093 ], [ -85.433268502, 33.625595897 ], [ -85.4334599, 33.625091799 ], [ -85.433596507, 33.624702394 ], [ -85.434308305, 33.624518797 ], [ -85.435540207, 33.624518298 ], [ -85.435485803, 33.625090994 ], [ -85.435458802, 33.625663497 ], [ -85.435924701, 33.626373298 ], [ -85.437349007, 33.627220094 ], [ -85.439074203, 33.627883494 ], [ -85.439868502, 33.6281121 ], [ -85.440908805, 33.627974197 ], [ -85.441647604, 33.627492897 ], [ -85.442085505, 33.627378099 ], [ -85.443700902, 33.6274231 ], [ -85.4465762, 33.627902597 ], [ -85.447616406, 33.627673 ], [ -85.448108904, 33.627420798 ], [ -85.449887402, 33.6260226 ], [ -85.451036707, 33.625289097 ], [ -85.451666303, 33.625105396 ], [ -85.452459604, 33.624326296 ], [ -85.452514, 33.623936899 ], [ -85.449416503, 33.619220495 ], [ -85.449443802, 33.619037293 ], [ -85.448895507, 33.618167199 ], [ -85.448456101, 33.616541296 ], [ -85.448345803, 33.615510695 ], [ -85.448043801, 33.614319898 ], [ -85.448016003, 33.613724299 ], [ -85.448234603, 33.613289095 ], [ -85.448699705, 33.6129224 ], [ -85.449739702, 33.612601094 ], [ -85.450998105, 33.611752994 ], [ -85.452529103, 33.609438799 ], [ -85.453048207, 33.608430795 ], [ -85.453047901, 33.607949696 ] ] } }
]
}
