{
"type": "FeatureCollection",
"name": "USGS_02343500_DM_12km",
"crs": { "type": "name", "properties": { "name": "urn:ogc:def:crs:OGC:1.3:CRS84" } },
"features": [
{ "type": "Feature", "properties": { "site_no": "02343500", "nhdplus_comid": "2310395", "navigation_mode": "DM", "requested_distance_km": 12.0, "start_source": "nwissite", "start_id": "USGS-02343500", "geometry_length_km": 1.032078913851878 }, "geometry": { "type": "LineString", "coordinates": [ [ -85.097459428, 31.284781585 ], [ -85.100125603, 31.283212394 ], [ -85.104722001, 31.282171093 ], [ -85.105839506, 31.282145195 ], [ -85.106346801, 31.2819236 ], [ -85.107540302, 31.281892695 ] ] } },
{ "type": "Feature", "properties": { "site_no": "02343500", "nhdplus_comid": "2310391", "navigation_mode": "DM", "requested_distance_km": 12.0, "start_source": "nwissite", "start_id": "USGS-02343500", "geometry_length_km": 0.027106064111423109 }, "geometry": { "type": "LineString", "coordinates": [ [ -85.107540302, 31.281892695 ], [ -85.107822001, 31.281852193 ] ] } },
{ "type": "Feature", "properties": { "site_no": "02343500", "nhdplus_comid": "2310411", "navigation_mode": "DM", "requested_distance_km": 12.0, "start_source": "nwissite", "start_id": "USGS-02343500", "geometry_length_km": 0.8780227364504799 }, "geometry": { "type": "LineString", "coordinates": [ [ -85.107822001, 31.281852193 ], [ -85.108442701, 31.281722195 ], [ -85.109928504, 31.281325296 ], [ -85.112398304, 31.279532194 ], [ -85.113382302, 31.278136097 ], [ -85.113442004, 31.276513599 ] ] } },
{ "type": "Feature", "properties": { "site_no": "02343500", "nhdplus_comid": "2310415", "navigation_mode": "DM", "requested_distance_km": 12.0, "start_source": "nwissite", "start_id": "USGS-02343500", "geometry_length_km": 1.9459180685239883 }, "geometry": { "type": "LineString", "coordinates": [ [ -85.113442004, 31.276513599 ], [ -85.111653507, 31.274438299 ], [ -85.111206107, 31.273037396 ], [ -85.111325704, 31.269792296 ], [ -85.112120807, 31.263899498 ], [ -85.111123301, 31.2606804 ], [ -85.111092806, 31.259727493 ] ] } },
{ "type": "Feature", "properties": { "site_no": "02343500", "nhdplus_comid": "2310419", "navigation_mode": "DM", "requested_distance_km": 12.0, "start_source": "nwissite", "start_id": "USGS-02343500", "geometry_length_km": 0.042988164040453247 }, "geometry": { "type": "LineString", "coordinates": [ [ -85.111092806, 31.259727493 ], [ -85.111128904, 31.2594596 ], [ -85.111057803, 31.259359896 ] ] } },
{ "type": "Feature", "properties": { "site_no": "02343500", "nhdplus_comid": "2310423", "navigation_mode": "DM", "requested_distance_km": 12.0, "start_source": "nwissite", "start_id": "USGS-02343500", "geometry_length_km": 1.362213692126242 }, "geometry": { "type": "LineString", "coordinates": [ [ -85.111057803, 31.259359896 ], [ -85.1083197, 31.2555198 ], [ -85.107612707, 31.253686197 ], [ -85.107394703, 31.251764894 ], [ -85.106065504, 31.2486488 ], [ -85.105648801, 31.248200797 ] ] } },
{ "type": "Feature", "properties": { "site_no": "02343500", "nhdplus_comid": "2310429", "navigation_mode": "DM", "requested_distance_km": 12.0, "start_source": "nwissite", "start_id": "USGS-02343500", "geometry_length_km": 1.2077449677378258 }, "geometry": { "type": "LineString", "coordinates": [ [ -85.105648801, 31.248200797 ], [ -85.104386203, 31.245769694 ], [ -85.103944801, 31.243147895 ], [ -85.101788305, 31.237914696 ] ] } },
{ "type": "Feature", "properties": { "site_no": "02343500", "nhdplus_comid": "2310435", "navigation_mode": "DM", "requested_distance_km": 12.0, "start_source": "nwissite", "start_id": "USGS-02343500", "geometry_length_km": 0.042426737033519686 }, "geometry": { "type": "LineString", "coordinates": [ [ -85.101788305, 31.237914696 ], [ -85.101510502, 31.237615995 ] ] } },
{ "type": "Feature", "properties": { "site_no": "02343500", "nhdplus_comid": "2310443", "navigation_mode": "DM", "requested_distance_km": 12.0, "start_source": "nwissite", "start_id": "USGS-02343500", "geometry_length_km": 2.0064281259067451 }, "geometry": { "type": "LineString", "coordinates": [ [ -85.101510502, 31.237615995 ], [ -85.100248203, 31.235184796 ], [ -85.098080501, 31.232393198 ], [ -85.096377403, 31.227339998 ], [ -85.096672602, 31.223976195 ], [ -85.097595505, 31.220674098 ] ] } },
{ "type": "Feature", "properties": { "site_no": "02343500", "nhdplus_comid": "2310449", "navigation_mode": "DM", "requested_distance_km": 12.0, "start_source": "nwissite", "start_id": "USGS-02343500", "geometry_length_km": 2.1360907696523772 }, "geometry": { "type": "LineString", "coordinates": [ [ -85.097595505, 31.220674098 ], [ -85.097631603, 31.220406197 ], [ -85.097981706, 31.220169194 ], [ -85.098216705, 31.218427993 ], [ -85.097787306, 31.213364199 ], [ -85.098287702, 31.210834794 ], [ -85.099253103, 31.209572494 ], [ -85.102843001, 31.206532598 ], [ -85.105262205, 31.203920297 ] ] } },
{ "type": "Feature", "properties": { "site_no": "02343500", "nhdplus_comid": "2310453", "navigation_mode": "DM", "requested_distance_km": 12.0, "start_source": "nwissite", "start_id": "USGS-02343500", "geometry_length_km": 1.6377526058471061 }, "geometry": { "type": "LineString", "coordinates": [ [ -85.105262205, 31.203920297 ], [ -85.106034301, 31.202910498 ], [ -85.106583007, 31.201199993 ], [ -85.107341602, 31.195574395 ], [ -85.107280701, 31.193668298 ], [ -85.107021101, 31.193235599 ], [ -85.106821403, 31.191180095 ], [ -85.107195005, 31.189588197 ] ] } }
]
}
