{
"type": "FeatureCollection",
"name": "USGS_02442000_UM_12km",
"crs": { "type": "name", "properties": { "name": "urn:ogc:def:crs:OGC:1.3:CRS84" } },
"features": [
{ "type": "Feature", "properties": { "site_no": "02442000", "nhdplus_comid": "18645748", "navigation_mode": "UM", "requested_distance_km": 12.0, "start_source": "nwissite", "start_id": "USGS-02442000", "geometry_length_km": 1.2903182781085225 }, "geometry": { "type": "LineString", "coordinates": [ [ -87.866279602, 33.730206594 ], [ -87.866307005, 33.729290195 ], [ -87.866581202, 33.727847099 ], [ -87.866636105, 33.7268392 ], [ -87.867047206, 33.725189798 ], [ -87.867623001, 33.724021599 ], [ -87.869514607, 33.721341498 ], [ -87.8697339, 33.720906198 ], [ -87.870786206, 33.719505142 ] ] } },
{ "type": "Feature", "properties": { "site_no": "02442000", "nhdplus_comid": "18645586", "navigation_mode": "UM", "requested_distance_km": 12.0, "start_source": "nwissite", "start_id": "USGS-02442000", "geometry_length_km": 0.11540986735662602 }, "geometry": { "type": "LineString", "coordinates": [ [ -87.866197206, 33.731237397 ], [ -87.866279602, 33.730206594 ] ] } },
{ "type": "Feature", "properties": { "site_no": "02442000", "nhdplus_comid": "18645582", "navigation_mode": "UM", "requested_distance_km": 12.0, "start_source": "nwissite", "start_id": "USGS-02442000", "geometry_length_km": 1.2929385662659107 }, "geometry": { "type": "LineString", "coordinates": [ [ -87.864442006, 33.742713995 ], [ -87.864496902, 33.741843395 ], [ -87.864935704, 33.739598498 ], [ -87.865100406, 33.737903498 ], [ -87.866197206, 33.731237397 ] ] } },
{ "type": "Feature", "properties": { "site_no": "02442000", "nhdplus_comid": "18645744", "navigation_mode": "UM", "requested_distance_km": 12.0, "start_source": "nwissite", "start_id": "USGS-02442000", "geometry_length_km": 1.3075982275532911 }, "geometry": { "type": "LineString", "coordinates": [ [ -87.862540707, 33.754288197 ], [ -87.863034703, 33.7511729 ], [ -87.863117002, 33.7510584 ], [ -87.863144502, 33.750691898 ], [ -87.863372304, 33.750135794 ], [ -87.863536902, 33.749357 ], [ -87.864442006, 33.742713995 ] ] } },
{ "type": "Feature", "properties": { "site_no": "02442000", "nhdplus_comid": "18645566", "navigation_mode": "UM", "requested_distance_km": 12.0, "start_source": "nwissite", "start_id": "USGS-02442000", "geometry_length_km": 1.1742618320272524 }, "geometry": { "type": "LineString", "coordinates": [ [ -87.861195505, 33.764733896 ], [ -87.861415304, 33.762672298 ], [ -87.862376004, 33.755364999 ], [ -87.862513207, 33.754906796 ], [ -87.862540707, 33.754288197 ] ] } },
{ "type": "Feature", "properties": { "site_no": "02442000", "nhdplus_comid": "18645560", "navigation_mode": "UM", "requested_distance_km": 12.0, "start_source": "nwissite", "start_id": "USGS-02442000", "geometry_length_km": 2.6362276394260142 }, "geometry": { "type": "LineString", "coordinates": [ [ -87.857625902, 33.788121894 ], [ -87.858367406, 33.783403099 ], [ -87.858999006, 33.780104496 ], [ -87.859273501, 33.778363593 ], [ -87.859383501, 33.776439399 ], [ -87.859658204, 33.774446398 ], [ -87.860207103, 33.771720499 ], [ -87.860399507, 33.769567296 ], [ -87.861113206, 33.764848396 ], [ -87.861195505, 33.764733896 ] ] } },
{ "type": "Feature", "properties": { "site_no": "02442000", "nhdplus_comid": "18645542", "navigation_mode": "UM", "requested_distance_km": 12.0, "start_source": "nwissite", "start_id": "USGS-02442000", "geometry_length_km": 0.44293616561078264 }, "geometry": { "type": "LineString", "coordinates": [ [ -87.856884502, 33.792038895 ], [ -87.857131705, 33.790847793 ], [ -87.857625902, 33.788121894 ] ] } },
{ "type": "Feature", "properties": { "site_no": "02442000", "nhdplus_comid": "18645532", "navigation_mode": "UM", "requested_distance_km": 12.0, "start_source": "nwissite", "start_id": "USGS-02442000", "geometry_length_km": 0.13586199627442622 }, "geometry": { "type": "LineString", "coordinates": [ [ -87.856801905, 33.793252997 ], [ -87.856884502, 33.792038895 ] ] } },
{ "type": "Feature", "properties": { "site_no": "02442000", "nhdplus_comid": "18645526", "navigation_mode": "UM", "requested_distance_km": 12.0, "start_source": "nwissite", "start_id": "USGS-02442000", "geometry_length_km": 0.07199324132219069 }, "geometry": { "type": "LineString", "coordinates": [ [ -87.856582306, 33.7938715 ], [ -87.856801905, 33.793252997 ] ] } },
{ "type": "Feature", "properties": { "site_no": "02442000", "nhdplus_comid": "18645522", "navigation_mode": "UM", "requested_distance_km": 12.0, "start_source": "nwissite", "start_id": "USGS-02442000", "geometry_length_km": 0.67815261976227259 }, "geometry": { "type": "LineString", "coordinates": [ [ -87.855703302, 33.799895898 ], [ -87.855813205, 33.798796393 ], [ -87.856362507, 33.795658194 ], [ -87.856582306, 33.7938715 ] ] } },
{ "type": "Feature", "properties": { "site_no": "02442000", "nhdplus_comid": "18645512", "navigation_mode": "UM", "requested_distance_km": 12.0, "start_source": "nwissite", "start_id": "USGS-02442000", "geometry_length_km": 2.2407884646937029 }, "geometry": { "type": "LineString", "coordinates": [ [ -87.853064805, 33.819756195 ], [ -87.853312306, 33.817167595 ], [ -87.853642002, 33.815701596 ], [ -87.853889406, 33.8137317 ], [ -87.854081601, 33.813342199 ], [ -87.854109101, 33.812861197 ], [ -87.853944503, 33.812425993 ], [ -87.854549006, 33.809104495 ], [ -87.854576603, 33.808348499 ], [ -87.855125904, 33.805714294 ], [ -87.855510503, 33.803217493 ], [ -87.855703302, 33.799895898 ] ] } }
]
}
