{
"type": "FeatureCollection",
"name": "USGS_02423800_UM_12km",
"crs": { "type": "name", "properties": { "name": "urn:ogc:def:crs:OGC:1.3:CRS84" } },
"features": [
{ "type": "Feature", "properties": { "site_no": "02423800", "nhdplus_comid": "21656310", "navigation_mode": "UM", "requested_distance_km": 12.0, "start_source": "nwissite", "start_id": "USGS-02423800", "geometry_length_km": 0.68339720197235165 }, "geometry": { "type": "LineString", "coordinates": [ [ -86.9518295, 33.062725097 ], [ -86.951747701, 33.0626335 ], [ -86.951338403, 33.061144494 ], [ -86.951310501, 33.060411297 ], [ -86.951201402, 33.060205199 ], [ -86.951173306, 33.059128396 ], [ -86.951336101, 33.058578394 ], [ -86.951635204, 33.058371998 ], [ -86.953131206, 33.057844095 ], [ -86.953340969, 33.057736664 ] ] } },
{ "type": "Feature", "properties": { "site_no": "02423800", "nhdplus_comid": "21656308", "navigation_mode": "UM", "requested_distance_km": 12.0, "start_source": "nwissite", "start_id": "USGS-02423800", "geometry_length_km": 2.5702336433593658 }, "geometry": { "type": "LineString", "coordinates": [ [ -86.940889202, 33.059981897 ], [ -86.941133805, 33.059638098 ], [ -86.941622004, 33.057598695 ], [ -86.941975206, 33.056842498 ], [ -86.942246906, 33.056498595 ], [ -86.942573406, 33.056360997 ], [ -86.943008706, 33.056383595 ], [ -86.943689205, 33.056749895 ], [ -86.944342703, 33.057482697 ], [ -86.944506206, 33.057849199 ], [ -86.9453777, 33.058810994 ], [ -86.946847707, 33.059726596 ], [ -86.947828002, 33.060734093 ], [ -86.947991505, 33.060986094 ], [ -86.947856307, 33.062017195 ], [ -86.947693206, 33.0622693 ], [ -86.947286107, 33.063437998 ], [ -86.947286703, 33.064216994 ], [ -86.947723202, 33.065545596 ], [ -86.948077306, 33.0660953 ], [ -86.948730804, 33.0666219 ], [ -86.949166402, 33.066850699 ], [ -86.949738003, 33.066987894 ], [ -86.950554103, 33.066872798 ], [ -86.951016605, 33.066689298 ], [ -86.951642103, 33.066230699 ], [ -86.951940805, 33.065565996 ], [ -86.951939404, 33.063939296 ], [ -86.951857604, 33.063733093 ], [ -86.9518295, 33.062725097 ] ] } },
{ "type": "Feature", "properties": { "site_no": "02423800", "nhdplus_comid": "21656302", "navigation_mode": "UM", "requested_distance_km": 12.0, "start_source": "nwissite", "start_id": "USGS-02423800", "geometry_length_km": 0.98281838553176337 }, "geometry": { "type": "LineString", "coordinates": [ [ -86.936023407, 33.066743299 ], [ -86.937165305, 33.065276399 ], [ -86.938034803, 33.063649297 ], [ -86.938442707, 33.063236594 ], [ -86.940510005, 33.0623191 ], [ -86.941488907, 33.061470799 ], [ -86.9414884, 33.060897999 ], [ -86.941379406, 33.060645998 ], [ -86.940889202, 33.059981897 ] ] } },
{ "type": "Feature", "properties": { "site_no": "02423800", "nhdplus_comid": "21656290", "navigation_mode": "UM", "requested_distance_km": 12.0, "start_source": "nwissite", "start_id": "USGS-02423800", "geometry_length_km": 5.7962846364326754 }, "geometry": { "type": "LineString", "coordinates": [ [ -86.908598505, 33.076055594 ], [ -86.908816203, 33.075918093 ], [ -86.909088202, 33.075459793 ], [ -86.909441702, 33.075138897 ], [ -86.910829507, 33.0746345 ], [ -86.911400907, 33.074519798 ], [ -86.9121629, 33.074588299 ], [ -86.912407905, 33.074725695 ], [ -86.912516803, 33.074885994 ], [ -86.912489906, 33.075550497 ], [ -86.912082002, 33.076329596 ], [ -86.912054904, 33.076673299 ], [ -86.914232902, 33.0785743 ], [ -86.914613806, 33.078711599 ], [ -86.915022105, 33.078757294 ], [ -86.915321507, 33.078665599 ], [ -86.915892802, 33.0782988 ], [ -86.916599907, 33.077290498 ], [ -86.917171203, 33.076946594 ], [ -86.917742603, 33.076763093 ], [ -86.918123603, 33.076762997 ], [ -86.918695301, 33.077060595 ], [ -86.919348404, 33.077174895 ], [ -86.919783704, 33.0769227 ], [ -86.919756301, 33.076556198 ], [ -86.918966606, 33.075456694 ], [ -86.918939203, 33.075181797 ], [ -86.919184104, 33.074952595 ], [ -86.921142906, 33.074058294 ], [ -86.922013603, 33.073760197 ], [ -86.923510201, 33.073553398 ], [ -86.924571306, 33.073300898 ], [ -86.925142601, 33.072911195 ], [ -86.925278604, 33.072636195 ], [ -86.925278105, 33.071902998 ], [ -86.924951106, 33.070986696 ], [ -86.924488105, 33.070414096 ], [ -86.923752606, 33.069039695 ], [ -86.923289604, 33.068283796 ], [ -86.922445804, 33.067711398 ], [ -86.922146305, 33.067413598 ], [ -86.920676507, 33.066497698 ], [ -86.920077503, 33.065856397 ], [ -86.919968307, 33.065146193 ], [ -86.920104101, 33.0647109 ], [ -86.920566306, 33.064000398 ], [ -86.921055801, 33.063519098 ], [ -86.921491101, 33.063266896 ], [ -86.921980903, 33.063243799 ], [ -86.922742903, 33.063655898 ], [ -86.923232801, 33.0636786 ], [ -86.924701907, 33.063380197 ], [ -86.925790206, 33.063333899 ], [ -86.927341305, 33.063585296 ], [ -86.928348206, 33.063607797 ], [ -86.929300301, 33.063240893 ], [ -86.931041501, 33.062965199 ], [ -86.931476906, 33.063102499 ], [ -86.9315859, 33.063262798 ], [ -86.931559503, 33.0645229 ], [ -86.931695707, 33.064820796 ], [ -86.931913406, 33.064935297 ], [ -86.9322128, 33.064957999 ], [ -86.932376005, 33.064843297 ], [ -86.932919607, 33.063903697 ], [ -86.933300406, 33.063674398 ], [ -86.933844402, 33.063490897 ], [ -86.934334204, 33.063444898 ], [ -86.934688106, 33.063696697 ], [ -86.934878901, 33.064200699 ], [ -86.935096703, 33.064452596 ], [ -86.935831502, 33.064589694 ], [ -86.936022207, 33.064818695 ], [ -86.936049506, 33.065070793 ], [ -86.935940802, 33.065299898 ], [ -86.935125001, 33.066056393 ], [ -86.935098104, 33.066514596 ], [ -86.935343206, 33.066812396 ], [ -86.935642503, 33.066835098 ], [ -86.936023407, 33.066743299 ] ] } },
{ "type": "Feature", "properties": { "site_no": "02423800", "nhdplus_comid": "21656270", "navigation_mode": "UM", "requested_distance_km": 12.0, "start_source": "nwissite", "start_id": "USGS-02423800", "geometry_length_km": 1.8711140851250236 }, "geometry": { "type": "LineString", "coordinates": [ [ -86.897770204, 33.086574495 ], [ -86.897797301, 33.086391099 ], [ -86.898151003, 33.085841194 ], [ -86.898341402, 33.085359998 ], [ -86.898178004, 33.084901795 ], [ -86.897306703, 33.083618999 ], [ -86.8966261, 33.082771294 ], [ -86.896653205, 33.082519293 ], [ -86.897088602, 33.082175493 ], [ -86.899075106, 33.081304498 ], [ -86.900735103, 33.080823094 ], [ -86.901823603, 33.080181397 ], [ -86.903184004, 33.079562396 ], [ -86.905823603, 33.078622393 ], [ -86.906857602, 33.078141093 ], [ -86.907565005, 33.077682599 ], [ -86.908163503, 33.077155493 ], [ -86.908598505, 33.076055594 ] ] } }
]
}
