{
"type": "FeatureCollection",
"name": "USGS_02340750_UM_12km",
"crs": { "type": "name", "properties": { "name": "urn:ogc:def:crs:OGC:1.3:CRS84" } },
"features": [
{ "type": "Feature", "properties": { "site_no": "02340750", "nhdplus_comid": "3297420", "navigation_mode": "UM", "requested_distance_km": 12.0, "start_source": "nwissite", "start_id": "USGS-02340750", "geometry_length_km": 0.031610545803374239 }, "geometry": { "type": "LineString", "coordinates": [ [ -85.193138301, 32.784726694 ], [ -85.193080573, 32.784447483 ] ] } },
{ "type": "Feature", "properties": { "site_no": "02340750", "nhdplus_comid": "3297352", "navigation_mode": "UM", "requested_distance_km": 12.0, "start_source": "nwissite", "start_id": "USGS-02340750", "geometry_length_km": 0.01709708677092912 }, "geometry": { "type": "LineString", "coordinates": [ [ -85.193219602, 32.784864098 ], [ -85.193138301, 32.784726694 ] ] } },
{ "type": "Feature", "properties": { "site_no": "02340750", "nhdplus_comid": "3297348", "navigation_mode": "UM", "requested_distance_km": 12.0, "start_source": "nwissite", "start_id": "USGS-02340750", "geometry_length_km": 3.2190534650895866 }, "geometry": { "type": "LineString", "coordinates": [ [ -85.211808302, 32.800015599 ], [ -85.211211704, 32.8000618 ], [ -85.210831806, 32.799924597 ], [ -85.210506007, 32.799627095 ], [ -85.210315906, 32.799329497 ], [ -85.210342705, 32.7989401 ], [ -85.210504904, 32.798481897 ], [ -85.210450403, 32.798092596 ], [ -85.210233301, 32.797955297 ], [ -85.209230006, 32.798047498 ], [ -85.208795801, 32.797795795 ], [ -85.2077104, 32.797086596 ], [ -85.207357503, 32.796628699 ], [ -85.207303002, 32.796353795 ], [ -85.207031503, 32.795987599 ], [ -85.206461802, 32.795736 ], [ -85.2060275, 32.795323893 ], [ -85.205891602, 32.794865996 ], [ -85.206189804, 32.794751197 ], [ -85.206270806, 32.794499196 ], [ -85.206026405, 32.794132896 ], [ -85.206052504, 32.792941898 ], [ -85.206349902, 32.791979693 ], [ -85.206512004, 32.791246593 ], [ -85.206403203, 32.790925995 ], [ -85.205996305, 32.790720195 ], [ -85.205264002, 32.790606 ], [ -85.205101207, 32.790560395 ], [ -85.205101006, 32.7903772 ], [ -85.205372006, 32.790124997 ], [ -85.205453105, 32.789850093 ], [ -85.205236107, 32.789712794 ], [ -85.204720803, 32.7897131 ], [ -85.204666503, 32.789575696 ], [ -85.204286702, 32.789392695 ], [ -85.203473203, 32.789370298 ], [ -85.202903502, 32.7891187 ], [ -85.202279903, 32.789233796 ], [ -85.201764606, 32.789073698 ], [ -85.201113805, 32.789074093 ], [ -85.200869501, 32.788822293 ], [ -85.199622206, 32.7888688 ], [ -85.1992696, 32.788708694 ], [ -85.198862903, 32.788869299 ], [ -85.198429406, 32.789235994 ], [ -85.198158301, 32.789350696 ], [ -85.197019503, 32.789534599 ], [ -85.196856804, 32.789442994 ], [ -85.196856506, 32.789099395 ], [ -85.196693607, 32.788870499 ], [ -85.196232602, 32.788710393 ], [ -85.196205102, 32.7883211 ], [ -85.196096502, 32.788183697 ], [ -85.196096204, 32.787748493 ], [ -85.1957976, 32.787450895 ], [ -85.195688903, 32.787130296 ], [ -85.195498906, 32.786992997 ], [ -85.194875203, 32.786832899 ], [ -85.194658101, 32.786649898 ], [ -85.193980306, 32.786695994 ], [ -85.193627603, 32.786490098 ], [ -85.193654604, 32.786192298 ], [ -85.193518706, 32.785986297 ], [ -85.193193205, 32.785734497 ], [ -85.193219602, 32.784864098 ] ] } },
{ "type": "Feature", "properties": { "site_no": "02340750", "nhdplus_comid": "3297288", "navigation_mode": "UM", "requested_distance_km": 12.0, "start_source": "nwissite", "start_id": "USGS-02340750", "geometry_length_km": 1.8459285532061507 }, "geometry": { "type": "LineString", "coordinates": [ [ -85.224473506, 32.800052196 ], [ -85.223659903, 32.800121598 ], [ -85.223117203, 32.799847096 ], [ -85.222927503, 32.799961694 ], [ -85.222900704, 32.800236598 ], [ -85.222521305, 32.8005118 ], [ -85.221789107, 32.800672695 ], [ -85.221056804, 32.800650395 ], [ -85.220568806, 32.800765298 ], [ -85.220406003, 32.800696597 ], [ -85.2199715, 32.800101496 ], [ -85.219998203, 32.799734995 ], [ -85.220729902, 32.799207598 ], [ -85.220946506, 32.798886895 ], [ -85.220919207, 32.798634894 ], [ -85.220702, 32.798451796 ], [ -85.220078304, 32.7985439 ], [ -85.219481401, 32.798338197 ], [ -85.218993403, 32.7984301 ], [ -85.218776703, 32.798590697 ], [ -85.2186414, 32.7989114 ], [ -85.217421606, 32.799576499 ], [ -85.216906406, 32.799553998 ], [ -85.216689207, 32.799325094 ], [ -85.216552503, 32.798317395 ], [ -85.216308303, 32.798111394 ], [ -85.215955801, 32.798180394 ], [ -85.215468101, 32.798638895 ], [ -85.214329101, 32.798639596 ], [ -85.212241605, 32.799351096 ], [ -85.212052301, 32.7999238 ], [ -85.211808302, 32.800015599 ] ] } },
{ "type": "Feature", "properties": { "site_no": "02340750", "nhdplus_comid": "3297306", "navigation_mode": "UM", "requested_distance_km": 12.0, "start_source": "nwissite", "start_id": "USGS-02340750", "geometry_length_km": 1.9051715649833059 }, "geometry": { "type": "LineString", "coordinates": [ [ -85.237266205, 32.793651097 ], [ -85.236724101, 32.793811895 ], [ -85.236669905, 32.793880694 ], [ -85.235640101, 32.794431396 ], [ -85.235315107, 32.794775195 ], [ -85.235099003, 32.795416698 ], [ -85.234231003, 32.795302995 ], [ -85.232766807, 32.795395799 ], [ -85.232142702, 32.795144394 ], [ -85.231030807, 32.795168199 ], [ -85.230081305, 32.794894196 ], [ -85.228914604, 32.794230796 ], [ -85.2287248, 32.794345595 ], [ -85.228373006, 32.794987194 ], [ -85.227993302, 32.7949875 ], [ -85.227640606, 32.794873193 ], [ -85.227287702, 32.794598699 ], [ -85.226447105, 32.794645093 ], [ -85.226067707, 32.7948744 ], [ -85.225336507, 32.795814097 ], [ -85.2250662, 32.796570197 ], [ -85.223902106, 32.798426397 ], [ -85.223930001, 32.799113497 ], [ -85.224499904, 32.799479499 ], [ -85.224554501, 32.799777299 ], [ -85.224473506, 32.800052196 ] ] } },
{ "type": "Feature", "properties": { "site_no": "02340750", "nhdplus_comid": "3297308", "navigation_mode": "UM", "requested_distance_km": 12.0, "start_source": "nwissite", "start_id": "USGS-02340750", "geometry_length_km": 0.14888978550016929 }, "geometry": { "type": "LineString", "coordinates": [ [ -85.238839306, 32.793741293 ], [ -85.237618901, 32.793765299 ], [ -85.237266205, 32.793651097 ] ] } },
{ "type": "Feature", "properties": { "site_no": "02340750", "nhdplus_comid": "3298392", "navigation_mode": "UM", "requested_distance_km": 12.0, "start_source": "nwissite", "start_id": "USGS-02340750", "geometry_length_km": 3.217608242388009 }, "geometry": { "type": "LineString", "coordinates": [ [ -85.261391804, 32.802296594 ], [ -85.261229202, 32.802227698 ], [ -85.2609585, 32.801906794 ], [ -85.260877706, 32.801379897 ], [ -85.260444202, 32.800967298 ], [ -85.260336101, 32.800737999 ], [ -85.260309406, 32.800371595 ], [ -85.261285901, 32.800257996 ], [ -85.261530206, 32.800051995 ], [ -85.261585005, 32.799685597 ], [ -85.261395402, 32.799456395 ], [ -85.260907605, 32.799249798 ], [ -85.260257505, 32.798584893 ], [ -85.260041207, 32.798080795 ], [ -85.259716302, 32.797668196 ], [ -85.259065606, 32.797484398 ], [ -85.258605003, 32.797231898 ], [ -85.258117601, 32.796658896 ], [ -85.257765301, 32.796452396 ], [ -85.256897606, 32.7964058 ], [ -85.256653607, 32.796268098 ], [ -85.256329201, 32.795603499 ], [ -85.255570605, 32.795053095 ], [ -85.255299903, 32.794640496 ], [ -85.254866406, 32.794365294 ], [ -85.254541002, 32.794341996 ], [ -85.254378103, 32.794525094 ], [ -85.254214801, 32.794937298 ], [ -85.254078202, 32.795624197 ], [ -85.253861204, 32.7957156 ], [ -85.253779806, 32.795669794 ], [ -85.2537532, 32.795326196 ], [ -85.253644802, 32.795234397 ], [ -85.253699906, 32.794707693 ], [ -85.253564402, 32.794570096 ], [ -85.252750501, 32.794821195 ], [ -85.252452202, 32.794752195 ], [ -85.252263002, 32.794293895 ], [ -85.251856804, 32.793858394 ], [ -85.251287304, 32.793926597 ], [ -85.249930605, 32.793662198 ], [ -85.247841701, 32.7930687 ], [ -85.247109503, 32.793046497 ], [ -85.246513404, 32.793436497 ], [ -85.245374605, 32.793551996 ], [ -85.244995303, 32.793781497 ], [ -85.243992001, 32.793896899 ], [ -85.243423201, 32.794424295 ], [ -85.243206404, 32.794538997 ], [ -85.242256902, 32.794242099 ], [ -85.241280705, 32.794311695 ], [ -85.2404944, 32.794472694 ], [ -85.2399249, 32.794450395 ], [ -85.239300504, 32.793901198 ], [ -85.238839306, 32.793741293 ] ] } },
{ "type": "Feature", "properties": { "site_no": "02340750", "nhdplus_comid": "3297204", "navigation_mode": "UM", "requested_distance_km": 12.0, "start_source": "nwissite", "start_id": "USGS-02340750", "geometry_length_km": 0.26208854323326902 }, "geometry": { "type": "LineString", "coordinates": [ [ -85.262719005, 32.803740896 ], [ -85.261579901, 32.803670995 ], [ -85.261607803, 32.803052597 ], [ -85.261391804, 32.802296594 ] ] } },
{ "type": "Feature", "properties": { "site_no": "02340750", "nhdplus_comid": "3297186", "navigation_mode": "UM", "requested_distance_km": 12.0, "start_source": "nwissite", "start_id": "USGS-02340750", "geometry_length_km": 0.54467413951611932 }, "geometry": { "type": "LineString", "coordinates": [ [ -85.267110705, 32.8053023 ], [ -85.266378202, 32.805461995 ], [ -85.266161501, 32.805164099 ], [ -85.265646301, 32.805071995 ], [ -85.265429206, 32.805300899 ], [ -85.264995202, 32.8053004 ], [ -85.264615305, 32.805391796 ], [ -85.263395406, 32.804955497 ], [ -85.262772702, 32.804153197 ], [ -85.262719005, 32.803740896 ] ] } }
]
}
