{
"type": "FeatureCollection",
"name": "USGS_0357587400_DM_12km",
"crs": { "type": "name", "properties": { "name": "urn:ogc:def:crs:OGC:1.3:CRS84" } },
"features": [
{ "type": "Feature", "properties": { "site_no": "0357587400", "nhdplus_comid": "19619804", "navigation_mode": "DM", "requested_distance_km": 12.0, "start_source": "nwissite", "start_id": "USGS-0357587400", "geometry_length_km": 2.4645400084910682 }, "geometry": { "type": "LineString", "coordinates": [ [ -86.592206429, 34.771492872 ], [ -86.5911595, 34.768229097 ], [ -86.591076307, 34.768183298 ], [ -86.591076404, 34.767954193 ], [ -86.590771504, 34.767037995 ], [ -86.590494305, 34.765686497 ], [ -86.590189204, 34.765159599 ], [ -86.5898844, 34.764105894 ], [ -86.589857101, 34.762914799 ], [ -86.590079501, 34.762342297 ], [ -86.590579204, 34.761792697 ], [ -86.590579502, 34.761220098 ], [ -86.590440802, 34.760968097 ], [ -86.590330005, 34.760601498 ], [ -86.590080403, 34.760212094 ], [ -86.589830801, 34.7595248 ], [ -86.589831002, 34.758997999 ], [ -86.590109304, 34.757211499 ], [ -86.590276003, 34.756890796 ], [ -86.590303905, 34.756593093 ], [ -86.590526104, 34.756020598 ], [ -86.5906929, 34.755195998 ], [ -86.590721503, 34.753111698 ], [ -86.590941206, 34.750101894 ] ] } },
{ "type": "Feature", "properties": { "site_no": "0357587400", "nhdplus_comid": "19619814", "navigation_mode": "DM", "requested_distance_km": 12.0, "start_source": "nwissite", "start_id": "USGS-0357587400", "geometry_length_km": 0.26017885827759374 }, "geometry": { "type": "LineString", "coordinates": [ [ -86.590941206, 34.750101894 ], [ -86.591247402, 34.747994699 ], [ -86.591358505, 34.747811496 ] ] } },
{ "type": "Feature", "properties": { "site_no": "0357587400", "nhdplus_comid": "19619826", "navigation_mode": "DM", "requested_distance_km": 12.0, "start_source": "nwissite", "start_id": "USGS-0357587400", "geometry_length_km": 0.68461089268393505 }, "geometry": { "type": "LineString", "coordinates": [ [ -86.591358505, 34.747811496 ], [ -86.591303505, 34.746574596 ], [ -86.590916403, 34.743505195 ], [ -86.590889402, 34.741810098 ], [ -86.590833902, 34.741718493 ] ] } },
{ "type": "Feature", "properties": { "site_no": "0357587400", "nhdplus_comid": "19619900", "navigation_mode": "DM", "requested_distance_km": 12.0, "start_source": "nwissite", "start_id": "USGS-0357587400", "geometry_length_km": 2.202846993470164 }, "geometry": { "type": "LineString", "coordinates": [ [ -86.590833902, 34.741718493 ], [ -86.591278307, 34.740573399 ], [ -86.591861203, 34.740069598 ], [ -86.592277601, 34.739840694 ], [ -86.593304604, 34.739016294 ], [ -86.5935544, 34.738649897 ], [ -86.593721107, 34.738146 ], [ -86.595580705, 34.736497395 ], [ -86.596135907, 34.735695697 ], [ -86.596691005, 34.735191993 ], [ -86.596941002, 34.734504893 ], [ -86.5968858, 34.733886495 ], [ -86.5961373, 34.7320996 ], [ -86.595582701, 34.731343493 ], [ -86.594695605, 34.729717098 ], [ -86.594224103, 34.729144394 ], [ -86.593919203, 34.728548698 ], [ -86.592089407, 34.725478798 ], [ -86.591867805, 34.724676996 ] ] } },
{ "type": "Feature", "properties": { "site_no": "0357587400", "nhdplus_comid": "19619926", "navigation_mode": "DM", "requested_distance_km": 12.0, "start_source": "nwissite", "start_id": "USGS-0357587400", "geometry_length_km": 0.73963379066336277 }, "geometry": { "type": "LineString", "coordinates": [ [ -86.591867805, 34.724676996 ], [ -86.592673004, 34.7230739 ], [ -86.593700401, 34.720669098 ], [ -86.594699904, 34.718722396 ], [ -86.594921805, 34.718585096 ] ] } },
{ "type": "Feature", "properties": { "site_no": "0357587400", "nhdplus_comid": "19620058", "navigation_mode": "DM", "requested_distance_km": 12.0, "start_source": "nwissite", "start_id": "USGS-0357587400", "geometry_length_km": 2.3137057217824815 }, "geometry": { "type": "LineString", "coordinates": [ [ -86.594921805, 34.718585096 ], [ -86.594811305, 34.717462599 ], [ -86.594395801, 34.715904996 ], [ -86.594230004, 34.714164093 ], [ -86.594509102, 34.709766194 ], [ -86.594787203, 34.7080255 ], [ -86.594815306, 34.707040593 ], [ -86.595205106, 34.703238398 ], [ -86.595621705, 34.7016121 ], [ -86.595871605, 34.701016694 ], [ -86.596455, 34.698084898 ] ] } },
{ "type": "Feature", "properties": { "site_no": "0357587400", "nhdplus_comid": "19620296", "navigation_mode": "DM", "requested_distance_km": 12.0, "start_source": "nwissite", "start_id": "USGS-0357587400", "geometry_length_km": 4.1527322318547446 }, "geometry": { "type": "LineString", "coordinates": [ [ -86.596455, 34.698084898 ], [ -86.5962888, 34.697649695 ], [ -86.596345402, 34.694053493 ], [ -86.596428804, 34.693709895 ], [ -86.596568801, 34.689861797 ], [ -86.59668, 34.689151794 ], [ -86.597512707, 34.687090397 ], [ -86.598067604, 34.686197199 ], [ -86.598788902, 34.685326993 ], [ -86.599482603, 34.683815397 ], [ -86.599843502, 34.682761796 ], [ -86.5998713, 34.682372399 ], [ -86.600482106, 34.679967396 ], [ -86.601342507, 34.677127294 ], [ -86.601814903, 34.673508398 ], [ -86.601871006, 34.6714468 ], [ -86.602232106, 34.669018894 ], [ -86.602232501, 34.667896494 ], [ -86.602426805, 34.667094797 ], [ -86.603092603, 34.665262498 ], [ -86.603702903, 34.663888194 ], [ -86.604590401, 34.662262097 ], [ -86.604812205, 34.662124798 ] ] } }
]
}
