{
"type": "FeatureCollection",
"name": "USGS_02411602_UM_12km",
"crs": { "type": "name", "properties": { "name": "urn:ogc:def:crs:OGC:1.3:CRS84" } },
"features": [
{ "type": "Feature", "properties": { "site_no": "02411602", "nhdplus_comid": "22276106", "navigation_mode": "UM", "requested_distance_km": 12.0, "start_source": "nwissite", "start_id": "USGS-02411602", "geometry_length_km": 1.5752711074766019 }, "geometry": { "type": "LineString", "coordinates": [ [ -86.218056805, 32.552760795 ], [ -86.218245305, 32.551935896 ], [ -86.218217105, 32.550836094 ], [ -86.218810305, 32.548979796 ], [ -86.219214305, 32.547261097 ], [ -86.219321601, 32.546413198 ], [ -86.219372205, 32.543045096 ], [ -86.21948, 32.542632699 ], [ -86.220155202, 32.541578196 ], [ -86.220965907, 32.540867299 ], [ -86.221317001, 32.540408798 ], [ -86.221452005, 32.540087998 ], [ -86.221857205, 32.5396524 ], [ -86.221856907, 32.5394003 ] ] } }
]
}
