{
"type": "FeatureCollection",
"name": "USGS_02342960_DM_12km",
"crs": { "type": "name", "properties": { "name": "urn:ogc:def:crs:OGC:1.3:CRS84" } },
"features": [
{ "type": "Feature", "properties": { "site_no": "02342960", "nhdplus_comid": "3443492", "navigation_mode": "DM", "requested_distance_km": 12.0, "start_source": "nwissite", "start_id": "USGS-02342960", "geometry_length_km": 3.2232143647120082 }, "geometry": { "type": "LineString", "coordinates": [ [ -85.133458107, 31.891451572 ], [ -85.133547701, 31.890791796 ], [ -85.1322871, 31.889449596 ], [ -85.131233901, 31.888940699 ], [ -85.129413202, 31.887001798 ], [ -85.129794903, 31.884192593 ], [ -85.129623905, 31.883091599 ], [ -85.129883707, 31.879999399 ], [ -85.127612107, 31.876661196 ], [ -85.125389807, 31.874141 ], [ -85.126449801, 31.865162499 ] ] } },
{ "type": "Feature", "properties": { "site_no": "02342960", "nhdplus_comid": "3443506", "navigation_mode": "DM", "requested_distance_km": 12.0, "start_source": "nwissite", "start_id": "USGS-02342960", "geometry_length_km": 0.8638764948761789 }, "geometry": { "type": "LineString", "coordinates": [ [ -85.126449801, 31.865162499 ], [ -85.1266625, 31.8647765 ], [ -85.126749203, 31.864551097 ], [ -85.127228007, 31.864153698 ], [ -85.127427906, 31.862682194 ], [ -85.127993405, 31.862059399 ], [ -85.128247805, 31.860186398 ], [ -85.128800504, 31.858477995 ], [ -85.129189506, 31.857973598 ] ] } },
{ "type": "Feature", "properties": { "site_no": "02342960", "nhdplus_comid": "3443512", "navigation_mode": "DM", "requested_distance_km": 12.0, "start_source": "nwissite", "start_id": "USGS-02342960", "geometry_length_km": 0.50857326866538566 }, "geometry": { "type": "LineString", "coordinates": [ [ -85.129189506, 31.857973598 ], [ -85.129638501, 31.855848499 ], [ -85.129711106, 31.855313294 ], [ -85.130069204, 31.8538571 ], [ -85.130421907, 31.853620298 ] ] } },
{ "type": "Feature", "properties": { "site_no": "02342960", "nhdplus_comid": "3443520", "navigation_mode": "DM", "requested_distance_km": 12.0, "start_source": "nwissite", "start_id": "USGS-02342960", "geometry_length_km": 0.45112188197572617 }, "geometry": { "type": "LineString", "coordinates": [ [ -85.130421907, 31.853620298 ], [ -85.130870804, 31.851495095 ], [ -85.131648801, 31.850486293 ], [ -85.1315815, 31.849801995 ] ] } },
{ "type": "Feature", "properties": { "site_no": "02342960", "nhdplus_comid": "3443532", "navigation_mode": "DM", "requested_distance_km": 12.0, "start_source": "nwissite", "start_id": "USGS-02342960", "geometry_length_km": 1.2806155391396046 }, "geometry": { "type": "LineString", "coordinates": [ [ -85.1315815, 31.849801995 ], [ -85.131952301, 31.849431396 ], [ -85.132043101, 31.848762497 ], [ -85.133957006, 31.845288597 ], [ -85.134242304, 31.8443674 ], [ -85.136168905, 31.841979094 ], [ -85.136259705, 31.841310196 ], [ -85.137408301, 31.839930698 ], [ -85.137286402, 31.839647695 ] ] } },
{ "type": "Feature", "properties": { "site_no": "02342960", "nhdplus_comid": "3443562", "navigation_mode": "DM", "requested_distance_km": 12.0, "start_source": "nwissite", "start_id": "USGS-02342960", "geometry_length_km": 1.3940216130401908 }, "geometry": { "type": "LineString", "coordinates": [ [ -85.137286402, 31.839647695 ], [ -85.137851603, 31.839024894 ], [ -85.138367601, 31.837583899 ], [ -85.139728703, 31.835818395 ], [ -85.139801301, 31.835283197 ], [ -85.140330203, 31.834927894 ], [ -85.141414002, 31.827981599 ] ] } },
{ "type": "Feature", "properties": { "site_no": "02342960", "nhdplus_comid": "3443566", "navigation_mode": "DM", "requested_distance_km": 12.0, "start_source": "nwissite", "start_id": "USGS-02342960", "geometry_length_km": 0.42516649575673182 }, "geometry": { "type": "LineString", "coordinates": [ [ -85.141414002, 31.827981599 ], [ -85.141559102, 31.827049598 ], [ -85.141528003, 31.826097697 ], [ -85.141108006, 31.825650297 ], [ -85.141447604, 31.8243277 ] ] } },
{ "type": "Feature", "properties": { "site_no": "02342960", "nhdplus_comid": "3443586", "navigation_mode": "DM", "requested_distance_km": 12.0, "start_source": "nwissite", "start_id": "USGS-02342960", "geometry_length_km": 3.614023428766858 }, "geometry": { "type": "LineString", "coordinates": [ [ -85.141447604, 31.8243277 ], [ -85.141191006, 31.822676197 ], [ -85.140685603, 31.821678199 ], [ -85.140623406, 31.819774397 ], [ -85.141009703, 31.815745197 ], [ -85.140766002, 31.815179296 ], [ -85.140789405, 31.813825995 ], [ -85.140284002, 31.812827997 ], [ -85.140488803, 31.810136795 ], [ -85.140087105, 31.809555493 ], [ -85.139898002, 31.808588296 ], [ -85.139478207, 31.808140799 ], [ -85.138698205, 31.805624999 ], [ -85.138514303, 31.803438097 ], [ -85.137296505, 31.800608598 ], [ -85.137356207, 31.798987694 ], [ -85.136887304, 31.797722094 ], [ -85.136897802, 31.795282997 ], [ -85.136618003, 31.794984594 ], [ -85.136659503, 31.793497495 ], [ -85.136434205, 31.792797796 ] ] } },
{ "type": "Feature", "properties": { "site_no": "02342960", "nhdplus_comid": "3443592", "navigation_mode": "DM", "requested_distance_km": 12.0, "start_source": "nwissite", "start_id": "USGS-02342960", "geometry_length_km": 0.90515416491746614 }, "geometry": { "type": "LineString", "coordinates": [ [ -85.136434205, 31.792797796 ], [ -85.136281401, 31.7915629 ], [ -85.1354964, 31.790266499 ], [ -85.135118306, 31.788331799 ], [ -85.1340717, 31.786603294 ], [ -85.134162501, 31.785934299 ], [ -85.1339553, 31.785100795 ] ] } }
]
}
