{
"type": "FeatureCollection",
"name": "USGS_03572900_DM_12km",
"crs": { "type": "name", "properties": { "name": "urn:ogc:def:crs:OGC:1.3:CRS84" } },
"features": [
{ "type": "Feature", "properties": { "site_no": "03572900", "nhdplus_comid": "19648068", "navigation_mode": "DM", "requested_distance_km": 12.0, "start_source": "nwissite", "start_id": "USGS-03572900", "geometry_length_km": 1.4105045293175236 }, "geometry": { "type": "LineString", "coordinates": [ [ -85.990020281, 34.378108146 ], [ -85.990498804, 34.378516793 ], [ -85.990969606, 34.379409596 ], [ -85.991219401, 34.380279697 ], [ -85.991193503, 34.3815853 ], [ -85.990561202, 34.383899197 ], [ -85.990563005, 34.3851818 ], [ -85.990674004, 34.385548197 ], [ -85.991476201, 34.386303298 ], [ -85.9918634, 34.386554897 ], [ -85.995925903, 34.387490198 ] ] } },
{ "type": "Feature", "properties": { "site_no": "03572900", "nhdplus_comid": "19648056", "navigation_mode": "DM", "requested_distance_km": 12.0, "start_source": "nwissite", "start_id": "USGS-03572900", "geometry_length_km": 0.38674629193586818 }, "geometry": { "type": "LineString", "coordinates": [ [ -85.995925903, 34.387490198 ], [ -85.998717606, 34.388332196 ], [ -85.999975003, 34.388238899 ] ] } },
{ "type": "Feature", "properties": { "site_no": "03572900", "nhdplus_comid": "19649054", "navigation_mode": "DM", "requested_distance_km": 12.0, "start_source": "nwissite", "start_id": "USGS-03572900", "geometry_length_km": 0.14124125858763811 }, "geometry": { "type": "LineString", "coordinates": [ [ -85.999975003, 34.388238899 ], [ -86.001506403, 34.388053998 ] ] } },
{ "type": "Feature", "properties": { "site_no": "03572900", "nhdplus_comid": "19649056", "navigation_mode": "DM", "requested_distance_km": 12.0, "start_source": "nwissite", "start_id": "USGS-03572900", "geometry_length_km": 0.9600338236262187 }, "geometry": { "type": "LineString", "coordinates": [ [ -86.001506403, 34.388053998 ], [ -86.002280101, 34.387894496 ], [ -86.003579602, 34.3872087 ], [ -86.0041878, 34.387003198 ], [ -86.004933804, 34.386980996 ], [ -86.0055691, 34.387073196 ], [ -86.006314702, 34.387348793 ], [ -86.008329101, 34.389114395 ], [ -86.0090468, 34.389550298 ], [ -86.010095604, 34.390375897 ] ] } },
{ "type": "Feature", "properties": { "site_no": "03572900", "nhdplus_comid": "19649048", "navigation_mode": "DM", "requested_distance_km": 12.0, "start_source": "nwissite", "start_id": "USGS-03572900", "geometry_length_km": 0.16382335770832715 }, "geometry": { "type": "LineString", "coordinates": [ [ -86.010095604, 34.390375897 ], [ -86.011420906, 34.390972696 ], [ -86.011697106, 34.391018793 ] ] } },
{ "type": "Feature", "properties": { "site_no": "03572900", "nhdplus_comid": "19649050", "navigation_mode": "DM", "requested_distance_km": 12.0, "start_source": "nwissite", "start_id": "USGS-03572900", "geometry_length_km": 0.83253408097653847 }, "geometry": { "type": "LineString", "coordinates": [ [ -86.011697106, 34.391018793 ], [ -86.012691006, 34.391615197 ], [ -86.014485605, 34.392510198 ], [ -86.015369505, 34.392694198 ], [ -86.015922107, 34.392694794 ], [ -86.016557902, 34.392489098 ], [ -86.017332204, 34.392008893 ], [ -86.018300407, 34.391047798 ], [ -86.019102603, 34.390384197 ] ] } },
{ "type": "Feature", "properties": { "site_no": "03572900", "nhdplus_comid": "19649064", "navigation_mode": "DM", "requested_distance_km": 12.0, "start_source": "nwissite", "start_id": "USGS-03572900", "geometry_length_km": 2.1849814313973259 }, "geometry": { "type": "LineString", "coordinates": [ [ -86.019102603, 34.390384197 ], [ -86.020513207, 34.389148593 ], [ -86.021066606, 34.388462 ], [ -86.022035405, 34.387042798 ], [ -86.022478104, 34.386493497 ], [ -86.023418605, 34.385601096 ], [ -86.023860902, 34.385303698 ], [ -86.024883606, 34.384937994 ], [ -86.025712505, 34.384870097 ], [ -86.026154205, 34.385122396 ], [ -86.0264851, 34.385649398 ], [ -86.027339004, 34.387803197 ], [ -86.027835205, 34.388857193 ], [ -86.028414503, 34.389590599 ], [ -86.029405802, 34.392385699 ], [ -86.030593105, 34.393073797 ], [ -86.033106901, 34.393602595 ] ] } },
{ "type": "Feature", "properties": { "site_no": "03572900", "nhdplus_comid": "19649036", "navigation_mode": "DM", "requested_distance_km": 12.0, "start_source": "nwissite", "start_id": "USGS-03572900", "geometry_length_km": 0.56127930467384879 }, "geometry": { "type": "LineString", "coordinates": [ [ -86.033106901, 34.393602595 ], [ -86.033189602, 34.393762998 ], [ -86.036393404, 34.394979395 ], [ -86.037139006, 34.3953465 ], [ -86.038188204, 34.396125995 ], [ -86.038160503, 34.3962176 ] ] } },
{ "type": "Feature", "properties": { "site_no": "03572900", "nhdplus_comid": "19649030", "navigation_mode": "DM", "requested_distance_km": 12.0, "start_source": "nwissite", "start_id": "USGS-03572900", "geometry_length_km": 1.4742559911759938 }, "geometry": { "type": "LineString", "coordinates": [ [ -86.038160503, 34.3962176 ], [ -86.038740203, 34.396813594 ], [ -86.039954305, 34.398303196 ], [ -86.040561706, 34.3988076 ], [ -86.041473001, 34.3993349 ], [ -86.042357005, 34.399587594 ], [ -86.042937405, 34.399519295 ], [ -86.044043504, 34.398626797 ], [ -86.044237204, 34.398374997 ], [ -86.046615601, 34.396223597 ], [ -86.0478874, 34.395262398 ], [ -86.049269706, 34.394599095 ], [ -86.049932905, 34.394370399 ] ] } },
{ "type": "Feature", "properties": { "site_no": "03572900", "nhdplus_comid": "19649034", "navigation_mode": "DM", "requested_distance_km": 12.0, "start_source": "nwissite", "start_id": "USGS-03572900", "geometry_length_km": 0.35247486844187759 }, "geometry": { "type": "LineString", "coordinates": [ [ -86.049932905, 34.394370399 ], [ -86.051591106, 34.394050799 ], [ -86.053746402, 34.393937595 ] ] } },
{ "type": "Feature", "properties": { "site_no": "03572900", "nhdplus_comid": "19649038", "navigation_mode": "DM", "requested_distance_km": 12.0, "start_source": "nwissite", "start_id": "USGS-03572900", "geometry_length_km": 0.19253860654014415 }, "geometry": { "type": "LineString", "coordinates": [ [ -86.053746402, 34.393937595 ], [ -86.054934606, 34.393800899 ], [ -86.0557914, 34.393549494 ] ] } },
{ "type": "Feature", "properties": { "site_no": "03572900", "nhdplus_comid": "19649040", "navigation_mode": "DM", "requested_distance_km": 12.0, "start_source": "nwissite", "start_id": "USGS-03572900", "geometry_length_km": 1.5699764437843748 }, "geometry": { "type": "LineString", "coordinates": [ [ -86.0557914, 34.393549494 ], [ -86.056758605, 34.393366799 ], [ -86.057338707, 34.393413 ], [ -86.057697907, 34.393527694 ], [ -86.0584158, 34.3940778 ], [ -86.058857404, 34.394765198 ], [ -86.058995105, 34.395292096 ], [ -86.059077106, 34.396437399 ], [ -86.059380405, 34.3971247 ], [ -86.060042903, 34.398064099 ], [ -86.061009407, 34.398797594 ], [ -86.061727606, 34.399049893 ], [ -86.063993201, 34.399303094 ], [ -86.066397205, 34.399372995 ], [ -86.067447007, 34.399739996 ], [ -86.068358503, 34.400221497 ] ] } },
{ "type": "Feature", "properties": { "site_no": "03572900", "nhdplus_comid": "19649016", "navigation_mode": "DM", "requested_distance_km": 12.0, "start_source": "nwissite", "start_id": "USGS-03572900", "geometry_length_km": 1.6157049531518521 }, "geometry": { "type": "LineString", "coordinates": [ [ -86.068358503, 34.400221497 ], [ -86.069131806, 34.4007487 ], [ -86.069988303, 34.401092693 ], [ -86.072364204, 34.401803799 ], [ -86.075569205, 34.402446598 ], [ -86.076232202, 34.402790494 ], [ -86.077060901, 34.403500795 ], [ -86.078221105, 34.404211394 ], [ -86.078607701, 34.404600896 ], [ -86.078745604, 34.404921696 ], [ -86.078745306, 34.405700497 ], [ -86.077583, 34.408402696 ], [ -86.077527203, 34.409204394 ] ] } }
]
}
