{
"type": "FeatureCollection",
"name": "USGS_02372250_DM_12km",
"crs": { "type": "name", "properties": { "name": "urn:ogc:def:crs:OGC:1.3:CRS84" } },
"features": [
{ "type": "Feature", "properties": { "site_no": "02372250", "nhdplus_comid": "2323396", "navigation_mode": "DM", "requested_distance_km": 12.0, "start_source": "nwissite", "start_id": "USGS-02372250", "geometry_length_km": 1.1893439062323909 }, "geometry": { "type": "LineString", "coordinates": [ [ -86.404253154, 31.595666025 ], [ -86.4044668, 31.595428199 ], [ -86.405456901, 31.593800999 ], [ -86.405510001, 31.593021795 ], [ -86.405295603, 31.592196897 ], [ -86.405295506, 31.591715693 ], [ -86.405375704, 31.591486499 ], [ -86.405670106, 31.591257297 ], [ -86.406098403, 31.591073893 ], [ -86.406419605, 31.5907989 ], [ -86.4064463, 31.590477996 ], [ -86.406205304, 31.590225898 ], [ -86.405589402, 31.589974098 ], [ -86.405000202, 31.589446999 ], [ -86.404919706, 31.588919997 ], [ -86.405240804, 31.588438794 ], [ -86.405347802, 31.588049099 ], [ -86.405454904, 31.587957397 ], [ -86.405588403, 31.586971998 ], [ -86.405909501, 31.586536594 ] ] } },
{ "type": "Feature", "properties": { "site_no": "02372250", "nhdplus_comid": "2323410", "navigation_mode": "DM", "requested_distance_km": 12.0, "start_source": "nwissite", "start_id": "USGS-02372250", "geometry_length_km": 2.6760833478459016 }, "geometry": { "type": "LineString", "coordinates": [ [ -86.405909501, 31.586536594 ], [ -86.406953506, 31.586284198 ], [ -86.4096843, 31.587039694 ], [ -86.409844905, 31.586948097 ], [ -86.410380006, 31.585916698 ], [ -86.411022305, 31.5854811 ], [ -86.411290005, 31.585389398 ], [ -86.411852203, 31.585503794 ], [ -86.412173606, 31.585778698 ], [ -86.412602104, 31.585961893 ], [ -86.413110703, 31.585984699 ], [ -86.413164206, 31.585709698 ], [ -86.412735507, 31.585045293 ], [ -86.412306905, 31.584541194 ], [ -86.412253305, 31.584243298 ], [ -86.412574403, 31.583968297 ], [ -86.413511306, 31.583670095 ], [ -86.413966306, 31.583624095 ], [ -86.414341204, 31.583898999 ], [ -86.414608903, 31.583967693 ], [ -86.4147157, 31.583394699 ], [ -86.415036805, 31.583096698 ], [ -86.415384807, 31.583050795 ], [ -86.4157333, 31.583806895 ], [ -86.416108303, 31.584265098 ], [ -86.417286307, 31.584654294 ], [ -86.4182503, 31.585478894 ], [ -86.418598503, 31.585616395 ], [ -86.419053607, 31.585639097 ], [ -86.419374801, 31.585295297 ], [ -86.419374503, 31.584905699 ], [ -86.419079803, 31.584562093 ], [ -86.419079803, 31.5844246 ], [ -86.418463707, 31.5836685 ], [ -86.418463707, 31.583393499 ], [ -86.419239506, 31.582453698 ], [ -86.419614203, 31.5821786 ], [ -86.420149505, 31.582109697 ], [ -86.420390405, 31.582155399 ], [ -86.420658305, 31.5824074 ], [ -86.421033405, 31.583071798 ], [ -86.421327904, 31.583232097 ], [ -86.422131002, 31.583185993 ] ] } },
{ "type": "Feature", "properties": { "site_no": "02372250", "nhdplus_comid": "2323414", "navigation_mode": "DM", "requested_distance_km": 12.0, "start_source": "nwissite", "start_id": "USGS-02372250", "geometry_length_km": 1.1887460372063343 }, "geometry": { "type": "LineString", "coordinates": [ [ -86.422131002, 31.583185993 ], [ -86.422318101, 31.582613096 ], [ -86.422210805, 31.582223594 ], [ -86.422130406, 31.582177699 ], [ -86.422130302, 31.581833996 ], [ -86.422397703, 31.581352696 ], [ -86.423093401, 31.580504499 ], [ -86.423761904, 31.579220898 ], [ -86.424002305, 31.578372896 ], [ -86.4237881, 31.578166798 ], [ -86.422610305, 31.578373499 ], [ -86.421486102, 31.578396797 ], [ -86.421405703, 31.578328095 ], [ -86.421405606, 31.578053094 ], [ -86.421780005, 31.577296793 ], [ -86.422422104, 31.576700695 ], [ -86.422636107, 31.576265097 ], [ -86.422555603, 31.576036096 ], [ -86.4222074, 31.575692497 ] ] } },
{ "type": "Feature", "properties": { "site_no": "02372250", "nhdplus_comid": "2323420", "navigation_mode": "DM", "requested_distance_km": 12.0, "start_source": "nwissite", "start_id": "USGS-02372250", "geometry_length_km": 0.42859884653172203 }, "geometry": { "type": "LineString", "coordinates": [ [ -86.4222074, 31.575692497 ], [ -86.422394603, 31.5752341 ], [ -86.422822803, 31.575096399 ], [ -86.423813201, 31.575004399 ], [ -86.424161106, 31.574866697 ], [ -86.424455404, 31.574522898 ], [ -86.424562201, 31.574224994 ], [ -86.424428202, 31.57395 ], [ -86.423999704, 31.573491797 ], [ -86.423972905, 31.573308595 ] ] } },
{ "type": "Feature", "properties": { "site_no": "02372250", "nhdplus_comid": "2323426", "navigation_mode": "DM", "requested_distance_km": 12.0, "start_source": "nwissite", "start_id": "USGS-02372250", "geometry_length_km": 0.68378901629958577 }, "geometry": { "type": "LineString", "coordinates": [ [ -86.423972905, 31.573308595 ], [ -86.424026303, 31.5732169 ], [ -86.424294002, 31.573216699 ], [ -86.424749203, 31.573399894 ], [ -86.4254186, 31.573903799 ], [ -86.425766706, 31.574041098 ], [ -86.426435903, 31.573994994 ], [ -86.426703401, 31.573742896 ], [ -86.426810302, 31.573376194 ], [ -86.426997401, 31.573101096 ], [ -86.427372105, 31.572917596 ], [ -86.427827202, 31.572940297 ], [ -86.428416103, 31.573077597 ], [ -86.428978302, 31.573306598 ], [ -86.429513901, 31.573650099 ], [ -86.429888606, 31.573604099 ] ] } },
{ "type": "Feature", "properties": { "site_no": "02372250", "nhdplus_comid": "2323446", "navigation_mode": "DM", "requested_distance_km": 12.0, "start_source": "nwissite", "start_id": "USGS-02372250", "geometry_length_km": 5.5809912042101022 }, "geometry": { "type": "LineString", "coordinates": [ [ -86.429888606, 31.573604099 ], [ -86.429834805, 31.573099993 ], [ -86.429593705, 31.572825097 ], [ -86.429272406, 31.572641894 ], [ -86.4284961, 31.572458796 ], [ -86.428228401, 31.572298594 ], [ -86.428228006, 31.571954794 ], [ -86.428495504, 31.571725495 ], [ -86.429325104, 31.571427293 ], [ -86.429646201, 31.571152195 ], [ -86.429646105, 31.570945896 ], [ -86.429030307, 31.570694096 ], [ -86.429003507, 31.570510797 ], [ -86.4291372, 31.5703962 ], [ -86.4295654, 31.570281297 ], [ -86.4302347, 31.570579097 ], [ -86.431091405, 31.570624597 ], [ -86.431626603, 31.570372298 ], [ -86.432215303, 31.570303194 ], [ -86.432483204, 31.570555195 ], [ -86.432697505, 31.570990495 ], [ -86.432778306, 31.571746796 ], [ -86.432992503, 31.571815394 ], [ -86.433982305, 31.570898294 ], [ -86.434223205, 31.570852295 ], [ -86.434410505, 31.570943899 ], [ -86.434517801, 31.571127199 ], [ -86.434571706, 31.571906298 ], [ -86.434759304, 31.572089493 ], [ -86.435134105, 31.572089396 ], [ -86.435481906, 31.571928799 ], [ -86.436284401, 31.571263894 ], [ -86.436578907, 31.571240798 ], [ -86.436632603, 31.57147 ], [ -86.436285101, 31.572180495 ], [ -86.436258607, 31.572684698 ], [ -86.4367944, 31.573280297 ], [ -86.437195905, 31.573371693 ], [ -86.437945001, 31.572615094 ], [ -86.438158803, 31.572179593 ], [ -86.438078307, 31.572042197 ], [ -86.437248506, 31.571973898 ], [ -86.437168002, 31.571675897 ], [ -86.437275104, 31.571538396 ], [ -86.437783405, 31.571263194 ], [ -86.438720204, 31.571170993 ], [ -86.439336002, 31.571468696 ], [ -86.4394437, 31.572339393 ], [ -86.439631104, 31.572568499 ], [ -86.439952306, 31.572430797 ], [ -86.440112405, 31.571789093 ], [ -86.440005004, 31.571147494 ], [ -86.439924605, 31.571055897 ], [ -86.439924203, 31.570391297 ], [ -86.440031104, 31.570184998 ], [ -86.4403788, 31.569886893 ], [ -86.441235006, 31.569428094 ], [ -86.4422253, 31.569450594 ], [ -86.442599304, 31.568442099 ], [ -86.443374902, 31.567570895 ], [ -86.444150001, 31.5661496 ], [ -86.4445244, 31.565782793 ], [ -86.444765307, 31.565759696 ], [ -86.444899201, 31.565942995 ], [ -86.444899701, 31.566263795 ], [ -86.444686003, 31.5668827 ], [ -86.444686003, 31.5670202 ], [ -86.444579102, 31.567226499 ], [ -86.443830505, 31.568326794 ], [ -86.443803906, 31.568647698 ], [ -86.443937905, 31.568807997 ], [ -86.444794305, 31.568647198 ], [ -86.445490003, 31.568348795 ], [ -86.446132004, 31.567867294 ], [ -86.446693301, 31.566812798 ], [ -86.4470146, 31.566950098 ], [ -86.447362505, 31.566949897 ], [ -86.447656803, 31.566835195 ], [ -86.448084801, 31.566491194 ], [ -86.448378906, 31.566101395 ], [ -86.4484054, 31.565757699 ], [ -86.447949901, 31.565139294 ], [ -86.447896205, 31.5648643 ], [ -86.448110305, 31.564749599 ], [ -86.449073702, 31.564680293 ], [ -86.449314505, 31.564565599 ], [ -86.449314207, 31.564221799 ], [ -86.448939301, 31.563947 ], [ -86.448082507, 31.563649595 ], [ -86.447868302, 31.563489296 ], [ -86.447868206, 31.563328899 ], [ -86.448108904, 31.563122496 ], [ -86.448537007, 31.562984794 ], [ -86.449500501, 31.562961295 ], [ -86.4500622, 31.562594295 ], [ -86.450061902, 31.562158898 ], [ -86.449874304, 31.561838195 ], [ -86.449312106, 31.561723895 ], [ -86.448268406, 31.561701596 ], [ -86.448080905, 31.561610095 ], [ -86.448053703, 31.560945496 ] ] } }
]
}
