{
"type": "FeatureCollection",
"name": "USGS_02442500_DM_12km",
"crs": { "type": "name", "properties": { "name": "urn:ogc:def:crs:OGC:1.3:CRS84" } },
"features": [
{ "type": "Feature", "properties": { "site_no": "02442500", "nhdplus_comid": "18648072", "navigation_mode": "DM", "requested_distance_km": 12.0, "start_source": "nwissite", "start_id": "USGS-02442500", "geometry_length_km": 0.46391178547710482 }, "geometry": { "type": "LineString", "coordinates": [ [ -88.08336803, 33.575027827 ], [ -88.088356003, 33.574480094 ] ] } },
{ "type": "Feature", "properties": { "site_no": "02442500", "nhdplus_comid": "18648078", "navigation_mode": "DM", "requested_distance_km": 12.0, "start_source": "nwissite", "start_id": "USGS-02442500", "geometry_length_km": 0.43485182632848851 }, "geometry": { "type": "LineString", "coordinates": [ [ -88.088356003, 33.574480094 ], [ -88.088492803, 33.574411295 ], [ -88.093008406, 33.573908597 ] ] } },
{ "type": "Feature", "properties": { "site_no": "02442500", "nhdplus_comid": "18648110", "navigation_mode": "DM", "requested_distance_km": 12.0, "start_source": "nwissite", "start_id": "USGS-02442500", "geometry_length_km": 2.0635957187054856 }, "geometry": { "type": "LineString", "coordinates": [ [ -88.093008406, 33.573908597 ], [ -88.108552501, 33.572308093 ], [ -88.115038201, 33.571506999 ], [ -88.115175001, 33.571438193 ] ] } },
{ "type": "Feature", "properties": { "site_no": "02442500", "nhdplus_comid": "18648112", "navigation_mode": "DM", "requested_distance_km": 12.0, "start_source": "nwissite", "start_id": "USGS-02442500", "geometry_length_km": 0.60465185674421273 }, "geometry": { "type": "LineString", "coordinates": [ [ -88.115175001, 33.571438193 ], [ -88.115530707, 33.571438298 ], [ -88.121687807, 33.570820093 ] ] } },
{ "type": "Feature", "properties": { "site_no": "02442500", "nhdplus_comid": "18648114", "navigation_mode": "DM", "requested_distance_km": 12.0, "start_source": "nwissite", "start_id": "USGS-02442500", "geometry_length_km": 0.10624973236034992 }, "geometry": { "type": "LineString", "coordinates": [ [ -88.121687807, 33.570820093 ], [ -88.122837201, 33.570751399 ] ] } },
{ "type": "Feature", "properties": { "site_no": "02442500", "nhdplus_comid": "18648120", "navigation_mode": "DM", "requested_distance_km": 12.0, "start_source": "nwissite", "start_id": "USGS-02442500", "geometry_length_km": 0.50296287677615736 }, "geometry": { "type": "LineString", "coordinates": [ [ -88.122837201, 33.570751399 ], [ -88.125026405, 33.570476398 ], [ -88.1282553, 33.570247397 ] ] } },
{ "type": "Feature", "properties": { "site_no": "02442500", "nhdplus_comid": "18648124", "navigation_mode": "DM", "requested_distance_km": 12.0, "start_source": "nwissite", "start_id": "USGS-02442500", "geometry_length_km": 0.35380985888697947 }, "geometry": { "type": "LineString", "coordinates": [ [ -88.1282553, 33.570247397 ], [ -88.132086307, 33.570063896 ] ] } },
{ "type": "Feature", "properties": { "site_no": "02442500", "nhdplus_comid": "18648130", "navigation_mode": "DM", "requested_distance_km": 12.0, "start_source": "nwissite", "start_id": "USGS-02442500", "geometry_length_km": 0.11425436541645163 }, "geometry": { "type": "LineString", "coordinates": [ [ -88.132086307, 33.570063896 ], [ -88.133317702, 33.569949195 ] ] } },
{ "type": "Feature", "properties": { "site_no": "02442500", "nhdplus_comid": "18648134", "navigation_mode": "DM", "requested_distance_km": 12.0, "start_source": "nwissite", "start_id": "USGS-02442500", "geometry_length_km": 0.34701971051832392 }, "geometry": { "type": "LineString", "coordinates": [ [ -88.133317702, 33.569949195 ], [ -88.137066707, 33.569674097 ] ] } },
{ "type": "Feature", "properties": { "site_no": "02442500", "nhdplus_comid": "18648150", "navigation_mode": "DM", "requested_distance_km": 12.0, "start_source": "nwissite", "start_id": "USGS-02442500", "geometry_length_km": 2.9410064059878307 }, "geometry": { "type": "LineString", "coordinates": [ [ -88.137066707, 33.569674097 ], [ -88.168890402, 33.567879796 ] ] } },
{ "type": "Feature", "properties": { "site_no": "02442500", "nhdplus_comid": "18648172", "navigation_mode": "DM", "requested_distance_km": 12.0, "start_source": "nwissite", "start_id": "USGS-02442500", "geometry_length_km": 3.123988392632759 }, "geometry": { "type": "LineString", "coordinates": [ [ -88.168890402, 33.567879796 ], [ -88.1837207, 33.567026094 ], [ -88.197210006, 33.566262998 ], [ -88.202600203, 33.565870196 ], [ -88.202600203, 33.565801494 ] ] } },
{ "type": "Feature", "properties": { "site_no": "02442500", "nhdplus_comid": "18648580", "navigation_mode": "DM", "requested_distance_km": 12.0, "start_source": "nwissite", "start_id": "USGS-02442500", "geometry_length_km": 5.845292686670815 }, "geometry": { "type": "LineString", "coordinates": [ [ -88.202600203, 33.565801494 ], [ -88.202737004, 33.565870196 ], [ -88.238714807, 33.562864296 ], [ -88.250040807, 33.561730795 ], [ -88.265459105, 33.560402296 ], [ -88.265596002, 33.560333595 ] ] } }
]
}
