{
"type": "FeatureCollection",
"name": "USGS_03576500_UM_12km",
"crs": { "type": "name", "properties": { "name": "urn:ogc:def:crs:OGC:1.3:CRS84" } },
"features": [
{ "type": "Feature", "properties": { "site_no": "03576500", "nhdplus_comid": "19626108", "navigation_mode": "UM", "requested_distance_km": 12.0, "start_source": "nwissite", "start_id": "USGS-03576500", "geometry_length_km": 1.8559643593694808 }, "geometry": { "type": "LineString", "coordinates": [ [ -86.928953506, 34.365688898 ], [ -86.928953804, 34.366055399 ], [ -86.929036804, 34.3661699 ], [ -86.929009601, 34.366811298 ], [ -86.928761102, 34.367223695 ], [ -86.928209007, 34.367750794 ], [ -86.928071201, 34.368163198 ], [ -86.928098902, 34.368369393 ], [ -86.928458102, 34.368529595 ], [ -86.928982906, 34.368346199 ], [ -86.929507606, 34.3679794 ], [ -86.929921903, 34.368002094 ], [ -86.930419303, 34.368208095 ], [ -86.932326406, 34.369558699 ], [ -86.932602704, 34.3696502 ], [ -86.932906605, 34.369581394 ], [ -86.933734506, 34.368550099 ], [ -86.934010804, 34.368572898 ], [ -86.935116202, 34.369167998 ], [ -86.936055802, 34.369511098 ], [ -86.936304606, 34.369854495 ], [ -86.936360307, 34.370495997 ], [ -86.936940901, 34.370907895 ], [ -86.937272601, 34.371251397 ], [ -86.937272906, 34.371663794 ], [ -86.9360025, 34.372420393 ], [ -86.934096701, 34.372947998 ], [ -86.933975879, 34.373023244 ] ] } },
{ "type": "Feature", "properties": { "site_no": "03576500", "nhdplus_comid": "19625574", "navigation_mode": "UM", "requested_distance_km": 12.0, "start_source": "nwissite", "start_id": "USGS-03576500", "geometry_length_km": 0.30158933870631832 }, "geometry": { "type": "LineString", "coordinates": [ [ -86.930665106, 34.364061795 ], [ -86.930941701, 34.364451095 ], [ -86.930914104, 34.364634298 ], [ -86.9303343, 34.3649095 ], [ -86.9294504, 34.365047298 ], [ -86.929201901, 34.365207694 ], [ -86.928953506, 34.365688898 ] ] } },
{ "type": "Feature", "properties": { "site_no": "03576500", "nhdplus_comid": "19625580", "navigation_mode": "UM", "requested_distance_km": 12.0, "start_source": "nwissite", "start_id": "USGS-03576500", "geometry_length_km": 0.54200671843477599 }, "geometry": { "type": "LineString", "coordinates": [ [ -86.926769301, 34.362505794 ], [ -86.927074, 34.363742597 ], [ -86.927295007, 34.363834195 ], [ -86.927543506, 34.363765299 ], [ -86.928399406, 34.363008998 ], [ -86.9304718, 34.3640389 ], [ -86.930665106, 34.364061795 ] ] } },
{ "type": "Feature", "properties": { "site_no": "03576500", "nhdplus_comid": "19625776", "navigation_mode": "UM", "requested_distance_km": 12.0, "start_source": "nwissite", "start_id": "USGS-03576500", "geometry_length_km": 5.4521439605210507 }, "geometry": { "type": "LineString", "coordinates": [ [ -86.914325602, 34.333761998 ], [ -86.914408602, 34.334128499 ], [ -86.914905906, 34.334723897 ], [ -86.914878502, 34.335159093 ], [ -86.914630003, 34.335342497 ], [ -86.913498007, 34.335617699 ], [ -86.913304701, 34.335732296 ], [ -86.912200205, 34.335755594 ], [ -86.911951907, 34.336282499 ], [ -86.911952302, 34.337427899 ], [ -86.912201002, 34.337542295 ], [ -86.912974104, 34.337290093 ], [ -86.9133607, 34.337381594 ], [ -86.913692206, 34.337679297 ], [ -86.913802803, 34.337885395 ], [ -86.913775407, 34.338320598 ], [ -86.913444303, 34.338985093 ], [ -86.913472101, 34.339374393 ], [ -86.913554907, 34.339465998 ], [ -86.9141073, 34.339580394 ], [ -86.9158746, 34.339442499 ], [ -86.917228006, 34.339785598 ], [ -86.918664403, 34.340563998 ], [ -86.919769302, 34.341044597 ], [ -86.919769406, 34.341204897 ], [ -86.918526806, 34.341342799 ], [ -86.918471701, 34.341663599 ], [ -86.918582201, 34.3418926 ], [ -86.919852905, 34.342510596 ], [ -86.920101702, 34.342899993 ], [ -86.9201582, 34.3452136 ], [ -86.920462005, 34.345373899 ], [ -86.921152502, 34.345442295 ], [ -86.921787806, 34.345716998 ], [ -86.922174603, 34.346083298 ], [ -86.9220367, 34.346381195 ], [ -86.921567403, 34.346793599 ], [ -86.921595506, 34.347595394 ], [ -86.921706103, 34.347916096 ], [ -86.922645904, 34.348992296 ], [ -86.922618404, 34.349198394 ], [ -86.922397502, 34.3492902 ], [ -86.921430707, 34.349313498 ], [ -86.921182305, 34.349428095 ], [ -86.920989104, 34.349634297 ], [ -86.9209892, 34.349840499 ], [ -86.921237804, 34.350000694 ], [ -86.922204703, 34.350206494 ], [ -86.922481105, 34.350572899 ], [ -86.922481306, 34.351076894 ], [ -86.922315806, 34.351420499 ], [ -86.922343701, 34.3519473 ], [ -86.921764202, 34.3527264 ], [ -86.921764307, 34.352978393 ], [ -86.921847202, 34.3530242 ], [ -86.922620505, 34.3529322 ], [ -86.922758706, 34.353115596 ], [ -86.922676004, 34.353482097 ], [ -86.922178902, 34.353642598 ], [ -86.921985701, 34.353780195 ], [ -86.921958201, 34.3541696 ], [ -86.921792604, 34.354238398 ], [ -86.920991607, 34.3542386 ], [ -86.920853704, 34.354490496 ], [ -86.920854107, 34.355292395 ], [ -86.921407305, 34.356803998 ], [ -86.921794102, 34.356987193 ], [ -86.922236003, 34.356918298 ], [ -86.922926202, 34.356345296 ], [ -86.923147306, 34.356528498 ], [ -86.923175804, 34.358177796 ], [ -86.9225685, 34.358658999 ], [ -86.922485702, 34.358865194 ], [ -86.922596306, 34.359048493 ], [ -86.9227897, 34.359117098 ], [ -86.924087606, 34.358681396 ], [ -86.924584806, 34.358703993 ], [ -86.924750604, 34.358818494 ], [ -86.924888901, 34.359070495 ], [ -86.9249724, 34.360146999 ], [ -86.925221302, 34.360742494 ], [ -86.925359502, 34.360834099 ], [ -86.926105306, 34.360650599 ], [ -86.9264092, 34.360719196 ], [ -86.926685505, 34.360879496 ], [ -86.926796101, 34.361062594 ], [ -86.926769301, 34.362505794 ] ] } }
]
}
