{
"type": "FeatureCollection",
"name": "USGS_02427500_DM_12km",
"crs": { "type": "name", "properties": { "name": "urn:ogc:def:crs:OGC:1.3:CRS84" } },
"features": [
{ "type": "Feature", "properties": { "site_no": "02427500", "nhdplus_comid": "21456714", "navigation_mode": "DM", "requested_distance_km": 12.0, "start_source": "nwissite", "start_id": "USGS-02427500", "geometry_length_km": 1.2077638851973567 }, "geometry": { "type": "LineString", "coordinates": [ [ -87.397607615, 32.114273027 ], [ -87.398124404, 32.110321194 ], [ -87.398772106, 32.109866194 ], [ -87.400485806, 32.107852697 ], [ -87.400822505, 32.104724899 ], [ -87.400417604, 32.104315497 ] ] } },
{ "type": "Feature", "properties": { "site_no": "02427500", "nhdplus_comid": "21456716", "navigation_mode": "DM", "requested_distance_km": 12.0, "start_source": "nwissite", "start_id": "USGS-02427500", "geometry_length_km": 0.38627173796942532 }, "geometry": { "type": "LineString", "coordinates": [ [ -87.400417604, 32.104315497 ], [ -87.399499707, 32.103109896 ], [ -87.3996768, 32.101081595 ] ] } },
{ "type": "Feature", "properties": { "site_no": "02427500", "nhdplus_comid": "21456722", "navigation_mode": "DM", "requested_distance_km": 12.0, "start_source": "nwissite", "start_id": "USGS-02427500", "geometry_length_km": 0.23267401934174731 }, "geometry": { "type": "LineString", "coordinates": [ [ -87.3996768, 32.101081595 ], [ -87.399858706, 32.098999299 ] ] } },
{ "type": "Feature", "properties": { "site_no": "02427500", "nhdplus_comid": "21456738", "navigation_mode": "DM", "requested_distance_km": 12.0, "start_source": "nwissite", "start_id": "USGS-02427500", "geometry_length_km": 2.1611667910630077 }, "geometry": { "type": "LineString", "coordinates": [ [ -87.399858706, 32.098999299 ], [ -87.400146, 32.0957167 ], [ -87.400901005, 32.092873096 ], [ -87.402059406, 32.083500497 ], [ -87.401816405, 32.082977295 ], [ -87.401950806, 32.080338396 ], [ -87.401707806, 32.079815194 ] ] } },
{ "type": "Feature", "properties": { "site_no": "02427500", "nhdplus_comid": "21456768", "navigation_mode": "DM", "requested_distance_km": 12.0, "start_source": "nwissite", "start_id": "USGS-02427500", "geometry_length_km": 2.4898226168555246 }, "geometry": { "type": "LineString", "coordinates": [ [ -87.401707806, 32.079815194 ], [ -87.401896305, 32.078063495 ], [ -87.401693806, 32.077164896 ], [ -87.401571102, 32.071352594 ], [ -87.402230702, 32.065221496 ], [ -87.403942004, 32.057656996 ] ] } },
{ "type": "Feature", "properties": { "site_no": "02427500", "nhdplus_comid": "21456782", "navigation_mode": "DM", "requested_distance_km": 12.0, "start_source": "nwissite", "start_id": "USGS-02427500", "geometry_length_km": 2.2040866342363441 }, "geometry": { "type": "LineString", "coordinates": [ [ -87.403942004, 32.057656996 ], [ -87.404036306, 32.057474896 ], [ -87.404279105, 32.057304293 ], [ -87.404562004, 32.056064397 ], [ -87.406166002, 32.052276194 ], [ -87.408457302, 32.047657393 ], [ -87.410223201, 32.045143194 ], [ -87.411732502, 32.042230695 ], [ -87.4134982, 32.0397164 ] ] } },
{ "type": "Feature", "properties": { "site_no": "02427500", "nhdplus_comid": "21456788", "navigation_mode": "DM", "requested_distance_km": 12.0, "start_source": "nwissite", "start_id": "USGS-02427500", "geometry_length_km": 3.5208750214588638 }, "geometry": { "type": "LineString", "coordinates": [ [ -87.4134982, 32.0397164 ], [ -87.413592502, 32.039534293 ], [ -87.417393506, 32.035472296 ], [ -87.422569603, 32.031830497 ], [ -87.425198406, 32.031021997 ], [ -87.426870205, 32.030771099 ], [ -87.430416502, 32.031167798 ], [ -87.433005802, 32.032122299 ], [ -87.434408605, 32.032986194 ], [ -87.436296701, 32.033508599 ], [ -87.438872807, 32.034587994 ], [ -87.440356106, 32.034701094 ], [ -87.442027904, 32.034449995 ], [ -87.444373302, 32.033493198 ], [ -87.445181906, 32.032923996 ] ] } }
]
}
