{
"type": "FeatureCollection",
"name": "USGS_02418230_UM_12km",
"crs": { "type": "name", "properties": { "name": "urn:ogc:def:crs:OGC:1.3:CRS84" } },
"features": [
{ "type": "Feature", "properties": { "site_no": "02418230", "nhdplus_comid": "21712124", "navigation_mode": "UM", "requested_distance_km": 12.0, "start_source": "nwissite", "start_id": "USGS-02418230", "geometry_length_km": 0.29861187478398815 }, "geometry": { "type": "LineString", "coordinates": [ [ -85.586080305, 32.625258096 ], [ -85.586594604, 32.625258297 ], [ -85.587244101, 32.625647895 ], [ -85.587839507, 32.625945896 ], [ -85.587893501, 32.626197897 ], [ -85.587812103, 32.626724698 ], [ -85.587968266, 32.626890098 ] ] } },
{ "type": "Feature", "properties": { "site_no": "02418230", "nhdplus_comid": "21712132", "navigation_mode": "UM", "requested_distance_km": 12.0, "start_source": "nwissite", "start_id": "USGS-02418230", "geometry_length_km": 0.3562212748949779 }, "geometry": { "type": "LineString", "coordinates": [ [ -85.582561404, 32.6246612 ], [ -85.583292305, 32.624638595 ], [ -85.584266804, 32.624845095 ], [ -85.584916301, 32.625188999 ], [ -85.5855387, 32.625464097 ], [ -85.585972004, 32.625349693 ], [ -85.586080305, 32.625258096 ] ] } },
{ "type": "Feature", "properties": { "site_no": "02418230", "nhdplus_comid": "21712130", "navigation_mode": "UM", "requested_distance_km": 12.0, "start_source": "nwissite", "start_id": "USGS-02418230", "geometry_length_km": 4.3919711240061075 }, "geometry": { "type": "LineString", "coordinates": [ [ -85.548043802, 32.628056899 ], [ -85.548883006, 32.6281491 ], [ -85.549045205, 32.628263697 ], [ -85.549152702, 32.629134297 ], [ -85.549233906, 32.629225999 ], [ -85.550072901, 32.629409797 ], [ -85.550614007, 32.629845396 ], [ -85.551344901, 32.629960299 ], [ -85.55167, 32.629525296 ], [ -85.5518867, 32.629433796 ], [ -85.551967807, 32.629548393 ], [ -85.551940203, 32.630189799 ], [ -85.552265003, 32.630281694 ], [ -85.553158604, 32.629984394 ], [ -85.553348005, 32.630121998 ], [ -85.553564303, 32.6305115 ], [ -85.553780802, 32.630511694 ], [ -85.553889304, 32.630282596 ], [ -85.5541059, 32.630236998 ], [ -85.554322302, 32.630374596 ], [ -85.554349102, 32.630741097 ], [ -85.554457307, 32.630855694 ], [ -85.556460403, 32.631131694 ], [ -85.557109803, 32.631567396 ], [ -85.557867303, 32.632163398 ], [ -85.5580566, 32.632484294 ], [ -85.558327205, 32.632621899 ], [ -85.558570802, 32.632621996 ], [ -85.5590856, 32.6321413 ], [ -85.559356503, 32.631958097 ], [ -85.559681304, 32.631958298 ], [ -85.559870705, 32.632233299 ], [ -85.559545405, 32.6326226 ], [ -85.5594908, 32.633195296 ], [ -85.559571907, 32.6334472 ], [ -85.559761204, 32.633630596 ], [ -85.560194403, 32.633653797 ], [ -85.560573503, 32.633493595 ], [ -85.561034106, 32.633104496 ], [ -85.562144302, 32.632784396 ], [ -85.563227206, 32.632807799 ], [ -85.563606307, 32.632739298 ], [ -85.563741706, 32.632555999 ], [ -85.563742302, 32.631845899 ], [ -85.563823603, 32.631777197 ], [ -85.565773204, 32.631090999 ], [ -85.567153901, 32.631022997 ], [ -85.567506, 32.630862795 ], [ -85.568020806, 32.630221598 ], [ -85.568643801, 32.629809499 ], [ -85.568968907, 32.629443094 ], [ -85.569537602, 32.6291686 ], [ -85.569944002, 32.628618896 ], [ -85.5701067, 32.628252499 ], [ -85.570973001, 32.628207095 ], [ -85.573003806, 32.627474993 ], [ -85.574466005, 32.626834199 ], [ -85.574980706, 32.626399197 ], [ -85.5751433, 32.626101494 ], [ -85.575224802, 32.625551596 ], [ -85.575062603, 32.625184998 ], [ -85.575062707, 32.625001796 ], [ -85.575198203, 32.624795698 ], [ -85.575631402, 32.624727197 ], [ -85.576226801, 32.624864899 ], [ -85.579475306, 32.624728799 ], [ -85.580774605, 32.624981195 ], [ -85.581126601, 32.624821 ], [ -85.581992805, 32.624798499 ], [ -85.582561404, 32.6246612 ] ] } },
{ "type": "Feature", "properties": { "site_no": "02418230", "nhdplus_comid": "21712112", "navigation_mode": "UM", "requested_distance_km": 12.0, "start_source": "nwissite", "start_id": "USGS-02418230", "geometry_length_km": 0.5685904097726161 }, "geometry": { "type": "LineString", "coordinates": [ [ -85.543845803, 32.630092897 ], [ -85.544225402, 32.629543394 ], [ -85.544658706, 32.629314594 ], [ -85.545525804, 32.628467597 ], [ -85.546121404, 32.628353395 ], [ -85.546337903, 32.628513999 ], [ -85.546689704, 32.628559999 ], [ -85.546744004, 32.628445499 ], [ -85.546581805, 32.628307894 ], [ -85.546582006, 32.628033094 ], [ -85.546798602, 32.6279644 ], [ -85.547177501, 32.628124997 ], [ -85.548043802, 32.628056899 ] ] } },
{ "type": "Feature", "properties": { "site_no": "02418230", "nhdplus_comid": "21712094", "navigation_mode": "UM", "requested_distance_km": 12.0, "start_source": "nwissite", "start_id": "USGS-02418230", "geometry_length_km": 0.41528015945188379 }, "geometry": { "type": "LineString", "coordinates": [ [ -85.5410823, 32.6324047 ], [ -85.541191004, 32.632038198 ], [ -85.541407704, 32.631786399 ], [ -85.541489504, 32.631236695 ], [ -85.5419228, 32.631122395 ], [ -85.542302102, 32.630801998 ], [ -85.543222606, 32.630779698 ], [ -85.543439202, 32.630665295 ], [ -85.543845803, 32.630092897 ] ] } },
{ "type": "Feature", "properties": { "site_no": "02418230", "nhdplus_comid": "21712060", "navigation_mode": "UM", "requested_distance_km": 12.0, "start_source": "nwissite", "start_id": "USGS-02418230", "geometry_length_km": 0.57650033371624676 }, "geometry": { "type": "LineString", "coordinates": [ [ -85.535936601, 32.634187795 ], [ -85.5362349, 32.633798599 ], [ -85.536397405, 32.633707099 ], [ -85.537074007, 32.633844994 ], [ -85.537588604, 32.633685097 ], [ -85.5379133, 32.633868597 ], [ -85.5383735, 32.633891799 ], [ -85.539104901, 32.633434094 ], [ -85.539863303, 32.633022293 ], [ -85.540026203, 32.632724598 ], [ -85.5410823, 32.6324047 ] ] } },
{ "type": "Feature", "properties": { "site_no": "02418230", "nhdplus_comid": "21712044", "navigation_mode": "UM", "requested_distance_km": 12.0, "start_source": "nwissite", "start_id": "USGS-02418230", "geometry_length_km": 0.29578199077857553 }, "geometry": { "type": "LineString", "coordinates": [ [ -85.532903805, 32.634872794 ], [ -85.534528404, 32.634690695 ], [ -85.535936601, 32.634187795 ] ] } },
{ "type": "Feature", "properties": { "site_no": "02418230", "nhdplus_comid": "21712078", "navigation_mode": "UM", "requested_distance_km": 12.0, "start_source": "nwissite", "start_id": "USGS-02418230", "geometry_length_km": 2.1082920869345072 }, "geometry": { "type": "LineString", "coordinates": [ [ -85.515523903, 32.633964695 ], [ -85.515957601, 32.633552693 ], [ -85.516012207, 32.633232094 ], [ -85.516716905, 32.632637098 ], [ -85.516852707, 32.632270694 ], [ -85.517340504, 32.631881796 ], [ -85.518559605, 32.631149799 ], [ -85.5189384, 32.6313105 ], [ -85.519100405, 32.631654195 ], [ -85.519208305, 32.631952196 ], [ -85.519397601, 32.632112697 ], [ -85.519803502, 32.632296197 ], [ -85.521238402, 32.632274598 ], [ -85.521969005, 32.632504299 ], [ -85.522645302, 32.632963099 ], [ -85.522753, 32.633444197 ], [ -85.523970403, 32.6341554 ], [ -85.524755403, 32.634201795 ], [ -85.525107302, 32.634316593 ], [ -85.525377706, 32.634614699 ], [ -85.525350206, 32.6349812 ], [ -85.525485404, 32.635095894 ], [ -85.526189506, 32.6348674 ], [ -85.527164906, 32.634203896 ], [ -85.527896203, 32.633952394 ], [ -85.528329104, 32.634250596 ], [ -85.528329, 32.634342298 ], [ -85.528599501, 32.6345945 ], [ -85.529303007, 32.634938598 ], [ -85.530656807, 32.634802297 ], [ -85.531388007, 32.634482093 ], [ -85.531956606, 32.634436794 ], [ -85.532389805, 32.6345516 ], [ -85.532903805, 32.634872794 ] ] } },
{ "type": "Feature", "properties": { "site_no": "02418230", "nhdplus_comid": "21712042", "navigation_mode": "UM", "requested_distance_km": 12.0, "start_source": "nwissite", "start_id": "USGS-02418230", "geometry_length_km": 1.5306632043341639 }, "geometry": { "type": "LineString", "coordinates": [ [ -85.510912903, 32.640580796 ], [ -85.510642804, 32.640030697 ], [ -85.509399004, 32.638907097 ], [ -85.509129204, 32.638173699 ], [ -85.509319201, 32.637784496 ], [ -85.509834103, 32.637441397 ], [ -85.510971203, 32.637442499 ], [ -85.513785906, 32.6381782 ], [ -85.514137805, 32.638178594 ], [ -85.514598407, 32.637995698 ], [ -85.516822502, 32.634744696 ], [ -85.516850002, 32.634401098 ], [ -85.5166336, 32.634286396 ], [ -85.5156046, 32.6344916 ], [ -85.515523903, 32.633964695 ] ] } }
]
}
