{
"type": "FeatureCollection",
"name": "USGS_02367800_DM_12km",
"crs": { "type": "name", "properties": { "name": "urn:ogc:def:crs:OGC:1.3:CRS84" } },
"features": [
{ "type": "Feature", "properties": { "site_no": "02367800", "nhdplus_comid": "894557", "navigation_mode": "DM", "requested_distance_km": 12.0, "start_source": "nwissite", "start_id": "USGS-02367800", "geometry_length_km": 0.25044237208393644 }, "geometry": { "type": "LineString", "coordinates": [ [ -86.537256348, 31.009986421 ], [ -86.537252903, 31.0099511 ], [ -86.537333101, 31.009492896 ], [ -86.537946604, 31.007820196 ] ] } },
{ "type": "Feature", "properties": { "site_no": "02367800", "nhdplus_comid": "894585", "navigation_mode": "DM", "requested_distance_km": 12.0, "start_source": "nwissite", "start_id": "USGS-02367800", "geometry_length_km": 0.35445132953224417 }, "geometry": { "type": "LineString", "coordinates": [ [ -86.537946604, 31.007820196 ], [ -86.538081005, 31.006307699 ], [ -86.5379484, 31.005917996 ], [ -86.537709206, 31.0055741 ], [ -86.537310407, 31.005115397 ], [ -86.537044503, 31.004931897 ] ] } },
{ "type": "Feature", "properties": { "site_no": "02367800", "nhdplus_comid": "894599", "navigation_mode": "DM", "requested_distance_km": 12.0, "start_source": "nwissite", "start_id": "USGS-02367800", "geometry_length_km": 0.26759940810864297 }, "geometry": { "type": "LineString", "coordinates": [ [ -86.537044503, 31.004931897 ], [ -86.536592804, 31.004175298 ], [ -86.536593802, 31.003075197 ], [ -86.5367539, 31.002639793 ] ] } },
{ "type": "Feature", "properties": { "site_no": "02367800", "nhdplus_comid": "894629", "navigation_mode": "DM", "requested_distance_km": 12.0, "start_source": "nwissite", "start_id": "USGS-02367800", "geometry_length_km": 0.65151480938753858 }, "geometry": { "type": "LineString", "coordinates": [ [ -86.5367539, 31.002639793 ], [ -86.537445903, 31.0019757 ], [ -86.538643003, 31.0017244 ], [ -86.538935505, 31.0014496 ], [ -86.538988702, 31.001266196 ], [ -86.538775705, 31.000876494 ], [ -86.5387756, 31.000486895 ], [ -86.539094806, 31.000326693 ], [ -86.539680004, 31.000349998 ], [ -86.5399727, 31.000418998 ], [ -86.540451504, 31.000740096 ], [ -86.540797405, 31.000740297 ], [ -86.541010104, 31.000579998 ], [ -86.541116707, 31.000195794 ] ] } },
{ "type": "Feature", "properties": { "site_no": "02367800", "nhdplus_comid": "895899", "navigation_mode": "DM", "requested_distance_km": 12.0, "start_source": "nwissite", "start_id": "USGS-02367800", "geometry_length_km": 0.60262178565881042 }, "geometry": { "type": "LineString", "coordinates": [ [ -86.541116707, 31.000195794 ], [ -86.541170403, 30.999460496 ], [ -86.5415437, 30.998291895 ], [ -86.541517407, 30.997627296 ], [ -86.541172005, 30.996985294 ], [ -86.541225404, 30.996756196 ], [ -86.541385107, 30.9966418 ], [ -86.541890606, 30.996550396 ], [ -86.542502403, 30.996734194 ], [ -86.543300405, 30.996826299 ] ] } },
{ "type": "Feature", "properties": { "site_no": "02367800", "nhdplus_comid": "897699", "navigation_mode": "DM", "requested_distance_km": 12.0, "start_source": "nwissite", "start_id": "USGS-02367800", "geometry_length_km": 1.3081709839686189 }, "geometry": { "type": "LineString", "coordinates": [ [ -86.543300405, 30.996826299 ], [ -86.543354504, 30.996024296 ], [ -86.543141805, 30.995817795 ], [ -86.542264104, 30.995542295 ], [ -86.542024806, 30.995335795 ], [ -86.542025, 30.995129496 ], [ -86.542584501, 30.994327694 ], [ -86.542532004, 30.993594296 ], [ -86.542611904, 30.993342295 ], [ -86.542931505, 30.9930216 ], [ -86.543916203, 30.992632695 ], [ -86.544608302, 30.992128894 ], [ -86.5448751, 30.991303995 ], [ -86.545248106, 30.990616694 ], [ -86.546206601, 30.989723496 ], [ -86.546260104, 30.989356793 ], [ -86.545914702, 30.988783598 ], [ -86.545861803, 30.988416895 ], [ -86.546527706, 30.987454697 ] ] } },
{ "type": "Feature", "properties": { "site_no": "02367800", "nhdplus_comid": "895927", "navigation_mode": "DM", "requested_distance_km": 12.0, "start_source": "nwissite", "start_id": "USGS-02367800", "geometry_length_km": 0.083396303987623641 }, "geometry": { "type": "LineString", "coordinates": [ [ -86.546527706, 30.987454697 ], [ -86.546794005, 30.987042293 ], [ -86.5468475, 30.986767396 ] ] } },
{ "type": "Feature", "properties": { "site_no": "02367800", "nhdplus_comid": "895939", "navigation_mode": "DM", "requested_distance_km": 12.0, "start_source": "nwissite", "start_id": "USGS-02367800", "geometry_length_km": 0.85014938709273391 }, "geometry": { "type": "LineString", "coordinates": [ [ -86.5468475, 30.986767396 ], [ -86.546847701, 30.986561097 ], [ -86.5462097, 30.986102298 ], [ -86.546343006, 30.985712796 ], [ -86.547141202, 30.9855299 ], [ -86.547513604, 30.985530093 ], [ -86.547912501, 30.985782593 ], [ -86.547938801, 30.986080498 ], [ -86.548098207, 30.986286893 ], [ -86.548550703, 30.986080796 ], [ -86.548843503, 30.985760197 ], [ -86.548871703, 30.983812094 ], [ -86.549084805, 30.983445495 ], [ -86.549936704, 30.982598096 ] ] } },
{ "type": "Feature", "properties": { "site_no": "02367800", "nhdplus_comid": "895943", "navigation_mode": "DM", "requested_distance_km": 12.0, "start_source": "nwissite", "start_id": "USGS-02367800", "geometry_length_km": 0.1947472525271722 }, "geometry": { "type": "LineString", "coordinates": [ [ -86.549936704, 30.982598096 ], [ -86.5510552, 30.981131993 ] ] } },
{ "type": "Feature", "properties": { "site_no": "02367800", "nhdplus_comid": "895971", "navigation_mode": "DM", "requested_distance_km": 12.0, "start_source": "nwissite", "start_id": "USGS-02367800", "geometry_length_km": 1.5544718294241306 }, "geometry": { "type": "LineString", "coordinates": [ [ -86.5510552, 30.981131993 ], [ -86.551162206, 30.980306894 ], [ -86.550763503, 30.979871295 ], [ -86.550737202, 30.979550399 ], [ -86.551189706, 30.979206793 ], [ -86.552466504, 30.979093097 ], [ -86.552679501, 30.9790015 ], [ -86.5532654, 30.978039198 ], [ -86.554117203, 30.977237597 ], [ -86.554330304, 30.976893894 ], [ -86.554357201, 30.976343796 ], [ -86.553400606, 30.975128599 ], [ -86.553268105, 30.974509694 ], [ -86.553374805, 30.974074394 ], [ -86.553800806, 30.973593295 ], [ -86.554253802, 30.972608097 ], [ -86.554573201, 30.972195797 ], [ -86.555637404, 30.971760899 ], [ -86.555744402, 30.9710733 ], [ -86.555213004, 30.970247999 ] ] } },
{ "type": "Feature", "properties": { "site_no": "02367800", "nhdplus_comid": "895985", "navigation_mode": "DM", "requested_distance_km": 12.0, "start_source": "nwissite", "start_id": "USGS-02367800", "geometry_length_km": 0.53296413921750507 }, "geometry": { "type": "LineString", "coordinates": [ [ -86.555213004, 30.970247999 ], [ -86.555133507, 30.969949998 ], [ -86.554841101, 30.969674796 ], [ -86.5548691, 30.9677497 ], [ -86.554630503, 30.966718197 ], [ -86.553966403, 30.965732299 ] ] } },
{ "type": "Feature", "properties": { "site_no": "02367800", "nhdplus_comid": "896013", "navigation_mode": "DM", "requested_distance_km": 12.0, "start_source": "nwissite", "start_id": "USGS-02367800", "geometry_length_km": 1.2519623578021775 }, "geometry": { "type": "LineString", "coordinates": [ [ -86.553966403, 30.965732299 ], [ -86.553355001, 30.965388097 ], [ -86.553036004, 30.965066999 ], [ -86.553169407, 30.964608796 ], [ -86.553435706, 30.964219294 ], [ -86.554819003, 30.963715799 ], [ -86.5555906, 30.963234998 ], [ -86.555989802, 30.962891497 ], [ -86.555990301, 30.962272599 ], [ -86.555724502, 30.961951695 ], [ -86.555139802, 30.961492896 ], [ -86.554635204, 30.960598893 ], [ -86.554449603, 30.959933996 ], [ -86.554344103, 30.958696395 ], [ -86.553866006, 30.957939796 ], [ -86.553839907, 30.957229294 ], [ -86.553973302, 30.956725195 ] ] } },
{ "type": "Feature", "properties": { "site_no": "02367800", "nhdplus_comid": "896045", "navigation_mode": "DM", "requested_distance_km": 12.0, "start_source": "nwissite", "start_id": "USGS-02367800", "geometry_length_km": 1.2389635104315067 }, "geometry": { "type": "LineString", "coordinates": [ [ -86.553973302, 30.956725195 ], [ -86.554932602, 30.9542505 ], [ -86.555225506, 30.953700595 ], [ -86.5553324, 30.953196496 ], [ -86.555279307, 30.952921398 ], [ -86.554987006, 30.952714995 ], [ -86.554082602, 30.9528291 ], [ -86.553125501, 30.9525306 ], [ -86.552487604, 30.952094793 ], [ -86.552302405, 30.950902894 ], [ -86.552010201, 30.950558893 ], [ -86.551239304, 30.950191796 ], [ -86.551239505, 30.949939698 ], [ -86.551559001, 30.949435696 ], [ -86.551905707, 30.948221199 ] ] } },
{ "type": "Feature", "properties": { "site_no": "02367800", "nhdplus_comid": "896095", "navigation_mode": "DM", "requested_distance_km": 12.0, "start_source": "nwissite", "start_id": "USGS-02367800", "geometry_length_km": 0.85003155613291204 }, "geometry": { "type": "LineString", "coordinates": [ [ -86.551905707, 30.948221199 ], [ -86.552038804, 30.948106594 ], [ -86.552437805, 30.948015295 ], [ -86.553341806, 30.948176198 ], [ -86.553687707, 30.947855495 ], [ -86.553634606, 30.947717898 ], [ -86.552863903, 30.947075799 ], [ -86.5524664, 30.945333794 ], [ -86.5527061, 30.9449443 ], [ -86.553158201, 30.944715396 ], [ -86.553849705, 30.944578297 ], [ -86.554142304, 30.944440894 ], [ -86.554408602, 30.943959795 ], [ -86.555020601, 30.943432897 ] ] } }
]
}
