{
"type": "FeatureCollection",
"name": "USGS_02378300_DM_12km",
"crs": { "type": "name", "properties": { "name": "urn:ogc:def:crs:OGC:1.3:CRS84" } },
"features": [
{ "type": "Feature", "properties": { "site_no": "02378300", "nhdplus_comid": "18516128", "navigation_mode": "DM", "requested_distance_km": 12.0, "start_source": "nwissite", "start_id": "USGS-02378300", "geometry_length_km": 3.0477836127712017 }, "geometry": { "type": "LineString", "coordinates": [ [ -87.73736969, 30.40579571 ], [ -87.738288805, 30.403377093 ], [ -87.739028506, 30.402894996 ], [ -87.739266105, 30.402596794 ], [ -87.7395823, 30.401633896 ], [ -87.740559801, 30.401014194 ], [ -87.741326205, 30.400669798 ], [ -87.742489301, 30.400370695 ], [ -87.743837006, 30.399819396 ], [ -87.744683005, 30.399681099 ], [ -87.745290905, 30.399497099 ], [ -87.746057101, 30.399038099 ], [ -87.746797301, 30.398922697 ], [ -87.747273207, 30.398945197 ], [ -87.747934707, 30.3993342 ], [ -87.748702601, 30.400158495 ], [ -87.749046504, 30.400364496 ], [ -87.749469705, 30.4004099 ], [ -87.749998301, 30.400203094 ], [ -87.750378504, 30.400048397 ], [ -87.750748403, 30.400232099 ], [ -87.751092106, 30.400232397 ], [ -87.7512509, 30.4001638 ], [ -87.751594603, 30.400187097 ], [ -87.752017006, 30.400714599 ], [ -87.752651304, 30.400875598 ], [ -87.7530476, 30.401105098 ], [ -87.755295306, 30.400923796 ], [ -87.755427301, 30.401107296 ], [ -87.755850203, 30.401176393 ], [ -87.757040605, 30.400741994 ], [ -87.758442402, 30.400399394 ], [ -87.759157106, 30.399712399 ], [ -87.759500906, 30.399620995 ], [ -87.7598444, 30.399873495 ], [ -87.760240801, 30.399988398 ], [ -87.7609547, 30.400034897 ], [ -87.761589505, 30.399760395 ], [ -87.762144804, 30.399760798 ], [ -87.762911201, 30.400105193 ] ] } },
{ "type": "Feature", "properties": { "site_no": "02378300", "nhdplus_comid": "18516010", "navigation_mode": "DM", "requested_distance_km": 12.0, "start_source": "nwissite", "start_id": "USGS-02378300", "geometry_length_km": 2.1096762058241936 }, "geometry": { "type": "LineString", "coordinates": [ [ -87.762911201, 30.400105193 ], [ -87.763334304, 30.400105499 ], [ -87.763519704, 30.399899393 ], [ -87.7635464, 30.3996244 ], [ -87.763308905, 30.399142899 ], [ -87.7634679, 30.398868099 ], [ -87.763944104, 30.398593396 ], [ -87.764499903, 30.398135394 ], [ -87.765346102, 30.398021594 ], [ -87.765821502, 30.398411594 ], [ -87.766218007, 30.398595199 ], [ -87.767222606, 30.3987564 ], [ -87.767513201, 30.398917198 ], [ -87.767750807, 30.399329893 ], [ -87.767908506, 30.400109299 ], [ -87.768119901, 30.400338598 ], [ -87.7684635, 30.400338896 ], [ -87.769151405, 30.400041394 ], [ -87.769918606, 30.399514899 ], [ -87.7721406, 30.398531094 ], [ -87.774468206, 30.397638999 ], [ -87.774627, 30.3974557 ], [ -87.774681903, 30.395438798 ], [ -87.774894007, 30.394843094 ], [ -87.775317803, 30.394041196 ], [ -87.775714703, 30.393720597 ], [ -87.7771428, 30.393309094 ] ] } },
{ "type": "Feature", "properties": { "site_no": "02378300", "nhdplus_comid": "18516176", "navigation_mode": "DM", "requested_distance_km": 12.0, "start_source": "nwissite", "start_id": "USGS-02378300", "geometry_length_km": 0.0074151671732637283 }, "geometry": { "type": "LineString", "coordinates": [ [ -87.7771428, 30.393309094 ], [ -87.7771198, 30.393340096 ], [ -87.777138703, 30.393365197 ] ] } },
{ "type": "Feature", "properties": { "site_no": "02378300", "nhdplus_comid": "18516178", "navigation_mode": "DM", "requested_distance_km": 12.0, "start_source": "nwissite", "start_id": "USGS-02378300", "geometry_length_km": 1.3039353856814029 }, "geometry": { "type": "LineString", "coordinates": [ [ -87.777138703, 30.393365197 ], [ -87.779431, 30.396402396 ], [ -87.781745002, 30.3967022 ], [ -87.784121901, 30.396374099 ], [ -87.7848868, 30.396051794 ], [ -87.785834901, 30.395363599 ], [ -87.786011204, 30.393605493 ], [ -87.786406301, 30.393318698 ] ] } },
{ "type": "Feature", "properties": { "site_no": "02378300", "nhdplus_comid": "18516184", "navigation_mode": "DM", "requested_distance_km": 12.0, "start_source": "nwissite", "start_id": "USGS-02378300", "geometry_length_km": 0.75008236959184316 }, "geometry": { "type": "LineString", "coordinates": [ [ -87.786406301, 30.393318698 ], [ -87.788084701, 30.393381096 ], [ -87.788919404, 30.393823095 ], [ -87.7903734, 30.393931799 ], [ -87.7928636, 30.392473295 ], [ -87.793536805, 30.392333798 ] ] } },
{ "type": "Feature", "properties": { "site_no": "02378300", "nhdplus_comid": "18516188", "navigation_mode": "DM", "requested_distance_km": 12.0, "start_source": "nwissite", "start_id": "USGS-02378300", "geometry_length_km": 0.85100048123711713 }, "geometry": { "type": "LineString", "coordinates": [ [ -87.793536805, 30.392333798 ], [ -87.795569003, 30.391789898 ], [ -87.797617204, 30.391816497 ], [ -87.7988308, 30.391401097 ], [ -87.800897107, 30.389784098 ], [ -87.801491305, 30.389702 ] ] } },
{ "type": "Feature", "properties": { "site_no": "02378300", "nhdplus_comid": "18516196", "navigation_mode": "DM", "requested_distance_km": 12.0, "start_source": "nwissite", "start_id": "USGS-02378300", "geometry_length_km": 1.6781983145880581 }, "geometry": { "type": "LineString", "coordinates": [ [ -87.801491305, 30.389702 ], [ -87.804797806, 30.390328497 ], [ -87.806991406, 30.390365697 ], [ -87.808059506, 30.389939398 ], [ -87.809639104, 30.388792098 ], [ -87.810965605, 30.387246296 ], [ -87.812229306, 30.386328399 ], [ -87.813284703, 30.386027597 ], [ -87.814302504, 30.386103496 ], [ -87.815004304, 30.386408895 ], [ -87.816038005, 30.387761995 ] ] } }
]
}
