{
"type": "FeatureCollection",
"name": "USGS_02376293_DM_12km",
"crs": { "type": "name", "properties": { "name": "urn:ogc:def:crs:OGC:1.3:CRS84" } },
"features": [
{ "type": "Feature", "properties": { "site_no": "02376293", "nhdplus_comid": "2171877", "navigation_mode": "DM", "requested_distance_km": 12.0, "start_source": "nwissite", "start_id": "USGS-02376293", "geometry_length_km": 1.2015317174359956 }, "geometry": { "type": "LineString", "coordinates": [ [ -87.528540613, 30.977988732 ], [ -87.528566003, 30.977728195 ], [ -87.528486803, 30.977109298 ], [ -87.528354101, 30.976811297 ], [ -87.526308902, 30.973853193 ], [ -87.525857501, 30.973050699 ], [ -87.525804706, 30.972615294 ], [ -87.525911406, 30.972340293 ], [ -87.526763603, 30.971309699 ], [ -87.526897207, 30.970667996 ], [ -87.526845403, 30.969315797 ], [ -87.526765801, 30.969155297 ], [ -87.526660502, 30.968055196 ] ] } },
{ "type": "Feature", "properties": { "site_no": "02376293", "nhdplus_comid": "2171027", "navigation_mode": "DM", "requested_distance_km": 12.0, "start_source": "nwissite", "start_id": "USGS-02376293", "geometry_length_km": 1.1084809326218774 }, "geometry": { "type": "LineString", "coordinates": [ [ -87.526660502, 30.968055196 ], [ -87.527860202, 30.965145394 ], [ -87.528020702, 30.964068398 ], [ -87.528900504, 30.961891696 ], [ -87.528954305, 30.961204194 ], [ -87.529595301, 30.958454296 ] ] } },
{ "type": "Feature", "properties": { "site_no": "02376293", "nhdplus_comid": "2171033", "navigation_mode": "DM", "requested_distance_km": 12.0, "start_source": "nwissite", "start_id": "USGS-02376293", "geometry_length_km": 1.0710731270628644 }, "geometry": { "type": "LineString", "coordinates": [ [ -87.529595301, 30.958454296 ], [ -87.530129306, 30.956392094 ], [ -87.530502401, 30.955498494 ], [ -87.530691907, 30.9519004 ], [ -87.531384803, 30.950319499 ], [ -87.532103807, 30.949197099 ] ] } },
{ "type": "Feature", "properties": { "site_no": "02376293", "nhdplus_comid": "2171037", "navigation_mode": "DM", "requested_distance_km": 12.0, "start_source": "nwissite", "start_id": "USGS-02376293", "geometry_length_km": 0.85785591850181342 }, "geometry": { "type": "LineString", "coordinates": [ [ -87.532103807, 30.949197099 ], [ -87.5321059, 30.946950994 ], [ -87.531841107, 30.9457362 ], [ -87.531817004, 30.943169296 ], [ -87.532084502, 30.941519193 ] ] } },
{ "type": "Feature", "properties": { "site_no": "02376293", "nhdplus_comid": "2171047", "navigation_mode": "DM", "requested_distance_km": 12.0, "start_source": "nwissite", "start_id": "USGS-02376293", "geometry_length_km": 0.35514240494625221 }, "geometry": { "type": "LineString", "coordinates": [ [ -87.532084502, 30.941519193 ], [ -87.532484405, 30.940419398 ], [ -87.532512002, 30.939319298 ], [ -87.532167107, 30.938425295 ] ] } },
{ "type": "Feature", "properties": { "site_no": "02376293", "nhdplus_comid": "2171055", "navigation_mode": "DM", "requested_distance_km": 12.0, "start_source": "nwissite", "start_id": "USGS-02376293", "geometry_length_km": 1.3417768012405344 }, "geometry": { "type": "LineString", "coordinates": [ [ -87.532167107, 30.938425295 ], [ -87.532116003, 30.936202094 ], [ -87.531983607, 30.935628995 ], [ -87.530948304, 30.933863595 ], [ -87.530948803, 30.933359496 ], [ -87.530842505, 30.933313496 ], [ -87.530632406, 30.930631898 ], [ -87.5302874, 30.929967098 ], [ -87.529384501, 30.9288892 ], [ -87.529225305, 30.928568199 ], [ -87.5291197, 30.927834794 ], [ -87.529439405, 30.927032895 ] ] } },
{ "type": "Feature", "properties": { "site_no": "02376293", "nhdplus_comid": "2171903", "navigation_mode": "DM", "requested_distance_km": 12.0, "start_source": "nwissite", "start_id": "USGS-02376293", "geometry_length_km": 0.92001483603335954 }, "geometry": { "type": "LineString", "coordinates": [ [ -87.529439405, 30.927032895 ], [ -87.5295467, 30.9260704 ], [ -87.529440604, 30.925841093 ], [ -87.528564103, 30.925038293 ], [ -87.528457902, 30.924854897 ], [ -87.5285393, 30.923181795 ], [ -87.527795807, 30.922287397 ], [ -87.527663805, 30.921416394 ], [ -87.527743705, 30.921255998 ], [ -87.527638204, 30.920293294 ], [ -87.527532101, 30.920132898 ], [ -87.527506202, 30.919353597 ] ] } },
{ "type": "Feature", "properties": { "site_no": "02376293", "nhdplus_comid": "2171925", "navigation_mode": "DM", "requested_distance_km": 12.0, "start_source": "nwissite", "start_id": "USGS-02376293", "geometry_length_km": 2.3408257276641455 }, "geometry": { "type": "LineString", "coordinates": [ [ -87.527506202, 30.919353597 ], [ -87.527825907, 30.918712199 ], [ -87.528358303, 30.918001994 ], [ -87.5286512, 30.917429298 ], [ -87.528705001, 30.9167189 ], [ -87.528094903, 30.915389098 ], [ -87.528042704, 30.914449498 ], [ -87.528122701, 30.914128594 ], [ -87.528548904, 30.913280994 ], [ -87.530570902, 30.911540598 ], [ -87.531183101, 30.910601296 ], [ -87.531370305, 30.909455493 ], [ -87.531398006, 30.908240899 ], [ -87.531717807, 30.907347195 ], [ -87.532915302, 30.905789495 ], [ -87.533235103, 30.904941797 ], [ -87.533289306, 30.903749995 ], [ -87.533476107, 30.902993798 ], [ -87.534354202, 30.901940197 ], [ -87.535205804, 30.900703199 ], [ -87.535392106, 30.900496997 ] ] } },
{ "type": "Feature", "properties": { "site_no": "02376293", "nhdplus_comid": "2171085", "navigation_mode": "DM", "requested_distance_km": 12.0, "start_source": "nwissite", "start_id": "USGS-02376293", "geometry_length_km": 1.4199918798208957 }, "geometry": { "type": "LineString", "coordinates": [ [ -87.535392106, 30.900496997 ], [ -87.535553105, 30.898801096 ], [ -87.534942701, 30.897792295 ], [ -87.534943201, 30.8972423 ], [ -87.535581507, 30.896784298 ], [ -87.537416004, 30.895983398 ], [ -87.537868105, 30.895571098 ], [ -87.538134202, 30.895181693 ], [ -87.538374402, 30.894035898 ], [ -87.538853407, 30.893348694 ], [ -87.539997004, 30.892501295 ], [ -87.540156804, 30.892134696 ], [ -87.540210903, 30.890965998 ], [ -87.540131405, 30.890759595 ], [ -87.540158704, 30.889911599 ] ] } },
{ "type": "Feature", "properties": { "site_no": "02376293", "nhdplus_comid": "2171099", "navigation_mode": "DM", "requested_distance_km": 12.0, "start_source": "nwissite", "start_id": "USGS-02376293", "geometry_length_km": 0.92340252776188125 }, "geometry": { "type": "LineString", "coordinates": [ [ -87.540158704, 30.889911599 ], [ -87.540265702, 30.889040798 ], [ -87.540186107, 30.888926096 ], [ -87.540240206, 30.887894794 ], [ -87.5407729, 30.886405498 ], [ -87.541624203, 30.885237098 ], [ -87.541545607, 30.883907795 ], [ -87.542530403, 30.882097796 ] ] } }
]
}
