{
"type": "FeatureCollection",
"name": "USGS_02462600_DM_12km",
"crs": { "type": "name", "properties": { "name": "urn:ogc:def:crs:OGC:1.3:CRS84" } },
"features": [
{ "type": "Feature", "properties": { "site_no": "02462600", "nhdplus_comid": "18224329", "navigation_mode": "DM", "requested_distance_km": 12.0, "start_source": "nwissite", "start_id": "USGS-02462600", "geometry_length_km": 2.8509110890134197 }, "geometry": { "type": "LineString", "coordinates": [ [ -87.485137392, 33.520932517 ], [ -87.484981507, 33.520589896 ], [ -87.483994901, 33.518941194 ], [ -87.484022103, 33.518849596 ], [ -87.483474106, 33.517910793 ], [ -87.483473502, 33.517521299 ], [ -87.483938001, 33.517085694 ], [ -87.4848397, 33.516466297 ], [ -87.485030904, 33.516236998 ], [ -87.485057704, 33.515732996 ], [ -87.484344602, 33.5139696 ], [ -87.484316707, 33.513625897 ], [ -87.484398603, 33.513442494 ], [ -87.485737205, 33.512272894 ], [ -87.4862286, 33.511493593 ], [ -87.486227803, 33.510897994 ], [ -87.485899203, 33.510531694 ], [ -87.485242203, 33.509982497 ], [ -87.483737007, 33.509204894 ], [ -87.481192507, 33.508198999 ], [ -87.480672501, 33.5078329 ], [ -87.480507806, 33.507489398 ], [ -87.480425, 33.506825 ], [ -87.4799316, 33.505863197 ], [ -87.479929604, 33.504190795 ], [ -87.479381904, 33.503549896 ], [ -87.4787798, 33.503137894 ], [ -87.478423804, 33.502771698 ], [ -87.478204601, 33.502405293 ], [ -87.477655105, 33.500123195 ] ] } },
{ "type": "Feature", "properties": { "site_no": "02462600", "nhdplus_comid": "18226819", "navigation_mode": "DM", "requested_distance_km": 12.0, "start_source": "nwissite", "start_id": "USGS-02462600", "geometry_length_km": 0.40615703204725662 }, "geometry": { "type": "LineString", "coordinates": [ [ -87.477655105, 33.500123195 ], [ -87.477463104, 33.499559999 ], [ -87.477025606, 33.498918898 ], [ -87.476478606, 33.498621494 ], [ -87.475631304, 33.498736799 ], [ -87.475111701, 33.498622693 ], [ -87.474892803, 33.498416699 ], [ -87.474837907, 33.498073094 ] ] } },
{ "type": "Feature", "properties": { "site_no": "02462600", "nhdplus_comid": "18226967", "navigation_mode": "DM", "requested_distance_km": 12.0, "start_source": "nwissite", "start_id": "USGS-02462600", "geometry_length_km": 1.8415158092523485 }, "geometry": { "type": "LineString", "coordinates": [ [ -87.474837907, 33.498073094 ], [ -87.475056201, 33.497706398 ], [ -87.475083001, 33.497179396 ], [ -87.4746169, 33.496080093 ], [ -87.474069104, 33.4953245 ], [ -87.473821804, 33.494270794 ], [ -87.473465405, 33.493492194 ], [ -87.472506903, 33.492209993 ], [ -87.471739702, 33.490790196 ], [ -87.471656203, 33.4894844 ], [ -87.471901901, 33.489186496 ], [ -87.473624006, 33.488772698 ], [ -87.474225104, 33.488497198 ], [ -87.474416301, 33.488290995 ], [ -87.474416003, 33.487993099 ], [ -87.474224404, 33.487786993 ], [ -87.474196501, 33.487397596 ], [ -87.474305503, 33.487030998 ], [ -87.474195801, 33.486733198 ], [ -87.473894604, 33.486389793 ], [ -87.472937301, 33.486069895 ], [ -87.472033605, 33.484833397 ], [ -87.471814901, 33.484741993 ] ] } },
{ "type": "Feature", "properties": { "site_no": "02462600", "nhdplus_comid": "18227029", "navigation_mode": "DM", "requested_distance_km": 12.0, "start_source": "nwissite", "start_id": "USGS-02462600", "geometry_length_km": 1.3972907741461458 }, "geometry": { "type": "LineString", "coordinates": [ [ -87.471814901, 33.484741993 ], [ -87.471731201, 33.483275793 ], [ -87.471567102, 33.483161397 ], [ -87.471157007, 33.483184598 ], [ -87.4699274, 33.483804099 ], [ -87.469681203, 33.483712696 ], [ -87.469653502, 33.483300395 ], [ -87.470689707, 33.480939798 ], [ -87.470688201, 33.479588099 ], [ -87.470578603, 33.479359098 ], [ -87.469757803, 33.478832796 ], [ -87.466583706, 33.4761777 ] ] } }
]
}
