{
"type": "FeatureCollection",
"name": "USGS_03592200_UM_12km",
"crs": { "type": "name", "properties": { "name": "urn:ogc:def:crs:OGC:1.3:CRS84" } },
"features": [
{ "type": "Feature", "properties": { "site_no": "03592200", "nhdplus_comid": "19567666", "navigation_mode": "UM", "requested_distance_km": 12.0, "start_source": "nwissite", "start_id": "USGS-03592200", "geometry_length_km": 2.3530546462898378 }, "geometry": { "type": "LineString", "coordinates": [ [ -88.004173301, 34.556230694 ], [ -88.004892603, 34.556483299 ], [ -88.005776607, 34.557835497 ], [ -88.005859405, 34.558041796 ], [ -88.0062185, 34.558614694 ], [ -88.006688602, 34.559027396 ], [ -88.007297203, 34.559325799 ], [ -88.007989101, 34.559440896 ], [ -88.0086812, 34.559487395 ], [ -88.009705901, 34.5592364 ], [ -88.010702901, 34.5588938 ], [ -88.011700407, 34.558344997 ], [ -88.012475803, 34.5581396 ], [ -88.013887703, 34.558095098 ], [ -88.015189603, 34.557523593 ], [ -88.016658403, 34.556379795 ], [ -88.016852506, 34.556127898 ], [ -88.016908802, 34.555303499 ], [ -88.017049007, 34.553975195 ], [ -88.017160006, 34.553769194 ], [ -88.018047206, 34.552807994 ], [ -88.019322507, 34.551251598 ], [ -88.019600004, 34.550725095 ], [ -88.019600503, 34.550289899 ], [ -88.019545503, 34.549992196 ], [ -88.0194076, 34.549579799 ], [ -88.019214101, 34.549304694 ], [ -88.018807295, 34.548907763 ] ] } },
{ "type": "Feature", "properties": { "site_no": "03592200", "nhdplus_comid": "19567624", "navigation_mode": "UM", "requested_distance_km": 12.0, "start_source": "nwissite", "start_id": "USGS-03592200", "geometry_length_km": 0.95799696086035169 }, "geometry": { "type": "LineString", "coordinates": [ [ -88.000038303, 34.558719896 ], [ -88.000488505, 34.5581249 ], [ -88.000353202, 34.556041494 ], [ -88.000436902, 34.555629693 ], [ -88.001047604, 34.5545092 ], [ -88.0014356, 34.554212093 ], [ -88.0020172, 34.554029495 ], [ -88.002654001, 34.553961597 ], [ -88.003124304, 34.554214098 ], [ -88.003428303, 34.554557897 ], [ -88.003511004, 34.554855794 ], [ -88.003593802, 34.554947495 ], [ -88.003842205, 34.555474497 ], [ -88.003952406, 34.555863999 ], [ -88.004173301, 34.556230694 ] ] } },
{ "type": "Feature", "properties": { "site_no": "03592200", "nhdplus_comid": "19566558", "navigation_mode": "UM", "requested_distance_km": 12.0, "start_source": "nwissite", "start_id": "USGS-03592200", "geometry_length_km": 0.98895178985597876 }, "geometry": { "type": "LineString", "coordinates": [ [ -87.992993101, 34.555036195 ], [ -87.993131705, 34.5552193 ], [ -87.9939906, 34.5556539 ], [ -87.994489506, 34.556065798 ], [ -87.994600505, 34.556271896 ], [ -87.994629502, 34.557210997 ], [ -87.994768403, 34.557600394 ], [ -87.995627902, 34.558470294 ], [ -87.997152403, 34.559729397 ], [ -87.997512601, 34.559912398 ], [ -87.998066105, 34.559774697 ], [ -87.999006405, 34.559086993 ], [ -87.999725707, 34.558765896 ], [ -88.000038303, 34.558719896 ] ] } },
{ "type": "Feature", "properties": { "site_no": "03592200", "nhdplus_comid": "19566568", "navigation_mode": "UM", "requested_distance_km": 12.0, "start_source": "nwissite", "start_id": "USGS-03592200", "geometry_length_km": 1.3150359064511508 }, "geometry": { "type": "LineString", "coordinates": [ [ -87.982272901, 34.549846895 ], [ -87.982301004, 34.550121695 ], [ -87.982716903, 34.550716899 ], [ -87.983077206, 34.551014297 ], [ -87.983769402, 34.551105298 ], [ -87.984018803, 34.551379897 ], [ -87.984407201, 34.551974997 ], [ -87.984933503, 34.552226499 ], [ -87.985127807, 34.552569896 ], [ -87.985350803, 34.553737797 ], [ -87.986237504, 34.554446995 ], [ -87.986597605, 34.554561198 ], [ -87.988064401, 34.554284893 ], [ -87.990306601, 34.554168396 ], [ -87.9911374, 34.554373696 ], [ -87.992993101, 34.555036195 ] ] } },
{ "type": "Feature", "properties": { "site_no": "03592200", "nhdplus_comid": "19566574", "navigation_mode": "UM", "requested_distance_km": 12.0, "start_source": "nwissite", "start_id": "USGS-03592200", "geometry_length_km": 0.58356697176827788 }, "geometry": { "type": "LineString", "coordinates": [ [ -87.977258705, 34.5467363 ], [ -87.977674104, 34.546896294 ], [ -87.9795857, 34.548200198 ], [ -87.9799738, 34.548657894 ], [ -87.981054306, 34.549412794 ], [ -87.982079104, 34.549847096 ], [ -87.982272901, 34.549846895 ] ] } },
{ "type": "Feature", "properties": { "site_no": "03592200", "nhdplus_comid": "19566578", "navigation_mode": "UM", "requested_distance_km": 12.0, "start_source": "nwissite", "start_id": "USGS-03592200", "geometry_length_km": 0.34511160418367104 }, "geometry": { "type": "LineString", "coordinates": [ [ -87.974294603, 34.544837698 ], [ -87.974737607, 34.5449977 ], [ -87.975457907, 34.5455468 ], [ -87.977258705, 34.5467363 ] ] } },
{ "type": "Feature", "properties": { "site_no": "03592200", "nhdplus_comid": "19566880", "navigation_mode": "UM", "requested_distance_km": 12.0, "start_source": "nwissite", "start_id": "USGS-03592200", "geometry_length_km": 1.009072416370586 }, "geometry": { "type": "LineString", "coordinates": [ [ -87.968685105, 34.537885495 ], [ -87.969530903, 34.539289899 ], [ -87.969556004, 34.540637799 ], [ -87.971058406, 34.542087495 ], [ -87.9711392, 34.542900793 ], [ -87.972942203, 34.5446404 ], [ -87.974110603, 34.544780694 ], [ -87.974294603, 34.544837698 ] ] } },
{ "type": "Feature", "properties": { "site_no": "03592200", "nhdplus_comid": "19566884", "navigation_mode": "UM", "requested_distance_km": 12.0, "start_source": "nwissite", "start_id": "USGS-03592200", "geometry_length_km": 1.520853591900035 }, "geometry": { "type": "LineString", "coordinates": [ [ -87.9538882, 34.5355177 ], [ -87.9539911, 34.535322897 ], [ -87.955997005, 34.5343173 ], [ -87.962562107, 34.534770697 ], [ -87.966581903, 34.5358558 ], [ -87.968685105, 34.537885495 ] ] } },
{ "type": "Feature", "properties": { "site_no": "03592200", "nhdplus_comid": "19566886", "navigation_mode": "UM", "requested_distance_km": 12.0, "start_source": "nwissite", "start_id": "USGS-03592200", "geometry_length_km": 0.75930405176849636 }, "geometry": { "type": "LineString", "coordinates": [ [ -87.946669705, 34.533403195 ], [ -87.948471904, 34.535143293 ], [ -87.949428804, 34.535478696 ], [ -87.952875502, 34.535716996 ], [ -87.9538882, 34.5355177 ] ] } }
]
}
