{
"type": "FeatureCollection",
"name": "USGS_02428500_DM_12km",
"crs": { "type": "name", "properties": { "name": "urn:ogc:def:crs:OGC:1.3:CRS84" } },
"features": [
{ "type": "Feature", "properties": { "site_no": "02428500", "nhdplus_comid": "18238835", "navigation_mode": "DM", "requested_distance_km": 12.0, "start_source": "nwissite", "start_id": "USGS-02428500", "geometry_length_km": 1.4179546790582722 }, "geometry": { "type": "LineString", "coordinates": [ [ -87.41290163, 31.608587829 ], [ -87.4129581, 31.608531393 ], [ -87.414163001, 31.608439393 ], [ -87.415314205, 31.607957698 ], [ -87.415661804, 31.606903493 ], [ -87.416009903, 31.6066055 ], [ -87.416572005, 31.606353194 ], [ -87.417696707, 31.606329896 ], [ -87.418366201, 31.606512994 ], [ -87.418660901, 31.606856696 ], [ -87.418661006, 31.607177496 ], [ -87.418232806, 31.6075214 ], [ -87.417483203, 31.607865393 ], [ -87.417081706, 31.6082322 ], [ -87.4170283, 31.608667597 ], [ -87.417323001, 31.608965397 ], [ -87.417644307, 31.6089653 ], [ -87.418902807, 31.608735695 ], [ -87.419492006, 31.608918898 ], [ -87.419920705, 31.609445795 ], [ -87.420054905, 31.610110298 ], [ -87.420269303, 31.610499799 ] ] } },
{ "type": "Feature", "properties": { "site_no": "02428500", "nhdplus_comid": "18238823", "navigation_mode": "DM", "requested_distance_km": 12.0, "start_source": "nwissite", "start_id": "USGS-02428500", "geometry_length_km": 0.36338649842731924 }, "geometry": { "type": "LineString", "coordinates": [ [ -87.420269303, 31.610499799 ], [ -87.420322903, 31.610545598 ], [ -87.420885205, 31.610476695 ], [ -87.4211528, 31.610247299 ], [ -87.421500705, 31.609605595 ], [ -87.422062904, 31.6095137 ], [ -87.4223307, 31.609582394 ], [ -87.423455305, 31.609444395 ] ] } },
{ "type": "Feature", "properties": { "site_no": "02428500", "nhdplus_comid": "18238827", "navigation_mode": "DM", "requested_distance_km": 12.0, "start_source": "nwissite", "start_id": "USGS-02428500", "geometry_length_km": 1.5249634907921001 }, "geometry": { "type": "LineString", "coordinates": [ [ -87.423455305, 31.609444395 ], [ -87.424392603, 31.609467 ], [ -87.4254639, 31.6098103 ], [ -87.426588602, 31.609993197 ], [ -87.427633107, 31.610244796 ], [ -87.428329304, 31.610267393 ], [ -87.428731002, 31.610198498 ], [ -87.429347105, 31.610587798 ], [ -87.429856002, 31.610747993 ], [ -87.430150405, 31.610679097 ], [ -87.430364504, 31.610426895 ], [ -87.430417806, 31.609991498 ], [ -87.430551603, 31.609762296 ], [ -87.430899501, 31.609464295 ], [ -87.431327902, 31.609326594 ], [ -87.432265207, 31.609509498 ], [ -87.433069207, 31.610425599 ], [ -87.4333103, 31.610562995 ], [ -87.433712006, 31.610654496 ], [ -87.433926202, 31.610562794 ], [ -87.434648804, 31.609966494 ], [ -87.435451202, 31.608659893 ], [ -87.435879402, 31.608453497 ], [ -87.436334603, 31.608338699 ] ] } },
{ "type": "Feature", "properties": { "site_no": "02428500", "nhdplus_comid": "18238833", "navigation_mode": "DM", "requested_distance_km": 12.0, "start_source": "nwissite", "start_id": "USGS-02428500", "geometry_length_km": 1.1369947658266133 }, "geometry": { "type": "LineString", "coordinates": [ [ -87.436334603, 31.608338699 ], [ -87.436468206, 31.607880294 ], [ -87.4362268, 31.607307494 ], [ -87.436172903, 31.606780499 ], [ -87.436360203, 31.606596999 ], [ -87.436815307, 31.606528096 ], [ -87.438342005, 31.607077293 ], [ -87.4406984, 31.607030295 ], [ -87.441100106, 31.607190497 ], [ -87.441528603, 31.607213199 ], [ -87.442171104, 31.606937796 ], [ -87.442840405, 31.606776997 ], [ -87.443135105, 31.606983095 ], [ -87.443671204, 31.607647397 ], [ -87.4439926, 31.6077848 ], [ -87.444581702, 31.607807398 ], [ -87.445090003, 31.607279897 ] ] } },
{ "type": "Feature", "properties": { "site_no": "02428500", "nhdplus_comid": "18238903", "navigation_mode": "DM", "requested_distance_km": 12.0, "start_source": "nwissite", "start_id": "USGS-02428500", "geometry_length_km": 5.4795638353626801 }, "geometry": { "type": "LineString", "coordinates": [ [ -87.445090003, 31.607279897 ], [ -87.445116602, 31.607050799 ], [ -87.445491306, 31.606775597 ], [ -87.446240902, 31.6066835 ], [ -87.446937501, 31.606958099 ], [ -87.447768003, 31.607530497 ], [ -87.448303506, 31.607553095 ], [ -87.448704906, 31.6072779 ], [ -87.448785007, 31.606819496 ], [ -87.447900601, 31.606086694 ], [ -87.447873503, 31.605651394 ], [ -87.448034003, 31.605399199 ], [ -87.4484891, 31.605330199 ], [ -87.448649704, 31.605375893 ], [ -87.448944703, 31.605765194 ], [ -87.449319705, 31.606062897 ], [ -87.450150006, 31.606131196 ], [ -87.450417407, 31.605833098 ], [ -87.450577505, 31.605099693 ], [ -87.450898707, 31.604984999 ], [ -87.451246902, 31.605076395 ], [ -87.451648705, 31.605396993 ], [ -87.451917, 31.605786398 ], [ -87.452399306, 31.606175698 ], [ -87.452640302, 31.6061984 ], [ -87.452747203, 31.606037997 ], [ -87.452747107, 31.605831794 ], [ -87.4523715, 31.605213195 ], [ -87.452317506, 31.604594499 ], [ -87.452718601, 31.603929698 ], [ -87.452932701, 31.603792094 ], [ -87.453387804, 31.603723094 ], [ -87.453789607, 31.603860296 ], [ -87.454351902, 31.603859894 ], [ -87.4544589, 31.6037452 ], [ -87.454511702, 31.6029661 ], [ -87.4546187, 31.602759793 ], [ -87.454913206, 31.602690794 ], [ -87.455529906, 31.603721693 ], [ -87.456066601, 31.604981698 ], [ -87.4559597, 31.605142199 ], [ -87.455209903, 31.605165698 ], [ -87.455076106, 31.605234399 ], [ -87.455049604, 31.605555296 ], [ -87.455692403, 31.6057382 ], [ -87.456281401, 31.605646096 ], [ -87.4570041, 31.605347797 ], [ -87.457084306, 31.605187297 ], [ -87.457084104, 31.605003998 ], [ -87.4567357, 31.604614593 ], [ -87.456735201, 31.604133397 ], [ -87.457109906, 31.603926897 ], [ -87.458234601, 31.6039261 ], [ -87.458421901, 31.603788495 ], [ -87.458528705, 31.603559196 ], [ -87.458555005, 31.603078 ], [ -87.458260104, 31.602734499 ], [ -87.457804807, 31.602482699 ], [ -87.456947803, 31.602345794 ], [ -87.456787005, 31.602185495 ], [ -87.456840105, 31.601704195 ], [ -87.457080901, 31.601497799 ], [ -87.458205201, 31.601199098 ], [ -87.458606504, 31.6007635 ], [ -87.459355101, 31.599639997 ], [ -87.459327802, 31.599067196 ], [ -87.459059805, 31.598723598 ], [ -87.458363302, 31.598311499 ], [ -87.458202206, 31.5978304 ], [ -87.4580146, 31.597670093 ], [ -87.457264803, 31.597441494 ], [ -87.456809305, 31.597212598 ], [ -87.456648506, 31.597029395 ], [ -87.456648402, 31.596823096 ], [ -87.456862405, 31.596593797 ], [ -87.457665205, 31.596112095 ], [ -87.457852103, 31.595676497 ], [ -87.458520703, 31.5948053 ], [ -87.4585739, 31.594323896 ], [ -87.458439603, 31.594026096 ], [ -87.458225302, 31.593819998 ], [ -87.458305106, 31.593361698 ], [ -87.458465703, 31.593246996 ], [ -87.458974302, 31.5932009 ], [ -87.459349304, 31.593338095 ], [ -87.4601532, 31.594002098 ], [ -87.460581601, 31.594047695 ], [ -87.460715406, 31.593955897 ], [ -87.460714906, 31.593566298 ], [ -87.460580803, 31.593291394 ], [ -87.460098304, 31.592718795 ], [ -87.460044406, 31.592329197 ], [ -87.460178107, 31.592054196 ], [ -87.460525706, 31.591664396 ], [ -87.460525505, 31.591435194 ], [ -87.459748603, 31.590931594 ], [ -87.459748603, 31.590816997 ], [ -87.460096203, 31.590358399 ], [ -87.460444205, 31.590289399 ], [ -87.461327903, 31.590517998 ], [ -87.461729303, 31.590403095 ], [ -87.462050207, 31.590082094 ], [ -87.462371305, 31.589898594 ], [ -87.463040501, 31.589760594 ], [ -87.463067204, 31.5896689 ] ] } }
]
}
