{
"type": "FeatureCollection",
"name": "USGS_02407000_UM_12km",
"crs": { "type": "name", "properties": { "name": "urn:ogc:def:crs:OGC:1.3:CRS84" } },
"features": [
{ "type": "Feature", "properties": { "site_no": "02407000", "nhdplus_comid": "22273668", "navigation_mode": "UM", "requested_distance_km": 12.0, "start_source": "nwissite", "start_id": "USGS-02407000", "geometry_length_km": 0.69916142647806034 }, "geometry": { "type": "LineString", "coordinates": [ [ -86.3578557, 33.294728093 ], [ -86.357886307, 33.294478595 ], [ -86.361550502, 33.291888796 ], [ -86.36372922, 33.290982239 ] ] } },
{ "type": "Feature", "properties": { "site_no": "02407000", "nhdplus_comid": "22206817", "navigation_mode": "UM", "requested_distance_km": 12.0, "start_source": "nwissite", "start_id": "USGS-02407000", "geometry_length_km": 1.4332716758850412 }, "geometry": { "type": "LineString", "coordinates": [ [ -86.360615104, 33.306934394 ], [ -86.3607684, 33.305686995 ], [ -86.358893201, 33.302377895 ], [ -86.357395902, 33.298470393 ], [ -86.357202105, 33.297571793 ], [ -86.357432, 33.295700595 ], [ -86.3578557, 33.294728093 ] ] } },
{ "type": "Feature", "properties": { "site_no": "02407000", "nhdplus_comid": "22206815", "navigation_mode": "UM", "requested_distance_km": 12.0, "start_source": "nwissite", "start_id": "USGS-02407000", "geometry_length_km": 1.1406993989753063 }, "geometry": { "type": "LineString", "coordinates": [ [ -86.366364203, 33.315863393 ], [ -86.366259605, 33.315476499 ], [ -86.363314606, 33.3122034 ], [ -86.362038806, 33.310205296 ], [ -86.360615104, 33.306934394 ] ] } },
{ "type": "Feature", "properties": { "site_no": "02407000", "nhdplus_comid": "22206809", "navigation_mode": "UM", "requested_distance_km": 12.0, "start_source": "nwissite", "start_id": "USGS-02407000", "geometry_length_km": 1.3521125858564995 }, "geometry": { "type": "LineString", "coordinates": [ [ -86.364217207, 33.3271515 ], [ -86.365110703, 33.324832194 ], [ -86.365805, 33.324134499 ], [ -86.366394602, 33.323049895 ], [ -86.367303304, 33.3206058 ], [ -86.367625006, 33.317986198 ], [ -86.367160603, 33.316812694 ], [ -86.366364203, 33.315863393 ] ] } },
{ "type": "Feature", "properties": { "site_no": "02407000", "nhdplus_comid": "22206805", "navigation_mode": "UM", "requested_distance_km": 12.0, "start_source": "nwissite", "start_id": "USGS-02407000", "geometry_length_km": 1.1024184446782035 }, "geometry": { "type": "LineString", "coordinates": [ [ -86.368280806, 33.33619 ], [ -86.365922101, 33.3330926 ], [ -86.364541203, 33.330707699 ], [ -86.364217207, 33.3271515 ] ] } },
{ "type": "Feature", "properties": { "site_no": "02407000", "nhdplus_comid": "22206799", "navigation_mode": "UM", "requested_distance_km": 12.0, "start_source": "nwissite", "start_id": "USGS-02407000", "geometry_length_km": 2.9009775656406522 }, "geometry": { "type": "LineString", "coordinates": [ [ -86.346726507, 33.348109894 ], [ -86.347390406, 33.347661793 ], [ -86.350178607, 33.347266994 ], [ -86.356852606, 33.347451799 ], [ -86.359459504, 33.347293496 ], [ -86.361780301, 33.346984997 ], [ -86.364011906, 33.3461648 ], [ -86.365837403, 33.344932199 ], [ -86.367831402, 33.342327595 ], [ -86.368349701, 33.339346498 ], [ -86.368278205, 33.337450095 ], [ -86.368038304, 33.336925693 ], [ -86.368280806, 33.33619 ] ] } },
{ "type": "Feature", "properties": { "site_no": "02407000", "nhdplus_comid": "22206795", "navigation_mode": "UM", "requested_distance_km": 12.0, "start_source": "nwissite", "start_id": "USGS-02407000", "geometry_length_km": 0.056004643832376841 }, "geometry": { "type": "LineString", "coordinates": [ [ -86.346123904, 33.348059095 ], [ -86.346726507, 33.348109894 ] ] } },
{ "type": "Feature", "properties": { "site_no": "02407000", "nhdplus_comid": "22206793", "navigation_mode": "UM", "requested_distance_km": 12.0, "start_source": "nwissite", "start_id": "USGS-02407000", "geometry_length_km": 0.71580398533510281 }, "geometry": { "type": "LineString", "coordinates": [ [ -86.340735205, 33.352267198 ], [ -86.342413604, 33.349762298 ], [ -86.344224207, 33.348654896 ], [ -86.346123904, 33.348059095 ] ] } },
{ "type": "Feature", "properties": { "site_no": "02407000", "nhdplus_comid": "22206789", "navigation_mode": "UM", "requested_distance_km": 12.0, "start_source": "nwissite", "start_id": "USGS-02407000", "geometry_length_km": 2.2695308384293864 }, "geometry": { "type": "LineString", "coordinates": [ [ -86.352931604, 33.369428098 ], [ -86.351157002, 33.367766097 ], [ -86.350013107, 33.367165498 ], [ -86.349065803, 33.366203398 ], [ -86.347743407, 33.364579499 ], [ -86.347263604, 33.3635308 ], [ -86.345070906, 33.360321097 ], [ -86.342681706, 33.3574728 ], [ -86.341181107, 33.354825497 ], [ -86.340735205, 33.352267198 ] ] } }
]
}
