{
"type": "FeatureCollection",
"name": "USGS_03572110_DM_12km",
"crs": { "type": "name", "properties": { "name": "urn:ogc:def:crs:OGC:1.3:CRS84" } },
"features": [
{ "type": "Feature", "properties": { "site_no": "03572110", "nhdplus_comid": "19644594", "navigation_mode": "DM", "requested_distance_km": 12.0, "start_source": "nwissite", "start_id": "USGS-03572110", "geometry_length_km": 1.5312085026687079 }, "geometry": { "type": "LineString", "coordinates": [ [ -85.917378334, 34.934155035 ], [ -85.919274807, 34.932856098 ], [ -85.920386404, 34.931367099 ], [ -85.920636401, 34.930656999 ], [ -85.921275504, 34.929511696 ], [ -85.922303006, 34.927037895 ], [ -85.922302306, 34.925594993 ], [ -85.9221351, 34.924770497 ], [ -85.922051601, 34.924724795 ], [ -85.921940103, 34.924175195 ], [ -85.9213835, 34.923327997 ], [ -85.920242906, 34.922206096 ] ] } },
{ "type": "Feature", "properties": { "site_no": "03572110", "nhdplus_comid": "19644686", "navigation_mode": "DM", "requested_distance_km": 12.0, "start_source": "nwissite", "start_id": "USGS-03572110", "geometry_length_km": 3.2971604610236471 }, "geometry": { "type": "LineString", "coordinates": [ [ -85.920242906, 34.922206096 ], [ -85.917740002, 34.921176195 ], [ -85.916405201, 34.920718595 ], [ -85.914958701, 34.919711299 ], [ -85.906337, 34.913002998 ], [ -85.906336904, 34.912613593 ], [ -85.906003006, 34.911995299 ], [ -85.905446902, 34.9115832 ], [ -85.904779606, 34.911308497 ], [ -85.901943706, 34.9107823 ], [ -85.900887005, 34.910209894 ], [ -85.898050904, 34.9090195 ], [ -85.896021307, 34.907920398 ], [ -85.893129602, 34.905882396 ], [ -85.891628407, 34.905470297 ], [ -85.891544901, 34.905309997 ] ] } },
{ "type": "Feature", "properties": { "site_no": "03572110", "nhdplus_comid": "19644688", "navigation_mode": "DM", "requested_distance_km": 12.0, "start_source": "nwissite", "start_id": "USGS-03572110", "geometry_length_km": 0.39356283388507074 }, "geometry": { "type": "LineString", "coordinates": [ [ -85.891544901, 34.905309997 ], [ -85.890766501, 34.9051039 ], [ -85.890293904, 34.904851995 ], [ -85.889682204, 34.904783294 ], [ -85.888625905, 34.904874995 ], [ -85.888042003, 34.905126996 ], [ -85.887569502, 34.905447699 ] ] } },
{ "type": "Feature", "properties": { "site_no": "03572110", "nhdplus_comid": "19644710", "navigation_mode": "DM", "requested_distance_km": 12.0, "start_source": "nwissite", "start_id": "USGS-03572110", "geometry_length_km": 1.1491471364728596 }, "geometry": { "type": "LineString", "coordinates": [ [ -85.887569502, 34.905447699 ], [ -85.887069106, 34.905470595 ], [ -85.886791006, 34.905333199 ], [ -85.885929205, 34.904554598 ], [ -85.885456607, 34.903913394 ], [ -85.885039605, 34.902951397 ], [ -85.884706005, 34.902814098 ], [ -85.883316003, 34.902699597 ], [ -85.881648101, 34.902447693 ], [ -85.879757702, 34.901691794 ], [ -85.878201, 34.900890298 ], [ -85.877339303, 34.9005467 ] ] } },
{ "type": "Feature", "properties": { "site_no": "03572110", "nhdplus_comid": "19644842", "navigation_mode": "DM", "requested_distance_km": 12.0, "start_source": "nwissite", "start_id": "USGS-03572110", "geometry_length_km": 3.3529376743370496 }, "geometry": { "type": "LineString", "coordinates": [ [ -85.877339303, 34.9005467 ], [ -85.876894504, 34.900203198 ], [ -85.876144007, 34.899905398 ], [ -85.875810407, 34.899607599 ], [ -85.875615902, 34.898760296 ], [ -85.875754803, 34.8982106 ], [ -85.876366407, 34.897592299 ], [ -85.876977906, 34.897386298 ], [ -85.877311602, 34.896905296 ], [ -85.877367102, 34.896241099 ], [ -85.877673, 34.895714298 ], [ -85.877784103, 34.895187594 ], [ -85.877589606, 34.894821197 ], [ -85.8753938, 34.892324694 ], [ -85.874976903, 34.891958296 ], [ -85.874393106, 34.891637594 ], [ -85.873587206, 34.890858896 ], [ -85.873531602, 34.890652798 ], [ -85.873364903, 34.890492395 ], [ -85.873142503, 34.889713697 ], [ -85.872503206, 34.888935 ], [ -85.872503303, 34.888820499 ], [ -85.871280402, 34.887698196 ], [ -85.870002002, 34.885842994 ], [ -85.869029507, 34.884835199 ], [ -85.867612302, 34.883002795 ], [ -85.866500802, 34.8817432 ], [ -85.865806207, 34.880735293 ], [ -85.865361601, 34.880300097 ], [ -85.864583403, 34.880048096 ], [ -85.864333406, 34.8797962 ], [ -85.864222303, 34.879406899 ], [ -85.863777705, 34.878673993 ], [ -85.862249605, 34.876818597 ], [ -85.861610502, 34.876337595 ] ] } },
{ "type": "Feature", "properties": { "site_no": "03572110", "nhdplus_comid": "19644846", "navigation_mode": "DM", "requested_distance_km": 12.0, "start_source": "nwissite", "start_id": "USGS-03572110", "geometry_length_km": 0.11004911567618988 }, "geometry": { "type": "LineString", "coordinates": [ [ -85.861610502, 34.876337595 ], [ -85.861693904, 34.876016997 ], [ -85.861971803, 34.875696294 ], [ -85.862277605, 34.875604793 ] ] } },
{ "type": "Feature", "properties": { "site_no": "03572110", "nhdplus_comid": "19644896", "navigation_mode": "DM", "requested_distance_km": 12.0, "start_source": "nwissite", "start_id": "USGS-03572110", "geometry_length_km": 1.7939793232243533 }, "geometry": { "type": "LineString", "coordinates": [ [ -85.862277605, 34.875604793 ], [ -85.862305403, 34.875421494 ], [ -85.8627223, 34.875078 ], [ -85.863139205, 34.874597199 ], [ -85.863834105, 34.874070495 ], [ -85.864667803, 34.873337694 ], [ -85.864779003, 34.872994199 ], [ -85.864028901, 34.872307099 ], [ -85.863945603, 34.871619895 ], [ -85.864918403, 34.870566495 ], [ -85.8654465, 34.869627595 ], [ -85.866002403, 34.869192496 ], [ -85.866447002, 34.869009398 ], [ -85.8668916, 34.868986599 ], [ -85.868864402, 34.870429598 ], [ -85.869364604, 34.8705213 ], [ -85.869809203, 34.870360993 ], [ -85.8701149, 34.869834095 ], [ -85.870309502, 34.868849397 ], [ -85.870587505, 34.868414298 ], [ -85.872143701, 34.8669945 ], [ -85.872393802, 34.866673797 ] ] } }
]
}
