{
"type": "FeatureCollection",
"name": "USGS_02412500_DM_12km",
"crs": { "type": "name", "properties": { "name": "urn:ogc:def:crs:OGC:1.3:CRS84" } },
"features": [
{ "type": "Feature", "properties": { "site_no": "02412500", "nhdplus_comid": "15812177", "navigation_mode": "DM", "requested_distance_km": 12.0, "start_source": "nwissite", "start_id": "USGS-02412500", "geometry_length_km": 2.3158341261214566 }, "geometry": { "type": "LineString", "coordinates": [ [ -85.592125899, 33.325844619 ], [ -85.5917399, 33.325617999 ], [ -85.589982405, 33.323944196 ], [ -85.588727601, 33.323073 ], [ -85.585850805, 33.3218017 ], [ -85.582337804, 33.319589294 ], [ -85.577903003, 33.315148294 ], [ -85.575410403, 33.313281 ], [ -85.574171804, 33.311717294 ] ] } },
{ "type": "Feature", "properties": { "site_no": "02412500", "nhdplus_comid": "22035565", "navigation_mode": "DM", "requested_distance_km": 12.0, "start_source": "nwissite", "start_id": "USGS-02412500", "geometry_length_km": 1.1173904020363061 }, "geometry": { "type": "LineString", "coordinates": [ [ -85.574171804, 33.311717294 ], [ -85.574187703, 33.311024897 ], [ -85.573300302, 33.309682496 ], [ -85.572864302, 33.3083812 ], [ -85.573096305, 33.306636296 ], [ -85.573979706, 33.304572493 ], [ -85.576183707, 33.302881397 ] ] } },
{ "type": "Feature", "properties": { "site_no": "02412500", "nhdplus_comid": "22035573", "navigation_mode": "DM", "requested_distance_km": 12.0, "start_source": "nwissite", "start_id": "USGS-02412500", "geometry_length_km": 6.5599808948807015 }, "geometry": { "type": "LineString", "coordinates": [ [ -85.576183707, 33.302881397 ], [ -85.579223901, 33.301771194 ], [ -85.586457603, 33.300033994 ], [ -85.588128805, 33.300060198 ], [ -85.590819702, 33.300431594 ], [ -85.593110703, 33.301523395 ], [ -85.594499104, 33.302532896 ], [ -85.597507603, 33.302806899 ], [ -85.600297906, 33.302430198 ], [ -85.602871604, 33.302538298 ], [ -85.603974104, 33.302260198 ], [ -85.606546104, 33.3012328 ], [ -85.6073808, 33.300678097 ], [ -85.607964203, 33.299721994 ], [ -85.608112805, 33.298600197 ], [ -85.606638104, 33.295943193 ], [ -85.6041933, 33.292567097 ], [ -85.602634504, 33.289397694 ], [ -85.602231205, 33.287847199 ], [ -85.602479003, 33.285977595 ], [ -85.602862403, 33.285381794 ], [ -85.604047306, 33.284480497 ], [ -85.604815707, 33.284424298 ], [ -85.6051495, 33.284202397 ], [ -85.607154101, 33.284006394 ], [ -85.608808406, 33.284156896 ], [ -85.609292604, 33.283948593 ], [ -85.610946901, 33.284099095 ], [ -85.612133503, 33.284333199 ], [ -85.614156507, 33.285147898 ], [ -85.618171506, 33.288161993 ] ] } },
{ "type": "Feature", "properties": { "site_no": "02412500", "nhdplus_comid": "22035575", "navigation_mode": "DM", "requested_distance_km": 12.0, "start_source": "nwissite", "start_id": "USGS-02412500", "geometry_length_km": 1.1806684634300364 }, "geometry": { "type": "LineString", "coordinates": [ [ -85.618171506, 33.288161993 ], [ -85.621179506, 33.2884354 ], [ -85.622782506, 33.287824199 ], [ -85.6243174, 33.2865761 ], [ -85.624700606, 33.285980195 ], [ -85.624832503, 33.284982994 ], [ -85.624544106, 33.282560095 ], [ -85.624008507, 33.2820068 ] ] } }
]
}
