{
"type": "FeatureCollection",
"name": "USGS_02425500_UM_12km",
"crs": { "type": "name", "properties": { "name": "urn:ogc:def:crs:OGC:1.3:CRS84" } },
"features": [
{ "type": "Feature", "properties": { "site_no": "02425500", "nhdplus_comid": "21453804", "navigation_mode": "UM", "requested_distance_km": 12.0, "start_source": "nwissite", "start_id": "USGS-02425500", "geometry_length_km": 0.79467675406335347 }, "geometry": { "type": "LineString", "coordinates": [ [ -86.977761507, 32.073536694 ], [ -86.977815606, 32.073742993 ], [ -86.978219904, 32.074246697 ], [ -86.978597, 32.074567296 ], [ -86.9787587, 32.0748192 ], [ -86.979001001, 32.074933596 ], [ -86.979486302, 32.075643495 ], [ -86.979782805, 32.075918294 ], [ -86.980025806, 32.076605596 ], [ -86.980268404, 32.076903194 ], [ -86.981533505, 32.077108398 ], [ -86.981937505, 32.077314295 ], [ -86.982584104, 32.077955395 ], [ -86.983149603, 32.078161098 ], [ -86.983406031, 32.078096613 ] ] } },
{ "type": "Feature", "properties": { "site_no": "02425500", "nhdplus_comid": "21453370", "navigation_mode": "UM", "requested_distance_km": 12.0, "start_source": "nwissite", "start_id": "USGS-02425500", "geometry_length_km": 1.6384522341299945 }, "geometry": { "type": "LineString", "coordinates": [ [ -86.964571506, 32.070544794 ], [ -86.964733802, 32.071415499 ], [ -86.965299301, 32.071804695 ], [ -86.965703405, 32.072262697 ], [ -86.966134205, 32.072468594 ], [ -86.967049003, 32.072261699 ], [ -86.967398904, 32.072284393 ], [ -86.9685838, 32.072970897 ], [ -86.968718603, 32.073177099 ], [ -86.968799807, 32.073681198 ], [ -86.969042301, 32.073932998 ], [ -86.969473101, 32.0740932 ], [ -86.969957404, 32.074001096 ], [ -86.970333807, 32.073702894 ], [ -86.9706567, 32.0735882 ], [ -86.972110003, 32.073701598 ], [ -86.973025404, 32.074090496 ], [ -86.973429106, 32.074090093 ], [ -86.973590605, 32.074021295 ], [ -86.974181503, 32.072943799 ], [ -86.9749614, 32.072393298 ], [ -86.975257404, 32.072415896 ], [ -86.977249905, 32.073285095 ], [ -86.9775462, 32.073514 ], [ -86.977761507, 32.073536694 ] ] } },
{ "type": "Feature", "properties": { "site_no": "02425500", "nhdplus_comid": "21453378", "navigation_mode": "UM", "requested_distance_km": 12.0, "start_source": "nwissite", "start_id": "USGS-02425500", "geometry_length_km": 1.1705487968133397 }, "geometry": { "type": "LineString", "coordinates": [ [ -86.956871904, 32.067456499 ], [ -86.957222305, 32.068006195 ], [ -86.957411103, 32.068578996 ], [ -86.957492001, 32.068670593 ], [ -86.957600206, 32.069335096 ], [ -86.957762003, 32.069655694 ], [ -86.958058201, 32.069907598 ], [ -86.958838806, 32.070113398 ], [ -86.959942207, 32.070066795 ], [ -86.9603725, 32.069814496 ], [ -86.960775703, 32.069264196 ], [ -86.960963503, 32.068691194 ], [ -86.961151704, 32.068484798 ], [ -86.961582303, 32.068438798 ], [ -86.962093703, 32.068598799 ], [ -86.962390006, 32.068873599 ], [ -86.962551802, 32.069262996 ], [ -86.962660305, 32.070133694 ], [ -86.962848805, 32.070271097 ], [ -86.963279307, 32.070156194 ], [ -86.964571506, 32.070544794 ] ] } },
{ "type": "Feature", "properties": { "site_no": "02425500", "nhdplus_comid": "21453414", "navigation_mode": "UM", "requested_distance_km": 12.0, "start_source": "nwissite", "start_id": "USGS-02425500", "geometry_length_km": 1.7537123130265995 }, "geometry": { "type": "LineString", "coordinates": [ [ -86.950459406, 32.058111094 ], [ -86.951025404, 32.059279397 ], [ -86.951025903, 32.059829399 ], [ -86.950783901, 32.060058594 ], [ -86.950111605, 32.060448594 ], [ -86.949708603, 32.061113395 ], [ -86.949413203, 32.061961398 ], [ -86.949440807, 32.062809296 ], [ -86.949548602, 32.063038394 ], [ -86.949871801, 32.063290194 ], [ -86.950840704, 32.0635418 ], [ -86.952051505, 32.063403495 ], [ -86.953208402, 32.063104898 ], [ -86.953746706, 32.063127495 ], [ -86.954177402, 32.063425094 ], [ -86.954312101, 32.063631296 ], [ -86.954312503, 32.064112499 ], [ -86.9537488, 32.065648198 ], [ -86.9537495, 32.066541895 ], [ -86.956871904, 32.067456499 ] ] } },
{ "type": "Feature", "properties": { "site_no": "02425500", "nhdplus_comid": "21453456", "navigation_mode": "UM", "requested_distance_km": 12.0, "start_source": "nwissite", "start_id": "USGS-02425500", "geometry_length_km": 0.98858725562989525 }, "geometry": { "type": "LineString", "coordinates": [ [ -86.949377403, 32.051076598 ], [ -86.9493782, 32.052016094 ], [ -86.949647404, 32.052153394 ], [ -86.950669803, 32.052152798 ], [ -86.951073505, 32.052336 ], [ -86.951235205, 32.052564994 ], [ -86.951181702, 32.053046294 ], [ -86.950295001, 32.054536194 ], [ -86.949515402, 32.055292994 ], [ -86.949408002, 32.055590995 ], [ -86.949462101, 32.055980593 ], [ -86.949812703, 32.056919895 ], [ -86.950459406, 32.058111094 ] ] } },
{ "type": "Feature", "properties": { "site_no": "02425500", "nhdplus_comid": "21453462", "navigation_mode": "UM", "requested_distance_km": 12.0, "start_source": "nwissite", "start_id": "USGS-02425500", "geometry_length_km": 0.13809551251945879 }, "geometry": { "type": "LineString", "coordinates": [ [ -86.949457005, 32.049839094 ], [ -86.949377403, 32.051076598 ] ] } },
{ "type": "Feature", "properties": { "site_no": "02425500", "nhdplus_comid": "21453472", "navigation_mode": "UM", "requested_distance_km": 12.0, "start_source": "nwissite", "start_id": "USGS-02425500", "geometry_length_km": 0.67476440914235258 }, "geometry": { "type": "LineString", "coordinates": [ [ -86.945823006, 32.047480896 ], [ -86.946038306, 32.047572494 ], [ -86.946307801, 32.048191093 ], [ -86.946577102, 32.048488796 ], [ -86.947061606, 32.048763499 ], [ -86.947492003, 32.048671596 ], [ -86.948621407, 32.047868997 ], [ -86.948917307, 32.047799997 ], [ -86.949563302, 32.048097499 ], [ -86.949751705, 32.048257798 ], [ -86.949457005, 32.049839094 ] ] } },
{ "type": "Feature", "properties": { "site_no": "02425500", "nhdplus_comid": "21453494", "navigation_mode": "UM", "requested_distance_km": 12.0, "start_source": "nwissite", "start_id": "USGS-02425500", "geometry_length_km": 0.85476362684462415 }, "geometry": { "type": "LineString", "coordinates": [ [ -86.9412181, 32.041754596 ], [ -86.941325806, 32.041892 ], [ -86.943129003, 32.0427389 ], [ -86.943855703, 32.043173894 ], [ -86.9441249, 32.043425798 ], [ -86.944125205, 32.043815397 ], [ -86.943803005, 32.044709295 ], [ -86.943830207, 32.045098893 ], [ -86.944772705, 32.0462441 ], [ -86.945634201, 32.046953999 ], [ -86.945823006, 32.047480896 ] ] } },
{ "type": "Feature", "properties": { "site_no": "02425500", "nhdplus_comid": "21453562", "navigation_mode": "UM", "requested_distance_km": 12.0, "start_source": "nwissite", "start_id": "USGS-02425500", "geometry_length_km": 4.1251291827534997 }, "geometry": { "type": "LineString", "coordinates": [ [ -86.925576001, 32.021344095 ], [ -86.925576001, 32.021641999 ], [ -86.925899006, 32.022008598 ], [ -86.926787205, 32.022718593 ], [ -86.927486606, 32.022924595 ], [ -86.928078204, 32.022878394 ], [ -86.928400904, 32.022740893 ], [ -86.928589106, 32.0224429 ], [ -86.928830601, 32.021640696 ], [ -86.929072507, 32.021205194 ], [ -86.929421902, 32.020861298 ], [ -86.929906003, 32.020631999 ], [ -86.930551603, 32.020723298 ], [ -86.9311435, 32.021112695 ], [ -86.932085104, 32.021478795 ], [ -86.9325964, 32.021845296 ], [ -86.932919502, 32.022188798 ], [ -86.932892703, 32.022441 ], [ -86.932113007, 32.023014195 ], [ -86.931898102, 32.0234956 ], [ -86.9318984, 32.024045497 ], [ -86.930957407, 32.024572998 ], [ -86.930554204, 32.024939798 ], [ -86.930285603, 32.025673196 ], [ -86.930232801, 32.027414799 ], [ -86.930367604, 32.027735494 ], [ -86.930932701, 32.028193593 ], [ -86.932035603, 32.028124295 ], [ -86.932358503, 32.028307594 ], [ -86.932358705, 32.028719999 ], [ -86.931471802, 32.029866099 ], [ -86.931445003, 32.030118294 ], [ -86.931767806, 32.030209795 ], [ -86.932897501, 32.029980093 ], [ -86.936395004, 32.030803494 ], [ -86.9366372, 32.030917898 ], [ -86.937337101, 32.031627893 ], [ -86.937337607, 32.032384098 ], [ -86.936612301, 32.033919893 ], [ -86.936424404, 32.0345845 ], [ -86.936505906, 32.035753094 ], [ -86.936613806, 32.036142595 ], [ -86.937421806, 32.0374256 ], [ -86.937800303, 32.040060595 ], [ -86.937935002, 32.040404297 ], [ -86.940680005, 32.0416632 ], [ -86.9412181, 32.041754596 ] ] } }
]
}
