{
"type": "FeatureCollection",
"name": "USGS_02401895_DM_12km",
"crs": { "type": "name", "properties": { "name": "urn:ogc:def:crs:OGC:1.3:CRS84" } },
"features": [
{ "type": "Feature", "properties": { "site_no": "02401895", "nhdplus_comid": "22201495", "navigation_mode": "DM", "requested_distance_km": 12.0, "start_source": "nwissite", "start_id": "USGS-02401895", "geometry_length_km": 0.13978009446193343 }, "geometry": { "type": "LineString", "coordinates": [ [ -85.998609002, 33.780292078 ], [ -85.998629801, 33.780291595 ], [ -85.999970205, 33.779738694 ] ] } },
{ "type": "Feature", "properties": { "site_no": "02401895", "nhdplus_comid": "22203679", "navigation_mode": "DM", "requested_distance_km": 12.0, "start_source": "nwissite", "start_id": "USGS-02401895", "geometry_length_km": 2.9811155141709387 }, "geometry": { "type": "LineString", "coordinates": [ [ -85.999970205, 33.779738694 ], [ -86.000354007, 33.779647395 ], [ -86.0012604, 33.778823696 ], [ -86.0027152, 33.778183497 ], [ -86.003895007, 33.777978495 ], [ -86.006446302, 33.777912095 ], [ -86.006885402, 33.777729198 ], [ -86.007050306, 33.777568996 ], [ -86.007078007, 33.777339898 ], [ -86.006749205, 33.776972994 ], [ -86.003816806, 33.775091797 ], [ -86.003022403, 33.774357997 ], [ -86.003050402, 33.773991495 ], [ -86.003187902, 33.773739494 ], [ -86.004149407, 33.772686295 ], [ -86.005221002, 33.771312594 ], [ -86.0059622, 33.770832099 ], [ -86.007306501, 33.770603999 ], [ -86.007910505, 33.770260796 ], [ -86.008048102, 33.769940093 ], [ -86.007966802, 33.769161098 ], [ -86.0078573, 33.768977694 ], [ -86.007721201, 33.768244296 ], [ -86.007996306, 33.767648794 ], [ -86.008298203, 33.767534599 ], [ -86.009176001, 33.767466597 ], [ -86.010766506, 33.7676972 ], [ -86.0115619, 33.767720699 ], [ -86.012000702, 33.7676524 ], [ -86.014361203, 33.766302794 ], [ -86.014992803, 33.765753597 ], [ -86.015184805, 33.765707895 ] ] } },
{ "type": "Feature", "properties": { "site_no": "02401895", "nhdplus_comid": "22203725", "navigation_mode": "DM", "requested_distance_km": 12.0, "start_source": "nwissite", "start_id": "USGS-02401895", "geometry_length_km": 0.6634586589876923 }, "geometry": { "type": "LineString", "coordinates": [ [ -86.015184805, 33.765707895 ], [ -86.015652001, 33.764998198 ], [ -86.015654303, 33.763188496 ], [ -86.016121104, 33.762707897 ], [ -86.017548002, 33.762090698 ], [ -86.018755704, 33.761427395 ], [ -86.018865503, 33.761267096 ] ] } },
{ "type": "Feature", "properties": { "site_no": "02401895", "nhdplus_comid": "22203729", "navigation_mode": "DM", "requested_distance_km": 12.0, "start_source": "nwissite", "start_id": "USGS-02401895", "geometry_length_km": 0.98576154651760151 }, "geometry": { "type": "LineString", "coordinates": [ [ -86.018865503, 33.761267096 ], [ -86.019414201, 33.7610844 ], [ -86.020594701, 33.760123298 ], [ -86.021692902, 33.759116195 ], [ -86.02194, 33.758956097 ], [ -86.022323802, 33.759002298 ], [ -86.027586803, 33.761434697 ], [ -86.027586602, 33.761503398 ] ] } },
{ "type": "Feature", "properties": { "site_no": "02401895", "nhdplus_comid": "22203723", "navigation_mode": "DM", "requested_distance_km": 12.0, "start_source": "nwissite", "start_id": "USGS-02401895", "geometry_length_km": 0.87167633441401016 }, "geometry": { "type": "LineString", "coordinates": [ [ -86.027586602, 33.761503398 ], [ -86.028135106, 33.761618398 ], [ -86.029862203, 33.762192398 ], [ -86.031233102, 33.762537099 ], [ -86.032138102, 33.762606494 ], [ -86.034496807, 33.762539499 ], [ -86.036801003, 33.762174696 ] ] } },
{ "type": "Feature", "properties": { "site_no": "02401895", "nhdplus_comid": "26132659", "navigation_mode": "DM", "requested_distance_km": 12.0, "start_source": "nwissite", "start_id": "USGS-02401895", "geometry_length_km": 0.48057375674334801 }, "geometry": { "type": "LineString", "coordinates": [ [ -86.036801003, 33.762174696 ], [ -86.040483907, 33.760450393 ], [ -86.041411906, 33.760356598 ], [ -86.041455202, 33.760382093 ] ] } },
{ "type": "Feature", "properties": { "site_no": "02401895", "nhdplus_comid": "26132661", "navigation_mode": "DM", "requested_distance_km": 12.0, "start_source": "nwissite", "start_id": "USGS-02401895", "geometry_length_km": 0.38256650227462324 }, "geometry": { "type": "LineString", "coordinates": [ [ -86.041455202, 33.760382093 ], [ -86.044839501, 33.762372799 ] ] } },
{ "type": "Feature", "properties": { "site_no": "02401895", "nhdplus_comid": "26132675", "navigation_mode": "DM", "requested_distance_km": 12.0, "start_source": "nwissite", "start_id": "USGS-02401895", "geometry_length_km": 4.2734876934183372 }, "geometry": { "type": "LineString", "coordinates": [ [ -86.044839501, 33.762372799 ], [ -86.048054904, 33.761767 ], [ -86.052923702, 33.762292996 ], [ -86.057803102, 33.761841796 ], [ -86.063286901, 33.759603597 ], [ -86.070351206, 33.755422898 ], [ -86.073888406, 33.752843693 ], [ -86.076459303, 33.749443099 ], [ -86.081010602, 33.743125796 ], [ -86.081019305, 33.743121698 ] ] } },
{ "type": "Feature", "properties": { "site_no": "02401895", "nhdplus_comid": "26132677", "navigation_mode": "DM", "requested_distance_km": 12.0, "start_source": "nwissite", "start_id": "USGS-02401895", "geometry_length_km": 1.7472286033486009 }, "geometry": { "type": "LineString", "coordinates": [ [ -86.081019305, 33.743121698 ], [ -86.085516304, 33.7410421 ], [ -86.0958829, 33.737698495 ], [ -86.098407306, 33.736908495 ] ] } }
]
}
