{
"type": "FeatureCollection",
"name": "USGS_02407680_DM_12km",
"crs": { "type": "name", "properties": { "name": "urn:ogc:def:crs:OGC:1.3:CRS84" } },
"features": [
{ "type": "Feature", "properties": { "site_no": "02407680", "nhdplus_comid": "22272076", "navigation_mode": "DM", "requested_distance_km": 12.0, "start_source": "nwissite", "start_id": "USGS-02407680", "geometry_length_km": 0.26186029223287327 }, "geometry": { "type": "LineString", "coordinates": [ [ -86.652582526, 33.181365206 ], [ -86.652582906, 33.181356497 ], [ -86.653399803, 33.179867193 ], [ -86.653563105, 33.179179795 ] ] } },
{ "type": "Feature", "properties": { "site_no": "02407680", "nhdplus_comid": "22272104", "navigation_mode": "DM", "requested_distance_km": 12.0, "start_source": "nwissite", "start_id": "USGS-02407680", "geometry_length_km": 0.79523039497972969 }, "geometry": { "type": "LineString", "coordinates": [ [ -86.653563105, 33.179179795 ], [ -86.653372303, 33.178950697 ], [ -86.653017901, 33.178034298 ], [ -86.652963102, 33.177163698 ], [ -86.653208107, 33.176545098 ], [ -86.653208002, 33.176201396 ], [ -86.653017201, 33.175811999 ], [ -86.652608506, 33.175628796 ], [ -86.650619604, 33.175239697 ], [ -86.649039201, 33.174484 ] ] } },
{ "type": "Feature", "properties": { "site_no": "02407680", "nhdplus_comid": "22272142", "navigation_mode": "DM", "requested_distance_km": 12.0, "start_source": "nwissite", "start_id": "USGS-02407680", "geometry_length_km": 0.84812846062445069 }, "geometry": { "type": "LineString", "coordinates": [ [ -86.649039201, 33.174484 ], [ -86.648630403, 33.173956998 ], [ -86.6467776, 33.172559798 ], [ -86.645387702, 33.170291796 ], [ -86.644869901, 33.169192195 ], [ -86.644597106, 33.168046698 ] ] } },
{ "type": "Feature", "properties": { "site_no": "02407680", "nhdplus_comid": "22272156", "navigation_mode": "DM", "requested_distance_km": 12.0, "start_source": "nwissite", "start_id": "USGS-02407680", "geometry_length_km": 0.20461530049813076 }, "geometry": { "type": "LineString", "coordinates": [ [ -86.644597106, 33.168046698 ], [ -86.644270003, 33.166809596 ], [ -86.644106403, 33.166259699 ] ] } },
{ "type": "Feature", "properties": { "site_no": "02407680", "nhdplus_comid": "22272262", "navigation_mode": "DM", "requested_distance_km": 12.0, "start_source": "nwissite", "start_id": "USGS-02407680", "geometry_length_km": 2.3390878736836349 }, "geometry": { "type": "LineString", "coordinates": [ [ -86.644106403, 33.166259699 ], [ -86.644133404, 33.165389098 ], [ -86.6443239, 33.164403893 ], [ -86.644323707, 33.163166694 ], [ -86.644078404, 33.162204497 ], [ -86.644214407, 33.161746293 ], [ -86.644241504, 33.160806894 ], [ -86.644023307, 33.159844697 ], [ -86.643887103, 33.159638494 ], [ -86.642116405, 33.158264093 ], [ -86.641735002, 33.157622598 ], [ -86.640999302, 33.156500094 ], [ -86.640863106, 33.156133495 ], [ -86.640672401, 33.155927397 ], [ -86.639528103, 33.154025897 ], [ -86.638465606, 33.152467996 ], [ -86.637948006, 33.151986897 ], [ -86.637212604, 33.151482999 ], [ -86.6365043, 33.1507269 ], [ -86.635850303, 33.148527496 ], [ -86.635196604, 33.147931896 ], [ -86.635169402, 33.147725694 ] ] } },
{ "type": "Feature", "properties": { "site_no": "02407680", "nhdplus_comid": "22272504", "navigation_mode": "DM", "requested_distance_km": 12.0, "start_source": "nwissite", "start_id": "USGS-02407680", "geometry_length_km": 8.350974491095192 }, "geometry": { "type": "LineString", "coordinates": [ [ -86.635169402, 33.147725694 ], [ -86.634978704, 33.147702798 ], [ -86.6324457, 33.1450454 ], [ -86.629939906, 33.142044097 ], [ -86.628741704, 33.140302896 ], [ -86.628060706, 33.139134496 ], [ -86.627107605, 33.137782693 ], [ -86.625800505, 33.1364538 ], [ -86.624983504, 33.135331094 ], [ -86.623594806, 33.133269094 ], [ -86.6232135, 33.132146396 ], [ -86.623023003, 33.131871596 ], [ -86.622641705, 33.130863398 ], [ -86.621879302, 33.129740797 ], [ -86.621715903, 33.129351296 ], [ -86.621716, 33.128595196 ], [ -86.622206204, 33.127907895 ], [ -86.623159304, 33.126808196 ], [ -86.623758405, 33.125112794 ], [ -86.624139607, 33.123348698 ], [ -86.624139607, 33.122203097 ], [ -86.624275804, 33.121698998 ], [ -86.624411903, 33.121149197 ], [ -86.624548003, 33.120942995 ], [ -86.624983601, 33.120782696 ], [ -86.625337504, 33.120759696 ], [ -86.625746004, 33.120484799 ], [ -86.626317702, 33.119774699 ], [ -86.626644507, 33.1195914 ], [ -86.627161704, 33.119522698 ], [ -86.627597407, 33.119660094 ], [ -86.627951406, 33.1198892 ], [ -86.628387004, 33.120484896 ], [ -86.628387004, 33.1212181 ], [ -86.628250904, 33.121630393 ], [ -86.628169306, 33.121676296 ], [ -86.628142104, 33.122638494 ], [ -86.628251001, 33.122844696 ], [ -86.6287411, 33.123279996 ], [ -86.628958903, 33.123279996 ], [ -86.629367203, 33.123142496 ], [ -86.629748501, 33.122752994 ], [ -86.629748404, 33.120645195 ], [ -86.629857205, 33.119293496 ], [ -86.629748307, 33.118858196 ], [ -86.628523104, 33.116292097 ], [ -86.628495805, 33.116040096 ], [ -86.628414102, 33.115971394 ], [ -86.628305301, 33.115375698 ], [ -86.628223605, 33.115329899 ], [ -86.628169104, 33.114963293 ], [ -86.627815105, 33.114321798 ], [ -86.627651803, 33.113565795 ], [ -86.627651803, 33.112855598 ], [ -86.627760701, 33.112695098 ], [ -86.628114603, 33.112672195 ], [ -86.629339702, 33.113313697 ], [ -86.630265303, 33.113703199 ], [ -86.630946003, 33.113863498 ], [ -86.631735504, 33.1139552 ], [ -86.632198401, 33.113863394 ], [ -86.633042306, 33.113496795 ], [ -86.634022303, 33.112534493 ], [ -86.634294502, 33.111847199 ], [ -86.634267204, 33.111297294 ], [ -86.634049401, 33.110884897 ], [ -86.6338588, 33.110701598 ], [ -86.632415704, 33.109785296 ], [ -86.630564503, 33.1089148 ], [ -86.630074501, 33.108319096 ], [ -86.630047202, 33.107654594 ], [ -86.630646005, 33.106004998 ], [ -86.630918205, 33.104813598 ], [ -86.631108701, 33.104332499 ], [ -86.632061303, 33.102774493 ], [ -86.632251807, 33.102018394 ], [ -86.632251807, 33.101262398 ], [ -86.631952301, 33.100231394 ], [ -86.631952301, 33.099314898 ], [ -86.632251702, 33.099223293 ], [ -86.634129904, 33.099498093 ], [ -86.6353276, 33.099589698 ], [ -86.635844804, 33.099475093 ], [ -86.636171401, 33.099268898 ], [ -86.636389107, 33.098856494 ] ] } }
]
}
