{
"type": "FeatureCollection",
"name": "USGS_02419845_UM_12km",
"crs": { "type": "name", "properties": { "name": "urn:ogc:def:crs:OGC:1.3:CRS84" } },
"features": [
{ "type": "Feature", "properties": { "site_no": "02419845", "nhdplus_comid": "21718862", "navigation_mode": "UM", "requested_distance_km": 12.0, "start_source": "nwissite", "start_id": "USGS-02419845", "geometry_length_km": 1.5371548618033739 }, "geometry": { "type": "LineString", "coordinates": [ [ -86.1385682, 32.348806493 ], [ -86.138163403, 32.349333495 ], [ -86.138217404, 32.349516794 ], [ -86.138487406, 32.349929199 ], [ -86.138352506, 32.350479096 ], [ -86.138649501, 32.351097696 ], [ -86.139243402, 32.351647496 ], [ -86.139405601, 32.352426499 ], [ -86.139513604, 32.352678597 ], [ -86.139432706, 32.353388898 ], [ -86.139189705, 32.353572197 ], [ -86.139162906, 32.353961699 ], [ -86.138812006, 32.354374096 ], [ -86.138569102, 32.355061598 ], [ -86.138245307, 32.355496898 ], [ -86.138029307, 32.3560239 ], [ -86.138029404, 32.356986195 ], [ -86.137489602, 32.357513294 ], [ -86.137408704, 32.358200699 ], [ -86.136922903, 32.3583152 ], [ -86.1368149, 32.358429797 ], [ -86.136760905, 32.358888 ], [ -86.136626005, 32.359048396 ], [ -86.136626005, 32.359483793 ], [ -86.136410102, 32.359689996 ], [ -86.136005104, 32.359804593 ], [ -86.135789305, 32.360148296 ], [ -86.135114305, 32.360400394 ], [ -86.134984616, 32.360498207 ] ] } },
{ "type": "Feature", "properties": { "site_no": "02419845", "nhdplus_comid": "21718864", "navigation_mode": "UM", "requested_distance_km": 12.0, "start_source": "nwissite", "start_id": "USGS-02419845", "geometry_length_km": 0.071520618116084303 }, "geometry": { "type": "LineString", "coordinates": [ [ -86.139135003, 32.348439798 ], [ -86.138676204, 32.348829396 ], [ -86.1385682, 32.348806493 ] ] } },
{ "type": "Feature", "properties": { "site_no": "02419845", "nhdplus_comid": "21718898", "navigation_mode": "UM", "requested_distance_km": 12.0, "start_source": "nwissite", "start_id": "USGS-02419845", "geometry_length_km": 1.4537347526135544 }, "geometry": { "type": "LineString", "coordinates": [ [ -86.135004103, 32.3362737 ], [ -86.135112002, 32.336777799 ], [ -86.136353604, 32.3378774 ], [ -86.136758506, 32.338541895 ], [ -86.137082607, 32.340214498 ], [ -86.137352906, 32.343055598 ], [ -86.137676805, 32.344224095 ], [ -86.137974106, 32.346056998 ], [ -86.138406105, 32.347248495 ], [ -86.139000006, 32.347706594 ], [ -86.139135003, 32.348119095 ], [ -86.139135003, 32.348439798 ] ] } },
{ "type": "Feature", "properties": { "site_no": "02419845", "nhdplus_comid": "21718926", "navigation_mode": "UM", "requested_distance_km": 12.0, "start_source": "nwissite", "start_id": "USGS-02419845", "geometry_length_km": 2.1730263784182013 }, "geometry": { "type": "LineString", "coordinates": [ [ -86.117948502, 32.325252794 ], [ -86.1184882, 32.325802699 ], [ -86.118973903, 32.326490097 ], [ -86.120511904, 32.327154696 ], [ -86.122940503, 32.3277734 ], [ -86.124208905, 32.328208797 ], [ -86.124964602, 32.328346193 ], [ -86.125693105, 32.328644097 ], [ -86.128094904, 32.329171099 ], [ -86.128526703, 32.3294461 ], [ -86.128850505, 32.329766899 ], [ -86.129120402, 32.329858497 ], [ -86.129390202, 32.330225095 ], [ -86.129444301, 32.331324898 ], [ -86.129552305, 32.331462294 ], [ -86.129957102, 32.331668496 ], [ -86.130038001, 32.331989296 ], [ -86.130550802, 32.332287095 ], [ -86.130820706, 32.332562096 ], [ -86.131441303, 32.332882896 ], [ -86.132305004, 32.333707593 ], [ -86.133438505, 32.334074199 ], [ -86.133573405, 32.334257498 ], [ -86.133573502, 32.334669895 ], [ -86.133924402, 32.335013598 ], [ -86.134167403, 32.335128099 ], [ -86.134545207, 32.335494697 ], [ -86.134869106, 32.336136296 ], [ -86.135004103, 32.3362737 ] ] } },
{ "type": "Feature", "properties": { "site_no": "02419845", "nhdplus_comid": "21718998", "navigation_mode": "UM", "requested_distance_km": 12.0, "start_source": "nwissite", "start_id": "USGS-02419845", "geometry_length_km": 2.7761797991765853 }, "geometry": { "type": "LineString", "coordinates": [ [ -86.107860006, 32.305822 ], [ -86.107644103, 32.306096993 ], [ -86.107023306, 32.307379998 ], [ -86.1067532, 32.308685996 ], [ -86.106806703, 32.310954295 ], [ -86.1067257, 32.311252095 ], [ -86.106104806, 32.312397696 ], [ -86.106077805, 32.312580995 ], [ -86.1055381, 32.313359894 ], [ -86.105511107, 32.314024396 ], [ -86.106158003, 32.316498995 ], [ -86.106427707, 32.317003094 ], [ -86.107884504, 32.318859294 ], [ -86.108585902, 32.319661297 ], [ -86.109287307, 32.320302993 ], [ -86.109745905, 32.320577897 ], [ -86.110906102, 32.321036294 ], [ -86.113712206, 32.323029898 ], [ -86.1142518, 32.323465399 ], [ -86.115439005, 32.3248173 ], [ -86.116572306, 32.324954793 ], [ -86.117948502, 32.325252794 ] ] } }
]
}
