{
"type": "FeatureCollection",
"name": "USGS_03575500_UM_12km",
"crs": { "type": "name", "properties": { "name": "urn:ogc:def:crs:OGC:1.3:CRS84" } },
"features": [
{ "type": "Feature", "properties": { "site_no": "03575500", "nhdplus_comid": "19621612", "navigation_mode": "UM", "requested_distance_km": 12.0, "start_source": "nwissite", "start_id": "USGS-03575500", "geometry_length_km": 0.12983640566207424 }, "geometry": { "type": "LineString", "coordinates": [ [ -86.558598906, 34.569046296 ], [ -86.559601614, 34.569872 ] ] } },
{ "type": "Feature", "properties": { "site_no": "03575500", "nhdplus_comid": "19621784", "navigation_mode": "UM", "requested_distance_km": 12.0, "start_source": "nwissite", "start_id": "USGS-03575500", "geometry_length_km": 5.7453539331837451 }, "geometry": { "type": "LineString", "coordinates": [ [ -86.540423103, 34.521469399 ], [ -86.541013107, 34.522056594 ], [ -86.542636007, 34.5250194 ], [ -86.546997406, 34.534001097 ], [ -86.547964804, 34.535562493 ], [ -86.549735501, 34.537323996 ], [ -86.550949, 34.539579295 ], [ -86.551507004, 34.541781396 ], [ -86.551261701, 34.543783396 ], [ -86.550131403, 34.546252698 ], [ -86.549853303, 34.548521698 ], [ -86.550920703, 34.554674193 ], [ -86.552298903, 34.558290794 ], [ -86.552249901, 34.558691196 ], [ -86.553972505, 34.562200896 ], [ -86.556613803, 34.566324197 ], [ -86.557909705, 34.567912094 ], [ -86.558008306, 34.568459295 ], [ -86.558598906, 34.569046296 ] ] } },
{ "type": "Feature", "properties": { "site_no": "03575500", "nhdplus_comid": "19621812", "navigation_mode": "UM", "requested_distance_km": 12.0, "start_source": "nwissite", "start_id": "USGS-03575500", "geometry_length_km": 2.0883738698262313 }, "geometry": { "type": "LineString", "coordinates": [ [ -86.534489505, 34.503731698 ], [ -86.535669304, 34.506254293 ], [ -86.535899304, 34.512473993 ], [ -86.540455803, 34.521202497 ], [ -86.540423103, 34.521469399 ] ] } },
{ "type": "Feature", "properties": { "site_no": "03575500", "nhdplus_comid": "19621820", "navigation_mode": "UM", "requested_distance_km": 12.0, "start_source": "nwissite", "start_id": "USGS-03575500", "geometry_length_km": 0.25956478569934704 }, "geometry": { "type": "LineString", "coordinates": [ [ -86.5325398, 34.502090096 ], [ -86.533014901, 34.502263598 ], [ -86.534489505, 34.503731698 ] ] } },
{ "type": "Feature", "properties": { "site_no": "03575500", "nhdplus_comid": "19621826", "navigation_mode": "UM", "requested_distance_km": 12.0, "start_source": "nwissite", "start_id": "USGS-03575500", "geometry_length_km": 0.12924899085493696 }, "geometry": { "type": "LineString", "coordinates": [ [ -86.531655006, 34.501209199 ], [ -86.532334901, 34.501736395 ], [ -86.5325398, 34.502090096 ] ] } },
{ "type": "Feature", "properties": { "site_no": "03575500", "nhdplus_comid": "19621832", "navigation_mode": "UM", "requested_distance_km": 12.0, "start_source": "nwissite", "start_id": "USGS-03575500", "geometry_length_km": 0.16245462297333677 }, "geometry": { "type": "LineString", "coordinates": [ [ -86.530503102, 34.500103593 ], [ -86.530622907, 34.500181496 ], [ -86.531655006, 34.501209199 ] ] } },
{ "type": "Feature", "properties": { "site_no": "03575500", "nhdplus_comid": "19626166", "navigation_mode": "UM", "requested_distance_km": 12.0, "start_source": "nwissite", "start_id": "USGS-03575500", "geometry_length_km": 2.9936095647495762 }, "geometry": { "type": "LineString", "coordinates": [ [ -86.503743701, 34.484642699 ], [ -86.5176652, 34.492519796 ], [ -86.527215302, 34.498286299 ], [ -86.528018005, 34.498486497 ], [ -86.530503102, 34.500103593 ] ] } }
]
}
