{
"type": "FeatureCollection",
"name": "USGS_02423496_DM_12km",
"crs": { "type": "name", "properties": { "name": "urn:ogc:def:crs:OGC:1.3:CRS84" } },
"features": [
{ "type": "Feature", "properties": { "site_no": "02423496", "nhdplus_comid": "21655568", "navigation_mode": "DM", "requested_distance_km": 12.0, "start_source": "nwissite", "start_id": "USGS-02423496", "geometry_length_km": 1.7775902442158233 }, "geometry": { "type": "LineString", "coordinates": [ [ -86.784057409, 33.369263678 ], [ -86.785267904, 33.369298995 ], [ -86.786905803, 33.369620897 ], [ -86.789936602, 33.369645998 ], [ -86.791028701, 33.369830094 ], [ -86.791492701, 33.370036595 ], [ -86.791792706, 33.3703347 ], [ -86.792119704, 33.3710908 ], [ -86.792501606, 33.371434696 ], [ -86.793184102, 33.371618494 ], [ -86.793975905, 33.371641994 ], [ -86.794440202, 33.371550597 ], [ -86.796079107, 33.370933093 ], [ -86.796325006, 33.370658293 ], [ -86.796352901, 33.370039798 ], [ -86.795916803, 33.369214796 ], [ -86.7957258, 33.3690084 ], [ -86.7956172, 33.368320994 ], [ -86.795863502, 33.367771298 ], [ -86.796464704, 33.367176093 ], [ -86.796929106, 33.366855599 ], [ -86.797038503, 33.3666953 ] ] } },
{ "type": "Feature", "properties": { "site_no": "02423496", "nhdplus_comid": "21656498", "navigation_mode": "DM", "requested_distance_km": 12.0, "start_source": "nwissite", "start_id": "USGS-02423496", "geometry_length_km": 2.2998050317058771 }, "geometry": { "type": "LineString", "coordinates": [ [ -86.797038503, 33.3666953 ], [ -86.797857806, 33.3665125 ], [ -86.800615601, 33.366353795 ], [ -86.802609004, 33.365988493 ], [ -86.804575503, 33.3652336 ], [ -86.807333604, 33.364639595 ], [ -86.809135705, 33.364594698 ], [ -86.810691707, 33.364847496 ], [ -86.811128706, 33.364687294 ], [ -86.813286506, 33.3633826 ], [ -86.815335207, 33.362008899 ], [ -86.816537201, 33.360978596 ], [ -86.818804301, 33.359398894 ], [ -86.819132, 33.359330297 ] ] } },
{ "type": "Feature", "properties": { "site_no": "02423496", "nhdplus_comid": "21655628", "navigation_mode": "DM", "requested_distance_km": 12.0, "start_source": "nwissite", "start_id": "USGS-02423496", "geometry_length_km": 3.3201779747560853 }, "geometry": { "type": "LineString", "coordinates": [ [ -86.819132, 33.359330297 ], [ -86.819896802, 33.358551696 ], [ -86.820115604, 33.358001895 ], [ -86.8201432, 33.357314698 ], [ -86.820061602, 33.356879294 ], [ -86.819979802, 33.356833495 ], [ -86.819952607, 33.356581397 ], [ -86.819161907, 33.3550919 ], [ -86.818643503, 33.354404397 ], [ -86.818016306, 33.3533502 ], [ -86.817743607, 33.353029296 ], [ -86.817743905, 33.352616996 ], [ -86.818181306, 33.351654895 ], [ -86.818672702, 33.351540498 ], [ -86.820856303, 33.352228895 ], [ -86.820938103, 33.3523205 ], [ -86.821893401, 33.352687493 ], [ -86.822657704, 33.352710798 ], [ -86.823149301, 33.352458894 ], [ -86.824105501, 33.351176396 ], [ -86.824542403, 33.350832894 ], [ -86.825061306, 33.350581095 ], [ -86.826098703, 33.350421198 ], [ -86.8278732, 33.350284494 ], [ -86.830602802, 33.350789398 ], [ -86.831285305, 33.350789696 ], [ -86.831831306, 33.350583695 ], [ -86.831967905, 33.350331694 ], [ -86.831995405, 33.350033894 ], [ -86.831504501, 33.349208899 ], [ -86.830958702, 33.348590299 ], [ -86.829867303, 33.347604699 ], [ -86.829731002, 33.347375497 ], [ -86.8297313, 33.346779794 ], [ -86.829895303, 33.346413299 ], [ -86.831998706, 33.343435697 ], [ -86.832108006, 33.343183793 ] ] } },
{ "type": "Feature", "properties": { "site_no": "02423496", "nhdplus_comid": "21655734", "navigation_mode": "DM", "requested_distance_km": 12.0, "start_source": "nwissite", "start_id": "USGS-02423496", "geometry_length_km": 3.0704599638990517 }, "geometry": { "type": "LineString", "coordinates": [ [ -86.832108006, 33.343183793 ], [ -86.833200105, 33.342313595 ], [ -86.834702, 33.341099799 ], [ -86.835029803, 33.340527199 ], [ -86.8349481, 33.340137698 ], [ -86.834184706, 33.338350497 ], [ -86.834075704, 33.337731794 ], [ -86.834130704, 33.337136097 ], [ -86.834321804, 33.336861297 ], [ -86.8359055, 33.335532993 ], [ -86.837762304, 33.333586194 ], [ -86.838526905, 33.332921997 ], [ -86.839154705, 33.3325556 ], [ -86.840710901, 33.3313189 ], [ -86.843222402, 33.329784594 ], [ -86.844696403, 33.329028897 ], [ -86.845733903, 33.328181498 ], [ -86.846825801, 33.326921694 ], [ -86.847290002, 33.326074198 ], [ -86.848163702, 33.3249975 ], [ -86.848764405, 33.323874995 ], [ -86.8495287, 33.323096298 ], [ -86.8502113, 33.3221341 ] ] } },
{ "type": "Feature", "properties": { "site_no": "02423496", "nhdplus_comid": "21655746", "navigation_mode": "DM", "requested_distance_km": 12.0, "start_source": "nwissite", "start_id": "USGS-02423496", "geometry_length_km": 0.56858542285686564 }, "geometry": { "type": "LineString", "coordinates": [ [ -86.8502113, 33.3221341 ], [ -86.852176301, 33.321286798 ], [ -86.8541141, 33.320714399 ], [ -86.855942503, 33.320370995 ] ] } },
{ "type": "Feature", "properties": { "site_no": "02423496", "nhdplus_comid": "21655796", "navigation_mode": "DM", "requested_distance_km": 12.0, "start_source": "nwissite", "start_id": "USGS-02423496", "geometry_length_km": 2.1770265429315638 }, "geometry": { "type": "LineString", "coordinates": [ [ -86.855942503, 33.320370995 ], [ -86.8585352, 33.319867395 ], [ -86.859053701, 33.319500893 ], [ -86.860309407, 33.317118399 ], [ -86.860609703, 33.316041693 ], [ -86.860664405, 33.3154689 ], [ -86.860582702, 33.315102294 ], [ -86.860391602, 33.314873196 ], [ -86.859927706, 33.314644098 ], [ -86.857744806, 33.3148041 ], [ -86.856680602, 33.314689398 ], [ -86.855943806, 33.314483099 ], [ -86.85548, 33.314116396 ], [ -86.855371006, 33.313910194 ], [ -86.855343804, 33.313337497 ], [ -86.855562203, 33.312879294 ], [ -86.856653906, 33.311710998 ], [ -86.857199602, 33.3113904 ], [ -86.857800007, 33.310863495 ], [ -86.858973704, 33.309145294 ], [ -86.859410301, 33.3086643 ], [ -86.859983407, 33.308251999 ], [ -86.860065304, 33.308045797 ] ] } }
]
}
