{
"type": "FeatureCollection",
"name": "USGS_02373500_DM_12km",
"crs": { "type": "name", "properties": { "name": "urn:ogc:def:crs:OGC:1.3:CRS84" } },
"features": [
{ "type": "Feature", "properties": { "site_no": "02373500", "nhdplus_comid": "2402861", "navigation_mode": "DM", "requested_distance_km": 12.0, "start_source": "nwissite", "start_id": "USGS-02373500", "geometry_length_km": 0.2649430528287402 }, "geometry": { "type": "LineString", "coordinates": [ [ -86.658249923, 31.476549473 ], [ -86.659057707, 31.476313196 ], [ -86.659646004, 31.4765881 ], [ -86.659673005, 31.477092199 ], [ -86.659913704, 31.477275595 ], [ -86.660261303, 31.4772067 ] ] } },
{ "type": "Feature", "properties": { "site_no": "02373500", "nhdplus_comid": "2402071", "navigation_mode": "DM", "requested_distance_km": 12.0, "start_source": "nwissite", "start_id": "USGS-02373500", "geometry_length_km": 3.1509596461372067 }, "geometry": { "type": "LineString", "coordinates": [ [ -86.660261303, 31.4772067 ], [ -86.660394803, 31.4768629 ], [ -86.660394706, 31.476381697 ], [ -86.660073504, 31.475854598 ], [ -86.660153605, 31.475465097 ], [ -86.660768501, 31.475075297 ], [ -86.660875201, 31.474525295 ], [ -86.661303006, 31.474158496 ], [ -86.6613295, 31.473860495 ], [ -86.661008604, 31.473493896 ], [ -86.660767704, 31.473012693 ], [ -86.660313204, 31.472806595 ], [ -86.659938805, 31.472875498 ], [ -86.659831904, 31.473058797 ], [ -86.659751907, 31.473585993 ], [ -86.659591407, 31.473677598 ], [ -86.659431003, 31.473540194 ], [ -86.659350701, 31.473334 ], [ -86.659456901, 31.471477695 ], [ -86.6591627, 31.471088096 ], [ -86.658066303, 31.470813394 ], [ -86.656809404, 31.470217898 ], [ -86.656034105, 31.4701951 ], [ -86.655499302, 31.4704016 ], [ -86.655018002, 31.470401697 ], [ -86.654777303, 31.470241293 ], [ -86.654616706, 31.469737194 ], [ -86.654456303, 31.469531 ], [ -86.653039202, 31.469370894 ], [ -86.652584404, 31.469118796 ], [ -86.652236603, 31.468729295 ], [ -86.6520226, 31.468087599 ], [ -86.652102701, 31.467445999 ], [ -86.652316503, 31.466872998 ], [ -86.652744107, 31.466437496 ], [ -86.653225303, 31.466162398 ], [ -86.653920501, 31.4660476 ], [ -86.656032801, 31.466642998 ], [ -86.6563804, 31.466642894 ], [ -86.656701207, 31.466505393 ], [ -86.657075405, 31.466207296 ], [ -86.657502607, 31.464763395 ], [ -86.657609604, 31.464625895 ], [ -86.657609403, 31.464167498 ], [ -86.6573686, 31.463594697 ], [ -86.657127902, 31.463411398 ], [ -86.655630603, 31.463228397 ], [ -86.654267006, 31.462839194 ], [ -86.654213406, 31.462747596 ] ] } },
{ "type": "Feature", "properties": { "site_no": "02373500", "nhdplus_comid": "2402075", "navigation_mode": "DM", "requested_distance_km": 12.0, "start_source": "nwissite", "start_id": "USGS-02373500", "geometry_length_km": 0.12028129589046664 }, "geometry": { "type": "LineString", "coordinates": [ [ -86.654213406, 31.462747596 ], [ -86.653625302, 31.462678894 ], [ -86.652983606, 31.4624957 ] ] } },
{ "type": "Feature", "properties": { "site_no": "02373500", "nhdplus_comid": "2402081", "navigation_mode": "DM", "requested_distance_km": 12.0, "start_source": "nwissite", "start_id": "USGS-02373500", "geometry_length_km": 1.0517085597609677 }, "geometry": { "type": "LineString", "coordinates": [ [ -86.652983606, 31.4624957 ], [ -86.651913702, 31.4614188 ], [ -86.651004605, 31.461075194 ], [ -86.650630303, 31.460846193 ], [ -86.650469705, 31.460204497 ], [ -86.650603302, 31.459883593 ], [ -86.651004307, 31.459402293 ], [ -86.651378505, 31.4592188 ], [ -86.652046807, 31.4591958 ], [ -86.653036103, 31.4594936 ], [ -86.6549078, 31.460203595 ], [ -86.6556831, 31.460386693 ], [ -86.656806007, 31.460455097 ] ] } },
{ "type": "Feature", "properties": { "site_no": "02373500", "nhdplus_comid": "2402109", "navigation_mode": "DM", "requested_distance_km": 12.0, "start_source": "nwissite", "start_id": "USGS-02373500", "geometry_length_km": 1.5720647520064952 }, "geometry": { "type": "LineString", "coordinates": [ [ -86.656806007, 31.460455097 ], [ -86.657902107, 31.4602945 ], [ -86.659452505, 31.459537894 ], [ -86.6598536, 31.459491894 ], [ -86.660468504, 31.459766693 ], [ -86.660762705, 31.459789596 ], [ -86.661163606, 31.459606193 ], [ -86.661484301, 31.459124796 ], [ -86.661510803, 31.458849795 ], [ -86.661430702, 31.458781093 ], [ -86.661216505, 31.458093598 ], [ -86.6615372, 31.457704 ], [ -86.662499502, 31.457428694 ], [ -86.662526101, 31.457130797 ], [ -86.662419006, 31.4570162 ], [ -86.662285104, 31.456374593 ], [ -86.662178203, 31.456282899 ], [ -86.662177704, 31.455182895 ], [ -86.662257805, 31.454609998 ], [ -86.6621508, 31.454334997 ], [ -86.661936805, 31.454128794 ], [ -86.661402002, 31.453876793 ], [ -86.661000803, 31.453556098 ], [ -86.660733201, 31.452776998 ], [ -86.660118103, 31.452250093 ], [ -86.659984402, 31.452043794 ], [ -86.660011001, 31.451745898 ], [ -86.660304904, 31.451241694 ] ] } },
{ "type": "Feature", "properties": { "site_no": "02373500", "nhdplus_comid": "2402129", "navigation_mode": "DM", "requested_distance_km": 12.0, "start_source": "nwissite", "start_id": "USGS-02373500", "geometry_length_km": 0.44962358392698487 }, "geometry": { "type": "LineString", "coordinates": [ [ -86.660304904, 31.451241694 ], [ -86.660892904, 31.451035298 ], [ -86.661454201, 31.4505997 ], [ -86.661801606, 31.450118296 ], [ -86.661747806, 31.449728698 ], [ -86.661132805, 31.448995493 ], [ -86.660892002, 31.448605999 ], [ -86.660811603, 31.448056094 ] ] } },
{ "type": "Feature", "properties": { "site_no": "02373500", "nhdplus_comid": "2402143", "navigation_mode": "DM", "requested_distance_km": 12.0, "start_source": "nwissite", "start_id": "USGS-02373500", "geometry_length_km": 0.29827235831807447 }, "geometry": { "type": "LineString", "coordinates": [ [ -86.660811603, 31.448056094 ], [ -86.660998605, 31.447643399 ], [ -86.661826901, 31.446703695 ], [ -86.662842505, 31.446084596 ] ] } },
{ "type": "Feature", "properties": { "site_no": "02373500", "nhdplus_comid": "2402181", "navigation_mode": "DM", "requested_distance_km": 12.0, "start_source": "nwissite", "start_id": "USGS-02373500", "geometry_length_km": 1.3688325455657546 }, "geometry": { "type": "LineString", "coordinates": [ [ -86.662842505, 31.446084596 ], [ -86.662735201, 31.445557594 ], [ -86.662200406, 31.444938898 ], [ -86.6622269, 31.444526397 ], [ -86.662413903, 31.444113798 ], [ -86.663188905, 31.443609498 ], [ -86.663215503, 31.443265699 ], [ -86.663455904, 31.442853093 ], [ -86.663856901, 31.442761295 ], [ -86.664097503, 31.443036295 ], [ -86.664231502, 31.443654999 ], [ -86.6644454, 31.443792395 ], [ -86.664846204, 31.4437235 ], [ -86.665060006, 31.443517298 ], [ -86.665086605, 31.443127699 ], [ -86.665006302, 31.4429214 ], [ -86.664204001, 31.442256995 ], [ -86.664150506, 31.442073695 ], [ -86.6642306, 31.441821598 ], [ -86.664979003, 31.441592194 ], [ -86.6658075, 31.441546194 ], [ -86.666823506, 31.442027099 ], [ -86.667198002, 31.442301996 ], [ -86.667411901, 31.4425769 ], [ -86.667385407, 31.443172798 ], [ -86.667572603, 31.443310298 ], [ -86.6680004, 31.443447597 ] ] } },
{ "type": "Feature", "properties": { "site_no": "02373500", "nhdplus_comid": "2402867", "navigation_mode": "DM", "requested_distance_km": 12.0, "start_source": "nwissite", "start_id": "USGS-02373500", "geometry_length_km": 1.7759366928578211 }, "geometry": { "type": "LineString", "coordinates": [ [ -86.6680004, 31.443447597 ], [ -86.6682408, 31.443103798 ], [ -86.668400802, 31.442484893 ], [ -86.668641403, 31.442232795 ], [ -86.6692027, 31.442209698 ], [ -86.669844307, 31.442484394 ], [ -86.671341404, 31.4428965 ], [ -86.671956107, 31.442804597 ], [ -86.672811307, 31.442208394 ], [ -86.673425503, 31.4414519 ], [ -86.674040206, 31.441061996 ], [ -86.674253903, 31.440741099 ], [ -86.674547404, 31.439938895 ], [ -86.674894303, 31.438563697 ], [ -86.674813807, 31.438105397 ], [ -86.674332403, 31.437716097 ], [ -86.674359001, 31.437372297 ], [ -86.674813002, 31.436799094 ], [ -86.674839705, 31.436546996 ], [ -86.674491704, 31.435676299 ], [ -86.674251005, 31.435447194 ], [ -86.673555903, 31.435034998 ], [ -86.672940902, 31.4345311 ], [ -86.671711303, 31.434279397 ], [ -86.671283506, 31.434027396 ] ] } },
{ "type": "Feature", "properties": { "site_no": "02373500", "nhdplus_comid": "2402217", "navigation_mode": "DM", "requested_distance_km": 12.0, "start_source": "nwissite", "start_id": "USGS-02373500", "geometry_length_km": 0.79171040922010183 }, "geometry": { "type": "LineString", "coordinates": [ [ -86.671283506, 31.434027396 ], [ -86.671096303, 31.433775499 ], [ -86.670989007, 31.433179699 ], [ -86.671122506, 31.432766996 ], [ -86.671523303, 31.432514794 ], [ -86.671924107, 31.432468794 ], [ -86.672245003, 31.4326979 ], [ -86.672378801, 31.432995796 ], [ -86.672779903, 31.433247693 ], [ -86.673287503, 31.432880796 ], [ -86.673688002, 31.432009794 ], [ -86.674088001, 31.430359699 ], [ -86.674542002, 31.429740697 ] ] } },
{ "type": "Feature", "properties": { "site_no": "02373500", "nhdplus_comid": "2402255", "navigation_mode": "DM", "requested_distance_km": 12.0, "start_source": "nwissite", "start_id": "USGS-02373500", "geometry_length_km": 2.1784508287339768 }, "geometry": { "type": "LineString", "coordinates": [ [ -86.674542002, 31.429740697 ], [ -86.674488403, 31.429396994 ], [ -86.674301103, 31.429053299 ], [ -86.673980303, 31.428755499 ], [ -86.673257604, 31.426739097 ], [ -86.673230402, 31.425868198 ], [ -86.672989406, 31.424974494 ], [ -86.672721803, 31.424287096 ], [ -86.671946302, 31.423324898 ], [ -86.670743205, 31.422431499 ], [ -86.669807605, 31.421927594 ], [ -86.668925606, 31.421630099 ], [ -86.667108104, 31.421218194 ], [ -86.666814007, 31.420989096 ], [ -86.666386105, 31.420072496 ], [ -86.665851302, 31.419545598 ], [ -86.665396705, 31.418766499 ], [ -86.6653964, 31.418056093 ], [ -86.665690005, 31.417230994 ], [ -86.666037105, 31.416566297 ], [ -86.666357704, 31.416359894 ], [ -86.666945606, 31.416313894 ], [ -86.667239606, 31.416382596 ], [ -86.668495603, 31.416450895 ], [ -86.669163607, 31.416336 ] ] } }
]
}
