{
"type": "FeatureCollection",
"name": "USGS_02405200_UM_12km",
"crs": { "type": "name", "properties": { "name": "urn:ogc:def:crs:OGC:1.3:CRS84" } },
"features": [
{ "type": "Feature", "properties": { "site_no": "02405200", "nhdplus_comid": "22206197", "navigation_mode": "UM", "requested_distance_km": 12.0, "start_source": "nwissite", "start_id": "USGS-02405200", "geometry_length_km": 0.045651977142759662 }, "geometry": { "type": "LineString", "coordinates": [ [ -86.336537004, 33.425979793 ], [ -86.336749728, 33.425610792 ] ] } },
{ "type": "Feature", "properties": { "site_no": "02405200", "nhdplus_comid": "26132807", "navigation_mode": "UM", "requested_distance_km": 12.0, "start_source": "nwissite", "start_id": "USGS-02405200", "geometry_length_km": 4.5980323610648508 }, "geometry": { "type": "LineString", "coordinates": [ [ -86.305664606, 33.456550494 ], [ -86.309468105, 33.453879796 ], [ -86.320893005, 33.446284994 ], [ -86.324806102, 33.442567796 ], [ -86.326494403, 33.438175097 ], [ -86.327602401, 33.4343822 ], [ -86.329785407, 33.431077495 ], [ -86.334277205, 33.4267601 ], [ -86.336537004, 33.425979793 ] ] } },
{ "type": "Feature", "properties": { "site_no": "02405200", "nhdplus_comid": "26132805", "navigation_mode": "UM", "requested_distance_km": 12.0, "start_source": "nwissite", "start_id": "USGS-02405200", "geometry_length_km": 0.43233125696540448 }, "geometry": { "type": "LineString", "coordinates": [ [ -86.303305, 33.459890097 ], [ -86.3033057, 33.459875293 ], [ -86.305634104, 33.456571899 ], [ -86.305664606, 33.456550494 ] ] } },
{ "type": "Feature", "properties": { "site_no": "02405200", "nhdplus_comid": "26132785", "navigation_mode": "UM", "requested_distance_km": 12.0, "start_source": "nwissite", "start_id": "USGS-02405200", "geometry_length_km": 6.2892235339289462 }, "geometry": { "type": "LineString", "coordinates": [ [ -86.282000005, 33.509516694 ], [ -86.282139204, 33.5094264 ], [ -86.286500506, 33.504538797 ], [ -86.287452906, 33.501312293 ], [ -86.287492901, 33.500120096 ], [ -86.287656903, 33.495237097 ], [ -86.286152102, 33.490574196 ], [ -86.286635205, 33.488120593 ], [ -86.288190804, 33.486578196 ], [ -86.291905105, 33.485177293 ], [ -86.295786202, 33.482225895 ], [ -86.298751704, 33.477976397 ], [ -86.302990504, 33.468821093 ], [ -86.303012207, 33.466106296 ], [ -86.303305, 33.459890097 ] ] } },
{ "type": "Feature", "properties": { "site_no": "02405200", "nhdplus_comid": "26132777", "navigation_mode": "UM", "requested_distance_km": 12.0, "start_source": "nwissite", "start_id": "USGS-02405200", "geometry_length_km": 8.5642759699485218 }, "geometry": { "type": "LineString", "coordinates": [ [ -86.2308852, 33.505986497 ], [ -86.230502002, 33.5022645 ], [ -86.230616003, 33.500114799 ], [ -86.230687104, 33.498774998 ], [ -86.232558101, 33.4965887 ], [ -86.237516001, 33.494292296 ], [ -86.240765303, 33.493277997 ], [ -86.244471706, 33.492912799 ], [ -86.247408904, 33.492284298 ], [ -86.2520665, 33.488951094 ], [ -86.255769402, 33.488973394 ], [ -86.260844305, 33.490943 ], [ -86.263756104, 33.493287496 ], [ -86.265267402, 33.497045599 ], [ -86.265584603, 33.500113294 ], [ -86.265695304, 33.501185194 ], [ -86.263036005, 33.505435795 ], [ -86.262235902, 33.508792296 ], [ -86.262524806, 33.511121094 ], [ -86.264359206, 33.513200499 ], [ -86.267280601, 33.514510699 ], [ -86.273304902, 33.513899796 ], [ -86.277794503, 33.512245394 ], [ -86.282000005, 33.509516694 ] ] } }
]
}
