{
"type": "FeatureCollection",
"name": "USGS_02360275_UM_12km",
"crs": { "type": "name", "properties": { "name": "urn:ogc:def:crs:OGC:1.3:CRS84" } },
"features": [
{ "type": "Feature", "properties": { "site_no": "02360275", "nhdplus_comid": "2187049", "navigation_mode": "UM", "requested_distance_km": 12.0, "start_source": "nwissite", "start_id": "USGS-02360275", "geometry_length_km": 1.4738912140709299 }, "geometry": { "type": "LineString", "coordinates": [ [ -85.574673802, 31.4723932 ], [ -85.574567102, 31.472049497 ], [ -85.5745674, 31.471522495 ], [ -85.574701205, 31.471293397 ], [ -85.575342804, 31.471293695 ], [ -85.575476602, 31.471156396 ], [ -85.5754501, 31.470743895 ], [ -85.575236507, 31.470377199 ], [ -85.574728802, 31.4700104 ], [ -85.574488401, 31.469712399 ], [ -85.574408606, 31.469185397 ], [ -85.574194901, 31.468818694 ], [ -85.573874205, 31.468635194 ], [ -85.572885007, 31.468726397 ], [ -85.572671302, 31.468520097 ], [ -85.572671704, 31.468061894 ], [ -85.5728589, 31.467924498 ], [ -85.573768005, 31.467535399 ], [ -85.573982, 31.467260599 ], [ -85.574089102, 31.467031494 ], [ -85.574116103, 31.466573298 ], [ -85.574036203, 31.466206595 ], [ -85.573582105, 31.465656593 ], [ -85.572994106, 31.465541698 ], [ -85.572566301, 31.465747699 ], [ -85.572165206, 31.465793297 ], [ -85.571817905, 31.465495296 ], [ -85.571818203, 31.465151593 ], [ -85.572032705, 31.4641435 ], [ -85.572049415, 31.463582485 ] ] } },
{ "type": "Feature", "properties": { "site_no": "02360275", "nhdplus_comid": "2186979", "navigation_mode": "UM", "requested_distance_km": 12.0, "start_source": "nwissite", "start_id": "USGS-02360275", "geometry_length_km": 0.98264561329900679 }, "geometry": { "type": "LineString", "coordinates": [ [ -85.574000604, 31.4804352 ], [ -85.573920503, 31.480320498 ], [ -85.573948503, 31.478166796 ], [ -85.574029103, 31.477479495 ], [ -85.574805506, 31.4757386 ], [ -85.575394005, 31.475028597 ], [ -85.575795501, 31.4743414 ], [ -85.575822406, 31.473951794 ], [ -85.575555407, 31.473653793 ], [ -85.575074203, 31.473447397 ], [ -85.574860603, 31.4731953 ], [ -85.574753903, 31.472805694 ], [ -85.574673802, 31.4723932 ] ] } },
{ "type": "Feature", "properties": { "site_no": "02360275", "nhdplus_comid": "2186909", "navigation_mode": "UM", "requested_distance_km": 12.0, "start_source": "nwissite", "start_id": "USGS-02360275", "geometry_length_km": 0.15708420597058728 }, "geometry": { "type": "LineString", "coordinates": [ [ -85.574427605, 31.481741399 ], [ -85.574454404, 31.481603898 ], [ -85.574160501, 31.481282994 ], [ -85.574000403, 31.480755895 ], [ -85.574000604, 31.4804352 ] ] } },
{ "type": "Feature", "properties": { "site_no": "02360275", "nhdplus_comid": "2186899", "navigation_mode": "UM", "requested_distance_km": 12.0, "start_source": "nwissite", "start_id": "USGS-02360275", "geometry_length_km": 1.5379701409412534 }, "geometry": { "type": "LineString", "coordinates": [ [ -85.572201505, 31.492555 ], [ -85.572309002, 31.491730198 ], [ -85.5729516, 31.4902412 ], [ -85.573219404, 31.489553899 ], [ -85.573273301, 31.489004098 ], [ -85.572525203, 31.488132998 ], [ -85.572552502, 31.487308197 ], [ -85.572713301, 31.486712493 ], [ -85.572793603, 31.486552194 ], [ -85.573863201, 31.486392394 ], [ -85.575788602, 31.485728793 ], [ -85.576189905, 31.4853165 ], [ -85.576136604, 31.485041596 ], [ -85.575655401, 31.484880999 ], [ -85.575308003, 31.484559998 ], [ -85.5751746, 31.4841704 ], [ -85.575281702, 31.483872697 ], [ -85.575228803, 31.483002 ], [ -85.575122006, 31.482703999 ], [ -85.574561201, 31.481787197 ], [ -85.574427605, 31.481741399 ] ] } },
{ "type": "Feature", "properties": { "site_no": "02360275", "nhdplus_comid": "2186835", "navigation_mode": "UM", "requested_distance_km": 12.0, "start_source": "nwissite", "start_id": "USGS-02360275", "geometry_length_km": 0.91072270462802318 }, "geometry": { "type": "LineString", "coordinates": [ [ -85.569844, 31.499129593 ], [ -85.569844604, 31.498373494 ], [ -85.570165701, 31.498190299 ], [ -85.570860803, 31.498213597 ], [ -85.571048103, 31.498122096 ], [ -85.571315907, 31.4975494 ], [ -85.571556702, 31.497274496 ], [ -85.572412603, 31.4969083 ], [ -85.5725196, 31.496702194 ], [ -85.572519802, 31.496404395 ], [ -85.572145902, 31.495762698 ], [ -85.5719859, 31.495166898 ], [ -85.572067, 31.493700497 ], [ -85.571933702, 31.493219398 ], [ -85.5720945, 31.492600799 ], [ -85.572201505, 31.492555 ] ] } },
{ "type": "Feature", "properties": { "site_no": "02360275", "nhdplus_comid": "2186803", "navigation_mode": "UM", "requested_distance_km": 12.0, "start_source": "nwissite", "start_id": "USGS-02360275", "geometry_length_km": 0.12182242854141921 }, "geometry": { "type": "LineString", "coordinates": [ [ -85.570184104, 31.500185095 ], [ -85.569844, 31.499129593 ] ] } },
{ "type": "Feature", "properties": { "site_no": "02360275", "nhdplus_comid": "2186073", "navigation_mode": "UM", "requested_distance_km": 12.0, "start_source": "nwissite", "start_id": "USGS-02360275", "geometry_length_km": 0.30528971838871621 }, "geometry": { "type": "LineString", "coordinates": [ [ -85.569000103, 31.501396194 ], [ -85.5690547, 31.501029596 ], [ -85.5692425, 31.500960998 ], [ -85.569642, 31.501350693 ], [ -85.569829002, 31.5013965 ], [ -85.570096806, 31.501327895 ], [ -85.570366107, 31.501075998 ], [ -85.570448704, 31.500892699 ], [ -85.570184104, 31.500185095 ] ] } },
{ "type": "Feature", "properties": { "site_no": "02360275", "nhdplus_comid": "2186061", "navigation_mode": "UM", "requested_distance_km": 12.0, "start_source": "nwissite", "start_id": "USGS-02360275", "geometry_length_km": 1.049667243030272 }, "geometry": { "type": "LineString", "coordinates": [ [ -85.570866905, 31.510355696 ], [ -85.5708405, 31.509714097 ], [ -85.570760503, 31.509347498 ], [ -85.570466504, 31.508957796 ], [ -85.570440203, 31.508316293 ], [ -85.570306607, 31.5080413 ], [ -85.569959201, 31.507674597 ], [ -85.5697188, 31.506826699 ], [ -85.569692604, 31.505955994 ], [ -85.569372207, 31.505222693 ], [ -85.568730906, 31.504351698 ], [ -85.568677805, 31.503801793 ], [ -85.568918802, 31.503114499 ], [ -85.569000103, 31.501396194 ] ] } },
{ "type": "Feature", "properties": { "site_no": "02360275", "nhdplus_comid": "2186003", "navigation_mode": "UM", "requested_distance_km": 12.0, "start_source": "nwissite", "start_id": "USGS-02360275", "geometry_length_km": 1.0314288451127813 }, "geometry": { "type": "LineString", "coordinates": [ [ -85.575810201, 31.518377095 ], [ -85.575730205, 31.518056296 ], [ -85.575302407, 31.517666593 ], [ -85.574287102, 31.515833199 ], [ -85.573886901, 31.513885394 ], [ -85.572497107, 31.5124643 ], [ -85.5720696, 31.511708096 ], [ -85.571000405, 31.510653697 ], [ -85.570947006, 31.510470398 ], [ -85.570866905, 31.510355696 ] ] } },
{ "type": "Feature", "properties": { "site_no": "02360275", "nhdplus_comid": "2185953", "navigation_mode": "UM", "requested_distance_km": 12.0, "start_source": "nwissite", "start_id": "USGS-02360275", "geometry_length_km": 1.6910189793975721 }, "geometry": { "type": "LineString", "coordinates": [ [ -85.587627806, 31.528989494 ], [ -85.5873335, 31.528874896 ], [ -85.5866917, 31.5283935 ], [ -85.585541703, 31.528072394 ], [ -85.584632702, 31.527109794 ], [ -85.583910905, 31.526193097 ], [ -85.583777301, 31.5257577 ], [ -85.583643705, 31.525551498 ], [ -85.583617002, 31.525230698 ], [ -85.583162703, 31.524428599 ], [ -85.582841903, 31.524038993 ], [ -85.580702804, 31.522480294 ], [ -85.580462202, 31.522250995 ], [ -85.580462307, 31.522067696 ], [ -85.580301903, 31.521861397 ], [ -85.580221802, 31.521540597 ], [ -85.579820901, 31.521013498 ], [ -85.579018801, 31.520234197 ], [ -85.578163207, 31.519706897 ], [ -85.576291502, 31.518835597 ], [ -85.575810201, 31.518377095 ] ] } },
{ "type": "Feature", "properties": { "site_no": "02360275", "nhdplus_comid": "2185905", "navigation_mode": "UM", "requested_distance_km": 12.0, "start_source": "nwissite", "start_id": "USGS-02360275", "geometry_length_km": 0.18209520353266853 }, "geometry": { "type": "LineString", "coordinates": [ [ -85.589232907, 31.528233893 ], [ -85.588938706, 31.528371297 ], [ -85.588537306, 31.528783597 ], [ -85.587975405, 31.528989598 ], [ -85.587627806, 31.528989494 ] ] } },
{ "type": "Feature", "properties": { "site_no": "02360275", "nhdplus_comid": "2185919", "navigation_mode": "UM", "requested_distance_km": 12.0, "start_source": "nwissite", "start_id": "USGS-02360275", "geometry_length_km": 1.4315702044149619 }, "geometry": { "type": "LineString", "coordinates": [ [ -85.603168607, 31.529955596 ], [ -85.602687106, 31.529909596 ], [ -85.601831101, 31.529863693 ], [ -85.600119203, 31.530207098 ], [ -85.599771507, 31.530115299 ], [ -85.599343605, 31.529863194 ], [ -85.598220207, 31.529610999 ], [ -85.597712003, 31.529404595 ], [ -85.596829504, 31.528831594 ], [ -85.594663002, 31.528074898 ], [ -85.594128102, 31.527983196 ], [ -85.5932988, 31.528005898 ], [ -85.591346502, 31.527317993 ], [ -85.590704501, 31.5273408 ], [ -85.590089202, 31.527615599 ], [ -85.589286506, 31.5281194 ], [ -85.589232907, 31.528233893 ] ] } },
{ "type": "Feature", "properties": { "site_no": "02360275", "nhdplus_comid": "2185895", "navigation_mode": "UM", "requested_distance_km": 12.0, "start_source": "nwissite", "start_id": "USGS-02360275", "geometry_length_km": 1.5902510344708185 }, "geometry": { "type": "LineString", "coordinates": [ [ -85.613626301, 31.540221795 ], [ -85.613465905, 31.540061399 ], [ -85.613225207, 31.539625995 ], [ -85.612503007, 31.538686596 ], [ -85.6108713, 31.537128299 ], [ -85.610470206, 31.536326393 ], [ -85.610336602, 31.535455696 ], [ -85.610096, 31.534997493 ], [ -85.609989002, 31.5344017 ], [ -85.609908804, 31.534310095 ], [ -85.609962404, 31.534218296 ], [ -85.609507702, 31.5335996 ], [ -85.608330905, 31.532591298 ], [ -85.606940001, 31.531766199 ], [ -85.606030606, 31.531055793 ], [ -85.604960807, 31.530551597 ], [ -85.603168607, 31.529955596 ] ] } }
]
}
