{
"type": "FeatureCollection",
"name": "USGS_02427300_UM_12km",
"crs": { "type": "name", "properties": { "name": "urn:ogc:def:crs:OGC:1.3:CRS84" } },
"features": [
{ "type": "Feature", "properties": { "site_no": "02427300", "nhdplus_comid": "21458470", "navigation_mode": "UM", "requested_distance_km": 12.0, "start_source": "nwissite", "start_id": "USGS-02427300", "geometry_length_km": 1.4917680064038097 }, "geometry": { "type": "LineString", "coordinates": [ [ -87.108677104, 31.921364993 ], [ -87.108569704, 31.921571195 ], [ -87.107871003, 31.922075197 ], [ -87.107252806, 31.922762699 ], [ -87.106876604, 31.924091794 ], [ -87.106661603, 31.924549997 ], [ -87.105478607, 31.928239197 ], [ -87.104860105, 31.930278696 ], [ -87.104510404, 31.932088897 ], [ -87.104214601, 31.932661794 ], [ -87.104214601, 31.933165893 ], [ -87.1039996, 31.9333492 ], [ -87.103569604, 31.9334867 ], [ -87.103557023, 31.933615069 ] ] } },
{ "type": "Feature", "properties": { "site_no": "02427300", "nhdplus_comid": "21458488", "navigation_mode": "UM", "requested_distance_km": 12.0, "start_source": "nwissite", "start_id": "USGS-02427300", "geometry_length_km": 0.35165366054412778 }, "geometry": { "type": "LineString", "coordinates": [ [ -87.110101603, 31.918638095 ], [ -87.109725401, 31.919027694 ], [ -87.109805904, 31.919852696 ], [ -87.108811602, 31.921342097 ], [ -87.108677104, 31.921364993 ] ] } },
{ "type": "Feature", "properties": { "site_no": "02427300", "nhdplus_comid": "21458510", "navigation_mode": "UM", "requested_distance_km": 12.0, "start_source": "nwissite", "start_id": "USGS-02427300", "geometry_length_km": 0.32674676865627644 }, "geometry": { "type": "LineString", "coordinates": [ [ -87.1098333, 31.916025795 ], [ -87.109376505, 31.916667394 ], [ -87.109376401, 31.917240299 ], [ -87.109510601, 31.917583995 ], [ -87.110048003, 31.918019496 ], [ -87.110101603, 31.918638095 ] ] } },
{ "type": "Feature", "properties": { "site_no": "02427300", "nhdplus_comid": "21458564", "navigation_mode": "UM", "requested_distance_km": 12.0, "start_source": "nwissite", "start_id": "USGS-02427300", "geometry_length_km": 1.2342620442559984 }, "geometry": { "type": "LineString", "coordinates": [ [ -87.116228305, 31.907203794 ], [ -87.1161208, 31.907432996 ], [ -87.115583405, 31.907868296 ], [ -87.115422204, 31.9081662 ], [ -87.115368403, 31.9090598 ], [ -87.115099706, 31.909357794 ], [ -87.114159405, 31.9098389 ], [ -87.114025101, 31.910022296 ], [ -87.114025101, 31.910228498 ], [ -87.114320606, 31.910480596 ], [ -87.114240006, 31.910732597 ], [ -87.113219105, 31.911832497 ], [ -87.112762302, 31.911969997 ], [ -87.112251803, 31.912382394 ], [ -87.112063602, 31.913024098 ], [ -87.111526303, 31.913688496 ], [ -87.110612601, 31.915132098 ], [ -87.109860204, 31.915865399 ], [ -87.1098333, 31.916025795 ] ] } },
{ "type": "Feature", "properties": { "site_no": "02427300", "nhdplus_comid": "21458610", "navigation_mode": "UM", "requested_distance_km": 12.0, "start_source": "nwissite", "start_id": "USGS-02427300", "geometry_length_km": 0.51834709249919109 }, "geometry": { "type": "LineString", "coordinates": [ [ -87.114267707, 31.903009996 ], [ -87.114616804, 31.903147496 ], [ -87.114831701, 31.903376795 ], [ -87.115288205, 31.904545493 ], [ -87.115637407, 31.905484997 ], [ -87.115879007, 31.906584993 ], [ -87.1161208, 31.907134995 ], [ -87.116228305, 31.907203794 ] ] } },
{ "type": "Feature", "properties": { "site_no": "02427300", "nhdplus_comid": "21458710", "navigation_mode": "UM", "requested_distance_km": 12.0, "start_source": "nwissite", "start_id": "USGS-02427300", "geometry_length_km": 1.6000119924584491 }, "geometry": { "type": "LineString", "coordinates": [ [ -87.115692407, 31.890727296 ], [ -87.114053801, 31.892056294 ], [ -87.113650903, 31.892697893 ], [ -87.1130867, 31.893224895 ], [ -87.111743607, 31.896043397 ], [ -87.111528501, 31.896547593 ], [ -87.111233003, 31.8970287 ], [ -87.111340307, 31.897945397 ], [ -87.112575807, 31.898839198 ], [ -87.112898201, 31.899182893 ], [ -87.113005601, 31.8994122 ], [ -87.113085903, 31.901337095 ], [ -87.113112703, 31.901520394 ], [ -87.114240803, 31.9028496 ], [ -87.114267707, 31.903009996 ] ] } },
{ "type": "Feature", "properties": { "site_no": "02427300", "nhdplus_comid": "21458810", "navigation_mode": "UM", "requested_distance_km": 12.0, "start_source": "nwissite", "start_id": "USGS-02427300", "geometry_length_km": 2.3021327592400693 }, "geometry": { "type": "LineString", "coordinates": [ [ -87.127859101, 31.876886398 ], [ -87.128100701, 31.877367593 ], [ -87.128047101, 31.878582194 ], [ -87.125979304, 31.881515399 ], [ -87.125442103, 31.882019497 ], [ -87.124985605, 31.882271595 ], [ -87.124018706, 31.882821597 ], [ -87.123723306, 31.882821597 ], [ -87.123508401, 31.882729895 ], [ -87.123078801, 31.882775798 ], [ -87.122863807, 31.882936195 ], [ -87.122837104, 31.883234099 ], [ -87.122622102, 31.883417398 ], [ -87.122326702, 31.883509099 ], [ -87.121870205, 31.883463293 ], [ -87.121574804, 31.883302793 ], [ -87.121306203, 31.882890396 ], [ -87.121010706, 31.882707 ], [ -87.120285802, 31.882844396 ], [ -87.119130805, 31.883440293 ], [ -87.118647307, 31.883875698 ], [ -87.118486203, 31.884723499 ], [ -87.118244402, 31.884906799 ], [ -87.117465504, 31.885135897 ], [ -87.116579205, 31.886694096 ], [ -87.116471604, 31.887656599 ], [ -87.116014905, 31.889214799 ], [ -87.115692407, 31.890727296 ] ] } }
]
}
