{
"type": "FeatureCollection",
"name": "USGS_02466030_UM_12km",
"crs": { "type": "name", "properties": { "name": "urn:ogc:def:crs:OGC:1.3:CRS84" } },
"features": [
{ "type": "Feature", "properties": { "site_no": "02466030", "nhdplus_comid": "18215736", "navigation_mode": "UM", "requested_distance_km": 12.0, "start_source": "nwissite", "start_id": "USGS-02466030", "geometry_length_km": 0.64614364321987738 }, "geometry": { "type": "LineString", "coordinates": [ [ -87.835925505, 32.782293394 ], [ -87.836755805, 32.782290094 ], [ -87.836994, 32.782122694 ], [ -87.839033201, 32.780690394 ], [ -87.839585707, 32.779722497 ], [ -87.840887107, 32.7788084 ], [ -87.84101937, 32.778756118 ] ] } },
{ "type": "Feature", "properties": { "site_no": "02466030", "nhdplus_comid": "18210958", "navigation_mode": "UM", "requested_distance_km": 12.0, "start_source": "nwissite", "start_id": "USGS-02466030", "geometry_length_km": 1.1506437768884079 }, "geometry": { "type": "LineString", "coordinates": [ [ -87.830844902, 32.791311495 ], [ -87.832309306, 32.790283196 ], [ -87.834039502, 32.788140498 ], [ -87.834318303, 32.786900997 ], [ -87.835599102, 32.784725994 ], [ -87.835925505, 32.782293394 ] ] } },
{ "type": "Feature", "properties": { "site_no": "02466030", "nhdplus_comid": "18210954", "navigation_mode": "UM", "requested_distance_km": 12.0, "start_source": "nwissite", "start_id": "USGS-02466030", "geometry_length_km": 2.2151182076139606 }, "geometry": { "type": "LineString", "coordinates": [ [ -87.8191851, 32.8048307 ], [ -87.819366105, 32.803080499 ], [ -87.818544805, 32.802265599 ], [ -87.818472505, 32.801504694 ], [ -87.818782806, 32.798504196 ], [ -87.820441402, 32.795600794 ], [ -87.822407, 32.794104993 ], [ -87.823845707, 32.793326899 ], [ -87.825955801, 32.793352798 ], [ -87.828905307, 32.792557396 ], [ -87.830844902, 32.791311495 ] ] } },
{ "type": "Feature", "properties": { "site_no": "02466030", "nhdplus_comid": "18210942", "navigation_mode": "UM", "requested_distance_km": 12.0, "start_source": "nwissite", "start_id": "USGS-02466030", "geometry_length_km": 4.1395161014159143 }, "geometry": { "type": "LineString", "coordinates": [ [ -87.816831902, 32.832684599 ], [ -87.817076102, 32.832513198 ], [ -87.817582905, 32.8305346 ], [ -87.817934304, 32.830056094 ], [ -87.820513301, 32.828478597 ], [ -87.820629701, 32.827353396 ], [ -87.819671102, 32.826402798 ], [ -87.818348207, 32.826055698 ], [ -87.815323003, 32.823192999 ], [ -87.815354303, 32.821431994 ], [ -87.817442402, 32.817300096 ], [ -87.8179361, 32.815446496 ], [ -87.817564204, 32.814663999 ], [ -87.8160583, 32.813170098 ], [ -87.814937204, 32.812333599 ], [ -87.813777305, 32.811872199 ], [ -87.812545307, 32.810649894 ], [ -87.812687606, 32.809274696 ], [ -87.814015605, 32.8081109 ], [ -87.815676704, 32.808104597 ], [ -87.816165, 32.807761997 ], [ -87.817552201, 32.807483993 ], [ -87.818841301, 32.806695193 ], [ -87.8191927, 32.806216694 ], [ -87.8191851, 32.8048307 ] ] } },
{ "type": "Feature", "properties": { "site_no": "02466030", "nhdplus_comid": "18210926", "navigation_mode": "UM", "requested_distance_km": 12.0, "start_source": "nwissite", "start_id": "USGS-02466030", "geometry_length_km": 5.0345536208950827 }, "geometry": { "type": "LineString", "coordinates": [ [ -87.830557905, 32.854011498 ], [ -87.829971202, 32.853843398 ], [ -87.827409707, 32.853785299 ], [ -87.8240005, 32.853162296 ], [ -87.822051607, 32.853022099 ], [ -87.820955701, 32.851935796 ], [ -87.820309706, 32.8508818 ], [ -87.820366703, 32.848870799 ], [ -87.821519502, 32.847946197 ], [ -87.821982205, 32.847853594 ], [ -87.828851901, 32.848599494 ], [ -87.830089904, 32.848310597 ], [ -87.831392504, 32.847396694 ], [ -87.8324598, 32.8458362 ], [ -87.832726002, 32.844721794 ], [ -87.833064504, 32.844368294 ], [ -87.8332453, 32.842618093 ], [ -87.832749002, 32.841574997 ], [ -87.831666104, 32.840363696 ], [ -87.8308184, 32.839798994 ], [ -87.829045601, 32.8394197 ], [ -87.827337407, 32.838415295 ], [ -87.825153701, 32.837628499 ], [ -87.822169006, 32.837287895 ], [ -87.819274805, 32.836071998 ], [ -87.8176056, 32.834692396 ], [ -87.817370504, 32.834045798 ], [ -87.816822805, 32.833502598 ], [ -87.816831902, 32.832684599 ] ] } }
]
}
