{
"type": "FeatureCollection",
"name": "USGS_02453400_DM_12km",
"crs": { "type": "name", "properties": { "name": "urn:ogc:def:crs:OGC:1.3:CRS84" } },
"features": [
{ "type": "Feature", "properties": { "site_no": "02453400", "nhdplus_comid": "18591680", "navigation_mode": "DM", "requested_distance_km": 12.0, "start_source": "nwissite", "start_id": "USGS-02453400", "geometry_length_km": 0.91730865530139727 }, "geometry": { "type": "LineString", "coordinates": [ [ -87.230744955, 33.789991661 ], [ -87.230826005, 33.7897202 ], [ -87.231565401, 33.788688794 ], [ -87.231591903, 33.788024299 ], [ -87.231262006, 33.787497699 ], [ -87.231261104, 33.786764495 ], [ -87.231506906, 33.785779297 ], [ -87.232409403, 33.783602096 ], [ -87.232957602, 33.783257999 ], [ -87.232985005, 33.783097699 ], [ -87.232847303, 33.782776996 ], [ -87.232819505, 33.782410599 ] ] } },
{ "type": "Feature", "properties": { "site_no": "02453400", "nhdplus_comid": "18591686", "navigation_mode": "DM", "requested_distance_km": 12.0, "start_source": "nwissite", "start_id": "USGS-02453400", "geometry_length_km": 1.1735373845240704 }, "geometry": { "type": "LineString", "coordinates": [ [ -87.232819505, 33.782410599 ], [ -87.231447101, 33.781999193 ], [ -87.231337607, 33.782136798 ], [ -87.231310405, 33.782366 ], [ -87.231392905, 33.782457598 ], [ -87.231420904, 33.782915697 ], [ -87.231283806, 33.783030398 ], [ -87.230954804, 33.783099398 ], [ -87.230296001, 33.782893695 ], [ -87.229911603, 33.782619096 ], [ -87.229664303, 33.782275699 ], [ -87.229361504, 33.781474195 ], [ -87.229388103, 33.780763894 ], [ -87.229195803, 33.780534998 ], [ -87.228811301, 33.7802376 ], [ -87.226834901, 33.779391393 ], [ -87.224886104, 33.778453797 ], [ -87.224227704, 33.778454199 ] ] } },
{ "type": "Feature", "properties": { "site_no": "02453400", "nhdplus_comid": "18591692", "navigation_mode": "DM", "requested_distance_km": 12.0, "start_source": "nwissite", "start_id": "USGS-02453400", "geometry_length_km": 2.3394697909909574 }, "geometry": { "type": "LineString", "coordinates": [ [ -87.224227704, 33.778454199 ], [ -87.223899305, 33.779119 ], [ -87.224009305, 33.779325098 ], [ -87.224585705, 33.7795766 ], [ -87.225107402, 33.779942699 ], [ -87.225107707, 33.780217595 ], [ -87.224888407, 33.780423999 ], [ -87.224422306, 33.780630499 ], [ -87.223380104, 33.780906297 ], [ -87.222913504, 33.780746199 ], [ -87.222693704, 33.780448593 ], [ -87.222555704, 33.779761299 ], [ -87.222363405, 33.779463693 ], [ -87.221677206, 33.779120699 ], [ -87.217945904, 33.778894395 ], [ -87.217232503, 33.778757393 ], [ -87.217012905, 33.778597198 ], [ -87.2169303, 33.778368093 ], [ -87.217067003, 33.777932793 ], [ -87.2173682, 33.777543098 ], [ -87.217395402, 33.777314097 ], [ -87.217038505, 33.7770852 ], [ -87.215858504, 33.776673697 ], [ -87.214788407, 33.776491098 ], [ -87.2115786, 33.776333094 ], [ -87.209823005, 33.776403099 ], [ -87.206393905, 33.776244894 ] ] } },
{ "type": "Feature", "properties": { "site_no": "02453400", "nhdplus_comid": "18591706", "navigation_mode": "DM", "requested_distance_km": 12.0, "start_source": "nwissite", "start_id": "USGS-02453400", "geometry_length_km": 2.8476287323226499 }, "geometry": { "type": "LineString", "coordinates": [ [ -87.206393905, 33.776244894 ], [ -87.205844902, 33.776039094 ], [ -87.205213904, 33.775924899 ], [ -87.204775006, 33.775925197 ], [ -87.2035136, 33.776452996 ], [ -87.202937506, 33.776521996 ], [ -87.201675303, 33.776224896 ], [ -87.201071605, 33.775927395 ], [ -87.199644007, 33.774714097 ], [ -87.197668202, 33.773936294 ], [ -87.197256505, 33.7736388 ], [ -87.197146602, 33.773455597 ], [ -87.197172403, 33.771714494 ], [ -87.196980104, 33.771256298 ], [ -87.196568303, 33.770890094 ], [ -87.1956902, 33.7706156 ], [ -87.194400802, 33.770524696 ], [ -87.194263905, 33.770753898 ], [ -87.194347203, 33.771968 ], [ -87.194292501, 33.772151299 ], [ -87.194100603, 33.772288896 ], [ -87.193771504, 33.772357799 ], [ -87.193414405, 33.771831095 ], [ -87.193359204, 33.771395899 ], [ -87.192781903, 33.769884095 ], [ -87.192562304, 33.769609295 ], [ -87.192178205, 33.769586697 ], [ -87.191465303, 33.769884899 ], [ -87.190368302, 33.770183198 ], [ -87.1873511, 33.770619996 ], [ -87.1852118, 33.770804293 ], [ -87.184800401, 33.770987794 ], [ -87.1846909, 33.771354295 ] ] } },
{ "type": "Feature", "properties": { "site_no": "02453400", "nhdplus_comid": "18592068", "navigation_mode": "DM", "requested_distance_km": 12.0, "start_source": "nwissite", "start_id": "USGS-02453400", "geometry_length_km": 0.0031460816621058083 }, "geometry": { "type": "LineString", "coordinates": [ [ -87.1846909, 33.771354295 ], [ -87.184719905, 33.771353796 ], [ -87.184721403, 33.771357894 ] ] } },
{ "type": "Feature", "properties": { "site_no": "02453400", "nhdplus_comid": "18592066", "navigation_mode": "DM", "requested_distance_km": 12.0, "start_source": "nwissite", "start_id": "USGS-02453400", "geometry_length_km": 0.028527654176808425 }, "geometry": { "type": "LineString", "coordinates": [ [ -87.184721403, 33.771357894 ], [ -87.184811607, 33.771602198 ] ] } },
{ "type": "Feature", "properties": { "site_no": "02453400", "nhdplus_comid": "18592062", "navigation_mode": "DM", "requested_distance_km": 12.0, "start_source": "nwissite", "start_id": "USGS-02453400", "geometry_length_km": 0.033015506184261995 }, "geometry": { "type": "LineString", "coordinates": [ [ -87.184811607, 33.771602198 ], [ -87.184649706, 33.771656498 ], [ -87.184499204, 33.771743894 ] ] } },
{ "type": "Feature", "properties": { "site_no": "02453400", "nhdplus_comid": "18591704", "navigation_mode": "DM", "requested_distance_km": 12.0, "start_source": "nwissite", "start_id": "USGS-02453400", "geometry_length_km": 0.35054629496355116 }, "geometry": { "type": "LineString", "coordinates": [ [ -87.184499204, 33.771743894 ], [ -87.184334703, 33.771881498 ], [ -87.183923803, 33.772591896 ], [ -87.1826903, 33.7741732 ], [ -87.182635807, 33.774448097 ] ] } },
{ "type": "Feature", "properties": { "site_no": "02453400", "nhdplus_comid": "18592054", "navigation_mode": "DM", "requested_distance_km": 12.0, "start_source": "nwissite", "start_id": "USGS-02453400", "geometry_length_km": 0.09049554762515595 }, "geometry": { "type": "LineString", "coordinates": [ [ -87.182635807, 33.774448097 ], [ -87.182589106, 33.774501994 ], [ -87.182529002, 33.774888195 ], [ -87.182197601, 33.775114499 ] ] } },
{ "type": "Feature", "properties": { "site_no": "02453400", "nhdplus_comid": "18592052", "navigation_mode": "DM", "requested_distance_km": 12.0, "start_source": "nwissite", "start_id": "USGS-02453400", "geometry_length_km": 0.027166518050487001 }, "geometry": { "type": "LineString", "coordinates": [ [ -87.182197601, 33.775114499 ], [ -87.182021603, 33.7749907 ], [ -87.181977801, 33.774952397 ] ] } },
{ "type": "Feature", "properties": { "site_no": "02453400", "nhdplus_comid": "18591698", "navigation_mode": "DM", "requested_distance_km": 12.0, "start_source": "nwissite", "start_id": "USGS-02453400", "geometry_length_km": 0.68701531797520698 }, "geometry": { "type": "LineString", "coordinates": [ [ -87.181977801, 33.774952397 ], [ -87.180523805, 33.774930194 ], [ -87.180276804, 33.774838693 ], [ -87.179947503, 33.774563797 ], [ -87.179178506, 33.773327097 ], [ -87.178849205, 33.773166895 ], [ -87.1779439, 33.773144297 ], [ -87.177422807, 33.773259096 ], [ -87.176764801, 33.773557194 ], [ -87.176161505, 33.7741073 ], [ -87.176051803, 33.7741073 ] ] } },
{ "type": "Feature", "properties": { "site_no": "02453400", "nhdplus_comid": "18592060", "navigation_mode": "DM", "requested_distance_km": 12.0, "start_source": "nwissite", "start_id": "USGS-02453400", "geometry_length_km": 0.40014157340144924 }, "geometry": { "type": "LineString", "coordinates": [ [ -87.176051803, 33.7741073 ], [ -87.175905503, 33.774102993 ], [ -87.175432704, 33.774092793 ], [ -87.175337501, 33.773582093 ], [ -87.1742943, 33.771991894 ], [ -87.174301304, 33.771335796 ], [ -87.174294405, 33.771244295 ] ] } },
{ "type": "Feature", "properties": { "site_no": "02453400", "nhdplus_comid": "18591728", "navigation_mode": "DM", "requested_distance_km": 12.0, "start_source": "nwissite", "start_id": "USGS-02453400", "geometry_length_km": 2.4291396918431918 }, "geometry": { "type": "LineString", "coordinates": [ [ -87.174294405, 33.771244295 ], [ -87.174212001, 33.7710611 ], [ -87.174183905, 33.769823998 ], [ -87.174430005, 33.768540896 ], [ -87.1749501, 33.766914196 ], [ -87.174949706, 33.766158193 ], [ -87.174839802, 33.765814595 ], [ -87.174263403, 33.7652191 ], [ -87.174180806, 33.764737993 ], [ -87.174098507, 33.764669396 ], [ -87.174015604, 33.763844699 ], [ -87.1741798, 33.763225995 ], [ -87.1749475, 33.762607194 ], [ -87.176126607, 33.762102693 ], [ -87.176510401, 33.761736095 ], [ -87.176427901, 33.761438295 ], [ -87.176043704, 33.760957293 ], [ -87.1760161, 33.760682397 ], [ -87.1758513, 33.760361798 ], [ -87.175576806, 33.760086894 ], [ -87.175000601, 33.759812199 ], [ -87.174314901, 33.759697996 ], [ -87.173245206, 33.7596526 ], [ -87.171050906, 33.759309597 ], [ -87.170721807, 33.759447299 ], [ -87.170447707, 33.759768099 ], [ -87.170283504, 33.760409698 ], [ -87.169982105, 33.760890797 ], [ -87.169625603, 33.761211693 ], [ -87.169132002, 33.761326499 ], [ -87.168802805, 33.761257797 ], [ -87.168583207, 33.761005893 ], [ -87.168445207, 33.759104393 ] ] } }
]
}
