{
"type": "FeatureCollection",
"name": "USGS_02450000_DM_12km",
"crs": { "type": "name", "properties": { "name": "urn:ogc:def:crs:OGC:1.3:CRS84" } },
"features": [
{ "type": "Feature", "properties": { "site_no": "02450000", "nhdplus_comid": "18589030", "navigation_mode": "DM", "requested_distance_km": 12.0, "start_source": "nwissite", "start_id": "USGS-02450000", "geometry_length_km": 0.69286957338196664 }, "geometry": { "type": "LineString", "coordinates": [ [ -86.736650653, 34.012045868 ], [ -86.740802802, 34.010156199 ], [ -86.742095001, 34.009673893 ], [ -86.7429194, 34.0091004 ], [ -86.743194304, 34.008985594 ] ] } },
{ "type": "Feature", "properties": { "site_no": "02450000", "nhdplus_comid": "18589042", "navigation_mode": "DM", "requested_distance_km": 12.0, "start_source": "nwissite", "start_id": "USGS-02450000", "geometry_length_km": 1.1454305086211205 }, "geometry": { "type": "LineString", "coordinates": [ [ -86.743194304, 34.008985594 ], [ -86.7432217, 34.008825198 ], [ -86.743551202, 34.008458398 ], [ -86.7441549, 34.007472694 ], [ -86.744181603, 34.007014498 ], [ -86.744016007, 34.006693996 ], [ -86.743465006, 34.006030299 ], [ -86.742390603, 34.005137794 ], [ -86.741288505, 34.004039198 ], [ -86.740378603, 34.002757199 ], [ -86.740157701, 34.002276294 ], [ -86.740128502, 34.001062095 ], [ -86.740292504, 34.000351898 ], [ -86.740512304, 34.000103898 ] ] } },
{ "type": "Feature", "properties": { "site_no": "02450000", "nhdplus_comid": "18590354", "navigation_mode": "DM", "requested_distance_km": 12.0, "start_source": "nwissite", "start_id": "USGS-02450000", "geometry_length_km": 0.87174781395182999 }, "geometry": { "type": "LineString", "coordinates": [ [ -86.740512304, 34.000103898 ], [ -86.741473407, 33.999000899 ], [ -86.742188007, 33.998679496 ], [ -86.742875203, 33.998495594 ], [ -86.745926403, 33.997965895 ], [ -86.749116205, 33.997779496 ] ] } },
{ "type": "Feature", "properties": { "site_no": "02450000", "nhdplus_comid": "18590788", "navigation_mode": "DM", "requested_distance_km": 12.0, "start_source": "nwissite", "start_id": "USGS-02450000", "geometry_length_km": 2.6260635359846685 }, "geometry": { "type": "LineString", "coordinates": [ [ -86.749116205, 33.997779496 ], [ -86.749226302, 33.997848094 ], [ -86.749996401, 33.997847296 ], [ -86.751231305, 33.997824095 ], [ -86.752359405, 33.997527495 ], [ -86.753212601, 33.997138895 ], [ -86.7542307, 33.996819198 ], [ -86.759567402, 33.9960455 ], [ -86.760255404, 33.995839894 ], [ -86.760833301, 33.995519795 ], [ -86.761191502, 33.995061994 ], [ -86.761192307, 33.994512193 ], [ -86.761027604, 33.994237095 ], [ -86.760587901, 33.993938893 ], [ -86.7592685, 33.993341997 ], [ -86.758197404, 33.992287196 ], [ -86.757675804, 33.9915765 ], [ -86.757456601, 33.991026498 ], [ -86.757429503, 33.990728699 ], [ -86.757430203, 33.990155995 ], [ -86.757733501, 33.989583597 ], [ -86.758229405, 33.9889884 ], [ -86.762552306, 33.984983496 ] ] } },
{ "type": "Feature", "properties": { "site_no": "02450000", "nhdplus_comid": "18590410", "navigation_mode": "DM", "requested_distance_km": 12.0, "start_source": "nwissite", "start_id": "USGS-02450000", "geometry_length_km": 1.9757195467126289 }, "geometry": { "type": "LineString", "coordinates": [ [ -86.762552306, 33.984983496 ], [ -86.762855604, 33.984296493 ], [ -86.762911707, 33.983540595 ], [ -86.762802303, 33.9830366 ], [ -86.762720004, 33.982967794 ], [ -86.762418807, 33.981890693 ], [ -86.7625634, 33.976484396 ], [ -86.762674004, 33.975957699 ], [ -86.763032503, 33.975201994 ], [ -86.763225101, 33.975064799 ], [ -86.763500601, 33.974675596 ], [ -86.7643262, 33.974103697 ], [ -86.764958903, 33.973875098 ], [ -86.765894003, 33.973761395 ], [ -86.768313505, 33.973855197 ], [ -86.770458803, 33.973444797 ], [ -86.771723606, 33.973400094 ] ] } },
{ "type": "Feature", "properties": { "site_no": "02450000", "nhdplus_comid": "18590452", "navigation_mode": "DM", "requested_distance_km": 12.0, "start_source": "nwissite", "start_id": "USGS-02450000", "geometry_length_km": 3.8731642961580039 }, "geometry": { "type": "LineString", "coordinates": [ [ -86.771723606, 33.973400094 ], [ -86.773895703, 33.973493397 ], [ -86.774308302, 33.973379299 ], [ -86.774776004, 33.973127693 ], [ -86.775684103, 33.9724411 ], [ -86.776345007, 33.971616998 ], [ -86.776593104, 33.971136093 ], [ -86.776621103, 33.970632195 ], [ -86.776264101, 33.970265396 ], [ -86.775632001, 33.970012799 ], [ -86.774395101, 33.969736896 ], [ -86.771755904, 33.9693681 ], [ -86.7712337, 33.969161496 ], [ -86.770821907, 33.968657099 ], [ -86.770602703, 33.968107097 ], [ -86.770548604, 33.967328198 ], [ -86.771264702, 33.966297999 ], [ -86.771952704, 33.965817496 ], [ -86.772585303, 33.965634696 ], [ -86.773300104, 33.965612397 ], [ -86.777972102, 33.9672428 ], [ -86.7822043, 33.969101697 ], [ -86.782809101, 33.969125099 ], [ -86.783111706, 33.969033696 ], [ -86.783386901, 33.968781896 ], [ -86.7840757, 33.9674308 ], [ -86.784874007, 33.966469198 ], [ -86.785947107, 33.965645298 ], [ -86.787102401, 33.965142295 ], [ -86.789219901, 33.964571096 ], [ -86.790347606, 33.964113697 ], [ -86.791282907, 33.963633299 ], [ -86.792575903, 33.962809399 ] ] } },
{ "type": "Feature", "properties": { "site_no": "02450000", "nhdplus_comid": "18590478", "navigation_mode": "DM", "requested_distance_km": 12.0, "start_source": "nwissite", "start_id": "USGS-02450000", "geometry_length_km": 2.8600193817986339 }, "geometry": { "type": "LineString", "coordinates": [ [ -86.792575903, 33.962809399 ], [ -86.792961404, 33.962053694 ], [ -86.792962, 33.961366497 ], [ -86.792742401, 33.960976899 ], [ -86.792138107, 33.960518196 ], [ -86.7914785, 33.960242897 ], [ -86.788812503, 33.959553793 ], [ -86.7884553, 33.959370196 ], [ -86.788015805, 33.959003396 ], [ -86.787741505, 33.958499096 ], [ -86.7876596, 33.957903497 ], [ -86.7880181, 33.956849895 ], [ -86.788844205, 33.955338597 ], [ -86.789642505, 33.954239599 ], [ -86.790578105, 33.953323893 ], [ -86.791513301, 33.952705994 ], [ -86.792338401, 33.952317193 ], [ -86.793190703, 33.952134393 ], [ -86.794400401, 33.952089496 ], [ -86.795582205, 33.952227697 ], [ -86.797121204, 33.952640995 ], [ -86.798934802, 33.953398198 ], [ -86.799951501, 33.954017393 ], [ -86.801352702, 33.954751298 ], [ -86.802424803, 33.955003999 ], [ -86.803387001, 33.955004595 ], [ -86.804816701, 33.954524294 ] ] } }
]
}
