{
"type": "FeatureCollection",
"name": "USGS_02426000_UM_12km",
"crs": { "type": "name", "properties": { "name": "urn:ogc:def:crs:OGC:1.3:CRS84" } },
"features": [
{ "type": "Feature", "properties": { "site_no": "02426000", "nhdplus_comid": "21454294", "navigation_mode": "UM", "requested_distance_km": 12.0, "start_source": "nwissite", "start_id": "USGS-02426000", "geometry_length_km": 0.36475236815597534 }, "geometry": { "type": "LineString", "coordinates": [ [ -87.333981402, 32.441552795 ], [ -87.333981507, 32.441323593 ], [ -87.3344412, 32.440613396 ], [ -87.3349277, 32.4400637 ], [ -87.335117102, 32.439697094 ], [ -87.335168765, 32.438548126 ] ] } },
{ "type": "Feature", "properties": { "site_no": "02426000", "nhdplus_comid": "21454240", "navigation_mode": "UM", "requested_distance_km": 12.0, "start_source": "nwissite", "start_id": "USGS-02426000", "geometry_length_km": 0.75903899910067474 }, "geometry": { "type": "LineString", "coordinates": [ [ -87.329791605, 32.4451259 ], [ -87.330115907, 32.445011497 ], [ -87.330359206, 32.4447366 ], [ -87.330575906, 32.443430595 ], [ -87.331035703, 32.442491293 ], [ -87.331387103, 32.442170598 ], [ -87.331657305, 32.442056194 ], [ -87.332441002, 32.442033499 ], [ -87.3325762, 32.441918999 ], [ -87.332630306, 32.441689894 ], [ -87.332549207, 32.441643998 ], [ -87.332495503, 32.441093996 ], [ -87.332873702, 32.441048399 ], [ -87.333279006, 32.441231795 ], [ -87.333684206, 32.441598497 ], [ -87.333981402, 32.441552795 ] ] } },
{ "type": "Feature", "properties": { "site_no": "02426000", "nhdplus_comid": "21454228", "navigation_mode": "UM", "requested_distance_km": 12.0, "start_source": "nwissite", "start_id": "USGS-02426000", "geometry_length_km": 0.66515419352747585 }, "geometry": { "type": "LineString", "coordinates": [ [ -87.331546307, 32.448884398 ], [ -87.331735402, 32.448769897 ], [ -87.332195103, 32.448128499 ], [ -87.332519501, 32.448013999 ], [ -87.332519606, 32.447807796 ], [ -87.331871301, 32.4471431 ], [ -87.331303902, 32.446936697 ], [ -87.331168905, 32.446799196 ], [ -87.331142105, 32.446317993 ], [ -87.3307098, 32.446180299 ], [ -87.330034204, 32.446386196 ], [ -87.329520904, 32.445882 ], [ -87.329467006, 32.445629895 ], [ -87.329791605, 32.4451259 ] ] } },
{ "type": "Feature", "properties": { "site_no": "02426000", "nhdplus_comid": "21454216", "navigation_mode": "UM", "requested_distance_km": 12.0, "start_source": "nwissite", "start_id": "USGS-02426000", "geometry_length_km": 0.26838189603177215 }, "geometry": { "type": "LineString", "coordinates": [ [ -87.329357207, 32.449158594 ], [ -87.329600602, 32.448723398 ], [ -87.329979204, 32.4484028 ], [ -87.330303505, 32.448379897 ], [ -87.331005804, 32.448838398 ], [ -87.331546307, 32.448884398 ] ] } },
{ "type": "Feature", "properties": { "site_no": "02426000", "nhdplus_comid": "21454210", "navigation_mode": "UM", "requested_distance_km": 12.0, "start_source": "nwissite", "start_id": "USGS-02426000", "geometry_length_km": 4.230612432592201 }, "geometry": { "type": "LineString", "coordinates": [ [ -87.327481605, 32.471704997 ], [ -87.327454604, 32.471429996 ], [ -87.3278061, 32.471246794 ], [ -87.328157507, 32.4713386 ], [ -87.328454703, 32.471613698 ], [ -87.328806005, 32.471797094 ], [ -87.328941204, 32.471728399 ], [ -87.329049505, 32.471315995 ], [ -87.328941703, 32.4706515 ], [ -87.3286715, 32.470376395 ], [ -87.328104004, 32.470307499 ], [ -87.327752501, 32.470467798 ], [ -87.327374101, 32.470467597 ], [ -87.3267527, 32.469894595 ], [ -87.3265635, 32.469825797 ], [ -87.326049805, 32.470123395 ], [ -87.325644307, 32.470192097 ], [ -87.325293303, 32.469412796 ], [ -87.325294003, 32.468083695 ], [ -87.325591601, 32.467671394 ], [ -87.326240502, 32.4672134 ], [ -87.326889306, 32.466892898 ], [ -87.326997504, 32.466755398 ], [ -87.327024706, 32.466365896 ], [ -87.326700501, 32.4661595 ], [ -87.326133206, 32.465609394 ], [ -87.3257818, 32.465540498 ], [ -87.325349301, 32.465746596 ], [ -87.324889801, 32.465792298 ], [ -87.324727707, 32.465631798 ], [ -87.324646905, 32.464967296 ], [ -87.324890904, 32.463615499 ], [ -87.324891202, 32.462996796 ], [ -87.324486002, 32.462584198 ], [ -87.324594207, 32.462286294 ], [ -87.324594505, 32.461919695 ], [ -87.324000105, 32.461507097 ], [ -87.324135602, 32.460911393 ], [ -87.324541301, 32.460338697 ], [ -87.325136006, 32.459857695 ], [ -87.325541601, 32.4596975 ], [ -87.326784804, 32.459606297 ], [ -87.327244304, 32.459491894 ], [ -87.3278661, 32.4591484 ], [ -87.328244701, 32.458736099 ], [ -87.328244805, 32.4584153 ], [ -87.327326104, 32.458048396 ], [ -87.327326305, 32.457888 ], [ -87.327515505, 32.4575902 ], [ -87.328164302, 32.457223795 ], [ -87.3282727, 32.4567426 ], [ -87.327786304, 32.4566966 ], [ -87.327029504, 32.456879698 ], [ -87.327110901, 32.456123598 ], [ -87.326759607, 32.455963098 ], [ -87.326246105, 32.456031598 ], [ -87.326219201, 32.455871195 ], [ -87.326489605, 32.455550499 ], [ -87.327057302, 32.455252796 ], [ -87.327597804, 32.455230094 ], [ -87.327895001, 32.455459394 ], [ -87.328246303, 32.455482394 ], [ -87.328354403, 32.455390796 ], [ -87.328273602, 32.455046996 ], [ -87.327787407, 32.4542678 ], [ -87.327841602, 32.453901194 ], [ -87.328139104, 32.453443095 ], [ -87.3282203, 32.453122295 ], [ -87.327544801, 32.4528929 ], [ -87.327463806, 32.452732496 ], [ -87.3277613, 32.452343099 ], [ -87.327815503, 32.452022299 ], [ -87.327707507, 32.451884799 ], [ -87.327788606, 32.451724395 ], [ -87.3286267, 32.450945698 ], [ -87.328653902, 32.450647794 ], [ -87.328491807, 32.450510293 ], [ -87.328491904, 32.450326994 ], [ -87.329438202, 32.449594095 ], [ -87.329492301, 32.449410699 ], [ -87.329357207, 32.449158594 ] ] } },
{ "type": "Feature", "properties": { "site_no": "02426000", "nhdplus_comid": "21454134", "navigation_mode": "UM", "requested_distance_km": 12.0, "start_source": "nwissite", "start_id": "USGS-02426000", "geometry_length_km": 0.81276243776443768 }, "geometry": { "type": "LineString", "coordinates": [ [ -87.328775704, 32.4788315 ], [ -87.328397505, 32.478258595 ], [ -87.327965505, 32.477204397 ], [ -87.327724107, 32.473079897 ], [ -87.327481605, 32.471704997 ] ] } },
{ "type": "Feature", "properties": { "site_no": "02426000", "nhdplus_comid": "21454118", "navigation_mode": "UM", "requested_distance_km": 12.0, "start_source": "nwissite", "start_id": "USGS-02426000", "geometry_length_km": 0.1239747877456108 }, "geometry": { "type": "LineString", "coordinates": [ [ -87.3280183, 32.479724899 ], [ -87.328072406, 32.4795416 ], [ -87.328775704, 32.4788315 ] ] } },
{ "type": "Feature", "properties": { "site_no": "02426000", "nhdplus_comid": "21454112", "navigation_mode": "UM", "requested_distance_km": 12.0, "start_source": "nwissite", "start_id": "USGS-02426000", "geometry_length_km": 1.080346159370227 }, "geometry": { "type": "LineString", "coordinates": [ [ -87.327608302, 32.4890735 ], [ -87.327770606, 32.488729894 ], [ -87.328176402, 32.4882259 ], [ -87.328501202, 32.487515695 ], [ -87.3289074, 32.486072198 ], [ -87.3289349, 32.485293195 ], [ -87.328530304, 32.483139195 ], [ -87.328477204, 32.481099799 ], [ -87.328369401, 32.480435297 ], [ -87.328126401, 32.479770795 ], [ -87.3280183, 32.479724899 ] ] } },
{ "type": "Feature", "properties": { "site_no": "02426000", "nhdplus_comid": "21454086", "navigation_mode": "UM", "requested_distance_km": 12.0, "start_source": "nwissite", "start_id": "USGS-02426000", "geometry_length_km": 1.3055073266891708 }, "geometry": { "type": "LineString", "coordinates": [ [ -87.317681603, 32.497203894 ], [ -87.318249807, 32.496333294 ], [ -87.319196604, 32.495600499 ], [ -87.321170904, 32.494318195 ], [ -87.326174803, 32.490378998 ], [ -87.327364907, 32.489187896 ], [ -87.327608302, 32.4890735 ] ] } },
{ "type": "Feature", "properties": { "site_no": "02426000", "nhdplus_comid": "21454068", "navigation_mode": "UM", "requested_distance_km": 12.0, "start_source": "nwissite", "start_id": "USGS-02426000", "geometry_length_km": 0.64592848083408749 }, "geometry": { "type": "LineString", "coordinates": [ [ -87.312648803, 32.500151299 ], [ -87.312649101, 32.499721996 ], [ -87.312730305, 32.499630399 ], [ -87.313676901, 32.499653794 ], [ -87.314326204, 32.499356098 ], [ -87.315219603, 32.498577595 ], [ -87.316220403, 32.498555094 ], [ -87.316436902, 32.498394795 ], [ -87.3171947, 32.497318193 ], [ -87.317681603, 32.497203894 ] ] } },
{ "type": "Feature", "properties": { "site_no": "02426000", "nhdplus_comid": "21450798", "navigation_mode": "UM", "requested_distance_km": 12.0, "start_source": "nwissite", "start_id": "USGS-02426000", "geometry_length_km": 2.6401538250944507 }, "geometry": { "type": "LineString", "coordinates": [ [ -87.306143902, 32.5184232 ], [ -87.305603504, 32.517781399 ], [ -87.305550404, 32.516727298 ], [ -87.305334501, 32.5161772 ], [ -87.305255003, 32.514275394 ], [ -87.305498704, 32.5137714 ], [ -87.305526406, 32.513175696 ], [ -87.305391505, 32.512877695 ], [ -87.304958902, 32.512694195 ], [ -87.304796904, 32.512533598 ], [ -87.304446101, 32.511662796 ], [ -87.303473406, 32.510837294 ], [ -87.303311601, 32.5104248 ], [ -87.303284906, 32.510035299 ], [ -87.303069204, 32.5094852 ], [ -87.302907102, 32.509347595 ], [ -87.3028531, 32.509164296 ], [ -87.303125203, 32.507468693 ], [ -87.3038847, 32.505063295 ], [ -87.304317601, 32.504651099 ], [ -87.305129103, 32.504239097 ], [ -87.306076102, 32.503437698 ], [ -87.306995802, 32.503117293 ], [ -87.307536803, 32.502728097 ], [ -87.308051102, 32.502040997 ], [ -87.308456801, 32.501880899 ], [ -87.310322605, 32.501721397 ], [ -87.310971603, 32.501469694 ], [ -87.3121887, 32.500714198 ], [ -87.312648803, 32.500151299 ] ] } }
]
}
