{
"type": "FeatureCollection",
"name": "USGS_02361000_DM_12km",
"crs": { "type": "name", "properties": { "name": "urn:ogc:def:crs:OGC:1.3:CRS84" } },
"features": [
{ "type": "Feature", "properties": { "site_no": "02361000", "nhdplus_comid": "2188031", "navigation_mode": "DM", "requested_distance_km": 12.0, "start_source": "nwissite", "start_id": "USGS-02361000", "geometry_length_km": 0.59444800406876797 }, "geometry": { "type": "LineString", "coordinates": [ [ -85.610930178, 31.343271579 ], [ -85.611216106, 31.343038596 ], [ -85.611830205, 31.342786595 ], [ -85.612898007, 31.3427867 ], [ -85.614312805, 31.343084797 ], [ -85.616582006, 31.343703598 ], [ -85.616795503, 31.343863994 ] ] } },
{ "type": "Feature", "properties": { "site_no": "02361000", "nhdplus_comid": "2188061", "navigation_mode": "DM", "requested_distance_km": 12.0, "start_source": "nwissite", "start_id": "USGS-02361000", "geometry_length_km": 0.82397099924447814 }, "geometry": { "type": "LineString", "coordinates": [ [ -85.616795503, 31.343863994 ], [ -85.618664205, 31.344116196 ], [ -85.619572006, 31.343910098 ], [ -85.620773301, 31.343520597 ], [ -85.621681005, 31.342695795 ], [ -85.623629905, 31.340771198 ], [ -85.623870105, 31.340679497 ] ] } },
{ "type": "Feature", "properties": { "site_no": "02361000", "nhdplus_comid": "2188093", "navigation_mode": "DM", "requested_distance_km": 12.0, "start_source": "nwissite", "start_id": "USGS-02361000", "geometry_length_km": 0.92904672743950178 }, "geometry": { "type": "LineString", "coordinates": [ [ -85.623870105, 31.340679497 ], [ -85.6238968, 31.340542093 ], [ -85.624938004, 31.339511096 ], [ -85.626112603, 31.338319495 ], [ -85.627313904, 31.336807296 ], [ -85.627901204, 31.335730396 ], [ -85.628354907, 31.335249193 ], [ -85.629396006, 31.334630497 ], [ -85.630010001, 31.334378496 ] ] } },
{ "type": "Feature", "properties": { "site_no": "02361000", "nhdplus_comid": "2188095", "navigation_mode": "DM", "requested_distance_km": 12.0, "start_source": "nwissite", "start_id": "USGS-02361000", "geometry_length_km": 0.24825530382229377 }, "geometry": { "type": "LineString", "coordinates": [ [ -85.630010001, 31.334378496 ], [ -85.6326259, 31.334469996 ] ] } },
{ "type": "Feature", "properties": { "site_no": "02361000", "nhdplus_comid": "2188133", "navigation_mode": "DM", "requested_distance_km": 12.0, "start_source": "nwissite", "start_id": "USGS-02361000", "geometry_length_km": 0.78139111477099421 }, "geometry": { "type": "LineString", "coordinates": [ [ -85.6326259, 31.334469996 ], [ -85.633186504, 31.334240898 ], [ -85.634174101, 31.3329807 ], [ -85.634814702, 31.332293198 ], [ -85.636442803, 31.3300476 ], [ -85.636736304, 31.329245597 ], [ -85.636709504, 31.328626893 ] ] } },
{ "type": "Feature", "properties": { "site_no": "02361000", "nhdplus_comid": "2188197", "navigation_mode": "DM", "requested_distance_km": 12.0, "start_source": "nwissite", "start_id": "USGS-02361000", "geometry_length_km": 2.0517982924415046 }, "geometry": { "type": "LineString", "coordinates": [ [ -85.636709504, 31.328626893 ], [ -85.636816204, 31.328076996 ], [ -85.636469103, 31.327229299 ], [ -85.636442304, 31.326518998 ], [ -85.636789203, 31.325442098 ], [ -85.637509607, 31.3233568 ], [ -85.638470203, 31.321477897 ], [ -85.639004007, 31.320744596 ], [ -85.639938004, 31.319942497 ], [ -85.641032107, 31.3191863 ], [ -85.642606802, 31.318406999 ], [ -85.643807605, 31.317833997 ], [ -85.644875102, 31.3175589 ], [ -85.646022804, 31.317329593 ], [ -85.647010304, 31.317535698 ], [ -85.648505107, 31.318039499 ], [ -85.649439201, 31.318245493 ] ] } },
{ "type": "Feature", "properties": { "site_no": "02361000", "nhdplus_comid": "2188209", "navigation_mode": "DM", "requested_distance_km": 12.0, "start_source": "nwissite", "start_id": "USGS-02361000", "geometry_length_km": 0.41495656179383966 }, "geometry": { "type": "LineString", "coordinates": [ [ -85.649439201, 31.318245493 ], [ -85.649705902, 31.317970596 ], [ -85.649625801, 31.317306094 ], [ -85.649438903, 31.317031093 ], [ -85.648130901, 31.316137798 ], [ -85.647623703, 31.315679595 ], [ -85.647543505, 31.315358795 ] ] } },
{ "type": "Feature", "properties": { "site_no": "02361000", "nhdplus_comid": "2188269", "navigation_mode": "DM", "requested_distance_km": 12.0, "start_source": "nwissite", "start_id": "USGS-02361000", "geometry_length_km": 2.8671150875311522 }, "geometry": { "type": "LineString", "coordinates": [ [ -85.647543505, 31.315358795 ], [ -85.6476769, 31.314923495 ], [ -85.648290604, 31.314373493 ], [ -85.649278104, 31.314006694 ], [ -85.649838202, 31.313319199 ], [ -85.650104903, 31.312402599 ], [ -85.6504784, 31.311921299 ], [ -85.651652403, 31.311119094 ], [ -85.652426101, 31.310133599 ], [ -85.652772807, 31.3093317 ], [ -85.653199606, 31.308873199 ], [ -85.653653301, 31.3086899 ], [ -85.655307703, 31.308185399 ], [ -85.656988904, 31.307978794 ], [ -85.657736003, 31.307772495 ], [ -85.659230202, 31.307061695 ], [ -85.661311202, 31.305457197 ], [ -85.661844902, 31.305136293 ], [ -85.662485205, 31.305044398 ], [ -85.662939005, 31.305479698 ], [ -85.663046107, 31.306121193 ], [ -85.6632597, 31.306464799 ], [ -85.663473301, 31.306648098 ], [ -85.664834306, 31.306876794 ], [ -85.665314704, 31.306945398 ], [ -85.665608205, 31.306853697 ], [ -85.666008301, 31.3065098 ], [ -85.666275002, 31.305891097 ], [ -85.6666217, 31.3054327 ], [ -85.667022005, 31.3054097 ], [ -85.668223001, 31.305982195 ], [ -85.668863602, 31.306165293 ], [ -85.669851102, 31.3062566 ] ] } },
{ "type": "Feature", "properties": { "site_no": "02361000", "nhdplus_comid": "2188271", "navigation_mode": "DM", "requested_distance_km": 12.0, "start_source": "nwissite", "start_id": "USGS-02361000", "geometry_length_km": 0.26434692447706876 }, "geometry": { "type": "LineString", "coordinates": [ [ -85.669851102, 31.3062566 ], [ -85.670384802, 31.306187697 ], [ -85.671692103, 31.305591494 ], [ -85.671932004, 31.304972798 ] ] } },
{ "type": "Feature", "properties": { "site_no": "02361000", "nhdplus_comid": "2188447", "navigation_mode": "DM", "requested_distance_km": 12.0, "start_source": "nwissite", "start_id": "USGS-02361000", "geometry_length_km": 3.8368495044225575 }, "geometry": { "type": "LineString", "coordinates": [ [ -85.671932004, 31.304972798 ], [ -85.671904206, 31.302795894 ], [ -85.671850704, 31.302520998 ], [ -85.671370201, 31.302131593 ], [ -85.670036003, 31.302384198 ], [ -85.6689687, 31.302315794 ], [ -85.668301404, 31.302086897 ], [ -85.667554006, 31.301468395 ], [ -85.667207003, 31.301308095 ], [ -85.6661129, 31.301193893 ], [ -85.665685706, 31.300987899 ], [ -85.665685706, 31.300575398 ], [ -85.665712103, 31.300277494 ], [ -85.666138902, 31.299842 ], [ -85.668112904, 31.298466496 ], [ -85.669206701, 31.297687098 ], [ -85.669313304, 31.297412097 ], [ -85.669339806, 31.296999693 ], [ -85.668912604, 31.296610296 ], [ -85.668672301, 31.296289593 ], [ -85.668645501, 31.295899995 ], [ -85.668725401, 31.295647994 ], [ -85.6693388, 31.295029096 ], [ -85.670459002, 31.294135094 ], [ -85.672032803, 31.293172196 ], [ -85.673019603, 31.292209394 ], [ -85.674273305, 31.291292399 ], [ -85.675179906, 31.290352598 ], [ -85.675926603, 31.289504498 ], [ -85.677232802, 31.287625097 ], [ -85.678512402, 31.285424799 ], [ -85.679310404, 31.281277098 ], [ -85.679229401, 31.279604398 ] ] } }
]
}
