{
"type": "FeatureCollection",
"name": "USGS_02464500_DM_12km",
"crs": { "type": "name", "properties": { "name": "urn:ogc:def:crs:OGC:1.3:CRS84" } },
"features": [
{ "type": "Feature", "properties": { "site_no": "02464500", "nhdplus_comid": "18229579", "navigation_mode": "DM", "requested_distance_km": 12.0, "start_source": "nwissite", "start_id": "USGS-02464500", "geometry_length_km": 0.15470017507786615 }, "geometry": { "type": "LineString", "coordinates": [ [ -87.553586577, 33.354335546 ], [ -87.553523101, 33.354336694 ], [ -87.552410506, 33.353373393 ] ] } },
{ "type": "Feature", "properties": { "site_no": "02464500", "nhdplus_comid": "18229631", "navigation_mode": "DM", "requested_distance_km": 12.0, "start_source": "nwissite", "start_id": "USGS-02464500", "geometry_length_km": 3.522557838511776 }, "geometry": { "type": "LineString", "coordinates": [ [ -87.552410506, 33.353373393 ], [ -87.552340403, 33.352612995 ], [ -87.551459305, 33.350911595 ], [ -87.551292107, 33.349640496 ], [ -87.550659001, 33.348460793 ], [ -87.550793506, 33.347211994 ], [ -87.551189207, 33.346359998 ], [ -87.552570507, 33.344825596 ], [ -87.554705702, 33.3433467 ], [ -87.556609504, 33.342605993 ], [ -87.558308706, 33.342353694 ], [ -87.561073802, 33.340669394 ], [ -87.561620206, 33.339828596 ], [ -87.561821602, 33.337955296 ], [ -87.561339304, 33.336786799 ], [ -87.559690803, 33.335154697 ], [ -87.558826305, 33.334713295 ], [ -87.557016805, 33.334579796 ], [ -87.555579104, 33.335228994 ], [ -87.553702407, 33.335719898 ], [ -87.5507835, 33.336007997 ] ] } },
{ "type": "Feature", "properties": { "site_no": "02464500", "nhdplus_comid": "18229639", "navigation_mode": "DM", "requested_distance_km": 12.0, "start_source": "nwissite", "start_id": "USGS-02464500", "geometry_length_km": 2.2677270367833029 }, "geometry": { "type": "LineString", "coordinates": [ [ -87.5507835, 33.336007997 ], [ -87.549439803, 33.335782893 ], [ -87.548273802, 33.335319094 ], [ -87.546227001, 33.333153799 ], [ -87.5448699, 33.333053596 ], [ -87.543720201, 33.333849795 ], [ -87.543337904, 33.334576897 ], [ -87.541695505, 33.335714296 ], [ -87.539282806, 33.335535899 ], [ -87.538706504, 33.335241593 ], [ -87.536646605, 33.333200999 ], [ -87.536124304, 33.332407095 ], [ -87.535793103, 33.331249699 ], [ -87.535023101, 33.329933897 ], [ -87.5350473, 33.328299195 ] ] } },
{ "type": "Feature", "properties": { "site_no": "02464500", "nhdplus_comid": "18229709", "navigation_mode": "DM", "requested_distance_km": 12.0, "start_source": "nwissite", "start_id": "USGS-02464500", "geometry_length_km": 1.6556914306333337 }, "geometry": { "type": "LineString", "coordinates": [ [ -87.5350473, 33.328299195 ], [ -87.535744704, 33.327469595 ], [ -87.5363129, 33.323609196 ], [ -87.535952106, 33.3213166 ], [ -87.534907602, 33.319728695 ], [ -87.534191504, 33.317913294 ], [ -87.534363903, 33.314904794 ], [ -87.534609005, 33.314041696 ] ] } },
{ "type": "Feature", "properties": { "site_no": "02464500", "nhdplus_comid": "18229733", "navigation_mode": "DM", "requested_distance_km": 12.0, "start_source": "nwissite", "start_id": "USGS-02464500", "geometry_length_km": 2.6227131138346902 }, "geometry": { "type": "LineString", "coordinates": [ [ -87.534609005, 33.314041696 ], [ -87.534770504, 33.312543094 ], [ -87.535276607, 33.312076993 ], [ -87.535572805, 33.309329398 ], [ -87.534337305, 33.308104999 ], [ -87.532377705, 33.307959899 ], [ -87.5301596, 33.308802798 ], [ -87.528517403, 33.3099401 ], [ -87.527233206, 33.311985098 ], [ -87.5267969, 33.313211694 ], [ -87.525154606, 33.314348899 ], [ -87.522591904, 33.314158998 ], [ -87.520944707, 33.312526293 ], [ -87.520955801, 33.3110165 ], [ -87.520694807, 33.310619399 ] ] } },
{ "type": "Feature", "properties": { "site_no": "02464500", "nhdplus_comid": "18229739", "navigation_mode": "DM", "requested_distance_km": 12.0, "start_source": "nwissite", "start_id": "USGS-02464500", "geometry_length_km": 1.2083060268822297 }, "geometry": { "type": "LineString", "coordinates": [ [ -87.520694807, 33.310619399 ], [ -87.519828402, 33.3087928 ], [ -87.519454703, 33.306624994 ], [ -87.5197649, 33.303752497 ], [ -87.520871602, 33.301946193 ], [ -87.521211103, 33.300208896 ] ] } },
{ "type": "Feature", "properties": { "site_no": "02464500", "nhdplus_comid": "18229767", "navigation_mode": "DM", "requested_distance_km": 12.0, "start_source": "nwissite", "start_id": "USGS-02464500", "geometry_length_km": 1.3322842286600949 }, "geometry": { "type": "LineString", "coordinates": [ [ -87.521211103, 33.300208896 ], [ -87.520799302, 33.299800694 ], [ -87.520578802, 33.299029 ], [ -87.516833104, 33.295729898 ], [ -87.516599201, 33.295083098 ], [ -87.5157893, 33.294141695 ], [ -87.515184201, 33.292711996 ], [ -87.515154906, 33.291576795 ], [ -87.513920002, 33.290352196 ] ] } }
]
}
