{
"type": "FeatureCollection",
"name": "USGS_02364000_DM_12km",
"crs": { "type": "name", "properties": { "name": "urn:ogc:def:crs:OGC:1.3:CRS84" } },
"features": [
{ "type": "Feature", "properties": { "site_no": "02364000", "nhdplus_comid": "2213454", "navigation_mode": "DM", "requested_distance_km": 12.0, "start_source": "nwissite", "start_id": "USGS-02364000", "geometry_length_km": 0.90508338630783969 }, "geometry": { "type": "LineString", "coordinates": [ [ -86.06270222, 31.413338677 ], [ -86.062743701, 31.412152797 ], [ -86.063225001, 31.411763497 ], [ -86.064133607, 31.411443099 ], [ -86.065870404, 31.411352299 ], [ -86.0672867, 31.411055095 ], [ -86.068569705, 31.4105516 ], [ -86.069264702, 31.410047598 ], [ -86.069585502, 31.409566499 ], [ -86.069906205, 31.409474999 ] ] } },
{ "type": "Feature", "properties": { "site_no": "02364000", "nhdplus_comid": "2213468", "navigation_mode": "DM", "requested_distance_km": 12.0, "start_source": "nwissite", "start_id": "USGS-02364000", "geometry_length_km": 0.49474665669737822 }, "geometry": { "type": "LineString", "coordinates": [ [ -86.069906205, 31.409474999 ], [ -86.070120305, 31.408856399 ], [ -86.070655003, 31.408398397 ], [ -86.071858406, 31.406657293 ], [ -86.071965404, 31.406267799 ], [ -86.072019406, 31.405534595 ] ] } },
{ "type": "Feature", "properties": { "site_no": "02364000", "nhdplus_comid": "2213476", "navigation_mode": "DM", "requested_distance_km": 12.0, "start_source": "nwissite", "start_id": "USGS-02364000", "geometry_length_km": 0.23187965766412802 }, "geometry": { "type": "LineString", "coordinates": [ [ -86.072019406, 31.405534595 ], [ -86.071752302, 31.405305296 ], [ -86.071244806, 31.405144699 ], [ -86.0697219, 31.405052297 ] ] } },
{ "type": "Feature", "properties": { "site_no": "02364000", "nhdplus_comid": "2213486", "navigation_mode": "DM", "requested_distance_km": 12.0, "start_source": "nwissite", "start_id": "USGS-02364000", "geometry_length_km": 1.3749338683929566 }, "geometry": { "type": "LineString", "coordinates": [ [ -86.0697219, 31.405052297 ], [ -86.069401406, 31.404891796 ], [ -86.069054306, 31.404570796 ], [ -86.068840906, 31.403929099 ], [ -86.0687894, 31.400881298 ], [ -86.068950005, 31.400377199 ], [ -86.069004104, 31.399483494 ], [ -86.068924107, 31.399208494 ], [ -86.0690042, 31.399139799 ], [ -86.069166802, 31.395289995 ], [ -86.069274001, 31.394877493 ], [ -86.0698089, 31.393823795 ], [ -86.069862805, 31.393159196 ] ] } },
{ "type": "Feature", "properties": { "site_no": "02364000", "nhdplus_comid": "2214798", "navigation_mode": "DM", "requested_distance_km": 12.0, "start_source": "nwissite", "start_id": "USGS-02364000", "geometry_length_km": 1.415136877683115 }, "geometry": { "type": "LineString", "coordinates": [ [ -86.069862805, 31.393159196 ], [ -86.069960907, 31.392987996 ], [ -86.070075206, 31.392908394 ], [ -86.070189603, 31.392828695 ], [ -86.070304006, 31.392749093 ], [ -86.070418306, 31.392669499 ], [ -86.070532702, 31.3925898 ], [ -86.070647106, 31.392510198 ], [ -86.070761502, 31.392430596 ], [ -86.070875801, 31.392350897 ], [ -86.070990205, 31.392271295 ], [ -86.071104601, 31.392191693 ], [ -86.071219005, 31.392111994 ], [ -86.071333304, 31.3920324 ], [ -86.0714477, 31.391952798 ], [ -86.071562104, 31.391873099 ], [ -86.071676403, 31.391793497 ], [ -86.071790807, 31.391713798 ], [ -86.071905203, 31.391634196 ], [ -86.072019607, 31.391554594 ], [ -86.0721258, 31.391480595 ], [ -86.0721929, 31.391368598 ], [ -86.07226, 31.391256496 ], [ -86.072327204, 31.391144395 ], [ -86.072394304, 31.391032398 ], [ -86.072461404, 31.390920296 ], [ -86.072528504, 31.390808299 ], [ -86.072595701, 31.390696198 ], [ -86.072662801, 31.390584096 ], [ -86.0727299, 31.390472099 ], [ -86.072797, 31.390359998 ], [ -86.072864205, 31.390247896 ], [ -86.072931305, 31.390135899 ], [ -86.072998405, 31.390023798 ], [ -86.073060803, 31.389919795 ], [ -86.073150903, 31.389820099 ], [ -86.073241003, 31.389720395 ], [ -86.073331103, 31.389620796 ], [ -86.073421307, 31.3895211 ], [ -86.073511407, 31.389421396 ], [ -86.073601507, 31.3893217 ], [ -86.073691703, 31.389222093 ], [ -86.073781803, 31.389122397 ], [ -86.073871903, 31.389022693 ], [ -86.0739621, 31.388922997 ], [ -86.074052207, 31.388823397 ], [ -86.074142307, 31.388723694 ], [ -86.074232407, 31.388623998 ], [ -86.074322604, 31.388524294 ], [ -86.074412704, 31.388424598 ], [ -86.074436501, 31.388398297 ], [ -86.074548006, 31.388315797 ], [ -86.074659601, 31.388233297 ], [ -86.074771106, 31.388150796 ], [ -86.074882604, 31.388068199 ], [ -86.074994102, 31.387985699 ], [ -86.0751056, 31.387903199 ], [ -86.075217105, 31.387820698 ], [ -86.0753287, 31.387738198 ], [ -86.075440206, 31.387655698 ], [ -86.075551704, 31.387573197 ], [ -86.075663202, 31.387490593 ], [ -86.075774707, 31.3874081 ], [ -86.075886205, 31.3873256 ], [ -86.075997807, 31.3872431 ], [ -86.076109305, 31.387160599 ], [ -86.076220803, 31.387078099 ], [ -86.076332301, 31.386995599 ], [ -86.076443806, 31.386912994 ], [ -86.076555304, 31.386830494 ], [ -86.076666802, 31.386747994 ], [ -86.076724604, 31.386705197 ], [ -86.0768205, 31.386609495 ], [ -86.0769163, 31.386513799 ], [ -86.077012204, 31.386418 ], [ -86.077108003, 31.386322297 ], [ -86.077203803, 31.386226594 ], [ -86.077299707, 31.386130795 ], [ -86.077395506, 31.3860351 ], [ -86.077491306, 31.385939397 ], [ -86.077587202, 31.385843597 ], [ -86.077683002, 31.385747895 ], [ -86.077778906, 31.385652095 ], [ -86.077874705, 31.3855564 ], [ -86.077970505, 31.385460697 ], [ -86.078066401, 31.385364898 ], [ -86.078162201, 31.385269195 ], [ -86.078258, 31.3851735 ], [ -86.078353904, 31.3850777 ], [ -86.078449704, 31.384981997 ], [ -86.078545503, 31.384886198 ], [ -86.0786414, 31.384790495 ], [ -86.078737207, 31.3846948 ], [ -86.078833006, 31.384599 ], [ -86.078928903, 31.384503298 ], [ -86.079024702, 31.384407595 ], [ -86.079120502, 31.384311795 ], [ -86.079216406, 31.3842161 ], [ -86.079312205, 31.384120293 ], [ -86.079408005, 31.384024598 ], [ -86.079503901, 31.383928895 ], [ -86.079599701, 31.383833095 ], [ -86.079688601, 31.383744299 ] ] } },
{ "type": "Feature", "properties": { "site_no": "02364000", "nhdplus_comid": "2214804", "navigation_mode": "DM", "requested_distance_km": 12.0, "start_source": "nwissite", "start_id": "USGS-02364000", "geometry_length_km": 0.43818688664915612 }, "geometry": { "type": "LineString", "coordinates": [ [ -86.079688601, 31.383744299 ], [ -86.080232903, 31.382338293 ], [ -86.079838306, 31.381923698 ], [ -86.078206703, 31.381904595 ], [ -86.077812105, 31.381489895 ] ] } },
{ "type": "Feature", "properties": { "site_no": "02364000", "nhdplus_comid": "2214806", "navigation_mode": "DM", "requested_distance_km": 12.0, "start_source": "nwissite", "start_id": "USGS-02364000", "geometry_length_km": 2.7456244261747806 }, "geometry": { "type": "LineString", "coordinates": [ [ -86.077812105, 31.381489895 ], [ -86.078089304, 31.379237898 ], [ -86.078861706, 31.377788998 ], [ -86.080189504, 31.3742394 ], [ -86.081078, 31.373053797 ], [ -86.082670204, 31.372183897 ], [ -86.083992407, 31.372301899 ], [ -86.085577704, 31.372696199 ], [ -86.085840702, 31.3729726 ], [ -86.087735206, 31.373267993 ], [ -86.088980503, 31.374011494 ], [ -86.089421302, 31.374050796 ], [ -86.089745902, 31.373826697 ], [ -86.089899607, 31.372575596 ], [ -86.089566506, 31.371660493 ], [ -86.089766406, 31.370033994 ], [ -86.090716206, 31.368347794 ], [ -86.092207402, 31.367089398 ] ] } },
{ "type": "Feature", "properties": { "site_no": "02364000", "nhdplus_comid": "2214984", "navigation_mode": "DM", "requested_distance_km": 12.0, "start_source": "nwissite", "start_id": "USGS-02364000", "geometry_length_km": 0.348810871995681 }, "geometry": { "type": "LineString", "coordinates": [ [ -86.092207402, 31.367089398 ], [ -86.092301704, 31.366992496 ], [ -86.092396006, 31.366895698 ], [ -86.092490204, 31.3667989 ], [ -86.092584506, 31.366701998 ], [ -86.0926788, 31.3666052 ], [ -86.092773102, 31.366508298 ], [ -86.0928673, 31.3664115 ], [ -86.092961602, 31.366314597 ], [ -86.093055904, 31.366217799 ], [ -86.093150206, 31.366120994 ], [ -86.093227103, 31.366041899 ], [ -86.093251601, 31.365917794 ], [ -86.093276106, 31.365793794 ], [ -86.093300603, 31.365669698 ], [ -86.093325205, 31.365545698 ], [ -86.093349703, 31.365421593 ], [ -86.0933742, 31.365297496 ], [ -86.093398705, 31.365173496 ], [ -86.093423203, 31.365049399 ], [ -86.0934477, 31.364925399 ], [ -86.093472205, 31.364801295 ], [ -86.093534604, 31.364645198 ], [ -86.093619101, 31.364301994 ] ] } },
{ "type": "Feature", "properties": { "site_no": "02364000", "nhdplus_comid": "2214986", "navigation_mode": "DM", "requested_distance_km": 12.0, "start_source": "nwissite", "start_id": "USGS-02364000", "geometry_length_km": 0.044259462883541892 }, "geometry": { "type": "LineString", "coordinates": [ [ -86.093619101, 31.364301994 ], [ -86.093622006, 31.363904297 ] ] } },
{ "type": "Feature", "properties": { "site_no": "02364000", "nhdplus_comid": "2213542", "navigation_mode": "DM", "requested_distance_km": 12.0, "start_source": "nwissite", "start_id": "USGS-02364000", "geometry_length_km": 0.25822281285312204 }, "geometry": { "type": "LineString", "coordinates": [ [ -86.093622006, 31.363904297 ], [ -86.093515202, 31.3637897 ], [ -86.093461901, 31.363491796 ], [ -86.092474505, 31.361818597 ] ] } },
{ "type": "Feature", "properties": { "site_no": "02364000", "nhdplus_comid": "2213544", "navigation_mode": "DM", "requested_distance_km": 12.0, "start_source": "nwissite", "start_id": "USGS-02364000", "geometry_length_km": 0.073173892663912748 }, "geometry": { "type": "LineString", "coordinates": [ [ -86.092474505, 31.361818597 ], [ -86.092581406, 31.361589499 ], [ -86.092982002, 31.361360393 ] ] } },
{ "type": "Feature", "properties": { "site_no": "02364000", "nhdplus_comid": "2213546", "navigation_mode": "DM", "requested_distance_km": 12.0, "start_source": "nwissite", "start_id": "USGS-02364000", "geometry_length_km": 0.16662148434425794 }, "geometry": { "type": "LineString", "coordinates": [ [ -86.092982002, 31.361360393 ], [ -86.093489304, 31.361497998 ], [ -86.094049901, 31.362208597 ], [ -86.094263501, 31.362254396 ] ] } },
{ "type": "Feature", "properties": { "site_no": "02364000", "nhdplus_comid": "2213552", "navigation_mode": "DM", "requested_distance_km": 12.0, "start_source": "nwissite", "start_id": "USGS-02364000", "geometry_length_km": 0.19572330372192037 }, "geometry": { "type": "LineString", "coordinates": [ [ -86.094263501, 31.362254396 ], [ -86.094423704, 31.362254493 ], [ -86.094797701, 31.362048298 ], [ -86.0952252, 31.361498497 ], [ -86.095305406, 31.361131795 ], [ -86.0954924, 31.360994399 ] ] } },
{ "type": "Feature", "properties": { "site_no": "02364000", "nhdplus_comid": "2213596", "navigation_mode": "DM", "requested_distance_km": 12.0, "start_source": "nwissite", "start_id": "USGS-02364000", "geometry_length_km": 3.072554176078548 }, "geometry": { "type": "LineString", "coordinates": [ [ -86.0954924, 31.360994399 ], [ -86.0955998, 31.359115399 ], [ -86.095760204, 31.358886294 ], [ -86.0960273, 31.358725898 ], [ -86.0974961, 31.358428299 ], [ -86.098404303, 31.357649393 ], [ -86.098644704, 31.357328698 ], [ -86.098724902, 31.357030794 ], [ -86.098618403, 31.356182799 ], [ -86.098298103, 31.355701596 ], [ -86.098058105, 31.354418099 ], [ -86.098219506, 31.350614093 ], [ -86.097846001, 31.349605799 ], [ -86.097499207, 31.348093294 ], [ -86.097312503, 31.3476808 ], [ -86.097205706, 31.347611994 ], [ -86.0970456, 31.347038999 ], [ -86.096778706, 31.346718095 ], [ -86.096618704, 31.346191093 ], [ -86.096619003, 31.3449765 ], [ -86.096939802, 31.344105795 ], [ -86.097447202, 31.343189195 ], [ -86.097500905, 31.342593394 ], [ -86.096700102, 31.341859899 ], [ -86.095605701, 31.341103494 ], [ -86.095312007, 31.340805493 ], [ -86.095285401, 31.340461694 ], [ -86.095365606, 31.340324193 ], [ -86.096620701, 31.339866295 ], [ -86.097074606, 31.3394081 ], [ -86.097368605, 31.338766493 ], [ -86.0972085, 31.338101894 ], [ -86.096674703, 31.337253794 ] ] } },
{ "type": "Feature", "properties": { "site_no": "02364000", "nhdplus_comid": "2213604", "navigation_mode": "DM", "requested_distance_km": 12.0, "start_source": "nwissite", "start_id": "USGS-02364000", "geometry_length_km": 0.8482820119087302 }, "geometry": { "type": "LineString", "coordinates": [ [ -86.096674703, 31.337253794 ], [ -86.095954202, 31.336497493 ], [ -86.095420502, 31.335282795 ], [ -86.095100306, 31.334824398 ], [ -86.094753407, 31.334572196 ], [ -86.094433002, 31.334549196 ], [ -86.092403702, 31.335327797 ], [ -86.091816306, 31.335373498 ], [ -86.090828605, 31.335052393 ], [ -86.090134606, 31.334433496 ] ] } }
]
}
