{
"type": "FeatureCollection",
"name": "USGS_02465000_DM_12km",
"crs": { "type": "name", "properties": { "name": "urn:ogc:def:crs:OGC:1.3:CRS84" } },
"features": [
{ "type": "Feature", "properties": { "site_no": "02465000", "nhdplus_comid": "18229923", "navigation_mode": "DM", "requested_distance_km": 12.0, "start_source": "nwissite", "start_id": "USGS-02465000", "geometry_length_km": 0.9542826124648347 }, "geometry": { "type": "LineString", "coordinates": [ [ -87.590130679, 33.209509132 ], [ -87.591130905, 33.209064096 ], [ -87.5918971, 33.208994597 ], [ -87.596149005, 33.207544893 ], [ -87.596600704, 33.2075781 ], [ -87.596928507, 33.2073505 ], [ -87.5997319, 33.206675299 ] ] } },
{ "type": "Feature", "properties": { "site_no": "02465000", "nhdplus_comid": "18206548", "navigation_mode": "DM", "requested_distance_km": 12.0, "start_source": "nwissite", "start_id": "USGS-02465000", "geometry_length_km": 2.814748572237022 }, "geometry": { "type": "LineString", "coordinates": [ [ -87.5997319, 33.206675299 ], [ -87.600033, 33.206697494 ], [ -87.601468101, 33.206047595 ], [ -87.601919703, 33.206080794 ], [ -87.606295206, 33.2048916 ], [ -87.610329501, 33.2040549 ], [ -87.616578005, 33.202373393 ], [ -87.619421005, 33.201322995 ], [ -87.623123102, 33.1993284 ], [ -87.627852201, 33.197660796 ] ] } },
{ "type": "Feature", "properties": { "site_no": "02465000", "nhdplus_comid": "18206558", "navigation_mode": "DM", "requested_distance_km": 12.0, "start_source": "nwissite", "start_id": "USGS-02465000", "geometry_length_km": 1.0338677798490274 }, "geometry": { "type": "LineString", "coordinates": [ [ -87.627852201, 33.197660796 ], [ -87.630792201, 33.197120793 ], [ -87.632775903, 33.197014399 ], [ -87.635335103, 33.197201796 ], [ -87.638717905, 33.198204793 ] ] } },
{ "type": "Feature", "properties": { "site_no": "02465000", "nhdplus_comid": "18206552", "navigation_mode": "DM", "requested_distance_km": 12.0, "start_source": "nwissite", "start_id": "USGS-02465000", "geometry_length_km": 2.0597864544889468 }, "geometry": { "type": "LineString", "coordinates": [ [ -87.638717905, 33.198204793 ], [ -87.640661702, 33.198472999 ], [ -87.647755206, 33.200250797 ], [ -87.649920605, 33.201290399 ], [ -87.653583102, 33.203949995 ], [ -87.654885106, 33.204548694 ], [ -87.656829104, 33.204816595 ], [ -87.6587153, 33.204198994 ] ] } },
{ "type": "Feature", "properties": { "site_no": "02465000", "nhdplus_comid": "18206570", "navigation_mode": "DM", "requested_distance_km": 12.0, "start_source": "nwissite", "start_id": "USGS-02465000", "geometry_length_km": 3.4921032615223297 }, "geometry": { "type": "LineString", "coordinates": [ [ -87.6587153, 33.204198994 ], [ -87.659220003, 33.2037322 ], [ -87.660158202, 33.202038199 ], [ -87.660449602, 33.199289896 ], [ -87.660267703, 33.198143594 ], [ -87.660824001, 33.192896694 ], [ -87.660668604, 33.1915005 ], [ -87.660088107, 33.189821497 ], [ -87.6602735, 33.188072495 ], [ -87.661269404, 33.187263899 ], [ -87.662801206, 33.187123999 ], [ -87.6644172, 33.187619597 ], [ -87.665418006, 33.188196197 ], [ -87.671333402, 33.189634897 ], [ -87.673335001, 33.190787993 ], [ -87.674982801, 33.192418799 ], [ -87.675231002, 33.192940496 ] ] } },
{ "type": "Feature", "properties": { "site_no": "02465000", "nhdplus_comid": "18206576", "navigation_mode": "DM", "requested_distance_km": 12.0, "start_source": "nwissite", "start_id": "USGS-02465000", "geometry_length_km": 2.252044086829267 }, "geometry": { "type": "LineString", "coordinates": [ [ -87.675231002, 33.192940496 ], [ -87.676028505, 33.194005698 ], [ -87.677330501, 33.194604099 ], [ -87.679902904, 33.1946657 ], [ -87.680531502, 33.194459699 ], [ -87.681691006, 33.193536997 ], [ -87.682105802, 33.191049397 ], [ -87.681825906, 33.189392395 ], [ -87.681139305, 33.188712895 ], [ -87.679359302, 33.1883315 ], [ -87.678057402, 33.187732995 ], [ -87.6763964, 33.186227195 ], [ -87.675665103, 33.184537299 ], [ -87.675797306, 33.183287993 ], [ -87.675411806, 33.182630397 ] ] } }
]
}
