{
"type": "FeatureCollection",
"name": "USGS_02468000_UM_12km",
"crs": { "type": "name", "properties": { "name": "urn:ogc:def:crs:OGC:1.3:CRS84" } },
"features": [
{ "type": "Feature", "properties": { "site_no": "02468000", "nhdplus_comid": "18533178", "navigation_mode": "UM", "requested_distance_km": 12.0, "start_source": "nwissite", "start_id": "USGS-02468000", "geometry_length_km": 2.1611048949325293 }, "geometry": { "type": "LineString", "coordinates": [ [ -88.353585802, 32.434401095 ], [ -88.3530185, 32.4344927 ], [ -88.352586307, 32.434698895 ], [ -88.352181002, 32.4347905 ], [ -88.351748705, 32.4347675 ], [ -88.351424702, 32.434492499 ], [ -88.351154603, 32.434515394 ], [ -88.3511004, 32.434652895 ], [ -88.351235501, 32.434904896 ], [ -88.351208404, 32.4351798 ], [ -88.350992203, 32.435362995 ], [ -88.350641005, 32.435591996 ], [ -88.350397803, 32.436073095 ], [ -88.349884503, 32.436370894 ], [ -88.349776402, 32.436645694 ], [ -88.349506304, 32.4367145 ], [ -88.348803706, 32.436737195 ], [ -88.348209403, 32.436370596 ], [ -88.347858302, 32.436462194 ], [ -88.347750202, 32.436622597 ], [ -88.347750105, 32.437172398 ], [ -88.347452901, 32.437286898 ], [ -88.3469126, 32.437286794 ], [ -88.346858405, 32.437836595 ], [ -88.346696302, 32.437996894 ], [ -88.345831804, 32.437905096 ], [ -88.345588706, 32.437973797 ], [ -88.345453605, 32.438225895 ], [ -88.3454265, 32.438477799 ], [ -88.345291406, 32.438638195 ], [ -88.344967104, 32.438867196 ], [ -88.344372801, 32.439027496 ], [ -88.3440485, 32.439233594 ], [ -88.343778305, 32.439210594 ], [ -88.343481302, 32.439004295 ], [ -88.343211204, 32.438591897 ], [ -88.343211301, 32.4385003 ], [ -88.343076207, 32.438385695 ], [ -88.342833005, 32.4384773 ], [ -88.342778906, 32.4387751 ], [ -88.342427507, 32.438843794 ], [ -88.3422115, 32.438637599 ], [ -88.342211805, 32.437812798 ], [ -88.342022605, 32.437698193 ], [ -88.341779605, 32.4375607 ], [ -88.341725603, 32.437262796 ], [ -88.341374502, 32.436964899 ], [ -88.341374606, 32.436758794 ], [ -88.340915404, 32.436575398 ], [ -88.3407804, 32.436460793 ], [ -88.340780504, 32.436140098 ], [ -88.340591304, 32.436071299 ], [ -88.340348206, 32.436094195 ], [ -88.340213105, 32.436277397 ], [ -88.340186, 32.436483599 ], [ -88.339942902, 32.436483495 ], [ -88.339888901, 32.436437696 ], [ -88.339645803, 32.436483495 ], [ -88.339537703, 32.4365751 ], [ -88.339483604, 32.436758295 ], [ -88.339321405, 32.436918594 ], [ -88.33894288, 32.43701992 ] ] } },
{ "type": "Feature", "properties": { "site_no": "02468000", "nhdplus_comid": "18533208", "navigation_mode": "UM", "requested_distance_km": 12.0, "start_source": "nwissite", "start_id": "USGS-02468000", "geometry_length_km": 0.64440112821221651 }, "geometry": { "type": "LineString", "coordinates": [ [ -88.353802606, 32.430025399 ], [ -88.353802606, 32.430231594 ], [ -88.353991702, 32.430437796 ], [ -88.354639806, 32.430689797 ], [ -88.3547749, 32.430781499 ], [ -88.354829006, 32.430918999 ], [ -88.354801804, 32.431491695 ], [ -88.355152905, 32.431858398 ], [ -88.355260901, 32.432202093 ], [ -88.355179802, 32.432637297 ], [ -88.354990706, 32.433164194 ], [ -88.354855604, 32.433255799 ], [ -88.354504406, 32.433232896 ], [ -88.3541262, 32.433278598 ], [ -88.353910103, 32.433507696 ], [ -88.353721, 32.433713898 ], [ -88.353720903, 32.4342179 ], [ -88.353585802, 32.434401095 ] ] } },
{ "type": "Feature", "properties": { "site_no": "02468000", "nhdplus_comid": "18533226", "navigation_mode": "UM", "requested_distance_km": 12.0, "start_source": "nwissite", "start_id": "USGS-02468000", "geometry_length_km": 0.79792580355535503 }, "geometry": { "type": "LineString", "coordinates": [ [ -88.360880204, 32.427620493 ], [ -88.359880701, 32.427620493 ], [ -88.359286405, 32.428032793 ], [ -88.359097302, 32.428032793 ], [ -88.358449101, 32.427643299 ], [ -88.358070806, 32.427597396 ], [ -88.3578007, 32.427734897 ], [ -88.357611604, 32.427918196 ], [ -88.357044302, 32.427918099 ], [ -88.356531002, 32.428376198 ], [ -88.355936706, 32.428605199 ], [ -88.355504505, 32.428719796 ], [ -88.355180405, 32.429086298 ], [ -88.355099306, 32.429223694 ], [ -88.3543429, 32.429544397 ], [ -88.353802606, 32.430025399 ] ] } },
{ "type": "Feature", "properties": { "site_no": "02468000", "nhdplus_comid": "18533250", "navigation_mode": "UM", "requested_distance_km": 12.0, "start_source": "nwissite", "start_id": "USGS-02468000", "geometry_length_km": 1.1632439524183293 }, "geometry": { "type": "LineString", "coordinates": [ [ -88.368362501, 32.423267998 ], [ -88.368281506, 32.423542894 ], [ -88.368119404, 32.423703298 ], [ -88.367039002, 32.423565798 ], [ -88.365904503, 32.423863597 ], [ -88.364986107, 32.423932299 ], [ -88.364635006, 32.423817798 ], [ -88.364121802, 32.423863597 ], [ -88.363932602, 32.424000993 ], [ -88.363662601, 32.424321696 ], [ -88.3632304, 32.424436197 ], [ -88.361852802, 32.424779795 ], [ -88.3612855, 32.425008893 ], [ -88.360826306, 32.425467096 ], [ -88.360583104, 32.426108494 ], [ -88.360367104, 32.426085599 ], [ -88.360124007, 32.426016897 ], [ -88.359907903, 32.426085599 ], [ -88.359799802, 32.426268898 ], [ -88.359799802, 32.426566593 ], [ -88.360178001, 32.426841594 ], [ -88.360448003, 32.427024893 ], [ -88.360556006, 32.427231096 ], [ -88.360826105, 32.427483097 ], [ -88.360880204, 32.427620493 ] ] } },
{ "type": "Feature", "properties": { "site_no": "02468000", "nhdplus_comid": "18533348", "navigation_mode": "UM", "requested_distance_km": 12.0, "start_source": "nwissite", "start_id": "USGS-02468000", "geometry_length_km": 3.7102275063658552 }, "geometry": { "type": "LineString", "coordinates": [ [ -88.383674406, 32.404183693 ], [ -88.383620501, 32.404344 ], [ -88.383863606, 32.404595993 ], [ -88.384025604, 32.4046418 ], [ -88.383971602, 32.4047563 ], [ -88.383323506, 32.404962599 ], [ -88.382891402, 32.405008495 ], [ -88.382729307, 32.4048023 ], [ -88.382189207, 32.404779397 ], [ -88.381865203, 32.405145995 ], [ -88.381919205, 32.405283496 ], [ -88.382108301, 32.405489698 ], [ -88.3820813, 32.405764595 ], [ -88.381973304, 32.405879095 ], [ -88.381514207, 32.4059937 ], [ -88.381352305, 32.4062915 ], [ -88.381190203, 32.406337395 ], [ -88.380515106, 32.4063145 ], [ -88.379947901, 32.406085499 ], [ -88.379677907, 32.4060397 ], [ -88.379299805, 32.4060397 ], [ -88.379191801, 32.406154297 ], [ -88.379056804, 32.406429194 ], [ -88.379056901, 32.406818599 ], [ -88.379381001, 32.407253899 ], [ -88.379354, 32.407437198 ], [ -88.3790299, 32.407528795 ], [ -88.379057005, 32.407780796 ], [ -88.379381105, 32.408124499 ], [ -88.379570104, 32.408628397 ], [ -88.379570201, 32.409155399 ], [ -88.379921407, 32.4093844 ], [ -88.379975304, 32.4094989 ], [ -88.379921407, 32.410575695 ], [ -88.379975505, 32.410644397 ], [ -88.379975505, 32.411217295 ], [ -88.379408501, 32.411240198 ], [ -88.379408501, 32.411812894 ], [ -88.379624501, 32.412041999 ], [ -88.379624605, 32.412431493 ], [ -88.3794626, 32.4126148 ], [ -88.378787406, 32.412683599 ], [ -88.378679402, 32.412843898 ], [ -88.378544405, 32.4129356 ], [ -88.377356105, 32.412889794 ], [ -88.377086006, 32.413141795 ], [ -88.376870006, 32.413279295 ], [ -88.376843005, 32.413622893 ], [ -88.376627006, 32.413829096 ], [ -88.3760598, 32.413852096 ], [ -88.375816807, 32.414195694 ], [ -88.375816703, 32.414401896 ], [ -88.375978902, 32.414630994 ], [ -88.375951901, 32.414882995 ], [ -88.375627801, 32.415180899 ], [ -88.375573806, 32.415364094 ], [ -88.375411704, 32.415455699 ], [ -88.375249706, 32.415455796 ], [ -88.375033602, 32.415318295 ], [ -88.374817602, 32.415226698 ], [ -88.374196306, 32.415226698 ], [ -88.373953201, 32.415409997 ], [ -88.373953305, 32.415593296 ], [ -88.373791106, 32.415639095 ], [ -88.373251006, 32.415639095 ], [ -88.373197004, 32.4157537 ], [ -88.373170003, 32.415914096 ], [ -88.373359106, 32.416074499 ], [ -88.3733861, 32.416257694 ], [ -88.373116001, 32.416280597 ], [ -88.372872904, 32.416166097 ], [ -88.372710906, 32.416257694 ], [ -88.372629903, 32.416555494 ], [ -88.372089706, 32.4166013 ], [ -88.371981703, 32.416692995 ], [ -88.371981703, 32.416807599 ], [ -88.3721167, 32.417036593 ], [ -88.372143805, 32.417334497 ], [ -88.372062705, 32.417380296 ], [ -88.371738605, 32.417380296 ], [ -88.371387504, 32.4172199 ], [ -88.371144406, 32.417265795 ], [ -88.371036403, 32.417380296 ], [ -88.370901406, 32.418136299 ], [ -88.370550305, 32.418961093 ], [ -88.370226204, 32.419075593 ], [ -88.369415902, 32.4191214 ], [ -88.369037807, 32.419327594 ], [ -88.368740603, 32.4196712 ], [ -88.368578605, 32.419877395 ], [ -88.368551604, 32.420175299 ], [ -88.368686602, 32.420404397 ], [ -88.368659705, 32.420564793 ], [ -88.3684166, 32.420931295 ], [ -88.368389502, 32.421595596 ], [ -88.368254505, 32.421755999 ], [ -88.367714301, 32.4218935 ], [ -88.3676062, 32.422030896 ], [ -88.367498204, 32.422328696 ], [ -88.367741302, 32.422718197 ], [ -88.368362501, 32.423267998 ] ] } },
{ "type": "Feature", "properties": { "site_no": "02468000", "nhdplus_comid": "18533362", "navigation_mode": "UM", "requested_distance_km": 12.0, "start_source": "nwissite", "start_id": "USGS-02468000", "geometry_length_km": 1.223057591910115 }, "geometry": { "type": "LineString", "coordinates": [ [ -88.387399502, 32.396485597 ], [ -88.387399703, 32.397012495 ], [ -88.387183703, 32.397104196 ], [ -88.386616603, 32.397127196 ], [ -88.386400707, 32.397424996 ], [ -88.386427805, 32.397906095 ], [ -88.3865088, 32.398066498 ], [ -88.386562802, 32.398364298 ], [ -88.386887006, 32.398684993 ], [ -88.386860006, 32.398982696 ], [ -88.386806004, 32.399028599 ], [ -88.386238903, 32.399120294 ], [ -88.386158004, 32.3996014 ], [ -88.386023104, 32.399738893 ], [ -88.385699004, 32.399876393 ], [ -88.385510005, 32.4000597 ], [ -88.385402106, 32.400609493 ], [ -88.385402203, 32.4012511 ], [ -88.385186203, 32.401342794 ], [ -88.384808205, 32.401457295 ], [ -88.383971207, 32.4020302 ], [ -88.383782104, 32.402213499 ], [ -88.383782007, 32.402350895 ], [ -88.383971304, 32.402579993 ], [ -88.383890301, 32.403083995 ], [ -88.384133406, 32.403290197 ], [ -88.384133406, 32.403381795 ], [ -88.383917406, 32.403565094 ], [ -88.383917406, 32.403656796 ], [ -88.384106405, 32.403771199 ], [ -88.384457506, 32.403839894 ], [ -88.384457506, 32.404114798 ], [ -88.383674406, 32.404183693 ] ] } },
{ "type": "Feature", "properties": { "site_no": "02468000", "nhdplus_comid": "18533366", "navigation_mode": "UM", "requested_distance_km": 12.0, "start_source": "nwissite", "start_id": "USGS-02468000", "geometry_length_km": 1.0777825492822466 }, "geometry": { "type": "LineString", "coordinates": [ [ -88.394690007, 32.3956597 ], [ -88.394609101, 32.395957597 ], [ -88.394420102, 32.396118 ], [ -88.394366205, 32.396301195 ], [ -88.393934205, 32.396530397 ], [ -88.3933402, 32.396507598 ], [ -88.393097103, 32.3964618 ], [ -88.392773107, 32.396186896 ], [ -88.392557003, 32.396072395 ], [ -88.392584004, 32.395934999 ], [ -88.392448902, 32.395820498 ], [ -88.391773902, 32.395728894 ], [ -88.391800806, 32.395545594 ], [ -88.392097704, 32.395362295 ], [ -88.392043702, 32.395178996 ], [ -88.391881704, 32.395156197 ], [ -88.390693501, 32.395179294 ], [ -88.390207604, 32.395637594 ], [ -88.389829606, 32.395752095 ], [ -88.389262602, 32.395706393 ], [ -88.389316507, 32.395248197 ], [ -88.388668403, 32.395408593 ], [ -88.388533406, 32.395591997 ], [ -88.388560601, 32.396233499 ], [ -88.388479605, 32.396416694 ], [ -88.388425604, 32.396508299 ], [ -88.388209701, 32.396599993 ], [ -88.387750603, 32.396600097 ], [ -88.387399502, 32.396485597 ] ] } },
{ "type": "Feature", "properties": { "site_no": "02468000", "nhdplus_comid": "18533380", "navigation_mode": "UM", "requested_distance_km": 12.0, "start_source": "nwissite", "start_id": "USGS-02468000", "geometry_length_km": 1.2786791792774186 }, "geometry": { "type": "LineString", "coordinates": [ [ -88.398009002, 32.388236299 ], [ -88.397982106, 32.3885113 ], [ -88.397928007, 32.388557099 ], [ -88.397172101, 32.388625994 ], [ -88.396875203, 32.388946794 ], [ -88.396389306, 32.389382094 ], [ -88.396281406, 32.3897717 ], [ -88.396470502, 32.389977694 ], [ -88.3964165, 32.390206896 ], [ -88.395957701, 32.390458994 ], [ -88.395741701, 32.390688099 ], [ -88.395741701, 32.390825599 ], [ -88.396200806, 32.391123295 ], [ -88.396254905, 32.391489796 ], [ -88.396255106, 32.391879298 ], [ -88.396066204, 32.392314598 ], [ -88.395904206, 32.392474994 ], [ -88.395715103, 32.392474994 ], [ -88.395283103, 32.3921085 ], [ -88.395013101, 32.392062798 ], [ -88.394905105, 32.3921545 ], [ -88.394905105, 32.392314896 ], [ -88.395013206, 32.392475195 ], [ -88.395040207, 32.392704293 ], [ -88.3955805, 32.393505998 ], [ -88.395580605, 32.393803798 ], [ -88.395418607, 32.393895499 ], [ -88.394716606, 32.393987194 ], [ -88.394716606, 32.394193396 ], [ -88.394932702, 32.3944683 ], [ -88.394716807, 32.394605793 ], [ -88.394392706, 32.394674599 ], [ -88.394311704, 32.394766197 ], [ -88.394311801, 32.394972399 ], [ -88.394662902, 32.395201497 ], [ -88.394690007, 32.3956597 ] ] } }
]
}
