{
"type": "FeatureCollection",
"name": "USGS_02445500_UM_12km",
"crs": { "type": "name", "properties": { "name": "urn:ogc:def:crs:OGC:1.3:CRS84" } },
"features": [
{ "type": "Feature", "properties": { "site_no": "02445500", "nhdplus_comid": "18614854", "navigation_mode": "UM", "requested_distance_km": 12.0, "start_source": "nwissite", "start_id": "USGS-02445500", "geometry_length_km": 0.3552020856428551 }, "geometry": { "type": "LineString", "coordinates": [ [ -87.812062107, 33.669464596 ], [ -87.814610101, 33.669786498 ], [ -87.815404505, 33.669786796 ], [ -87.815760806, 33.669718295 ], [ -87.815870961, 33.669680276 ] ] } },
{ "type": "Feature", "properties": { "site_no": "02445500", "nhdplus_comid": "18614648", "navigation_mode": "UM", "requested_distance_km": 12.0, "start_source": "nwissite", "start_id": "USGS-02445500", "geometry_length_km": 0.60447423565606262 }, "geometry": { "type": "LineString", "coordinates": [ [ -87.808142103, 33.672715597 ], [ -87.808334105, 33.672303297 ], [ -87.809046805, 33.6718226 ], [ -87.811239406, 33.6707699 ], [ -87.811266907, 33.670495093 ], [ -87.811048001, 33.670197196 ], [ -87.811021, 33.6696245 ], [ -87.811267704, 33.669464193 ], [ -87.811843105, 33.6694187 ], [ -87.812062107, 33.669464596 ] ] } },
{ "type": "Feature", "properties": { "site_no": "02445500", "nhdplus_comid": "18614642", "navigation_mode": "UM", "requested_distance_km": 12.0, "start_source": "nwissite", "start_id": "USGS-02445500", "geometry_length_km": 7.6618794243790349 }, "geometry": { "type": "LineString", "coordinates": [ [ -87.792709403, 33.711810298 ], [ -87.793203101, 33.711444095 ], [ -87.793806702, 33.710780099 ], [ -87.794465601, 33.709612295 ], [ -87.794739902, 33.709360398 ], [ -87.795562401, 33.709177695 ], [ -87.795864202, 33.708834194 ], [ -87.795864403, 33.708536394 ], [ -87.795535803, 33.708261393 ], [ -87.795481101, 33.708078094 ], [ -87.795645706, 33.707940698 ], [ -87.795645706, 33.707803197 ], [ -87.796057306, 33.707276694 ], [ -87.797730707, 33.705674097 ], [ -87.797785804, 33.705307595 ], [ -87.797621503, 33.705147199 ], [ -87.797183007, 33.705100998 ], [ -87.796744406, 33.705192395 ], [ -87.796360604, 33.705146395 ], [ -87.7960319, 33.704939999 ], [ -87.795895003, 33.704687998 ], [ -87.795950204, 33.704229794 ], [ -87.796416901, 33.703359596 ], [ -87.796773501, 33.703062095 ], [ -87.797540903, 33.702993795 ], [ -87.798034102, 33.703177296 ], [ -87.798719406, 33.703086093 ], [ -87.799158104, 33.702903099 ], [ -87.799268201, 33.702399194 ], [ -87.798939504, 33.702124096 ], [ -87.798254505, 33.701940395 ], [ -87.7978983, 33.701733999 ], [ -87.7976804, 33.700199194 ], [ -87.7980645, 33.699603796 ], [ -87.798064806, 33.699260093 ], [ -87.7977909, 33.699076697 ], [ -87.797051005, 33.699076295 ], [ -87.795954406, 33.699396193 ], [ -87.795653105, 33.699304499 ], [ -87.795543604, 33.699121095 ], [ -87.795653805, 33.698433898 ], [ -87.795627505, 33.697013594 ], [ -87.795162305, 33.696234494 ], [ -87.795107901, 33.695707597 ], [ -87.795190401, 33.695409894 ], [ -87.795904003, 33.6941275 ], [ -87.7961509, 33.693898499 ], [ -87.797219604, 33.693899199 ], [ -87.797439002, 33.693807699 ], [ -87.797384605, 33.6933266 ], [ -87.796837002, 33.692776397 ], [ -87.796809904, 33.692387 ], [ -87.797029406, 33.6921122 ], [ -87.7978791, 33.691837899 ], [ -87.797961503, 33.691700399 ], [ -87.797989301, 33.691173598 ], [ -87.797770306, 33.690944396 ], [ -87.797688305, 33.690692298 ], [ -87.797551401, 33.690577798 ], [ -87.7969485, 33.690554395 ], [ -87.796647102, 33.690462694 ], [ -87.796455503, 33.690187596 ], [ -87.796455704, 33.689843997 ], [ -87.796592906, 33.689592093 ], [ -87.796949305, 33.6895236 ], [ -87.797798701, 33.689753197 ], [ -87.798045404, 33.6896846 ], [ -87.798484102, 33.689432897 ], [ -87.798703507, 33.689135194 ], [ -87.798731603, 33.688287698 ], [ -87.798539802, 33.688150093 ], [ -87.797635704, 33.687874697 ], [ -87.797636002, 33.687599793 ], [ -87.798074603, 33.687439598 ], [ -87.798869103, 33.687623397 ], [ -87.799143203, 33.687600695 ], [ -87.799252905, 33.6874175 ], [ -87.799280703, 33.686844796 ], [ -87.799089603, 33.686019994 ], [ -87.799226902, 33.685790993 ], [ -87.799693003, 33.685378999 ], [ -87.799720801, 33.684852093 ], [ -87.799611501, 33.684645794 ], [ -87.799228102, 33.684347898 ], [ -87.798241705, 33.6842556 ], [ -87.798022501, 33.684140898 ], [ -87.7979955, 33.683728494 ], [ -87.798242405, 33.683293499 ], [ -87.798544101, 33.683064498 ], [ -87.801092401, 33.683134794 ], [ -87.802681901, 33.682906598 ], [ -87.803887703, 33.682655193 ], [ -87.8047923, 33.682266295 ], [ -87.805066504, 33.6819686 ], [ -87.806054302, 33.680113599 ], [ -87.8064107, 33.679907694 ], [ -87.808137104, 33.679702394 ], [ -87.808630407, 33.679496497 ], [ -87.808795102, 33.679038398 ], [ -87.808795601, 33.678442799 ], [ -87.808330305, 33.677709498 ], [ -87.808303207, 33.677388795 ], [ -87.808412902, 33.677136794 ], [ -87.808906302, 33.676907994 ], [ -87.809070602, 33.676953897 ], [ -87.8100565, 33.677733295 ], [ -87.810357802, 33.677824996 ], [ -87.810796201, 33.677825198 ], [ -87.810933307, 33.677664995 ], [ -87.811317801, 33.676405296 ], [ -87.811181501, 33.675420098 ], [ -87.810990006, 33.674870297 ], [ -87.810771003, 33.674549498 ], [ -87.810387701, 33.674388997 ], [ -87.810141101, 33.674365893 ], [ -87.809483401, 33.674525894 ], [ -87.809401207, 33.6744572 ], [ -87.809456207, 33.674273893 ], [ -87.809922203, 33.673861794 ], [ -87.810991101, 33.673335396 ], [ -87.811046004, 33.673175097 ], [ -87.810936406, 33.673083499 ], [ -87.809731007, 33.673128694 ], [ -87.808635004, 33.672921896 ], [ -87.808142103, 33.672715597 ] ] } },
{ "type": "Feature", "properties": { "site_no": "02445500", "nhdplus_comid": "18614626", "navigation_mode": "UM", "requested_distance_km": 12.0, "start_source": "nwissite", "start_id": "USGS-02445500", "geometry_length_km": 1.6921550288416047 }, "geometry": { "type": "LineString", "coordinates": [ [ -87.783023305, 33.721768595 ], [ -87.783160903, 33.721264794 ], [ -87.783737503, 33.720325999 ], [ -87.783765301, 33.719936594 ], [ -87.783546306, 33.719592795 ], [ -87.783601604, 33.719157599 ], [ -87.784013405, 33.718585193 ], [ -87.785658605, 33.718105294 ], [ -87.786426604, 33.717739299 ], [ -87.786892906, 33.7173502 ], [ -87.787140101, 33.7169609 ], [ -87.788045406, 33.716159694 ], [ -87.788155302, 33.715907797 ], [ -87.788429506, 33.715816297 ], [ -87.788977601, 33.7160687 ], [ -87.789306402, 33.716068998 ], [ -87.789525807, 33.715931594 ], [ -87.7896908, 33.715404898 ], [ -87.790734105, 33.713572897 ], [ -87.790844202, 33.713114895 ], [ -87.790543102, 33.712587699 ], [ -87.790516101, 33.712244093 ], [ -87.790626004, 33.712037995 ], [ -87.791749902, 33.711970098 ], [ -87.792709403, 33.711810298 ] ] } }
]
}
