{
"type": "FeatureCollection",
"name": "USGS_02449500_UM_12km",
"crs": { "type": "name", "properties": { "name": "urn:ogc:def:crs:OGC:1.3:CRS84" } },
"features": [
{ "type": "Feature", "properties": { "site_no": "02449500", "nhdplus_comid": "18634132", "navigation_mode": "UM", "requested_distance_km": 12.0, "start_source": "nwissite", "start_id": "USGS-02449500", "geometry_length_km": 0.93535984121360871 }, "geometry": { "type": "LineString", "coordinates": [ [ -88.114456907, 32.7018575 ], [ -88.116333604, 32.700413696 ], [ -88.116533101, 32.699923798 ], [ -88.116619803, 32.697536997 ], [ -88.114540112, 32.694675422 ] ] } },
{ "type": "Feature", "properties": { "site_no": "02449500", "nhdplus_comid": "18634112", "navigation_mode": "UM", "requested_distance_km": 12.0, "start_source": "nwissite", "start_id": "USGS-02449500", "geometry_length_km": 5.373316617780862 }, "geometry": { "type": "LineString", "coordinates": [ [ -88.087270007, 32.728867397 ], [ -88.0836403, 32.724458396 ], [ -88.081919104, 32.722071499 ], [ -88.081420407, 32.7210292 ], [ -88.081707604, 32.719664 ], [ -88.082743302, 32.718350895 ], [ -88.082843304, 32.717350394 ], [ -88.084440403, 32.714942999 ], [ -88.084740601, 32.710430197 ], [ -88.084965304, 32.709690198 ], [ -88.085826106, 32.708616793 ], [ -88.0875974, 32.707480997 ], [ -88.092911102, 32.705584496 ], [ -88.097201705, 32.703364596 ], [ -88.101554506, 32.702030495 ], [ -88.102926403, 32.7018741 ], [ -88.110571906, 32.702280097 ], [ -88.114456907, 32.7018575 ] ] } },
{ "type": "Feature", "properties": { "site_no": "02449500", "nhdplus_comid": "18634110", "navigation_mode": "UM", "requested_distance_km": 12.0, "start_source": "nwissite", "start_id": "USGS-02449500", "geometry_length_km": 0.78666381135476471 }, "geometry": { "type": "LineString", "coordinates": [ [ -88.093270801, 32.733693294 ], [ -88.092971407, 32.733672395 ], [ -88.089727603, 32.731431499 ], [ -88.087270007, 32.728867397 ] ] } },
{ "type": "Feature", "properties": { "site_no": "02449500", "nhdplus_comid": "18634104", "navigation_mode": "UM", "requested_distance_km": 12.0, "start_source": "nwissite", "start_id": "USGS-02449500", "geometry_length_km": 5.5336499299291697 }, "geometry": { "type": "LineString", "coordinates": [ [ -88.105177507, 32.777589299 ], [ -88.106425703, 32.775661297 ], [ -88.108834706, 32.772680596 ], [ -88.109808102, 32.770481594 ], [ -88.1099452, 32.769105896 ], [ -88.1095706, 32.768324398 ], [ -88.109433107, 32.766677797 ], [ -88.108883604, 32.764624797 ], [ -88.107110806, 32.761227496 ], [ -88.1065614, 32.759174496 ], [ -88.106473804, 32.757027693 ], [ -88.107022405, 32.751525 ], [ -88.106772803, 32.751003899 ], [ -88.106847607, 32.750253499 ], [ -88.102853604, 32.741916299 ], [ -88.100894503, 32.7388836 ], [ -88.099521905, 32.737528697 ], [ -88.0964275, 32.735298395 ], [ -88.093270801, 32.733693294 ] ] } }
]
}
