{
"type": "FeatureCollection",
"name": "USGS_02364000_UM_12km",
"crs": { "type": "name", "properties": { "name": "urn:ogc:def:crs:OGC:1.3:CRS84" } },
"features": [
{ "type": "Feature", "properties": { "site_no": "02364000", "nhdplus_comid": "2213454", "navigation_mode": "UM", "requested_distance_km": 12.0, "start_source": "nwissite", "start_id": "USGS-02364000", "geometry_length_km": 0.1995908544100152 }, "geometry": { "type": "LineString", "coordinates": [ [ -86.061913505, 31.414947994 ], [ -86.062582001, 31.414100498 ], [ -86.0626892, 31.4137109 ], [ -86.06270222, 31.413338677 ] ] } },
{ "type": "Feature", "properties": { "site_no": "02364000", "nhdplus_comid": "2213440", "navigation_mode": "UM", "requested_distance_km": 12.0, "start_source": "nwissite", "start_id": "USGS-02364000", "geometry_length_km": 2.8664541743467309 }, "geometry": { "type": "LineString", "coordinates": [ [ -86.039567202, 31.423573494 ], [ -86.040075004, 31.423550993 ], [ -86.0422929, 31.423575498 ], [ -86.0437093, 31.423484698 ], [ -86.044831805, 31.423233397 ], [ -86.045205705, 31.423531495 ], [ -86.0458197, 31.424242295 ], [ -86.045953207, 31.424517393 ], [ -86.046407104, 31.424998894 ], [ -86.046754301, 31.425205395 ], [ -86.047529303, 31.425182998 ], [ -86.048037201, 31.424908198 ], [ -86.048518904, 31.424198195 ], [ -86.048893601, 31.423396394 ], [ -86.049883105, 31.422617897 ], [ -86.050417505, 31.4225953 ], [ -86.052074, 31.422871299 ], [ -86.0526352, 31.422871694 ], [ -86.053116404, 31.422688596 ], [ -86.053677805, 31.422345199 ], [ -86.054560706, 31.420970798 ], [ -86.054908901, 31.420031399 ], [ -86.054989405, 31.419504397 ], [ -86.055230401, 31.418862894 ], [ -86.055765502, 31.417877898 ], [ -86.056835301, 31.416572295 ], [ -86.058225602, 31.415496096 ], [ -86.058867, 31.415336095 ], [ -86.060229905, 31.4152909 ], [ -86.061913505, 31.414947994 ] ] } },
{ "type": "Feature", "properties": { "site_no": "02364000", "nhdplus_comid": "2213426", "navigation_mode": "UM", "requested_distance_km": 12.0, "start_source": "nwissite", "start_id": "USGS-02364000", "geometry_length_km": 0.045192279269972165 }, "geometry": { "type": "LineString", "coordinates": [ [ -86.0391929, 31.423825294 ], [ -86.039567202, 31.423573494 ] ] } },
{ "type": "Feature", "properties": { "site_no": "02364000", "nhdplus_comid": "2213422", "navigation_mode": "UM", "requested_distance_km": 12.0, "start_source": "nwissite", "start_id": "USGS-02364000", "geometry_length_km": 0.85108638681555082 }, "geometry": { "type": "LineString", "coordinates": [ [ -86.034351006, 31.428863294 ], [ -86.035340801, 31.427832797 ], [ -86.036117002, 31.426710494 ], [ -86.036438502, 31.425771296 ], [ -86.036412403, 31.425198399 ], [ -86.036225602, 31.424923196 ], [ -86.0362259, 31.424419098 ], [ -86.036787406, 31.424121596 ], [ -86.038284205, 31.424030997 ], [ -86.0391929, 31.423825294 ] ] } },
{ "type": "Feature", "properties": { "site_no": "02364000", "nhdplus_comid": "2213414", "navigation_mode": "UM", "requested_distance_km": 12.0, "start_source": "nwissite", "start_id": "USGS-02364000", "geometry_length_km": 1.4705537593257527 }, "geometry": { "type": "LineString", "coordinates": [ [ -86.021628603, 31.430365697 ], [ -86.022004806, 31.428555697 ], [ -86.022218801, 31.428303793 ], [ -86.023020901, 31.428006597 ], [ -86.026147805, 31.427848794 ], [ -86.028579302, 31.428056896 ], [ -86.030102007, 31.428768396 ], [ -86.030876502, 31.4292273 ], [ -86.031918205, 31.429686293 ], [ -86.032292306, 31.429732494 ], [ -86.032987401, 31.429572597 ], [ -86.034351006, 31.428863294 ] ] } },
{ "type": "Feature", "properties": { "site_no": "02364000", "nhdplus_comid": "2213406", "navigation_mode": "UM", "requested_distance_km": 12.0, "start_source": "nwissite", "start_id": "USGS-02364000", "geometry_length_km": 1.6802543646910197 }, "geometry": { "type": "LineString", "coordinates": [ [ -86.018541306, 31.442439295 ], [ -86.018594906, 31.442301899 ], [ -86.019638002, 31.441684097 ], [ -86.021029301, 31.440401994 ], [ -86.022127107, 31.438546799 ], [ -86.023812801, 31.436921194 ], [ -86.024053901, 31.436371394 ], [ -86.024054401, 31.435936093 ], [ -86.0238408, 31.435706697 ], [ -86.023039401, 31.435431093 ], [ -86.022585407, 31.435132794 ], [ -86.022078507, 31.434353195 ], [ -86.0219189, 31.433619894 ], [ -86.022052906, 31.433322094 ], [ -86.022695102, 31.432543494 ], [ -86.022695601, 31.432085194 ], [ -86.022135101, 31.431488894 ], [ -86.021841601, 31.431053296 ], [ -86.021628603, 31.430365697 ] ] } },
{ "type": "Feature", "properties": { "site_no": "02364000", "nhdplus_comid": "2213396", "navigation_mode": "UM", "requested_distance_km": 12.0, "start_source": "nwissite", "start_id": "USGS-02364000", "geometry_length_km": 3.0012250302434942 }, "geometry": { "type": "LineString", "coordinates": [ [ -85.999944605, 31.437647693 ], [ -86.000854805, 31.436892398 ], [ -86.001416504, 31.436572194 ], [ -86.003100604, 31.436254494 ], [ -86.003662206, 31.436049394 ], [ -86.003956102, 31.436095998 ], [ -86.004062802, 31.436210796 ], [ -86.004009001, 31.436508797 ], [ -86.003580205, 31.437309995 ], [ -86.003312707, 31.4375844 ], [ -86.003205806, 31.437584095 ], [ -86.002831101, 31.437949896 ], [ -86.002669603, 31.438866496 ], [ -86.002668805, 31.439439796 ], [ -86.002775602, 31.439554699 ], [ -86.003123105, 31.439532697 ], [ -86.003471002, 31.439258397 ], [ -86.003739007, 31.438639894 ], [ -86.0043272, 31.438503794 ], [ -86.004834704, 31.438757397 ], [ -86.005102001, 31.438712195 ], [ -86.005343005, 31.438368894 ], [ -86.008926101, 31.436999798 ], [ -86.009487301, 31.437068999 ], [ -86.0097543, 31.437275499 ], [ -86.009913504, 31.438077696 ], [ -86.010153607, 31.438467495 ], [ -86.010767505, 31.439063795 ], [ -86.011328503, 31.439385198 ], [ -86.012343802, 31.439638197 ], [ -86.013039, 31.439432599 ], [ -86.013332903, 31.439478695 ], [ -86.013519906, 31.439593494 ], [ -86.013679907, 31.439822793 ], [ -86.013784006, 31.442137294 ], [ -86.013944, 31.442435294 ], [ -86.013943806, 31.442595698 ], [ -86.014130503, 31.442939498 ], [ -86.014798403, 31.443192199 ], [ -86.0156269, 31.443284698 ], [ -86.016268507, 31.443193495 ], [ -86.017685503, 31.442805298 ], [ -86.018541306, 31.442439295 ] ] } },
{ "type": "Feature", "properties": { "site_no": "02364000", "nhdplus_comid": "2212106", "navigation_mode": "UM", "requested_distance_km": 12.0, "start_source": "nwissite", "start_id": "USGS-02364000", "geometry_length_km": 0.69936277796221935 }, "geometry": { "type": "LineString", "coordinates": [ [ -85.9980186, 31.443140998 ], [ -85.998045206, 31.442957796 ], [ -85.999219805, 31.441949099 ], [ -85.999486707, 31.441605799 ], [ -85.999432705, 31.441171497 ], [ -85.999004103, 31.4404862 ], [ -85.999215804, 31.438747793 ], [ -85.999588802, 31.437877096 ], [ -85.999944605, 31.437647693 ] ] } },
{ "type": "Feature", "properties": { "site_no": "02364000", "nhdplus_comid": "2212104", "navigation_mode": "UM", "requested_distance_km": 12.0, "start_source": "nwissite", "start_id": "USGS-02364000", "geometry_length_km": 1.4432814899185731 }, "geometry": { "type": "LineString", "coordinates": [ [ -85.9885519, 31.4387955 ], [ -85.988633007, 31.439574599 ], [ -85.989141807, 31.440444998 ], [ -85.989650801, 31.441475697 ], [ -85.989999004, 31.442094095 ], [ -85.990186803, 31.442643896 ], [ -85.991257101, 31.443628296 ], [ -85.991845503, 31.443948597 ], [ -85.992006205, 31.444223493 ], [ -85.992140405, 31.444750398 ], [ -85.992300905, 31.444910698 ], [ -85.9930491, 31.444680795 ], [ -85.9933431, 31.444703497 ], [ -85.993877903, 31.4449322 ], [ -85.994252406, 31.445184 ], [ -85.994894005, 31.445229195 ], [ -85.995535202, 31.444999494 ], [ -85.997804701, 31.443141297 ], [ -85.9980186, 31.443140998 ] ] } }
]
}
