{
"type": "FeatureCollection",
"name": "USGS_02403310_UM_12km",
"crs": { "type": "name", "properties": { "name": "urn:ogc:def:crs:OGC:1.3:CRS84" } },
"features": [
{ "type": "Feature", "properties": { "site_no": "02403310", "nhdplus_comid": "22201973", "navigation_mode": "UM", "requested_distance_km": 12.0, "start_source": "nwissite", "start_id": "USGS-02403310", "geometry_length_km": 0.0 }, "geometry": { "type": "Point", "coordinates": [ -85.784688406, 33.602089994 ] } },
{ "type": "Feature", "properties": { "site_no": "02403310", "nhdplus_comid": "22202001", "navigation_mode": "UM", "requested_distance_km": 12.0, "start_source": "nwissite", "start_id": "USGS-02403310", "geometry_length_km": 1.5002923812982851 }, "geometry": { "type": "LineString", "coordinates": [ [ -85.771503404, 33.594703794 ], [ -85.771968402, 33.594910398 ], [ -85.772488005, 33.595323093 ], [ -85.773965806, 33.595530495 ], [ -85.775798805, 33.596264996 ], [ -85.776756406, 33.5965636 ], [ -85.777549803, 33.596930593 ], [ -85.780257307, 33.598971397 ], [ -85.782718502, 33.601172298 ], [ -85.784688406, 33.602089994 ] ] } },
{ "type": "Feature", "properties": { "site_no": "02403310", "nhdplus_comid": "22202011", "navigation_mode": "UM", "requested_distance_km": 12.0, "start_source": "nwissite", "start_id": "USGS-02403310", "geometry_length_km": 1.345294811048438 }, "geometry": { "type": "LineString", "coordinates": [ [ -85.763272405, 33.588786796 ], [ -85.763710305, 33.588810094 ], [ -85.764449, 33.588993996 ], [ -85.7652696, 33.589384198 ], [ -85.766173005, 33.589224599 ], [ -85.7665013, 33.589293599 ], [ -85.766856804, 33.589500099 ], [ -85.767430902, 33.590050295 ], [ -85.767402403, 33.590897799 ], [ -85.767648302, 33.5913103 ], [ -85.767729707, 33.591837198 ], [ -85.767592803, 33.591928698 ], [ -85.767674305, 33.592386894 ], [ -85.767646603, 33.592684694 ], [ -85.767481804, 33.593050994 ], [ -85.767536007, 33.593509197 ], [ -85.767809406, 33.593830094 ], [ -85.7683568, 33.593853496 ], [ -85.769972205, 33.593419798 ], [ -85.770108901, 33.593557298 ], [ -85.770025805, 33.5943131 ], [ -85.770080402, 33.594450593 ], [ -85.770654902, 33.594634295 ], [ -85.771503404, 33.594703794 ] ] } },
{ "type": "Feature", "properties": { "site_no": "02403310", "nhdplus_comid": "22202313", "navigation_mode": "UM", "requested_distance_km": 12.0, "start_source": "nwissite", "start_id": "USGS-02403310", "geometry_length_km": 3.6025139440582263 }, "geometry": { "type": "LineString", "coordinates": [ [ -85.740969606, 33.6040003 ], [ -85.7416263, 33.603793494 ], [ -85.743596904, 33.603516795 ], [ -85.745539404, 33.602758996 ], [ -85.745840207, 33.602529794 ], [ -85.748631105, 33.601633698 ], [ -85.749944806, 33.601517893 ], [ -85.750390306, 33.601555899 ], [ -85.750773206, 33.601716496 ], [ -85.750799805, 33.602266394 ], [ -85.751073003, 33.602587193 ], [ -85.751401603, 33.602564596 ], [ -85.752909005, 33.601237699 ], [ -85.754004702, 33.600688994 ], [ -85.755238406, 33.5993388 ], [ -85.756197706, 33.598515093 ], [ -85.756690703, 33.598263696 ], [ -85.757183507, 33.598195396 ], [ -85.757484205, 33.598401897 ], [ -85.757483907, 33.598699696 ], [ -85.756880604, 33.599454999 ], [ -85.756962501, 33.599661194 ], [ -85.757181205, 33.599867493 ], [ -85.757454805, 33.599890798 ], [ -85.757838205, 33.599799499 ], [ -85.760988005, 33.598336399 ], [ -85.761864901, 33.597604297 ], [ -85.762169205, 33.5951536 ], [ -85.762251407, 33.595039196 ], [ -85.762226403, 33.593298294 ], [ -85.762858205, 33.591603793 ], [ -85.762450002, 33.589770995 ], [ -85.7624778, 33.5894503 ], [ -85.763272405, 33.588786796 ] ] } },
{ "type": "Feature", "properties": { "site_no": "02403310", "nhdplus_comid": "22201955", "navigation_mode": "UM", "requested_distance_km": 12.0, "start_source": "nwissite", "start_id": "USGS-02403310", "geometry_length_km": 2.6866261082469207 }, "geometry": { "type": "LineString", "coordinates": [ [ -85.7287172, 33.613585398 ], [ -85.729538001, 33.613012098 ], [ -85.731398702, 33.6123235 ], [ -85.732356802, 33.612253897 ], [ -85.7344651, 33.612549894 ], [ -85.735506102, 33.613098599 ], [ -85.735972404, 33.613854095 ], [ -85.736629702, 33.614014 ], [ -85.736957803, 33.613624297 ], [ -85.7364088, 33.612502396 ], [ -85.736408405, 33.612181693 ], [ -85.736545101, 33.611998297 ], [ -85.7370103, 33.611883298 ], [ -85.737229407, 33.611951895 ], [ -85.737394005, 33.612203695 ], [ -85.737476707, 33.612684697 ], [ -85.737969607, 33.612752996 ], [ -85.738762707, 33.612133794 ], [ -85.739200607, 33.612018898 ], [ -85.739830703, 33.612361893 ], [ -85.739994906, 33.612361699 ], [ -85.740186304, 33.612178296 ], [ -85.740213104, 33.611697294 ], [ -85.739774503, 33.611308299 ], [ -85.739801601, 33.611033395 ], [ -85.740266606, 33.610735193 ], [ -85.741279602, 33.610802993 ], [ -85.741580702, 33.610711098 ], [ -85.741552904, 33.610413298 ], [ -85.740374304, 33.609383695 ], [ -85.740374103, 33.609200396 ], [ -85.740072407, 33.608696796 ], [ -85.739879802, 33.607963994 ], [ -85.740316302, 33.606772497 ], [ -85.740315601, 33.606199794 ], [ -85.740233205, 33.606016695 ], [ -85.740342006, 33.605443895 ], [ -85.740969606, 33.6040003 ] ] } },
{ "type": "Feature", "properties": { "site_no": "02403310", "nhdplus_comid": "22201933", "navigation_mode": "UM", "requested_distance_km": 12.0, "start_source": "nwissite", "start_id": "USGS-02403310", "geometry_length_km": 0.58379724598644911 }, "geometry": { "type": "LineString", "coordinates": [ [ -85.725217901, 33.617894493 ], [ -85.725545906, 33.617504798 ], [ -85.725928403, 33.616725795 ], [ -85.726229206, 33.616450593 ], [ -85.7263657, 33.616175599 ], [ -85.727076903, 33.615556598 ], [ -85.7287172, 33.613585398 ] ] } },
{ "type": "Feature", "properties": { "site_no": "02403310", "nhdplus_comid": "22201927", "navigation_mode": "UM", "requested_distance_km": 12.0, "start_source": "nwissite", "start_id": "USGS-02403310", "geometry_length_km": 2.188674778494351 }, "geometry": { "type": "LineString", "coordinates": [ [ -85.717866004, 33.630337797 ], [ -85.718577802, 33.630199797 ], [ -85.7192626, 33.630497098 ], [ -85.719810307, 33.630565397 ], [ -85.7205493, 33.630244195 ], [ -85.720631704, 33.630404398 ], [ -85.720987603, 33.630472898 ], [ -85.722574905, 33.629669994 ], [ -85.723561101, 33.630035795 ], [ -85.7237802, 33.630035594 ], [ -85.724163204, 33.629737496 ], [ -85.724436402, 33.629164696 ], [ -85.724517703, 33.628431596 ], [ -85.724242903, 33.627561495 ], [ -85.724242203, 33.626874298 ], [ -85.724597201, 33.626072399 ], [ -85.724815205, 33.625110194 ], [ -85.725033805, 33.624697596 ], [ -85.725362301, 33.624605797 ], [ -85.7257457, 33.624743 ], [ -85.726019502, 33.624674 ], [ -85.726265505, 33.6243302 ], [ -85.726346903, 33.623597197 ], [ -85.7260454, 33.623322494 ], [ -85.725552306, 33.623139694 ], [ -85.725333005, 33.622887895 ], [ -85.725332707, 33.622612998 ], [ -85.724537805, 33.621766098 ], [ -85.724344403, 33.620208696 ], [ -85.724535301, 33.619498499 ], [ -85.725217901, 33.617894493 ] ] } }
]
}
