{
"type": "FeatureCollection",
"name": "USGS_02374970_DM_12km",
"crs": { "type": "name", "properties": { "name": "urn:ogc:def:crs:OGC:1.3:CRS84" } },
"features": [
{ "type": "Feature", "properties": { "site_no": "02374970", "nhdplus_comid": "445908", "navigation_mode": "DM", "requested_distance_km": 12.0, "start_source": "nwissite", "start_id": "USGS-02374970", "geometry_length_km": 1.2629754497823145 }, "geometry": { "type": "LineString", "coordinates": [ [ -87.391904858, 31.09938579 ], [ -87.391864702, 31.099385798 ], [ -87.3908526, 31.099225394 ], [ -87.389307804, 31.099225596 ], [ -87.388322301, 31.098996595 ], [ -87.387203604, 31.098354995 ], [ -87.386218101, 31.097942494 ], [ -87.382089704, 31.097301096 ], [ -87.381184205, 31.096774094 ], [ -87.380571604, 31.096613698 ], [ -87.3796129, 31.0959033 ] ] } },
{ "type": "Feature", "properties": { "site_no": "02374970", "nhdplus_comid": "445916", "navigation_mode": "DM", "requested_distance_km": 12.0, "start_source": "nwissite", "start_id": "USGS-02374970", "geometry_length_km": 2.0578960950572154 }, "geometry": { "type": "LineString", "coordinates": [ [ -87.3796129, 31.0959033 ], [ -87.3788938, 31.0959033 ], [ -87.377988301, 31.0965451 ], [ -87.377056107, 31.096911795 ], [ -87.376417004, 31.0968659 ], [ -87.376044005, 31.096613795 ], [ -87.374739006, 31.096590899 ], [ -87.374632604, 31.096499294 ], [ -87.374179706, 31.0964076 ], [ -87.373274103, 31.096590996 ], [ -87.372555107, 31.096338898 ], [ -87.372288801, 31.096315898 ], [ -87.371409804, 31.096774295 ], [ -87.370957106, 31.096843094 ], [ -87.370610803, 31.096774198 ], [ -87.369811803, 31.096774295 ], [ -87.3691727, 31.096934594 ], [ -87.368640102, 31.096797094 ], [ -87.367734507, 31.096705399 ], [ -87.367042102, 31.0963616 ], [ -87.366695903, 31.096338697 ], [ -87.365390904, 31.096636496 ], [ -87.364565104, 31.096246794 ], [ -87.364458606, 31.096063495 ], [ -87.364112407, 31.095857099 ], [ -87.361848906, 31.093885995 ], [ -87.361076601, 31.093450494 ], [ -87.360437401, 31.093289994 ] ] } },
{ "type": "Feature", "properties": { "site_no": "02374970", "nhdplus_comid": "445928", "navigation_mode": "DM", "requested_distance_km": 12.0, "start_source": "nwissite", "start_id": "USGS-02374970", "geometry_length_km": 1.4219365002991355 }, "geometry": { "type": "LineString", "coordinates": [ [ -87.360437401, 31.093289994 ], [ -87.360437401, 31.092946194 ], [ -87.360171206, 31.0923732 ], [ -87.359878302, 31.092121094 ], [ -87.359265804, 31.092006497 ], [ -87.358546905, 31.091456294 ], [ -87.358120807, 31.090906195 ], [ -87.357322, 31.090241499 ], [ -87.357029006, 31.090126894 ], [ -87.356656201, 31.089691393 ], [ -87.356310107, 31.089095399 ], [ -87.356363401, 31.088728793 ], [ -87.356709704, 31.088430896 ], [ -87.357269004, 31.088316396 ], [ -87.357615106, 31.088476799 ], [ -87.357934706, 31.088774793 ], [ -87.358254202, 31.088820599 ], [ -87.358493805, 31.088728994 ], [ -87.358627006, 31.088568598 ], [ -87.358920105, 31.087743595 ], [ -87.358574003, 31.087399796 ], [ -87.358014807, 31.087239295 ], [ -87.356630005, 31.087514095 ], [ -87.356443502, 31.0872849 ], [ -87.3560443, 31.086368099 ] ] } },
{ "type": "Feature", "properties": { "site_no": "02374970", "nhdplus_comid": "445962", "navigation_mode": "DM", "requested_distance_km": 12.0, "start_source": "nwissite", "start_id": "USGS-02374970", "geometry_length_km": 1.6889230852622235 }, "geometry": { "type": "LineString", "coordinates": [ [ -87.3560443, 31.086368099 ], [ -87.355139002, 31.085863695 ], [ -87.354766101, 31.085817799 ], [ -87.354366705, 31.085565798 ], [ -87.353780903, 31.084878199 ], [ -87.353062101, 31.084213495 ], [ -87.352742605, 31.084052898 ], [ -87.351677604, 31.083090194 ], [ -87.351624504, 31.082837999 ], [ -87.351917505, 31.082081795 ], [ -87.351837702, 31.081439994 ], [ -87.349920802, 31.079743795 ], [ -87.349361904, 31.078643598 ], [ -87.348643206, 31.077795498 ], [ -87.3477915, 31.076282598 ], [ -87.347711705, 31.075938895 ], [ -87.347445503, 31.075594999 ], [ -87.347285904, 31.0750679 ], [ -87.346939906, 31.074586496 ], [ -87.346939906, 31.074448995 ], [ -87.346806802, 31.074403197 ] ] } },
{ "type": "Feature", "properties": { "site_no": "02374970", "nhdplus_comid": "445966", "navigation_mode": "DM", "requested_distance_km": 12.0, "start_source": "nwissite", "start_id": "USGS-02374970", "geometry_length_km": 0.9335739537296347 }, "geometry": { "type": "LineString", "coordinates": [ [ -87.346806802, 31.074403197 ], [ -87.346700504, 31.073852994 ], [ -87.345449403, 31.072019294 ], [ -87.345050305, 31.070964999 ], [ -87.343692705, 31.070391797 ], [ -87.342441306, 31.070231095 ], [ -87.341802306, 31.070001699 ], [ -87.341403, 31.069657795 ], [ -87.341403104, 31.069543198 ], [ -87.341323204, 31.069520399 ], [ -87.340977401, 31.068603493 ] ] } },
{ "type": "Feature", "properties": { "site_no": "02374970", "nhdplus_comid": "445974", "navigation_mode": "DM", "requested_distance_km": 12.0, "start_source": "nwissite", "start_id": "USGS-02374970", "geometry_length_km": 0.60555757021948409 }, "geometry": { "type": "LineString", "coordinates": [ [ -87.340977401, 31.068603493 ], [ -87.340844505, 31.0678242 ], [ -87.340206005, 31.0664948 ], [ -87.339860007, 31.066196799 ], [ -87.339540504, 31.066104993 ], [ -87.339327507, 31.065852895 ], [ -87.339701004, 31.063675694 ] ] } },
{ "type": "Feature", "properties": { "site_no": "02374970", "nhdplus_comid": "446442", "navigation_mode": "DM", "requested_distance_km": 12.0, "start_source": "nwissite", "start_id": "USGS-02374970", "geometry_length_km": 0.023074460362937893 }, "geometry": { "type": "LineString", "coordinates": [ [ -87.339701004, 31.063675694 ], [ -87.339727804, 31.063469499 ] ] } },
{ "type": "Feature", "properties": { "site_no": "02374970", "nhdplus_comid": "446444", "navigation_mode": "DM", "requested_distance_km": 12.0, "start_source": "nwissite", "start_id": "USGS-02374970", "geometry_length_km": 0.023507563024943615 }, "geometry": { "type": "LineString", "coordinates": [ [ -87.339727804, 31.063469499 ], [ -87.339781001, 31.063263096 ] ] } },
{ "type": "Feature", "properties": { "site_no": "02374970", "nhdplus_comid": "445988", "navigation_mode": "DM", "requested_distance_km": 12.0, "start_source": "nwissite", "start_id": "USGS-02374970", "geometry_length_km": 0.60882419919849651 }, "geometry": { "type": "LineString", "coordinates": [ [ -87.339781001, 31.063263096 ], [ -87.339807801, 31.063033998 ], [ -87.339621603, 31.062529698 ], [ -87.338370606, 31.061704293 ], [ -87.338104501, 31.061383396 ], [ -87.336587302, 31.060214095 ], [ -87.336348005, 31.059618197 ], [ -87.336108401, 31.059365995 ], [ -87.336002007, 31.059113897 ] ] } },
{ "type": "Feature", "properties": { "site_no": "02374970", "nhdplus_comid": "446010", "navigation_mode": "DM", "requested_distance_km": 12.0, "start_source": "nwissite", "start_id": "USGS-02374970", "geometry_length_km": 2.1017559102987131 }, "geometry": { "type": "LineString", "coordinates": [ [ -87.336002007, 31.059113897 ], [ -87.335895501, 31.059113793 ], [ -87.335203901, 31.0578302 ], [ -87.335151106, 31.056569695 ], [ -87.334938206, 31.056203 ], [ -87.334139802, 31.055560999 ], [ -87.333687603, 31.0549879 ], [ -87.333421506, 31.054437794 ], [ -87.333129205, 31.053314693 ], [ -87.3328631, 31.053016596 ], [ -87.332384102, 31.0528102 ], [ -87.3319581, 31.052855894 ], [ -87.331425503, 31.053153694 ], [ -87.330466703, 31.054115899 ], [ -87.329774603, 31.054230295 ], [ -87.328763105, 31.053863198 ], [ -87.328337304, 31.053519294 ], [ -87.328337505, 31.053198397 ], [ -87.329243004, 31.052236199 ], [ -87.329323001, 31.051938295 ], [ -87.329243205, 31.051686198 ], [ -87.329083607, 31.0515486 ], [ -87.328577802, 31.051387899 ], [ -87.327992201, 31.051456496 ], [ -87.327912301, 31.051387697 ], [ -87.326794401, 31.051272698 ], [ -87.3252507, 31.050515793 ], [ -87.324612103, 31.049942598 ], [ -87.324293002, 31.049369499 ] ] } },
{ "type": "Feature", "properties": { "site_no": "02374970", "nhdplus_comid": "446014", "navigation_mode": "DM", "requested_distance_km": 12.0, "start_source": "nwissite", "start_id": "USGS-02374970", "geometry_length_km": 0.33555269408230159 }, "geometry": { "type": "LineString", "coordinates": [ [ -87.324293002, 31.049369499 ], [ -87.3238407, 31.048796393 ], [ -87.323361702, 31.048544094 ], [ -87.322829403, 31.048429295 ], [ -87.321578205, 31.048451699 ], [ -87.321232304, 31.048382796 ] ] } },
{ "type": "Feature", "properties": { "site_no": "02374970", "nhdplus_comid": "446020", "navigation_mode": "DM", "requested_distance_km": 12.0, "start_source": "nwissite", "start_id": "USGS-02374970", "geometry_length_km": 0.92678039392536238 }, "geometry": { "type": "LineString", "coordinates": [ [ -87.321232304, 31.048382796 ], [ -87.320593506, 31.048222199 ], [ -87.318330906, 31.047877394 ], [ -87.317612402, 31.047510393 ], [ -87.316149004, 31.046363793 ], [ -87.314791806, 31.045950599 ], [ -87.314312704, 31.045721196 ], [ -87.3140468, 31.045102298 ], [ -87.313701004, 31.044620797 ], [ -87.313275404, 31.044345595 ] ] } }
]
}
