{
"type": "FeatureCollection",
"name": "USGS_02402500_DM_12km",
"crs": { "type": "name", "properties": { "name": "urn:ogc:def:crs:OGC:1.3:CRS84" } },
"features": [
{ "type": "Feature", "properties": { "site_no": "02402500", "nhdplus_comid": "26132727", "navigation_mode": "DM", "requested_distance_km": 12.0, "start_source": "nwissite", "start_id": "USGS-02402500", "geometry_length_km": 1.7647835398487 }, "geometry": { "type": "LineString", "coordinates": [ [ -86.199243492, 33.605785686 ], [ -86.198574401, 33.605027094 ], [ -86.193931006, 33.602065399 ], [ -86.187338606, 33.599416599 ], [ -86.185017101, 33.597935498 ], [ -86.184056304, 33.596626393 ], [ -86.184056506, 33.596609496 ] ] } },
{ "type": "Feature", "properties": { "site_no": "02402500", "nhdplus_comid": "26132733", "navigation_mode": "DM", "requested_distance_km": 12.0, "start_source": "nwissite", "start_id": "USGS-02402500", "geometry_length_km": 4.3381315929404121 }, "geometry": { "type": "LineString", "coordinates": [ [ -86.184056506, 33.596609496 ], [ -86.184073202, 33.594834998 ], [ -86.1852623, 33.592562795 ], [ -86.186633505, 33.591594696 ], [ -86.1891708, 33.590797 ], [ -86.194222502, 33.591644399 ], [ -86.199464306, 33.592981197 ], [ -86.212097906, 33.594690897 ], [ -86.215412006, 33.5940606 ], [ -86.217761807, 33.592446797 ], [ -86.219723806, 33.590667799 ], [ -86.221505903, 33.587258898 ], [ -86.221480906, 33.587196499 ] ] } },
{ "type": "Feature", "properties": { "site_no": "02402500", "nhdplus_comid": "26132735", "navigation_mode": "DM", "requested_distance_km": 12.0, "start_source": "nwissite", "start_id": "USGS-02402500", "geometry_length_km": 1.8150346548853491 }, "geometry": { "type": "LineString", "coordinates": [ [ -86.221480906, 33.587196499 ], [ -86.219032004, 33.581054598 ], [ -86.213631503, 33.575808898 ], [ -86.2117237, 33.573373497 ] ] } },
{ "type": "Feature", "properties": { "site_no": "02402500", "nhdplus_comid": "26132737", "navigation_mode": "DM", "requested_distance_km": 12.0, "start_source": "nwissite", "start_id": "USGS-02402500", "geometry_length_km": 1.2831006790858446 }, "geometry": { "type": "LineString", "coordinates": [ [ -86.2117237, 33.573373497 ], [ -86.211708203, 33.573353797 ], [ -86.211348705, 33.570094198 ], [ -86.212548502, 33.566518895 ], [ -86.211243607, 33.562169194 ] ] } }
]
}
