{
"type": "FeatureCollection",
"name": "USGS_02369800_DM_12km",
"crs": { "type": "name", "properties": { "name": "urn:ogc:def:crs:OGC:1.3:CRS84" } },
"features": [
{ "type": "Feature", "properties": { "site_no": "02369800", "nhdplus_comid": "789206", "navigation_mode": "DM", "requested_distance_km": 12.0, "start_source": "nwissite", "start_id": "USGS-02369800", "geometry_length_km": 2.6634780553932411 }, "geometry": { "type": "LineString", "coordinates": [ [ -86.709772612, 31.027645963 ], [ -86.709241003, 31.027143098 ], [ -86.709240802, 31.026890993 ], [ -86.710145302, 31.026500799 ], [ -86.710358001, 31.026156895 ], [ -86.710357703, 31.025835998 ], [ -86.709691703, 31.025217697 ], [ -86.709691502, 31.024942599 ], [ -86.709797807, 31.024690397 ], [ -86.709691003, 31.024392597 ], [ -86.709477805, 31.024186395 ], [ -86.709370807, 31.023544796 ], [ -86.709184401, 31.023384497 ], [ -86.709369503, 31.022009194 ], [ -86.709635206, 31.021573596 ], [ -86.709448606, 31.021184094 ], [ -86.709448405, 31.020886093 ], [ -86.7098471, 31.0204046 ], [ -86.709846705, 31.0200838 ], [ -86.709686801, 31.019854695 ], [ -86.7096598, 31.019373395 ], [ -86.709818602, 31.018525198 ], [ -86.710323006, 31.017081 ], [ -86.710801207, 31.016278595 ], [ -86.710800603, 31.015636899 ], [ -86.710640803, 31.015407793 ], [ -86.710533701, 31.014720298 ], [ -86.710798502, 31.0132991 ], [ -86.710612006, 31.013092995 ], [ -86.7104524, 31.013047196 ], [ -86.710558102, 31.012222096 ], [ -86.711329602, 31.012061194 ], [ -86.711702004, 31.011900499 ], [ -86.712047607, 31.011556499 ], [ -86.712445803, 31.010708198 ], [ -86.712605305, 31.010524794 ], [ -86.712950401, 31.009561896 ], [ -86.713481806, 31.0087137 ], [ -86.713880703, 31.0084842 ], [ -86.714253202, 31.0084152 ], [ -86.714652106, 31.0081857 ], [ -86.714731805, 31.008048199 ], [ -86.714704506, 31.007383496 ], [ -86.714864001, 31.007199995 ] ] } },
{ "type": "Feature", "properties": { "site_no": "02369800", "nhdplus_comid": "788956", "navigation_mode": "DM", "requested_distance_km": 12.0, "start_source": "nwissite", "start_id": "USGS-02369800", "geometry_length_km": 0.035675788978661867 }, "geometry": { "type": "LineString", "coordinates": [ [ -86.714864001, 31.007199995 ], [ -86.714863703, 31.006879196 ] ] } },
{ "type": "Feature", "properties": { "site_no": "02369800", "nhdplus_comid": "789212", "navigation_mode": "DM", "requested_distance_km": 12.0, "start_source": "nwissite", "start_id": "USGS-02369800", "geometry_length_km": 0.8564470860674761 }, "geometry": { "type": "LineString", "coordinates": [ [ -86.714863703, 31.006879196 ], [ -86.714171402, 31.006398395 ], [ -86.714091204, 31.006100498 ], [ -86.714436606, 31.005595997 ], [ -86.7146229, 31.005550094 ], [ -86.715021305, 31.004839294 ], [ -86.715872206, 31.004288696 ], [ -86.715872101, 31.0041283 ], [ -86.715951905, 31.0040823 ], [ -86.716058001, 31.003715597 ], [ -86.716004103, 31.003050998 ], [ -86.716136903, 31.002775796 ], [ -86.716189906, 31.002523698 ], [ -86.716108702, 31.001263194 ], [ -86.716214404, 31.000460997 ], [ -86.716264702, 31.000194699 ] ] } },
{ "type": "Feature", "properties": { "site_no": "02369800", "nhdplus_comid": "790978", "navigation_mode": "DM", "requested_distance_km": 12.0, "start_source": "nwissite", "start_id": "USGS-02369800", "geometry_length_km": 2.1220796425893438 }, "geometry": { "type": "LineString", "coordinates": [ [ -86.716264702, 31.000194699 ], [ -86.716476604, 30.999299094 ], [ -86.716263503, 30.999024197 ], [ -86.716316104, 30.998313695 ], [ -86.7165021, 30.997992694 ], [ -86.717353404, 30.9979463 ], [ -86.717698701, 30.997510597 ], [ -86.717830904, 30.996501997 ], [ -86.718229406, 30.995974697 ], [ -86.718122505, 30.995630898 ], [ -86.718388401, 30.995378695 ], [ -86.718494602, 30.995103493 ], [ -86.718201704, 30.994828798 ], [ -86.718227006, 30.993659899 ], [ -86.718439803, 30.993567996 ], [ -86.718839407, 30.9941407 ], [ -86.7189724, 30.9941177 ], [ -86.7189987, 30.993819699 ], [ -86.718891904, 30.993498899 ], [ -86.7191047, 30.993292496 ], [ -86.719077304, 30.992719598 ], [ -86.719449103, 30.992077596 ], [ -86.719528407, 30.991573296 ], [ -86.719368502, 30.9912754 ], [ -86.720165603, 30.990403995 ], [ -86.720749505, 30.989051297 ], [ -86.721998602, 30.987721093 ], [ -86.722131103, 30.987331398 ], [ -86.722449906, 30.986941598 ], [ -86.7225025, 30.986322694 ], [ -86.722662002, 30.986162193 ], [ -86.723326802, 30.985886693 ], [ -86.723699003, 30.985611394 ], [ -86.723831601, 30.985336199 ] ] } },
{ "type": "Feature", "properties": { "site_no": "02369800", "nhdplus_comid": "791014", "navigation_mode": "DM", "requested_distance_km": 12.0, "start_source": "nwissite", "start_id": "USGS-02369800", "geometry_length_km": 1.5571410067412808 }, "geometry": { "type": "LineString", "coordinates": [ [ -86.723831601, 30.985336199 ], [ -86.7237515, 30.984992497 ], [ -86.723937504, 30.984786093 ], [ -86.724788301, 30.984349996 ], [ -86.725027405, 30.984097697 ], [ -86.725160204, 30.983776696 ], [ -86.724973701, 30.983478896 ], [ -86.725558206, 30.982813895 ], [ -86.725743905, 30.982240796 ], [ -86.726727806, 30.981964894 ], [ -86.727046706, 30.981689699 ], [ -86.727578506, 30.981460094 ], [ -86.727498204, 30.980978899 ], [ -86.728269301, 30.980726093 ], [ -86.7282691, 30.980405293 ], [ -86.7274964, 30.979282893 ], [ -86.727974601, 30.978686497 ], [ -86.7287191, 30.978342295 ], [ -86.728612103, 30.977769293 ], [ -86.728718102, 30.977517195 ], [ -86.728823304, 30.976325199 ], [ -86.728424303, 30.976256795 ], [ -86.728397503, 30.976073496 ], [ -86.729114302, 30.974720694 ] ] } },
{ "type": "Feature", "properties": { "site_no": "02369800", "nhdplus_comid": "791084", "navigation_mode": "DM", "requested_distance_km": 12.0, "start_source": "nwissite", "start_id": "USGS-02369800", "geometry_length_km": 2.0826467535762814 }, "geometry": { "type": "LineString", "coordinates": [ [ -86.729114302, 30.974720694 ], [ -86.729965001, 30.974353395 ], [ -86.730257303, 30.974078 ], [ -86.730974302, 30.9729774 ], [ -86.732011102, 30.972495198 ], [ -86.732090704, 30.972357698 ], [ -86.732008703, 30.970340796 ], [ -86.732912205, 30.969560899 ], [ -86.732990801, 30.968483597 ], [ -86.733256407, 30.968093798 ], [ -86.733788103, 30.967887096 ], [ -86.733841106, 30.967749499 ], [ -86.733149402, 30.967543796 ], [ -86.732829906, 30.967200294 ], [ -86.732377507, 30.967040293 ], [ -86.732031502, 30.966742598 ], [ -86.731818207, 30.966284394 ], [ -86.731737405, 30.965459295 ], [ -86.731497802, 30.965184495 ], [ -86.731444307, 30.964909598 ], [ -86.731577002, 30.964680195 ], [ -86.731603101, 30.964198895 ], [ -86.7312572, 30.9640617 ], [ -86.731070802, 30.963832594 ], [ -86.731016405, 30.962755494 ], [ -86.730085202, 30.962389499 ], [ -86.729952104, 30.962206297 ], [ -86.729871802, 30.961839698 ], [ -86.729525506, 30.961266994 ], [ -86.729365006, 30.960419096 ], [ -86.728912406, 30.959983796 ] ] } },
{ "type": "Feature", "properties": { "site_no": "02369800", "nhdplus_comid": "791102", "navigation_mode": "DM", "requested_distance_km": 12.0, "start_source": "nwissite", "start_id": "USGS-02369800", "geometry_length_km": 0.28155627520847515 }, "geometry": { "type": "LineString", "coordinates": [ [ -86.728912406, 30.959983796 ], [ -86.728433207, 30.959434196 ], [ -86.728325807, 30.958517499 ], [ -86.728192702, 30.9583802 ], [ -86.727926001, 30.957669795 ] ] } },
{ "type": "Feature", "properties": { "site_no": "02369800", "nhdplus_comid": "791162", "navigation_mode": "DM", "requested_distance_km": 12.0, "start_source": "nwissite", "start_id": "USGS-02369800", "geometry_length_km": 3.0214293931531868 }, "geometry": { "type": "LineString", "coordinates": [ [ -86.727926001, 30.957669795 ], [ -86.7280588, 30.957532197 ], [ -86.728297204, 30.956569396 ], [ -86.728589207, 30.956064999 ], [ -86.7285887, 30.955583699 ], [ -86.727870405, 30.955377996 ], [ -86.727364801, 30.955034599 ], [ -86.727231205, 30.954553396 ], [ -86.7274426, 30.953200996 ], [ -86.727467604, 30.951688297 ], [ -86.727254502, 30.951436393 ], [ -86.727254301, 30.951184295 ], [ -86.727360606, 30.951069593 ], [ -86.728690006, 30.950908199 ], [ -86.728902601, 30.950816296 ], [ -86.729460403, 30.950196996 ], [ -86.729673006, 30.950059295 ], [ -86.730284803, 30.950219296 ], [ -86.730497405, 30.950058699 ], [ -86.7304966, 30.949393995 ], [ -86.7307624, 30.949210398 ], [ -86.730947904, 30.948637299 ], [ -86.731187105, 30.948545493 ], [ -86.732197806, 30.948728099 ], [ -86.732410304, 30.948521599 ], [ -86.732409, 30.947398596 ], [ -86.732541606, 30.947008796 ], [ -86.733126104, 30.946458295 ], [ -86.733311802, 30.946091399 ], [ -86.733816601, 30.945678495 ], [ -86.733842507, 30.945128396 ], [ -86.734108001, 30.944807298 ], [ -86.734107703, 30.944486499 ], [ -86.733495601, 30.944051497 ], [ -86.733442202, 30.943822294 ], [ -86.733947307, 30.943684399 ], [ -86.7341322, 30.942561194 ], [ -86.734716907, 30.942285694 ], [ -86.7347432, 30.942079395 ], [ -86.734423906, 30.941942096 ], [ -86.733334005, 30.942195095 ], [ -86.733254202, 30.942126498 ], [ -86.733200707, 30.941805698 ], [ -86.733120807, 30.941736899 ], [ -86.733066507, 30.940728597 ], [ -86.733491406, 30.940178096 ], [ -86.733544104, 30.939811394 ], [ -86.733091801, 30.939605497 ], [ -86.732878901, 30.939376496 ], [ -86.732958503, 30.939284697 ], [ -86.733437002, 30.939123899 ], [ -86.734048106, 30.938733697 ] ] } }
]
}
