{
"type": "FeatureCollection",
"name": "USGS_02460500_UM_12km",
"crs": { "type": "name", "properties": { "name": "urn:ogc:def:crs:OGC:1.3:CRS84" } },
"features": [
{ "type": "Feature", "properties": { "site_no": "02460500", "nhdplus_comid": "18567389", "navigation_mode": "UM", "requested_distance_km": 12.0, "start_source": "nwissite", "start_id": "USGS-02460500", "geometry_length_km": 12.914281686430911 }, "geometry": { "type": "LineString", "coordinates": [ [ -87.002067506, 33.566574097 ], [ -87.003572904, 33.566346593 ], [ -87.004941903, 33.565866798 ], [ -87.005844802, 33.566005096 ], [ -87.006200001, 33.566349097 ], [ -87.006336302, 33.566761695 ], [ -87.006335601, 33.567311496 ], [ -87.005567007, 33.569097698 ], [ -87.005072504, 33.570426099 ], [ -87.005071804, 33.570952997 ], [ -87.0053178, 33.5711594 ], [ -87.006111301, 33.5713434 ], [ -87.0069324, 33.571275599 ], [ -87.0077537, 33.571047194 ], [ -87.008219503, 33.570658199 ], [ -87.009343706, 33.569101296 ], [ -87.009920105, 33.567704394 ], [ -87.010005005, 33.565527998 ], [ -87.010334, 33.565138794 ], [ -87.010936603, 33.564749897 ], [ -87.0119223, 33.564292595 ], [ -87.012278207, 33.564201295 ], [ -87.012880102, 33.564247698 ], [ -87.013536602, 33.564546198 ], [ -87.013891906, 33.564912997 ], [ -87.014055602, 33.565233894 ], [ -87.0141095, 33.565898396 ], [ -87.013889804, 33.566562496 ], [ -87.0128754, 33.567936197 ], [ -87.011888802, 33.5690808 ], [ -87.009996705, 33.571897097 ], [ -87.009585001, 33.572790094 ], [ -87.009584107, 33.573454499 ], [ -87.010021403, 33.573958896 ], [ -87.011745207, 33.574212499 ], [ -87.014755502, 33.574467398 ], [ -87.016971901, 33.574904598 ], [ -87.018093504, 33.575409494 ], [ -87.0186949, 33.575868398 ], [ -87.020088404, 33.577885598 ], [ -87.0200883, 33.578023098 ], [ -87.020224802, 33.578229293 ], [ -87.020224206, 33.578824997 ], [ -87.019977503, 33.579145595 ], [ -87.019512005, 33.579282597 ], [ -87.017842405, 33.579349898 ], [ -87.016774602, 33.579555199 ], [ -87.016363703, 33.579852596 ], [ -87.016472802, 33.580196299 ], [ -87.016882904, 33.580517493 ], [ -87.018770404, 33.581412695 ], [ -87.020083703, 33.581871994 ], [ -87.020275101, 33.582032494 ], [ -87.020165101, 33.582490593 ], [ -87.019781105, 33.583131693 ], [ -87.018053904, 33.5854671 ], [ -87.017861806, 33.585879393 ], [ -87.017861404, 33.586200096 ], [ -87.017997906, 33.586429298 ], [ -87.018490404, 33.586704597 ], [ -87.018873505, 33.586796597 ], [ -87.019284301, 33.5866137 ], [ -87.020573005, 33.584690295 ], [ -87.020874403, 33.584415697 ], [ -87.0213947, 33.584187098 ], [ -87.022462204, 33.584256597 ], [ -87.0231461, 33.584623799 ], [ -87.023474105, 33.584990598 ], [ -87.023473404, 33.585586295 ], [ -87.023281202, 33.5860672 ], [ -87.021937706, 33.588150993 ], [ -87.020347506, 33.590211496 ], [ -87.019634806, 33.591058597 ], [ -87.019552305, 33.591333397 ], [ -87.019661501, 33.591562599 ], [ -87.020044506, 33.591814995 ], [ -87.020564705, 33.591746598 ], [ -87.021277204, 33.591014095 ], [ -87.022263601, 33.590258896 ], [ -87.023249701, 33.589709893 ], [ -87.024783202, 33.589230098 ], [ -87.025851004, 33.5890247 ], [ -87.027493604, 33.588842899 ], [ -87.028615907, 33.588889495 ], [ -87.029491507, 33.589073494 ], [ -87.029655702, 33.5891653 ], [ -87.029737607, 33.589394398 ], [ -87.029436007, 33.589943998 ], [ -87.028449304, 33.590951294 ], [ -87.027818501, 33.592073299 ], [ -87.027763307, 33.592439897 ], [ -87.028064102, 33.592760794 ], [ -87.0278989, 33.593585499 ], [ -87.026856802, 33.595325895 ], [ -87.025842801, 33.5962644 ], [ -87.025185406, 33.596630298 ], [ -87.024528302, 33.5967215 ], [ -87.023597702, 33.596583195 ], [ -87.023132205, 33.596651599 ], [ -87.022775903, 33.596971996 ], [ -87.0233225, 33.5977972 ], [ -87.023678005, 33.598095298 ], [ -87.025018506, 33.598898195 ], [ -87.025346704, 33.599242195 ], [ -87.025537804, 33.599631794 ], [ -87.0255372, 33.600181699 ], [ -87.024631105, 33.602586493 ], [ -87.024630301, 33.6033196 ], [ -87.0248482, 33.604327798 ], [ -87.024546303, 33.604900293 ], [ -87.024080902, 33.604899898 ], [ -87.022931203, 33.604646996 ], [ -87.021070302, 33.604026794 ], [ -87.018799104, 33.602993898 ], [ -87.015406005, 33.601593398 ], [ -87.014666803, 33.601615697 ], [ -87.014091402, 33.601958796 ], [ -87.013679907, 33.602668598 ], [ -87.013213001, 33.603745095 ], [ -87.012829103, 33.604225799 ], [ -87.012115702, 33.605553895 ], [ -87.011759207, 33.606034599 ], [ -87.011074103, 33.6064694 ], [ -87.010608405, 33.606606394 ], [ -87.009486005, 33.6065595 ], [ -87.008555301, 33.606398195 ], [ -87.007269002, 33.605961695 ], [ -87.006997622, 33.605956503 ] ] } }
]
}
