{
"type": "FeatureCollection",
"name": "USGS_02360500_UM_12km",
"crs": { "type": "name", "properties": { "name": "urn:ogc:def:crs:OGC:1.3:CRS84" } },
"features": [
{ "type": "Feature", "properties": { "site_no": "02360500", "nhdplus_comid": "2189527", "navigation_mode": "UM", "requested_distance_km": 12.0, "start_source": "nwissite", "start_id": "USGS-02360500", "geometry_length_km": 0.14901382825267323 }, "geometry": { "type": "LineString", "coordinates": [ [ -85.476168007, 31.373685598 ], [ -85.476461306, 31.373227097 ], [ -85.476755001, 31.373135298 ], [ -85.477395803, 31.373066097 ], [ -85.477396184, 31.373066097 ] ] } },
{ "type": "Feature", "properties": { "site_no": "02360500", "nhdplus_comid": "2189525", "navigation_mode": "UM", "requested_distance_km": 12.0, "start_source": "nwissite", "start_id": "USGS-02360500", "geometry_length_km": 0.4441407878121173 }, "geometry": { "type": "LineString", "coordinates": [ [ -85.472777806, 31.374879494 ], [ -85.474914104, 31.374832094 ], [ -85.475608505, 31.374854498 ], [ -85.476062305, 31.374762595 ], [ -85.476275705, 31.374556199 ], [ -85.476328507, 31.373937495 ], [ -85.476168007, 31.373685598 ] ] } },
{ "type": "Feature", "properties": { "site_no": "02360500", "nhdplus_comid": "2187795", "navigation_mode": "UM", "requested_distance_km": 12.0, "start_source": "nwissite", "start_id": "USGS-02360500", "geometry_length_km": 0.7470710135918025 }, "geometry": { "type": "LineString", "coordinates": [ [ -85.466131002, 31.377610698 ], [ -85.466825202, 31.377541497 ], [ -85.467279002, 31.3773349 ], [ -85.468693301, 31.376188397 ], [ -85.470294602, 31.375156194 ], [ -85.470427901, 31.374949895 ], [ -85.471095406, 31.374789096 ], [ -85.471869603, 31.374651 ], [ -85.472777806, 31.374879494 ] ] } },
{ "type": "Feature", "properties": { "site_no": "02360500", "nhdplus_comid": "2187753", "navigation_mode": "UM", "requested_distance_km": 12.0, "start_source": "nwissite", "start_id": "USGS-02360500", "geometry_length_km": 0.35856849737894425 }, "geometry": { "type": "LineString", "coordinates": [ [ -85.466346607, 31.379855894 ], [ -85.466960505, 31.379465997 ], [ -85.467227206, 31.379076295 ], [ -85.467333704, 31.378663793 ], [ -85.466158107, 31.378137596 ], [ -85.466024406, 31.377862699 ], [ -85.466131002, 31.377610698 ] ] } },
{ "type": "Feature", "properties": { "site_no": "02360500", "nhdplus_comid": "2187729", "navigation_mode": "UM", "requested_distance_km": 12.0, "start_source": "nwissite", "start_id": "USGS-02360500", "geometry_length_km": 2.7352442400091825 }, "geometry": { "type": "LineString", "coordinates": [ [ -85.453992806, 31.393519096 ], [ -85.453218102, 31.3934737 ], [ -85.452950701, 31.393107295 ], [ -85.452870406, 31.392740697 ], [ -85.453083701, 31.392328195 ], [ -85.4531902, 31.391847 ], [ -85.453403607, 31.391548999 ], [ -85.453376703, 31.391228199 ], [ -85.453269705, 31.391022094 ], [ -85.453429602, 31.390632495 ], [ -85.453803405, 31.390494794 ], [ -85.455058604, 31.390494198 ], [ -85.455458701, 31.389760695 ], [ -85.4559393, 31.389577098 ], [ -85.456286304, 31.389301896 ], [ -85.456713602, 31.389278695 ], [ -85.457248002, 31.389484599 ], [ -85.4574081, 31.389392897 ], [ -85.457407705, 31.388888896 ], [ -85.456793107, 31.388385199 ], [ -85.456712507, 31.387835294 ], [ -85.456311502, 31.387400299 ], [ -85.456418104, 31.387102298 ], [ -85.456604905, 31.386964798 ], [ -85.4576464, 31.386849597 ], [ -85.458180204, 31.386322297 ], [ -85.458660804, 31.386184499 ], [ -85.459194906, 31.386138394 ], [ -85.459462106, 31.386206999 ], [ -85.459996, 31.386115 ], [ -85.460503407, 31.385954298 ], [ -85.460903704, 31.385656193 ], [ -85.461357206, 31.385014296 ], [ -85.461437002, 31.384624697 ], [ -85.461436607, 31.384120695 ], [ -85.461276107, 31.383868799 ], [ -85.461302601, 31.383616693 ], [ -85.461409204, 31.383318894 ], [ -85.462290004, 31.382745497 ], [ -85.4630372, 31.382034697 ], [ -85.463624604, 31.381919794 ], [ -85.463784702, 31.381713495 ], [ -85.4639979, 31.381255098 ], [ -85.464291506, 31.381163299 ], [ -85.464585401, 31.3813693 ], [ -85.464746304, 31.381896198 ], [ -85.465200201, 31.381987497 ], [ -85.465573706, 31.381551899 ], [ -85.465626702, 31.381093696 ], [ -85.465493105, 31.3809563 ], [ -85.465492703, 31.380566798 ], [ -85.465812802, 31.380108394 ], [ -85.466346607, 31.379855894 ] ] } },
{ "type": "Feature", "properties": { "site_no": "02360500", "nhdplus_comid": "2187619", "navigation_mode": "UM", "requested_distance_km": 12.0, "start_source": "nwissite", "start_id": "USGS-02360500", "geometry_length_km": 0.81517464852111721 }, "geometry": { "type": "LineString", "coordinates": [ [ -85.451404005, 31.396247096 ], [ -85.451724201, 31.396017693 ], [ -85.452311806, 31.395925798 ], [ -85.452872902, 31.396131694 ], [ -85.453113407, 31.396291994 ], [ -85.453915, 31.396635197 ], [ -85.454369001, 31.396657795 ], [ -85.454929806, 31.396382399 ], [ -85.454956405, 31.396290794 ], [ -85.455303505, 31.396015696 ], [ -85.455410101, 31.395809397 ], [ -85.455303006, 31.39542 ], [ -85.455035701, 31.395168096 ], [ -85.454474807, 31.395145498 ], [ -85.4540205, 31.394962497 ], [ -85.4537533, 31.394733496 ], [ -85.453699507, 31.3942753 ], [ -85.453966305, 31.393931493 ], [ -85.453992806, 31.393519096 ] ] } },
{ "type": "Feature", "properties": { "site_no": "02360500", "nhdplus_comid": "2187583", "navigation_mode": "UM", "requested_distance_km": 12.0, "start_source": "nwissite", "start_id": "USGS-02360500", "geometry_length_km": 1.3994590755482836 }, "geometry": { "type": "LineString", "coordinates": [ [ -85.445879303, 31.4024361 ], [ -85.446066104, 31.402229793 ], [ -85.445825301, 31.4015655 ], [ -85.445878506, 31.401290596 ], [ -85.446172103, 31.400969595 ], [ -85.446652904, 31.400946498 ], [ -85.447000407, 31.401221298 ], [ -85.447507903, 31.401335597 ], [ -85.447667904, 31.401175097 ], [ -85.447614305, 31.400854297 ], [ -85.447106503, 31.400465094 ], [ -85.447079703, 31.400167294 ], [ -85.447399907, 31.399823397 ], [ -85.447747201, 31.399800293 ], [ -85.448174804, 31.400212497 ], [ -85.448602401, 31.400487095 ], [ -85.4490299, 31.400647298 ], [ -85.449484102, 31.400647096 ], [ -85.449964605, 31.400371894 ], [ -85.450685404, 31.399775796 ], [ -85.450978801, 31.399225794 ], [ -85.451031901, 31.398744598 ], [ -85.450951606, 31.398492597 ], [ -85.4507377, 31.398240693 ], [ -85.4501765, 31.3978744 ], [ -85.450122707, 31.397393294 ], [ -85.450442903, 31.396866195 ], [ -85.451003507, 31.396384798 ], [ -85.451404005, 31.396247096 ] ] } },
{ "type": "Feature", "properties": { "site_no": "02360500", "nhdplus_comid": "2187541", "navigation_mode": "UM", "requested_distance_km": 12.0, "start_source": "nwissite", "start_id": "USGS-02360500", "geometry_length_km": 1.8298135213647433 }, "geometry": { "type": "LineString", "coordinates": [ [ -85.436453804, 31.409016199 ], [ -85.437307507, 31.407045394 ], [ -85.437494405, 31.406839095 ], [ -85.438215606, 31.406769998 ], [ -85.438536204, 31.406907395 ], [ -85.438670203, 31.407594696 ], [ -85.438777104, 31.407617599 ], [ -85.439017504, 31.407594495 ], [ -85.439230703, 31.406723797 ], [ -85.4395779, 31.4065862 ], [ -85.439765006, 31.406792298 ], [ -85.439872101, 31.407181695 ], [ -85.440192707, 31.407273196 ], [ -85.440726906, 31.407112598 ], [ -85.4411273, 31.406768799 ], [ -85.441447601, 31.406241596 ], [ -85.441527307, 31.405554295 ], [ -85.441981204, 31.405347899 ], [ -85.442194901, 31.405439399 ], [ -85.442782506, 31.405301698 ], [ -85.443637006, 31.404751293 ], [ -85.4445986, 31.404636197 ], [ -85.444758706, 31.404498696 ], [ -85.444705106, 31.404132195 ], [ -85.444170401, 31.403490894 ], [ -85.443742901, 31.4032619 ], [ -85.443502307, 31.4029871 ], [ -85.443421803, 31.402528994 ], [ -85.443875805, 31.402207993 ], [ -85.444623604, 31.402115896 ], [ -85.445879303, 31.4024361 ] ] } },
{ "type": "Feature", "properties": { "site_no": "02360500", "nhdplus_comid": "2187487", "navigation_mode": "UM", "requested_distance_km": 12.0, "start_source": "nwissite", "start_id": "USGS-02360500", "geometry_length_km": 1.3590851787718989 }, "geometry": { "type": "LineString", "coordinates": [ [ -85.4295642, 31.413647093 ], [ -85.430311903, 31.4133261 ], [ -85.431006506, 31.4132571 ], [ -85.431166805, 31.413119495 ], [ -85.431273505, 31.412890397 ], [ -85.430979602, 31.412775993 ], [ -85.430365101, 31.412753299 ], [ -85.430445105, 31.412386596 ], [ -85.431566507, 31.411286399 ], [ -85.431833602, 31.4111946 ], [ -85.431913801, 31.411263399 ], [ -85.431940705, 31.411836095 ], [ -85.432127804, 31.4119277 ], [ -85.432288103, 31.4117902 ], [ -85.432501301, 31.4110111 ], [ -85.432447806, 31.410804994 ], [ -85.431806304, 31.410278194 ], [ -85.431806304, 31.410049096 ], [ -85.432126701, 31.409911498 ], [ -85.433489203, 31.409910999 ], [ -85.434023701, 31.4103003 ], [ -85.434370905, 31.4102543 ], [ -85.436106801, 31.409359999 ], [ -85.436453804, 31.409016199 ] ] } }
]
}
