{
"type": "FeatureCollection",
"name": "USGS_02372500_UM_12km",
"crs": { "type": "name", "properties": { "name": "urn:ogc:def:crs:OGC:1.3:CRS84" } },
"features": [
{ "type": "Feature", "properties": { "site_no": "02372500", "nhdplus_comid": "2378385", "navigation_mode": "UM", "requested_distance_km": 12.0, "start_source": "nwissite", "start_id": "USGS-02372500", "geometry_length_km": 0.046591248734113334 }, "geometry": { "type": "LineString", "coordinates": [ [ -86.600071102, 31.255895793 ], [ -86.600124501, 31.255758293 ], [ -86.600362562, 31.255574506 ] ] } },
{ "type": "Feature", "properties": { "site_no": "02372500", "nhdplus_comid": "2378373", "navigation_mode": "UM", "requested_distance_km": 12.0, "start_source": "nwissite", "start_id": "USGS-02372500", "geometry_length_km": 0.91469150062116655 }, "geometry": { "type": "LineString", "coordinates": [ [ -86.592520006, 31.260042198 ], [ -86.593347102, 31.260156997 ], [ -86.594254106, 31.260134295 ], [ -86.5950545, 31.259859495 ], [ -86.595988505, 31.259424299 ], [ -86.596975803, 31.258507796 ], [ -86.597563006, 31.257430799 ], [ -86.59815, 31.256880894 ], [ -86.600071102, 31.255895793 ] ] } },
{ "type": "Feature", "properties": { "site_no": "02372500", "nhdplus_comid": "2378361", "navigation_mode": "UM", "requested_distance_km": 12.0, "start_source": "nwissite", "start_id": "USGS-02372500", "geometry_length_km": 1.1410034087500274 }, "geometry": { "type": "LineString", "coordinates": [ [ -86.582834907, 31.261895798 ], [ -86.584889002, 31.262217298 ], [ -86.585529402, 31.262125798 ], [ -86.585929707, 31.261850998 ], [ -86.587024003, 31.260819897 ], [ -86.588385202, 31.259124398 ], [ -86.589132302, 31.258712098 ], [ -86.589612603, 31.258666493 ], [ -86.590919703, 31.259102196 ], [ -86.591959901, 31.259606697 ], [ -86.592520006, 31.260042198 ] ] } },
{ "type": "Feature", "properties": { "site_no": "02372500", "nhdplus_comid": "2378355", "navigation_mode": "UM", "requested_distance_km": 12.0, "start_source": "nwissite", "start_id": "USGS-02372500", "geometry_length_km": 1.3871963640494775 }, "geometry": { "type": "LineString", "coordinates": [ [ -86.572399803, 31.268767297 ], [ -86.573120601, 31.268011294 ], [ -86.574802205, 31.266659796 ], [ -86.577925205, 31.263750494 ], [ -86.579606906, 31.261688493 ], [ -86.580193907, 31.261276096 ], [ -86.580861002, 31.2611617 ], [ -86.582834907, 31.261895798 ] ] } },
{ "type": "Feature", "properties": { "site_no": "02372500", "nhdplus_comid": "2378347", "navigation_mode": "UM", "requested_distance_km": 12.0, "start_source": "nwissite", "start_id": "USGS-02372500", "geometry_length_km": 0.38688084687103791 }, "geometry": { "type": "LineString", "coordinates": [ [ -86.571064003, 31.272043899 ], [ -86.571358003, 31.270989895 ], [ -86.572399803, 31.268767297 ] ] } },
{ "type": "Feature", "properties": { "site_no": "02372500", "nhdplus_comid": "2378337", "navigation_mode": "UM", "requested_distance_km": 12.0, "start_source": "nwissite", "start_id": "USGS-02372500", "geometry_length_km": 0.87757454955037062 }, "geometry": { "type": "LineString", "coordinates": [ [ -86.570046104, 31.279262595 ], [ -86.569832601, 31.279170796 ], [ -86.569406003, 31.278712295 ], [ -86.569166005, 31.2782996 ], [ -86.568953, 31.277428597 ], [ -86.569140404, 31.2763974 ], [ -86.570342205, 31.274541698 ], [ -86.571063802, 31.272387698 ], [ -86.571064003, 31.272043899 ] ] } },
{ "type": "Feature", "properties": { "site_no": "02372500", "nhdplus_comid": "2378323", "navigation_mode": "UM", "requested_distance_km": 12.0, "start_source": "nwissite", "start_id": "USGS-02372500", "geometry_length_km": 1.2465485472181086 }, "geometry": { "type": "LineString", "coordinates": [ [ -86.562757306, 31.285584494 ], [ -86.562864006, 31.285584599 ], [ -86.563104302, 31.285401396 ], [ -86.564119503, 31.283751793 ], [ -86.564519905, 31.283476993 ], [ -86.565027006, 31.283454299 ], [ -86.566014104, 31.283660993 ], [ -86.566788003, 31.283684194 ], [ -86.567455202, 31.283569895 ], [ -86.568095803, 31.283318095 ], [ -86.569564, 31.282447897 ], [ -86.570311405, 31.281898193 ], [ -86.570952304, 31.2810276 ], [ -86.571005903, 31.280706793 ], [ -86.570072703, 31.279445894 ], [ -86.570046104, 31.279262595 ] ] } },
{ "type": "Feature", "properties": { "site_no": "02372500", "nhdplus_comid": "2378311", "navigation_mode": "UM", "requested_distance_km": 12.0, "start_source": "nwissite", "start_id": "USGS-02372500", "geometry_length_km": 1.0259203857136157 }, "geometry": { "type": "LineString", "coordinates": [ [ -86.564275704, 31.290100098 ], [ -86.564329103, 31.289985493 ], [ -86.566064201, 31.289000697 ], [ -86.566625006, 31.288542695 ], [ -86.5669723, 31.287924096 ], [ -86.566892602, 31.287350997 ], [ -86.566759206, 31.287144795 ], [ -86.566439107, 31.2870529 ], [ -86.565211505, 31.287029594 ], [ -86.563636906, 31.287189193 ], [ -86.5632101, 31.287143096 ], [ -86.562649801, 31.286844999 ], [ -86.562249802, 31.286432199 ], [ -86.562250003, 31.286157295 ], [ -86.562730506, 31.285699099 ], [ -86.562757306, 31.285584494 ] ] } },
{ "type": "Feature", "properties": { "site_no": "02372500", "nhdplus_comid": "2378301", "navigation_mode": "UM", "requested_distance_km": 12.0, "start_source": "nwissite", "start_id": "USGS-02372500", "geometry_length_km": 0.27991794871225251 }, "geometry": { "type": "LineString", "coordinates": [ [ -86.561819606, 31.291473895 ], [ -86.5638486, 31.290237397 ], [ -86.564275704, 31.290100098 ] ] } },
{ "type": "Feature", "properties": { "site_no": "02372500", "nhdplus_comid": "2378297", "navigation_mode": "UM", "requested_distance_km": 12.0, "start_source": "nwissite", "start_id": "USGS-02372500", "geometry_length_km": 0.96905871136110344 }, "geometry": { "type": "LineString", "coordinates": [ [ -86.553463601, 31.295365497 ], [ -86.553464003, 31.294815399 ], [ -86.553731404, 31.294196799 ], [ -86.5539717, 31.293944895 ], [ -86.554398902, 31.2936472 ], [ -86.555840403, 31.293166697 ], [ -86.557628706, 31.292732194 ], [ -86.559470601, 31.292045698 ], [ -86.561045505, 31.291610993 ], [ -86.561819606, 31.291473895 ] ] } },
{ "type": "Feature", "properties": { "site_no": "02372500", "nhdplus_comid": "2378283", "navigation_mode": "UM", "requested_distance_km": 12.0, "start_source": "nwissite", "start_id": "USGS-02372500", "geometry_length_km": 0.45727581086880542 }, "geometry": { "type": "LineString", "coordinates": [ [ -86.551726505, 31.298435494 ], [ -86.552741006, 31.298138097 ], [ -86.553275004, 31.297794595 ], [ -86.553809203, 31.297176197 ], [ -86.553836301, 31.296557397 ], [ -86.553756602, 31.296121895 ], [ -86.553463601, 31.295365497 ] ] } },
{ "type": "Feature", "properties": { "site_no": "02372500", "nhdplus_comid": "2378279", "navigation_mode": "UM", "requested_distance_km": 12.0, "start_source": "nwissite", "start_id": "USGS-02372500", "geometry_length_km": 1.1339622535662739 }, "geometry": { "type": "LineString", "coordinates": [ [ -86.541610807, 31.299070999 ], [ -86.542705104, 31.299071699 ], [ -86.5440391, 31.299507998 ], [ -86.544812806, 31.299898095 ], [ -86.546066403, 31.300769694 ], [ -86.546439901, 31.300930299 ], [ -86.546867102, 31.300861895 ], [ -86.547214203, 31.300724499 ], [ -86.548443206, 31.299121097 ], [ -86.548923805, 31.2988922 ], [ -86.549991705, 31.298549093 ], [ -86.551726505, 31.298435494 ] ] } },
{ "type": "Feature", "properties": { "site_no": "02372500", "nhdplus_comid": "2378277", "navigation_mode": "UM", "requested_distance_km": 12.0, "start_source": "nwissite", "start_id": "USGS-02372500", "geometry_length_km": 1.5812368967575174 }, "geometry": { "type": "LineString", "coordinates": [ [ -86.532717802, 31.304656796 ], [ -86.532638304, 31.304106697 ], [ -86.5325066, 31.3022504 ], [ -86.532586902, 31.301952496 ], [ -86.532934301, 31.301494397 ], [ -86.535070702, 31.300304197 ], [ -86.535551503, 31.299891993 ], [ -86.536299303, 31.299388297 ], [ -86.536806501, 31.299251199 ], [ -86.536966503, 31.299297199 ], [ -86.538166307, 31.300650097 ], [ -86.538593106, 31.301016994 ], [ -86.539126702, 31.301223598 ], [ -86.540594406, 31.301476598 ], [ -86.540888101, 31.301408097 ], [ -86.541261904, 31.301133297 ], [ -86.541422501, 31.300766796 ], [ -86.541477107, 31.299368799 ], [ -86.541610807, 31.299070999 ] ] } }
]
}
