{
"type": "FeatureCollection",
"name": "USGS_02422500_UM_12km",
"crs": { "type": "name", "properties": { "name": "urn:ogc:def:crs:OGC:1.3:CRS84" } },
"features": [
{ "type": "Feature", "properties": { "site_no": "02422500", "nhdplus_comid": "21676818", "navigation_mode": "UM", "requested_distance_km": 12.0, "start_source": "nwissite", "start_id": "USGS-02422500", "geometry_length_km": 0.45702451440923958 }, "geometry": { "type": "LineString", "coordinates": [ [ -86.903189205, 32.5867889 ], [ -86.903270103, 32.586215995 ], [ -86.904352106, 32.5844744 ], [ -86.904379003, 32.583786994 ], [ -86.904243506, 32.583534896 ], [ -86.903783306, 32.583168298 ], [ -86.903717297, 32.583140374 ] ] } },
{ "type": "Feature", "properties": { "site_no": "02422500", "nhdplus_comid": "21676760", "navigation_mode": "UM", "requested_distance_km": 12.0, "start_source": "nwissite", "start_id": "USGS-02422500", "geometry_length_km": 0.22677489282176891 }, "geometry": { "type": "LineString", "coordinates": [ [ -86.905057006, 32.587934196 ], [ -86.903730705, 32.587453298 ], [ -86.903378807, 32.587178394 ], [ -86.903189205, 32.5867889 ] ] } },
{ "type": "Feature", "properties": { "site_no": "02422500", "nhdplus_comid": "21676736", "navigation_mode": "UM", "requested_distance_km": 12.0, "start_source": "nwissite", "start_id": "USGS-02422500", "geometry_length_km": 0.74762713067111597 }, "geometry": { "type": "LineString", "coordinates": [ [ -86.904409401, 32.593983397 ], [ -86.904030405, 32.593410693 ], [ -86.903976105, 32.5931357 ], [ -86.903975904, 32.592631698 ], [ -86.904435806, 32.591898195 ], [ -86.904949903, 32.591348298 ], [ -86.905599207, 32.590454496 ], [ -86.905626006, 32.589721195 ], [ -86.905734204, 32.589537896 ], [ -86.905625701, 32.588712998 ], [ -86.905463204, 32.588346496 ], [ -86.905057006, 32.587934196 ] ] } },
{ "type": "Feature", "properties": { "site_no": "02422500", "nhdplus_comid": "21676698", "navigation_mode": "UM", "requested_distance_km": 12.0, "start_source": "nwissite", "start_id": "USGS-02422500", "geometry_length_km": 0.72443736923631108 }, "geometry": { "type": "LineString", "coordinates": [ [ -86.906414405, 32.600009196 ], [ -86.906468101, 32.598496899 ], [ -86.906576201, 32.598153196 ], [ -86.906494804, 32.597626194 ], [ -86.906332307, 32.597282596 ], [ -86.905411705, 32.596205898 ], [ -86.904897101, 32.595449798 ], [ -86.904409505, 32.594212495 ], [ -86.904409401, 32.593983397 ] ] } },
{ "type": "Feature", "properties": { "site_no": "02422500", "nhdplus_comid": "21676670", "navigation_mode": "UM", "requested_distance_km": 12.0, "start_source": "nwissite", "start_id": "USGS-02422500", "geometry_length_km": 0.11302070249728284 }, "geometry": { "type": "LineString", "coordinates": [ [ -86.9059816, 32.6009259 ], [ -86.9059816, 32.600765496 ], [ -86.906306207, 32.600077994 ], [ -86.906414405, 32.600009196 ] ] } },
{ "type": "Feature", "properties": { "site_no": "02422500", "nhdplus_comid": "21676660", "navigation_mode": "UM", "requested_distance_km": 12.0, "start_source": "nwissite", "start_id": "USGS-02422500", "geometry_length_km": 1.1809646615813196 }, "geometry": { "type": "LineString", "coordinates": [ [ -86.907744005, 32.6084181 ], [ -86.9067965, 32.608487099 ], [ -86.906417504, 32.608372599 ], [ -86.906282105, 32.6081893 ], [ -86.906227805, 32.607845694 ], [ -86.906308904, 32.607685193 ], [ -86.906660803, 32.6074102 ], [ -86.908257701, 32.606928594 ], [ -86.908744901, 32.606492996 ], [ -86.908717707, 32.606126495 ], [ -86.908473901, 32.605668195 ], [ -86.908121802, 32.605301693 ], [ -86.907499, 32.604935296 ], [ -86.907011703, 32.604522899 ], [ -86.906659506, 32.603744 ], [ -86.906577803, 32.602254599 ], [ -86.9059816, 32.6009259 ] ] } },
{ "type": "Feature", "properties": { "site_no": "02422500", "nhdplus_comid": "21676586", "navigation_mode": "UM", "requested_distance_km": 12.0, "start_source": "nwissite", "start_id": "USGS-02422500", "geometry_length_km": 0.75885194158031954 }, "geometry": { "type": "LineString", "coordinates": [ [ -86.912076704, 32.611853898 ], [ -86.912103705, 32.611510098 ], [ -86.911914103, 32.611281194 ], [ -86.910479106, 32.610914893 ], [ -86.9100729, 32.610525496 ], [ -86.909829102, 32.610067293 ], [ -86.909801804, 32.609609097 ], [ -86.910099305, 32.608852796 ], [ -86.910153307, 32.608440399 ], [ -86.909963705, 32.608234197 ], [ -86.909530506, 32.608073995 ], [ -86.908718407, 32.608119994 ], [ -86.907798007, 32.608326495 ], [ -86.907744005, 32.6084181 ] ] } },
{ "type": "Feature", "properties": { "site_no": "02422500", "nhdplus_comid": "21676558", "navigation_mode": "UM", "requested_distance_km": 12.0, "start_source": "nwissite", "start_id": "USGS-02422500", "geometry_length_km": 1.2165368721039536 }, "geometry": { "type": "LineString", "coordinates": [ [ -86.911918104, 32.620927699 ], [ -86.912323907, 32.619965196 ], [ -86.912350707, 32.619438194 ], [ -86.9122153, 32.619208999 ], [ -86.911619507, 32.618842594 ], [ -86.910834201, 32.618499197 ], [ -86.9100217, 32.617834896 ], [ -86.909832001, 32.617445394 ], [ -86.909804702, 32.616941296 ], [ -86.910237603, 32.616139196 ], [ -86.910237402, 32.615543395 ], [ -86.910047606, 32.614856094 ], [ -86.910101205, 32.613618799 ], [ -86.910236403, 32.613320895 ], [ -86.9115896, 32.612312295 ], [ -86.912076704, 32.611853898 ] ] } },
{ "type": "Feature", "properties": { "site_no": "02422500", "nhdplus_comid": "21676480", "navigation_mode": "UM", "requested_distance_km": 12.0, "start_source": "nwissite", "start_id": "USGS-02422500", "geometry_length_km": 0.80727739267641263 }, "geometry": { "type": "LineString", "coordinates": [ [ -86.911595806, 32.627205893 ], [ -86.911622703, 32.627022594 ], [ -86.912786603, 32.625922397 ], [ -86.912976004, 32.6256245 ], [ -86.913002901, 32.625120498 ], [ -86.912975706, 32.624799699 ], [ -86.912813202, 32.624570593 ], [ -86.911567204, 32.623608597 ], [ -86.911540106, 32.623425297 ], [ -86.911485605, 32.622692093 ], [ -86.911702104, 32.622302495 ], [ -86.911918104, 32.620927699 ] ] } },
{ "type": "Feature", "properties": { "site_no": "02422500", "nhdplus_comid": "21676442", "navigation_mode": "UM", "requested_distance_km": 12.0, "start_source": "nwissite", "start_id": "USGS-02422500", "geometry_length_km": 0.36201450206595165 }, "geometry": { "type": "LineString", "coordinates": [ [ -86.911353305, 32.6303223 ], [ -86.911082201, 32.629634894 ], [ -86.911108807, 32.628397599 ], [ -86.911460407, 32.627297699 ], [ -86.911595806, 32.627205893 ] ] } },
{ "type": "Feature", "properties": { "site_no": "02422500", "nhdplus_comid": "21676422", "navigation_mode": "UM", "requested_distance_km": 12.0, "start_source": "nwissite", "start_id": "USGS-02422500", "geometry_length_km": 1.1106311769073658 }, "geometry": { "type": "LineString", "coordinates": [ [ -86.916068405, 32.637882195 ], [ -86.915797502, 32.637492694 ], [ -86.915418305, 32.637355499 ], [ -86.913928807, 32.6372642 ], [ -86.913549602, 32.637035199 ], [ -86.9134138, 32.636324994 ], [ -86.913901001, 32.635637395 ], [ -86.913792402, 32.634881295 ], [ -86.913548507, 32.634468898 ], [ -86.912708707, 32.633644298 ], [ -86.9124377, 32.6331174 ], [ -86.912464403, 32.632154994 ], [ -86.912355706, 32.631375998 ], [ -86.912220202, 32.631101094 ], [ -86.911570102, 32.630413897 ], [ -86.911353305, 32.6303223 ] ] } },
{ "type": "Feature", "properties": { "site_no": "02422500", "nhdplus_comid": "21676386", "navigation_mode": "UM", "requested_distance_km": 12.0, "start_source": "nwissite", "start_id": "USGS-02422500", "geometry_length_km": 1.0798949740344648 }, "geometry": { "type": "LineString", "coordinates": [ [ -86.918130502, 32.646221995 ], [ -86.918753304, 32.645946793 ], [ -86.919078104, 32.645602994 ], [ -86.919294603, 32.645144694 ], [ -86.919294305, 32.644594699 ], [ -86.919104502, 32.644044898 ], [ -86.918589607, 32.643403493 ], [ -86.917587101, 32.642464399 ], [ -86.917289004, 32.642029196 ], [ -86.917153306, 32.641525194 ], [ -86.917017303, 32.640218996 ], [ -86.915933602, 32.639142498 ], [ -86.915933207, 32.638455093 ], [ -86.916068405, 32.637882195 ] ] } },
{ "type": "Feature", "properties": { "site_no": "02422500", "nhdplus_comid": "21676336", "navigation_mode": "UM", "requested_distance_km": 12.0, "start_source": "nwissite", "start_id": "USGS-02422500", "geometry_length_km": 1.797646752628415 }, "geometry": { "type": "LineString", "coordinates": [ [ -86.9210869, 32.654836394 ], [ -86.920301303, 32.654355399 ], [ -86.919705302, 32.654218197 ], [ -86.917755105, 32.654127195 ], [ -86.917457104, 32.654012695 ], [ -86.917077802, 32.653646298 ], [ -86.916860901, 32.653187998 ], [ -86.916913606, 32.649980098 ], [ -86.916425802, 32.649384595 ], [ -86.915802702, 32.649041094 ], [ -86.914719306, 32.648926795 ], [ -86.914421506, 32.649064399 ], [ -86.914069407, 32.649087496 ], [ -86.913717106, 32.6487896 ], [ -86.9136087, 32.6485148 ], [ -86.913608402, 32.647941895 ], [ -86.913987406, 32.647185594 ], [ -86.914582901, 32.646612696 ], [ -86.918130502, 32.646221995 ] ] } },
{ "type": "Feature", "properties": { "site_no": "02422500", "nhdplus_comid": "21676290", "navigation_mode": "UM", "requested_distance_km": 12.0, "start_source": "nwissite", "start_id": "USGS-02422500", "geometry_length_km": 0.55022956700847037 }, "geometry": { "type": "LineString", "coordinates": [ [ -86.920520701, 32.659648299 ], [ -86.920655206, 32.658021398 ], [ -86.921196304, 32.656669296 ], [ -86.921358101, 32.655546598 ], [ -86.9210869, 32.654836394 ] ] } },
{ "type": "Feature", "properties": { "site_no": "02422500", "nhdplus_comid": "21677730", "navigation_mode": "UM", "requested_distance_km": 12.0, "start_source": "nwissite", "start_id": "USGS-02422500", "geometry_length_km": 1.644609346840826 }, "geometry": { "type": "LineString", "coordinates": [ [ -86.910853602, 32.6670065 ], [ -86.911015905, 32.666571096 ], [ -86.911286801, 32.666273296 ], [ -86.911638804, 32.666089796 ], [ -86.912424304, 32.665860496 ], [ -86.913074404, 32.665860295 ], [ -86.913751706, 32.666020393 ], [ -86.915594101, 32.666890495 ], [ -86.916379705, 32.667027794 ], [ -86.917002805, 32.6668901 ], [ -86.917544305, 32.666431695 ], [ -86.917760901, 32.666042 ], [ -86.917787604, 32.665560894 ], [ -86.917597905, 32.665194198 ], [ -86.9171101, 32.664575696 ], [ -86.916947305, 32.664163396 ], [ -86.917001307, 32.663659297 ], [ -86.9174072, 32.663109198 ], [ -86.918436401, 32.662581898 ], [ -86.918788403, 32.662215196 ], [ -86.919031806, 32.661527693 ], [ -86.919491902, 32.6607714 ], [ -86.920006305, 32.660335898 ], [ -86.920385301, 32.659739994 ], [ -86.920520701, 32.659648299 ] ] } }
]
}
