{
"type": "FeatureCollection",
"name": "USGS_02479600_UM_12km",
"crs": { "type": "name", "properties": { "name": "urn:ogc:def:crs:OGC:1.3:CRS84" } },
"features": [
{ "type": "Feature", "properties": { "site_no": "02479600", "nhdplus_comid": "18095099", "navigation_mode": "UM", "requested_distance_km": 12.0, "start_source": "nwissite", "start_id": "USGS-02479600", "geometry_length_km": 0.13007782505728327 }, "geometry": { "type": "LineString", "coordinates": [ [ -88.433494605, 30.630234897 ], [ -88.4335737, 30.629730694 ], [ -88.433679305, 30.629134893 ], [ -88.433699216, 30.62907833 ] ] } },
{ "type": "Feature", "properties": { "site_no": "02479600", "nhdplus_comid": "18095067", "navigation_mode": "UM", "requested_distance_km": 12.0, "start_source": "nwissite", "start_id": "USGS-02479600", "geometry_length_km": 4.1581788435598517 }, "geometry": { "type": "LineString", "coordinates": [ [ -88.445332401, 30.654564299 ], [ -88.445252903, 30.6545415 ], [ -88.445226304, 30.654449798 ], [ -88.444642805, 30.653900199 ], [ -88.444483601, 30.653671198 ], [ -88.444324002, 30.652960896 ], [ -88.443899505, 30.652434096 ], [ -88.443872705, 30.652021594 ], [ -88.4437133, 30.651563399 ], [ -88.443368405, 30.6511283 ], [ -88.443368107, 30.650715798 ], [ -88.443447605, 30.650692895 ], [ -88.4434475, 30.650509499 ], [ -88.443553306, 30.650280297 ], [ -88.443552904, 30.649707399 ], [ -88.443367101, 30.649455398 ], [ -88.442783706, 30.649089195 ], [ -88.4427571, 30.648951694 ], [ -88.442598104, 30.648974694 ], [ -88.442147203, 30.648585394 ], [ -88.4419614, 30.6481959 ], [ -88.441934504, 30.647691794 ], [ -88.442093201, 30.647279195 ], [ -88.442225404, 30.646775 ], [ -88.442145601, 30.6464542 ], [ -88.441880405, 30.646179393 ], [ -88.4403954, 30.645217799 ], [ -88.439997502, 30.644828394 ], [ -88.439705707, 30.644301593 ], [ -88.439705007, 30.643476598 ], [ -88.439969704, 30.642949499 ], [ -88.440181501, 30.642651498 ], [ -88.440287404, 30.642490998 ], [ -88.440181203, 30.642193094 ], [ -88.439942501, 30.642032795 ], [ -88.439703904, 30.641964197 ], [ -88.4395715, 30.642055996 ], [ -88.439041905, 30.642514594 ], [ -88.438803405, 30.642629296 ], [ -88.438432306, 30.6426524 ], [ -88.438140802, 30.642537899 ], [ -88.437875502, 30.642331898 ], [ -88.437875204, 30.641896494 ], [ -88.438775904, 30.641208597 ], [ -88.438881606, 30.6408877 ], [ -88.439066902, 30.640497997 ], [ -88.439649604, 30.639970697 ], [ -88.439675704, 30.639535293 ], [ -88.439516403, 30.639122896 ], [ -88.439330906, 30.639031298 ], [ -88.438456401, 30.639283895 ], [ -88.438244402, 30.639215194 ], [ -88.437820107, 30.638894595 ], [ -88.437607907, 30.638551094 ], [ -88.437607005, 30.637451194 ], [ -88.437553905, 30.637290798 ], [ -88.437288903, 30.637176298 ], [ -88.436467305, 30.637176797 ], [ -88.4362287, 30.636970595 ], [ -88.436175503, 30.636695594 ], [ -88.436387204, 30.636214197 ], [ -88.436281003, 30.635893494 ], [ -88.435591601, 30.635596 ], [ -88.435617901, 30.635320999 ], [ -88.435723901, 30.635183498 ], [ -88.436678, 30.635205798 ], [ -88.436942905, 30.635022499 ], [ -88.436969206, 30.634747498 ], [ -88.436916001, 30.634609893 ], [ -88.436757006, 30.634495497 ], [ -88.435458101, 30.6340378 ], [ -88.435272604, 30.633900397 ], [ -88.4352988, 30.633602597 ], [ -88.435431205, 30.633396193 ], [ -88.436119907, 30.633097999 ], [ -88.436199404, 30.632983297 ], [ -88.436252207, 30.632708393 ], [ -88.436146103, 30.632502094 ], [ -88.4357749, 30.632273197 ], [ -88.435430504, 30.632364996 ], [ -88.4350067, 30.632640198 ], [ -88.434609301, 30.632732093 ], [ -88.434476703, 30.632640496 ], [ -88.434264503, 30.632434398 ], [ -88.434211403, 30.6322053 ], [ -88.434476003, 30.631655097 ], [ -88.434529006, 30.631609298 ], [ -88.434608303, 30.631380096 ], [ -88.434608102, 30.631105095 ], [ -88.4345816, 30.630967595 ], [ -88.434475601, 30.630876094 ], [ -88.433786303, 30.630601399 ], [ -88.433600701, 30.630418196 ], [ -88.433494605, 30.630234897 ] ] } }
]
}
