{
"type": "FeatureCollection",
"name": "USGS_02360275_DM_12km",
"crs": { "type": "name", "properties": { "name": "urn:ogc:def:crs:OGC:1.3:CRS84" } },
"features": [
{ "type": "Feature", "properties": { "site_no": "02360275", "nhdplus_comid": "2187049", "navigation_mode": "DM", "requested_distance_km": 12.0, "start_source": "nwissite", "start_id": "USGS-02360275", "geometry_length_km": 0.039581654560498995 }, "geometry": { "type": "LineString", "coordinates": [ [ -85.572049415, 31.463582485 ], [ -85.572060004, 31.463226996 ] ] } },
{ "type": "Feature", "properties": { "site_no": "02360275", "nhdplus_comid": "2187063", "navigation_mode": "DM", "requested_distance_km": 12.0, "start_source": "nwissite", "start_id": "USGS-02360275", "geometry_length_km": 0.1763555557894016 }, "geometry": { "type": "LineString", "coordinates": [ [ -85.572060004, 31.463226996 ], [ -85.5718197, 31.462539494 ], [ -85.571766801, 31.461852193 ], [ -85.571900405, 31.4617147 ] ] } },
{ "type": "Feature", "properties": { "site_no": "02360275", "nhdplus_comid": "2187099", "navigation_mode": "DM", "requested_distance_km": 12.0, "start_source": "nwissite", "start_id": "USGS-02360275", "geometry_length_km": 0.47686351636432894 }, "geometry": { "type": "LineString", "coordinates": [ [ -85.571900405, 31.4617147 ], [ -85.572222002, 31.460523397 ], [ -85.572196007, 31.459515296 ], [ -85.571635202, 31.458575599 ], [ -85.571207903, 31.458162993 ], [ -85.571074501, 31.457727693 ] ] } },
{ "type": "Feature", "properties": { "site_no": "02360275", "nhdplus_comid": "2187193", "navigation_mode": "DM", "requested_distance_km": 12.0, "start_source": "nwissite", "start_id": "USGS-02360275", "geometry_length_km": 1.7072607407121254 }, "geometry": { "type": "LineString", "coordinates": [ [ -85.571074501, 31.457727693 ], [ -85.569631502, 31.457199998 ], [ -85.5694445, 31.456947796 ], [ -85.5695787, 31.456306294 ], [ -85.5696325, 31.455641896 ], [ -85.569472305, 31.455366895 ], [ -85.568697505, 31.455022797 ], [ -85.567467906, 31.455136798 ], [ -85.566693, 31.454884395 ], [ -85.566399202, 31.454517595 ], [ -85.566426203, 31.454196796 ], [ -85.567122504, 31.452226594 ], [ -85.5677111, 31.451104298 ], [ -85.567738205, 31.450645998 ], [ -85.567604803, 31.450439699 ], [ -85.567337602, 31.450210497 ], [ -85.566803202, 31.4500269 ], [ -85.566268802, 31.4499579 ], [ -85.565520607, 31.449659593 ], [ -85.565574706, 31.448811993 ], [ -85.565869004, 31.448330894 ], [ -85.566056505, 31.447758295 ], [ -85.566057004, 31.446887493 ] ] } },
{ "type": "Feature", "properties": { "site_no": "02360275", "nhdplus_comid": "2187241", "navigation_mode": "DM", "requested_distance_km": 12.0, "start_source": "nwissite", "start_id": "USGS-02360275", "geometry_length_km": 2.0901581609628215 }, "geometry": { "type": "LineString", "coordinates": [ [ -85.566057004, 31.446887493 ], [ -85.565684102, 31.445329294 ], [ -85.565444, 31.444664694 ], [ -85.564482406, 31.443976797 ], [ -85.56312, 31.443174094 ], [ -85.562264904, 31.443059094 ], [ -85.561543107, 31.443333693 ], [ -85.5608216, 31.443447798 ], [ -85.560634501, 31.443378896 ], [ -85.560287505, 31.442966394 ], [ -85.559886605, 31.442851499 ], [ -85.559325501, 31.442874193 ], [ -85.556946501, 31.443422794 ], [ -85.554701202, 31.444108799 ], [ -85.553685501, 31.444268599 ], [ -85.553070903, 31.444222294 ], [ -85.552616701, 31.444015794 ], [ -85.5522696, 31.4437178 ], [ -85.552109502, 31.443373993 ], [ -85.551842503, 31.443121798 ], [ -85.548744, 31.4414014 ], [ -85.548664004, 31.441195093 ] ] } },
{ "type": "Feature", "properties": { "site_no": "02360275", "nhdplus_comid": "2187283", "navigation_mode": "DM", "requested_distance_km": 12.0, "start_source": "nwissite", "start_id": "USGS-02360275", "geometry_length_km": 0.63885428294475977 }, "geometry": { "type": "LineString", "coordinates": [ [ -85.548664004, 31.441195093 ], [ -85.548557103, 31.441103399 ], [ -85.547836207, 31.440438494 ], [ -85.5475429, 31.439704999 ], [ -85.547223404, 31.438352995 ], [ -85.547037102, 31.437573895 ], [ -85.5467702, 31.437207095 ], [ -85.546316206, 31.436817296 ], [ -85.545915604, 31.436679497 ], [ -85.545434602, 31.436679199 ] ] } },
{ "type": "Feature", "properties": { "site_no": "02360275", "nhdplus_comid": "2187397", "navigation_mode": "DM", "requested_distance_km": 12.0, "start_source": "nwissite", "start_id": "USGS-02360275", "geometry_length_km": 2.205636760295512 }, "geometry": { "type": "LineString", "coordinates": [ [ -85.545434602, 31.436679199 ], [ -85.545087501, 31.436243594 ], [ -85.544820502, 31.436083093 ], [ -85.544499807, 31.436082795 ], [ -85.544098601, 31.436426297 ], [ -85.543884605, 31.436769798 ], [ -85.543590404, 31.436998695 ], [ -85.543296501, 31.4370443 ], [ -85.543056205, 31.436815098 ], [ -85.542949602, 31.43654 ], [ -85.542843401, 31.4356464 ], [ -85.542683803, 31.434958793 ], [ -85.542497903, 31.4336299 ], [ -85.542446204, 31.431888498 ], [ -85.542180106, 31.430628099 ], [ -85.5421542, 31.429803297 ], [ -85.542609006, 31.429230697 ], [ -85.543437704, 31.428750098 ], [ -85.543972604, 31.428223498 ], [ -85.544133402, 31.427765399 ], [ -85.5440538, 31.4271238 ], [ -85.543787107, 31.426596694 ], [ -85.542719007, 31.4258627 ], [ -85.542318605, 31.4254959 ], [ -85.542051904, 31.425014496 ], [ -85.541627802, 31.421279497 ] ] } },
{ "type": "Feature", "properties": { "site_no": "02360275", "nhdplus_comid": "2187431", "navigation_mode": "DM", "requested_distance_km": 12.0, "start_source": "nwissite", "start_id": "USGS-02360275", "geometry_length_km": 0.60399908780206824 }, "geometry": { "type": "LineString", "coordinates": [ [ -85.541627802, 31.421279497 ], [ -85.541521505, 31.420775399 ], [ -85.5410676, 31.420477197 ], [ -85.539438501, 31.419742793 ], [ -85.539118201, 31.419421695 ], [ -85.5387448, 31.418734096 ], [ -85.538425505, 31.417496599 ], [ -85.5381587, 31.4171528 ] ] } },
{ "type": "Feature", "properties": { "site_no": "02360275", "nhdplus_comid": "2187475", "navigation_mode": "DM", "requested_distance_km": 12.0, "start_source": "nwissite", "start_id": "USGS-02360275", "geometry_length_km": 0.78809665456810107 }, "geometry": { "type": "LineString", "coordinates": [ [ -85.5381587, 31.4171528 ], [ -85.538052201, 31.416740298 ], [ -85.537251905, 31.415525399 ], [ -85.536238901, 31.413164698 ], [ -85.535118401, 31.411582895 ], [ -85.534317806, 31.410986595 ] ] } },
{ "type": "Feature", "properties": { "site_no": "02360275", "nhdplus_comid": "2187477", "navigation_mode": "DM", "requested_distance_km": 12.0, "start_source": "nwissite", "start_id": "USGS-02360275", "geometry_length_km": 0.032240194991561583 }, "geometry": { "type": "LineString", "coordinates": [ [ -85.534317806, 31.410986595 ], [ -85.534211203, 31.410711497 ] ] } },
{ "type": "Feature", "properties": { "site_no": "02360275", "nhdplus_comid": "2187531", "navigation_mode": "DM", "requested_distance_km": 12.0, "start_source": "nwissite", "start_id": "USGS-02360275", "geometry_length_km": 0.78890530617927834 }, "geometry": { "type": "LineString", "coordinates": [ [ -85.534211203, 31.410711497 ], [ -85.533517204, 31.410115294 ], [ -85.5332238, 31.409656696 ], [ -85.533224106, 31.409313098 ], [ -85.533063903, 31.409221299 ], [ -85.532931, 31.408487998 ], [ -85.532397807, 31.407479398 ], [ -85.531143904, 31.405897498 ], [ -85.530556604, 31.405461796 ], [ -85.5301833, 31.404934496 ], [ -85.529996306, 31.404842697 ] ] } },
{ "type": "Feature", "properties": { "site_no": "02360275", "nhdplus_comid": "2187569", "navigation_mode": "DM", "requested_distance_km": 12.0, "start_source": "nwissite", "start_id": "USGS-02360275", "geometry_length_km": 0.65582561623549263 }, "geometry": { "type": "LineString", "coordinates": [ [ -85.529996306, 31.404842697 ], [ -85.529996701, 31.404544793 ], [ -85.529276706, 31.403352894 ], [ -85.528851904, 31.400900893 ], [ -85.528798603, 31.400832199 ], [ -85.528773107, 31.399640694 ], [ -85.529014103, 31.399182595 ] ] } },
{ "type": "Feature", "properties": { "site_no": "02360275", "nhdplus_comid": "2187571", "navigation_mode": "DM", "requested_distance_km": 12.0, "start_source": "nwissite", "start_id": "USGS-02360275", "geometry_length_km": 0.24383597360257109 }, "geometry": { "type": "LineString", "coordinates": [ [ -85.529014103, 31.399182595 ], [ -85.529548302, 31.399182998 ], [ -85.529921904, 31.399503998 ], [ -85.530028306, 31.399939395 ], [ -85.530375205, 31.400260597 ], [ -85.5308294, 31.400146298 ] ] } },
{ "type": "Feature", "properties": { "site_no": "02360275", "nhdplus_comid": "2187667", "navigation_mode": "DM", "requested_distance_km": 12.0, "start_source": "nwissite", "start_id": "USGS-02360275", "geometry_length_km": 1.5184455962431509 }, "geometry": { "type": "LineString", "coordinates": [ [ -85.5308294, 31.400146298 ], [ -85.531097703, 31.398909196 ], [ -85.532140605, 31.3979019 ], [ -85.532274507, 31.397581197 ], [ -85.532302007, 31.396825194 ], [ -85.531795904, 31.395427093 ], [ -85.530596003, 31.393547393 ], [ -85.529423706, 31.390773997 ], [ -85.528865203, 31.388459496 ], [ -85.5287861, 31.387428299 ] ] } }
]
}
