{
"type": "FeatureCollection",
"name": "USGS_02411000_UM_12km",
"crs": { "type": "name", "properties": { "name": "urn:ogc:def:crs:OGC:1.3:CRS84" } },
"features": [
{ "type": "Feature", "properties": { "site_no": "02411000", "nhdplus_comid": "22276638", "navigation_mode": "UM", "requested_distance_km": 12.0, "start_source": "nwissite", "start_id": "USGS-02411000", "geometry_length_km": 0.55288254762456468 }, "geometry": { "type": "LineString", "coordinates": [ [ -86.256863602, 32.618905194 ], [ -86.256708905, 32.616841495 ], [ -86.256173402, 32.616290599 ], [ -86.2559672, 32.615515798 ], [ -86.255163804, 32.614689499 ], [ -86.254803954, 32.614580416 ] ] } },
{ "type": "Feature", "properties": { "site_no": "02411000", "nhdplus_comid": "22276630", "navigation_mode": "UM", "requested_distance_km": 12.0, "start_source": "nwissite", "start_id": "USGS-02411000", "geometry_length_km": 1.0284818244473821 }, "geometry": { "type": "LineString", "coordinates": [ [ -86.264922604, 32.624866799 ], [ -86.263583504, 32.623489797 ], [ -86.261035204, 32.622134894 ], [ -86.259948604, 32.621158093 ], [ -86.258219101, 32.620504595 ], [ -86.256880306, 32.619127497 ], [ -86.256863602, 32.618905194 ] ] } },
{ "type": "Feature", "properties": { "site_no": "02411000", "nhdplus_comid": "22276626", "navigation_mode": "UM", "requested_distance_km": 12.0, "start_source": "nwissite", "start_id": "USGS-02411000", "geometry_length_km": 0.20287156398215211 }, "geometry": { "type": "LineString", "coordinates": [ [ -86.266770802, 32.625782795 ], [ -86.265756704, 32.625443198 ], [ -86.264922604, 32.624866799 ] ] } },
{ "type": "Feature", "properties": { "site_no": "02411000", "nhdplus_comid": "22276624", "navigation_mode": "UM", "requested_distance_km": 12.0, "start_source": "nwissite", "start_id": "USGS-02411000", "geometry_length_km": 0.059396055251241073 }, "geometry": { "type": "LineString", "coordinates": [ [ -86.2671725, 32.6261959 ], [ -86.266770802, 32.625782795 ] ] } },
{ "type": "Feature", "properties": { "site_no": "02411000", "nhdplus_comid": "22276622", "navigation_mode": "UM", "requested_distance_km": 12.0, "start_source": "nwissite", "start_id": "USGS-02411000", "geometry_length_km": 4.8385049226621915 }, "geometry": { "type": "LineString", "coordinates": [ [ -86.303286903, 32.652763098 ], [ -86.302754305, 32.650951199 ], [ -86.3027886, 32.649439998 ], [ -86.302106805, 32.647615194 ], [ -86.302198507, 32.646866098 ], [ -86.301425107, 32.645790495 ], [ -86.2945913, 32.638770096 ], [ -86.291356601, 32.636852495 ], [ -86.2891635, 32.636285894 ], [ -86.287421905, 32.634496197 ], [ -86.285737805, 32.633468494 ], [ -86.282155305, 32.633160993 ], [ -86.280142106, 32.632357299 ], [ -86.278963305, 32.6321299 ], [ -86.278427504, 32.631579198 ], [ -86.276548401, 32.630913094 ], [ -86.273525201, 32.628508396 ], [ -86.271290407, 32.627054498 ], [ -86.269499302, 32.626900598 ], [ -86.2671725, 32.6261959 ] ] } },
{ "type": "Feature", "properties": { "site_no": "02411000", "nhdplus_comid": "22276600", "navigation_mode": "UM", "requested_distance_km": 12.0, "start_source": "nwissite", "start_id": "USGS-02411000", "geometry_length_km": 1.5063385585924238 }, "geometry": { "type": "LineString", "coordinates": [ [ -86.315976903, 32.660031199 ], [ -86.3137981, 32.659340195 ], [ -86.310229607, 32.658908799 ], [ -86.308797501, 32.658281595 ], [ -86.303286903, 32.652763098 ] ] } },
{ "type": "Feature", "properties": { "site_no": "02411000", "nhdplus_comid": "22276594", "navigation_mode": "UM", "requested_distance_km": 12.0, "start_source": "nwissite", "start_id": "USGS-02411000", "geometry_length_km": 2.239930300571499 }, "geometry": { "type": "LineString", "coordinates": [ [ -86.329875603, 32.674718194 ], [ -86.3288332, 32.673367597 ], [ -86.327004805, 32.669805095 ], [ -86.325008802, 32.667615995 ], [ -86.324222706, 32.665404096 ], [ -86.324283801, 32.664904594 ], [ -86.323896803, 32.664366893 ], [ -86.321617506, 32.662027299 ], [ -86.320767306, 32.661576197 ], [ -86.319679603, 32.660600096 ], [ -86.316394404, 32.660319194 ], [ -86.315976903, 32.660031199 ] ] } },
{ "type": "Feature", "properties": { "site_no": "02411000", "nhdplus_comid": "22276586", "navigation_mode": "UM", "requested_distance_km": 12.0, "start_source": "nwissite", "start_id": "USGS-02411000", "geometry_length_km": 0.039595711104800466 }, "geometry": { "type": "LineString", "coordinates": [ [ -86.330143802, 32.674993396 ], [ -86.329875603, 32.674718194 ] ] } },
{ "type": "Feature", "properties": { "site_no": "02411000", "nhdplus_comid": "22276582", "navigation_mode": "UM", "requested_distance_km": 12.0, "start_source": "nwissite", "start_id": "USGS-02411000", "geometry_length_km": 0.37483595686079341 }, "geometry": { "type": "LineString", "coordinates": [ [ -86.3321435, 32.677844994 ], [ -86.331619002, 32.676507093 ], [ -86.330143802, 32.674993396 ] ] } },
{ "type": "Feature", "properties": { "site_no": "02411000", "nhdplus_comid": "22276580", "navigation_mode": "UM", "requested_distance_km": 12.0, "start_source": "nwissite", "start_id": "USGS-02411000", "geometry_length_km": 1.0327361251321654 }, "geometry": { "type": "LineString", "coordinates": [ [ -86.337108806, 32.685932897 ], [ -86.335859001, 32.683807693 ], [ -86.335785806, 32.683170699 ], [ -86.334578604, 32.681932196 ], [ -86.334267706, 32.680770293 ], [ -86.332539402, 32.678856596 ], [ -86.3321435, 32.677844994 ] ] } }
]
}
