{
"type": "FeatureCollection",
"name": "USGS_02413475_DM_12km",
"crs": { "type": "name", "properties": { "name": "urn:ogc:def:crs:OGC:1.3:CRS84" } },
"features": [
{ "type": "Feature", "properties": { "site_no": "02413475", "nhdplus_comid": "15812117", "navigation_mode": "DM", "requested_distance_km": 12.0, "start_source": "nwissite", "start_id": "USGS-02413475", "geometry_length_km": 2.1717111908807554 }, "geometry": { "type": "LineString", "coordinates": [ [ -85.483937936, 33.325338412 ], [ -85.484470807, 33.325293198 ], [ -85.485180706, 33.325704895 ], [ -85.490148202, 33.327097595 ], [ -85.491622604, 33.327852197 ], [ -85.492469206, 33.328446999 ], [ -85.494354703, 33.330552399 ], [ -85.495228507, 33.331078395 ], [ -85.495937906, 33.331077799 ], [ -85.496210501, 33.330779694 ], [ -85.496182106, 33.3300239 ], [ -85.495607905, 33.329108194 ], [ -85.495580003, 33.328627296 ], [ -85.495988801, 33.328306198 ], [ -85.497517206, 33.3286255 ], [ -85.499947503, 33.329905696 ], [ -85.500697002, 33.330194294 ] ] } },
{ "type": "Feature", "properties": { "site_no": "02413475", "nhdplus_comid": "15811959", "navigation_mode": "DM", "requested_distance_km": 12.0, "start_source": "nwissite", "start_id": "USGS-02413475", "geometry_length_km": 3.3352370561741917 }, "geometry": { "type": "LineString", "coordinates": [ [ -85.500697002, 33.330194294 ], [ -85.502687201, 33.331295796 ], [ -85.504322603, 33.332625896 ], [ -85.504867405, 33.333313599 ], [ -85.504893102, 33.334412999 ], [ -85.5052194, 33.335260794 ], [ -85.505573303, 33.335787997 ], [ -85.5058458, 33.336063199 ], [ -85.507619701, 33.335904494 ], [ -85.508165501, 33.335950799 ], [ -85.509174801, 33.336157896 ], [ -85.510756001, 33.337419197 ], [ -85.5117101, 33.338107295 ], [ -85.513481401, 33.339941293 ], [ -85.5138354, 33.340514295 ], [ -85.513971202, 33.3410412 ], [ -85.514352702, 33.341476798 ], [ -85.514461204, 33.341957897 ], [ -85.514351606, 33.342278495 ], [ -85.5140239, 33.342507198 ], [ -85.513232507, 33.342506498 ], [ -85.512605004, 33.3423227 ], [ -85.512250505, 33.342139095 ], [ -85.510751404, 33.340832099 ], [ -85.510205805, 33.340648398 ], [ -85.509632401, 33.340876997 ], [ -85.509359106, 33.3412432 ], [ -85.509358503, 33.341632493 ], [ -85.509875901, 33.3424576 ], [ -85.5107482, 33.3431914 ], [ -85.511183903, 33.343832999 ], [ -85.512573801, 33.345300294 ], [ -85.513855003, 33.346446693 ] ] } },
{ "type": "Feature", "properties": { "site_no": "02413475", "nhdplus_comid": "15811929", "navigation_mode": "DM", "requested_distance_km": 12.0, "start_source": "nwissite", "start_id": "USGS-02413475", "geometry_length_km": 1.936822434496557 }, "geometry": { "type": "LineString", "coordinates": [ [ -85.513855003, 33.346446693 ], [ -85.5147833, 33.346149795 ], [ -85.515820302, 33.346196599 ], [ -85.517130002, 33.346403897 ], [ -85.517839104, 33.346748099 ], [ -85.518302701, 33.347069196 ], [ -85.519147702, 33.3479404 ], [ -85.519420102, 33.348398693 ], [ -85.521900602, 33.350874595 ], [ -85.523427002, 33.352479294 ], [ -85.524708703, 33.353396595 ], [ -85.525690705, 33.353832595 ], [ -85.527355202, 33.354223393 ], [ -85.529647, 33.354935199 ], [ -85.5304932, 33.355004497 ] ] } },
{ "type": "Feature", "properties": { "site_no": "02413475", "nhdplus_comid": "15811915", "navigation_mode": "DM", "requested_distance_km": 12.0, "start_source": "nwissite", "start_id": "USGS-02413475", "geometry_length_km": 1.0534020380172062 }, "geometry": { "type": "LineString", "coordinates": [ [ -85.5304932, 33.355004497 ], [ -85.531448707, 33.354844995 ], [ -85.533387601, 33.353884496 ], [ -85.5351087, 33.352328196 ], [ -85.53672, 33.351367399 ], [ -85.538222402, 33.350200295 ], [ -85.538905002, 33.349834293 ], [ -85.539614804, 33.349628597 ] ] } },
{ "type": "Feature", "properties": { "site_no": "02413475", "nhdplus_comid": "15811977", "navigation_mode": "DM", "requested_distance_km": 12.0, "start_source": "nwissite", "start_id": "USGS-02413475", "geometry_length_km": 3.8565739934215282 }, "geometry": { "type": "LineString", "coordinates": [ [ -85.539614804, 33.349628597 ], [ -85.540269904, 33.349537499 ], [ -85.540924706, 33.349789895 ], [ -85.542670302, 33.350936294 ], [ -85.543543503, 33.351143099 ], [ -85.543871105, 33.350982994 ], [ -85.544882007, 33.349907197 ], [ -85.545485802, 33.346288599 ], [ -85.545568801, 33.345143296 ], [ -85.545160607, 33.343906194 ], [ -85.5440979, 33.342095897 ], [ -85.543280207, 33.341133296 ], [ -85.539763406, 33.337557696 ], [ -85.538209401, 33.336159199 ], [ -85.5373099, 33.335196599 ], [ -85.536138706, 33.333179995 ], [ -85.535648607, 33.332011595 ], [ -85.534968905, 33.329720497 ], [ -85.534860604, 33.328918695 ], [ -85.535326406, 33.327109493 ], [ -85.536337607, 33.325552694 ], [ -85.537702702, 33.324683294 ], [ -85.538193904, 33.3245463 ] ] } }
]
}
