{
"type": "FeatureCollection",
"name": "USGS_02467500_UM_12km",
"crs": { "type": "name", "properties": { "name": "urn:ogc:def:crs:OGC:1.3:CRS84" } },
"features": [
{ "type": "Feature", "properties": { "site_no": "02467500", "nhdplus_comid": "18531726", "navigation_mode": "UM", "requested_distance_km": 12.0, "start_source": "nwissite", "start_id": "USGS-02467500", "geometry_length_km": 0.32622094481474112 }, "geometry": { "type": "LineString", "coordinates": [ [ -88.195858106, 32.575438596 ], [ -88.195857905, 32.575117797 ], [ -88.195749402, 32.574934699 ], [ -88.195559904, 32.574682698 ], [ -88.194910102, 32.574201994 ], [ -88.193753692, 32.573224039 ] ] } },
{ "type": "Feature", "properties": { "site_no": "02467500", "nhdplus_comid": "18531678", "navigation_mode": "UM", "requested_distance_km": 12.0, "start_source": "nwissite", "start_id": "USGS-02467500", "geometry_length_km": 1.5927434282004398 }, "geometry": { "type": "LineString", "coordinates": [ [ -88.195327006, 32.587878995 ], [ -88.194596104, 32.587558694 ], [ -88.194081604, 32.587169498 ], [ -88.193729505, 32.586711496 ], [ -88.193648003, 32.586390793 ], [ -88.193566807, 32.586322196 ], [ -88.193539403, 32.585886896 ], [ -88.193890706, 32.585336894 ], [ -88.194783002, 32.584442899 ], [ -88.195242606, 32.583961494 ], [ -88.195620902, 32.583319798 ], [ -88.195620507, 32.582747094 ], [ -88.195512004, 32.582357593 ], [ -88.195403501, 32.582151599 ], [ -88.195132501, 32.581555896 ], [ -88.1949699, 32.581303999 ], [ -88.194915704, 32.581189498 ], [ -88.194671907, 32.580914699 ], [ -88.194292605, 32.580250598 ], [ -88.194075704, 32.579677999 ], [ -88.194048204, 32.579173997 ], [ -88.194129102, 32.578898996 ], [ -88.194426306, 32.578234494 ], [ -88.195480101, 32.576492697 ], [ -88.195696205, 32.576103099 ], [ -88.195831306, 32.575713493 ], [ -88.195858106, 32.575438596 ] ] } },
{ "type": "Feature", "properties": { "site_no": "02467500", "nhdplus_comid": "18531598", "navigation_mode": "UM", "requested_distance_km": 12.0, "start_source": "nwissite", "start_id": "USGS-02467500", "geometry_length_km": 3.6864569143135144 }, "geometry": { "type": "LineString", "coordinates": [ [ -88.209767401, 32.604914896 ], [ -88.209821306, 32.604685694 ], [ -88.210172802, 32.604250096 ], [ -88.210199304, 32.603700198 ], [ -88.209982201, 32.603150599 ], [ -88.209657006, 32.602669694 ], [ -88.208654605, 32.601708196 ], [ -88.208383501, 32.601250194 ], [ -88.208356306, 32.601181395 ], [ -88.208274901, 32.600998193 ], [ -88.208057806, 32.600333996 ], [ -88.208056904, 32.599394694 ], [ -88.208218604, 32.598798893 ], [ -88.208623901, 32.597996794 ], [ -88.2090564, 32.597469598 ], [ -88.210164905, 32.596254498 ], [ -88.210894801, 32.595406398 ], [ -88.212030403, 32.594305895 ], [ -88.212516904, 32.5937557 ], [ -88.212922201, 32.593159795 ], [ -88.213192202, 32.592518099 ], [ -88.213191301, 32.591555893 ], [ -88.212974407, 32.591189496 ], [ -88.212486804, 32.590777494 ], [ -88.210537806, 32.590114497 ], [ -88.208859004, 32.589245096 ], [ -88.208046801, 32.5889249 ], [ -88.207343303, 32.588925399 ], [ -88.206666902, 32.589154899 ], [ -88.205720305, 32.589682497 ], [ -88.204827905, 32.590347394 ], [ -88.203773104, 32.5910355 ], [ -88.203313105, 32.591241993 ], [ -88.202907301, 32.591333896 ], [ -88.2025555, 32.591334097 ], [ -88.201878704, 32.5910367 ], [ -88.201201707, 32.590578899 ], [ -88.199901603, 32.589250796 ], [ -88.199062206, 32.5886558 ], [ -88.198439606, 32.588381194 ], [ -88.197465003, 32.588106893 ], [ -88.195327006, 32.587878995 ] ] } },
{ "type": "Feature", "properties": { "site_no": "02467500", "nhdplus_comid": "18531500", "navigation_mode": "UM", "requested_distance_km": 12.0, "start_source": "nwissite", "start_id": "USGS-02467500", "geometry_length_km": 1.2243839013337801 }, "geometry": { "type": "LineString", "coordinates": [ [ -88.209263101, 32.615155898 ], [ -88.2094789, 32.614330895 ], [ -88.209478006, 32.613391697 ], [ -88.209395401, 32.612085797 ], [ -88.209286503, 32.611306898 ], [ -88.209285401, 32.6102302 ], [ -88.209420301, 32.609748997 ], [ -88.209744006, 32.608694993 ], [ -88.210149303, 32.607938595 ], [ -88.210662901, 32.607205197 ], [ -88.210933104, 32.606723897 ], [ -88.211041003, 32.606471799 ], [ -88.210932404, 32.605990797 ], [ -88.210823901, 32.605784699 ], [ -88.210011303, 32.605212495 ], [ -88.209767401, 32.604914896 ] ] } },
{ "type": "Feature", "properties": { "site_no": "02467500", "nhdplus_comid": "18531410", "navigation_mode": "UM", "requested_distance_km": 12.0, "start_source": "nwissite", "start_id": "USGS-02467500", "geometry_length_km": 1.4809938568762471 }, "geometry": { "type": "LineString", "coordinates": [ [ -88.216359101, 32.618747495 ], [ -88.215709403, 32.618747994 ], [ -88.215384603, 32.618794098 ], [ -88.214978501, 32.618794397 ], [ -88.214653403, 32.618473895 ], [ -88.214544803, 32.618176095 ], [ -88.214517102, 32.617511794 ], [ -88.214571007, 32.617213994 ], [ -88.214760005, 32.616801396 ], [ -88.215544, 32.6159532 ], [ -88.2155708, 32.6156324 ], [ -88.215245903, 32.615541093 ], [ -88.213594705, 32.615542196 ], [ -88.212999307, 32.615702994 ], [ -88.212431006, 32.615978397 ], [ -88.211403303, 32.616872594 ], [ -88.210998006, 32.617628895 ], [ -88.2107547, 32.617881 ], [ -88.2102945, 32.617950097 ], [ -88.209969506, 32.617789999 ], [ -88.209698506, 32.617446497 ], [ -88.209481403, 32.616896898 ], [ -88.2093454, 32.616301298 ], [ -88.209290802, 32.615774393 ], [ -88.209263101, 32.615155898 ] ] } },
{ "type": "Feature", "properties": { "site_no": "02467500", "nhdplus_comid": "18531394", "navigation_mode": "UM", "requested_distance_km": 12.0, "start_source": "nwissite", "start_id": "USGS-02467500", "geometry_length_km": 1.332992421216582 }, "geometry": { "type": "LineString", "coordinates": [ [ -88.2286468, 32.616744496 ], [ -88.228511803, 32.617088296 ], [ -88.228160307, 32.617455095 ], [ -88.227781802, 32.6177762 ], [ -88.227348901, 32.617982693 ], [ -88.227024101, 32.618051693 ], [ -88.226563901, 32.6180062 ], [ -88.225859903, 32.617823593 ], [ -88.223449603, 32.616954997 ], [ -88.221662506, 32.616475299 ], [ -88.221310504, 32.616384 ], [ -88.220444307, 32.616476297 ], [ -88.219605602, 32.616843499 ], [ -88.218658805, 32.617485695 ], [ -88.218009703, 32.618058898 ], [ -88.217089802, 32.618563697 ], [ -88.216629706, 32.618701495 ], [ -88.216359101, 32.618747495 ] ] } },
{ "type": "Feature", "properties": { "site_no": "02467500", "nhdplus_comid": "18531456", "navigation_mode": "UM", "requested_distance_km": 12.0, "start_source": "nwissite", "start_id": "USGS-02467500", "geometry_length_km": 0.73848295268404429 }, "geometry": { "type": "LineString", "coordinates": [ [ -88.228503801, 32.610261194 ], [ -88.228260502, 32.610673696 ], [ -88.228071705, 32.611223795 ], [ -88.228045605, 32.612025596 ], [ -88.228154205, 32.612300493 ], [ -88.228317603, 32.613102093 ], [ -88.228318803, 32.614178896 ], [ -88.228455007, 32.614797398 ], [ -88.228563607, 32.615072094 ], [ -88.228726804, 32.615713499 ], [ -88.2286468, 32.616744496 ] ] } }
]
}
