{
"type": "FeatureCollection",
"name": "USGS_02424590_UM_12km",
"crs": { "type": "name", "properties": { "name": "urn:ogc:def:crs:OGC:1.3:CRS84" } },
"features": [
{ "type": "Feature", "properties": { "site_no": "02424590", "nhdplus_comid": "21662090", "navigation_mode": "UM", "requested_distance_km": 12.0, "start_source": "nwissite", "start_id": "USGS-02424590", "geometry_length_km": 2.5344337172600326 }, "geometry": { "type": "LineString", "coordinates": [ [ -87.1966758, 32.536167897 ], [ -87.1944618, 32.537130296 ], [ -87.192480206, 32.537354194 ], [ -87.191654205, 32.536659494 ], [ -87.191890001, 32.534534596 ], [ -87.192868501, 32.533854298 ], [ -87.194090106, 32.533697195 ], [ -87.195814706, 32.533074997 ], [ -87.197903804, 32.533237495 ], [ -87.199736103, 32.533001795 ], [ -87.201394603, 32.531617895 ], [ -87.203119107, 32.5309956 ], [ -87.203934506, 32.530428596 ], [ -87.203962207, 32.530178599 ], [ -87.202986903, 32.529472299 ], [ -87.201644003, 32.529367894 ], [ -87.201005504, 32.529696494 ], [ -87.199947201, 32.529740199 ], [ -87.199409385, 32.52962147 ] ] } },
{ "type": "Feature", "properties": { "site_no": "02424590", "nhdplus_comid": "21662076", "navigation_mode": "UM", "requested_distance_km": 12.0, "start_source": "nwissite", "start_id": "USGS-02424590", "geometry_length_km": 1.5510939145427014 }, "geometry": { "type": "LineString", "coordinates": [ [ -87.210597306, 32.536178693 ], [ -87.207743406, 32.5381632 ], [ -87.206806503, 32.538468696 ], [ -87.205314204, 32.538352698 ], [ -87.204744905, 32.538056299 ], [ -87.201846607, 32.535687596 ], [ -87.2006943, 32.535219699 ], [ -87.199500501, 32.535126895 ], [ -87.1991743, 32.535353594 ], [ -87.1981159, 32.535397395 ], [ -87.1966758, 32.536167897 ] ] } },
{ "type": "Feature", "properties": { "site_no": "02424590", "nhdplus_comid": "21662074", "navigation_mode": "UM", "requested_distance_km": 12.0, "start_source": "nwissite", "start_id": "USGS-02424590", "geometry_length_km": 1.5364838674190231 }, "geometry": { "type": "LineString", "coordinates": [ [ -87.2124101, 32.544955693 ], [ -87.212139301, 32.544682495 ], [ -87.212576203, 32.543455698 ], [ -87.215920806, 32.540437393 ], [ -87.215989903, 32.539812393 ], [ -87.215583704, 32.539402694 ], [ -87.214539103, 32.539321497 ], [ -87.212245204, 32.539647698 ], [ -87.211839005, 32.539237894 ], [ -87.211949706, 32.5382379 ], [ -87.211505003, 32.5368165 ], [ -87.210963406, 32.536270097 ], [ -87.210597306, 32.536178693 ] ] } },
{ "type": "Feature", "properties": { "site_no": "02424590", "nhdplus_comid": "21662070", "navigation_mode": "UM", "requested_distance_km": 12.0, "start_source": "nwissite", "start_id": "USGS-02424590", "geometry_length_km": 1.2859134632411529 }, "geometry": { "type": "LineString", "coordinates": [ [ -87.225353301, 32.546338394 ], [ -87.223847002, 32.546347596 ], [ -87.222503707, 32.546243399 ], [ -87.2213374, 32.545900799 ], [ -87.218747705, 32.544817299 ], [ -87.216658205, 32.544655196 ], [ -87.214308806, 32.545481294 ], [ -87.212816305, 32.545365393 ], [ -87.2124101, 32.544955693 ] ] } },
{ "type": "Feature", "properties": { "site_no": "02424590", "nhdplus_comid": "21662154", "navigation_mode": "UM", "requested_distance_km": 12.0, "start_source": "nwissite", "start_id": "USGS-02424590", "geometry_length_km": 1.6235098848283249 }, "geometry": { "type": "LineString", "coordinates": [ [ -87.237896107, 32.554034896 ], [ -87.235276505, 32.551898196 ], [ -87.232299201, 32.547507197 ], [ -87.231215604, 32.546414599 ], [ -87.230497003, 32.546106793 ], [ -87.2282582, 32.545933299 ], [ -87.225353301, 32.546338394 ] ] } },
{ "type": "Feature", "properties": { "site_no": "02424590", "nhdplus_comid": "21662150", "navigation_mode": "UM", "requested_distance_km": 12.0, "start_source": "nwissite", "start_id": "USGS-02424590", "geometry_length_km": 1.1656421658369316 }, "geometry": { "type": "LineString", "coordinates": [ [ -87.240430504, 32.561122097 ], [ -87.241585903, 32.560202993 ], [ -87.241602205, 32.558691397 ], [ -87.240559705, 32.557223998 ], [ -87.238986701, 32.556471899 ], [ -87.237046205, 32.556321599 ], [ -87.236639805, 32.555911899 ], [ -87.236695006, 32.555411898 ], [ -87.237537906, 32.554594696 ], [ -87.237896107, 32.554034896 ] ] } }
]
}
