{
"type": "FeatureCollection",
"name": "USGS_02378170_DM_12km",
"crs": { "type": "name", "properties": { "name": "urn:ogc:def:crs:OGC:1.3:CRS84" } },
"features": [
{ "type": "Feature", "properties": { "site_no": "02378170", "nhdplus_comid": "10854075", "navigation_mode": "DM", "requested_distance_km": 12.0, "start_source": "nwissite", "start_id": "USGS-02378170", "geometry_length_km": 4.2047176546288911 }, "geometry": { "type": "LineString", "coordinates": [ [ -87.652652154, 30.388465833 ], [ -87.652426802, 30.387472995 ], [ -87.651844703, 30.386097893 ], [ -87.6514742, 30.384745695 ], [ -87.651394203, 30.382499397 ], [ -87.651182503, 30.381857693 ], [ -87.650785901, 30.381422296 ], [ -87.650283605, 30.381307796 ], [ -87.6496756, 30.3813079 ], [ -87.648300901, 30.381537497 ], [ -87.647349104, 30.381125197 ], [ -87.645445406, 30.379612595 ], [ -87.645101704, 30.379223093 ], [ -87.644044004, 30.378306396 ], [ -87.643383004, 30.3780545 ], [ -87.642061301, 30.377962999 ], [ -87.641083106, 30.377550498 ], [ -87.640131406, 30.377275594 ], [ -87.638439402, 30.3765883 ], [ -87.637355603, 30.376382098 ], [ -87.6366418, 30.37613 ], [ -87.636139505, 30.375625797 ], [ -87.635901503, 30.375213295 ], [ -87.635875002, 30.375029996 ], [ -87.635531306, 30.374571599 ], [ -87.634843804, 30.373998597 ], [ -87.634024404, 30.3735632 ], [ -87.631671704, 30.373082094 ], [ -87.630376406, 30.3726926 ], [ -87.629557006, 30.372623794 ], [ -87.6281031, 30.372990593 ], [ -87.627283603, 30.372646794 ], [ -87.626887202, 30.372234195 ], [ -87.626279101, 30.371798798 ], [ -87.624957502, 30.371202894 ], [ -87.624349505, 30.370950796 ], [ -87.624005705, 30.370721593 ], [ -87.6233714, 30.369988196 ], [ -87.622578405, 30.368658796 ], [ -87.621706106, 30.367833599 ] ] } },
{ "type": "Feature", "properties": { "site_no": "02378170", "nhdplus_comid": "10854229", "navigation_mode": "DM", "requested_distance_km": 12.0, "start_source": "nwissite", "start_id": "USGS-02378170", "geometry_length_km": 0.054821373880762476 }, "geometry": { "type": "LineString", "coordinates": [ [ -87.621706106, 30.367833599 ], [ -87.621638305, 30.367750198 ], [ -87.621366203, 30.367436893 ] ] } },
{ "type": "Feature", "properties": { "site_no": "02378170", "nhdplus_comid": "10854231", "navigation_mode": "DM", "requested_distance_km": 12.0, "start_source": "nwissite", "start_id": "USGS-02378170", "geometry_length_km": 1.831325795751426 }, "geometry": { "type": "LineString", "coordinates": [ [ -87.621366203, 30.367436893 ], [ -87.621578604, 30.363213696 ], [ -87.620903306, 30.362655997 ], [ -87.619039804, 30.362260498 ], [ -87.618061006, 30.361806095 ], [ -87.617133707, 30.360849395 ], [ -87.615415506, 30.360464998 ], [ -87.613894105, 30.359589398 ], [ -87.6127019, 30.3583593 ], [ -87.612236403, 30.357184693 ], [ -87.611309201, 30.356227897 ], [ -87.611083306, 30.355899297 ] ] } },
{ "type": "Feature", "properties": { "site_no": "02378170", "nhdplus_comid": "10854239", "navigation_mode": "DM", "requested_distance_km": 12.0, "start_source": "nwissite", "start_id": "USGS-02378170", "geometry_length_km": 0.24773139676046749 }, "geometry": { "type": "LineString", "coordinates": [ [ -87.611083306, 30.355899297 ], [ -87.6109761, 30.355189994 ], [ -87.609850302, 30.354028195 ] ] } },
{ "type": "Feature", "properties": { "site_no": "02378170", "nhdplus_comid": "10854243", "navigation_mode": "DM", "requested_distance_km": 12.0, "start_source": "nwissite", "start_id": "USGS-02378170", "geometry_length_km": 0.63468012948805219 }, "geometry": { "type": "LineString", "coordinates": [ [ -87.609850302, 30.354028195 ], [ -87.604104102, 30.353651799 ], [ -87.6034161, 30.353219494 ] ] } },
{ "type": "Feature", "properties": { "site_no": "02378170", "nhdplus_comid": "10854441", "navigation_mode": "DM", "requested_distance_km": 12.0, "start_source": "nwissite", "start_id": "USGS-02378170", "geometry_length_km": 1.2727353793728577 }, "geometry": { "type": "LineString", "coordinates": [ [ -87.6034161, 30.353219494 ], [ -87.603441902, 30.352968395 ], [ -87.6018655, 30.351202495 ], [ -87.601503201, 30.349023297 ], [ -87.600760102, 30.347700797 ], [ -87.600927502, 30.346068397 ], [ -87.6018342, 30.344366096 ], [ -87.602014504, 30.342608094 ], [ -87.601993807, 30.342585996 ] ] } },
{ "type": "Feature", "properties": { "site_no": "02378170", "nhdplus_comid": "10854255", "navigation_mode": "DM", "requested_distance_km": 12.0, "start_source": "nwissite", "start_id": "USGS-02378170", "geometry_length_km": 0.15289351424561096 }, "geometry": { "type": "LineString", "coordinates": [ [ -87.601993807, 30.342585996 ], [ -87.600999802, 30.341510199 ] ] } }
]
}
