{
"type": "FeatureCollection",
"name": "USGS_02378170_UM_12km",
"crs": { "type": "name", "properties": { "name": "urn:ogc:def:crs:OGC:1.3:CRS84" } },
"features": [
{ "type": "Feature", "properties": { "site_no": "02378170", "nhdplus_comid": "10854075", "navigation_mode": "UM", "requested_distance_km": 12.0, "start_source": "nwissite", "start_id": "USGS-02378170", "geometry_length_km": 0.70146246420466918 }, "geometry": { "type": "LineString", "coordinates": [ [ -87.655548804, 30.394073099 ], [ -87.654199906, 30.392583698 ], [ -87.653221101, 30.391117096 ], [ -87.6527979, 30.390246198 ], [ -87.652718104, 30.388756394 ], [ -87.652652154, 30.388465833 ] ] } },
{ "type": "Feature", "properties": { "site_no": "02378170", "nhdplus_comid": "10854043", "navigation_mode": "UM", "requested_distance_km": 12.0, "start_source": "nwissite", "start_id": "USGS-02378170", "geometry_length_km": 3.8067656470719049 }, "geometry": { "type": "LineString", "coordinates": [ [ -87.685940504, 30.413658395 ], [ -87.684591502, 30.413108997 ], [ -87.682370007, 30.412880898 ], [ -87.680492304, 30.412446193 ], [ -87.679143302, 30.411850899 ], [ -87.677820303, 30.410544999 ], [ -87.676471002, 30.409491293 ], [ -87.676021405, 30.409353994 ], [ -87.673085906, 30.408850893 ], [ -87.672054403, 30.408553295 ], [ -87.669727005, 30.407454096 ], [ -87.667795807, 30.405712798 ], [ -87.665256701, 30.404590599 ], [ -87.664145701, 30.4035367 ], [ -87.663828105, 30.403009593 ], [ -87.663589902, 30.402367897 ], [ -87.662531503, 30.400603399 ], [ -87.660812207, 30.398976594 ], [ -87.660098001, 30.398174599 ], [ -87.659436502, 30.397097595 ], [ -87.658722304, 30.396249793 ], [ -87.655548804, 30.394073099 ] ] } }
]
}
