{
"type": "FeatureCollection",
"name": "USGS_03576148_DM_12km",
"crs": { "type": "name", "properties": { "name": "urn:ogc:def:crs:OGC:1.3:CRS84" } },
"features": [
{ "type": "Feature", "properties": { "site_no": "03576148", "nhdplus_comid": "19625212", "navigation_mode": "DM", "requested_distance_km": 12.0, "start_source": "nwissite", "start_id": "USGS-03576148", "geometry_length_km": 1.5788555890136482 }, "geometry": { "type": "LineString", "coordinates": [ [ -86.687375404, 34.413123295 ], [ -86.688620105, 34.414153494 ], [ -86.688869104, 34.414542794 ], [ -86.688896902, 34.414725997 ], [ -86.689256802, 34.415436 ], [ -86.689671807, 34.415985495 ], [ -86.689727306, 34.416260295 ], [ -86.689893305, 34.416489296 ], [ -86.690391101, 34.416878499 ], [ -86.690391406, 34.417222098 ], [ -86.690170705, 34.417794898 ], [ -86.690171301, 34.418619595 ], [ -86.690531507, 34.419764593 ], [ -86.690946706, 34.420497395 ], [ -86.6913063, 34.420886599 ], [ -86.691804104, 34.4211841 ], [ -86.692191102, 34.421183899 ], [ -86.693268903, 34.420931399 ], [ -86.693877004, 34.420953996 ], [ -86.695010602, 34.421228297 ], [ -86.695259705, 34.421503 ], [ -86.695260003, 34.4219153 ], [ -86.694790803, 34.422900595 ], [ -86.694735706, 34.423175499 ] ] } },
{ "type": "Feature", "properties": { "site_no": "03576148", "nhdplus_comid": "19625154", "navigation_mode": "DM", "requested_distance_km": 12.0, "start_source": "nwissite", "start_id": "USGS-03576148", "geometry_length_km": 0.1166009995643222 }, "geometry": { "type": "LineString", "coordinates": [ [ -86.694735706, 34.423175499 ], [ -86.694543101, 34.424206398 ] ] } },
{ "type": "Feature", "properties": { "site_no": "03576148", "nhdplus_comid": "19625148", "navigation_mode": "DM", "requested_distance_km": 12.0, "start_source": "nwissite", "start_id": "USGS-03576148", "geometry_length_km": 1.8277443188126825 }, "geometry": { "type": "LineString", "coordinates": [ [ -86.694543101, 34.424206398 ], [ -86.694570906, 34.424504094 ], [ -86.694986001, 34.424916193 ], [ -86.695732802, 34.425350994 ], [ -86.695733204, 34.425923698 ], [ -86.695567802, 34.426404893 ], [ -86.695595801, 34.426840097 ], [ -86.695927903, 34.427320793 ], [ -86.696315303, 34.427778699 ], [ -86.696287706, 34.427962095 ], [ -86.695735201, 34.428351894 ], [ -86.695735402, 34.428580895 ], [ -86.6964266, 34.428740896 ], [ -86.696730904, 34.428946793 ], [ -86.696980305, 34.429633893 ], [ -86.696953006, 34.430000395 ], [ -86.695847303, 34.430161394 ], [ -86.695432805, 34.430344895 ], [ -86.695294701, 34.430551097 ], [ -86.6952122, 34.431055099 ], [ -86.695323102, 34.431398593 ], [ -86.695378907, 34.432200298 ], [ -86.695766605, 34.432864398 ], [ -86.695988402, 34.433665894 ], [ -86.696570106, 34.4349484 ], [ -86.696543001, 34.4356815 ], [ -86.696128905, 34.436391793 ], [ -86.695825502, 34.437308297 ], [ -86.695770703, 34.437858097 ] ] } },
{ "type": "Feature", "properties": { "site_no": "03576148", "nhdplus_comid": "19625020", "navigation_mode": "DM", "requested_distance_km": 12.0, "start_source": "nwissite", "start_id": "USGS-03576148", "geometry_length_km": 1.8289759951762057 }, "geometry": { "type": "LineString", "coordinates": [ [ -86.695770703, 34.437858097 ], [ -86.695827104, 34.439232394 ], [ -86.695938103, 34.439644597 ], [ -86.696380705, 34.440033793 ], [ -86.697237901, 34.440193594 ], [ -86.698260903, 34.440192997 ], [ -86.6986202, 34.440078296 ], [ -86.699145101, 34.439619794 ], [ -86.699089505, 34.4391388 ], [ -86.6992274, 34.438909799 ], [ -86.699420907, 34.438772194 ], [ -86.699780405, 34.438817799 ], [ -86.701440401, 34.440030895 ], [ -86.701800503, 34.440809399 ], [ -86.701912105, 34.441885993 ], [ -86.701663405, 34.442046493 ], [ -86.700999506, 34.441817798 ], [ -86.700750701, 34.441863798 ], [ -86.700585403, 34.442550994 ], [ -86.700696506, 34.443100795 ], [ -86.701001003, 34.443558693 ], [ -86.702025004, 34.444543093 ], [ -86.702495307, 34.444771796 ], [ -86.703241907, 34.444931693 ], [ -86.704900801, 34.444770299 ] ] } },
{ "type": "Feature", "properties": { "site_no": "03576148", "nhdplus_comid": "19624978", "navigation_mode": "DM", "requested_distance_km": 12.0, "start_source": "nwissite", "start_id": "USGS-03576148", "geometry_length_km": 0.080480502168260956 }, "geometry": { "type": "LineString", "coordinates": [ [ -86.704900801, 34.444770299 ], [ -86.705564104, 34.444472097 ], [ -86.705619305, 34.444380395 ] ] } },
{ "type": "Feature", "properties": { "site_no": "03576148", "nhdplus_comid": "19624980", "navigation_mode": "DM", "requested_distance_km": 12.0, "start_source": "nwissite", "start_id": "USGS-03576148", "geometry_length_km": 1.2206272455806495 }, "geometry": { "type": "LineString", "coordinates": [ [ -86.705619305, 34.444380395 ], [ -86.706255004, 34.444173895 ], [ -86.707775101, 34.443371095 ], [ -86.708106801, 34.443393894 ], [ -86.708356, 34.443622798 ], [ -86.7086889, 34.444813699 ], [ -86.708717003, 34.445317596 ], [ -86.7088001, 34.445432097 ], [ -86.7088283, 34.446004696 ], [ -86.709105305, 34.446485594 ], [ -86.709381804, 34.446485497 ], [ -86.709934503, 34.446164399 ], [ -86.709962003, 34.446026899 ], [ -86.710514605, 34.445614196 ], [ -86.710735805, 34.445636995 ], [ -86.712201804, 34.446231499 ], [ -86.713778406, 34.446688496 ], [ -86.714165702, 34.4468944 ], [ -86.714414902, 34.4471462 ], [ -86.714442804, 34.447375193 ] ] } },
{ "type": "Feature", "properties": { "site_no": "03576148", "nhdplus_comid": "19624960", "navigation_mode": "DM", "requested_distance_km": 12.0, "start_source": "nwissite", "start_id": "USGS-03576148", "geometry_length_km": 0.73132709557793185 }, "geometry": { "type": "LineString", "coordinates": [ [ -86.714442804, 34.447375193 ], [ -86.713917404, 34.447467193 ], [ -86.713392004, 34.447421797 ], [ -86.712064505, 34.447124995 ], [ -86.711483605, 34.446919195 ], [ -86.711207204, 34.446988098 ], [ -86.711152203, 34.447217196 ], [ -86.711373501, 34.447400294 ], [ -86.711622506, 34.447491795 ], [ -86.711954705, 34.447880998 ], [ -86.7120381, 34.448361896 ], [ -86.7122043, 34.4486138 ], [ -86.712508507, 34.448705293 ], [ -86.713420503, 34.4482923 ], [ -86.714305505, 34.448245898 ] ] } },
{ "type": "Feature", "properties": { "site_no": "03576148", "nhdplus_comid": "19624948", "navigation_mode": "DM", "requested_distance_km": 12.0, "start_source": "nwissite", "start_id": "USGS-03576148", "geometry_length_km": 0.2785968025092132 }, "geometry": { "type": "LineString", "coordinates": [ [ -86.714305505, 34.448245898 ], [ -86.715163, 34.448657595 ], [ -86.715688303, 34.448519699 ], [ -86.715992503, 34.448542394 ], [ -86.716739304, 34.448793896 ], [ -86.717043601, 34.4489998 ] ] } },
{ "type": "Feature", "properties": { "site_no": "03576148", "nhdplus_comid": "19624942", "navigation_mode": "DM", "requested_distance_km": 12.0, "start_source": "nwissite", "start_id": "USGS-03576148", "geometry_length_km": 1.5057345284349339 }, "geometry": { "type": "LineString", "coordinates": [ [ -86.717043601, 34.4489998 ], [ -86.717237704, 34.449480698 ], [ -86.717404701, 34.450442597 ], [ -86.717349805, 34.450832099 ], [ -86.7170185, 34.451313294 ], [ -86.7166593, 34.451565497 ], [ -86.715526007, 34.451978698 ], [ -86.715415604, 34.452139094 ], [ -86.715360604, 34.452528596 ], [ -86.715471603, 34.452757597 ], [ -86.715637602, 34.452849098 ], [ -86.716411605, 34.452642396 ], [ -86.716660507, 34.452687994 ], [ -86.716771305, 34.452802494 ], [ -86.7166887, 34.453168996 ], [ -86.716384903, 34.453604497 ], [ -86.715473406, 34.454521395 ], [ -86.715501502, 34.454910897 ], [ -86.716137402, 34.454818696 ], [ -86.716358706, 34.455001794 ], [ -86.7163314, 34.4553454 ], [ -86.715006106, 34.457201794 ], [ -86.714011706, 34.458370693 ], [ -86.713431202, 34.458531395 ] ] } },
{ "type": "Feature", "properties": { "site_no": "03576148", "nhdplus_comid": "19624878", "navigation_mode": "DM", "requested_distance_km": 12.0, "start_source": "nwissite", "start_id": "USGS-03576148", "geometry_length_km": 1.9562507866761281 }, "geometry": { "type": "LineString", "coordinates": [ [ -86.713431202, 34.458531395 ], [ -86.712131403, 34.458509393 ], [ -86.712020904, 34.458601199 ], [ -86.711552002, 34.459884293 ], [ -86.711663201, 34.460456796 ], [ -86.712106206, 34.460960396 ], [ -86.712300204, 34.461326897 ], [ -86.712412201, 34.462701097 ], [ -86.712938502, 34.463594198 ], [ -86.713713601, 34.464234993 ], [ -86.714405403, 34.464509398 ], [ -86.715622105, 34.464416899 ], [ -86.716617502, 34.464187093 ], [ -86.717364207, 34.464163594 ], [ -86.717613205, 34.464323796 ], [ -86.717751801, 34.464529797 ], [ -86.717724405, 34.464781798 ], [ -86.7171994, 34.465194598 ], [ -86.717199706, 34.465492293 ], [ -86.717448607, 34.4654921 ], [ -86.718111701, 34.4649648 ], [ -86.718471304, 34.464987494 ], [ -86.719135307, 34.465215996 ], [ -86.72027, 34.465993993 ], [ -86.721017607, 34.466680698 ], [ -86.721239403, 34.467138596 ], [ -86.721240006, 34.467596695 ], [ -86.721074305, 34.467894696 ], [ -86.7209085, 34.467940599 ] ] } },
{ "type": "Feature", "properties": { "site_no": "03576148", "nhdplus_comid": "19624824", "navigation_mode": "DM", "requested_distance_km": 12.0, "start_source": "nwissite", "start_id": "USGS-03576148", "geometry_length_km": 2.9444750003261206 }, "geometry": { "type": "LineString", "coordinates": [ [ -86.7209085, 34.467940599 ], [ -86.720631704, 34.467826299 ], [ -86.719108902, 34.466384195 ], [ -86.718694106, 34.466430299 ], [ -86.718335301, 34.467026196 ], [ -86.718280807, 34.467759296 ], [ -86.7179773, 34.468446799 ], [ -86.717424303, 34.468653299 ], [ -86.717258602, 34.4689283 ], [ -86.717038803, 34.470279895 ], [ -86.716238901, 34.472296193 ], [ -86.7161569, 34.473235495 ], [ -86.716046602, 34.473487496 ], [ -86.715162307, 34.474198297 ], [ -86.713921301, 34.477910094 ], [ -86.713811301, 34.478459798 ], [ -86.713645704, 34.478849396 ], [ -86.713343203, 34.480682097 ], [ -86.713371903, 34.481598295 ], [ -86.713510603, 34.481987596 ], [ -86.714452401, 34.4832009 ], [ -86.716252506, 34.485100999 ], [ -86.717498504, 34.486153699 ], [ -86.718578704, 34.487412795 ], [ -86.718689702, 34.4877792 ] ] } }
]
}
